{
"type": "FeatureCollection",
"name": "roads",
"crs": { "type": "name", "properties": { "name": "urn:ogc:def:crs:EPSG::32618" } },
"xy_coordinate_resolution": 0.01,
"features": [
{ "type": "Feature", "properties": { "id": "osm:way/6038696", "name": "West 42nd Street", "highway": "residential", "lanes": null, "width": 7.0, "oneway": false, "surface": null, "footway": null, "sidewalk_left": null, "sidewalk_right": null, "generated_sidewalk": true, "bus_lanes": null, "bus_lane_side": null, "bus_only": false, "sidewalk": false, "bridge": false, "ramp": false, "tunnel": false, "layer": 0, "deck": null }, "geometry": { "type": "LineString", "coordinates": [ [ 281267.38, 4155750.0 ], [ 281270.35, 4155754.51 ], [ 281302.08, 4155797.6 ], [ 281310.82, 4155809.5 ] ] } },
{ "type": "Feature", "properties": { "id": "osm:way/821018538", "name": null, "highway": "service", "lanes": null, "width": 4.5, "oneway": false, "surface": null, "footway": null, "sidewalk_left": false, "sidewalk_right": false, "generated_sidewalk": false, "bus_lanes": null, "bus_lane_side": null, "bus_only": false, "sidewalk": false, "bridge": false, "ramp": false, "tunnel": false, "layer": 0, "deck": null }, "geometry": { "type": "LineString", "coordinates": [ [ 281302.08, 4155797.6 ], [ 281280.99, 4155804.55 ], [ 281250.0, 4155819.7 ] ] } },
{ "type": "Feature", "properties": { "id": "osm:way/305756048", "name": "Buttermilk Heights Trail", "highway": "path", "lanes": null, "width": 1.5, "oneway": false, "surface": "unpaved", "footway": null, "sidewalk_left": false, "sidewalk_right": false, "generated_sidewalk": false, "bus_lanes": null, "bus_lane_side": null, "bus_only": false, "sidewalk": false, "bridge": false, "ramp": false, "tunnel": false, "layer": 0, "deck": null }, "geometry": { "type": "LineString", "coordinates": [ [ 281363.35, 4155887.59 ], [ 281361.25, 4155884.01 ], [ 281351.77, 4155877.67 ], [ 281340.04, 4155873.66 ], [ 281332.64, 4155872.2 ], [ 281324.04, 4155870.07 ], [ 281315.29, 4155870.77 ], [ 281307.73, 4155872.16 ], [ 281297.58, 4155874.31 ], [ 281288.21, 4155878.33 ], [ 281279.12, 4155884.71 ], [ 281273.33, 4155889.83 ], [ 281271.34, 4155895.55 ], [ 281268.92, 4155902.94 ] ] } },
{ "type": "Feature", "properties": { "id": "osm:way/358227630", "name": null, "highway": "path", "lanes": null, "width": 1.5, "oneway": false, "surface": null, "footway": null, "sidewalk_left": false, "sidewalk_right": false, "generated_sidewalk": false, "bus_lanes": null, "bus_lane_side": null, "bus_only": false, "sidewalk": false, "bridge": false, "ramp": false, "tunnel": false, "layer": 0, "deck": null }, "geometry": { "type": "LineString", "coordinates": [ [ 281273.24, 4155930.11 ], [ 281267.76, 4155936.92 ], [ 281261.15, 4155937.01 ], [ 281255.3, 4155936.34 ], [ 281250.0, 4155935.08 ] ] } },
{ "type": "Feature", "properties": { "id": "osm:way/856166959", "name": null, "highway": "path", "lanes": null, "width": 1.5, "oneway": false, "surface": null, "footway": null, "sidewalk_left": false, "sidewalk_right": false, "generated_sidewalk": false, "bus_lanes": null, "bus_lane_side": null, "bus_only": false, "sidewalk": false, "bridge": false, "ramp": false, "tunnel": false, "layer": 0, "deck": null }, "geometry": { "type": "LineString", "coordinates": [ [ 281268.92, 4155902.94 ], [ 281262.72, 4155909.74 ], [ 281253.24, 4155912.31 ], [ 281250.0, 4155912.05 ] ] } },
{ "type": "Feature", "properties": { "id": "osm:way/856166958", "name": "Buttermilk Heights Trail", "highway": "path", "lanes": null, "width": 1.5, "oneway": false, "surface": "unpaved", "footway": null, "sidewalk_left": false, "sidewalk_right": false, "generated_sidewalk": false, "bus_lanes": null, "bus_lane_side": null, "bus_only": false, "sidewalk": false, "bridge": false, "ramp": false, "tunnel": false, "layer": 0, "deck": null }, "geometry": { "type": "LineString", "coordinates": [ [ 281268.92, 4155902.94 ], [ 281268.17, 4155910.52 ], [ 281268.8, 4155916.17 ], [ 281270.15, 4155922.52 ], [ 281273.24, 4155930.11 ], [ 281280.39, 4155940.98 ], [ 281287.92, 4155947.63 ], [ 281297.74, 4155952.26 ], [ 281301.44, 4155957.59 ], [ 281302.82, 4155963.01 ], [ 281302.48, 4155969.85 ], [ 281300.07, 4155986.68 ], [ 281297.19, 4155993.42 ], [ 281296.67, 4155997.53 ], [ 281295.31, 4156000.0 ] ] } },
{ "type": "Feature", "properties": { "id": "osm:way/235764536", "name": "Buttermilk Heights (Abandoned Quarry Loop)", "highway": "path", "lanes": null, "width": 1.5, "oneway": false, "surface": "unpaved", "footway": null, "sidewalk_left": false, "sidewalk_right": false, "generated_sidewalk": false, "bus_lanes": null, "bus_lane_side": null, "bus_only": false, "sidewalk": false, "bridge": false, "ramp": false, "tunnel": false, "layer": 0, "deck": null }, "geometry": { "type": "LineString", "coordinates": [ [ 281250.0, 4155964.64 ], [ 281258.67, 4155967.59 ], [ 281265.19, 4155975.18 ], [ 281267.15, 4155983.47 ], [ 281271.47, 4155992.93 ], [ 281270.55, 4156000.0 ] ] } },
{ "type": "Feature", "properties": { "id": "osm:way/854239141", "name": "Buttermilk Heights Trail", "highway": "path", "lanes": null, "width": 1.5, "oneway": false, "surface": "ground", "footway": null, "sidewalk_left": false, "sidewalk_right": false, "generated_sidewalk": false, "bus_lanes": null, "bus_lane_side": null, "bus_only": false, "sidewalk": false, "bridge": false, "ramp": false, "tunnel": false, "layer": 0, "deck": null }, "geometry": { "type": "LineString", "coordinates": [ [ 281500.0, 4155860.26 ], [ 281490.74, 4155869.49 ], [ 281479.18, 4155877.43 ], [ 281468.63, 4155884.91 ], [ 281462.74, 4155886.64 ], [ 281456.78, 4155891.54 ], [ 281451.4, 4155894.78 ], [ 281446.43, 4155896.19 ], [ 281439.19, 4155899.76 ], [ 281435.43, 4155904.69 ], [ 281431.84, 4155909.01 ], [ 281426.58, 4155915.89 ], [ 281421.41, 4155920.11 ], [ 281411.18, 4155922.55 ], [ 281400.37, 4155924.9 ], [ 281387.84, 4155928.64 ], [ 281377.59, 4155935.49 ], [ 281379.69, 4155940.44 ], [ 281374.59, 4155955.27 ], [ 281368.48, 4155965.0 ], [ 281364.12, 4155970.0 ], [ 281357.01, 4155972.83 ], [ 281346.48, 4155976.13 ], [ 281339.18, 4155982.02 ], [ 281327.19, 4155996.14 ], [ 281322.67, 4155998.57 ], [ 281320.01, 4156000.0 ] ] } },
{ "type": "Feature", "properties": { "id": "osm:way/6040250", "name": "Riverside Drive", "highway": "tertiary", "lanes": null, "width": 8.0, "oneway": false, "surface": "paved", "footway": null, "sidewalk_left": null, "sidewalk_right": null, "generated_sidewalk": true, "bus_lanes": null, "bus_lane_side": null, "bus_only": false, "sidewalk": false, "bridge": false, "ramp": false, "tunnel": false, "layer": 0, "deck": null }, "geometry": { "type": "LineString", "coordinates": [ [ 281250.0, 4155892.82 ], [ 281284.22, 4155872.9 ], [ 281293.55, 4155868.4 ], [ 281306.49, 4155864.58 ], [ 281326.58, 4155862.4 ], [ 281342.77, 4155866.07 ], [ 281353.02, 4155870.52 ], [ 281368.12, 4155878.07 ], [ 281380.59, 4155882.04 ], [ 281389.72, 4155883.35 ], [ 281397.56, 4155882.61 ], [ 281405.65, 4155880.92 ], [ 281415.26, 4155877.83 ], [ 281427.48, 4155872.01 ], [ 281437.28, 4155865.79 ], [ 281447.07, 4155858.22 ], [ 281461.96, 4155845.08 ], [ 281478.28, 4155832.01 ], [ 281487.71, 4155825.84 ], [ 281500.0, 4155821.05 ] ] } },
{ "type": "Feature", "properties": { "id": "osm:way/339997440", "name": "JRPS Maintenance Access Trail", "highway": "service", "lanes": null, "width": 4.5, "oneway": false, "surface": "ground", "footway": null, "sidewalk_left": false, "sidewalk_right": false, "generated_sidewalk": false, "bus_lanes": null, "bus_lane_side": null, "bus_only": false, "sidewalk": false, "bridge": false, "ramp": false, "tunnel": false, "layer": 0, "deck": null }, "geometry": { "type": "LineString", "coordinates": [ [ 281500.0, 4155970.02 ], [ 281490.97, 4155976.37 ], [ 281477.23, 4155988.33 ], [ 281463.83, 4155999.99 ], [ 281463.83, 4156000.0 ] ] } },
{ "type": "Feature", "properties": { "id": "osm:way/6036615", "name": "Hillcrest Circle", "highway": "residential", "lanes": null, "width": 7.0, "oneway": false, "surface": null, "footway": null, "sidewalk_left": null, "sidewalk_right": null, "generated_sidewalk": true, "bus_lanes": null, "bus_lane_side": null, "bus_only": false, "sidewalk": false, "bridge": false, "ramp": false, "tunnel": false, "layer": 0, "deck": null }, "geometry": { "type": "LineString", "coordinates": [ [ 281406.94, 4155773.44 ], [ 281399.25, 4155808.55 ] ] } },
{ "type": "Feature", "properties": { "id": "osm:way/6035423", "name": "Hillcrest Road", "highway": "residential", "lanes": null, "width": 7.0, "oneway": false, "surface": null, "footway": null, "sidewalk_left": null, "sidewalk_right": null, "generated_sidewalk": true, "bus_lanes": null, "bus_lane_side": null, "bus_only": false, "sidewalk": false, "bridge": false, "ramp": false, "tunnel": false, "layer": 0, "deck": null }, "geometry": { "type": "MultiLineString", "coordinates": [ [ [ 281500.0, 4155751.33 ], [ 281449.45, 4155771.34 ], [ 281436.11, 4155774.43 ], [ 281429.15, 4155775.17 ], [ 281416.55, 4155774.89 ], [ 281406.94, 4155773.44 ], [ 281397.48, 4155770.57 ], [ 281364.09, 4155750.0 ] ], [ [ 281279.8, 4155750.0 ], [ 281270.35, 4155754.51 ], [ 281250.0, 4155764.86 ] ] ] } },
{ "type": "Feature", "properties": { "id": "osm:way/827792705", "name": "Hillcrest Circle", "highway": "residential", "lanes": null, "width": 7.0, "oneway": false, "surface": null, "footway": null, "sidewalk_left": null, "sidewalk_right": null, "generated_sidewalk": true, "bus_lanes": null, "bus_lane_side": null, "bus_only": false, "sidewalk": false, "bridge": false, "ramp": false, "tunnel": false, "layer": 0, "deck": null }, "geometry": { "type": "LineString", "coordinates": [ [ 281399.25, 4155808.55 ], [ 281401.58, 4155809.56 ], [ 281403.35, 4155811.39 ], [ 281404.29, 4155813.76 ], [ 281404.24, 4155816.3 ], [ 281403.22, 4155818.64 ], [ 281401.38, 4155820.4 ], [ 281399.01, 4155821.33 ], [ 281396.45, 4155821.28 ], [ 281394.11, 4155820.27 ], [ 281392.34, 4155818.44 ], [ 281391.4, 4155816.07 ], [ 281391.45, 4155813.53 ], [ 281392.48, 4155811.19 ], [ 281394.32, 4155809.43 ], [ 281396.69, 4155808.51 ], [ 281399.25, 4155808.55 ] ] } },
{ "type": "Feature", "properties": { "id": "osm:way/1050609209", "name": "West 42nd Street", "highway": "residential", "lanes": null, "width": 7.0, "oneway": true, "surface": null, "footway": null, "sidewalk_left": null, "sidewalk_right": null, "generated_sidewalk": true, "bus_lanes": null, "bus_lane_side": null, "bus_only": false, "sidewalk": false, "bridge": false, "ramp": false, "tunnel": false, "layer": 0, "deck": null }, "geometry": { "type": "LineString", "coordinates": [ [ 281326.58, 4155862.4 ], [ 281322.47, 4155855.6 ], [ 281311.76, 4155817.75 ], [ 281310.82, 4155809.5 ] ] } },
{ "type": "Feature", "properties": { "id": "osm:way/1050609210", "name": "West 42nd Street", "highway": "residential", "lanes": null, "width": 7.0, "oneway": true, "surface": null, "footway": null, "sidewalk_left": null, "sidewalk_right": null, "generated_sidewalk": true, "bus_lanes": null, "bus_lane_side": null, "bus_only": false, "sidewalk": false, "bridge": false, "ramp": false, "tunnel": false, "layer": 0, "deck": null }, "geometry": { "type": "LineString", "coordinates": [ [ 281310.82, 4155809.5 ], [ 281316.56, 4155816.79 ], [ 281321.0, 4155831.19 ], [ 281328.22, 4155854.59 ], [ 281326.58, 4155862.4 ] ] } },
{ "type": "Feature", "properties": { "id": "osm:way/856166964", "name": "Buttermilk Heights Trail", "highway": "path", "lanes": null, "width": 1.5, "oneway": false, "surface": "ground", "footway": null, "sidewalk_left": false, "sidewalk_right": false, "generated_sidewalk": false, "bus_lanes": null, "bus_lane_side": null, "bus_only": false, "sidewalk": false, "bridge": false, "ramp": false, "tunnel": false, "layer": 0, "deck": null }, "geometry": { "type": "LineString", "coordinates": [ [ 281363.35, 4155887.59 ], [ 281368.12, 4155878.07 ] ] } },
{ "type": "Feature", "properties": { "id": "osm:way/297600418", "name": "Buttermilk Heights Trail", "highway": "path", "lanes": null, "width": 1.5, "oneway": false, "surface": "ground", "footway": null, "sidewalk_left": false, "sidewalk_right": false, "generated_sidewalk": false, "bus_lanes": null, "bus_lane_side": null, "bus_only": false, "sidewalk": false, "bridge": false, "ramp": false, "tunnel": false, "layer": 0, "deck": null }, "geometry": { "type": "LineString", "coordinates": [ [ 281322.67, 4155998.57 ], [ 281324.81, 4155990.12 ], [ 281325.2, 4155981.72 ], [ 281323.41, 4155972.8 ], [ 281321.23, 4155956.78 ], [ 281321.39, 4155944.84 ], [ 281322.26, 4155936.19 ], [ 281324.69, 4155929.82 ], [ 281328.26, 4155926.36 ], [ 281333.19, 4155925.99 ], [ 281339.33, 4155936.77 ], [ 281344.0, 4155944.17 ], [ 281349.5, 4155947.61 ], [ 281352.86, 4155947.56 ], [ 281355.51, 4155946.47 ], [ 281356.34, 4155944.4 ], [ 281355.87, 4155941.45 ], [ 281354.85, 4155938.31 ], [ 281351.8, 4155934.84 ], [ 281349.38, 4155930.06 ], [ 281347.5, 4155924.8 ], [ 281342.29, 4155917.4 ], [ 281339.06, 4155907.41 ], [ 281338.17, 4155901.98 ], [ 281338.15, 4155896.57 ], [ 281339.43, 4155892.3 ], [ 281342.21, 4155892.66 ], [ 281347.82, 4155901.48 ], [ 281355.43, 4155905.78 ], [ 281363.97, 4155906.6 ], [ 281366.76, 4155904.59 ], [ 281366.75, 4155901.75 ], [ 281363.87, 4155898.79 ], [ 281362.78, 4155895.69 ], [ 281363.35, 4155887.59 ] ] } },
{ "type": "Feature", "properties": { "id": "osm:way/305163739", "name": null, "highway": "path", "lanes": null, "width": 1.5, "oneway": false, "surface": null, "footway": null, "sidewalk_left": false, "sidewalk_right": false, "generated_sidewalk": false, "bus_lanes": null, "bus_lane_side": null, "bus_only": false, "sidewalk": false, "bridge": false, "ramp": false, "tunnel": false, "layer": 0, "deck": null }, "geometry": { "type": "LineString", "coordinates": [ [ 281494.02, 4155997.94 ], [ 281477.23, 4155988.33 ] ] } },
{ "type": "Feature", "properties": { "id": "osm:way/305178806", "name": "Reedy Creek Trail", "highway": "footway", "lanes": null, "width": 2.0, "oneway": false, "surface": "ground", "footway": null, "sidewalk_left": false, "sidewalk_right": false, "generated_sidewalk": false, "bus_lanes": null, "bus_lane_side": null, "bus_only": false, "sidewalk": false, "bridge": false, "ramp": false, "tunnel": false, "layer": 0, "deck": null }, "geometry": { "type": "LineString", "coordinates": [ [ 281500.0, 4155994.36 ], [ 281494.02, 4155997.94 ], [ 281493.98, 4156000.0 ] ] } }
]
}
