{
"type": "FeatureCollection",
"name": "roads",
"crs": { "type": "name", "properties": { "name": "urn:ogc:def:crs:EPSG::32618" } },
"xy_coordinate_resolution": 0.01,
"features": [
{ "type": "Feature", "properties": { "id": "osm:way/899572739", "name": "Semmes Avenue", "highway": "primary", "lanes": 2.0, "width": 11.0, "oneway": true, "surface": "asphalt", "footway": null, "sidewalk_left": null, "sidewalk_right": false, "generated_sidewalk": true, "bus_lanes": null, "bus_lane_side": null, "bus_only": false, "sidewalk": false, "bridge": false, "ramp": false, "tunnel": false, "layer": 0, "deck": null }, "geometry": { "type": "LineString", "coordinates": [ [ 283000.0, 4155544.39 ], [ 283009.07, 4155548.53 ] ] } },
{ "type": "Feature", "properties": { "id": "osm:way/1367640910", "name": "Semmes Avenue", "highway": "primary", "lanes": 2.0, "width": 11.0, "oneway": true, "surface": "asphalt", "footway": null, "sidewalk_left": null, "sidewalk_right": false, "generated_sidewalk": true, "bus_lanes": null, "bus_lane_side": null, "bus_only": false, "sidewalk": false, "bridge": false, "ramp": false, "tunnel": false, "layer": 0, "deck": null }, "geometry": { "type": "LineString", "coordinates": [ [ 283005.22, 4155556.91 ], [ 283000.0, 4155554.49 ] ] } },
{ "type": "Feature", "properties": { "id": "osm:way/1013628913", "name": null, "highway": "service", "lanes": null, "width": 4.5, "oneway": false, "surface": null, "footway": null, "sidewalk_left": false, "sidewalk_right": false, "generated_sidewalk": false, "bus_lanes": null, "bus_lane_side": null, "bus_only": false, "sidewalk": false, "bridge": false, "ramp": false, "tunnel": false, "layer": 0, "deck": null }, "geometry": { "type": "LineString", "coordinates": [ [ 283049.06, 4155500.0 ], [ 283037.6, 4155525.09 ] ] } },
{ "type": "Feature", "properties": { "id": "osm:way/1426544226", "name": null, "highway": "footway", "lanes": null, "width": 2.0, "oneway": false, "surface": "concrete", "footway": "sidewalk", "sidewalk_left": false, "sidewalk_right": false, "generated_sidewalk": false, "bus_lanes": null, "bus_lane_side": null, "bus_only": false, "sidewalk": false, "bridge": false, "ramp": false, "tunnel": false, "layer": 0, "deck": null }, "geometry": { "type": "LineString", "coordinates": [ [ 283000.0, 4155537.4 ], [ 283086.13, 4155576.94 ], [ 283088.35, 4155577.21 ], [ 283090.49, 4155576.83 ], [ 283092.47, 4155575.97 ], [ 283094.06, 4155574.82 ], [ 283095.36, 4155572.38 ], [ 283103.01, 4155555.92 ], [ 283112.0, 4155536.45 ], [ 283112.42, 4155535.2 ], [ 283112.22, 4155533.44 ], [ 283114.02, 4155532.25 ] ] } },
{ "type": "Feature", "properties": { "id": "osm:way/1013628906", "name": null, "highway": "service", "lanes": null, "width": 4.5, "oneway": false, "surface": null, "footway": null, "sidewalk_left": false, "sidewalk_right": false, "generated_sidewalk": false, "bus_lanes": null, "bus_lane_side": null, "bus_only": false, "sidewalk": false, "bridge": false, "ramp": false, "tunnel": false, "layer": 0, "deck": null }, "geometry": { "type": "LineString", "coordinates": [ [ 283108.4, 4155558.45 ], [ 283103.01, 4155555.92 ], [ 283037.6, 4155525.09 ], [ 283002.43, 4155508.93 ] ] } },
{ "type": "Feature", "properties": { "id": "osm:way/6040055", "name": "West 22nd Street", "highway": "residential", "lanes": null, "width": 7.0, "oneway": false, "surface": null, "footway": null, "sidewalk_left": null, "sidewalk_right": null, "generated_sidewalk": true, "bus_lanes": null, "bus_lane_side": null, "bus_only": false, "sidewalk": false, "bridge": false, "ramp": false, "tunnel": false, "layer": 0, "deck": null }, "geometry": { "type": "LineString", "coordinates": [ [ 283009.07, 4155548.53 ], [ 283005.22, 4155556.91 ] ] } },
{ "type": "Feature", "properties": { "id": "osm:way/1367640911", "name": "Semmes Avenue", "highway": "primary", "lanes": 2.0, "width": 11.0, "oneway": true, "surface": "asphalt", "footway": null, "sidewalk_left": null, "sidewalk_right": null, "generated_sidewalk": true, "bus_lanes": null, "bus_lane_side": null, "bus_only": false, "sidewalk": false, "bridge": false, "ramp": false, "tunnel": false, "layer": 0, "deck": null }, "geometry": { "type": "LineString", "coordinates": [ [ 283024.1, 4155565.79 ], [ 283005.22, 4155556.91 ] ] } },
{ "type": "Feature", "properties": { "id": "osm:way/1367640908", "name": "Semmes Avenue", "highway": "primary", "lanes": 2.0, "width": 11.0, "oneway": true, "surface": "asphalt", "footway": null, "sidewalk_left": null, "sidewalk_right": false, "generated_sidewalk": true, "bus_lanes": null, "bus_lane_side": null, "bus_only": false, "sidewalk": false, "bridge": false, "ramp": false, "tunnel": false, "layer": 0, "deck": null }, "geometry": { "type": "LineString", "coordinates": [ [ 283009.07, 4155548.53 ], [ 283094.44, 4155588.61 ] ] } },
{ "type": "Feature", "properties": { "id": "osm:way/924034716", "name": null, "highway": "service", "lanes": null, "width": 4.5, "oneway": false, "surface": null, "footway": null, "sidewalk_left": false, "sidewalk_right": false, "generated_sidewalk": false, "bus_lanes": null, "bus_lane_side": null, "bus_only": false, "sidewalk": false, "bridge": false, "ramp": false, "tunnel": false, "layer": 0, "deck": null }, "geometry": { "type": "LineString", "coordinates": [ [ 283042.97, 4155587.99 ], [ 283038.59, 4155587.56 ], [ 283033.06, 4155585.71 ], [ 283024.34, 4155581.88 ], [ 283021.14, 4155578.6 ], [ 283020.78, 4155574.94 ], [ 283022.06, 4155569.72 ], [ 283024.1, 4155565.79 ] ] } },
{ "type": "Feature", "properties": { "id": "osm:way/924034715", "name": null, "highway": "service", "lanes": null, "width": 4.5, "oneway": false, "surface": null, "footway": null, "sidewalk_left": false, "sidewalk_right": false, "generated_sidewalk": false, "bus_lanes": null, "bus_lane_side": null, "bus_only": false, "sidewalk": false, "bridge": false, "ramp": false, "tunnel": false, "layer": 0, "deck": null }, "geometry": { "type": "LineString", "coordinates": [ [ 283000.0, 4155585.58 ], [ 283002.7, 4155586.92 ], [ 283017.76, 4155593.96 ], [ 283031.6, 4155598.99 ], [ 283037.88, 4155600.3 ], [ 283041.62, 4155597.83 ], [ 283043.52, 4155591.56 ], [ 283042.97, 4155587.99 ], [ 283043.15, 4155585.1 ], [ 283046.95, 4155576.53 ] ] } },
{ "type": "Feature", "properties": { "id": "osm:way/1013628908", "name": "Boro Ridge Street", "highway": "residential", "lanes": null, "width": 7.0, "oneway": false, "surface": "asphalt", "footway": null, "sidewalk_left": null, "sidewalk_right": null, "generated_sidewalk": true, "bus_lanes": null, "bus_lane_side": null, "bus_only": false, "sidewalk": false, "bridge": false, "ramp": false, "tunnel": false, "layer": 0, "deck": null }, "geometry": { "type": "LineString", "coordinates": [ [ 283121.11, 4155530.62 ], [ 283116.12, 4155528.33 ], [ 283054.36, 4155500.0 ] ] } },
{ "type": "Feature", "properties": { "id": "osm:way/1426544227", "name": null, "highway": "footway", "lanes": null, "width": 2.0, "oneway": false, "surface": null, "footway": "crossing", "sidewalk_left": false, "sidewalk_right": false, "generated_sidewalk": false, "bus_lanes": null, "bus_lane_side": null, "bus_only": false, "sidewalk": false, "bridge": false, "ramp": false, "tunnel": false, "layer": 0, "deck": null }, "geometry": { "type": "LineString", "coordinates": [ [ 283114.02, 4155532.25 ], [ 283116.12, 4155528.33 ], [ 283118.07, 4155524.67 ] ] } },
{ "type": "Feature", "properties": { "id": "osm:way/6032914", "name": "West 21st Street", "highway": "residential", "lanes": null, "width": 7.0, "oneway": false, "surface": "asphalt", "footway": null, "sidewalk_left": false, "sidewalk_right": null, "generated_sidewalk": true, "bus_lanes": null, "bus_lane_side": null, "bus_only": false, "sidewalk": false, "bridge": false, "ramp": false, "tunnel": false, "layer": 0, "deck": null }, "geometry": { "type": "LineString", "coordinates": [ [ 283135.02, 4155500.0 ], [ 283133.22, 4155503.91 ], [ 283121.11, 4155530.62 ], [ 283108.4, 4155558.45 ], [ 283094.44, 4155588.61 ] ] } },
{ "type": "Feature", "properties": { "id": "osm:way/1013628907", "name": null, "highway": "service", "lanes": null, "width": 4.5, "oneway": false, "surface": null, "footway": null, "sidewalk_left": false, "sidewalk_right": false, "generated_sidewalk": false, "bus_lanes": null, "bus_lane_side": null, "bus_only": false, "sidewalk": false, "bridge": false, "ramp": false, "tunnel": false, "layer": 0, "deck": null }, "geometry": { "type": "LineString", "coordinates": [ [ 283108.4, 4155558.45 ], [ 283142.37, 4155574.23 ] ] } },
{ "type": "Feature", "properties": { "id": "osm:way/1366374764", "name": "Semmes Avenue", "highway": "primary", "lanes": 2.0, "width": 11.0, "oneway": true, "surface": "asphalt", "footway": null, "sidewalk_left": null, "sidewalk_right": null, "generated_sidewalk": true, "bus_lanes": null, "bus_lane_side": null, "bus_only": false, "sidewalk": false, "bridge": false, "ramp": false, "tunnel": false, "layer": 0, "deck": null }, "geometry": { "type": "LineString", "coordinates": [ [ 283090.42, 4155597.43 ], [ 283073.33, 4155588.93 ], [ 283046.95, 4155576.53 ], [ 283024.1, 4155565.79 ] ] } },
{ "type": "Feature", "properties": { "id": "osm:way/1366374765", "name": "West 21st Street", "highway": "residential", "lanes": null, "width": 7.0, "oneway": false, "surface": "asphalt", "footway": null, "sidewalk_left": null, "sidewalk_right": null, "generated_sidewalk": true, "bus_lanes": null, "bus_lane_side": null, "bus_only": false, "sidewalk": false, "bridge": false, "ramp": false, "tunnel": false, "layer": 0, "deck": null }, "geometry": { "type": "LineString", "coordinates": [ [ 283094.44, 4155588.61 ], [ 283090.42, 4155597.43 ] ] } },
{ "type": "Feature", "properties": { "id": "osm:way/1213424309", "name": null, "highway": "footway", "lanes": null, "width": 2.0, "oneway": false, "surface": null, "footway": "sidewalk", "sidewalk_left": false, "sidewalk_right": false, "generated_sidewalk": false, "bus_lanes": null, "bus_lane_side": null, "bus_only": false, "sidewalk": false, "bridge": false, "ramp": false, "tunnel": false, "layer": 0, "deck": null }, "geometry": { "type": "LineString", "coordinates": [ [ 283087.1, 4155621.94 ], [ 283092.17, 4155610.91 ], [ 283093.13, 4155609.51 ], [ 283094.49, 4155608.8 ], [ 283096.09, 4155608.52 ], [ 283097.85, 4155608.71 ], [ 283099.55, 4155609.34 ], [ 283105.07, 4155612.55 ] ] } },
{ "type": "Feature", "properties": { "id": "osm:way/1213424308", "name": null, "highway": "footway", "lanes": null, "width": 2.0, "oneway": false, "surface": null, "footway": "crossing", "sidewalk_left": false, "sidewalk_right": false, "generated_sidewalk": false, "bus_lanes": null, "bus_lane_side": null, "bus_only": false, "sidewalk": false, "bridge": false, "ramp": false, "tunnel": false, "layer": 0, "deck": null }, "geometry": { "type": "LineString", "coordinates": [ [ 283114.86, 4155618.09 ], [ 283109.32, 4155614.96 ], [ 283105.07, 4155612.55 ] ] } },
{ "type": "Feature", "properties": { "id": "osm:way/1062372620", "name": null, "highway": "service", "lanes": null, "width": 4.5, "oneway": false, "surface": null, "footway": null, "sidewalk_left": false, "sidewalk_right": false, "generated_sidewalk": false, "bus_lanes": null, "bus_lane_side": null, "bus_only": false, "sidewalk": false, "bridge": false, "ramp": false, "tunnel": false, "layer": 0, "deck": null }, "geometry": { "type": "LineString", "coordinates": [ [ 283112.9, 4155609.28 ], [ 283109.32, 4155614.96 ], [ 283107.27, 4155618.21 ], [ 283101.45, 4155617.65 ], [ 283095.82, 4155620.17 ], [ 283091.05, 4155623.95 ], [ 283089.01, 4155627.55 ], [ 283084.66, 4155627.22 ], [ 283076.88, 4155626.62 ] ] } },
{ "type": "Feature", "properties": { "id": "osm:way/304334586", "name": "Semmes Avenue", "highway": "primary", "lanes": 2.0, "width": 11.0, "oneway": true, "surface": "asphalt", "footway": null, "sidewalk_left": null, "sidewalk_right": false, "generated_sidewalk": true, "bus_lanes": null, "bus_lane_side": null, "bus_only": false, "sidewalk": false, "bridge": false, "ramp": false, "tunnel": false, "layer": 0, "deck": null }, "geometry": { "type": "LineString", "coordinates": [ [ 283172.86, 4155644.62 ], [ 283156.68, 4155634.59 ], [ 283146.6, 4155628.35 ], [ 283128.45, 4155617.93 ], [ 283112.9, 4155609.28 ], [ 283107.21, 4155606.12 ], [ 283090.42, 4155597.43 ] ] } },
{ "type": "Feature", "properties": { "id": "osm:way/1013628909", "name": "Tobacco Mill Street", "highway": "residential", "lanes": null, "width": 7.0, "oneway": false, "surface": "asphalt", "footway": null, "sidewalk_left": null, "sidewalk_right": null, "generated_sidewalk": true, "bus_lanes": null, "bus_lane_side": null, "bus_only": false, "sidewalk": false, "bridge": false, "ramp": false, "tunnel": false, "layer": 0, "deck": null }, "geometry": { "type": "LineString", "coordinates": [ [ 283196.49, 4155500.0 ], [ 283226.05, 4155513.47 ] ] } },
{ "type": "Feature", "properties": { "id": "osm:way/1013628911", "name": "West 20th Street", "highway": "residential", "lanes": null, "width": 7.0, "oneway": false, "surface": "asphalt", "footway": null, "sidewalk_left": null, "sidewalk_right": null, "generated_sidewalk": true, "bus_lanes": null, "bus_lane_side": null, "bus_only": false, "sidewalk": false, "bridge": false, "ramp": false, "tunnel": false, "layer": 0, "deck": null }, "geometry": { "type": "LineString", "coordinates": [ [ 283210.75, 4155547.16 ], [ 283213.55, 4155541.0 ], [ 283226.05, 4155513.47 ], [ 283232.31, 4155500.0 ] ] } },
{ "type": "Feature", "properties": { "id": "osm:way/1013628910", "name": null, "highway": "service", "lanes": null, "width": 4.5, "oneway": false, "surface": null, "footway": null, "sidewalk_left": false, "sidewalk_right": false, "generated_sidewalk": false, "bus_lanes": null, "bus_lane_side": null, "bus_only": false, "sidewalk": false, "bridge": false, "ramp": false, "tunnel": false, "layer": 0, "deck": null }, "geometry": { "type": "LineString", "coordinates": [ [ 283133.22, 4155503.91 ], [ 283213.55, 4155541.0 ] ] } },
{ "type": "Feature", "properties": { "id": "osm:way/1213424304", "name": null, "highway": "footway", "lanes": null, "width": 2.0, "oneway": false, "surface": null, "footway": "crossing", "sidewalk_left": false, "sidewalk_right": false, "generated_sidewalk": false, "bus_lanes": null, "bus_lane_side": null, "bus_only": false, "sidewalk": false, "bridge": false, "ramp": false, "tunnel": false, "layer": 0, "deck": null }, "geometry": { "type": "LineString", "coordinates": [ [ 283158.21, 4155642.72 ], [ 283153.88, 4155640.58 ], [ 283148.28, 4155637.8 ] ] } },
{ "type": "Feature", "properties": { "id": "osm:way/1062372619", "name": null, "highway": "service", "lanes": null, "width": 4.5, "oneway": false, "surface": null, "footway": null, "sidewalk_left": false, "sidewalk_right": false, "generated_sidewalk": false, "bus_lanes": null, "bus_lane_side": null, "bus_only": false, "sidewalk": false, "bridge": false, "ramp": false, "tunnel": false, "layer": 0, "deck": null }, "geometry": { "type": "LineString", "coordinates": [ [ 283156.68, 4155634.59 ], [ 283153.88, 4155640.58 ], [ 283145.12, 4155659.39 ], [ 283129.98, 4155652.34 ] ] } },
{ "type": "Feature", "properties": { "id": "osm:way/1303963712", "name": null, "highway": "footway", "lanes": null, "width": 2.0, "oneway": false, "surface": "concrete", "footway": "sidewalk", "sidewalk_left": false, "sidewalk_right": false, "generated_sidewalk": false, "bus_lanes": null, "bus_lane_side": null, "bus_only": false, "sidewalk": false, "bridge": false, "ramp": false, "tunnel": false, "layer": 0, "deck": null }, "geometry": { "type": "LineString", "coordinates": [ [ 283161.9, 4155650.2 ], [ 283164.47, 4155650.42 ] ] } },
{ "type": "Feature", "properties": { "id": "osm:way/1303963714", "name": null, "highway": "footway", "lanes": null, "width": 2.0, "oneway": false, "surface": "asphalt", "footway": "crossing", "sidewalk_left": false, "sidewalk_right": false, "generated_sidewalk": false, "bus_lanes": null, "bus_lane_side": null, "bus_only": false, "sidewalk": false, "bridge": false, "ramp": false, "tunnel": false, "layer": 0, "deck": null }, "geometry": { "type": "LineString", "coordinates": [ [ 283164.47, 4155650.42 ], [ 283168.58, 4155653.61 ], [ 283173.56, 4155657.47 ] ] } },
{ "type": "Feature", "properties": { "id": "osm:way/1213424303", "name": null, "highway": "footway", "lanes": null, "width": 2.0, "oneway": false, "surface": null, "footway": "sidewalk", "sidewalk_left": false, "sidewalk_right": false, "generated_sidewalk": false, "bus_lanes": null, "bus_lane_side": null, "bus_only": false, "sidewalk": false, "bridge": false, "ramp": false, "tunnel": false, "layer": 0, "deck": null }, "geometry": { "type": "LineString", "coordinates": [ [ 283152.02, 4155672.61 ], [ 283161.29, 4155652.09 ], [ 283161.9, 4155650.2 ], [ 283162.1, 4155648.03 ], [ 283161.51, 4155645.99 ], [ 283160.32, 4155644.58 ], [ 283158.21, 4155642.72 ] ] } },
{ "type": "Feature", "properties": { "id": "osm:way/1303963713", "name": null, "highway": "footway", "lanes": null, "width": 2.0, "oneway": false, "surface": "concrete", "footway": "sidewalk", "sidewalk_left": false, "sidewalk_right": false, "generated_sidewalk": false, "bus_lanes": null, "bus_lane_side": null, "bus_only": false, "sidewalk": false, "bridge": false, "ramp": false, "tunnel": false, "layer": 0, "deck": null }, "geometry": { "type": "LineString", "coordinates": [ [ 283173.56, 4155657.47 ], [ 283174.54, 4155659.46 ] ] } },
{ "type": "Feature", "properties": { "id": "osm:way/1366374766", "name": "Semmes Avenue", "highway": "primary", "lanes": 2.0, "width": 11.0, "oneway": true, "surface": "asphalt", "footway": null, "sidewalk_left": null, "sidewalk_right": null, "generated_sidewalk": true, "bus_lanes": null, "bus_lane_side": null, "bus_only": false, "sidewalk": false, "bridge": false, "ramp": false, "tunnel": false, "layer": 0, "deck": null }, "geometry": { "type": "LineString", "coordinates": [ [ 283094.44, 4155588.61 ], [ 283142.4, 4155610.03 ], [ 283163.51, 4155620.65 ], [ 283173.86, 4155626.57 ], [ 283179.58, 4155629.84 ], [ 283197.02, 4155640.23 ], [ 283250.0, 4155672.86 ] ] } },
{ "type": "Feature", "properties": { "id": "osm:way/1213424307", "name": null, "highway": "footway", "lanes": null, "width": 2.0, "oneway": false, "surface": null, "footway": "crossing", "sidewalk_left": false, "sidewalk_right": false, "generated_sidewalk": false, "bus_lanes": null, "bus_lane_side": null, "bus_only": false, "sidewalk": false, "bridge": false, "ramp": false, "tunnel": false, "layer": 0, "deck": null }, "geometry": { "type": "LineString", "coordinates": [ [ 283082.6, 4155631.66 ], [ 283084.66, 4155627.22 ], [ 283087.1, 4155621.94 ] ] } },
{ "type": "Feature", "properties": { "id": "osm:way/1213424305", "name": null, "highway": "footway", "lanes": null, "width": 2.0, "oneway": false, "surface": null, "footway": "sidewalk", "sidewalk_left": false, "sidewalk_right": false, "generated_sidewalk": false, "bus_lanes": null, "bus_lane_side": null, "bus_only": false, "sidewalk": false, "bridge": false, "ramp": false, "tunnel": false, "layer": 0, "deck": null }, "geometry": { "type": "LineString", "coordinates": [ [ 283148.28, 4155637.8 ], [ 283132.8, 4155628.22 ], [ 283114.86, 4155618.09 ] ] } },
{ "type": "Feature", "properties": { "id": "osm:way/1213424306", "name": null, "highway": "footway", "lanes": null, "width": 2.0, "oneway": false, "surface": null, "footway": "sidewalk", "sidewalk_left": false, "sidewalk_right": false, "generated_sidewalk": false, "bus_lanes": null, "bus_lane_side": null, "bus_only": false, "sidewalk": false, "bridge": false, "ramp": false, "tunnel": false, "layer": 0, "deck": null }, "geometry": { "type": "LineString", "coordinates": [ [ 283078.8, 4155640.78 ], [ 283082.6, 4155631.66 ] ] } },
{ "type": "Feature", "properties": { "id": "osm:way/1213424288", "name": null, "highway": "footway", "lanes": null, "width": 2.0, "oneway": false, "surface": null, "footway": "crossing", "sidewalk_left": false, "sidewalk_right": false, "generated_sidewalk": false, "bus_lanes": null, "bus_lane_side": null, "bus_only": false, "sidewalk": false, "bridge": false, "ramp": false, "tunnel": false, "layer": 0, "deck": null }, "geometry": { "type": "LineString", "coordinates": [ [ 283062.96, 4155638.56 ], [ 283064.41, 4155637.18 ], [ 283066.68, 4155635.01 ] ] } },
{ "type": "Feature", "properties": { "id": "osm:way/1213424287", "name": null, "highway": "footway", "lanes": null, "width": 2.0, "oneway": false, "surface": null, "footway": "crossing", "sidewalk_left": false, "sidewalk_right": false, "generated_sidewalk": false, "bus_lanes": null, "bus_lane_side": null, "bus_only": false, "sidewalk": false, "bridge": false, "ramp": false, "tunnel": false, "layer": 0, "deck": null }, "geometry": { "type": "LineString", "coordinates": [ [ 283076.94, 4155644.5 ], [ 283077.58, 4155643.22 ], [ 283078.8, 4155640.78 ] ] } },
{ "type": "Feature", "properties": { "id": "osm:way/866217165", "name": null, "highway": "service", "lanes": null, "width": 4.5, "oneway": false, "surface": null, "footway": null, "sidewalk_left": false, "sidewalk_right": false, "generated_sidewalk": false, "bus_lanes": null, "bus_lane_side": null, "bus_only": false, "sidewalk": false, "bridge": false, "ramp": false, "tunnel": false, "layer": 0, "deck": null }, "geometry": { "type": "LineString", "coordinates": [ [ 283070.78, 4155640.06 ], [ 283077.58, 4155643.22 ], [ 283101.7, 4155654.39 ], [ 283126.69, 4155666.42 ], [ 283149.56, 4155675.81 ], [ 283151.15, 4155676.46 ], [ 283156.45, 4155679.12 ] ] } },
{ "type": "Feature", "properties": { "id": "osm:way/1213424286", "name": null, "highway": "footway", "lanes": null, "width": 2.0, "oneway": false, "surface": null, "footway": "sidewalk", "sidewalk_left": false, "sidewalk_right": false, "generated_sidewalk": false, "bus_lanes": null, "bus_lane_side": null, "bus_only": false, "sidewalk": false, "bridge": false, "ramp": false, "tunnel": false, "layer": 0, "deck": null }, "geometry": { "type": "LineString", "coordinates": [ [ 283049.7, 4155700.54 ], [ 283051.53, 4155698.65 ], [ 283076.94, 4155644.5 ] ] } },
{ "type": "Feature", "properties": { "id": "osm:way/1213424317", "name": null, "highway": "footway", "lanes": null, "width": 2.0, "oneway": false, "surface": null, "footway": "crossing", "sidewalk_left": false, "sidewalk_right": false, "generated_sidewalk": false, "bus_lanes": null, "bus_lane_side": null, "bus_only": false, "sidewalk": false, "bridge": false, "ramp": false, "tunnel": false, "layer": 0, "deck": null }, "geometry": { "type": "LineString", "coordinates": [ [ 283123.59, 4155734.61 ], [ 283129.6, 4155737.49 ], [ 283135.98, 4155740.56 ] ] } },
{ "type": "Feature", "properties": { "id": "osm:way/1213424311", "name": null, "highway": "footway", "lanes": null, "width": 2.0, "oneway": false, "surface": null, "footway": "crossing", "sidewalk_left": false, "sidewalk_right": false, "generated_sidewalk": false, "bus_lanes": null, "bus_lane_side": null, "bus_only": false, "sidewalk": false, "bridge": false, "ramp": false, "tunnel": false, "layer": 0, "deck": null }, "geometry": { "type": "LineString", "coordinates": [ [ 283118.58, 4155745.41 ], [ 283121.08, 4155740.0 ], [ 283123.59, 4155734.61 ] ] } },
{ "type": "Feature", "properties": { "id": "osm:way/1213424316", "name": null, "highway": "footway", "lanes": null, "width": 2.0, "oneway": false, "surface": null, "footway": "crossing", "sidewalk_left": false, "sidewalk_right": false, "generated_sidewalk": false, "bus_lanes": null, "bus_lane_side": null, "bus_only": false, "sidewalk": false, "bridge": false, "ramp": false, "tunnel": false, "layer": 0, "deck": null }, "geometry": { "type": "LineString", "coordinates": [ [ 283131.52, 4155750.0 ], [ 283133.54, 4155745.74 ], [ 283135.98, 4155740.56 ] ] } },
{ "type": "Feature", "properties": { "id": "osm:way/908402446", "name": null, "highway": "service", "lanes": null, "width": 4.5, "oneway": false, "surface": null, "footway": null, "sidewalk_left": false, "sidewalk_right": false, "generated_sidewalk": false, "bus_lanes": null, "bus_lane_side": null, "bus_only": false, "sidewalk": false, "bridge": false, "ramp": false, "tunnel": false, "layer": 0, "deck": null }, "geometry": { "type": "LineString", "coordinates": [ [ 283000.0, 4155606.86 ], [ 283007.62, 4155610.02 ], [ 283027.88, 4155620.24 ], [ 283034.38, 4155623.52 ], [ 283064.41, 4155637.18 ], [ 283070.78, 4155640.06 ] ] } },
{ "type": "Feature", "properties": { "id": "osm:way/908402447", "name": null, "highway": "service", "lanes": null, "width": 4.5, "oneway": false, "surface": null, "footway": null, "sidewalk_left": false, "sidewalk_right": false, "generated_sidewalk": false, "bus_lanes": null, "bus_lane_side": null, "bus_only": false, "sidewalk": false, "bridge": false, "ramp": false, "tunnel": false, "layer": 0, "deck": null }, "geometry": { "type": "LineString", "coordinates": [ [ 283027.88, 4155620.24 ], [ 283020.71, 4155634.56 ], [ 283011.63, 4155657.82 ], [ 283001.07, 4155677.37 ], [ 283000.0, 4155679.37 ] ] } },
{ "type": "Feature", "properties": { "id": "osm:way/1213424281", "name": null, "highway": "footway", "lanes": null, "width": 2.0, "oneway": false, "surface": null, "footway": "sidewalk", "sidewalk_left": false, "sidewalk_right": false, "generated_sidewalk": false, "bus_lanes": null, "bus_lane_side": null, "bus_only": false, "sidewalk": false, "bridge": false, "ramp": false, "tunnel": false, "layer": 0, "deck": null }, "geometry": { "type": "LineString", "coordinates": [ [ 283036.89, 4155694.26 ], [ 283062.96, 4155638.56 ] ] } },
{ "type": "Feature", "properties": { "id": "osm:way/1213424278", "name": null, "highway": "footway", "lanes": null, "width": 2.0, "oneway": false, "surface": null, "footway": "sidewalk", "sidewalk_left": false, "sidewalk_right": false, "generated_sidewalk": false, "bus_lanes": null, "bus_lane_side": null, "bus_only": false, "sidewalk": false, "bridge": false, "ramp": false, "tunnel": false, "layer": 0, "deck": null }, "geometry": { "type": "LineString", "coordinates": [ [ 283000.0, 4155676.87 ], [ 283001.07, 4155677.37 ], [ 283036.89, 4155694.26 ], [ 283038.38, 4155694.96 ] ] } },
{ "type": "Feature", "properties": { "id": "osm:way/1367640909", "name": "West 22nd Street", "highway": "residential", "lanes": null, "width": 7.0, "oneway": false, "surface": null, "footway": null, "sidewalk_left": null, "sidewalk_right": null, "generated_sidewalk": true, "bus_lanes": null, "bus_lane_side": null, "bus_only": false, "sidewalk": false, "bridge": false, "ramp": false, "tunnel": false, "layer": 0, "deck": null }, "geometry": { "type": "LineString", "coordinates": [ [ 283005.22, 4155556.91 ], [ 283000.0, 4155568.38 ] ] } },
{ "type": "Feature", "properties": { "id": "osm:way/1213424284", "name": null, "highway": "footway", "lanes": null, "width": 2.0, "oneway": false, "surface": null, "footway": "crossing", "sidewalk_left": false, "sidewalk_right": false, "generated_sidewalk": false, "bus_lanes": null, "bus_lane_side": null, "bus_only": false, "sidewalk": false, "bridge": false, "ramp": false, "tunnel": false, "layer": 0, "deck": null }, "geometry": { "type": "LineString", "coordinates": [ [ 283038.38, 4155694.96 ], [ 283043.92, 4155697.69 ], [ 283049.7, 4155700.54 ] ] } },
{ "type": "Feature", "properties": { "id": "osm:way/1213424282", "name": null, "highway": "footway", "lanes": null, "width": 2.0, "oneway": false, "surface": null, "footway": "crossing", "sidewalk_left": false, "sidewalk_right": false, "generated_sidewalk": false, "bus_lanes": null, "bus_lane_side": null, "bus_only": false, "sidewalk": false, "bridge": false, "ramp": false, "tunnel": false, "layer": 0, "deck": null }, "geometry": { "type": "LineString", "coordinates": [ [ 283033.28, 4155705.55 ], [ 283035.63, 4155700.67 ], [ 283038.38, 4155694.96 ] ] } },
{ "type": "Feature", "properties": { "id": "osm:way/693428908", "name": "Springhill Avenue", "highway": "residential", "lanes": null, "width": 7.0, "oneway": false, "surface": null, "footway": null, "sidewalk_left": null, "sidewalk_right": false, "generated_sidewalk": true, "bus_lanes": null, "bus_lane_side": null, "bus_only": false, "sidewalk": false, "bridge": false, "ramp": false, "tunnel": false, "layer": 0, "deck": null }, "geometry": { "type": "LineString", "coordinates": [ [ 283000.0, 4155684.6 ], [ 283035.63, 4155700.67 ], [ 283041.34, 4155703.24 ], [ 283047.42, 4155706.05 ], [ 283083.53, 4155722.69 ], [ 283121.08, 4155740.0 ], [ 283127.15, 4155742.8 ] ] } },
{ "type": "Feature", "properties": { "id": "osm:way/1213424285", "name": null, "highway": "footway", "lanes": null, "width": 2.0, "oneway": false, "surface": null, "footway": "crossing", "sidewalk_left": false, "sidewalk_right": false, "generated_sidewalk": false, "bus_lanes": null, "bus_lane_side": null, "bus_only": false, "sidewalk": false, "bridge": false, "ramp": false, "tunnel": false, "layer": 0, "deck": null }, "geometry": { "type": "LineString", "coordinates": [ [ 283045.17, 4155711.45 ], [ 283047.42, 4155706.05 ], [ 283049.7, 4155700.54 ] ] } },
{ "type": "Feature", "properties": { "id": "osm:way/1213424283", "name": null, "highway": "footway", "lanes": null, "width": 2.0, "oneway": false, "surface": null, "footway": "crossing", "sidewalk_left": false, "sidewalk_right": false, "generated_sidewalk": false, "bus_lanes": null, "bus_lane_side": null, "bus_only": false, "sidewalk": false, "bridge": false, "ramp": false, "tunnel": false, "layer": 0, "deck": null }, "geometry": { "type": "LineString", "coordinates": [ [ 283045.17, 4155711.45 ], [ 283039.0, 4155708.39 ], [ 283033.28, 4155705.55 ] ] } },
{ "type": "Feature", "properties": { "id": "osm:way/1131852934", "name": null, "highway": "service", "lanes": null, "width": 4.5, "oneway": false, "surface": null, "footway": null, "sidewalk_left": false, "sidewalk_right": false, "generated_sidewalk": false, "bus_lanes": null, "bus_lane_side": null, "bus_only": false, "sidewalk": false, "bridge": false, "ramp": false, "tunnel": false, "layer": 0, "deck": null }, "geometry": { "type": "LineString", "coordinates": [ [ 283145.12, 4155659.39 ], [ 283150.49, 4155674.59 ], [ 283151.15, 4155676.46 ] ] } },
{ "type": "Feature", "properties": { "id": "osm:way/1213424302", "name": null, "highway": "footway", "lanes": null, "width": 2.0, "oneway": false, "surface": null, "footway": "crossing", "sidewalk_left": false, "sidewalk_right": false, "generated_sidewalk": false, "bus_lanes": null, "bus_lane_side": null, "bus_only": false, "sidewalk": false, "bridge": false, "ramp": false, "tunnel": false, "layer": 0, "deck": null }, "geometry": { "type": "LineString", "coordinates": [ [ 283148.25, 4155677.51 ], [ 283149.56, 4155675.81 ], [ 283150.49, 4155674.59 ], [ 283152.02, 4155672.61 ] ] } },
{ "type": "Feature", "properties": { "id": "osm:way/1213424319", "name": null, "highway": "footway", "lanes": null, "width": 2.0, "oneway": false, "surface": "gravel", "footway": "crossing", "sidewalk_left": false, "sidewalk_right": false, "generated_sidewalk": false, "bus_lanes": null, "bus_lane_side": null, "bus_only": false, "sidewalk": false, "bridge": false, "ramp": false, "tunnel": false, "layer": 0, "deck": null }, "geometry": { "type": "LineString", "coordinates": [ [ 283161.69, 4155684.54 ], [ 283162.67, 4155682.47 ], [ 283163.69, 4155680.33 ] ] } },
{ "type": "Feature", "properties": { "id": "osm:way/693428909", "name": "West 20th Street", "highway": "residential", "lanes": null, "width": 7.0, "oneway": false, "surface": null, "footway": null, "sidewalk_left": null, "sidewalk_right": null, "generated_sidewalk": true, "bus_lanes": null, "bus_lane_side": null, "bus_only": false, "sidewalk": false, "bridge": false, "ramp": false, "tunnel": false, "layer": 0, "deck": null }, "geometry": { "type": "LineString", "coordinates": [ [ 283172.86, 4155644.62 ], [ 283168.58, 4155653.61 ], [ 283156.45, 4155679.12 ], [ 283129.6, 4155737.49 ], [ 283127.15, 4155742.8 ] ] } },
{ "type": "Feature", "properties": { "id": "osm:way/693428910", "name": "Semmes Avenue", "highway": "primary", "lanes": 2.0, "width": 11.0, "oneway": true, "surface": "asphalt", "footway": null, "sidewalk_left": null, "sidewalk_right": null, "generated_sidewalk": true, "bus_lanes": null, "bus_lane_side": null, "bus_only": false, "sidewalk": false, "bridge": false, "ramp": false, "tunnel": false, "layer": 0, "deck": null }, "geometry": { "type": "LineString", "coordinates": [ [ 283250.0, 4155692.4 ], [ 283172.86, 4155644.62 ] ] } },
{ "type": "Feature", "properties": { "id": "osm:way/820853559", "name": null, "highway": "service", "lanes": null, "width": 4.5, "oneway": false, "surface": null, "footway": null, "sidewalk_left": false, "sidewalk_right": false, "generated_sidewalk": false, "bus_lanes": null, "bus_lane_side": null, "bus_only": false, "sidewalk": false, "bridge": false, "ramp": false, "tunnel": false, "layer": 0, "deck": null }, "geometry": { "type": "LineString", "coordinates": [ [ 283156.45, 4155679.12 ], [ 283162.67, 4155682.47 ], [ 283170.55, 4155686.54 ], [ 283193.88, 4155697.0 ], [ 283200.61, 4155700.14 ], [ 283242.27, 4155719.57 ] ] } },
{ "type": "Feature", "properties": { "id": "osm:way/1213424310", "name": null, "highway": "footway", "lanes": null, "width": 2.0, "oneway": false, "surface": null, "footway": "sidewalk", "sidewalk_left": false, "sidewalk_right": false, "generated_sidewalk": false, "bus_lanes": null, "bus_lane_side": null, "bus_only": false, "sidewalk": false, "bridge": false, "ramp": false, "tunnel": false, "layer": 0, "deck": null }, "geometry": { "type": "LineString", "coordinates": [ [ 283148.25, 4155677.51 ], [ 283122.85, 4155732.71 ], [ 283123.59, 4155734.61 ] ] } },
{ "type": "Feature", "properties": { "id": "osm:way/1213424318", "name": null, "highway": "footway", "lanes": null, "width": 2.0, "oneway": false, "surface": null, "footway": "sidewalk", "sidewalk_left": false, "sidewalk_right": false, "generated_sidewalk": false, "bus_lanes": null, "bus_lane_side": null, "bus_only": false, "sidewalk": false, "bridge": false, "ramp": false, "tunnel": false, "layer": 0, "deck": null }, "geometry": { "type": "LineString", "coordinates": [ [ 283135.98, 4155740.56 ], [ 283138.33, 4155737.7 ], [ 283161.69, 4155684.54 ] ] } },
{ "type": "Feature", "properties": { "id": "osm:way/908402448", "name": null, "highway": "service", "lanes": null, "width": 4.5, "oneway": false, "surface": null, "footway": null, "sidewalk_left": false, "sidewalk_right": false, "generated_sidewalk": false, "bus_lanes": null, "bus_lane_side": null, "bus_only": false, "sidewalk": false, "bridge": false, "ramp": false, "tunnel": false, "layer": 0, "deck": null }, "geometry": { "type": "LineString", "coordinates": [ [ 283176.67, 4155750.0 ], [ 283181.83, 4155737.32 ], [ 283200.61, 4155700.14 ] ] } },
{ "type": "Feature", "properties": { "id": "osm:way/1303963711", "name": null, "highway": "footway", "lanes": null, "width": 2.0, "oneway": false, "surface": "concrete", "footway": "sidewalk", "sidewalk_left": false, "sidewalk_right": false, "generated_sidewalk": false, "bus_lanes": null, "bus_lane_side": null, "bus_only": false, "sidewalk": false, "bridge": false, "ramp": false, "tunnel": false, "layer": 0, "deck": null }, "geometry": { "type": "LineString", "coordinates": [ [ 283250.0, 4155704.98 ], [ 283244.75, 4155701.69 ], [ 283225.38, 4155689.74 ], [ 283210.94, 4155680.5 ], [ 283193.74, 4155668.87 ], [ 283180.41, 4155659.74 ], [ 283178.94, 4155658.95 ], [ 283177.8, 4155658.73 ], [ 283176.75, 4155658.72 ], [ 283175.61, 4155659.01 ], [ 283174.54, 4155659.46 ], [ 283173.64, 4155660.06 ], [ 283172.99, 4155660.79 ], [ 283172.4, 4155661.75 ], [ 283163.69, 4155680.33 ] ] } },
{ "type": "Feature", "properties": { "id": "osm:way/1213424289", "name": null, "highway": "footway", "lanes": null, "width": 2.0, "oneway": false, "surface": null, "footway": "sidewalk", "sidewalk_left": false, "sidewalk_right": false, "generated_sidewalk": false, "bus_lanes": null, "bus_lane_side": null, "bus_only": false, "sidewalk": false, "bridge": false, "ramp": false, "tunnel": false, "layer": 0, "deck": null }, "geometry": { "type": "LineString", "coordinates": [ [ 283045.17, 4155711.45 ], [ 283046.14, 4155713.36 ] ] } },
{ "type": "Feature", "properties": { "id": "osm:way/1366374763", "name": "West 21st Street", "highway": "residential", "lanes": null, "width": 7.0, "oneway": false, "surface": "asphalt", "footway": null, "sidewalk_left": null, "sidewalk_right": null, "generated_sidewalk": true, "bus_lanes": null, "bus_lane_side": null, "bus_only": false, "sidewalk": false, "bridge": false, "ramp": false, "tunnel": false, "layer": 0, "deck": null }, "geometry": { "type": "LineString", "coordinates": [ [ 283090.42, 4155597.43 ], [ 283076.88, 4155626.62 ], [ 283070.78, 4155640.06 ], [ 283043.92, 4155697.69 ], [ 283041.34, 4155703.24 ], [ 283039.0, 4155708.39 ], [ 283020.14, 4155750.0 ] ] } },
{ "type": "Feature", "properties": { "id": "osm:way/1213424301", "name": null, "highway": "footway", "lanes": null, "width": 2.0, "oneway": false, "surface": null, "footway": "sidewalk", "sidewalk_left": false, "sidewalk_right": false, "generated_sidewalk": false, "bus_lanes": null, "bus_lane_side": null, "bus_only": false, "sidewalk": false, "bridge": false, "ramp": false, "tunnel": false, "layer": 0, "deck": null }, "geometry": { "type": "LineString", "coordinates": [ [ 283011.88, 4155750.0 ], [ 283031.62, 4155707.3 ], [ 283033.28, 4155705.55 ] ] } },
{ "type": "Feature", "properties": { "id": "osm:way/1213424290", "name": null, "highway": "footway", "lanes": null, "width": 2.0, "oneway": false, "surface": null, "footway": "sidewalk", "sidewalk_left": false, "sidewalk_right": false, "generated_sidewalk": false, "bus_lanes": null, "bus_lane_side": null, "bus_only": false, "sidewalk": false, "bridge": false, "ramp": false, "tunnel": false, "layer": 0, "deck": null }, "geometry": { "type": "LineString", "coordinates": [ [ 283028.84, 4155750.0 ], [ 283046.14, 4155713.36 ], [ 283080.61, 4155729.23 ] ] } },
{ "type": "Feature", "properties": { "id": "osm:way/1213424315", "name": null, "highway": "footway", "lanes": null, "width": 2.0, "oneway": false, "surface": null, "footway": "crossing", "sidewalk_left": false, "sidewalk_right": false, "generated_sidewalk": false, "bus_lanes": null, "bus_lane_side": null, "bus_only": false, "sidewalk": false, "bridge": false, "ramp": false, "tunnel": false, "layer": 0, "deck": null }, "geometry": { "type": "LineString", "coordinates": [ [ 283118.58, 4155745.41 ], [ 283124.64, 4155748.37 ], [ 283127.98, 4155750.0 ] ] } },
{ "type": "Feature", "properties": { "id": "osm:way/820853560", "name": null, "highway": "service", "lanes": null, "width": 4.5, "oneway": false, "surface": null, "footway": null, "sidewalk_left": false, "sidewalk_right": false, "generated_sidewalk": false, "bus_lanes": null, "bus_lane_side": null, "bus_only": false, "sidewalk": false, "bridge": false, "ramp": false, "tunnel": false, "layer": 0, "deck": null }, "geometry": { "type": "LineString", "coordinates": [ [ 283071.3, 4155750.0 ], [ 283080.61, 4155729.23 ], [ 283083.53, 4155722.69 ] ] } },
{ "type": "Feature", "properties": { "id": "osm:way/1213424312", "name": null, "highway": "footway", "lanes": null, "width": 2.0, "oneway": false, "surface": null, "footway": "sidewalk", "sidewalk_left": false, "sidewalk_right": false, "generated_sidewalk": false, "bus_lanes": null, "bus_lane_side": null, "bus_only": false, "sidewalk": false, "bridge": false, "ramp": false, "tunnel": false, "layer": 0, "deck": null }, "geometry": { "type": "LineString", "coordinates": [ [ 283118.58, 4155745.41 ], [ 283116.84, 4155747.06 ], [ 283115.5, 4155750.0 ] ] } },
{ "type": "Feature", "properties": { "id": "osm:way/6038897", "name": "West 20th Street", "highway": "residential", "lanes": null, "width": 7.0, "oneway": false, "surface": null, "footway": null, "sidewalk_left": null, "sidewalk_right": null, "generated_sidewalk": true, "bus_lanes": null, "bus_lane_side": null, "bus_only": false, "sidewalk": false, "bridge": false, "ramp": false, "tunnel": false, "layer": 0, "deck": null }, "geometry": { "type": "LineString", "coordinates": [ [ 283127.15, 4155742.8 ], [ 283124.64, 4155748.37 ], [ 283123.9, 4155750.0 ] ] } },
{ "type": "Feature", "properties": { "id": "osm:way/6033391", "name": "Springhill Avenue", "highway": "residential", "lanes": null, "width": 7.0, "oneway": false, "surface": null, "footway": null, "sidewalk_left": null, "sidewalk_right": false, "generated_sidewalk": true, "bus_lanes": null, "bus_lane_side": null, "bus_only": false, "sidewalk": false, "bridge": false, "ramp": false, "tunnel": false, "layer": 0, "deck": null }, "geometry": { "type": "LineString", "coordinates": [ [ 283127.15, 4155742.8 ], [ 283133.54, 4155745.74 ], [ 283142.79, 4155750.0 ] ] } },
{ "type": "Feature", "properties": { "id": "osm:way/6041046", "name": "West 19th Street", "highway": "residential", "lanes": null, "width": 7.0, "oneway": false, "surface": null, "footway": null, "sidewalk_left": null, "sidewalk_right": null, "generated_sidewalk": true, "bus_lanes": null, "bus_lane_side": null, "bus_only": false, "sidewalk": false, "bridge": false, "ramp": false, "tunnel": false, "layer": 0, "deck": null }, "geometry": { "type": "LineString", "coordinates": [ [ 283246.23, 4155710.97 ], [ 283242.27, 4155719.57 ], [ 283228.25, 4155750.0 ] ] } }
]
}
