{
"type": "FeatureCollection",
"name": "water",
"crs": { "type": "name", "properties": { "name": "urn:ogc:def:crs:EPSG::32618" } },
"xy_coordinate_resolution": 0.01,
"features": [
{ "type": "Feature", "properties": { "id": "noaa:Rivers:4", "name": "James River", "kind": "river", "water_z": null, "source": "noaa2025" }, "geometry": { "type": "Polygon", "coordinates": [ [ [ 286296.79, 4155250.0 ], [ 286296.22, 4155252.92 ], [ 286296.17, 4155253.09 ], [ 286295.02, 4155255.59 ], [ 286295.37, 4155257.04 ], [ 286295.38, 4155257.34 ], [ 286295.27, 4155257.62 ], [ 286294.7, 4155258.54 ], [ 286294.97, 4155261.03 ], [ 286294.92, 4155261.4 ], [ 286294.26, 4155263.01 ], [ 286293.99, 4155268.16 ], [ 286293.57, 4155272.45 ], [ 286292.7, 4155277.73 ], [ 286292.7, 4155278.28 ], [ 286292.02, 4155281.42 ], [ 286291.78, 4155282.87 ], [ 286291.15, 4155284.41 ], [ 286291.15, 4155284.93 ], [ 286290.81, 4155287.22 ], [ 286290.41, 4155287.87 ], [ 286289.55, 4155289.19 ], [ 286289.21, 4155289.69 ], [ 286288.08, 4155291.39 ], [ 286286.68, 4155292.9 ], [ 286284.97, 4155294.42 ], [ 286284.44, 4155296.64 ], [ 286284.83, 4155299.46 ], [ 286284.82, 4155299.73 ], [ 286284.72, 4155299.98 ], [ 286281.44, 4155305.05 ], [ 286281.19, 4155305.29 ], [ 286280.85, 4155305.39 ], [ 286279.73, 4155305.46 ], [ 286277.04, 4155304.83 ], [ 286271.5, 4155301.93 ], [ 286266.59, 4155298.23 ], [ 286260.54, 4155295.41 ], [ 286260.41, 4155295.33 ], [ 286257.95, 4155293.5 ], [ 286256.86, 4155293.55 ], [ 286255.76, 4155294.17 ], [ 286254.47, 4155296.31 ], [ 286254.26, 4155296.54 ], [ 286252.97, 4155297.46 ], [ 286252.26, 4155299.45 ], [ 286252.06, 4155302.0 ], [ 286252.63, 4155302.88 ], [ 286254.16, 4155303.39 ], [ 286254.35, 4155303.49 ], [ 286258.39, 4155306.31 ], [ 286265.83, 4155310.21 ], [ 286265.93, 4155310.27 ], [ 286269.02, 4155312.58 ], [ 286272.48, 4155314.4 ], [ 286272.73, 4155314.61 ], [ 286274.42, 4155316.37 ], [ 286275.77, 4155318.65 ], [ 286276.67, 4155320.69 ], [ 286276.71, 4155320.88 ], [ 286276.64, 4155322.36 ], [ 286277.88, 4155326.35 ], [ 286277.92, 4155326.63 ], [ 286277.62, 4155331.03 ], [ 286278.19, 4155333.95 ], [ 286278.19, 4155334.2 ], [ 286276.91, 4155343.17 ], [ 286276.73, 4155348.04 ], [ 286276.13, 4155350.34 ], [ 286275.85, 4155352.5 ], [ 286273.87, 4155360.44 ], [ 286272.97, 4155365.27 ], [ 286271.58, 4155369.04 ], [ 286270.18, 4155371.79 ], [ 286269.48, 4155372.94 ], [ 286267.82, 4155375.41 ], [ 286267.65, 4155375.68 ], [ 286267.5, 4155377.85 ], [ 286267.06, 4155380.15 ], [ 286266.04, 4155383.37 ], [ 286265.79, 4155385.12 ], [ 286265.47, 4155387.65 ], [ 286265.15, 4155389.81 ], [ 286264.71, 4155391.89 ], [ 286264.27, 4155393.49 ], [ 286263.43, 4155395.36 ], [ 286263.24, 4155396.06 ], [ 286262.55, 4155398.29 ], [ 286262.71, 4155399.2 ], [ 286262.94, 4155399.94 ], [ 286263.16, 4155400.85 ], [ 286263.04, 4155401.19 ], [ 286262.72, 4155401.69 ], [ 286262.5, 4155401.85 ], [ 286261.03, 4155402.6 ], [ 286260.89, 4155402.89 ], [ 286260.56, 4155403.68 ], [ 286260.07, 4155404.39 ], [ 286259.58, 4155404.83 ], [ 286259.04, 4155405.07 ], [ 286258.71, 4155405.52 ], [ 286258.65, 4155405.59 ], [ 286257.35, 4155409.4 ], [ 286255.65, 4155412.28 ], [ 286253.7, 4155414.37 ], [ 286252.44, 4155415.29 ], [ 286252.1, 4155415.95 ], [ 286252.22, 4155417.17 ], [ 286251.55, 4155418.79 ], [ 286250.0, 4155420.69 ], [ 286250.0, 4155500.0 ], [ 286318.25, 4155500.0 ], [ 286311.82, 4155250.0 ], [ 286296.79, 4155250.0 ] ] ] } }
]
}
