{
"type": "FeatureCollection",
"name": "pois",
"crs": { "type": "name", "properties": { "name": "urn:ogc:def:crs:EPSG::32618" } },
"xy_coordinate_resolution": 0.01,
"features": [
{ "type": "Feature", "properties": { "id": "lidar-tree:282450:4155754", "name": null, "kind": "tree", "species": null, "source": "lidar2025", "tree_height": 24.4, "crown_radius": 6.0, "height_source": "lidar2025" }, "geometry": { "type": "Point", "coordinates": [ 282450.5, 4155754.5 ] } },
{ "type": "Feature", "properties": { "id": "lidar-tree:282438:4155756", "name": null, "kind": "tree", "species": null, "source": "lidar2025", "tree_height": 26.1, "crown_radius": 6.0, "height_source": "lidar2025" }, "geometry": { "type": "Point", "coordinates": [ 282438.5, 4155755.5 ] } },
{ "type": "Feature", "properties": { "id": "lidar-tree:282428:4155756", "name": null, "kind": "tree", "species": null, "source": "lidar2025", "tree_height": 27.3, "crown_radius": 6.0, "height_source": "lidar2025" }, "geometry": { "type": "Point", "coordinates": [ 282428.5, 4155755.5 ] } },
{ "type": "Feature", "properties": { "id": "lidar-tree:282420:4155758", "name": null, "kind": "tree", "species": null, "source": "lidar2025", "tree_height": 17.2, "crown_radius": 6.0, "height_source": "lidar2025" }, "geometry": { "type": "Point", "coordinates": [ 282419.5, 4155757.5 ] } },
{ "type": "Feature", "properties": { "id": "lidar-tree:282404:4155764", "name": null, "kind": "tree", "species": null, "source": "lidar2025", "tree_height": 35.1, "crown_radius": 6.0, "height_source": "lidar2025" }, "geometry": { "type": "Point", "coordinates": [ 282403.5, 4155764.5 ] } },
{ "type": "Feature", "properties": { "id": "lidar-tree:282402:4155774", "name": null, "kind": "tree", "species": null, "source": "lidar2025", "tree_height": 37.0, "crown_radius": 6.0, "height_source": "lidar2025" }, "geometry": { "type": "Point", "coordinates": [ 282402.5, 4155773.5 ] } },
{ "type": "Feature", "properties": { "id": "lidar-tree:282464:4155754", "name": null, "kind": "tree", "species": null, "source": "lidar2025", "tree_height": 12.6, "crown_radius": 6.0, "height_source": "lidar2025" }, "geometry": { "type": "Point", "coordinates": [ 282464.5, 4155753.5 ] } },
{ "type": "Feature", "properties": { "id": "lidar-tree:282478:4155762", "name": null, "kind": "tree", "species": null, "source": "lidar2025", "tree_height": 20.4, "crown_radius": 6.0, "height_source": "lidar2025" }, "geometry": { "type": "Point", "coordinates": [ 282478.5, 4155761.5 ] } },
{ "type": "Feature", "properties": { "id": "lidar-tree:282488:4155764", "name": null, "kind": "tree", "species": null, "source": "lidar2025", "tree_height": 20.7, "crown_radius": 6.0, "height_source": "lidar2025" }, "geometry": { "type": "Point", "coordinates": [ 282488.5, 4155764.5 ] } },
{ "type": "Feature", "properties": { "id": "lidar-tree:282466:4155768", "name": null, "kind": "tree", "species": null, "source": "lidar2025", "tree_height": 20.7, "crown_radius": 6.0, "height_source": "lidar2025" }, "geometry": { "type": "Point", "coordinates": [ 282466.5, 4155768.5 ] } },
{ "type": "Feature", "properties": { "id": "lidar-tree:282484:4155774", "name": null, "kind": "tree", "species": null, "source": "lidar2025", "tree_height": 19.7, "crown_radius": 6.0, "height_source": "lidar2025" }, "geometry": { "type": "Point", "coordinates": [ 282483.5, 4155773.5 ] } },
{ "type": "Feature", "properties": { "id": "lidar-tree:282496:4155778", "name": null, "kind": "tree", "species": null, "source": "lidar2025", "tree_height": 25.9, "crown_radius": 6.0, "height_source": "lidar2025" }, "geometry": { "type": "Point", "coordinates": [ 282495.5, 4155778.5 ] } },
{ "type": "Feature", "properties": { "id": "lidar-tree:282426:4155774", "name": null, "kind": "tree", "species": null, "source": "lidar2025", "tree_height": 31.6, "crown_radius": 6.0, "height_source": "lidar2025" }, "geometry": { "type": "Point", "coordinates": [ 282425.5, 4155774.5 ] } },
{ "type": "Feature", "properties": { "id": "lidar-tree:282462:4155776", "name": null, "kind": "tree", "species": null, "source": "lidar2025", "tree_height": 18.6, "crown_radius": 6.0, "height_source": "lidar2025" }, "geometry": { "type": "Point", "coordinates": [ 282462.5, 4155776.5 ] } },
{ "type": "Feature", "properties": { "id": "lidar-tree:282448:4155778", "name": null, "kind": "tree", "species": null, "source": "lidar2025", "tree_height": 32.0, "crown_radius": 6.0, "height_source": "lidar2025" }, "geometry": { "type": "Point", "coordinates": [ 282447.5, 4155777.5 ] } },
{ "type": "Feature", "properties": { "id": "lidar-tree:282418:4155786", "name": null, "kind": "tree", "species": null, "source": "lidar2025", "tree_height": 10.8, "crown_radius": 6.0, "height_source": "lidar2025" }, "geometry": { "type": "Point", "coordinates": [ 282417.5, 4155785.5 ] } },
{ "type": "Feature", "properties": { "id": "lidar-tree:282452:4155792", "name": null, "kind": "tree", "species": null, "source": "lidar2025", "tree_height": 30.1, "crown_radius": 6.0, "height_source": "lidar2025" }, "geometry": { "type": "Point", "coordinates": [ 282451.5, 4155792.5 ] } },
{ "type": "Feature", "properties": { "id": "lidar-tree:282418:4155796", "name": null, "kind": "tree", "species": null, "source": "lidar2025", "tree_height": 11.7, "crown_radius": 6.0, "height_source": "lidar2025" }, "geometry": { "type": "Point", "coordinates": [ 282417.5, 4155795.5 ] } },
{ "type": "Feature", "properties": { "id": "lidar-tree:282404:4155796", "name": null, "kind": "tree", "species": null, "source": "lidar2025", "tree_height": 28.2, "crown_radius": 6.0, "height_source": "lidar2025" }, "geometry": { "type": "Point", "coordinates": [ 282404.5, 4155796.5 ] } },
{ "type": "Feature", "properties": { "id": "lidar-tree:282428:4155800", "name": null, "kind": "tree", "species": null, "source": "lidar2025", "tree_height": 15.8, "crown_radius": 6.0, "height_source": "lidar2025" }, "geometry": { "type": "Point", "coordinates": [ 282427.5, 4155799.5 ] } },
{ "type": "Feature", "properties": { "id": "lidar-tree:282444:4155804", "name": null, "kind": "tree", "species": null, "source": "lidar2025", "tree_height": 35.8, "crown_radius": 6.0, "height_source": "lidar2025" }, "geometry": { "type": "Point", "coordinates": [ 282444.5, 4155803.5 ] } },
{ "type": "Feature", "properties": { "id": "lidar-tree:282462:4155806", "name": null, "kind": "tree", "species": null, "source": "lidar2025", "tree_height": 27.9, "crown_radius": 6.0, "height_source": "lidar2025" }, "geometry": { "type": "Point", "coordinates": [ 282462.5, 4155805.5 ] } },
{ "type": "Feature", "properties": { "id": "lidar-tree:282478:4155782", "name": null, "kind": "tree", "species": null, "source": "lidar2025", "tree_height": 22.0, "crown_radius": 6.0, "height_source": "lidar2025" }, "geometry": { "type": "Point", "coordinates": [ 282478.5, 4155781.5 ] } },
{ "type": "Feature", "properties": { "id": "lidar-tree:282470:4155782", "name": null, "kind": "tree", "species": null, "source": "lidar2025", "tree_height": 19.3, "crown_radius": 6.0, "height_source": "lidar2025" }, "geometry": { "type": "Point", "coordinates": [ 282469.5, 4155782.5 ] } },
{ "type": "Feature", "properties": { "id": "lidar-tree:282490:4155790", "name": null, "kind": "tree", "species": null, "source": "lidar2025", "tree_height": 23.6, "crown_radius": 6.0, "height_source": "lidar2025" }, "geometry": { "type": "Point", "coordinates": [ 282489.5, 4155790.5 ] } },
{ "type": "Feature", "properties": { "id": "lidar-tree:282476:4155794", "name": null, "kind": "tree", "species": null, "source": "lidar2025", "tree_height": 28.4, "crown_radius": 6.0, "height_source": "lidar2025" }, "geometry": { "type": "Point", "coordinates": [ 282476.5, 4155794.5 ] } },
{ "type": "Feature", "properties": { "id": "lidar-tree:282470:4155800", "name": null, "kind": "tree", "species": null, "source": "lidar2025", "tree_height": 30.3, "crown_radius": 6.0, "height_source": "lidar2025" }, "geometry": { "type": "Point", "coordinates": [ 282470.5, 4155800.5 ] } },
{ "type": "Feature", "properties": { "id": "lidar-tree:282486:4155808", "name": null, "kind": "tree", "species": null, "source": "lidar2025", "tree_height": 27.0, "crown_radius": 6.0, "height_source": "lidar2025" }, "geometry": { "type": "Point", "coordinates": [ 282486.5, 4155807.5 ] } },
{ "type": "Feature", "properties": { "id": "lidar-tree:282484:4155820", "name": null, "kind": "tree", "species": null, "source": "lidar2025", "tree_height": 18.1, "crown_radius": 5.9, "height_source": "lidar2025" }, "geometry": { "type": "Point", "coordinates": [ 282483.5, 4155820.5 ] } },
{ "type": "Feature", "properties": { "id": "lidar-tree:282466:4155822", "name": null, "kind": "tree", "species": null, "source": "lidar2025", "tree_height": 33.3, "crown_radius": 6.0, "height_source": "lidar2025" }, "geometry": { "type": "Point", "coordinates": [ 282465.5, 4155821.5 ] } },
{ "type": "Feature", "properties": { "id": "lidar-tree:282492:4155826", "name": null, "kind": "tree", "species": null, "source": "lidar2025", "tree_height": 28.2, "crown_radius": 6.0, "height_source": "lidar2025" }, "geometry": { "type": "Point", "coordinates": [ 282491.5, 4155826.5 ] } },
{ "type": "Feature", "properties": { "id": "lidar-tree:282474:4155830", "name": null, "kind": "tree", "species": null, "source": "lidar2025", "tree_height": 19.8, "crown_radius": 5.6, "height_source": "lidar2025" }, "geometry": { "type": "Point", "coordinates": [ 282474.5, 4155829.5 ] } },
{ "type": "Feature", "properties": { "id": "lidar-tree:282486:4155832", "name": null, "kind": "tree", "species": null, "source": "lidar2025", "tree_height": 18.4, "crown_radius": 4.3, "height_source": "lidar2025" }, "geometry": { "type": "Point", "coordinates": [ 282486.5, 4155832.5 ] } },
{ "type": "Feature", "properties": { "id": "lidar-tree:282418:4155806", "name": null, "kind": "tree", "species": null, "source": "lidar2025", "tree_height": 21.0, "crown_radius": 6.0, "height_source": "lidar2025" }, "geometry": { "type": "Point", "coordinates": [ 282417.5, 4155806.5 ] } },
{ "type": "Feature", "properties": { "id": "lidar-tree:282414:4155818", "name": null, "kind": "tree", "species": null, "source": "lidar2025", "tree_height": 19.8, "crown_radius": 6.0, "height_source": "lidar2025" }, "geometry": { "type": "Point", "coordinates": [ 282414.5, 4155817.5 ] } },
{ "type": "Feature", "properties": { "id": "lidar-tree:282428:4155826", "name": null, "kind": "tree", "species": null, "source": "lidar2025", "tree_height": 12.7, "crown_radius": 2.0, "height_source": "lidar2025" }, "geometry": { "type": "Point", "coordinates": [ 282428.5, 4155826.5 ] } },
{ "type": "Feature", "properties": { "id": "lidar-tree:282404:4155828", "name": null, "kind": "tree", "species": null, "source": "lidar2025", "tree_height": 15.9, "crown_radius": 5.5, "height_source": "lidar2025" }, "geometry": { "type": "Point", "coordinates": [ 282404.5, 4155827.5 ] } },
{ "type": "Feature", "properties": { "id": "lidar-tree:282424:4155862", "name": null, "kind": "tree", "species": null, "source": "lidar2025", "tree_height": 24.5, "crown_radius": 6.0, "height_source": "lidar2025" }, "geometry": { "type": "Point", "coordinates": [ 282423.5, 4155862.5 ] } },
{ "type": "Feature", "properties": { "id": "lidar-tree:282444:4155864", "name": null, "kind": "tree", "species": null, "source": "lidar2025", "tree_height": 17.1, "crown_radius": 6.0, "height_source": "lidar2025" }, "geometry": { "type": "Point", "coordinates": [ 282443.5, 4155863.5 ] } },
{ "type": "Feature", "properties": { "id": "lidar-tree:282432:4155864", "name": null, "kind": "tree", "species": null, "source": "lidar2025", "tree_height": 24.4, "crown_radius": 6.0, "height_source": "lidar2025" }, "geometry": { "type": "Point", "coordinates": [ 282432.5, 4155864.5 ] } },
{ "type": "Feature", "properties": { "id": "lidar-tree:282408:4155866", "name": null, "kind": "tree", "species": null, "source": "lidar2025", "tree_height": 24.6, "crown_radius": 6.0, "height_source": "lidar2025" }, "geometry": { "type": "Point", "coordinates": [ 282408.5, 4155866.5 ] } },
{ "type": "Feature", "properties": { "id": "lidar-tree:282420:4155920", "name": null, "kind": "tree", "species": null, "source": "lidar2025", "tree_height": 19.1, "crown_radius": 5.8, "height_source": "lidar2025" }, "geometry": { "type": "Point", "coordinates": [ 282420.5, 4155920.5 ] } },
{ "type": "Feature", "properties": { "id": "lidar-tree:282428:4155930", "name": null, "kind": "tree", "species": null, "source": "lidar2025", "tree_height": 21.6, "crown_radius": 6.0, "height_source": "lidar2025" }, "geometry": { "type": "Point", "coordinates": [ 282428.5, 4155929.5 ] } },
{ "type": "Feature", "properties": { "id": "lidar-tree:282464:4155832", "name": null, "kind": "tree", "species": null, "source": "lidar2025", "tree_height": 23.1, "crown_radius": 5.6, "height_source": "lidar2025" }, "geometry": { "type": "Point", "coordinates": [ 282463.5, 4155832.5 ] } },
{ "type": "Feature", "properties": { "id": "lidar-tree:282490:4155854", "name": null, "kind": "tree", "species": null, "source": "lidar2025", "tree_height": 8.2, "crown_radius": 4.5, "height_source": "lidar2025" }, "geometry": { "type": "Point", "coordinates": [ 282489.5, 4155853.5 ] } },
{ "type": "Feature", "properties": { "id": "lidar-tree:282470:4155860", "name": null, "kind": "tree", "species": null, "source": "lidar2025", "tree_height": 15.0, "crown_radius": 6.0, "height_source": "lidar2025" }, "geometry": { "type": "Point", "coordinates": [ 282469.5, 4155860.5 ] } },
{ "type": "Feature", "properties": { "id": "lidar-tree:282476:4155926", "name": null, "kind": "tree", "species": null, "source": "lidar2025", "tree_height": 7.8, "crown_radius": 5.9, "height_source": "lidar2025" }, "geometry": { "type": "Point", "coordinates": [ 282476.5, 4155925.5 ] } },
{ "type": "Feature", "properties": { "id": "lidar-tree:282464:4155928", "name": null, "kind": "tree", "species": null, "source": "lidar2025", "tree_height": 13.4, "crown_radius": 6.0, "height_source": "lidar2025" }, "geometry": { "type": "Point", "coordinates": [ 282463.5, 4155927.5 ] } },
{ "type": "Feature", "properties": { "id": "lidar-tree:282482:4155936", "name": null, "kind": "tree", "species": null, "source": "lidar2025", "tree_height": 20.8, "crown_radius": 6.0, "height_source": "lidar2025" }, "geometry": { "type": "Point", "coordinates": [ 282482.5, 4155935.5 ] } },
{ "type": "Feature", "properties": { "id": "lidar-tree:282290:4155750", "name": null, "kind": "tree", "species": null, "source": "lidar2025", "tree_height": 18.8, "crown_radius": 5.9, "height_source": "lidar2025" }, "geometry": { "type": "Point", "coordinates": [ 282289.5, 4155750.5 ] } },
{ "type": "Feature", "properties": { "id": "lidar-tree:282320:4155760", "name": null, "kind": "tree", "species": null, "source": "lidar2025", "tree_height": 10.5, "crown_radius": 3.7, "height_source": "lidar2025" }, "geometry": { "type": "Point", "coordinates": [ 282319.5, 4155759.5 ] } },
{ "type": "Feature", "properties": { "id": "lidar-tree:282336:4155766", "name": null, "kind": "tree", "species": null, "source": "lidar2025", "tree_height": 14.9, "crown_radius": 4.4, "height_source": "lidar2025" }, "geometry": { "type": "Point", "coordinates": [ 282336.5, 4155765.5 ] } },
{ "type": "Feature", "properties": { "id": "lidar-tree:282330:4155770", "name": null, "kind": "tree", "species": null, "source": "lidar2025", "tree_height": 13.7, "crown_radius": 5.2, "height_source": "lidar2025" }, "geometry": { "type": "Point", "coordinates": [ 282329.5, 4155769.5 ] } },
{ "type": "Feature", "properties": { "id": "lidar-tree:282270:4155756", "name": null, "kind": "tree", "species": null, "source": "lidar2025", "tree_height": 14.1, "crown_radius": 6.0, "height_source": "lidar2025" }, "geometry": { "type": "Point", "coordinates": [ 282270.5, 4155756.5 ] } },
{ "type": "Feature", "properties": { "id": "lidar-tree:282276:4155774", "name": null, "kind": "tree", "species": null, "source": "lidar2025", "tree_height": 19.6, "crown_radius": 6.0, "height_source": "lidar2025" }, "geometry": { "type": "Point", "coordinates": [ 282276.5, 4155773.5 ] } },
{ "type": "Feature", "properties": { "id": "lidar-tree:282296:4155774", "name": null, "kind": "tree", "species": null, "source": "lidar2025", "tree_height": 23.4, "crown_radius": 6.0, "height_source": "lidar2025" }, "geometry": { "type": "Point", "coordinates": [ 282295.5, 4155773.5 ] } },
{ "type": "Feature", "properties": { "id": "lidar-tree:282306:4155780", "name": null, "kind": "tree", "species": null, "source": "lidar2025", "tree_height": 27.2, "crown_radius": 6.0, "height_source": "lidar2025" }, "geometry": { "type": "Point", "coordinates": [ 282305.5, 4155779.5 ] } },
{ "type": "Feature", "properties": { "id": "lidar-tree:282334:4155788", "name": null, "kind": "tree", "species": null, "source": "lidar2025", "tree_height": 22.4, "crown_radius": 6.0, "height_source": "lidar2025" }, "geometry": { "type": "Point", "coordinates": [ 282333.5, 4155787.5 ] } },
{ "type": "Feature", "properties": { "id": "lidar-tree:282298:4155788", "name": null, "kind": "tree", "species": null, "source": "lidar2025", "tree_height": 27.2, "crown_radius": 6.0, "height_source": "lidar2025" }, "geometry": { "type": "Point", "coordinates": [ 282297.5, 4155788.5 ] } },
{ "type": "Feature", "properties": { "id": "lidar-tree:282328:4155796", "name": null, "kind": "tree", "species": null, "source": "lidar2025", "tree_height": 27.4, "crown_radius": 6.0, "height_source": "lidar2025" }, "geometry": { "type": "Point", "coordinates": [ 282328.5, 4155796.5 ] } },
{ "type": "Feature", "properties": { "id": "lidar-tree:282316:4155800", "name": null, "kind": "tree", "species": null, "source": "lidar2025", "tree_height": 25.0, "crown_radius": 6.0, "height_source": "lidar2025" }, "geometry": { "type": "Point", "coordinates": [ 282315.5, 4155800.5 ] } },
{ "type": "Feature", "properties": { "id": "lidar-tree:282300:4155808", "name": null, "kind": "tree", "species": null, "source": "lidar2025", "tree_height": 26.3, "crown_radius": 6.0, "height_source": "lidar2025" }, "geometry": { "type": "Point", "coordinates": [ 282300.5, 4155808.5 ] } },
{ "type": "Feature", "properties": { "id": "lidar-tree:282316:4155810", "name": null, "kind": "tree", "species": null, "source": "lidar2025", "tree_height": 29.5, "crown_radius": 6.0, "height_source": "lidar2025" }, "geometry": { "type": "Point", "coordinates": [ 282316.5, 4155809.5 ] } },
{ "type": "Feature", "properties": { "id": "lidar-tree:282332:4155814", "name": null, "kind": "tree", "species": null, "source": "lidar2025", "tree_height": 33.8, "crown_radius": 6.0, "height_source": "lidar2025" }, "geometry": { "type": "Point", "coordinates": [ 282332.5, 4155813.5 ] } },
{ "type": "Feature", "properties": { "id": "lidar-tree:282286:4155814", "name": null, "kind": "tree", "species": null, "source": "lidar2025", "tree_height": 28.2, "crown_radius": 6.0, "height_source": "lidar2025" }, "geometry": { "type": "Point", "coordinates": [ 282286.5, 4155814.5 ] } },
{ "type": "Feature", "properties": { "id": "lidar-tree:282276:4155790", "name": null, "kind": "tree", "species": null, "source": "lidar2025", "tree_height": 16.4, "crown_radius": 6.0, "height_source": "lidar2025" }, "geometry": { "type": "Point", "coordinates": [ 282275.5, 4155789.5 ] } },
{ "type": "Feature", "properties": { "id": "lidar-tree:282268:4155796", "name": null, "kind": "tree", "species": null, "source": "lidar2025", "tree_height": 16.7, "crown_radius": 6.0, "height_source": "lidar2025" }, "geometry": { "type": "Point", "coordinates": [ 282268.5, 4155795.5 ] } },
{ "type": "Feature", "properties": { "id": "lidar-tree:282254:4155798", "name": null, "kind": "tree", "species": null, "source": "lidar2025", "tree_height": 7.9, "crown_radius": 5.7, "height_source": "lidar2025" }, "geometry": { "type": "Point", "coordinates": [ 282254.5, 4155797.5 ] } },
{ "type": "Feature", "properties": { "id": "lidar-tree:282268:4155806", "name": null, "kind": "tree", "species": null, "source": "lidar2025", "tree_height": 18.5, "crown_radius": 5.0, "height_source": "lidar2025" }, "geometry": { "type": "Point", "coordinates": [ 282268.5, 4155805.5 ] } },
{ "type": "Feature", "properties": { "id": "lidar-tree:282380:4155774", "name": null, "kind": "tree", "species": null, "source": "lidar2025", "tree_height": 26.4, "crown_radius": 6.0, "height_source": "lidar2025" }, "geometry": { "type": "Point", "coordinates": [ 282380.5, 4155774.5 ] } },
{ "type": "Feature", "properties": { "id": "lidar-tree:282344:4155784", "name": null, "kind": "tree", "species": null, "source": "lidar2025", "tree_height": 11.5, "crown_radius": 6.0, "height_source": "lidar2025" }, "geometry": { "type": "Point", "coordinates": [ 282344.5, 4155784.5 ] } },
{ "type": "Feature", "properties": { "id": "lidar-tree:282366:4155790", "name": null, "kind": "tree", "species": null, "source": "lidar2025", "tree_height": 39.3, "crown_radius": 6.0, "height_source": "lidar2025" }, "geometry": { "type": "Point", "coordinates": [ 282366.5, 4155789.5 ] } },
{ "type": "Feature", "properties": { "id": "lidar-tree:282372:4155796", "name": null, "kind": "tree", "species": null, "source": "lidar2025", "tree_height": 37.9, "crown_radius": 6.0, "height_source": "lidar2025" }, "geometry": { "type": "Point", "coordinates": [ 282372.5, 4155795.5 ] } },
{ "type": "Feature", "properties": { "id": "lidar-tree:282384:4155802", "name": null, "kind": "tree", "species": null, "source": "lidar2025", "tree_height": 33.6, "crown_radius": 6.0, "height_source": "lidar2025" }, "geometry": { "type": "Point", "coordinates": [ 282384.5, 4155801.5 ] } },
{ "type": "Feature", "properties": { "id": "lidar-tree:282344:4155806", "name": null, "kind": "tree", "species": null, "source": "lidar2025", "tree_height": 28.6, "crown_radius": 6.0, "height_source": "lidar2025" }, "geometry": { "type": "Point", "coordinates": [ 282344.5, 4155805.5 ] } },
{ "type": "Feature", "properties": { "id": "lidar-tree:282374:4155812", "name": null, "kind": "tree", "species": null, "source": "lidar2025", "tree_height": 38.5, "crown_radius": 6.0, "height_source": "lidar2025" }, "geometry": { "type": "Point", "coordinates": [ 282373.5, 4155811.5 ] } },
{ "type": "Feature", "properties": { "id": "lidar-tree:282400:4155816", "name": null, "kind": "tree", "species": null, "source": "lidar2025", "tree_height": 27.6, "crown_radius": 6.0, "height_source": "lidar2025" }, "geometry": { "type": "Point", "coordinates": [ 282400.5, 4155815.5 ] } },
{ "type": "Feature", "properties": { "id": "lidar-tree:282356:4155820", "name": null, "kind": "tree", "species": null, "source": "lidar2025", "tree_height": 34.7, "crown_radius": 6.0, "height_source": "lidar2025" }, "geometry": { "type": "Point", "coordinates": [ 282356.5, 4155819.5 ] } },
{ "type": "Feature", "properties": { "id": "lidar-tree:282390:4155822", "name": null, "kind": "tree", "species": null, "source": "lidar2025", "tree_height": 25.1, "crown_radius": 6.0, "height_source": "lidar2025" }, "geometry": { "type": "Point", "coordinates": [ 282389.5, 4155821.5 ] } },
{ "type": "Feature", "properties": { "id": "lidar-tree:282276:4155814", "name": null, "kind": "tree", "species": null, "source": "lidar2025", "tree_height": 24.3, "crown_radius": 6.0, "height_source": "lidar2025" }, "geometry": { "type": "Point", "coordinates": [ 282275.5, 4155813.5 ] } },
{ "type": "Feature", "properties": { "id": "lidar-tree:282258:4155814", "name": null, "kind": "tree", "species": null, "source": "lidar2025", "tree_height": 22.4, "crown_radius": 5.8, "height_source": "lidar2025" }, "geometry": { "type": "Point", "coordinates": [ 282258.5, 4155814.5 ] } },
{ "type": "Feature", "properties": { "id": "lidar-tree:282272:4155824", "name": null, "kind": "tree", "species": null, "source": "lidar2025", "tree_height": 26.2, "crown_radius": 6.0, "height_source": "lidar2025" }, "geometry": { "type": "Point", "coordinates": [ 282272.5, 4155824.5 ] } },
{ "type": "Feature", "properties": { "id": "lidar-tree:282262:4155826", "name": null, "kind": "tree", "species": null, "source": "lidar2025", "tree_height": 21.6, "crown_radius": 6.0, "height_source": "lidar2025" }, "geometry": { "type": "Point", "coordinates": [ 282261.5, 4155825.5 ] } },
{ "type": "Feature", "properties": { "id": "lidar-tree:282254:4155832", "name": null, "kind": "tree", "species": null, "source": "lidar2025", "tree_height": 22.7, "crown_radius": 6.0, "height_source": "lidar2025" }, "geometry": { "type": "Point", "coordinates": [ 282253.5, 4155831.5 ] } },
{ "type": "Feature", "properties": { "id": "lidar-tree:282338:4155826", "name": null, "kind": "tree", "species": null, "source": "lidar2025", "tree_height": 36.1, "crown_radius": 6.0, "height_source": "lidar2025" }, "geometry": { "type": "Point", "coordinates": [ 282337.5, 4155825.5 ] } },
{ "type": "Feature", "properties": { "id": "lidar-tree:282296:4155826", "name": null, "kind": "tree", "species": null, "source": "lidar2025", "tree_height": 17.5, "crown_radius": 5.8, "height_source": "lidar2025" }, "geometry": { "type": "Point", "coordinates": [ 282296.5, 4155826.5 ] } },
{ "type": "Feature", "properties": { "id": "lidar-tree:282306:4155826", "name": null, "kind": "tree", "species": null, "source": "lidar2025", "tree_height": 20.4, "crown_radius": 6.0, "height_source": "lidar2025" }, "geometry": { "type": "Point", "coordinates": [ 282305.5, 4155826.5 ] } },
{ "type": "Feature", "properties": { "id": "lidar-tree:282330:4155830", "name": null, "kind": "tree", "species": null, "source": "lidar2025", "tree_height": 30.8, "crown_radius": 6.0, "height_source": "lidar2025" }, "geometry": { "type": "Point", "coordinates": [ 282329.5, 4155829.5 ] } },
{ "type": "Feature", "properties": { "id": "lidar-tree:282318:4155830", "name": null, "kind": "tree", "species": null, "source": "lidar2025", "tree_height": 16.5, "crown_radius": 6.0, "height_source": "lidar2025" }, "geometry": { "type": "Point", "coordinates": [ 282317.5, 4155829.5 ] } },
{ "type": "Feature", "properties": { "id": "lidar-tree:282338:4155858", "name": null, "kind": "tree", "species": null, "source": "lidar2025", "tree_height": 12.8, "crown_radius": 6.0, "height_source": "lidar2025" }, "geometry": { "type": "Point", "coordinates": [ 282338.5, 4155857.5 ] } },
{ "type": "Feature", "properties": { "id": "lidar-tree:282296:4155868", "name": null, "kind": "tree", "species": null, "source": "lidar2025", "tree_height": 22.9, "crown_radius": 6.0, "height_source": "lidar2025" }, "geometry": { "type": "Point", "coordinates": [ 282296.5, 4155867.5 ] } },
{ "type": "Feature", "properties": { "id": "lidar-tree:282282:4155870", "name": null, "kind": "tree", "species": null, "source": "lidar2025", "tree_height": 21.5, "crown_radius": 6.0, "height_source": "lidar2025" }, "geometry": { "type": "Point", "coordinates": [ 282282.5, 4155869.5 ] } },
{ "type": "Feature", "properties": { "id": "lidar-tree:282330:4155870", "name": null, "kind": "tree", "species": null, "source": "lidar2025", "tree_height": 23.6, "crown_radius": 6.0, "height_source": "lidar2025" }, "geometry": { "type": "Point", "coordinates": [ 282330.5, 4155869.5 ] } },
{ "type": "Feature", "properties": { "id": "lidar-tree:282322:4155870", "name": null, "kind": "tree", "species": null, "source": "lidar2025", "tree_height": 22.4, "crown_radius": 6.0, "height_source": "lidar2025" }, "geometry": { "type": "Point", "coordinates": [ 282321.5, 4155869.5 ] } },
{ "type": "Feature", "properties": { "id": "lidar-tree:282256:4155872", "name": null, "kind": "tree", "species": null, "source": "lidar2025", "tree_height": 24.3, "crown_radius": 6.0, "height_source": "lidar2025" }, "geometry": { "type": "Point", "coordinates": [ 282255.5, 4155871.5 ] } },
{ "type": "Feature", "properties": { "id": "lidar-tree:282266:4155872", "name": null, "kind": "tree", "species": null, "source": "lidar2025", "tree_height": 21.4, "crown_radius": 6.0, "height_source": "lidar2025" }, "geometry": { "type": "Point", "coordinates": [ 282266.5, 4155872.5 ] } },
{ "type": "Feature", "properties": { "id": "lidar-tree:282270:4155882", "name": null, "kind": "tree", "species": null, "source": "lidar2025", "tree_height": 21.6, "crown_radius": 6.0, "height_source": "lidar2025" }, "geometry": { "type": "Point", "coordinates": [ 282269.5, 4155881.5 ] } },
{ "type": "Feature", "properties": { "id": "lidar-tree:282256:4155892", "name": null, "kind": "tree", "species": null, "source": "lidar2025", "tree_height": 22.8, "crown_radius": 6.0, "height_source": "lidar2025" }, "geometry": { "type": "Point", "coordinates": [ 282256.5, 4155892.5 ] } },
{ "type": "Feature", "properties": { "id": "lidar-tree:282276:4155894", "name": null, "kind": "tree", "species": null, "source": "lidar2025", "tree_height": 23.0, "crown_radius": 3.7, "height_source": "lidar2025" }, "geometry": { "type": "Point", "coordinates": [ 282275.5, 4155893.5 ] } },
{ "type": "Feature", "properties": { "id": "lidar-tree:282312:4155872", "name": null, "kind": "tree", "species": null, "source": "lidar2025", "tree_height": 22.5, "crown_radius": 6.0, "height_source": "lidar2025" }, "geometry": { "type": "Point", "coordinates": [ 282311.5, 4155872.5 ] } },
{ "type": "Feature", "properties": { "id": "lidar-tree:282282:4155880", "name": null, "kind": "tree", "species": null, "source": "lidar2025", "tree_height": 17.8, "crown_radius": 6.0, "height_source": "lidar2025" }, "geometry": { "type": "Point", "coordinates": [ 282282.5, 4155880.5 ] } },
{ "type": "Feature", "properties": { "id": "lidar-tree:282312:4155882", "name": null, "kind": "tree", "species": null, "source": "lidar2025", "tree_height": 25.2, "crown_radius": 6.0, "height_source": "lidar2025" }, "geometry": { "type": "Point", "coordinates": [ 282311.5, 4155881.5 ] } },
{ "type": "Feature", "properties": { "id": "lidar-tree:282290:4155882", "name": null, "kind": "tree", "species": null, "source": "lidar2025", "tree_height": 19.1, "crown_radius": 5.7, "height_source": "lidar2025" }, "geometry": { "type": "Point", "coordinates": [ 282290.5, 4155882.5 ] } },
{ "type": "Feature", "properties": { "id": "lidar-tree:282290:4155892", "name": null, "kind": "tree", "species": null, "source": "lidar2025", "tree_height": 21.0, "crown_radius": 3.3, "height_source": "lidar2025" }, "geometry": { "type": "Point", "coordinates": [ 282290.5, 4155892.5 ] } },
{ "type": "Feature", "properties": { "id": "lidar-tree:282290:4155898", "name": null, "kind": "tree", "species": null, "source": "lidar2025", "tree_height": 22.0, "crown_radius": 2.5, "height_source": "lidar2025" }, "geometry": { "type": "Point", "coordinates": [ 282289.5, 4155898.5 ] } },
{ "type": "Feature", "properties": { "id": "lidar-tree:282338:4155938", "name": null, "kind": "tree", "species": null, "source": "lidar2025", "tree_height": 21.5, "crown_radius": 5.9, "height_source": "lidar2025" }, "geometry": { "type": "Point", "coordinates": [ 282338.5, 4155938.5 ] } },
{ "type": "Feature", "properties": { "id": "lidar-tree:282322:4155944", "name": null, "kind": "tree", "species": null, "source": "lidar2025", "tree_height": 24.6, "crown_radius": 6.0, "height_source": "lidar2025" }, "geometry": { "type": "Point", "coordinates": [ 282322.5, 4155943.5 ] } },
{ "type": "Feature", "properties": { "id": "lidar-tree:282286:4155948", "name": null, "kind": "tree", "species": null, "source": "lidar2025", "tree_height": 20.2, "crown_radius": 5.6, "height_source": "lidar2025" }, "geometry": { "type": "Point", "coordinates": [ 282285.5, 4155947.5 ] } },
{ "type": "Feature", "properties": { "id": "lidar-tree:282296:4155952", "name": null, "kind": "tree", "species": null, "source": "lidar2025", "tree_height": 21.3, "crown_radius": 5.2, "height_source": "lidar2025" }, "geometry": { "type": "Point", "coordinates": [ 282295.5, 4155951.5 ] } },
{ "type": "Feature", "properties": { "id": "lidar-tree:282360:4155756", "name": null, "kind": "tree", "species": null, "source": "lidar2025", "tree_height": 28.8, "crown_radius": 6.0, "height_source": "lidar2025" }, "geometry": { "type": "Point", "coordinates": [ 282360.5, 4155755.5 ] } },
{ "type": "Feature", "properties": { "id": "lidar-tree:282392:4155766", "name": null, "kind": "tree", "species": null, "source": "lidar2025", "tree_height": 32.6, "crown_radius": 6.0, "height_source": "lidar2025" }, "geometry": { "type": "Point", "coordinates": [ 282392.5, 4155766.5 ] } },
{ "type": "Feature", "properties": { "id": "rva-tree:50441", "name": "Robinia pseudoacacia", "kind": "tree", "species": "Robinia pseudoacacia", "source": "city_inventory", "tree_height": 23.2, "crown_radius": 6.0, "height_source": "lidar2025" }, "geometry": { "type": "Point", "coordinates": [ 282363.85, 4155768.07 ] } },
{ "type": "Feature", "properties": { "id": "lidar-tree:282488:4155948", "name": null, "kind": "tree", "species": null, "source": "lidar2025", "tree_height": 24.7, "crown_radius": 6.0, "height_source": "lidar2025" }, "geometry": { "type": "Point", "coordinates": [ 282487.5, 4155948.5 ] } },
{ "type": "Feature", "properties": { "id": "lidar-tree:282498:4155950", "name": null, "kind": "tree", "species": null, "source": "lidar2025", "tree_height": 21.0, "crown_radius": 6.0, "height_source": "lidar2025" }, "geometry": { "type": "Point", "coordinates": [ 282497.5, 4155950.5 ] } },
{ "type": "Feature", "properties": { "id": "lidar-tree:282472:4155952", "name": null, "kind": "tree", "species": null, "source": "lidar2025", "tree_height": 23.9, "crown_radius": 6.0, "height_source": "lidar2025" }, "geometry": { "type": "Point", "coordinates": [ 282472.5, 4155951.5 ] } },
{ "type": "Feature", "properties": { "id": "lidar-tree:282440:4155930", "name": null, "kind": "tree", "species": null, "source": "lidar2025", "tree_height": 25.1, "crown_radius": 6.0, "height_source": "lidar2025" }, "geometry": { "type": "Point", "coordinates": [ 282439.5, 4155929.5 ] } },
{ "type": "Feature", "properties": { "id": "lidar-tree:282408:4155932", "name": null, "kind": "tree", "species": null, "source": "lidar2025", "tree_height": 29.2, "crown_radius": 6.0, "height_source": "lidar2025" }, "geometry": { "type": "Point", "coordinates": [ 282408.5, 4155931.5 ] } },
{ "type": "Feature", "properties": { "id": "lidar-tree:282446:4155936", "name": null, "kind": "tree", "species": null, "source": "lidar2025", "tree_height": 29.6, "crown_radius": 6.0, "height_source": "lidar2025" }, "geometry": { "type": "Point", "coordinates": [ 282446.5, 4155936.5 ] } },
{ "type": "Feature", "properties": { "id": "lidar-tree:282250:4155902", "name": null, "kind": "tree", "species": null, "source": "lidar2025", "tree_height": 18.5, "crown_radius": 6.0, "height_source": "lidar2025" }, "geometry": { "type": "Point", "coordinates": [ 282250.5, 4155902.5 ] } },
{ "type": "Feature", "properties": { "id": "lidar-tree:282262:4155906", "name": null, "kind": "tree", "species": null, "source": "lidar2025", "tree_height": 25.0, "crown_radius": 6.0, "height_source": "lidar2025" }, "geometry": { "type": "Point", "coordinates": [ 282262.5, 4155905.5 ] } },
{ "type": "Feature", "properties": { "id": "lidar-tree:282276:4155940", "name": null, "kind": "tree", "species": null, "source": "lidar2025", "tree_height": 22.7, "crown_radius": 6.0, "height_source": "lidar2025" }, "geometry": { "type": "Point", "coordinates": [ 282275.5, 4155940.5 ] } },
{ "type": "Feature", "properties": { "id": "lidar-tree:282260:4155960", "name": null, "kind": "tree", "species": null, "source": "lidar2025", "tree_height": 8.0, "crown_radius": 5.3, "height_source": "lidar2025" }, "geometry": { "type": "Point", "coordinates": [ 282259.5, 4155960.5 ] } },
{ "type": "Feature", "properties": { "id": "lidar-tree:282362:4155866", "name": null, "kind": "tree", "species": null, "source": "lidar2025", "tree_height": 19.9, "crown_radius": 6.0, "height_source": "lidar2025" }, "geometry": { "type": "Point", "coordinates": [ 282361.5, 4155865.5 ] } },
{ "type": "Feature", "properties": { "id": "lidar-tree:282372:4155868", "name": null, "kind": "tree", "species": null, "source": "lidar2025", "tree_height": 19.0, "crown_radius": 6.0, "height_source": "lidar2025" }, "geometry": { "type": "Point", "coordinates": [ 282371.5, 4155868.5 ] } },
{ "type": "Feature", "properties": { "id": "lidar-tree:282390:4155872", "name": null, "kind": "tree", "species": null, "source": "lidar2025", "tree_height": 22.3, "crown_radius": 6.0, "height_source": "lidar2025" }, "geometry": { "type": "Point", "coordinates": [ 282390.5, 4155871.5 ] } },
{ "type": "Feature", "properties": { "id": "lidar-tree:282346:4155878", "name": null, "kind": "tree", "species": null, "source": "lidar2025", "tree_height": 22.2, "crown_radius": 6.0, "height_source": "lidar2025" }, "geometry": { "type": "Point", "coordinates": [ 282345.5, 4155877.5 ] } },
{ "type": "Feature", "properties": { "id": "lidar-tree:282364:4155880", "name": null, "kind": "tree", "species": null, "source": "lidar2025", "tree_height": 22.1, "crown_radius": 6.0, "height_source": "lidar2025" }, "geometry": { "type": "Point", "coordinates": [ 282364.5, 4155880.5 ] } },
{ "type": "Feature", "properties": { "id": "lidar-tree:282354:4155884", "name": null, "kind": "tree", "species": null, "source": "lidar2025", "tree_height": 14.7, "crown_radius": 6.0, "height_source": "lidar2025" }, "geometry": { "type": "Point", "coordinates": [ 282353.5, 4155883.5 ] } },
{ "type": "Feature", "properties": { "id": "lidar-tree:282386:4155928", "name": null, "kind": "tree", "species": null, "source": "lidar2025", "tree_height": 25.0, "crown_radius": 6.0, "height_source": "lidar2025" }, "geometry": { "type": "Point", "coordinates": [ 282385.5, 4155927.5 ] } },
{ "type": "Feature", "properties": { "id": "lidar-tree:282400:4155928", "name": null, "kind": "tree", "species": null, "source": "lidar2025", "tree_height": 27.0, "crown_radius": 6.0, "height_source": "lidar2025" }, "geometry": { "type": "Point", "coordinates": [ 282399.5, 4155928.5 ] } },
{ "type": "Feature", "properties": { "id": "lidar-tree:282258:4155986", "name": null, "kind": "tree", "species": null, "source": "lidar2025", "tree_height": 24.5, "crown_radius": 6.0, "height_source": "lidar2025" }, "geometry": { "type": "Point", "coordinates": [ 282258.5, 4155985.5 ] } },
{ "type": "Feature", "properties": { "id": "lidar-tree:282328:4155974", "name": null, "kind": "tree", "species": null, "source": "lidar2025", "tree_height": 21.9, "crown_radius": 5.6, "height_source": "lidar2025" }, "geometry": { "type": "Point", "coordinates": [ 282328.5, 4155974.5 ] } },
{ "type": "Feature", "properties": { "id": "lidar-tree:282306:4155978", "name": null, "kind": "tree", "species": null, "source": "lidar2025", "tree_height": 4.2, "crown_radius": 3.3, "height_source": "lidar2025" }, "geometry": { "type": "Point", "coordinates": [ 282306.5, 4155977.5 ] } },
{ "type": "Feature", "properties": { "id": "lidar-tree:282292:4155978", "name": null, "kind": "tree", "species": null, "source": "lidar2025", "tree_height": 7.0, "crown_radius": 3.7, "height_source": "lidar2025" }, "geometry": { "type": "Point", "coordinates": [ 282292.5, 4155978.5 ] } },
{ "type": "Feature", "properties": { "id": "lidar-tree:282322:4155984", "name": null, "kind": "tree", "species": null, "source": "lidar2025", "tree_height": 19.5, "crown_radius": 6.0, "height_source": "lidar2025" }, "geometry": { "type": "Point", "coordinates": [ 282321.5, 4155983.5 ] } },
{ "type": "Feature", "properties": { "id": "lidar-tree:282310:4155986", "name": null, "kind": "tree", "species": null, "source": "lidar2025", "tree_height": 7.8, "crown_radius": 3.2, "height_source": "lidar2025" }, "geometry": { "type": "Point", "coordinates": [ 282310.5, 4155985.5 ] } },
{ "type": "Feature", "properties": { "id": "lidar-tree:282284:4155990", "name": null, "kind": "tree", "species": null, "source": "lidar2025", "tree_height": 4.8, "crown_radius": 3.2, "height_source": "lidar2025" }, "geometry": { "type": "Point", "coordinates": [ 282284.5, 4155989.5 ] } },
{ "type": "Feature", "properties": { "id": "lidar-tree:282304:4155996", "name": null, "kind": "tree", "species": null, "source": "lidar2025", "tree_height": 16.8, "crown_radius": 5.1, "height_source": "lidar2025" }, "geometry": { "type": "Point", "coordinates": [ 282304.5, 4155996.5 ] } }
]
}
