{
"type": "FeatureCollection",
"name": "landuse",
"crs": { "type": "name", "properties": { "name": "urn:ogc:def:crs:EPSG::32618" } },
"xy_coordinate_resolution": 0.01,
"features": [
{ "type": "Feature", "properties": { "id": "imagery:groundcover_lawn:2823", "name": null, "kind": "groundcover_lawn", "sport": null, "surface": null, "pitch_layout": null, "source": "vgin_vbmp+naip+lidar2025", "source_updated": null, "base_z": null, "top_z": null }, "geometry": { "type": "MultiPolygon", "coordinates": [ [ [ [ 281005.27, 4157762.95 ], [ 281007.43, 4157761.0 ], [ 281008.4, 4157760.63 ], [ 281010.53, 4157760.63 ], [ 281010.54, 4157760.63 ], [ 281030.11, 4157751.87 ], [ 281029.26, 4157750.0 ], [ 281000.0, 4157750.0 ], [ 281000.0, 4157765.34 ], [ 281005.26, 4157762.99 ], [ 281005.27, 4157762.95 ] ] ], [ [ [ 281055.31, 4157762.57 ], [ 281055.32, 4157762.47 ], [ 281055.34, 4157762.37 ], [ 281055.36, 4157762.28 ], [ 281055.4, 4157762.19 ], [ 281055.45, 4157762.1 ], [ 281055.5, 4157762.02 ], [ 281055.56, 4157761.94 ], [ 281055.63, 4157761.87 ], [ 281055.71, 4157761.81 ], [ 281055.79, 4157761.75 ], [ 281055.88, 4157761.71 ], [ 281060.06, 4157759.7 ], [ 281061.71, 4157758.05 ], [ 281062.73, 4157757.63 ], [ 281063.28, 4157757.63 ], [ 281065.96, 4157755.97 ], [ 281066.93, 4157754.04 ], [ 281067.57, 4157753.39 ], [ 281069.16, 4157752.58 ], [ 281043.75, 4157764.35 ], [ 281043.52, 4157764.46 ], [ 281049.1, 4157776.63 ], [ 281057.87, 4157772.7 ], [ 281057.96, 4157772.67 ], [ 281058.06, 4157772.64 ], [ 281058.15, 4157772.62 ], [ 281058.25, 4157772.62 ], [ 281058.35, 4157772.62 ], [ 281058.44, 4157772.63 ], [ 281058.54, 4157772.65 ], [ 281058.63, 4157772.68 ], [ 281058.72, 4157772.72 ], [ 281058.81, 4157772.77 ], [ 281058.89, 4157772.82 ], [ 281058.96, 4157772.89 ], [ 281059.03, 4157772.96 ], [ 281059.09, 4157773.03 ], [ 281059.15, 4157773.12 ], [ 281059.19, 4157773.2 ], [ 281059.73, 4157774.4 ], [ 281060.66, 4157773.77 ], [ 281060.63, 4157773.64 ], [ 281060.62, 4157773.63 ], [ 281060.55, 4157773.56 ], [ 281060.49, 4157773.48 ], [ 281060.43, 4157773.4 ], [ 281060.38, 4157773.32 ], [ 281055.41, 4157763.04 ], [ 281055.37, 4157762.95 ], [ 281055.34, 4157762.86 ], [ 281055.32, 4157762.76 ], [ 281055.31, 4157762.67 ], [ 281055.31, 4157762.57 ] ] ], [ [ [ 281013.43, 4157806.13 ], [ 281013.47, 4157806.04 ], [ 281013.51, 4157805.96 ], [ 281013.57, 4157805.87 ], [ 281013.63, 4157805.8 ], [ 281013.7, 4157805.73 ], [ 281013.78, 4157805.67 ], [ 281013.86, 4157805.62 ], [ 281013.95, 4157805.57 ], [ 281014.51, 4157805.31 ], [ 281014.55, 4157805.2 ], [ 281015.01, 4157804.75 ], [ 281015.66, 4157801.48 ], [ 281012.89, 4157799.63 ], [ 281012.46, 4157799.63 ], [ 281010.65, 4157800.51 ], [ 281010.56, 4157800.55 ], [ 281010.46, 4157800.58 ], [ 281010.37, 4157800.6 ], [ 281010.27, 4157800.61 ], [ 281010.17, 4157800.61 ], [ 281010.07, 4157800.61 ], [ 281009.98, 4157800.59 ], [ 281009.88, 4157800.56 ], [ 281009.79, 4157800.52 ], [ 281009.7, 4157800.48 ], [ 281009.62, 4157800.43 ], [ 281009.55, 4157800.36 ], [ 281009.48, 4157800.3 ], [ 281009.41, 4157800.22 ], [ 281009.36, 4157800.14 ], [ 281009.31, 4157800.05 ], [ 281008.87, 4157799.16 ], [ 281007.57, 4157798.46 ], [ 281007.04, 4157797.98 ], [ 281002.87, 4157791.73 ], [ 281002.66, 4157791.27 ], [ 281002.3, 4157789.81 ], [ 281002.26, 4157789.3 ], [ 281002.92, 4157782.74 ], [ 281000.0, 4157784.05 ], [ 281000.0, 4157792.34 ], [ 281011.31, 4157818.0 ], [ 281014.51, 4157814.29 ], [ 281014.24, 4157813.66 ], [ 281014.13, 4157813.09 ], [ 281014.13, 4157808.35 ], [ 281013.46, 4157806.9 ], [ 281013.42, 4157806.81 ], [ 281013.4, 4157806.71 ], [ 281013.38, 4157806.62 ], [ 281013.37, 4157806.52 ], [ 281013.37, 4157806.42 ], [ 281013.38, 4157806.32 ], [ 281013.4, 4157806.23 ], [ 281013.43, 4157806.13 ] ] ], [ [ [ 281025.05, 4157790.99 ], [ 281025.1, 4157790.9 ], [ 281025.15, 4157790.82 ], [ 281025.22, 4157790.75 ], [ 281025.29, 4157790.68 ], [ 281025.37, 4157790.62 ], [ 281025.45, 4157790.57 ], [ 281025.54, 4157790.52 ], [ 281029.43, 4157788.79 ], [ 281029.52, 4157788.75 ], [ 281029.61, 4157788.73 ], [ 281029.71, 4157788.71 ], [ 281029.8, 4157788.7 ], [ 281029.9, 4157788.7 ], [ 281030.0, 4157788.72 ], [ 281030.1, 4157788.74 ], [ 281030.19, 4157788.77 ], [ 281030.28, 4157788.81 ], [ 281030.36, 4157788.86 ], [ 281030.44, 4157788.91 ], [ 281030.52, 4157788.97 ], [ 281030.59, 4157789.05 ], [ 281030.65, 4157789.12 ], [ 281030.7, 4157789.21 ], [ 281030.74, 4157789.29 ], [ 281032.17, 4157792.48 ], [ 281032.21, 4157792.57 ], [ 281032.24, 4157792.66 ], [ 281032.25, 4157792.76 ], [ 281032.26, 4157792.86 ], [ 281032.26, 4157792.96 ], [ 281032.25, 4157793.05 ], [ 281032.22, 4157793.15 ], [ 281032.19, 4157793.24 ], [ 281032.15, 4157793.33 ], [ 281032.11, 4157793.42 ], [ 281032.05, 4157793.5 ], [ 281031.99, 4157793.57 ], [ 281031.91, 4157793.64 ], [ 281031.84, 4157793.7 ], [ 281031.75, 4157793.76 ], [ 281031.66, 4157793.8 ], [ 281027.77, 4157795.52 ], [ 281027.68, 4157795.56 ], [ 281027.58, 4157795.58 ], [ 281027.48, 4157795.6 ], [ 281027.39, 4157795.61 ], [ 281027.29, 4157795.61 ], [ 281027.19, 4157795.59 ], [ 281027.1, 4157795.57 ], [ 281027.0, 4157795.54 ], [ 281026.91, 4157795.5 ], [ 281026.83, 4157795.45 ], [ 281026.75, 4157795.4 ], [ 281026.67, 4157795.33 ], [ 281026.61, 4157795.26 ], [ 281026.55, 4157795.19 ], [ 281026.49, 4157795.1 ], [ 281026.45, 4157795.02 ], [ 281025.54, 4157792.98 ], [ 281025.53, 4157793.0 ], [ 281025.48, 4157793.09 ], [ 281025.43, 4157793.17 ], [ 281025.37, 4157793.24 ], [ 281025.3, 4157793.31 ], [ 281025.23, 4157793.38 ], [ 281025.15, 4157793.43 ], [ 281025.06, 4157793.48 ], [ 281024.05, 4157793.97 ], [ 281026.45, 4157796.63 ], [ 281032.29, 4157796.63 ], [ 281033.18, 4157796.93 ], [ 281035.3, 4157798.59 ], [ 281035.82, 4157799.38 ], [ 281037.91, 4157807.74 ], [ 281041.01, 4157806.35 ], [ 281041.1, 4157806.32 ], [ 281041.19, 4157806.29 ], [ 281041.29, 4157806.28 ], [ 281041.39, 4157806.27 ], [ 281041.48, 4157806.27 ], [ 281041.58, 4157806.28 ], [ 281041.68, 4157806.3 ], [ 281041.77, 4157806.33 ], [ 281041.86, 4157806.37 ], [ 281041.95, 4157806.42 ], [ 281042.03, 4157806.48 ], [ 281042.1, 4157806.54 ], [ 281042.17, 4157806.61 ], [ 281042.23, 4157806.69 ], [ 281042.28, 4157806.77 ], [ 281042.33, 4157806.86 ], [ 281044.26, 4157811.2 ], [ 281044.3, 4157811.29 ], [ 281044.33, 4157811.39 ], [ 281044.34, 4157811.48 ], [ 281044.35, 4157811.58 ], [ 281044.35, 4157811.68 ], [ 281044.34, 4157811.78 ], [ 281044.32, 4157811.87 ], [ 281044.29, 4157811.97 ], [ 281044.25, 4157812.06 ], [ 281044.2, 4157812.14 ], [ 281044.14, 4157812.22 ], [ 281044.08, 4157812.3 ], [ 281044.01, 4157812.36 ], [ 281043.93, 4157812.42 ], [ 281043.85, 4157812.48 ], [ 281043.76, 4157812.52 ], [ 281038.54, 4157814.85 ], [ 281038.45, 4157814.89 ], [ 281038.35, 4157814.91 ], [ 281038.26, 4157814.93 ], [ 281038.16, 4157814.94 ], [ 281038.06, 4157814.94 ], [ 281037.96, 4157814.92 ], [ 281037.87, 4157814.9 ], [ 281037.78, 4157814.88 ], [ 281037.71, 4157815.05 ], [ 281035.55, 4157817.2 ], [ 281033.98, 4157817.85 ], [ 281032.19, 4157821.21 ], [ 281035.13, 4157823.63 ], [ 281038.86, 4157823.63 ], [ 281039.6, 4157823.84 ], [ 281039.7, 4157823.82 ], [ 281039.8, 4157823.81 ], [ 281039.89, 4157823.81 ], [ 281039.99, 4157823.82 ], [ 281040.09, 4157823.84 ], [ 281040.18, 4157823.86 ], [ 281040.27, 4157823.9 ], [ 281040.36, 4157823.95 ], [ 281040.44, 4157824.0 ], [ 281040.52, 4157824.06 ], [ 281040.59, 4157824.13 ], [ 281040.65, 4157824.21 ], [ 281040.7, 4157824.29 ], [ 281040.75, 4157824.37 ], [ 281040.86, 4157824.6 ], [ 281041.6, 4157825.06 ], [ 281042.15, 4157825.66 ], [ 281046.3, 4157833.97 ], [ 281048.99, 4157835.63 ], [ 281050.38, 4157835.63 ], [ 281053.1, 4157833.89 ], [ 281053.59, 4157832.84 ], [ 281053.54, 4157832.77 ], [ 281053.49, 4157832.69 ], [ 281053.45, 4157832.61 ], [ 281052.0, 4157829.18 ], [ 281051.97, 4157829.09 ], [ 281051.94, 4157828.99 ], [ 281051.93, 4157828.89 ], [ 281051.93, 4157828.79 ], [ 281051.93, 4157828.69 ], [ 281051.95, 4157828.59 ], [ 281051.97, 4157828.49 ], [ 281052.01, 4157828.39 ], [ 281052.05, 4157828.3 ], [ 281052.11, 4157828.22 ], [ 281052.17, 4157828.14 ], [ 281052.24, 4157828.07 ], [ 281052.32, 4157828.0 ], [ 281052.4, 4157827.94 ], [ 281052.49, 4157827.89 ], [ 281052.58, 4157827.85 ], [ 281057.62, 4157826.0 ], [ 281057.71, 4157825.97 ], [ 281057.8, 4157825.95 ], [ 281057.9, 4157825.94 ], [ 281058.0, 4157825.94 ], [ 281058.1, 4157825.95 ], [ 281058.19, 4157825.97 ], [ 281058.29, 4157825.99 ], [ 281058.38, 4157826.03 ], [ 281058.47, 4157826.08 ], [ 281058.55, 4157826.13 ], [ 281058.62, 4157826.19 ], [ 281058.69, 4157826.26 ], [ 281058.76, 4157826.33 ], [ 281058.81, 4157826.41 ], [ 281058.86, 4157826.5 ], [ 281058.9, 4157826.59 ], [ 281060.19, 4157830.08 ], [ 281060.22, 4157830.17 ], [ 281060.24, 4157830.27 ], [ 281060.25, 4157830.36 ], [ 281060.25, 4157830.46 ], [ 281060.25, 4157830.56 ], [ 281060.23, 4157830.66 ], [ 281060.2, 4157830.75 ], [ 281060.18, 4157830.8 ], [ 281067.84, 4157832.08 ], [ 281061.63, 4157818.56 ], [ 281060.01, 4157819.1 ], [ 281058.91, 4157819.02 ], [ 281058.16, 4157818.64 ], [ 281057.57, 4157818.1 ], [ 281056.35, 4157816.13 ], [ 281056.13, 4157815.35 ], [ 281056.13, 4157808.11 ], [ 281055.25, 4157805.99 ], [ 281054.32, 4157805.06 ], [ 281053.92, 4157804.31 ], [ 281053.54, 4157802.37 ], [ 281053.85, 4157801.61 ], [ 281046.4, 4157785.36 ], [ 281044.55, 4157787.2 ], [ 281043.53, 4157787.63 ], [ 281041.73, 4157787.63 ], [ 281040.77, 4157787.23 ], [ 281039.03, 4157788.01 ], [ 281038.94, 4157788.04 ], [ 281038.84, 4157788.07 ], [ 281038.74, 4157788.09 ], [ 281038.64, 4157788.09 ], [ 281038.54, 4157788.09 ], [ 281038.44, 4157788.08 ], [ 281038.35, 4157788.05 ], [ 281038.25, 4157788.02 ], [ 281038.16, 4157787.98 ], [ 281038.08, 4157787.93 ], [ 281037.99, 4157787.87 ], [ 281037.92, 4157787.8 ], [ 281037.85, 4157787.73 ], [ 281037.79, 4157787.65 ], [ 281037.74, 4157787.57 ], [ 281037.7, 4157787.48 ], [ 281035.8, 4157782.87 ], [ 281035.77, 4157782.78 ], [ 281035.74, 4157782.68 ], [ 281035.73, 4157782.59 ], [ 281035.73, 4157782.49 ], [ 281035.73, 4157782.39 ], [ 281035.74, 4157782.29 ], [ 281035.77, 4157782.2 ], [ 281035.8, 4157782.11 ], [ 281035.84, 4157782.02 ], [ 281035.9, 4157781.93 ], [ 281035.95, 4157781.85 ], [ 281036.02, 4157781.78 ], [ 281036.09, 4157781.72 ], [ 281036.17, 4157781.66 ], [ 281036.26, 4157781.61 ], [ 281036.35, 4157781.57 ], [ 281039.47, 4157780.28 ], [ 281040.71, 4157779.05 ], [ 281041.73, 4157778.63 ], [ 281043.31, 4157778.63 ], [ 281037.98, 4157767.02 ], [ 281037.19, 4157767.39 ], [ 281037.18, 4157767.39 ], [ 281037.17, 4157767.4 ], [ 281025.53, 4157772.61 ], [ 281023.91, 4157788.86 ], [ 281025.0, 4157791.09 ], [ 281025.01, 4157791.08 ], [ 281025.05, 4157790.99 ] ] ], [ [ [ 281089.34, 4157765.08 ], [ 281089.36, 4157765.17 ], [ 281089.37, 4157765.27 ], [ 281089.37, 4157765.37 ], [ 281089.36, 4157765.47 ], [ 281089.34, 4157765.56 ], [ 281089.32, 4157765.66 ], [ 281089.28, 4157765.75 ], [ 281089.23, 4157765.83 ], [ 281089.18, 4157765.92 ], [ 281089.13, 4157765.98 ], [ 281089.13, 4157767.35 ], [ 281088.91, 4157768.13 ], [ 281087.69, 4157770.1 ], [ 281087.1, 4157770.64 ], [ 281083.92, 4157772.23 ], [ 281083.6, 4157772.35 ], [ 281082.59, 4157772.59 ], [ 281082.25, 4157772.63 ], [ 281075.5, 4157772.63 ], [ 281074.63, 4157773.04 ], [ 281074.54, 4157773.08 ], [ 281074.45, 4157773.11 ], [ 281074.35, 4157773.13 ], [ 281074.26, 4157773.14 ], [ 281074.16, 4157773.14 ], [ 281074.06, 4157773.13 ], [ 281073.96, 4157773.11 ], [ 281073.87, 4157773.09 ], [ 281073.78, 4157773.05 ], [ 281073.69, 4157773.0 ], [ 281073.61, 4157772.95 ], [ 281073.54, 4157772.89 ], [ 281073.47, 4157772.82 ], [ 281073.4, 4157772.74 ], [ 281073.35, 4157772.66 ], [ 281073.33, 4157772.63 ], [ 281064.61, 4157772.63 ], [ 281062.09, 4157777.26 ], [ 281062.82, 4157778.38 ], [ 281063.79, 4157782.28 ], [ 281063.61, 4157782.97 ], [ 281063.89, 4157783.6 ], [ 281063.93, 4157783.69 ], [ 281063.96, 4157783.78 ], [ 281063.97, 4157783.88 ], [ 281063.98, 4157783.98 ], [ 281063.98, 4157784.08 ], [ 281063.97, 4157784.17 ], [ 281063.95, 4157784.27 ], [ 281063.92, 4157784.36 ], [ 281063.88, 4157784.45 ], [ 281063.83, 4157784.54 ], [ 281063.77, 4157784.62 ], [ 281063.71, 4157784.69 ], [ 281063.64, 4157784.76 ], [ 281063.56, 4157784.82 ], [ 281063.48, 4157784.88 ], [ 281063.39, 4157784.92 ], [ 281061.27, 4157785.87 ], [ 281061.01, 4157786.14 ], [ 281059.87, 4157786.5 ], [ 281056.81, 4157787.87 ], [ 281056.72, 4157787.91 ], [ 281056.63, 4157787.93 ], [ 281056.53, 4157787.95 ], [ 281056.43, 4157787.96 ], [ 281056.33, 4157787.96 ], [ 281056.24, 4157787.94 ], [ 281056.14, 4157787.92 ], [ 281056.05, 4157787.89 ], [ 281055.96, 4157787.85 ], [ 281055.87, 4157787.81 ], [ 281055.79, 4157787.75 ], [ 281055.72, 4157787.69 ], [ 281055.65, 4157787.62 ], [ 281055.59, 4157787.54 ], [ 281055.54, 4157787.46 ], [ 281055.49, 4157787.37 ], [ 281054.84, 4157785.93 ], [ 281053.62, 4157786.48 ], [ 281059.66, 4157799.63 ], [ 281066.2, 4157799.63 ], [ 281065.0, 4157797.0 ], [ 281064.96, 4157796.91 ], [ 281064.93, 4157796.81 ], [ 281064.91, 4157796.71 ], [ 281064.91, 4157796.62 ], [ 281064.91, 4157796.52 ], [ 281064.92, 4157796.42 ], [ 281064.94, 4157796.32 ], [ 281064.97, 4157796.23 ], [ 281065.01, 4157796.14 ], [ 281065.05, 4157796.05 ], [ 281065.11, 4157795.97 ], [ 281065.17, 4157795.9 ], [ 281065.24, 4157795.83 ], [ 281065.32, 4157795.77 ], [ 281065.4, 4157795.71 ], [ 281065.49, 4157795.67 ], [ 281069.95, 4157793.64 ], [ 281070.04, 4157793.61 ], [ 281070.13, 4157793.58 ], [ 281070.23, 4157793.56 ], [ 281070.33, 4157793.55 ], [ 281070.42, 4157793.55 ], [ 281070.52, 4157793.56 ], [ 281070.62, 4157793.59 ], [ 281070.71, 4157793.61 ], [ 281070.8, 4157793.65 ], [ 281070.89, 4157793.7 ], [ 281070.97, 4157793.76 ], [ 281071.04, 4157793.82 ], [ 281071.11, 4157793.89 ], [ 281071.17, 4157793.97 ], [ 281071.22, 4157794.05 ], [ 281071.27, 4157794.13 ], [ 281073.79, 4157799.63 ], [ 281074.13, 4157799.63 ], [ 281077.13, 4157796.63 ], [ 281077.13, 4157795.44 ], [ 281074.26, 4157789.2 ], [ 281074.22, 4157789.11 ], [ 281074.2, 4157789.02 ], [ 281074.18, 4157788.92 ], [ 281074.17, 4157788.82 ], [ 281074.17, 4157788.72 ], [ 281074.18, 4157788.62 ], [ 281074.2, 4157788.53 ], [ 281074.23, 4157788.43 ], [ 281074.27, 4157788.34 ], [ 281074.32, 4157788.26 ], [ 281074.38, 4157788.18 ], [ 281074.44, 4157788.1 ], [ 281074.51, 4157788.03 ], [ 281074.59, 4157787.97 ], [ 281074.67, 4157787.92 ], [ 281074.76, 4157787.87 ], [ 281075.51, 4157787.53 ], [ 281074.74, 4157785.85 ], [ 281074.7, 4157785.75 ], [ 281074.67, 4157785.66 ], [ 281074.66, 4157785.56 ], [ 281074.65, 4157785.47 ], [ 281074.65, 4157785.37 ], [ 281074.66, 4157785.27 ], [ 281074.68, 4157785.17 ], [ 281074.71, 4157785.08 ], [ 281074.75, 4157784.99 ], [ 281074.8, 4157784.9 ], [ 281074.85, 4157784.82 ], [ 281074.92, 4157784.75 ], [ 281074.99, 4157784.68 ], [ 281075.06, 4157784.62 ], [ 281075.15, 4157784.56 ], [ 281075.23, 4157784.52 ], [ 281078.91, 4157782.84 ], [ 281079.71, 4157782.05 ], [ 281080.73, 4157781.63 ], [ 281081.59, 4157781.63 ], [ 281085.93, 4157779.65 ], [ 281086.02, 4157779.61 ], [ 281086.11, 4157779.59 ], [ 281086.21, 4157779.57 ], [ 281086.31, 4157779.56 ], [ 281086.4, 4157779.56 ], [ 281086.5, 4157779.57 ], [ 281086.6, 4157779.59 ], [ 281086.69, 4157779.62 ], [ 281086.78, 4157779.66 ], [ 281086.87, 4157779.71 ], [ 281086.95, 4157779.76 ], [ 281087.02, 4157779.83 ], [ 281087.09, 4157779.9 ], [ 281087.15, 4157779.97 ], [ 281087.21, 4157780.06 ], [ 281087.25, 4157780.14 ], [ 281088.57, 4157783.02 ], [ 281089.3, 4157783.59 ], [ 281089.82, 4157784.38 ], [ 281090.57, 4157787.37 ], [ 281091.8, 4157790.06 ], [ 281091.84, 4157790.15 ], [ 281091.87, 4157790.25 ], [ 281091.88, 4157790.35 ], [ 281091.89, 4157790.44 ], [ 281091.89, 4157790.54 ], [ 281091.88, 4157790.64 ], [ 281091.86, 4157790.74 ], [ 281091.83, 4157790.83 ], [ 281091.79, 4157790.92 ], [ 281091.74, 4157791.01 ], [ 281091.69, 4157791.09 ], [ 281091.62, 4157791.16 ], [ 281091.55, 4157791.23 ], [ 281091.54, 4157791.24 ], [ 281092.23, 4157794.04 ], [ 281095.93, 4157802.09 ], [ 281095.97, 4157802.18 ], [ 281095.99, 4157802.28 ], [ 281096.01, 4157802.37 ], [ 281096.02, 4157802.47 ], [ 281096.02, 4157802.57 ], [ 281096.01, 4157802.67 ], [ 281095.99, 4157802.76 ], [ 281095.96, 4157802.86 ], [ 281095.92, 4157802.95 ], [ 281095.87, 4157803.03 ], [ 281095.82, 4157803.11 ], [ 281095.75, 4157803.19 ], [ 281095.68, 4157803.26 ], [ 281095.6, 4157803.32 ], [ 281095.52, 4157803.37 ], [ 281095.44, 4157803.42 ], [ 281094.62, 4157803.79 ], [ 281094.62, 4157804.35 ], [ 281094.03, 4157806.45 ], [ 281093.66, 4157807.1 ], [ 281092.59, 4157808.17 ], [ 281091.36, 4157808.57 ], [ 281087.98, 4157808.02 ], [ 281086.97, 4157807.27 ], [ 281078.26, 4157811.24 ], [ 281077.96, 4157812.13 ], [ 281077.43, 4157812.85 ], [ 281075.35, 4157814.35 ], [ 281074.5, 4157814.63 ], [ 281070.83, 4157814.63 ], [ 281069.12, 4157815.41 ], [ 281069.03, 4157815.44 ], [ 281068.93, 4157815.47 ], [ 281068.84, 4157815.49 ], [ 281068.74, 4157815.49 ], [ 281068.64, 4157815.49 ], [ 281068.54, 4157815.48 ], [ 281068.45, 4157815.46 ], [ 281068.35, 4157815.43 ], [ 281068.26, 4157815.39 ], [ 281068.18, 4157815.35 ], [ 281068.1, 4157815.29 ], [ 281068.02, 4157815.23 ], [ 281067.95, 4157815.16 ], [ 281067.89, 4157815.08 ], [ 281067.84, 4157815.0 ], [ 281067.79, 4157814.91 ], [ 281067.66, 4157814.63 ], [ 281066.99, 4157814.63 ], [ 281066.64, 4157814.84 ], [ 281074.97, 4157832.99 ], [ 281075.34, 4157832.91 ], [ 281076.26, 4157829.66 ], [ 281076.87, 4157828.85 ], [ 281079.27, 4157827.29 ], [ 281080.26, 4157827.07 ], [ 281093.71, 4157828.99 ], [ 281096.16, 4157826.29 ], [ 281096.11, 4157826.23 ], [ 281096.06, 4157826.15 ], [ 281096.01, 4157826.06 ], [ 281093.6, 4157821.01 ], [ 281093.56, 4157820.92 ], [ 281093.53, 4157820.82 ], [ 281093.51, 4157820.73 ], [ 281093.5, 4157820.63 ], [ 281093.5, 4157820.53 ], [ 281093.51, 4157820.43 ], [ 281093.53, 4157820.34 ], [ 281093.56, 4157820.24 ], [ 281093.59, 4157820.15 ], [ 281093.64, 4157820.07 ], [ 281093.69, 4157819.98 ], [ 281093.76, 4157819.91 ], [ 281093.82, 4157819.84 ], [ 281093.9, 4157819.78 ], [ 281093.98, 4157819.72 ], [ 281094.07, 4157819.68 ], [ 281096.77, 4157818.39 ], [ 281096.01, 4157816.82 ], [ 281095.98, 4157816.72 ], [ 281095.95, 4157816.63 ], [ 281095.93, 4157816.53 ], [ 281095.92, 4157816.44 ], [ 281095.92, 4157816.34 ], [ 281095.93, 4157816.24 ], [ 281095.95, 4157816.14 ], [ 281095.97, 4157816.05 ], [ 281096.01, 4157815.96 ], [ 281096.06, 4157815.87 ], [ 281096.11, 4157815.79 ], [ 281096.17, 4157815.71 ], [ 281096.24, 4157815.64 ], [ 281096.32, 4157815.58 ], [ 281096.4, 4157815.53 ], [ 281096.49, 4157815.48 ], [ 281103.89, 4157811.98 ], [ 281103.98, 4157811.94 ], [ 281104.07, 4157811.91 ], [ 281104.17, 4157811.89 ], [ 281104.26, 4157811.88 ], [ 281104.36, 4157811.88 ], [ 281104.46, 4157811.89 ], [ 281104.55, 4157811.91 ], [ 281104.65, 4157811.94 ], [ 281104.74, 4157811.97 ], [ 281104.83, 4157812.02 ], [ 281104.91, 4157812.07 ], [ 281104.98, 4157812.14 ], [ 281105.05, 4157812.21 ], [ 281105.11, 4157812.28 ], [ 281105.17, 4157812.36 ], [ 281105.22, 4157812.45 ], [ 281106.59, 4157815.33 ], [ 281106.86, 4157815.28 ], [ 281107.9, 4157815.46 ], [ 281110.41, 4157816.99 ], [ 281111.05, 4157817.83 ], [ 281115.92, 4157834.88 ], [ 281116.68, 4157836.18 ], [ 281124.04, 4157843.54 ], [ 281124.37, 4157844.02 ], [ 281125.02, 4157845.6 ], [ 281125.13, 4157846.16 ], [ 281125.13, 4157850.55 ], [ 281124.79, 4157851.49 ], [ 281122.97, 4157853.64 ], [ 281122.1, 4157854.13 ], [ 281117.19, 4157854.95 ], [ 281112.46, 4157857.28 ], [ 281112.37, 4157857.32 ], [ 281112.28, 4157857.35 ], [ 281112.19, 4157857.37 ], [ 281112.09, 4157857.38 ], [ 281111.99, 4157857.38 ], [ 281111.89, 4157857.38 ], [ 281111.8, 4157857.36 ], [ 281111.7, 4157857.33 ], [ 281111.61, 4157857.3 ], [ 281111.52, 4157857.25 ], [ 281111.44, 4157857.2 ], [ 281111.36, 4157857.14 ], [ 281111.29, 4157857.07 ], [ 281111.23, 4157857.0 ], [ 281111.17, 4157856.92 ], [ 281111.13, 4157856.83 ], [ 281110.59, 4157855.74 ], [ 281110.12, 4157855.62 ], [ 281107.64, 4157853.51 ], [ 281107.13, 4157852.42 ], [ 281107.13, 4157848.8 ], [ 281103.9, 4157842.31 ], [ 281103.86, 4157842.22 ], [ 281103.83, 4157842.12 ], [ 281103.81, 4157842.03 ], [ 281103.8, 4157841.93 ], [ 281103.79, 4157841.83 ], [ 281103.8, 4157841.73 ], [ 281103.82, 4157841.64 ], [ 281103.85, 4157841.54 ], [ 281103.88, 4157841.45 ], [ 281103.93, 4157841.36 ], [ 281103.98, 4157841.28 ], [ 281104.04, 4157841.2 ], [ 281104.11, 4157841.13 ], [ 281104.19, 4157841.07 ], [ 281104.27, 4157841.01 ], [ 281104.35, 4157840.96 ], [ 281107.13, 4157839.59 ], [ 281107.13, 4157838.63 ], [ 281104.13, 4157835.63 ], [ 281103.05, 4157835.63 ], [ 281102.23, 4157836.01 ], [ 281102.14, 4157836.05 ], [ 281102.05, 4157836.08 ], [ 281101.95, 4157836.1 ], [ 281101.86, 4157836.11 ], [ 281101.76, 4157836.11 ], [ 281101.66, 4157836.1 ], [ 281101.56, 4157836.08 ], [ 281101.47, 4157836.05 ], [ 281101.38, 4157836.02 ], [ 281101.29, 4157835.97 ], [ 281101.21, 4157835.92 ], [ 281101.14, 4157835.85 ], [ 281101.07, 4157835.78 ], [ 281101.0, 4157835.71 ], [ 281100.95, 4157835.63 ], [ 281094.16, 4157835.63 ], [ 281091.38, 4157837.51 ], [ 281087.25, 4157847.82 ], [ 281086.6, 4157848.56 ], [ 281084.15, 4157849.89 ], [ 281083.17, 4157850.03 ], [ 281082.75, 4157849.95 ], [ 281087.19, 4157859.63 ], [ 281088.54, 4157859.63 ], [ 281092.98, 4157857.7 ], [ 281093.07, 4157857.67 ], [ 281093.17, 4157857.64 ], [ 281093.26, 4157857.63 ], [ 281093.36, 4157857.62 ], [ 281093.46, 4157857.62 ], [ 281093.56, 4157857.64 ], [ 281093.65, 4157857.66 ], [ 281093.75, 4157857.69 ], [ 281093.84, 4157857.73 ], [ 281093.92, 4157857.78 ], [ 281094.0, 4157857.84 ], [ 281094.07, 4157857.9 ], [ 281094.14, 4157857.97 ], [ 281094.2, 4157858.05 ], [ 281094.25, 4157858.13 ], [ 281094.3, 4157858.22 ], [ 281096.53, 4157863.36 ], [ 281096.56, 4157863.45 ], [ 281096.59, 4157863.55 ], [ 281096.6, 4157863.64 ], [ 281096.61, 4157863.74 ], [ 281096.61, 4157863.84 ], [ 281096.59, 4157863.94 ], [ 281096.57, 4157864.03 ], [ 281096.54, 4157864.12 ], [ 281096.5, 4157864.21 ], [ 281096.45, 4157864.3 ], [ 281096.39, 4157864.38 ], [ 281096.33, 4157864.45 ], [ 281096.26, 4157864.52 ], [ 281096.18, 4157864.58 ], [ 281096.1, 4157864.63 ], [ 281096.01, 4157864.67 ], [ 281095.12, 4157865.06 ], [ 281094.71, 4157866.05 ], [ 281092.55, 4157868.2 ], [ 281091.53, 4157868.63 ], [ 281091.32, 4157868.63 ], [ 281098.23, 4157883.68 ], [ 281098.37, 4157883.63 ], [ 281102.53, 4157883.63 ], [ 281105.02, 4157882.29 ], [ 281108.59, 4157876.94 ], [ 281109.33, 4157876.37 ], [ 281111.84, 4157875.51 ], [ 281112.77, 4157875.51 ], [ 281116.06, 4157876.6 ], [ 281117.5, 4157875.81 ], [ 281117.48, 4157875.72 ], [ 281117.47, 4157875.62 ], [ 281117.47, 4157875.52 ], [ 281117.48, 4157875.42 ], [ 281117.5, 4157875.33 ], [ 281117.53, 4157875.23 ], [ 281117.57, 4157875.14 ], [ 281117.61, 4157875.06 ], [ 281117.67, 4157874.97 ], [ 281117.73, 4157874.9 ], [ 281117.8, 4157874.83 ], [ 281117.87, 4157874.77 ], [ 281117.96, 4157874.71 ], [ 281118.04, 4157874.67 ], [ 281120.12, 4157873.69 ], [ 281120.54, 4157871.98 ], [ 281119.49, 4157869.77 ], [ 281119.45, 4157869.68 ], [ 281119.42, 4157869.59 ], [ 281119.4, 4157869.49 ], [ 281119.39, 4157869.4 ], [ 281119.39, 4157869.3 ], [ 281119.4, 4157869.2 ], [ 281119.42, 4157869.1 ], [ 281119.45, 4157869.01 ], [ 281119.49, 4157868.92 ], [ 281119.53, 4157868.83 ], [ 281119.59, 4157868.75 ], [ 281119.65, 4157868.67 ], [ 281119.72, 4157868.6 ], [ 281119.8, 4157868.54 ], [ 281119.88, 4157868.49 ], [ 281119.97, 4157868.44 ], [ 281122.25, 4157867.36 ], [ 281124.08, 4157865.93 ], [ 281124.98, 4157865.63 ], [ 281130.93, 4157865.63 ], [ 281131.89, 4157865.99 ], [ 281134.05, 4157867.89 ], [ 281134.53, 4157868.8 ], [ 281136.7, 4157886.21 ], [ 281136.48, 4157887.08 ], [ 281138.66, 4157890.73 ], [ 281138.86, 4157890.78 ], [ 281144.79, 4157894.73 ], [ 281145.22, 4157895.16 ], [ 281146.18, 4157896.65 ], [ 281146.4, 4157897.21 ], [ 281147.73, 4157905.24 ], [ 281148.29, 4157906.45 ], [ 281148.32, 4157906.54 ], [ 281148.35, 4157906.64 ], [ 281148.37, 4157906.73 ], [ 281148.38, 4157906.83 ], [ 281148.38, 4157906.93 ], [ 281148.36, 4157907.03 ], [ 281148.34, 4157907.12 ], [ 281148.31, 4157907.22 ], [ 281148.28, 4157907.31 ], [ 281148.23, 4157907.39 ], [ 281148.17, 4157907.47 ], [ 281148.12, 4157907.54 ], [ 281148.32, 4157908.77 ], [ 281148.03, 4157909.69 ], [ 281148.17, 4157910.0 ], [ 281148.2, 4157910.09 ], [ 281148.23, 4157910.18 ], [ 281148.25, 4157910.28 ], [ 281148.26, 4157910.38 ], [ 281148.26, 4157910.48 ], [ 281148.25, 4157910.57 ], [ 281148.23, 4157910.67 ], [ 281148.2, 4157910.76 ], [ 281148.16, 4157910.85 ], [ 281148.11, 4157910.94 ], [ 281148.05, 4157911.02 ], [ 281147.99, 4157911.1 ], [ 281147.92, 4157911.16 ], [ 281147.84, 4157911.23 ], [ 281147.76, 4157911.28 ], [ 281147.67, 4157911.32 ], [ 281145.72, 4157912.21 ], [ 281145.5, 4157912.42 ], [ 281144.62, 4157912.71 ], [ 281142.8, 4157913.53 ], [ 281142.7, 4157913.56 ], [ 281142.61, 4157913.59 ], [ 281142.51, 4157913.61 ], [ 281142.42, 4157913.62 ], [ 281142.32, 4157913.62 ], [ 281142.22, 4157913.6 ], [ 281142.13, 4157913.58 ], [ 281142.03, 4157913.55 ], [ 281141.94, 4157913.52 ], [ 281141.86, 4157913.47 ], [ 281141.78, 4157913.41 ], [ 281141.7, 4157913.35 ], [ 281141.63, 4157913.28 ], [ 281141.57, 4157913.2 ], [ 281141.52, 4157913.12 ], [ 281141.47, 4157913.03 ], [ 281141.14, 4157912.29 ], [ 281138.66, 4157911.88 ], [ 281135.77, 4157913.19 ], [ 281135.68, 4157913.23 ], [ 281135.58, 4157913.25 ], [ 281135.48, 4157913.27 ], [ 281135.39, 4157913.28 ], [ 281135.29, 4157913.28 ], [ 281135.19, 4157913.27 ], [ 281135.1, 4157913.25 ], [ 281135.0, 4157913.22 ], [ 281134.91, 4157913.18 ], [ 281134.83, 4157913.13 ], [ 281134.75, 4157913.08 ], [ 281134.67, 4157913.01 ], [ 281134.6, 4157912.94 ], [ 281134.54, 4157912.87 ], [ 281134.49, 4157912.78 ], [ 281134.44, 4157912.7 ], [ 281133.69, 4157911.05 ], [ 281131.87, 4157910.75 ], [ 281130.42, 4157910.86 ], [ 281124.18, 4157912.94 ], [ 281122.13, 4157915.79 ], [ 281122.13, 4157916.03 ], [ 281121.71, 4157917.05 ], [ 281121.48, 4157917.27 ], [ 281121.83, 4157917.99 ], [ 281121.87, 4157918.08 ], [ 281121.89, 4157918.18 ], [ 281121.91, 4157918.27 ], [ 281121.92, 4157918.37 ], [ 281121.92, 4157918.47 ], [ 281121.92, 4157918.57 ], [ 281121.9, 4157918.66 ], [ 281121.87, 4157918.76 ], [ 281121.83, 4157918.85 ], [ 281121.79, 4157918.93 ], [ 281121.73, 4157919.02 ], [ 281121.67, 4157919.09 ], [ 281121.6, 4157919.16 ], [ 281121.52, 4157919.23 ], [ 281121.44, 4157919.28 ], [ 281121.36, 4157919.33 ], [ 281116.78, 4157921.51 ], [ 281116.69, 4157921.55 ], [ 281116.6, 4157921.58 ], [ 281116.5, 4157921.6 ], [ 281116.4, 4157921.61 ], [ 281116.31, 4157921.61 ], [ 281116.21, 4157921.6 ], [ 281116.11, 4157921.58 ], [ 281116.02, 4157921.55 ], [ 281115.93, 4157921.52 ], [ 281115.84, 4157921.47 ], [ 281115.76, 4157921.42 ], [ 281115.68, 4157921.36 ], [ 281115.61, 4157921.29 ], [ 281115.55, 4157921.21 ], [ 281115.5, 4157921.13 ], [ 281115.45, 4157921.04 ], [ 281114.49, 4157919.05 ], [ 281114.47, 4157919.06 ], [ 281117.73, 4157926.17 ], [ 281118.31, 4157925.91 ], [ 281156.27, 4157908.64 ], [ 281157.46, 4157900.32 ], [ 281105.23, 4157786.75 ], [ 281102.21, 4157782.97 ], [ 281101.93, 4157782.4 ], [ 281101.48, 4157780.57 ], [ 281101.47, 4157779.93 ], [ 281101.66, 4157778.99 ], [ 281091.93, 4157757.83 ], [ 281089.13, 4157760.63 ], [ 281089.13, 4157764.6 ], [ 281089.27, 4157764.89 ], [ 281089.31, 4157764.98 ], [ 281089.34, 4157765.08 ] ] ], [ [ [ 281120.95, 4157807.26 ], [ 281120.2, 4157807.55 ], [ 281118.82, 4157807.68 ], [ 281159.68, 4157896.54 ], [ 281160.32, 4157895.98 ], [ 281161.27, 4157895.63 ], [ 281163.49, 4157895.63 ], [ 281121.17, 4157807.1 ], [ 281120.95, 4157807.26 ] ] ], [ [ [ 281056.67, 4157845.72 ], [ 281056.58, 4157845.73 ], [ 281056.48, 4157845.73 ], [ 281056.38, 4157845.72 ], [ 281056.28, 4157845.7 ], [ 281056.26, 4157845.69 ], [ 281055.3, 4157846.28 ], [ 281050.37, 4157856.15 ], [ 281050.79, 4157859.45 ], [ 281054.0, 4157860.34 ], [ 281054.04, 4157860.32 ], [ 281055.66, 4157859.03 ], [ 281056.03, 4157858.4 ], [ 281056.57, 4157857.88 ], [ 281058.46, 4157856.82 ], [ 281059.19, 4157856.63 ], [ 281059.5, 4157856.63 ], [ 281060.35, 4157856.9 ], [ 281062.43, 4157858.4 ], [ 281062.96, 4157859.12 ], [ 281064.41, 4157863.46 ], [ 281064.47, 4157863.59 ], [ 281067.29, 4157865.63 ], [ 281073.0, 4157865.63 ], [ 281073.2, 4157865.74 ], [ 281077.58, 4157863.85 ], [ 281078.18, 4157861.44 ], [ 281079.02, 4157860.47 ], [ 281080.58, 4157859.84 ], [ 281071.0, 4157838.97 ], [ 281070.46, 4157839.0 ], [ 281070.37, 4157839.23 ], [ 281070.04, 4157839.71 ], [ 281066.22, 4157843.54 ], [ 281065.74, 4157843.86 ], [ 281064.16, 4157844.51 ], [ 281063.59, 4157844.63 ], [ 281059.17, 4157844.63 ], [ 281056.96, 4157845.64 ], [ 281056.86, 4157845.68 ], [ 281056.77, 4157845.71 ], [ 281056.67, 4157845.72 ] ] ], [ [ [ 281068.67, 4157929.08 ], [ 281068.71, 4157928.99 ], [ 281068.77, 4157928.91 ], [ 281068.83, 4157928.84 ], [ 281068.9, 4157928.77 ], [ 281068.97, 4157928.7 ], [ 281069.06, 4157928.65 ], [ 281069.14, 4157928.6 ], [ 281070.48, 4157927.97 ], [ 281068.13, 4157925.63 ], [ 281067.4, 4157925.63 ], [ 281066.63, 4157925.41 ], [ 281064.66, 4157924.19 ], [ 281064.12, 4157923.59 ], [ 281062.7, 4157920.77 ], [ 281062.56, 4157920.3 ], [ 281062.37, 4157918.86 ], [ 281062.38, 4157918.37 ], [ 281062.53, 4157917.65 ], [ 281059.48, 4157911.3 ], [ 281059.45, 4157911.21 ], [ 281059.42, 4157911.12 ], [ 281059.4, 4157911.02 ], [ 281059.39, 4157910.92 ], [ 281059.39, 4157910.83 ], [ 281059.4, 4157910.73 ], [ 281059.42, 4157910.63 ], [ 281059.44, 4157910.54 ], [ 281059.48, 4157910.45 ], [ 281059.53, 4157910.36 ], [ 281059.58, 4157910.28 ], [ 281059.64, 4157910.2 ], [ 281059.71, 4157910.13 ], [ 281059.79, 4157910.07 ], [ 281059.87, 4157910.01 ], [ 281059.96, 4157909.97 ], [ 281063.23, 4157908.41 ], [ 281063.2, 4157908.34 ], [ 281063.16, 4157908.25 ], [ 281063.13, 4157908.16 ], [ 281063.11, 4157908.06 ], [ 281063.1, 4157907.96 ], [ 281063.1, 4157907.86 ], [ 281063.11, 4157907.77 ], [ 281063.13, 4157907.67 ], [ 281063.16, 4157907.57 ], [ 281063.2, 4157907.48 ], [ 281063.24, 4157907.4 ], [ 281063.3, 4157907.31 ], [ 281063.36, 4157907.24 ], [ 281063.43, 4157907.17 ], [ 281063.5, 4157907.11 ], [ 281061.47, 4157904.63 ], [ 281059.21, 4157904.63 ], [ 281058.27, 4157904.28 ], [ 281058.04, 4157904.09 ], [ 281057.77, 4157904.23 ], [ 281057.68, 4157904.27 ], [ 281057.59, 4157904.3 ], [ 281057.49, 4157904.32 ], [ 281057.4, 4157904.33 ], [ 281057.3, 4157904.33 ], [ 281057.2, 4157904.33 ], [ 281057.1, 4157904.31 ], [ 281057.01, 4157904.28 ], [ 281056.92, 4157904.25 ], [ 281056.83, 4157904.2 ], [ 281056.75, 4157904.15 ], [ 281056.67, 4157904.09 ], [ 281056.6, 4157904.02 ], [ 281056.53, 4157903.95 ], [ 281056.48, 4157903.87 ], [ 281056.43, 4157903.78 ], [ 281054.31, 4157899.56 ], [ 281054.27, 4157899.47 ], [ 281054.24, 4157899.38 ], [ 281054.22, 4157899.28 ], [ 281054.21, 4157899.19 ], [ 281054.2, 4157899.09 ], [ 281054.21, 4157898.99 ], [ 281054.23, 4157898.89 ], [ 281054.26, 4157898.8 ], [ 281054.29, 4157898.7 ], [ 281054.34, 4157898.62 ], [ 281054.39, 4157898.53 ], [ 281054.45, 4157898.46 ], [ 281054.52, 4157898.39 ], [ 281054.59, 4157898.32 ], [ 281054.68, 4157898.27 ], [ 281054.76, 4157898.22 ], [ 281055.04, 4157898.08 ], [ 281054.65, 4157895.75 ], [ 281052.43, 4157891.32 ], [ 281052.39, 4157891.23 ], [ 281052.36, 4157891.13 ], [ 281052.34, 4157891.04 ], [ 281052.33, 4157890.94 ], [ 281052.32, 4157890.84 ], [ 281052.33, 4157890.74 ], [ 281052.35, 4157890.65 ], [ 281052.38, 4157890.55 ], [ 281052.41, 4157890.46 ], [ 281052.46, 4157890.37 ], [ 281052.51, 4157890.29 ], [ 281052.57, 4157890.21 ], [ 281052.64, 4157890.14 ], [ 281052.71, 4157890.08 ], [ 281052.79, 4157890.02 ], [ 281052.88, 4157889.97 ], [ 281054.53, 4157889.15 ], [ 281056.25, 4157887.13 ], [ 281057.33, 4157886.63 ], [ 281059.61, 4157886.63 ], [ 281059.93, 4157886.47 ], [ 281060.02, 4157886.43 ], [ 281060.11, 4157886.4 ], [ 281060.21, 4157886.38 ], [ 281060.31, 4157886.36 ], [ 281060.4, 4157886.36 ], [ 281060.5, 4157886.37 ], [ 281060.6, 4157886.39 ], [ 281060.69, 4157886.41 ], [ 281060.78, 4157886.45 ], [ 281060.87, 4157886.49 ], [ 281060.95, 4157886.55 ], [ 281061.03, 4157886.61 ], [ 281061.05, 4157886.63 ], [ 281062.38, 4157886.63 ], [ 281063.26, 4157886.92 ], [ 281065.36, 4157888.51 ], [ 281065.89, 4157889.27 ], [ 281069.66, 4157902.49 ], [ 281069.61, 4157903.39 ], [ 281072.56, 4157906.13 ], [ 281072.62, 4157906.11 ], [ 281072.71, 4157906.08 ], [ 281072.81, 4157906.06 ], [ 281072.91, 4157906.05 ], [ 281073.0, 4157906.05 ], [ 281073.1, 4157906.06 ], [ 281073.2, 4157906.08 ], [ 281073.29, 4157906.11 ], [ 281073.38, 4157906.15 ], [ 281073.47, 4157906.19 ], [ 281073.55, 4157906.25 ], [ 281073.63, 4157906.31 ], [ 281073.7, 4157906.38 ], [ 281073.75, 4157906.45 ], [ 281074.3, 4157906.37 ], [ 281076.38, 4157906.76 ], [ 281077.46, 4157907.94 ], [ 281077.66, 4157910.06 ], [ 281077.34, 4157911.44 ], [ 281077.38, 4157911.45 ], [ 281077.3, 4157911.74 ], [ 281078.58, 4157914.44 ], [ 281078.62, 4157914.53 ], [ 281078.65, 4157914.62 ], [ 281078.67, 4157914.72 ], [ 281078.68, 4157914.82 ], [ 281078.68, 4157914.91 ], [ 281078.67, 4157915.01 ], [ 281078.65, 4157915.11 ], [ 281078.62, 4157915.2 ], [ 281078.59, 4157915.29 ], [ 281078.54, 4157915.38 ], [ 281078.48, 4157915.46 ], [ 281078.42, 4157915.54 ], [ 281078.35, 4157915.61 ], [ 281078.28, 4157915.67 ], [ 281078.19, 4157915.73 ], [ 281078.11, 4157915.77 ], [ 281077.19, 4157916.2 ], [ 281078.25, 4157918.42 ], [ 281078.29, 4157918.51 ], [ 281078.32, 4157918.6 ], [ 281078.34, 4157918.7 ], [ 281078.35, 4157918.8 ], [ 281078.35, 4157918.9 ], [ 281078.34, 4157918.99 ], [ 281078.32, 4157919.09 ], [ 281078.3, 4157919.19 ], [ 281078.26, 4157919.28 ], [ 281078.21, 4157919.36 ], [ 281078.16, 4157919.45 ], [ 281078.1, 4157919.52 ], [ 281078.03, 4157919.59 ], [ 281077.95, 4157919.65 ], [ 281077.87, 4157919.71 ], [ 281077.78, 4157919.76 ], [ 281077.13, 4157920.06 ], [ 281077.13, 4157925.18 ], [ 281077.03, 4157925.5 ], [ 281077.47, 4157928.13 ], [ 281077.48, 4157928.15 ], [ 281078.97, 4157929.24 ], [ 281083.63, 4157930.79 ], [ 281084.26, 4157931.25 ], [ 281084.34, 4157931.3 ], [ 281084.41, 4157931.37 ], [ 281084.48, 4157931.44 ], [ 281084.54, 4157931.51 ], [ 281084.6, 4157931.59 ], [ 281084.64, 4157931.68 ], [ 281084.71, 4157931.82 ], [ 281085.86, 4157933.4 ], [ 281086.13, 4157934.26 ], [ 281086.13, 4157934.8 ], [ 281086.44, 4157935.45 ], [ 281087.39, 4157935.01 ], [ 281087.06, 4157934.33 ], [ 281087.02, 4157934.24 ], [ 281086.99, 4157934.14 ], [ 281086.97, 4157934.05 ], [ 281086.96, 4157933.95 ], [ 281086.96, 4157933.85 ], [ 281086.97, 4157933.75 ], [ 281086.99, 4157933.66 ], [ 281087.02, 4157933.56 ], [ 281087.06, 4157933.47 ], [ 281087.1, 4157933.38 ], [ 281087.16, 4157933.3 ], [ 281087.22, 4157933.23 ], [ 281087.29, 4157933.16 ], [ 281087.37, 4157933.09 ], [ 281087.45, 4157933.04 ], [ 281087.54, 4157932.99 ], [ 281094.21, 4157929.84 ], [ 281094.3, 4157929.8 ], [ 281094.39, 4157929.77 ], [ 281094.49, 4157929.76 ], [ 281094.59, 4157929.75 ], [ 281094.68, 4157929.75 ], [ 281094.78, 4157929.76 ], [ 281094.88, 4157929.77 ], [ 281094.97, 4157929.8 ], [ 281095.06, 4157929.84 ], [ 281095.15, 4157929.89 ], [ 281095.23, 4157929.94 ], [ 281095.31, 4157930.0 ], [ 281095.37, 4157930.07 ], [ 281095.44, 4157930.15 ], [ 281095.49, 4157930.23 ], [ 281095.54, 4157930.31 ], [ 281097.87, 4157935.21 ], [ 281111.22, 4157929.14 ], [ 281112.18, 4157928.7 ], [ 281103.89, 4157910.63 ], [ 281099.34, 4157910.63 ], [ 281096.43, 4157911.88 ], [ 281096.34, 4157911.92 ], [ 281096.24, 4157911.94 ], [ 281096.15, 4157911.96 ], [ 281096.05, 4157911.96 ], [ 281095.95, 4157911.96 ], [ 281095.85, 4157911.95 ], [ 281095.76, 4157911.93 ], [ 281095.67, 4157911.89 ], [ 281095.58, 4157911.85 ], [ 281095.49, 4157911.81 ], [ 281095.41, 4157911.75 ], [ 281095.34, 4157911.68 ], [ 281095.27, 4157911.61 ], [ 281095.21, 4157911.54 ], [ 281095.16, 4157911.45 ], [ 281095.12, 4157911.37 ], [ 281095.07, 4157911.26 ], [ 281093.86, 4157912.0 ], [ 281093.77, 4157912.05 ], [ 281093.68, 4157912.09 ], [ 281093.58, 4157912.12 ], [ 281093.49, 4157912.13 ], [ 281093.39, 4157912.14 ], [ 281093.29, 4157912.14 ], [ 281093.19, 4157912.13 ], [ 281093.09, 4157912.11 ], [ 281092.99, 4157912.08 ], [ 281092.9, 4157912.04 ], [ 281092.81, 4157911.99 ], [ 281092.73, 4157911.94 ], [ 281092.65, 4157911.87 ], [ 281092.58, 4157911.8 ], [ 281092.52, 4157911.72 ], [ 281092.47, 4157911.63 ], [ 281092.42, 4157911.54 ], [ 281089.38, 4157904.56 ], [ 281089.35, 4157904.47 ], [ 281089.32, 4157904.38 ], [ 281089.31, 4157904.28 ], [ 281089.3, 4157904.18 ], [ 281089.3, 4157904.08 ], [ 281089.32, 4157903.98 ], [ 281089.34, 4157903.89 ], [ 281089.37, 4157903.8 ], [ 281089.41, 4157903.71 ], [ 281089.46, 4157903.62 ], [ 281089.52, 4157903.54 ], [ 281089.58, 4157903.47 ], [ 281089.65, 4157903.4 ], [ 281089.73, 4157903.34 ], [ 281089.82, 4157903.29 ], [ 281089.9, 4157903.24 ], [ 281093.1, 4157901.86 ], [ 281094.42, 4157890.0 ], [ 281084.61, 4157868.63 ], [ 281080.92, 4157868.63 ], [ 281080.45, 4157868.4 ], [ 281077.37, 4157870.42 ], [ 281076.46, 4157869.97 ], [ 281075.54, 4157871.81 ], [ 281074.79, 4157872.51 ], [ 281072.16, 4157873.6 ], [ 281071.15, 4157873.63 ], [ 281066.89, 4157872.21 ], [ 281066.12, 4157872.39 ], [ 281062.88, 4157873.87 ], [ 281060.22, 4157876.54 ], [ 281059.74, 4157876.86 ], [ 281058.16, 4157877.51 ], [ 281057.59, 4157877.63 ], [ 281053.58, 4157877.63 ], [ 281053.77, 4157878.04 ], [ 281053.81, 4157878.13 ], [ 281053.84, 4157878.22 ], [ 281053.86, 4157878.32 ], [ 281053.86, 4157878.42 ], [ 281053.86, 4157878.51 ], [ 281053.85, 4157878.61 ], [ 281053.83, 4157878.71 ], [ 281053.8, 4157878.8 ], [ 281053.76, 4157878.89 ], [ 281053.72, 4157878.98 ], [ 281053.66, 4157879.06 ], [ 281053.6, 4157879.14 ], [ 281053.53, 4157879.2 ], [ 281053.45, 4157879.27 ], [ 281053.37, 4157879.32 ], [ 281053.28, 4157879.36 ], [ 281048.01, 4157881.77 ], [ 281047.92, 4157881.8 ], [ 281047.83, 4157881.83 ], [ 281047.73, 4157881.85 ], [ 281047.63, 4157881.86 ], [ 281047.53, 4157881.86 ], [ 281047.44, 4157881.85 ], [ 281047.34, 4157881.83 ], [ 281047.25, 4157881.8 ], [ 281047.16, 4157881.76 ], [ 281047.07, 4157881.71 ], [ 281046.99, 4157881.66 ], [ 281046.92, 4157881.59 ], [ 281046.85, 4157881.52 ], [ 281046.79, 4157881.45 ], [ 281046.73, 4157881.36 ], [ 281046.69, 4157881.28 ], [ 281041.3, 4157869.58 ], [ 281041.27, 4157869.49 ], [ 281041.24, 4157869.4 ], [ 281041.22, 4157869.3 ], [ 281041.21, 4157869.2 ], [ 281041.21, 4157869.1 ], [ 281041.22, 4157869.01 ], [ 281041.24, 4157868.91 ], [ 281041.27, 4157868.82 ], [ 281041.31, 4157868.72 ], [ 281041.36, 4157868.64 ], [ 281041.42, 4157868.56 ], [ 281041.48, 4157868.48 ], [ 281041.55, 4157868.41 ], [ 281041.63, 4157868.35 ], [ 281041.71, 4157868.3 ], [ 281041.8, 4157868.25 ], [ 281046.43, 4157866.14 ], [ 281046.58, 4157865.36 ], [ 281043.99, 4157862.23 ], [ 281044.08, 4157861.86 ], [ 281043.33, 4157861.67 ], [ 281039.44, 4157863.48 ], [ 281039.35, 4157863.52 ], [ 281039.26, 4157863.54 ], [ 281039.16, 4157863.56 ], [ 281039.07, 4157863.57 ], [ 281038.97, 4157863.57 ], [ 281038.87, 4157863.56 ], [ 281038.77, 4157863.54 ], [ 281038.68, 4157863.51 ], [ 281038.59, 4157863.48 ], [ 281038.5, 4157863.43 ], [ 281038.42, 4157863.37 ], [ 281038.35, 4157863.31 ], [ 281038.28, 4157863.24 ], [ 281038.22, 4157863.17 ], [ 281038.16, 4157863.08 ], [ 281038.12, 4157863.0 ], [ 281037.48, 4157861.63 ], [ 281035.13, 4157863.47 ], [ 281035.13, 4157871.63 ], [ 281036.98, 4157874.4 ], [ 281038.55, 4157875.05 ], [ 281040.02, 4157876.52 ], [ 281041.92, 4157876.77 ], [ 281041.13, 4157877.89 ], [ 281041.13, 4157884.91 ], [ 281067.02, 4157940.63 ], [ 281068.13, 4157940.63 ], [ 281071.13, 4157937.63 ], [ 281071.13, 4157935.11 ], [ 281068.67, 4157929.94 ], [ 281068.63, 4157929.85 ], [ 281068.6, 4157929.75 ], [ 281068.58, 4157929.66 ], [ 281068.57, 4157929.56 ], [ 281068.57, 4157929.46 ], [ 281068.58, 4157929.36 ], [ 281068.6, 4157929.27 ], [ 281068.63, 4157929.17 ], [ 281068.67, 4157929.08 ] ], [ [ 281083.15, 4157873.51 ], [ 281083.24, 4157873.47 ], [ 281083.33, 4157873.44 ], [ 281083.43, 4157873.42 ], [ 281083.53, 4157873.41 ], [ 281083.62, 4157873.42 ], [ 281083.72, 4157873.43 ], [ 281083.82, 4157873.45 ], [ 281083.91, 4157873.47 ], [ 281084.0, 4157873.51 ], [ 281084.09, 4157873.56 ], [ 281084.17, 4157873.62 ], [ 281084.24, 4157873.68 ], [ 281084.31, 4157873.75 ], [ 281084.37, 4157873.82 ], [ 281084.43, 4157873.91 ], [ 281084.47, 4157873.99 ], [ 281085.91, 4157877.09 ], [ 281085.94, 4157877.18 ], [ 281085.97, 4157877.27 ], [ 281085.99, 4157877.37 ], [ 281086.0, 4157877.47 ], [ 281086.0, 4157877.56 ], [ 281085.99, 4157877.66 ], [ 281085.97, 4157877.76 ], [ 281085.94, 4157877.85 ], [ 281085.9, 4157877.94 ], [ 281085.85, 4157878.03 ], [ 281085.8, 4157878.11 ], [ 281085.73, 4157878.19 ], [ 281085.66, 4157878.25 ], [ 281085.59, 4157878.32 ], [ 281085.51, 4157878.37 ], [ 281085.42, 4157878.42 ], [ 281079.24, 4157881.27 ], [ 281079.15, 4157881.3 ], [ 281079.06, 4157881.33 ], [ 281078.96, 4157881.35 ], [ 281078.86, 4157881.36 ], [ 281078.76, 4157881.36 ], [ 281078.66, 4157881.34 ], [ 281078.57, 4157881.32 ], [ 281078.47, 4157881.29 ], [ 281078.38, 4157881.25 ], [ 281078.3, 4157881.21 ], [ 281078.21, 4157881.15 ], [ 281078.14, 4157881.09 ], [ 281078.07, 4157881.02 ], [ 281078.01, 4157880.94 ], [ 281077.96, 4157880.86 ], [ 281077.91, 4157880.77 ], [ 281076.51, 4157877.65 ], [ 281076.48, 4157877.56 ], [ 281076.45, 4157877.47 ], [ 281076.43, 4157877.37 ], [ 281076.42, 4157877.27 ], [ 281076.43, 4157877.17 ], [ 281076.44, 4157877.08 ], [ 281076.46, 4157876.98 ], [ 281076.49, 4157876.89 ], [ 281076.53, 4157876.8 ], [ 281076.57, 4157876.71 ], [ 281076.63, 4157876.63 ], [ 281076.69, 4157876.56 ], [ 281076.76, 4157876.49 ], [ 281076.84, 4157876.43 ], [ 281076.92, 4157876.38 ], [ 281077.0, 4157876.33 ], [ 281083.15, 4157873.51 ] ] ], [ [ [ 281142.44, 4157934.06 ], [ 281142.49, 4157933.98 ], [ 281142.55, 4157933.89 ], [ 281143.46, 4157932.77 ], [ 281124.48, 4157941.49 ], [ 281124.44, 4157941.5 ], [ 281134.55, 4157963.22 ], [ 281134.56, 4157963.12 ], [ 281134.58, 4157963.03 ], [ 281134.61, 4157962.93 ], [ 281134.65, 4157962.84 ], [ 281134.69, 4157962.76 ], [ 281134.75, 4157962.67 ], [ 281134.81, 4157962.6 ], [ 281134.88, 4157962.53 ], [ 281134.95, 4157962.47 ], [ 281135.04, 4157962.41 ], [ 281135.12, 4157962.36 ], [ 281137.13, 4157961.4 ], [ 281137.13, 4157951.9 ], [ 281137.35, 4157951.12 ], [ 281138.57, 4157949.15 ], [ 281139.16, 4157948.61 ], [ 281141.47, 4157947.45 ], [ 281143.13, 4157944.77 ], [ 281143.13, 4157938.15 ], [ 281142.45, 4157936.69 ], [ 281142.41, 4157936.59 ], [ 281142.38, 4157936.49 ], [ 281142.36, 4157936.39 ], [ 281142.35, 4157936.28 ], [ 281142.32, 4157934.54 ], [ 281142.33, 4157934.44 ], [ 281142.34, 4157934.34 ], [ 281142.36, 4157934.25 ], [ 281142.4, 4157934.15 ], [ 281142.44, 4157934.06 ] ] ], [ [ [ 281133.99, 4157979.48 ], [ 281115.22, 4157988.3 ], [ 281116.33, 4157989.58 ], [ 281116.62, 4157990.08 ], [ 281119.48, 4157998.69 ], [ 281120.94, 4157998.91 ], [ 281120.27, 4157997.42 ], [ 281134.44, 4157991.12 ], [ 281136.91, 4157996.62 ], [ 281137.96, 4157995.97 ], [ 281139.12, 4157993.66 ], [ 281139.66, 4157993.06 ], [ 281141.25, 4157992.08 ], [ 281138.62, 4157986.45 ], [ 281138.62, 4157986.51 ], [ 281138.61, 4157986.61 ], [ 281138.59, 4157986.71 ], [ 281138.55, 4157986.8 ], [ 281138.51, 4157986.89 ], [ 281138.46, 4157986.97 ], [ 281138.4, 4157987.05 ], [ 281138.34, 4157987.13 ], [ 281138.26, 4157987.19 ], [ 281138.19, 4157987.25 ], [ 281138.1, 4157987.3 ], [ 281138.01, 4157987.35 ], [ 281135.0, 4157988.61 ], [ 281134.9, 4157988.65 ], [ 281134.81, 4157988.67 ], [ 281134.71, 4157988.69 ], [ 281134.61, 4157988.69 ], [ 281134.52, 4157988.69 ], [ 281134.42, 4157988.67 ], [ 281134.32, 4157988.65 ], [ 281134.23, 4157988.62 ], [ 281134.14, 4157988.58 ], [ 281134.06, 4157988.53 ], [ 281133.98, 4157988.47 ], [ 281133.91, 4157988.4 ], [ 281133.84, 4157988.33 ], [ 281133.78, 4157988.25 ], [ 281133.73, 4157988.17 ], [ 281133.69, 4157988.08 ], [ 281131.47, 4157982.82 ], [ 281131.44, 4157982.73 ], [ 281131.41, 4157982.63 ], [ 281131.4, 4157982.53 ], [ 281131.39, 4157982.44 ], [ 281131.4, 4157982.34 ], [ 281131.41, 4157982.24 ], [ 281131.43, 4157982.15 ], [ 281131.47, 4157982.05 ], [ 281131.51, 4157981.96 ], [ 281131.56, 4157981.88 ], [ 281131.62, 4157981.8 ], [ 281131.68, 4157981.73 ], [ 281131.75, 4157981.66 ], [ 281131.83, 4157981.6 ], [ 281131.92, 4157981.55 ], [ 281132.0, 4157981.51 ], [ 281135.01, 4157980.24 ], [ 281135.1, 4157980.21 ], [ 281135.2, 4157980.18 ], [ 281135.3, 4157980.17 ], [ 281135.39, 4157980.16 ], [ 281135.49, 4157980.17 ], [ 281135.59, 4157980.18 ], [ 281135.68, 4157980.2 ], [ 281135.73, 4157980.22 ], [ 281118.89, 4157944.05 ], [ 281118.6, 4157944.18 ], [ 281110.13, 4157948.07 ], [ 281110.13, 4157952.63 ], [ 281113.13, 4157955.63 ], [ 281115.69, 4157955.63 ], [ 281116.5, 4157955.87 ], [ 281118.15, 4157956.97 ], [ 281118.73, 4157958.37 ], [ 281118.34, 4157960.31 ], [ 281117.94, 4157961.06 ], [ 281117.01, 4157961.99 ], [ 281116.13, 4157964.11 ], [ 281116.13, 4157968.61 ], [ 281126.53, 4157963.72 ], [ 281133.99, 4157979.48 ] ] ], [ [ [ 281097.9, 4157994.11 ], [ 281097.88, 4157994.01 ], [ 281097.87, 4157993.92 ], [ 281097.88, 4157993.82 ], [ 281097.89, 4157993.72 ], [ 281097.91, 4157993.62 ], [ 281097.94, 4157993.53 ], [ 281097.98, 4157993.44 ], [ 281098.03, 4157993.35 ], [ 281098.08, 4157993.27 ], [ 281098.15, 4157993.2 ], [ 281098.22, 4157993.13 ], [ 281098.29, 4157993.07 ], [ 281098.38, 4157993.02 ], [ 281098.47, 4157992.97 ], [ 281099.63, 4157992.45 ], [ 281100.25, 4157990.96 ], [ 281100.94, 4157990.22 ], [ 281108.48, 4157986.45 ], [ 281109.14, 4157986.3 ], [ 281109.25, 4157986.3 ], [ 281105.55, 4157978.48 ], [ 281088.89, 4157974.32 ], [ 281088.1, 4157973.8 ], [ 281084.76, 4157973.86 ], [ 281083.54, 4157976.97 ], [ 281083.67, 4157977.56 ], [ 281093.98, 4158000.0 ], [ 281099.47, 4158000.0 ], [ 281099.9, 4157998.59 ], [ 281097.96, 4157994.3 ], [ 281097.93, 4157994.21 ], [ 281097.9, 4157994.11 ] ] ], [ [ [ 281197.98, 4157989.47 ], [ 281197.7, 4157989.1 ], [ 281197.08, 4157987.88 ], [ 281196.93, 4157987.45 ], [ 281196.66, 4157985.79 ], [ 281167.24, 4157921.85 ], [ 281156.72, 4157926.68 ], [ 281156.95, 4157926.84 ], [ 281158.28, 4157926.22 ], [ 281158.37, 4157926.18 ], [ 281158.46, 4157926.15 ], [ 281158.56, 4157926.13 ], [ 281158.66, 4157926.12 ], [ 281158.75, 4157926.12 ], [ 281158.85, 4157926.13 ], [ 281158.95, 4157926.15 ], [ 281159.04, 4157926.18 ], [ 281159.13, 4157926.22 ], [ 281159.22, 4157926.27 ], [ 281159.3, 4157926.32 ], [ 281159.37, 4157926.38 ], [ 281159.44, 4157926.45 ], [ 281159.5, 4157926.53 ], [ 281159.56, 4157926.61 ], [ 281159.6, 4157926.7 ], [ 281160.91, 4157929.48 ], [ 281162.85, 4157930.77 ], [ 281163.26, 4157931.18 ], [ 281164.21, 4157932.6 ], [ 281164.43, 4157933.13 ], [ 281166.28, 4157942.38 ], [ 281166.13, 4157942.98 ], [ 281166.14, 4157943.01 ], [ 281166.18, 4157943.1 ], [ 281166.21, 4157943.19 ], [ 281166.23, 4157943.29 ], [ 281166.24, 4157943.39 ], [ 281166.24, 4157943.48 ], [ 281166.23, 4157943.58 ], [ 281166.21, 4157943.68 ], [ 281166.18, 4157943.77 ], [ 281166.14, 4157943.86 ], [ 281166.09, 4157943.95 ], [ 281166.04, 4157944.03 ], [ 281165.98, 4157944.11 ], [ 281165.91, 4157944.18 ], [ 281165.83, 4157944.24 ], [ 281165.75, 4157944.29 ], [ 281165.66, 4157944.34 ], [ 281165.15, 4157944.57 ], [ 281163.9, 4157946.1 ], [ 281162.8, 4157946.63 ], [ 281158.13, 4157946.63 ], [ 281155.13, 4157949.63 ], [ 281155.13, 4157964.03 ], [ 281154.71, 4157965.05 ], [ 281152.55, 4157967.2 ], [ 281151.53, 4157967.63 ], [ 281141.71, 4157967.63 ], [ 281141.95, 4157968.13 ], [ 281141.99, 4157968.22 ], [ 281142.02, 4157968.31 ], [ 281142.04, 4157968.41 ], [ 281142.05, 4157968.5 ], [ 281142.05, 4157968.6 ], [ 281142.04, 4157968.7 ], [ 281142.02, 4157968.8 ], [ 281141.99, 4157968.89 ], [ 281141.95, 4157968.98 ], [ 281141.91, 4157969.07 ], [ 281141.85, 4157969.15 ], [ 281141.79, 4157969.23 ], [ 281141.72, 4157969.29 ], [ 281141.65, 4157969.36 ], [ 281141.57, 4157969.41 ], [ 281141.48, 4157969.46 ], [ 281139.07, 4157970.61 ], [ 281138.98, 4157970.65 ], [ 281138.88, 4157970.68 ], [ 281138.79, 4157970.7 ], [ 281138.69, 4157970.71 ], [ 281138.59, 4157970.71 ], [ 281138.49, 4157970.7 ], [ 281138.4, 4157970.68 ], [ 281138.3, 4157970.65 ], [ 281138.21, 4157970.62 ], [ 281138.13, 4157970.57 ], [ 281138.04, 4157970.52 ], [ 281137.97, 4157970.45 ], [ 281137.9, 4157970.39 ], [ 281137.85, 4157970.33 ], [ 281145.15, 4157986.01 ], [ 281145.17, 4157985.98 ], [ 281145.24, 4157985.91 ], [ 281145.32, 4157985.85 ], [ 281145.41, 4157985.8 ], [ 281145.5, 4157985.76 ], [ 281150.01, 4157983.87 ], [ 281151.12, 4157981.66 ], [ 281151.66, 4157981.06 ], [ 281153.63, 4157979.85 ], [ 281154.4, 4157979.63 ], [ 281158.97, 4157979.63 ], [ 281161.81, 4157977.57 ], [ 281165.92, 4157965.25 ], [ 281165.91, 4157965.21 ], [ 281165.89, 4157965.11 ], [ 281165.89, 4157965.01 ], [ 281165.89, 4157964.92 ], [ 281165.9, 4157964.82 ], [ 281165.92, 4157964.72 ], [ 281165.95, 4157964.63 ], [ 281165.99, 4157964.54 ], [ 281166.04, 4157964.45 ], [ 281166.1, 4157964.37 ], [ 281166.16, 4157964.3 ], [ 281166.23, 4157964.23 ], [ 281166.27, 4157964.2 ], [ 281166.3, 4157964.12 ], [ 281166.83, 4157963.4 ], [ 281168.91, 4157961.9 ], [ 281169.77, 4157961.63 ], [ 281171.99, 4157961.63 ], [ 281172.48, 4157961.4 ], [ 281172.58, 4157961.37 ], [ 281172.67, 4157961.34 ], [ 281172.77, 4157961.33 ], [ 281172.86, 4157961.32 ], [ 281172.96, 4157961.32 ], [ 281173.06, 4157961.33 ], [ 281173.16, 4157961.35 ], [ 281173.25, 4157961.38 ], [ 281173.34, 4157961.42 ], [ 281173.42, 4157961.47 ], [ 281173.5, 4157961.53 ], [ 281173.58, 4157961.59 ], [ 281173.61, 4157961.63 ], [ 281174.16, 4157961.63 ], [ 281174.85, 4157961.8 ], [ 281176.7, 4157962.79 ], [ 281177.23, 4157963.27 ], [ 281181.28, 4157969.35 ], [ 281181.5, 4157969.88 ], [ 281181.83, 4157971.55 ], [ 281181.83, 4157972.13 ], [ 281181.18, 4157975.39 ], [ 281181.74, 4157976.65 ], [ 281181.78, 4157976.74 ], [ 281181.81, 4157976.83 ], [ 281181.82, 4157976.93 ], [ 281181.83, 4157977.03 ], [ 281181.83, 4157977.13 ], [ 281181.82, 4157977.23 ], [ 281181.79, 4157977.32 ], [ 281181.76, 4157977.42 ], [ 281181.72, 4157977.51 ], [ 281181.67, 4157977.59 ], [ 281181.62, 4157977.67 ], [ 281181.55, 4157977.75 ], [ 281181.48, 4157977.81 ], [ 281181.4, 4157977.87 ], [ 281181.32, 4157977.93 ], [ 281181.23, 4157977.97 ], [ 281181.08, 4157978.04 ], [ 281182.11, 4157980.34 ], [ 281182.14, 4157980.43 ], [ 281182.17, 4157980.52 ], [ 281182.18, 4157980.62 ], [ 281182.19, 4157980.72 ], [ 281182.19, 4157980.82 ], [ 281182.18, 4157980.91 ], [ 281182.16, 4157981.01 ], [ 281182.13, 4157981.1 ], [ 281182.09, 4157981.19 ], [ 281182.04, 4157981.28 ], [ 281181.98, 4157981.36 ], [ 281181.92, 4157981.43 ], [ 281181.85, 4157981.5 ], [ 281181.77, 4157981.56 ], [ 281181.69, 4157981.61 ], [ 281181.6, 4157981.66 ], [ 281179.76, 4157982.47 ], [ 281179.69, 4157982.82 ], [ 281181.91, 4157986.32 ], [ 281182.3, 4157986.42 ], [ 281183.55, 4157985.86 ], [ 281183.64, 4157985.82 ], [ 281183.73, 4157985.79 ], [ 281183.83, 4157985.78 ], [ 281183.93, 4157985.77 ], [ 281184.03, 4157985.77 ], [ 281184.12, 4157985.78 ], [ 281184.22, 4157985.8 ], [ 281184.31, 4157985.83 ], [ 281184.4, 4157985.87 ], [ 281184.49, 4157985.92 ], [ 281184.57, 4157985.97 ], [ 281184.64, 4157986.04 ], [ 281184.71, 4157986.11 ], [ 281184.77, 4157986.18 ], [ 281184.83, 4157986.27 ], [ 281184.87, 4157986.35 ], [ 281184.87, 4157986.36 ], [ 281186.16, 4157985.79 ], [ 281186.25, 4157985.75 ], [ 281186.34, 4157985.72 ], [ 281186.44, 4157985.71 ], [ 281186.54, 4157985.7 ], [ 281186.64, 4157985.7 ], [ 281186.73, 4157985.71 ], [ 281186.83, 4157985.73 ], [ 281186.92, 4157985.76 ], [ 281187.01, 4157985.8 ], [ 281187.1, 4157985.85 ], [ 281187.18, 4157985.91 ], [ 281187.25, 4157985.97 ], [ 281187.32, 4157986.04 ], [ 281187.38, 4157986.12 ], [ 281187.43, 4157986.2 ], [ 281187.48, 4157986.29 ], [ 281188.21, 4157987.89 ], [ 281188.37, 4157987.94 ], [ 281189.17, 4157988.45 ], [ 281190.82, 4157990.57 ], [ 281191.13, 4157991.47 ], [ 281191.13, 4157994.33 ], [ 281192.98, 4157998.4 ], [ 281193.01, 4157998.49 ], [ 281193.04, 4157998.59 ], [ 281193.06, 4157998.68 ], [ 281193.07, 4157998.78 ], [ 281193.07, 4157998.88 ], [ 281193.05, 4157998.98 ], [ 281193.03, 4157999.07 ], [ 281193.0, 4157999.17 ], [ 281192.96, 4157999.26 ], [ 281192.92, 4157999.34 ], [ 281192.86, 4157999.42 ], [ 281192.8, 4157999.5 ], [ 281192.73, 4157999.57 ], [ 281192.65, 4157999.63 ], [ 281192.57, 4157999.68 ], [ 281192.48, 4157999.72 ], [ 281191.87, 4158000.0 ], [ 281203.19, 4158000.0 ], [ 281198.67, 4157990.16 ], [ 281197.98, 4157989.47 ] ] ] ] } },
{ "type": "Feature", "properties": { "id": "richmond_structure:408851", "name": null, "kind": "deck", "sport": null, "surface": null, "pitch_layout": null, "source": "richmond_structures", "source_updated": "2026-09-08T12:07:13.637000Z", "base_z": null, "top_z": null }, "geometry": { "type": "Polygon", "coordinates": [ [ [ 281107.53, 4157858.39 ], [ 281109.56, 4157857.39 ], [ 281106.11, 4157850.34 ], [ 281104.07, 4157851.34 ], [ 281107.53, 4157858.39 ] ] ] } },
{ "type": "Feature", "properties": { "id": "richmond_structure:269323", "name": null, "kind": "deck", "sport": null, "surface": null, "pitch_layout": null, "source": "richmond_structures", "source_updated": "2026-09-08T12:07:13.637000Z", "base_z": null, "top_z": null }, "geometry": { "type": "Polygon", "coordinates": [ [ [ 281119.51, 4157874.93 ], [ 281123.3, 4157873.15 ], [ 281121.28, 4157868.83 ], [ 281117.99, 4157870.14 ], [ 281117.46, 4157870.64 ], [ 281119.51, 4157874.93 ] ] ] } },
{ "type": "Feature", "properties": { "id": "richmond_structure:408783", "name": null, "kind": "deck", "sport": null, "surface": null, "pitch_layout": null, "source": "richmond_structures", "source_updated": "2026-09-08T12:07:13.637000Z", "base_z": null, "top_z": null }, "geometry": { "type": "Polygon", "coordinates": [ [ [ 281121.25, 4157892.85 ], [ 281120.88, 4157892.05 ], [ 281111.16, 4157896.61 ], [ 281108.59, 4157891.12 ], [ 281119.29, 4157886.1 ], [ 281118.55, 4157883.94 ], [ 281118.63, 4157883.13 ], [ 281119.32, 4157882.55 ], [ 281122.31, 4157881.25 ], [ 281121.57, 4157879.68 ], [ 281116.85, 4157881.59 ], [ 281114.27, 4157875.6 ], [ 281112.28, 4157875.85 ], [ 281112.81, 4157877.24 ], [ 281099.71, 4157882.77 ], [ 281104.33, 4157893.37 ], [ 281103.13, 4157894.02 ], [ 281107.1, 4157901.93 ], [ 281124.79, 4157893.77 ], [ 281123.68, 4157891.72 ], [ 281121.25, 4157892.85 ] ], [ [ 281106.98, 4157887.23 ], [ 281104.77, 4157882.83 ], [ 281113.09, 4157878.95 ], [ 281115.1, 4157883.71 ], [ 281106.98, 4157887.23 ] ] ] } },
{ "type": "Feature", "properties": { "id": "richmond_structure:408847", "name": null, "kind": "deck", "sport": null, "surface": null, "pitch_layout": null, "source": "richmond_structures", "source_updated": "2026-09-08T12:07:13.637000Z", "base_z": null, "top_z": null }, "geometry": { "type": "Polygon", "coordinates": [ [ [ 281135.68, 4157903.29 ], [ 281133.53, 4157898.56 ], [ 281136.28, 4157897.31 ], [ 281135.07, 4157894.65 ], [ 281139.77, 4157892.52 ], [ 281138.91, 4157890.44 ], [ 281116.34, 4157900.65 ], [ 281119.26, 4157907.12 ], [ 281117.29, 4157908.01 ], [ 281117.55, 4157908.57 ], [ 281118.43, 4157908.15 ], [ 281119.3, 4157909.96 ], [ 281131.05, 4157904.4 ], [ 281134.04, 4157910.59 ], [ 281136.36, 4157909.48 ], [ 281133.91, 4157904.09 ], [ 281135.68, 4157903.29 ] ], [ [ 281128.53, 4157898.62 ], [ 281129.94, 4157898.0 ], [ 281131.11, 4157900.47 ], [ 281129.79, 4157900.93 ], [ 281130.47, 4157902.25 ], [ 281120.95, 4157906.57 ], [ 281118.83, 4157901.79 ], [ 281128.02, 4157897.31 ], [ 281128.53, 4157898.62 ] ] ] } },
{ "type": "Feature", "properties": { "id": "imagery:groundcover_paved:2275", "name": null, "kind": "groundcover_paved", "sport": null, "surface": null, "pitch_layout": null, "source": "vgin_vbmp+naip+lidar2025", "source_updated": null, "base_z": null, "top_z": null }, "geometry": { "type": "Polygon", "coordinates": [ [ [ 281117.49, 4157903.24 ], [ 281117.97, 4157903.33 ], [ 281118.44, 4157903.47 ], [ 281118.89, 4157903.65 ], [ 281119.32, 4157903.88 ], [ 281119.73, 4157904.15 ], [ 281120.11, 4157904.46 ], [ 281120.46, 4157904.81 ], [ 281120.77, 4157905.18 ], [ 281121.05, 4157905.59 ], [ 281121.28, 4157906.02 ], [ 281124.72, 4157913.18 ], [ 281124.91, 4157913.63 ], [ 281128.53, 4157913.63 ], [ 281129.92, 4157912.42 ], [ 281128.57, 4157909.48 ], [ 281128.39, 4157909.02 ], [ 281128.25, 4157908.55 ], [ 281128.16, 4157908.06 ], [ 281128.12, 4157907.57 ], [ 281128.13, 4157907.08 ], [ 281128.19, 4157906.59 ], [ 281128.29, 4157906.11 ], [ 281128.44, 4157905.64 ], [ 281128.64, 4157905.19 ], [ 281128.87, 4157904.76 ], [ 281129.09, 4157904.45 ], [ 281127.56, 4157901.11 ], [ 281127.38, 4157900.65 ], [ 281127.24, 4157900.18 ], [ 281127.15, 4157899.7 ], [ 281127.11, 4157899.21 ], [ 281127.11, 4157898.72 ], [ 281127.17, 4157898.23 ], [ 281127.27, 4157897.75 ], [ 281127.42, 4157897.28 ], [ 281127.61, 4157896.83 ], [ 281127.85, 4157896.4 ], [ 281128.13, 4157895.99 ], [ 281128.45, 4157895.62 ], [ 281128.8, 4157895.28 ], [ 281129.13, 4157895.01 ], [ 281129.14, 4157894.59 ], [ 281129.19, 4157894.1 ], [ 281129.29, 4157893.62 ], [ 281129.34, 4157893.49 ], [ 281127.63, 4157894.29 ], [ 281127.45, 4157894.62 ], [ 281127.18, 4157895.03 ], [ 281126.87, 4157895.41 ], [ 281126.52, 4157895.75 ], [ 281126.14, 4157896.06 ], [ 281125.73, 4157896.33 ], [ 281125.3, 4157896.56 ], [ 281122.42, 4157897.92 ], [ 281121.96, 4157898.1 ], [ 281121.49, 4157898.24 ], [ 281121.01, 4157898.34 ], [ 281120.53, 4157898.38 ], [ 281120.04, 4157898.38 ], [ 281119.55, 4157898.33 ], [ 281119.24, 4157898.27 ], [ 281116.13, 4157899.73 ], [ 281116.13, 4157903.23 ], [ 281116.51, 4157903.19 ], [ 281117.0, 4157903.19 ], [ 281117.49, 4157903.24 ] ] ] } },
{ "type": "Feature", "properties": { "id": "richmond_structure:408850", "name": null, "kind": "deck", "sport": null, "surface": null, "pitch_layout": null, "source": "richmond_structures", "source_updated": "2026-09-08T12:07:13.637000Z", "base_z": null, "top_z": null }, "geometry": { "type": "Polygon", "coordinates": [ [ [ 281122.71, 4157919.19 ], [ 281123.19, 4157917.49 ], [ 281121.84, 4157915.32 ], [ 281120.11, 4157916.14 ], [ 281120.97, 4157917.95 ], [ 281117.66, 4157919.53 ], [ 281119.36, 4157923.25 ], [ 281120.41, 4157923.97 ], [ 281121.39, 4157924.0 ], [ 281122.4, 4157923.35 ], [ 281123.14, 4157921.82 ], [ 281122.71, 4157919.19 ] ] ] } },
{ "type": "Feature", "properties": { "id": "richmond_structure:408848", "name": null, "kind": "deck", "sport": null, "surface": null, "pitch_layout": null, "source": "richmond_structures", "source_updated": "2026-09-08T12:07:13.637000Z", "base_z": null, "top_z": null }, "geometry": { "type": "Polygon", "coordinates": [ [ [ 281091.8, 4157925.15 ], [ 281097.93, 4157922.56 ], [ 281096.61, 4157919.72 ], [ 281090.53, 4157922.44 ], [ 281091.8, 4157925.15 ] ] ] } },
{ "type": "Feature", "properties": { "id": "osm:way/1219432430", "name": null, "kind": "grass", "sport": null, "surface": null, "pitch_layout": null, "source": null, "source_updated": null, "base_z": null, "top_z": null }, "geometry": { "type": "Polygon", "coordinates": [ [ [ 281235.27, 4157940.85 ], [ 281250.0, 4157948.93 ], [ 281250.0, 4157937.72 ], [ 281235.5, 4157938.56 ], [ 281235.27, 4157940.85 ] ] ] } },
{ "type": "Feature", "properties": { "id": "richmond_structure:267046", "name": null, "kind": "deck", "sport": null, "surface": null, "pitch_layout": null, "source": "richmond_structures", "source_updated": "2026-09-08T12:07:13.637000Z", "base_z": null, "top_z": null }, "geometry": { "type": "Polygon", "coordinates": [ [ [ 281139.22, 4157948.85 ], [ 281138.92, 4157948.4 ], [ 281139.5, 4157947.56 ], [ 281143.44, 4157945.29 ], [ 281142.83, 4157943.19 ], [ 281143.29, 4157943.04 ], [ 281140.59, 4157936.31 ], [ 281130.53, 4157940.39 ], [ 281130.21, 4157942.53 ], [ 281133.4, 4157948.18 ], [ 281134.89, 4157948.99 ], [ 281135.34, 4157949.59 ], [ 281134.47, 4157950.0 ], [ 281137.0, 4157955.6 ], [ 281148.06, 4157950.29 ], [ 281146.08, 4157945.75 ], [ 281139.69, 4157948.86 ], [ 281139.22, 4157948.85 ] ], [ [ 281134.2, 4157943.96 ], [ 281133.8, 4157942.68 ], [ 281133.85, 4157941.24 ], [ 281134.56, 4157940.22 ], [ 281135.49, 4157939.94 ], [ 281136.6, 4157940.29 ], [ 281138.08, 4157942.58 ], [ 281138.42, 4157943.71 ], [ 281138.24, 4157945.7 ], [ 281137.07, 4157946.24 ], [ 281135.41, 4157945.71 ], [ 281134.74, 4157945.14 ], [ 281134.2, 4157943.96 ] ] ] } },
{ "type": "Feature", "properties": { "id": "richmond_structure:408857", "name": null, "kind": "deck", "sport": null, "surface": null, "pitch_layout": null, "source": "richmond_structures", "source_updated": "2026-09-08T12:07:13.637000Z", "base_z": null, "top_z": null }, "geometry": { "type": "Polygon", "coordinates": [ [ [ 281079.06, 4157750.0 ], [ 281078.92, 4157750.04 ], [ 281082.88, 4157758.07 ], [ 281085.57, 4157756.87 ], [ 281082.61, 4157750.39 ], [ 281081.77, 4157750.0 ], [ 281079.06, 4157750.0 ] ] ] } },
{ "type": "Feature", "properties": { "id": "richmond_structure:408858", "name": null, "kind": "deck", "sport": null, "surface": null, "pitch_layout": null, "source": "richmond_structures", "source_updated": "2026-09-08T12:07:13.637000Z", "base_z": null, "top_z": null }, "geometry": { "type": "Polygon", "coordinates": [ [ [ 281086.71, 4157765.84 ], [ 281089.24, 4157764.68 ], [ 281086.92, 4157759.5 ], [ 281084.18, 4157760.72 ], [ 281086.71, 4157765.84 ] ] ] } },
{ "type": "Feature", "properties": { "id": "richmond_structure:265123", "name": null, "kind": "deck", "sport": null, "surface": null, "pitch_layout": null, "source": "richmond_structures", "source_updated": "2026-09-08T12:07:13.637000Z", "base_z": null, "top_z": null }, "geometry": { "type": "Polygon", "coordinates": [ [ [ 281064.76, 4157771.86 ], [ 281064.3, 4157770.93 ], [ 281062.44, 4157771.85 ], [ 281062.15, 4157771.26 ], [ 281058.5, 4157773.07 ], [ 281063.16, 4157783.68 ], [ 281055.1, 4157787.13 ], [ 281056.48, 4157790.21 ], [ 281079.51, 4157779.06 ], [ 281076.55, 4157772.05 ], [ 281076.03, 4157772.31 ], [ 281073.65, 4157767.48 ], [ 281064.76, 4157771.86 ] ], [ [ 281072.49, 4157769.53 ], [ 281074.76, 4157774.78 ], [ 281065.5, 4157778.89 ], [ 281063.08, 4157773.72 ], [ 281072.49, 4157769.53 ] ] ] } },
{ "type": "Feature", "properties": { "id": "richmond_structure:408856", "name": null, "kind": "deck", "sport": null, "surface": null, "pitch_layout": null, "source": "richmond_structures", "source_updated": "2026-09-08T12:07:13.637000Z", "base_z": null, "top_z": null }, "geometry": { "type": "Polygon", "coordinates": [ [ [ 281029.65, 4157787.99 ], [ 281026.45, 4157787.75 ], [ 281024.82, 4157786.96 ], [ 281024.13, 4157787.26 ], [ 281024.97, 4157789.16 ], [ 281022.45, 4157790.27 ], [ 281023.6, 4157792.87 ], [ 281011.48, 4157798.21 ], [ 281012.3, 4157800.07 ], [ 281027.5, 4157793.37 ], [ 281026.4, 4157790.57 ], [ 281030.14, 4157789.1 ], [ 281029.65, 4157787.99 ] ] ] } },
{ "type": "Feature", "properties": { "id": "richmond_structure:424849", "name": null, "kind": "deck", "sport": null, "surface": null, "pitch_layout": null, "source": "richmond_structures", "source_updated": "2026-09-08T12:07:13.637000Z", "base_z": null, "top_z": null }, "geometry": { "type": "Polygon", "coordinates": [ [ [ 281027.32, 4157802.18 ], [ 281029.79, 4157807.42 ], [ 281034.37, 4157805.26 ], [ 281031.9, 4157800.02 ], [ 281027.32, 4157802.18 ] ] ] } },
{ "type": "Feature", "properties": { "id": "richmond_structure:408855", "name": null, "kind": "deck", "sport": null, "surface": null, "pitch_layout": null, "source": "richmond_structures", "source_updated": "2026-09-08T12:07:13.637000Z", "base_z": null, "top_z": null }, "geometry": { "type": "Polygon", "coordinates": [ [ [ 281034.75, 4157815.45 ], [ 281038.13, 4157813.94 ], [ 281036.19, 4157809.6 ], [ 281032.81, 4157811.11 ], [ 281034.75, 4157815.45 ] ] ] } },
{ "type": "Feature", "properties": { "id": "richmond_structure:408718", "name": null, "kind": "deck", "sport": null, "surface": null, "pitch_layout": null, "source": "richmond_structures", "source_updated": "2026-09-08T12:07:13.637000Z", "base_z": null, "top_z": null }, "geometry": { "type": "Polygon", "coordinates": [ [ [ 281096.82, 4157820.04 ], [ 281094.53, 4157821.41 ], [ 281094.06, 4157822.42 ], [ 281094.11, 4157823.23 ], [ 281095.63, 4157826.92 ], [ 281095.61, 4157828.6 ], [ 281094.81, 4157830.48 ], [ 281091.59, 4157832.02 ], [ 281089.92, 4157831.79 ], [ 281089.01, 4157830.67 ], [ 281088.12, 4157828.38 ], [ 281088.91, 4157826.1 ], [ 281083.43, 4157825.0 ], [ 281082.15, 4157827.59 ], [ 281080.63, 4157828.29 ], [ 281087.64, 4157843.59 ], [ 281100.49, 4157837.2 ], [ 281097.06, 4157830.35 ], [ 281100.87, 4157828.46 ], [ 281096.82, 4157820.04 ] ] ] } },
{ "type": "Feature", "properties": { "id": "richmond_structure:269322", "name": null, "kind": "deck", "sport": null, "surface": null, "pitch_layout": null, "source": "richmond_structures", "source_updated": "2026-09-08T12:07:13.637000Z", "base_z": null, "top_z": null }, "geometry": { "type": "Polygon", "coordinates": [ [ [ 281047.5, 4157833.54 ], [ 281045.67, 4157830.04 ], [ 281042.63, 4157829.84 ], [ 281039.87, 4157831.07 ], [ 281041.87, 4157835.56 ], [ 281047.5, 4157833.54 ] ] ] } },
{ "type": "Feature", "properties": { "id": "imagery:groundcover_paved:2308", "name": null, "kind": "groundcover_paved", "sport": null, "surface": null, "pitch_layout": null, "source": "vgin_vbmp+naip+lidar2025", "source_updated": null, "base_z": null, "top_z": null }, "geometry": { "type": "Polygon", "coordinates": [ [ [ 281081.59, 4157832.7 ], [ 281082.07, 4157832.62 ], [ 281082.56, 4157832.58 ], [ 281083.05, 4157832.59 ], [ 281083.53, 4157832.65 ], [ 281084.01, 4157832.75 ], [ 281084.48, 4157832.91 ], [ 281084.93, 4157833.1 ], [ 281085.35, 4157833.34 ], [ 281085.76, 4157833.62 ], [ 281086.13, 4157833.94 ], [ 281086.47, 4157834.29 ], [ 281086.77, 4157834.68 ], [ 281087.04, 4157835.09 ], [ 281087.26, 4157835.53 ], [ 281089.96, 4157841.53 ], [ 281090.0, 4157841.63 ], [ 281090.28, 4157841.63 ], [ 281092.96, 4157839.97 ], [ 281095.83, 4157834.22 ], [ 281094.38, 4157831.17 ], [ 281094.19, 4157830.72 ], [ 281094.04, 4157830.25 ], [ 281093.94, 4157829.77 ], [ 281093.93, 4157829.65 ], [ 281093.57, 4157829.35 ], [ 281093.22, 4157829.0 ], [ 281093.14, 4157828.91 ], [ 281079.81, 4157827.01 ], [ 281076.47, 4157829.25 ], [ 281075.91, 4157831.5 ], [ 281078.23, 4157834.1 ], [ 281080.66, 4157833.01 ], [ 281081.12, 4157832.84 ], [ 281081.59, 4157832.7 ] ] ] } },
{ "type": "Feature", "properties": { "id": "richmond_structure:408854", "name": null, "kind": "deck", "sport": null, "surface": null, "pitch_layout": null, "source": "richmond_structures", "source_updated": "2026-09-08T12:07:13.637000Z", "base_z": null, "top_z": null }, "geometry": { "type": "Polygon", "coordinates": [ [ [ 281049.32, 4157845.51 ], [ 281048.74, 4157845.79 ], [ 281048.4, 4157845.05 ], [ 281046.26, 4157846.04 ], [ 281049.16, 4157852.31 ], [ 281045.63, 4157853.95 ], [ 281047.37, 4157857.71 ], [ 281052.84, 4157855.18 ], [ 281049.62, 4157848.23 ], [ 281050.41, 4157847.86 ], [ 281049.32, 4157845.51 ] ] ] } },
{ "type": "Feature", "properties": { "id": "imagery:groundcover_paved:2317", "name": null, "kind": "groundcover_paved", "sport": null, "surface": null, "pitch_layout": null, "source": "vgin_vbmp+naip+lidar2025", "source_updated": null, "base_z": null, "top_z": null }, "geometry": { "type": "Polygon", "coordinates": [ [ [ 281002.26, 4157827.71 ], [ 281002.54, 4157828.28 ], [ 281003.79, 4157833.28 ], [ 281025.73, 4157881.49 ], [ 281026.21, 4157882.04 ], [ 281026.55, 4157882.72 ], [ 281026.75, 4157883.74 ], [ 281032.16, 4157895.63 ], [ 281034.27, 4157895.63 ], [ 281000.0, 4157819.43 ], [ 281000.0, 4157824.94 ], [ 281000.37, 4157825.74 ], [ 281000.61, 4157825.86 ], [ 281001.1, 4157826.26 ], [ 281002.26, 4157827.71 ] ] ] } },
{ "type": "Feature", "properties": { "id": "richmond_structure:408852", "name": null, "kind": "deck", "sport": null, "surface": null, "pitch_layout": null, "source": "richmond_structures", "source_updated": "2026-09-08T12:07:13.637000Z", "base_z": null, "top_z": null }, "geometry": { "type": "Polygon", "coordinates": [ [ [ 281074.42, 4157861.93 ], [ 281073.28, 4157863.29 ], [ 281073.77, 4157864.26 ], [ 281075.16, 4157865.54 ], [ 281075.8, 4157867.12 ], [ 281078.55, 4157865.93 ], [ 281077.18, 4157862.93 ], [ 281075.76, 4157861.4 ], [ 281074.42, 4157861.93 ] ] ] } },
{ "type": "Feature", "properties": { "id": "richmond_structure:408845", "name": null, "kind": "deck", "sport": null, "surface": null, "pitch_layout": null, "source": "richmond_structures", "source_updated": "2026-09-08T12:07:13.637000Z", "base_z": null, "top_z": null }, "geometry": { "type": "Polygon", "coordinates": [ [ [ 281074.12, 4157869.03 ], [ 281071.34, 4157868.92 ], [ 281069.67, 4157869.43 ], [ 281067.59, 4157870.95 ], [ 281067.15, 4157870.11 ], [ 281062.52, 4157872.15 ], [ 281064.7, 4157877.09 ], [ 281077.72, 4157871.08 ], [ 281077.18, 4157869.97 ], [ 281076.08, 4157870.27 ], [ 281074.12, 4157869.03 ] ] ] } },
{ "type": "Feature", "properties": { "id": "osm:way/264469782", "name": "Byrd Park", "kind": "park", "sport": null, "surface": null, "pitch_layout": null, "source": null, "source_updated": null, "base_z": null, "top_z": null }, "geometry": { "type": "MultiPolygon", "coordinates": [ [ [ [ 281250.0, 4158000.0 ], [ 281250.0, 4157750.0 ], [ 281106.38, 4157750.0 ], [ 281219.5, 4158000.0 ], [ 281250.0, 4158000.0 ] ] ], [ [ [ 281000.0, 4158000.0 ], [ 281079.65, 4158000.0 ], [ 281000.0, 4157824.94 ], [ 281000.0, 4158000.0 ] ] ] ] } },
{ "type": "Feature", "properties": { "id": "richmond_structure:408846", "name": null, "kind": "deck", "sport": null, "surface": null, "pitch_layout": null, "source": "richmond_structures", "source_updated": "2026-09-08T12:07:13.637000Z", "base_z": null, "top_z": null }, "geometry": { "type": "Polygon", "coordinates": [ [ [ 281099.05, 4157900.37 ], [ 281095.2, 4157892.06 ], [ 281078.74, 4157899.1 ], [ 281079.72, 4157901.39 ], [ 281068.41, 4157906.23 ], [ 281069.53, 4157908.83 ], [ 281074.07, 4157906.88 ], [ 281075.88, 4157911.07 ], [ 281079.51, 4157909.52 ], [ 281079.71, 4157908.38 ], [ 281080.72, 4157906.83 ], [ 281082.01, 4157905.9 ], [ 281082.68, 4157907.47 ], [ 281099.05, 4157900.37 ] ], [ [ 281094.53, 4157897.78 ], [ 281093.35, 4157895.41 ], [ 281094.91, 4157894.64 ], [ 281096.09, 4157897.01 ], [ 281094.53, 4157897.78 ] ], [ [ 281083.02, 4157904.88 ], [ 281080.68, 4157899.81 ], [ 281091.19, 4157894.96 ], [ 281093.53, 4157900.03 ], [ 281083.02, 4157904.88 ] ] ] } },
{ "type": "Feature", "properties": { "id": "richmond_structure:408853", "name": null, "kind": "deck", "sport": null, "surface": null, "pitch_layout": null, "source": "richmond_structures", "source_updated": "2026-09-08T12:07:13.637000Z", "base_z": null, "top_z": null }, "geometry": { "type": "Polygon", "coordinates": [ [ [ 281078.52, 4157914.65 ], [ 281077.14, 4157915.24 ], [ 281078.51, 4157918.43 ], [ 281079.85, 4157917.19 ], [ 281080.5, 4157915.81 ], [ 281079.51, 4157909.52 ], [ 281076.81, 4157910.67 ], [ 281078.52, 4157914.65 ] ] ] } },
{ "type": "Feature", "properties": { "id": "richmond_structure:408849", "name": null, "kind": "deck", "sport": null, "surface": null, "pitch_layout": null, "source": "richmond_structures", "source_updated": "2026-09-08T12:07:13.637000Z", "base_z": null, "top_z": null }, "geometry": { "type": "Polygon", "coordinates": [ [ [ 281082.43, 4157926.6 ], [ 281081.47, 4157924.5 ], [ 281076.17, 4157926.91 ], [ 281077.0, 4157928.73 ], [ 281077.53, 4157928.49 ], [ 281079.0, 4157931.72 ], [ 281084.05, 4157929.08 ], [ 281082.83, 4157926.42 ], [ 281082.43, 4157926.6 ] ] ] } },
{ "type": "Feature", "properties": { "id": "richmond_structure:408706", "name": null, "kind": "deck", "sport": null, "surface": null, "pitch_layout": null, "source": "richmond_structures", "source_updated": "2026-09-08T12:07:13.637000Z", "base_z": null, "top_z": null }, "geometry": { "type": "Polygon", "coordinates": [ [ [ 281103.9, 4157958.06 ], [ 281106.18, 4157956.98 ], [ 281107.3, 4157959.36 ], [ 281111.51, 4157957.36 ], [ 281108.11, 4157950.17 ], [ 281101.62, 4157953.24 ], [ 281103.9, 4157958.06 ] ] ] } },
{ "type": "Feature", "properties": { "id": "richmond_structure:408844", "name": null, "kind": "deck", "sport": null, "surface": null, "pitch_layout": null, "source": "richmond_structures", "source_updated": "2026-09-08T12:07:13.637000Z", "base_z": null, "top_z": null }, "geometry": { "type": "Polygon", "coordinates": [ [ [ 281167.76, 4157967.9 ], [ 281162.54, 4157970.29 ], [ 281165.21, 4157976.12 ], [ 281168.67, 4157974.55 ], [ 281166.97, 4157970.82 ], [ 281168.72, 4157970.02 ], [ 281167.76, 4157967.9 ] ] ] } },
{ "type": "Feature", "properties": { "id": "osm:way/603140663", "name": null, "kind": "park", "sport": null, "surface": null, "pitch_layout": null, "source": null, "source_updated": null, "base_z": null, "top_z": null }, "geometry": { "type": "Polygon", "coordinates": [ [ [ 281133.99, 4157979.48 ], [ 281126.53, 4157963.72 ], [ 281103.65, 4157974.47 ], [ 281109.86, 4157987.57 ], [ 281113.6, 4157985.8 ], [ 281114.87, 4157988.47 ], [ 281133.99, 4157979.48 ] ] ] } },
{ "type": "Feature", "properties": { "id": "imagery:groundcover_paved:2247", "name": null, "kind": "groundcover_paved", "sport": null, "surface": null, "pitch_layout": null, "source": "vgin_vbmp+naip+lidar2025", "source_updated": null, "base_z": null, "top_z": null }, "geometry": { "type": "Polygon", "coordinates": [ [ [ 281192.97, 4157969.16 ], [ 281207.08, 4157999.84 ], [ 281207.3, 4158000.0 ], [ 281210.44, 4158000.0 ], [ 281191.72, 4157957.89 ], [ 281192.97, 4157969.16 ] ] ] } },
{ "type": "Feature", "properties": { "id": "richmond_structure:408782", "name": null, "kind": "deck", "sport": null, "surface": null, "pitch_layout": null, "source": "richmond_structures", "source_updated": "2026-09-08T12:07:13.637000Z", "base_z": null, "top_z": null }, "geometry": { "type": "Polygon", "coordinates": [ [ [ 281172.96, 4157999.99 ], [ 281171.46, 4157996.39 ], [ 281172.61, 4157995.87 ], [ 281171.49, 4157993.23 ], [ 281170.36, 4157993.76 ], [ 281169.01, 4157990.53 ], [ 281156.73, 4157995.75 ], [ 281155.91, 4157993.83 ], [ 281152.64, 4157995.23 ], [ 281153.6, 4157997.48 ], [ 281155.48, 4157996.63 ], [ 281156.99, 4158000.0 ], [ 281165.74, 4158000.0 ], [ 281163.61, 4157995.06 ], [ 281165.24, 4157993.3 ], [ 281166.25, 4157992.97 ], [ 281168.61, 4157992.9 ], [ 281171.71, 4158000.0 ], [ 281174.11, 4158000.0 ], [ 281173.94, 4157999.59 ], [ 281172.96, 4157999.99 ] ] ] } },
{ "type": "Feature", "properties": { "id": "osm:way/603140664", "name": null, "kind": "park", "sport": null, "surface": null, "pitch_layout": null, "source": null, "source_updated": null, "base_z": null, "top_z": null }, "geometry": { "type": "Polygon", "coordinates": [ [ [ 281120.27, 4157997.42 ], [ 281121.42, 4158000.0 ], [ 281138.43, 4158000.0 ], [ 281134.44, 4157991.12 ], [ 281120.27, 4157997.42 ] ] ] } },
{ "type": "Feature", "properties": { "id": "richmond_structure:424833", "name": null, "kind": "deck", "sport": null, "surface": null, "pitch_layout": null, "source": "richmond_structures", "source_updated": "2026-09-08T12:07:13.637000Z", "base_z": null, "top_z": null }, "geometry": { "type": "Polygon", "coordinates": [ [ [ 281151.86, 4158000.0 ], [ 281154.8, 4158000.0 ], [ 281154.04, 4157998.32 ], [ 281151.6, 4157999.41 ], [ 281151.86, 4158000.0 ] ] ] } }
]
}
