{
"type": "FeatureCollection",
"name": "pois",
"crs": { "type": "name", "properties": { "name": "urn:ogc:def:crs:EPSG::32618" } },
"xy_coordinate_resolution": 0.01,
"features": [
{ "type": "Feature", "properties": { "id": "lidar-tree:284934:4158522", "name": null, "kind": "tree", "species": null, "source": "lidar2025", "tree_height": 11.5, "crown_radius": 6.0, "height_source": "lidar2025" }, "geometry": { "type": "Point", "coordinates": [ 284933.5, 4158521.5 ] } },
{ "type": "Feature", "properties": { "id": "lidar-tree:284928:4158532", "name": null, "kind": "tree", "species": null, "source": "lidar2025", "tree_height": 11.3, "crown_radius": 6.0, "height_source": "lidar2025" }, "geometry": { "type": "Point", "coordinates": [ 284928.5, 4158532.5 ] } },
{ "type": "Feature", "properties": { "id": "osm:node/10289825973", "name": null, "kind": "streetlight", "species": null, "source": null, "tree_height": null, "crown_radius": null, "height_source": null }, "geometry": { "type": "Point", "coordinates": [ 284996.55, 4158539.71 ] } },
{ "type": "Feature", "properties": { "id": "rva-tree:95398", "name": "Quercus phellos", "kind": "tree", "species": "Quercus phellos", "source": "city_inventory", "tree_height": 16.7, "crown_radius": 6.0, "height_source": "lidar2025" }, "geometry": { "type": "Point", "coordinates": [ 284883.02, 4158503.37 ] } },
{ "type": "Feature", "properties": { "id": "rva-tree:95399", "name": "Quercus phellos", "kind": "tree", "species": "Quercus phellos", "source": "city_inventory", "tree_height": 16.7, "crown_radius": 5.9, "height_source": "lidar2025" }, "geometry": { "type": "Point", "coordinates": [ 284898.15, 4158508.78 ] } },
{ "type": "Feature", "properties": { "id": "lidar-tree:284908:4158510", "name": null, "kind": "tree", "species": null, "source": "lidar2025", "tree_height": 9.1, "crown_radius": 4.4, "height_source": "lidar2025" }, "geometry": { "type": "Point", "coordinates": [ 284908.5, 4158509.5 ] } },
{ "type": "Feature", "properties": { "id": "lidar-tree:284920:4158512", "name": null, "kind": "tree", "species": null, "source": "lidar2025", "tree_height": 15.0, "crown_radius": 6.0, "height_source": "lidar2025" }, "geometry": { "type": "Point", "coordinates": [ 284920.5, 4158512.5 ] } },
{ "type": "Feature", "properties": { "id": "rva-tree:95394", "name": "Quercus phellos", "kind": "tree", "species": "Quercus phellos", "source": "city_inventory", "tree_height": 17.7, "crown_radius": 6.0, "height_source": "lidar2025" }, "geometry": { "type": "Point", "coordinates": [ 284866.61, 4158516.36 ] } },
{ "type": "Feature", "properties": { "id": "rva-tree:95400", "name": "Quercus phellos", "kind": "tree", "species": "Quercus phellos", "source": "city_inventory", "tree_height": 18.1, "crown_radius": 6.0, "height_source": "lidar2025" }, "geometry": { "type": "Point", "coordinates": [ 284881.64, 4158519.95 ] } },
{ "type": "Feature", "properties": { "id": "lidar-tree:284922:4158522", "name": null, "kind": "tree", "species": null, "source": "lidar2025", "tree_height": 9.7, "crown_radius": 5.6, "height_source": "lidar2025" }, "geometry": { "type": "Point", "coordinates": [ 284922.5, 4158522.5 ] } },
{ "type": "Feature", "properties": { "id": "lidar-tree:284858:4158522", "name": null, "kind": "tree", "species": null, "source": "lidar2025", "tree_height": 16.1, "crown_radius": 6.0, "height_source": "lidar2025" }, "geometry": { "type": "Point", "coordinates": [ 284858.5, 4158522.5 ] } },
{ "type": "Feature", "properties": { "id": "rva-tree:95401", "name": "Quercus phellos", "kind": "tree", "species": "Quercus phellos", "source": "city_inventory", "tree_height": 16.7, "crown_radius": 5.9, "height_source": "lidar2025" }, "geometry": { "type": "Point", "coordinates": [ 284865.78, 4158532.48 ] } },
{ "type": "Feature", "properties": { "id": "lidar-tree:284840:4158500", "name": null, "kind": "tree", "species": null, "source": "lidar2025", "tree_height": 15.1, "crown_radius": 6.0, "height_source": "lidar2025" }, "geometry": { "type": "Point", "coordinates": [ 284840.5, 4158500.5 ] } },
{ "type": "Feature", "properties": { "id": "lidar-tree:284826:4158514", "name": null, "kind": "tree", "species": null, "source": "lidar2025", "tree_height": 22.3, "crown_radius": 6.0, "height_source": "lidar2025" }, "geometry": { "type": "Point", "coordinates": [ 284826.5, 4158513.5 ] } },
{ "type": "Feature", "properties": { "id": "osm:node/13614831720", "name": null, "kind": "streetlight", "species": null, "source": null, "tree_height": null, "crown_radius": null, "height_source": null }, "geometry": { "type": "Point", "coordinates": [ 284781.25, 4158519.03 ] } },
{ "type": "Feature", "properties": { "id": "rva-tree:95393", "name": "Quercus phellos", "kind": "tree", "species": "Quercus phellos", "source": "city_inventory", "tree_height": 16.6, "crown_radius": 6.0, "height_source": "lidar2025" }, "geometry": { "type": "Point", "coordinates": [ 284847.86, 4158531.59 ] } },
{ "type": "Feature", "properties": { "id": "lidar-tree:284802:4158536", "name": null, "kind": "tree", "species": null, "source": "lidar2025", "tree_height": 14.6, "crown_radius": 6.0, "height_source": "lidar2025" }, "geometry": { "type": "Point", "coordinates": [ 284802.5, 4158535.5 ] } },
{ "type": "Feature", "properties": { "id": "osm:node/13614831719", "name": null, "kind": "streetlight", "species": null, "source": null, "tree_height": null, "crown_radius": null, "height_source": null }, "geometry": { "type": "Point", "coordinates": [ 284776.85, 4158536.63 ] } },
{ "type": "Feature", "properties": { "id": "lidar-tree:284780:4158542", "name": null, "kind": "tree", "species": null, "source": "lidar2025", "tree_height": 4.0, "crown_radius": 2.1, "height_source": "lidar2025" }, "geometry": { "type": "Point", "coordinates": [ 284779.5, 4158542.5 ] } },
{ "type": "Feature", "properties": { "id": "rva-tree:95369", "name": "Quercus phellos", "kind": "tree", "species": "Quercus phellos", "source": "city_inventory", "tree_height": 18.9, "crown_radius": 6.0, "height_source": "lidar2025" }, "geometry": { "type": "Point", "coordinates": [ 284833.55, 4158542.88 ] } },
{ "type": "Feature", "properties": { "id": "rva-tree:95402", "name": "Quercus phellos", "kind": "tree", "species": "Quercus phellos", "source": "city_inventory", "tree_height": 19.1, "crown_radius": 6.0, "height_source": "lidar2025" }, "geometry": { "type": "Point", "coordinates": [ 284848.74, 4158545.26 ] } },
{ "type": "Feature", "properties": { "id": "rva-tree:95367", "name": "Quercus phellos", "kind": "tree", "species": "Quercus phellos", "source": "city_inventory", "tree_height": 16.8, "crown_radius": 6.0, "height_source": "lidar2025" }, "geometry": { "type": "Point", "coordinates": [ 284800.2, 4158545.71 ] } },
{ "type": "Feature", "properties": { "id": "lidar-tree:284786:4158550", "name": null, "kind": "tree", "species": null, "source": "lidar2025", "tree_height": 4.7, "crown_radius": 2.7, "height_source": "lidar2025" }, "geometry": { "type": "Point", "coordinates": [ 284785.5, 4158549.5 ] } },
{ "type": "Feature", "properties": { "id": "rva-tree:95368", "name": "Quercus phellos", "kind": "tree", "species": "Quercus phellos", "source": "city_inventory", "tree_height": 17.0, "crown_radius": 5.2, "height_source": "lidar2025" }, "geometry": { "type": "Point", "coordinates": [ 284817.09, 4158555.44 ] } },
{ "type": "Feature", "properties": { "id": "lidar-tree:284786:4158556", "name": null, "kind": "tree", "species": null, "source": "lidar2025", "tree_height": 5.5, "crown_radius": 3.3, "height_source": "lidar2025" }, "geometry": { "type": "Point", "coordinates": [ 284785.5, 4158556.5 ] } },
{ "type": "Feature", "properties": { "id": "lidar-tree:284790:4158556", "name": null, "kind": "tree", "species": null, "source": "lidar2025", "tree_height": 5.0, "crown_radius": 3.4, "height_source": "lidar2025" }, "geometry": { "type": "Point", "coordinates": [ 284790.5, 4158556.5 ] } },
{ "type": "Feature", "properties": { "id": "lidar-tree:284848:4158558", "name": null, "kind": "tree", "species": null, "source": "lidar2025", "tree_height": 16.4, "crown_radius": 6.0, "height_source": "lidar2025" }, "geometry": { "type": "Point", "coordinates": [ 284847.5, 4158557.5 ] } },
{ "type": "Feature", "properties": { "id": "osm:node/13614831718", "name": null, "kind": "streetlight", "species": null, "source": null, "tree_height": null, "crown_radius": null, "height_source": null }, "geometry": { "type": "Point", "coordinates": [ 284794.22, 4158558.38 ] } },
{ "type": "Feature", "properties": { "id": "rva-tree:95403", "name": "Quercus phellos", "kind": "tree", "species": "Quercus phellos", "source": "city_inventory", "tree_height": 18.8, "crown_radius": 6.0, "height_source": "lidar2025" }, "geometry": { "type": "Point", "coordinates": [ 284832.73, 4158559.2 ] } },
{ "type": "Feature", "properties": { "id": "lidar-tree:284796:4158564", "name": null, "kind": "tree", "species": null, "source": "lidar2025", "tree_height": 4.1, "crown_radius": 2.3, "height_source": "lidar2025" }, "geometry": { "type": "Point", "coordinates": [ 284796.5, 4158563.5 ] } },
{ "type": "Feature", "properties": { "id": "lidar-tree:284842:4158566", "name": null, "kind": "tree", "species": null, "source": "lidar2025", "tree_height": 13.1, "crown_radius": 6.0, "height_source": "lidar2025" }, "geometry": { "type": "Point", "coordinates": [ 284841.5, 4158566.5 ] } },
{ "type": "Feature", "properties": { "id": "osm:node/13614831711", "name": null, "kind": "streetlight", "species": null, "source": null, "tree_height": null, "crown_radius": null, "height_source": null }, "geometry": { "type": "Point", "coordinates": [ 284919.52, 4158539.22 ] } },
{ "type": "Feature", "properties": { "id": "lidar-tree:284918:4158540", "name": null, "kind": "tree", "species": null, "source": "lidar2025", "tree_height": 9.0, "crown_radius": 2.7, "height_source": "lidar2025" }, "geometry": { "type": "Point", "coordinates": [ 284918.5, 4158540.5 ] } },
{ "type": "Feature", "properties": { "id": "lidar-tree:284904:4158546", "name": null, "kind": "tree", "species": null, "source": "lidar2025", "tree_height": 4.1, "crown_radius": 1.6, "height_source": "lidar2025" }, "geometry": { "type": "Point", "coordinates": [ 284903.5, 4158545.5 ] } },
{ "type": "Feature", "properties": { "id": "lidar-tree:284922:4158552", "name": null, "kind": "tree", "species": null, "source": "lidar2025", "tree_height": 9.0, "crown_radius": 5.9, "height_source": "lidar2025" }, "geometry": { "type": "Point", "coordinates": [ 284921.5, 4158551.5 ] } },
{ "type": "Feature", "properties": { "id": "lidar-tree:284876:4158554", "name": null, "kind": "tree", "species": null, "source": "lidar2025", "tree_height": 12.9, "crown_radius": 6.0, "height_source": "lidar2025" }, "geometry": { "type": "Point", "coordinates": [ 284876.5, 4158554.5 ] } },
{ "type": "Feature", "properties": { "id": "osm:node/13614831712", "name": null, "kind": "streetlight", "species": null, "source": null, "tree_height": null, "crown_radius": null, "height_source": null }, "geometry": { "type": "Point", "coordinates": [ 284891.34, 4158562.32 ] } },
{ "type": "Feature", "properties": { "id": "lidar-tree:284890:4158564", "name": null, "kind": "tree", "species": null, "source": "lidar2025", "tree_height": 8.6, "crown_radius": 2.9, "height_source": "lidar2025" }, "geometry": { "type": "Point", "coordinates": [ 284889.5, 4158563.5 ] } },
{ "type": "Feature", "properties": { "id": "lidar-tree:284900:4158564", "name": null, "kind": "tree", "species": null, "source": "lidar2025", "tree_height": 9.8, "crown_radius": 5.9, "height_source": "lidar2025" }, "geometry": { "type": "Point", "coordinates": [ 284899.5, 4158564.5 ] } },
{ "type": "Feature", "properties": { "id": "lidar-tree:284920:4158570", "name": null, "kind": "tree", "species": null, "source": "lidar2025", "tree_height": 10.9, "crown_radius": 5.5, "height_source": "lidar2025" }, "geometry": { "type": "Point", "coordinates": [ 284919.5, 4158569.5 ] } },
{ "type": "Feature", "properties": { "id": "lidar-tree:284854:4158574", "name": null, "kind": "tree", "species": null, "source": "lidar2025", "tree_height": 11.0, "crown_radius": 3.7, "height_source": "lidar2025" }, "geometry": { "type": "Point", "coordinates": [ 284854.5, 4158574.5 ] } },
{ "type": "Feature", "properties": { "id": "rva-tree:75602", "name": "Cercis canadensis", "kind": "tree", "species": "Cercis canadensis", "source": "city_inventory", "tree_height": 8.0, "crown_radius": 2.5, "height_source": "estimated" }, "geometry": { "type": "Point", "coordinates": [ 284753.47, 4158504.78 ] } },
{ "type": "Feature", "properties": { "id": "lidar-tree:284754:4158520", "name": null, "kind": "tree", "species": null, "source": "lidar2025", "tree_height": 8.1, "crown_radius": 5.0, "height_source": "lidar2025" }, "geometry": { "type": "Point", "coordinates": [ 284754.5, 4158519.5 ] } },
{ "type": "Feature", "properties": { "id": "lidar-tree:284768:4158528", "name": null, "kind": "tree", "species": null, "source": "lidar2025", "tree_height": 4.6, "crown_radius": 2.3, "height_source": "lidar2025" }, "geometry": { "type": "Point", "coordinates": [ 284768.5, 4158527.5 ] } },
{ "type": "Feature", "properties": { "id": "lidar-tree:284774:4158536", "name": null, "kind": "tree", "species": null, "source": "lidar2025", "tree_height": 4.5, "crown_radius": 1.9, "height_source": "lidar2025" }, "geometry": { "type": "Point", "coordinates": [ 284773.5, 4158535.5 ] } },
{ "type": "Feature", "properties": { "id": "lidar-tree:284754:4158586", "name": null, "kind": "tree", "species": null, "source": "lidar2025", "tree_height": 5.2, "crown_radius": 2.5, "height_source": "lidar2025" }, "geometry": { "type": "Point", "coordinates": [ 284753.5, 4158586.5 ] } },
{ "type": "Feature", "properties": { "id": "lidar-tree:284768:4158612", "name": null, "kind": "tree", "species": null, "source": "lidar2025", "tree_height": 5.0, "crown_radius": 3.1, "height_source": "lidar2025" }, "geometry": { "type": "Point", "coordinates": [ 284767.5, 4158612.5 ] } },
{ "type": "Feature", "properties": { "id": "lidar-tree:284770:4158618", "name": null, "kind": "tree", "species": null, "source": "lidar2025", "tree_height": 7.1, "crown_radius": 3.0, "height_source": "lidar2025" }, "geometry": { "type": "Point", "coordinates": [ 284770.5, 4158618.5 ] } },
{ "type": "Feature", "properties": { "id": "lidar-tree:284754:4158628", "name": null, "kind": "tree", "species": null, "source": "lidar2025", "tree_height": 6.5, "crown_radius": 5.5, "height_source": "lidar2025" }, "geometry": { "type": "Point", "coordinates": [ 284754.5, 4158628.5 ] } },
{ "type": "Feature", "properties": { "id": "lidar-tree:284938:4158542", "name": null, "kind": "tree", "species": null, "source": "lidar2025", "tree_height": 9.8, "crown_radius": 6.0, "height_source": "lidar2025" }, "geometry": { "type": "Point", "coordinates": [ 284938.5, 4158542.5 ] } },
{ "type": "Feature", "properties": { "id": "lidar-tree:284978:4158548", "name": null, "kind": "tree", "species": null, "source": "lidar2025", "tree_height": 7.1, "crown_radius": 2.9, "height_source": "lidar2025" }, "geometry": { "type": "Point", "coordinates": [ 284977.5, 4158547.5 ] } },
{ "type": "Feature", "properties": { "id": "lidar-tree:284968:4158554", "name": null, "kind": "tree", "species": null, "source": "lidar2025", "tree_height": 3.7, "crown_radius": 2.2, "height_source": "lidar2025" }, "geometry": { "type": "Point", "coordinates": [ 284967.5, 4158554.5 ] } },
{ "type": "Feature", "properties": { "id": "lidar-tree:284934:4158558", "name": null, "kind": "tree", "species": null, "source": "lidar2025", "tree_height": 11.0, "crown_radius": 5.4, "height_source": "lidar2025" }, "geometry": { "type": "Point", "coordinates": [ 284933.5, 4158558.5 ] } },
{ "type": "Feature", "properties": { "id": "lidar-tree:284974:4158576", "name": null, "kind": "tree", "species": null, "source": "lidar2025", "tree_height": 8.8, "crown_radius": 3.2, "height_source": "lidar2025" }, "geometry": { "type": "Point", "coordinates": [ 284974.5, 4158576.5 ] } },
{ "type": "Feature", "properties": { "id": "lidar-tree:284970:4158582", "name": null, "kind": "tree", "species": null, "source": "lidar2025", "tree_height": 5.3, "crown_radius": 3.7, "height_source": "lidar2025" }, "geometry": { "type": "Point", "coordinates": [ 284970.5, 4158581.5 ] } },
{ "type": "Feature", "properties": { "id": "osm:node/10289825972", "name": null, "kind": "streetlight", "species": null, "source": null, "tree_height": null, "crown_radius": null, "height_source": null }, "geometry": { "type": "Point", "coordinates": [ 284964.53, 4158583.52 ] } },
{ "type": "Feature", "properties": { "id": "lidar-tree:284960:4158588", "name": null, "kind": "tree", "species": null, "source": "lidar2025", "tree_height": 5.8, "crown_radius": 3.2, "height_source": "lidar2025" }, "geometry": { "type": "Point", "coordinates": [ 284959.5, 4158588.5 ] } },
{ "type": "Feature", "properties": { "id": "lidar-tree:284952:4158594", "name": null, "kind": "tree", "species": null, "source": "lidar2025", "tree_height": 5.9, "crown_radius": 3.2, "height_source": "lidar2025" }, "geometry": { "type": "Point", "coordinates": [ 284952.5, 4158593.5 ] } },
{ "type": "Feature", "properties": { "id": "lidar-tree:284944:4158598", "name": null, "kind": "tree", "species": null, "source": "lidar2025", "tree_height": 4.5, "crown_radius": 2.6, "height_source": "lidar2025" }, "geometry": { "type": "Point", "coordinates": [ 284943.5, 4158598.5 ] } },
{ "type": "Feature", "properties": { "id": "osm:node/13614831715", "name": null, "kind": "streetlight", "species": null, "source": null, "tree_height": null, "crown_radius": null, "height_source": null }, "geometry": { "type": "Point", "coordinates": [ 284825.65, 4158575.01 ] } },
{ "type": "Feature", "properties": { "id": "lidar-tree:284808:4158578", "name": null, "kind": "tree", "species": null, "source": "lidar2025", "tree_height": 5.3, "crown_radius": 3.1, "height_source": "lidar2025" }, "geometry": { "type": "Point", "coordinates": [ 284808.5, 4158577.5 ] } },
{ "type": "Feature", "properties": { "id": "osm:node/13614831717", "name": null, "kind": "streetlight", "species": null, "source": null, "tree_height": null, "crown_radius": null, "height_source": null }, "geometry": { "type": "Point", "coordinates": [ 284811.22, 4158579.77 ] } },
{ "type": "Feature", "properties": { "id": "rva-tree:95488", "name": "Quercus phellos", "kind": "tree", "species": "Quercus phellos", "source": "city_inventory", "tree_height": 17.7, "crown_radius": 6.0, "height_source": "lidar2025" }, "geometry": { "type": "Point", "coordinates": [ 284832.29, 4158582.43 ] } },
{ "type": "Feature", "properties": { "id": "lidar-tree:284806:4158582", "name": null, "kind": "tree", "species": null, "source": "lidar2025", "tree_height": 6.2, "crown_radius": 3.0, "height_source": "lidar2025" }, "geometry": { "type": "Point", "coordinates": [ 284805.5, 4158582.5 ] } },
{ "type": "Feature", "properties": { "id": "osm:node/13614831714", "name": null, "kind": "streetlight", "species": null, "source": null, "tree_height": null, "crown_radius": null, "height_source": null }, "geometry": { "type": "Point", "coordinates": [ 284838.94, 4158591.71 ] } },
{ "type": "Feature", "properties": { "id": "lidar-tree:284820:4158592", "name": null, "kind": "tree", "species": null, "source": "lidar2025", "tree_height": 4.4, "crown_radius": 2.6, "height_source": "lidar2025" }, "geometry": { "type": "Point", "coordinates": [ 284819.5, 4158592.5 ] } },
{ "type": "Feature", "properties": { "id": "lidar-tree:284826:4158600", "name": null, "kind": "tree", "species": null, "source": "lidar2025", "tree_height": 5.0, "crown_radius": 2.3, "height_source": "lidar2025" }, "geometry": { "type": "Point", "coordinates": [ 284825.5, 4158599.5 ] } },
{ "type": "Feature", "properties": { "id": "osm:node/13614831716", "name": null, "kind": "streetlight", "species": null, "source": null, "tree_height": null, "crown_radius": null, "height_source": null }, "geometry": { "type": "Point", "coordinates": [ 284829.46, 4158602.39 ] } },
{ "type": "Feature", "properties": { "id": "lidar-tree:284834:4158610", "name": null, "kind": "tree", "species": null, "source": "lidar2025", "tree_height": 4.5, "crown_radius": 2.0, "height_source": "lidar2025" }, "geometry": { "type": "Point", "coordinates": [ 284834.5, 4158610.5 ] } },
{ "type": "Feature", "properties": { "id": "lidar-tree:284904:4158574", "name": null, "kind": "tree", "species": null, "source": "lidar2025", "tree_height": 8.7, "crown_radius": 6.0, "height_source": "lidar2025" }, "geometry": { "type": "Point", "coordinates": [ 284903.5, 4158574.5 ] } },
{ "type": "Feature", "properties": { "id": "lidar-tree:284914:4158580", "name": null, "kind": "tree", "species": null, "source": "lidar2025", "tree_height": 4.9, "crown_radius": 2.8, "height_source": "lidar2025" }, "geometry": { "type": "Point", "coordinates": [ 284914.5, 4158580.5 ] } },
{ "type": "Feature", "properties": { "id": "lidar-tree:284894:4158584", "name": null, "kind": "tree", "species": null, "source": "lidar2025", "tree_height": 9.5, "crown_radius": 6.0, "height_source": "lidar2025" }, "geometry": { "type": "Point", "coordinates": [ 284893.5, 4158584.5 ] } },
{ "type": "Feature", "properties": { "id": "osm:node/13614831713", "name": null, "kind": "streetlight", "species": null, "source": null, "tree_height": null, "crown_radius": null, "height_source": null }, "geometry": { "type": "Point", "coordinates": [ 284862.35, 4158584.88 ] } },
{ "type": "Feature", "properties": { "id": "lidar-tree:284880:4158586", "name": null, "kind": "tree", "species": null, "source": "lidar2025", "tree_height": 13.2, "crown_radius": 6.0, "height_source": "lidar2025" }, "geometry": { "type": "Point", "coordinates": [ 284880.5, 4158586.5 ] } },
{ "type": "Feature", "properties": { "id": "lidar-tree:284880:4158596", "name": null, "kind": "tree", "species": null, "source": "lidar2025", "tree_height": 11.0, "crown_radius": 6.0, "height_source": "lidar2025" }, "geometry": { "type": "Point", "coordinates": [ 284880.5, 4158595.5 ] } },
{ "type": "Feature", "properties": { "id": "lidar-tree:284868:4158606", "name": null, "kind": "tree", "species": null, "source": "lidar2025", "tree_height": 13.2, "crown_radius": 6.0, "height_source": "lidar2025" }, "geometry": { "type": "Point", "coordinates": [ 284867.5, 4158606.5 ] } },
{ "type": "Feature", "properties": { "id": "lidar-tree:284926:4158610", "name": null, "kind": "tree", "species": null, "source": "lidar2025", "tree_height": 4.6, "crown_radius": 2.7, "height_source": "lidar2025" }, "geometry": { "type": "Point", "coordinates": [ 284926.5, 4158609.5 ] } },
{ "type": "Feature", "properties": { "id": "lidar-tree:284918:4158614", "name": null, "kind": "tree", "species": null, "source": "lidar2025", "tree_height": 4.7, "crown_radius": 2.0, "height_source": "lidar2025" }, "geometry": { "type": "Point", "coordinates": [ 284917.5, 4158614.5 ] } },
{ "type": "Feature", "properties": { "id": "lidar-tree:284860:4158618", "name": null, "kind": "tree", "species": null, "source": "lidar2025", "tree_height": 5.2, "crown_radius": 2.4, "height_source": "lidar2025" }, "geometry": { "type": "Point", "coordinates": [ 284860.5, 4158618.5 ] } },
{ "type": "Feature", "properties": { "id": "lidar-tree:284934:4158604", "name": null, "kind": "tree", "species": null, "source": "lidar2025", "tree_height": 4.4, "crown_radius": 2.9, "height_source": "lidar2025" }, "geometry": { "type": "Point", "coordinates": [ 284934.5, 4158604.5 ] } },
{ "type": "Feature", "properties": { "id": "osm:node/13605930114", "name": null, "kind": "tree", "species": null, "source": null, "tree_height": null, "crown_radius": null, "height_source": null }, "geometry": { "type": "Point", "coordinates": [ 284976.36, 4158638.49 ] } },
{ "type": "Feature", "properties": { "id": "lidar-tree:284992:4158640", "name": null, "kind": "tree", "species": null, "source": "lidar2025", "tree_height": 15.3, "crown_radius": 5.8, "height_source": "lidar2025" }, "geometry": { "type": "Point", "coordinates": [ 284992.5, 4158639.5 ] } },
{ "type": "Feature", "properties": { "id": "osm:node/13605930115", "name": null, "kind": "tree", "species": null, "source": null, "tree_height": null, "crown_radius": null, "height_source": null }, "geometry": { "type": "Point", "coordinates": [ 284980.2, 4158640.28 ] } },
{ "type": "Feature", "properties": { "id": "osm:node/13605930113", "name": null, "kind": "tree", "species": null, "source": null, "tree_height": null, "crown_radius": null, "height_source": null }, "geometry": { "type": "Point", "coordinates": [ 284971.26, 4158641.72 ] } },
{ "type": "Feature", "properties": { "id": "osm:node/13605930111", "name": null, "kind": "tree", "species": null, "source": null, "tree_height": null, "crown_radius": null, "height_source": null }, "geometry": { "type": "Point", "coordinates": [ 284964.45, 4158645.94 ] } },
{ "type": "Feature", "properties": { "id": "osm:node/13605930112", "name": null, "kind": "tree", "species": null, "source": null, "tree_height": null, "crown_radius": null, "height_source": null }, "geometry": { "type": "Point", "coordinates": [ 284970.65, 4158648.19 ] } },
{ "type": "Feature", "properties": { "id": "osm:node/13605930110", "name": null, "kind": "tree", "species": null, "source": null, "tree_height": null, "crown_radius": null, "height_source": null }, "geometry": { "type": "Point", "coordinates": [ 284960.94, 4158654.12 ] } },
{ "type": "Feature", "properties": { "id": "osm:node/10289825976", "name": null, "kind": "streetlight", "species": null, "source": null, "tree_height": null, "crown_radius": null, "height_source": null }, "geometry": { "type": "Point", "coordinates": [ 284953.32, 4158654.45 ] } },
{ "type": "Feature", "properties": { "id": "osm:node/13605930108", "name": null, "kind": "tree", "species": null, "source": null, "tree_height": null, "crown_radius": null, "height_source": null }, "geometry": { "type": "Point", "coordinates": [ 284948.27, 4158658.67 ] } },
{ "type": "Feature", "properties": { "id": "lidar-tree:284852:4158622", "name": null, "kind": "tree", "species": null, "source": "lidar2025", "tree_height": 5.9, "crown_radius": 2.9, "height_source": "lidar2025" }, "geometry": { "type": "Point", "coordinates": [ 284852.5, 4158622.5 ] } },
{ "type": "Feature", "properties": { "id": "lidar-tree:284848:4158626", "name": null, "kind": "tree", "species": null, "source": "lidar2025", "tree_height": 5.4, "crown_radius": 3.4, "height_source": "lidar2025" }, "geometry": { "type": "Point", "coordinates": [ 284847.5, 4158626.5 ] } },
{ "type": "Feature", "properties": { "id": "lidar-tree:284844:4158630", "name": null, "kind": "tree", "species": null, "source": "lidar2025", "tree_height": 6.4, "crown_radius": 3.5, "height_source": "lidar2025" }, "geometry": { "type": "Point", "coordinates": [ 284843.5, 4158629.5 ] } },
{ "type": "Feature", "properties": { "id": "lidar-tree:284838:4158632", "name": null, "kind": "tree", "species": null, "source": "lidar2025", "tree_height": 5.6, "crown_radius": 3.5, "height_source": "lidar2025" }, "geometry": { "type": "Point", "coordinates": [ 284838.5, 4158632.5 ] } },
{ "type": "Feature", "properties": { "id": "lidar-tree:284830:4158636", "name": null, "kind": "tree", "species": null, "source": "lidar2025", "tree_height": 5.8, "crown_radius": 3.1, "height_source": "lidar2025" }, "geometry": { "type": "Point", "coordinates": [ 284830.5, 4158636.5 ] } },
{ "type": "Feature", "properties": { "id": "lidar-tree:284824:4158640", "name": null, "kind": "tree", "species": null, "source": "lidar2025", "tree_height": 5.8, "crown_radius": 2.8, "height_source": "lidar2025" }, "geometry": { "type": "Point", "coordinates": [ 284824.5, 4158640.5 ] } },
{ "type": "Feature", "properties": { "id": "lidar-tree:284818:4158646", "name": null, "kind": "tree", "species": null, "source": "lidar2025", "tree_height": 5.8, "crown_radius": 2.9, "height_source": "lidar2025" }, "geometry": { "type": "Point", "coordinates": [ 284818.5, 4158645.5 ] } },
{ "type": "Feature", "properties": { "id": "lidar-tree:284812:4158650", "name": null, "kind": "tree", "species": null, "source": "lidar2025", "tree_height": 6.0, "crown_radius": 2.9, "height_source": "lidar2025" }, "geometry": { "type": "Point", "coordinates": [ 284811.5, 4158649.5 ] } },
{ "type": "Feature", "properties": { "id": "lidar-tree:284804:4158654", "name": null, "kind": "tree", "species": null, "source": "lidar2025", "tree_height": 5.9, "crown_radius": 2.6, "height_source": "lidar2025" }, "geometry": { "type": "Point", "coordinates": [ 284804.5, 4158654.5 ] } },
{ "type": "Feature", "properties": { "id": "osm:node/13166817624", "name": "Duval + 1st", "kind": "bus_stop", "species": null, "source": null, "tree_height": null, "crown_radius": null, "height_source": null }, "geometry": { "type": "Point", "coordinates": [ 284779.28, 4158655.79 ] } },
{ "type": "Feature", "properties": { "id": "lidar-tree:284902:4158624", "name": null, "kind": "tree", "species": null, "source": "lidar2025", "tree_height": 4.1, "crown_radius": 2.6, "height_source": "lidar2025" }, "geometry": { "type": "Point", "coordinates": [ 284901.5, 4158624.5 ] } },
{ "type": "Feature", "properties": { "id": "lidar-tree:284890:4158628", "name": null, "kind": "tree", "species": null, "source": "lidar2025", "tree_height": 4.3, "crown_radius": 2.0, "height_source": "lidar2025" }, "geometry": { "type": "Point", "coordinates": [ 284890.5, 4158628.5 ] } },
{ "type": "Feature", "properties": { "id": "osm:node/10289825974", "name": null, "kind": "streetlight", "species": null, "source": null, "tree_height": null, "crown_radius": null, "height_source": null }, "geometry": { "type": "Point", "coordinates": [ 284886.18, 4158631.8 ] } },
{ "type": "Feature", "properties": { "id": "osm:node/13605930103", "name": null, "kind": "tree", "species": null, "source": null, "tree_height": null, "crown_radius": null, "height_source": null }, "geometry": { "type": "Point", "coordinates": [ 284923.54, 4158674.89 ] } },
{ "type": "Feature", "properties": { "id": "lidar-tree:284918:4158684", "name": null, "kind": "tree", "species": null, "source": "lidar2025", "tree_height": 4.2, "crown_radius": 3.5, "height_source": "lidar2025" }, "geometry": { "type": "Point", "coordinates": [ 284917.5, 4158683.5 ] } },
{ "type": "Feature", "properties": { "id": "osm:node/13605930101", "name": null, "kind": "tree", "species": null, "source": null, "tree_height": null, "crown_radius": null, "height_source": null }, "geometry": { "type": "Point", "coordinates": [ 284911.7, 4158685.27 ] } },
{ "type": "Feature", "properties": { "id": "osm:node/13605930100", "name": null, "kind": "tree", "species": null, "source": null, "tree_height": null, "crown_radius": null, "height_source": null }, "geometry": { "type": "Point", "coordinates": [ 284905.1, 4158687.24 ] } },
{ "type": "Feature", "properties": { "id": "osm:node/13605930099", "name": null, "kind": "tree", "species": null, "source": null, "tree_height": null, "crown_radius": null, "height_source": null }, "geometry": { "type": "Point", "coordinates": [ 284896.73, 4158690.82 ] } },
{ "type": "Feature", "properties": { "id": "lidar-tree:284924:4158692", "name": null, "kind": "tree", "species": null, "source": "lidar2025", "tree_height": 12.7, "crown_radius": 5.7, "height_source": "lidar2025" }, "geometry": { "type": "Point", "coordinates": [ 284924.5, 4158692.5 ] } },
{ "type": "Feature", "properties": { "id": "lidar-tree:284890:4158694", "name": null, "kind": "tree", "species": null, "source": "lidar2025", "tree_height": 4.2, "crown_radius": 1.7, "height_source": "lidar2025" }, "geometry": { "type": "Point", "coordinates": [ 284889.5, 4158694.5 ] } },
{ "type": "Feature", "properties": { "id": "osm:node/13605930109", "name": null, "kind": "tree", "species": null, "source": null, "tree_height": null, "crown_radius": null, "height_source": null }, "geometry": { "type": "Point", "coordinates": [ 284955.36, 4158658.74 ] } },
{ "type": "Feature", "properties": { "id": "osm:node/13605930107", "name": null, "kind": "tree", "species": null, "source": null, "tree_height": null, "crown_radius": null, "height_source": null }, "geometry": { "type": "Point", "coordinates": [ 284940.1, 4158660.51 ] } },
{ "type": "Feature", "properties": { "id": "osm:node/13605930106", "name": null, "kind": "tree", "species": null, "source": null, "tree_height": null, "crown_radius": null, "height_source": null }, "geometry": { "type": "Point", "coordinates": [ 284933.77, 4158663.0 ] } },
{ "type": "Feature", "properties": { "id": "osm:node/13605930104", "name": null, "kind": "tree", "species": null, "source": null, "tree_height": null, "crown_radius": null, "height_source": null }, "geometry": { "type": "Point", "coordinates": [ 284929.69, 4158668.7 ] } },
{ "type": "Feature", "properties": { "id": "rva-tree:89342", "name": "Quercus bicolor", "kind": "tree", "species": "Quercus bicolor", "source": "city_inventory", "tree_height": 8.0, "crown_radius": 2.5, "height_source": "estimated" }, "geometry": { "type": "Point", "coordinates": [ 284966.76, 4158671.73 ] } },
{ "type": "Feature", "properties": { "id": "lidar-tree:284936:4158676", "name": null, "kind": "tree", "species": null, "source": "lidar2025", "tree_height": 8.3, "crown_radius": 2.8, "height_source": "lidar2025" }, "geometry": { "type": "Point", "coordinates": [ 284936.5, 4158675.5 ] } },
{ "type": "Feature", "properties": { "id": "lidar-tree:284930:4158682", "name": null, "kind": "tree", "species": null, "source": "lidar2025", "tree_height": 7.4, "crown_radius": 4.3, "height_source": "lidar2025" }, "geometry": { "type": "Point", "coordinates": [ 284929.5, 4158682.5 ] } },
{ "type": "Feature", "properties": { "id": "lidar-tree:284968:4158686", "name": null, "kind": "tree", "species": null, "source": "lidar2025", "tree_height": 7.8, "crown_radius": 3.9, "height_source": "lidar2025" }, "geometry": { "type": "Point", "coordinates": [ 284968.5, 4158685.5 ] } },
{ "type": "Feature", "properties": { "id": "lidar-tree:284992:4158688", "name": null, "kind": "tree", "species": null, "source": "lidar2025", "tree_height": 10.1, "crown_radius": 6.0, "height_source": "lidar2025" }, "geometry": { "type": "Point", "coordinates": [ 284992.5, 4158687.5 ] } },
{ "type": "Feature", "properties": { "id": "lidar-tree:284882:4158696", "name": null, "kind": "tree", "species": null, "source": "lidar2025", "tree_height": 4.5, "crown_radius": 2.0, "height_source": "lidar2025" }, "geometry": { "type": "Point", "coordinates": [ 284882.5, 4158695.5 ] } },
{ "type": "Feature", "properties": { "id": "lidar-tree:284876:4158698", "name": null, "kind": "tree", "species": null, "source": "lidar2025", "tree_height": 4.5, "crown_radius": 2.3, "height_source": "lidar2025" }, "geometry": { "type": "Point", "coordinates": [ 284875.5, 4158698.5 ] } },
{ "type": "Feature", "properties": { "id": "osm:node/13605930097", "name": null, "kind": "tree", "species": null, "source": null, "tree_height": null, "crown_radius": null, "height_source": null }, "geometry": { "type": "Point", "coordinates": [ 284897.13, 4158699.76 ] } },
{ "type": "Feature", "properties": { "id": "osm:node/13605930093", "name": null, "kind": "tree", "species": null, "source": null, "tree_height": null, "crown_radius": null, "height_source": null }, "geometry": { "type": "Point", "coordinates": [ 284869.04, 4158699.97 ] } },
{ "type": "Feature", "properties": { "id": "osm:node/13605930092", "name": null, "kind": "tree", "species": null, "source": null, "tree_height": null, "crown_radius": null, "height_source": null }, "geometry": { "type": "Point", "coordinates": [ 284861.72, 4158704.38 ] } },
{ "type": "Feature", "properties": { "id": "lidar-tree:284888:4158708", "name": null, "kind": "tree", "species": null, "source": "lidar2025", "tree_height": 5.2, "crown_radius": 2.4, "height_source": "lidar2025" }, "geometry": { "type": "Point", "coordinates": [ 284888.5, 4158707.5 ] } },
{ "type": "Feature", "properties": { "id": "lidar-tree:284880:4158710", "name": null, "kind": "tree", "species": null, "source": "lidar2025", "tree_height": 8.0, "crown_radius": 3.8, "height_source": "lidar2025" }, "geometry": { "type": "Point", "coordinates": [ 284880.5, 4158709.5 ] } },
{ "type": "Feature", "properties": { "id": "lidar-tree:284896:4158742", "name": null, "kind": "tree", "species": null, "source": "lidar2025", "tree_height": 17.2, "crown_radius": 6.0, "height_source": "lidar2025" }, "geometry": { "type": "Point", "coordinates": [ 284895.5, 4158742.5 ] } },
{ "type": "Feature", "properties": { "id": "lidar-tree:284872:4158746", "name": null, "kind": "tree", "species": null, "source": "lidar2025", "tree_height": 11.4, "crown_radius": 5.1, "height_source": "lidar2025" }, "geometry": { "type": "Point", "coordinates": [ 284872.5, 4158745.5 ] } },
{ "type": "Feature", "properties": { "id": "lidar-tree:284798:4158658", "name": null, "kind": "tree", "species": null, "source": "lidar2025", "tree_height": 5.8, "crown_radius": 2.3, "height_source": "lidar2025" }, "geometry": { "type": "Point", "coordinates": [ 284797.5, 4158658.5 ] } },
{ "type": "Feature", "properties": { "id": "lidar-tree:284782:4158664", "name": null, "kind": "tree", "species": null, "source": "lidar2025", "tree_height": 10.2, "crown_radius": 3.9, "height_source": "lidar2025" }, "geometry": { "type": "Point", "coordinates": [ 284782.5, 4158664.5 ] } },
{ "type": "Feature", "properties": { "id": "osm:node/10289825975", "name": null, "kind": "streetlight", "species": null, "source": null, "tree_height": null, "crown_radius": null, "height_source": null }, "geometry": { "type": "Point", "coordinates": [ 284845.99, 4158708.7 ] } },
{ "type": "Feature", "properties": { "id": "lidar-tree:284842:4158718", "name": null, "kind": "tree", "species": null, "source": "lidar2025", "tree_height": 4.3, "crown_radius": 1.7, "height_source": "lidar2025" }, "geometry": { "type": "Point", "coordinates": [ 284842.5, 4158717.5 ] } },
{ "type": "Feature", "properties": { "id": "lidar-tree:284832:4158722", "name": null, "kind": "tree", "species": null, "source": "lidar2025", "tree_height": 9.9, "crown_radius": 3.8, "height_source": "lidar2025" }, "geometry": { "type": "Point", "coordinates": [ 284831.5, 4158722.5 ] } },
{ "type": "Feature", "properties": { "id": "lidar-tree:284798:4158730", "name": null, "kind": "tree", "species": null, "source": "lidar2025", "tree_height": 10.3, "crown_radius": 4.3, "height_source": "lidar2025" }, "geometry": { "type": "Point", "coordinates": [ 284798.5, 4158730.5 ] } },
{ "type": "Feature", "properties": { "id": "lidar-tree:284796:4158738", "name": null, "kind": "tree", "species": null, "source": "lidar2025", "tree_height": 8.3, "crown_radius": 4.7, "height_source": "lidar2025" }, "geometry": { "type": "Point", "coordinates": [ 284795.5, 4158737.5 ] } },
{ "type": "Feature", "properties": { "id": "osm:node/6655453647", "name": "East Market & Pizza", "kind": "shop", "species": null, "source": null, "tree_height": null, "crown_radius": null, "height_source": null }, "geometry": { "type": "Point", "coordinates": [ 284842.12, 4158745.37 ] } },
{ "type": "Feature", "properties": { "id": "lidar-tree:284972:4158692", "name": null, "kind": "tree", "species": null, "source": "lidar2025", "tree_height": 7.2, "crown_radius": 6.0, "height_source": "lidar2025" }, "geometry": { "type": "Point", "coordinates": [ 284972.5, 4158692.5 ] } },
{ "type": "Feature", "properties": { "id": "lidar-tree:284956:4158706", "name": null, "kind": "tree", "species": null, "source": "lidar2025", "tree_height": 19.0, "crown_radius": 6.0, "height_source": "lidar2025" }, "geometry": { "type": "Point", "coordinates": [ 284955.5, 4158705.5 ] } },
{ "type": "Feature", "properties": { "id": "lidar-tree:284974:4158710", "name": null, "kind": "tree", "species": null, "source": "lidar2025", "tree_height": 17.7, "crown_radius": 6.0, "height_source": "lidar2025" }, "geometry": { "type": "Point", "coordinates": [ 284974.5, 4158710.5 ] } },
{ "type": "Feature", "properties": { "id": "lidar-tree:284986:4158716", "name": null, "kind": "tree", "species": null, "source": "lidar2025", "tree_height": 15.4, "crown_radius": 6.0, "height_source": "lidar2025" }, "geometry": { "type": "Point", "coordinates": [ 284985.5, 4158716.5 ] } },
{ "type": "Feature", "properties": { "id": "lidar-tree:284994:4158716", "name": null, "kind": "tree", "species": null, "source": "lidar2025", "tree_height": 15.1, "crown_radius": 6.0, "height_source": "lidar2025" }, "geometry": { "type": "Point", "coordinates": [ 284994.5, 4158716.5 ] } },
{ "type": "Feature", "properties": { "id": "lidar-tree:284968:4158718", "name": null, "kind": "tree", "species": null, "source": "lidar2025", "tree_height": 15.3, "crown_radius": 6.0, "height_source": "lidar2025" }, "geometry": { "type": "Point", "coordinates": [ 284967.5, 4158717.5 ] } },
{ "type": "Feature", "properties": { "id": "lidar-tree:284970:4158726", "name": null, "kind": "tree", "species": null, "source": "lidar2025", "tree_height": 15.8, "crown_radius": 6.0, "height_source": "lidar2025" }, "geometry": { "type": "Point", "coordinates": [ 284970.5, 4158726.5 ] } },
{ "type": "Feature", "properties": { "id": "lidar-tree:284754:4158646", "name": null, "kind": "tree", "species": null, "source": "lidar2025", "tree_height": 3.9, "crown_radius": 1.8, "height_source": "lidar2025" }, "geometry": { "type": "Point", "coordinates": [ 284753.5, 4158645.5 ] } },
{ "type": "Feature", "properties": { "id": "osm:node/10289825977", "name": null, "kind": "streetlight", "species": null, "source": null, "tree_height": null, "crown_radius": null, "height_source": null }, "geometry": { "type": "Point", "coordinates": [ 284750.84, 4158687.14 ] } }
]
}
