{
"type": "FeatureCollection",
"name": "pois",
"crs": { "type": "name", "properties": { "name": "urn:ogc:def:crs:EPSG::32618" } },
"xy_coordinate_resolution": 0.01,
"features": [
{ "type": "Feature", "properties": { "id": "lidar-tree:282242:4157018", "name": null, "kind": "tree", "species": null, "source": "lidar2025", "tree_height": 8.7, "crown_radius": 4.1, "height_source": "lidar2025" }, "geometry": { "type": "Point", "coordinates": [ 282242.5, 4157017.5 ] } },
{ "type": "Feature", "properties": { "id": "lidar-tree:282248:4157036", "name": null, "kind": "tree", "species": null, "source": "lidar2025", "tree_height": 6.3, "crown_radius": 3.7, "height_source": "lidar2025" }, "geometry": { "type": "Point", "coordinates": [ 282248.5, 4157035.5 ] } },
{ "type": "Feature", "properties": { "id": "lidar-tree:282244:4157056", "name": null, "kind": "tree", "species": null, "source": "lidar2025", "tree_height": 6.9, "crown_radius": 3.3, "height_source": "lidar2025" }, "geometry": { "type": "Point", "coordinates": [ 282244.5, 4157056.5 ] } },
{ "type": "Feature", "properties": { "id": "lidar-tree:282230:4157064", "name": null, "kind": "tree", "species": null, "source": "lidar2025", "tree_height": 4.9, "crown_radius": 2.9, "height_source": "lidar2025" }, "geometry": { "type": "Point", "coordinates": [ 282229.5, 4157063.5 ] } },
{ "type": "Feature", "properties": { "id": "lidar-tree:282238:4157074", "name": null, "kind": "tree", "species": null, "source": "lidar2025", "tree_height": 6.6, "crown_radius": 5.0, "height_source": "lidar2025" }, "geometry": { "type": "Point", "coordinates": [ 282237.5, 4157073.5 ] } },
{ "type": "Feature", "properties": { "id": "lidar-tree:282236:4157100", "name": null, "kind": "tree", "species": null, "source": "lidar2025", "tree_height": 15.4, "crown_radius": 6.0, "height_source": "lidar2025" }, "geometry": { "type": "Point", "coordinates": [ 282235.5, 4157099.5 ] } },
{ "type": "Feature", "properties": { "id": "lidar-tree:282240:4157118", "name": null, "kind": "tree", "species": null, "source": "lidar2025", "tree_height": 5.2, "crown_radius": 3.4, "height_source": "lidar2025" }, "geometry": { "type": "Point", "coordinates": [ 282239.5, 4157118.5 ] } },
{ "type": "Feature", "properties": { "id": "lidar-tree:282218:4157134", "name": null, "kind": "tree", "species": null, "source": "lidar2025", "tree_height": 5.5, "crown_radius": 2.3, "height_source": "lidar2025" }, "geometry": { "type": "Point", "coordinates": [ 282218.5, 4157133.5 ] } },
{ "type": "Feature", "properties": { "id": "lidar-tree:282236:4157134", "name": null, "kind": "tree", "species": null, "source": "lidar2025", "tree_height": 7.8, "crown_radius": 3.7, "height_source": "lidar2025" }, "geometry": { "type": "Point", "coordinates": [ 282235.5, 4157134.5 ] } },
{ "type": "Feature", "properties": { "id": "lidar-tree:282134:4157012", "name": null, "kind": "tree", "species": null, "source": "lidar2025", "tree_height": 4.9, "crown_radius": 3.4, "height_source": "lidar2025" }, "geometry": { "type": "Point", "coordinates": [ 282134.5, 4157012.5 ] } },
{ "type": "Feature", "properties": { "id": "lidar-tree:282142:4157024", "name": null, "kind": "tree", "species": null, "source": "lidar2025", "tree_height": 15.7, "crown_radius": 6.0, "height_source": "lidar2025" }, "geometry": { "type": "Point", "coordinates": [ 282141.5, 4157024.5 ] } },
{ "type": "Feature", "properties": { "id": "lidar-tree:282130:4157042", "name": null, "kind": "tree", "species": null, "source": "lidar2025", "tree_height": 10.4, "crown_radius": 4.7, "height_source": "lidar2025" }, "geometry": { "type": "Point", "coordinates": [ 282129.5, 4157042.5 ] } },
{ "type": "Feature", "properties": { "id": "lidar-tree:282024:4157002", "name": null, "kind": "tree", "species": null, "source": "lidar2025", "tree_height": 5.0, "crown_radius": 3.4, "height_source": "lidar2025" }, "geometry": { "type": "Point", "coordinates": [ 282023.5, 4157002.5 ] } },
{ "type": "Feature", "properties": { "id": "lidar-tree:282020:4157012", "name": null, "kind": "tree", "species": null, "source": "lidar2025", "tree_height": 7.2, "crown_radius": 4.1, "height_source": "lidar2025" }, "geometry": { "type": "Point", "coordinates": [ 282019.5, 4157012.5 ] } },
{ "type": "Feature", "properties": { "id": "lidar-tree:282004:4157030", "name": null, "kind": "tree", "species": null, "source": "lidar2025", "tree_height": 8.9, "crown_radius": 6.0, "height_source": "lidar2025" }, "geometry": { "type": "Point", "coordinates": [ 282003.5, 4157029.5 ] } },
{ "type": "Feature", "properties": { "id": "lidar-tree:282030:4157046", "name": null, "kind": "tree", "species": null, "source": "lidar2025", "tree_height": 9.4, "crown_radius": 3.4, "height_source": "lidar2025" }, "geometry": { "type": "Point", "coordinates": [ 282030.5, 4157046.5 ] } },
{ "type": "Feature", "properties": { "id": "lidar-tree:282196:4157028", "name": null, "kind": "tree", "species": null, "source": "lidar2025", "tree_height": 10.8, "crown_radius": 3.4, "height_source": "lidar2025" }, "geometry": { "type": "Point", "coordinates": [ 282196.5, 4157028.5 ] } },
{ "type": "Feature", "properties": { "id": "lidar-tree:282188:4157062", "name": null, "kind": "tree", "species": null, "source": "lidar2025", "tree_height": 8.8, "crown_radius": 2.8, "height_source": "lidar2025" }, "geometry": { "type": "Point", "coordinates": [ 282188.5, 4157061.5 ] } },
{ "type": "Feature", "properties": { "id": "lidar-tree:282160:4157066", "name": null, "kind": "tree", "species": null, "source": "lidar2025", "tree_height": 9.1, "crown_radius": 5.5, "height_source": "lidar2025" }, "geometry": { "type": "Point", "coordinates": [ 282160.5, 4157065.5 ] } },
{ "type": "Feature", "properties": { "id": "lidar-tree:282046:4157014", "name": null, "kind": "tree", "species": null, "source": "lidar2025", "tree_height": 9.1, "crown_radius": 4.5, "height_source": "lidar2025" }, "geometry": { "type": "Point", "coordinates": [ 282046.5, 4157013.5 ] } },
{ "type": "Feature", "properties": { "id": "lidar-tree:282070:4157016", "name": null, "kind": "tree", "species": null, "source": "lidar2025", "tree_height": 3.8, "crown_radius": 2.3, "height_source": "lidar2025" }, "geometry": { "type": "Point", "coordinates": [ 282070.5, 4157015.5 ] } },
{ "type": "Feature", "properties": { "id": "lidar-tree:282034:4157060", "name": null, "kind": "tree", "species": null, "source": "lidar2025", "tree_height": 4.8, "crown_radius": 3.9, "height_source": "lidar2025" }, "geometry": { "type": "Point", "coordinates": [ 282034.5, 4157060.5 ] } },
{ "type": "Feature", "properties": { "id": "lidar-tree:282052:4157076", "name": null, "kind": "tree", "species": null, "source": "lidar2025", "tree_height": 19.6, "crown_radius": 6.0, "height_source": "lidar2025" }, "geometry": { "type": "Point", "coordinates": [ 282051.5, 4157075.5 ] } },
{ "type": "Feature", "properties": { "id": "lidar-tree:282074:4157082", "name": null, "kind": "tree", "species": null, "source": "lidar2025", "tree_height": 10.5, "crown_radius": 4.2, "height_source": "lidar2025" }, "geometry": { "type": "Point", "coordinates": [ 282074.5, 4157081.5 ] } },
{ "type": "Feature", "properties": { "id": "lidar-tree:282038:4157094", "name": null, "kind": "tree", "species": null, "source": "lidar2025", "tree_height": 5.0, "crown_radius": 2.6, "height_source": "lidar2025" }, "geometry": { "type": "Point", "coordinates": [ 282038.5, 4157093.5 ] } },
{ "type": "Feature", "properties": { "id": "lidar-tree:282022:4157058", "name": null, "kind": "tree", "species": null, "source": "lidar2025", "tree_height": 13.5, "crown_radius": 6.0, "height_source": "lidar2025" }, "geometry": { "type": "Point", "coordinates": [ 282022.5, 4157058.5 ] } },
{ "type": "Feature", "properties": { "id": "lidar-tree:282010:4157072", "name": null, "kind": "tree", "species": null, "source": "lidar2025", "tree_height": 13.4, "crown_radius": 4.1, "height_source": "lidar2025" }, "geometry": { "type": "Point", "coordinates": [ 282009.5, 4157072.5 ] } },
{ "type": "Feature", "properties": { "id": "lidar-tree:282024:4157080", "name": null, "kind": "tree", "species": null, "source": "lidar2025", "tree_height": 13.3, "crown_radius": 6.0, "height_source": "lidar2025" }, "geometry": { "type": "Point", "coordinates": [ 282023.5, 4157079.5 ] } },
{ "type": "Feature", "properties": { "id": "lidar-tree:282016:4157086", "name": null, "kind": "tree", "species": null, "source": "lidar2025", "tree_height": 12.8, "crown_radius": 5.8, "height_source": "lidar2025" }, "geometry": { "type": "Point", "coordinates": [ 282015.5, 4157086.5 ] } },
{ "type": "Feature", "properties": { "id": "lidar-tree:282030:4157088", "name": null, "kind": "tree", "species": null, "source": "lidar2025", "tree_height": 4.9, "crown_radius": 1.7, "height_source": "lidar2025" }, "geometry": { "type": "Point", "coordinates": [ 282029.5, 4157088.5 ] } },
{ "type": "Feature", "properties": { "id": "lidar-tree:282032:4157100", "name": null, "kind": "tree", "species": null, "source": "lidar2025", "tree_height": 12.2, "crown_radius": 4.1, "height_source": "lidar2025" }, "geometry": { "type": "Point", "coordinates": [ 282032.5, 4157100.5 ] } },
{ "type": "Feature", "properties": { "id": "lidar-tree:282004:4157112", "name": null, "kind": "tree", "species": null, "source": "lidar2025", "tree_height": 5.0, "crown_radius": 2.6, "height_source": "lidar2025" }, "geometry": { "type": "Point", "coordinates": [ 282004.5, 4157112.5 ] } },
{ "type": "Feature", "properties": { "id": "lidar-tree:282018:4157148", "name": null, "kind": "tree", "species": null, "source": "lidar2025", "tree_height": 16.1, "crown_radius": 6.0, "height_source": "lidar2025" }, "geometry": { "type": "Point", "coordinates": [ 282018.5, 4157147.5 ] } },
{ "type": "Feature", "properties": { "id": "lidar-tree:282026:4157178", "name": null, "kind": "tree", "species": null, "source": "lidar2025", "tree_height": 4.7, "crown_radius": 1.5, "height_source": "lidar2025" }, "geometry": { "type": "Point", "coordinates": [ 282025.5, 4157177.5 ] } },
{ "type": "Feature", "properties": { "id": "lidar-tree:282014:4157178", "name": null, "kind": "tree", "species": null, "source": "lidar2025", "tree_height": 4.8, "crown_radius": 2.0, "height_source": "lidar2025" }, "geometry": { "type": "Point", "coordinates": [ 282014.5, 4157178.5 ] } },
{ "type": "Feature", "properties": { "id": "lidar-tree:282028:4157190", "name": null, "kind": "tree", "species": null, "source": "lidar2025", "tree_height": 6.7, "crown_radius": 4.1, "height_source": "lidar2025" }, "geometry": { "type": "Point", "coordinates": [ 282028.5, 4157189.5 ] } },
{ "type": "Feature", "properties": { "id": "lidar-tree:282018:4157192", "name": null, "kind": "tree", "species": null, "source": "lidar2025", "tree_height": 6.4, "crown_radius": 4.3, "height_source": "lidar2025" }, "geometry": { "type": "Point", "coordinates": [ 282017.5, 4157191.5 ] } },
{ "type": "Feature", "properties": { "id": "lidar-tree:282206:4157080", "name": null, "kind": "tree", "species": null, "source": "lidar2025", "tree_height": 4.4, "crown_radius": 1.9, "height_source": "lidar2025" }, "geometry": { "type": "Point", "coordinates": [ 282205.5, 4157079.5 ] } },
{ "type": "Feature", "properties": { "id": "lidar-tree:282158:4157084", "name": null, "kind": "tree", "species": null, "source": "lidar2025", "tree_height": 13.7, "crown_radius": 6.0, "height_source": "lidar2025" }, "geometry": { "type": "Point", "coordinates": [ 282157.5, 4157084.5 ] } },
{ "type": "Feature", "properties": { "id": "lidar-tree:282168:4157092", "name": null, "kind": "tree", "species": null, "source": "lidar2025", "tree_height": 6.1, "crown_radius": 2.5, "height_source": "lidar2025" }, "geometry": { "type": "Point", "coordinates": [ 282168.5, 4157091.5 ] } },
{ "type": "Feature", "properties": { "id": "lidar-tree:282214:4157102", "name": null, "kind": "tree", "species": null, "source": "lidar2025", "tree_height": 6.5, "crown_radius": 3.9, "height_source": "lidar2025" }, "geometry": { "type": "Point", "coordinates": [ 282213.5, 4157101.5 ] } },
{ "type": "Feature", "properties": { "id": "lidar-tree:282188:4157102", "name": null, "kind": "tree", "species": null, "source": "lidar2025", "tree_height": 13.5, "crown_radius": 4.7, "height_source": "lidar2025" }, "geometry": { "type": "Point", "coordinates": [ 282187.5, 4157102.5 ] } },
{ "type": "Feature", "properties": { "id": "lidar-tree:282158:4157114", "name": null, "kind": "tree", "species": null, "source": "lidar2025", "tree_height": 9.5, "crown_radius": 5.4, "height_source": "lidar2025" }, "geometry": { "type": "Point", "coordinates": [ 282157.5, 4157114.5 ] } },
{ "type": "Feature", "properties": { "id": "lidar-tree:282180:4157130", "name": null, "kind": "tree", "species": null, "source": "lidar2025", "tree_height": 6.3, "crown_radius": 4.9, "height_source": "lidar2025" }, "geometry": { "type": "Point", "coordinates": [ 282180.5, 4157129.5 ] } },
{ "type": "Feature", "properties": { "id": "lidar-tree:282198:4157130", "name": null, "kind": "tree", "species": null, "source": "lidar2025", "tree_height": 12.7, "crown_radius": 5.0, "height_source": "lidar2025" }, "geometry": { "type": "Point", "coordinates": [ 282197.5, 4157130.5 ] } },
{ "type": "Feature", "properties": { "id": "lidar-tree:282206:4157132", "name": null, "kind": "tree", "species": null, "source": "lidar2025", "tree_height": 11.9, "crown_radius": 5.4, "height_source": "lidar2025" }, "geometry": { "type": "Point", "coordinates": [ 282205.5, 4157131.5 ] } },
{ "type": "Feature", "properties": { "id": "lidar-tree:282200:4157146", "name": null, "kind": "tree", "species": null, "source": "lidar2025", "tree_height": 5.5, "crown_radius": 2.0, "height_source": "lidar2025" }, "geometry": { "type": "Point", "coordinates": [ 282200.5, 4157145.5 ] } },
{ "type": "Feature", "properties": { "id": "lidar-tree:282246:4157168", "name": null, "kind": "tree", "species": null, "source": "lidar2025", "tree_height": 15.2, "crown_radius": 6.0, "height_source": "lidar2025" }, "geometry": { "type": "Point", "coordinates": [ 282246.5, 4157168.5 ] } },
{ "type": "Feature", "properties": { "id": "lidar-tree:282240:4157180", "name": null, "kind": "tree", "species": null, "source": "lidar2025", "tree_height": 12.4, "crown_radius": 5.6, "height_source": "lidar2025" }, "geometry": { "type": "Point", "coordinates": [ 282239.5, 4157180.5 ] } },
{ "type": "Feature", "properties": { "id": "lidar-tree:282226:4157180", "name": null, "kind": "tree", "species": null, "source": "lidar2025", "tree_height": 8.7, "crown_radius": 5.9, "height_source": "lidar2025" }, "geometry": { "type": "Point", "coordinates": [ 282225.5, 4157180.5 ] } },
{ "type": "Feature", "properties": { "id": "lidar-tree:282244:4157210", "name": null, "kind": "tree", "species": null, "source": "lidar2025", "tree_height": 13.7, "crown_radius": 5.9, "height_source": "lidar2025" }, "geometry": { "type": "Point", "coordinates": [ 282243.5, 4157210.5 ] } },
{ "type": "Feature", "properties": { "id": "lidar-tree:282216:4157228", "name": null, "kind": "tree", "species": null, "source": "lidar2025", "tree_height": 8.8, "crown_radius": 4.1, "height_source": "lidar2025" }, "geometry": { "type": "Point", "coordinates": [ 282216.5, 4157228.5 ] } },
{ "type": "Feature", "properties": { "id": "lidar-tree:282184:4157150", "name": null, "kind": "tree", "species": null, "source": "lidar2025", "tree_height": 12.1, "crown_radius": 5.6, "height_source": "lidar2025" }, "geometry": { "type": "Point", "coordinates": [ 282183.5, 4157149.5 ] } },
{ "type": "Feature", "properties": { "id": "lidar-tree:282158:4157158", "name": null, "kind": "tree", "species": null, "source": "lidar2025", "tree_height": 10.2, "crown_radius": 5.2, "height_source": "lidar2025" }, "geometry": { "type": "Point", "coordinates": [ 282157.5, 4157157.5 ] } },
{ "type": "Feature", "properties": { "id": "lidar-tree:282174:4157162", "name": null, "kind": "tree", "species": null, "source": "lidar2025", "tree_height": 11.2, "crown_radius": 3.6, "height_source": "lidar2025" }, "geometry": { "type": "Point", "coordinates": [ 282173.5, 4157161.5 ] } },
{ "type": "Feature", "properties": { "id": "lidar-tree:282214:4157172", "name": null, "kind": "tree", "species": null, "source": "lidar2025", "tree_height": 9.9, "crown_radius": 5.7, "height_source": "lidar2025" }, "geometry": { "type": "Point", "coordinates": [ 282213.5, 4157172.5 ] } },
{ "type": "Feature", "properties": { "id": "lidar-tree:282166:4157178", "name": null, "kind": "tree", "species": null, "source": "lidar2025", "tree_height": 10.6, "crown_radius": 4.7, "height_source": "lidar2025" }, "geometry": { "type": "Point", "coordinates": [ 282165.5, 4157177.5 ] } },
{ "type": "Feature", "properties": { "id": "lidar-tree:282198:4157218", "name": null, "kind": "tree", "species": null, "source": "lidar2025", "tree_height": 5.4, "crown_radius": 4.7, "height_source": "lidar2025" }, "geometry": { "type": "Point", "coordinates": [ 282198.5, 4157217.5 ] } },
{ "type": "Feature", "properties": { "id": "lidar-tree:282204:4157224", "name": null, "kind": "tree", "species": null, "source": "lidar2025", "tree_height": 6.0, "crown_radius": 4.5, "height_source": "lidar2025" }, "geometry": { "type": "Point", "coordinates": [ 282204.5, 4157223.5 ] } },
{ "type": "Feature", "properties": { "id": "lidar-tree:282206:4157248", "name": null, "kind": "tree", "species": null, "source": "lidar2025", "tree_height": 11.3, "crown_radius": 4.2, "height_source": "lidar2025" }, "geometry": { "type": "Point", "coordinates": [ 282205.5, 4157248.5 ] } },
{ "type": "Feature", "properties": { "id": "lidar-tree:282240:4157246", "name": null, "kind": "tree", "species": null, "source": "lidar2025", "tree_height": 5.1, "crown_radius": 3.0, "height_source": "lidar2025" }, "geometry": { "type": "Point", "coordinates": [ 282239.5, 4157245.5 ] } },
{ "type": "Feature", "properties": { "id": "lidar-tree:282100:4157062", "name": null, "kind": "tree", "species": null, "source": "lidar2025", "tree_height": 23.7, "crown_radius": 6.0, "height_source": "lidar2025" }, "geometry": { "type": "Point", "coordinates": [ 282099.5, 4157061.5 ] } },
{ "type": "Feature", "properties": { "id": "lidar-tree:282106:4157092", "name": null, "kind": "tree", "species": null, "source": "lidar2025", "tree_height": 8.3, "crown_radius": 2.6, "height_source": "lidar2025" }, "geometry": { "type": "Point", "coordinates": [ 282105.5, 4157091.5 ] } },
{ "type": "Feature", "properties": { "id": "lidar-tree:282120:4157098", "name": null, "kind": "tree", "species": null, "source": "lidar2025", "tree_height": 6.4, "crown_radius": 3.9, "height_source": "lidar2025" }, "geometry": { "type": "Point", "coordinates": [ 282119.5, 4157097.5 ] } },
{ "type": "Feature", "properties": { "id": "lidar-tree:282148:4157098", "name": null, "kind": "tree", "species": null, "source": "lidar2025", "tree_height": 6.9, "crown_radius": 4.7, "height_source": "lidar2025" }, "geometry": { "type": "Point", "coordinates": [ 282148.5, 4157098.5 ] } },
{ "type": "Feature", "properties": { "id": "lidar-tree:282112:4157114", "name": null, "kind": "tree", "species": null, "source": "lidar2025", "tree_height": 15.7, "crown_radius": 5.3, "height_source": "lidar2025" }, "geometry": { "type": "Point", "coordinates": [ 282112.5, 4157114.5 ] } },
{ "type": "Feature", "properties": { "id": "lidar-tree:282126:4157118", "name": null, "kind": "tree", "species": null, "source": "lidar2025", "tree_height": 17.5, "crown_radius": 6.0, "height_source": "lidar2025" }, "geometry": { "type": "Point", "coordinates": [ 282125.5, 4157117.5 ] } },
{ "type": "Feature", "properties": { "id": "lidar-tree:282128:4157156", "name": null, "kind": "tree", "species": null, "source": "lidar2025", "tree_height": 6.9, "crown_radius": 4.2, "height_source": "lidar2025" }, "geometry": { "type": "Point", "coordinates": [ 282127.5, 4157156.5 ] } },
{ "type": "Feature", "properties": { "id": "lidar-tree:282142:4157168", "name": null, "kind": "tree", "species": null, "source": "lidar2025", "tree_height": 6.5, "crown_radius": 2.4, "height_source": "lidar2025" }, "geometry": { "type": "Point", "coordinates": [ 282142.5, 4157168.5 ] } },
{ "type": "Feature", "properties": { "id": "lidar-tree:282110:4157168", "name": null, "kind": "tree", "species": null, "source": "lidar2025", "tree_height": 6.7, "crown_radius": 3.0, "height_source": "lidar2025" }, "geometry": { "type": "Point", "coordinates": [ 282110.5, 4157168.5 ] } },
{ "type": "Feature", "properties": { "id": "lidar-tree:282098:4157180", "name": null, "kind": "tree", "species": null, "source": "lidar2025", "tree_height": 5.1, "crown_radius": 1.8, "height_source": "lidar2025" }, "geometry": { "type": "Point", "coordinates": [ 282097.5, 4157179.5 ] } },
{ "type": "Feature", "properties": { "id": "lidar-tree:282050:4157118", "name": null, "kind": "tree", "species": null, "source": "lidar2025", "tree_height": 15.6, "crown_radius": 6.0, "height_source": "lidar2025" }, "geometry": { "type": "Point", "coordinates": [ 282049.5, 4157118.5 ] } },
{ "type": "Feature", "properties": { "id": "lidar-tree:282044:4157150", "name": null, "kind": "tree", "species": null, "source": "lidar2025", "tree_height": 14.8, "crown_radius": 6.0, "height_source": "lidar2025" }, "geometry": { "type": "Point", "coordinates": [ 282044.5, 4157149.5 ] } },
{ "type": "Feature", "properties": { "id": "lidar-tree:282082:4157176", "name": null, "kind": "tree", "species": null, "source": "lidar2025", "tree_height": 6.0, "crown_radius": 2.5, "height_source": "lidar2025" }, "geometry": { "type": "Point", "coordinates": [ 282082.5, 4157175.5 ] } },
{ "type": "Feature", "properties": { "id": "lidar-tree:282060:4157192", "name": null, "kind": "tree", "species": null, "source": "lidar2025", "tree_height": 13.4, "crown_radius": 6.0, "height_source": "lidar2025" }, "geometry": { "type": "Point", "coordinates": [ 282060.5, 4157191.5 ] } },
{ "type": "Feature", "properties": { "id": "lidar-tree:282052:4157216", "name": null, "kind": "tree", "species": null, "source": "lidar2025", "tree_height": 7.8, "crown_radius": 4.1, "height_source": "lidar2025" }, "geometry": { "type": "Point", "coordinates": [ 282052.5, 4157215.5 ] } },
{ "type": "Feature", "properties": { "id": "lidar-tree:282066:4157220", "name": null, "kind": "tree", "species": null, "source": "lidar2025", "tree_height": 13.0, "crown_radius": 5.7, "height_source": "lidar2025" }, "geometry": { "type": "Point", "coordinates": [ 282066.5, 4157220.5 ] } },
{ "type": "Feature", "properties": { "id": "lidar-tree:282076:4157226", "name": null, "kind": "tree", "species": null, "source": "lidar2025", "tree_height": 5.4, "crown_radius": 3.1, "height_source": "lidar2025" }, "geometry": { "type": "Point", "coordinates": [ 282075.5, 4157226.5 ] } },
{ "type": "Feature", "properties": { "id": "lidar-tree:282040:4157230", "name": null, "kind": "tree", "species": null, "source": "lidar2025", "tree_height": 12.3, "crown_radius": 5.1, "height_source": "lidar2025" }, "geometry": { "type": "Point", "coordinates": [ 282039.5, 4157230.5 ] } },
{ "type": "Feature", "properties": { "id": "lidar-tree:282076:4157234", "name": null, "kind": "tree", "species": null, "source": "lidar2025", "tree_height": 4.5, "crown_radius": 3.0, "height_source": "lidar2025" }, "geometry": { "type": "Point", "coordinates": [ 282076.5, 4157234.5 ] } },
{ "type": "Feature", "properties": { "id": "lidar-tree:282142:4157220", "name": null, "kind": "tree", "species": null, "source": "lidar2025", "tree_height": 5.7, "crown_radius": 2.5, "height_source": "lidar2025" }, "geometry": { "type": "Point", "coordinates": [ 282141.5, 4157220.5 ] } },
{ "type": "Feature", "properties": { "id": "lidar-tree:282120:4157224", "name": null, "kind": "tree", "species": null, "source": "lidar2025", "tree_height": 5.8, "crown_radius": 2.4, "height_source": "lidar2025" }, "geometry": { "type": "Point", "coordinates": [ 282120.5, 4157223.5 ] } },
{ "type": "Feature", "properties": { "id": "lidar-tree:282142:4157238", "name": null, "kind": "tree", "species": null, "source": "lidar2025", "tree_height": 7.7, "crown_radius": 2.5, "height_source": "lidar2025" }, "geometry": { "type": "Point", "coordinates": [ 282141.5, 4157238.5 ] } },
{ "type": "Feature", "properties": { "id": "lidar-tree:282148:4157244", "name": null, "kind": "tree", "species": null, "source": "lidar2025", "tree_height": 4.4, "crown_radius": 2.6, "height_source": "lidar2025" }, "geometry": { "type": "Point", "coordinates": [ 282147.5, 4157243.5 ] } },
{ "type": "Feature", "properties": { "id": "lidar-tree:282132:4157246", "name": null, "kind": "tree", "species": null, "source": "lidar2025", "tree_height": 5.0, "crown_radius": 2.3, "height_source": "lidar2025" }, "geometry": { "type": "Point", "coordinates": [ 282132.5, 4157246.5 ] } }
]
}
