{
"type": "FeatureCollection",
"name": "pois",
"crs": { "type": "name", "properties": { "name": "urn:ogc:def:crs:EPSG::32618" } },
"xy_coordinate_resolution": 0.01,
"features": [
{ "type": "Feature", "properties": { "id": "lidar-tree:281318:4156760", "name": null, "kind": "tree", "species": null, "source": "lidar2025", "tree_height": 16.5, "crown_radius": 6.0, "height_source": "lidar2025" }, "geometry": { "type": "Point", "coordinates": [ 281317.5, 4156759.5 ] } },
{ "type": "Feature", "properties": { "id": "rva-tree:10130", "name": "Lagerstroemia indica", "kind": "tree", "species": "Lagerstroemia indica", "source": "city_inventory", "tree_height": 8.0, "crown_radius": 2.5, "height_source": "estimated" }, "geometry": { "type": "Point", "coordinates": [ 281394.21, 4156750.81 ] } },
{ "type": "Feature", "properties": { "id": "rva-tree:10127", "name": "Prunus caroliniana", "kind": "tree", "species": "Prunus caroliniana", "source": "city_inventory", "tree_height": 9.7, "crown_radius": 6.0, "height_source": "lidar2025" }, "geometry": { "type": "Point", "coordinates": [ 281385.71, 4156750.96 ] } },
{ "type": "Feature", "properties": { "id": "rva-tree:10128", "name": "Prunus caroliniana", "kind": "tree", "species": "Prunus caroliniana", "source": "city_inventory", "tree_height": 9.7, "crown_radius": 6.0, "height_source": "lidar2025" }, "geometry": { "type": "Point", "coordinates": [ 281386.89, 4156751.03 ] } },
{ "type": "Feature", "properties": { "id": "rva-tree:10126", "name": "Prunus caroliniana", "kind": "tree", "species": "Prunus caroliniana", "source": "city_inventory", "tree_height": 9.7, "crown_radius": 6.0, "height_source": "lidar2025" }, "geometry": { "type": "Point", "coordinates": [ 281384.44, 4156751.12 ] } },
{ "type": "Feature", "properties": { "id": "rva-tree:10125", "name": "Prunus caroliniana", "kind": "tree", "species": "Prunus caroliniana", "source": "city_inventory", "tree_height": 9.7, "crown_radius": 6.0, "height_source": "lidar2025" }, "geometry": { "type": "Point", "coordinates": [ 281382.84, 4156751.18 ] } },
{ "type": "Feature", "properties": { "id": "rva-tree:10124", "name": "Prunus caroliniana", "kind": "tree", "species": "Prunus caroliniana", "source": "city_inventory", "tree_height": 9.7, "crown_radius": 6.0, "height_source": "lidar2025" }, "geometry": { "type": "Point", "coordinates": [ 281381.14, 4156751.45 ] } },
{ "type": "Feature", "properties": { "id": "rva-tree:10123", "name": "Prunus caroliniana", "kind": "tree", "species": "Prunus caroliniana", "source": "city_inventory", "tree_height": 9.7, "crown_radius": 6.0, "height_source": "lidar2025" }, "geometry": { "type": "Point", "coordinates": [ 281377.72, 4156751.47 ] } },
{ "type": "Feature", "properties": { "id": "rva-tree:10133", "name": "Lagerstroemia indica", "kind": "tree", "species": "Lagerstroemia indica", "source": "city_inventory", "tree_height": 5.7, "crown_radius": 3.3, "height_source": "lidar2025" }, "geometry": { "type": "Point", "coordinates": [ 281402.21, 4156750.51 ] } },
{ "type": "Feature", "properties": { "id": "rva-tree:10132", "name": "Lagerstroemia indica", "kind": "tree", "species": "Lagerstroemia indica", "source": "city_inventory", "tree_height": 8.0, "crown_radius": 2.5, "height_source": "estimated" }, "geometry": { "type": "Point", "coordinates": [ 281399.12, 4156750.73 ] } },
{ "type": "Feature", "properties": { "id": "rva-tree:10131", "name": "Lagerstroemia indica", "kind": "tree", "species": "Lagerstroemia indica", "source": "city_inventory", "tree_height": 8.0, "crown_radius": 2.5, "height_source": "estimated" }, "geometry": { "type": "Point", "coordinates": [ 281396.45, 4156750.83 ] } },
{ "type": "Feature", "properties": { "id": "rva-tree:9985", "name": "Acer rubrum", "kind": "tree", "species": "Acer rubrum", "source": "city_inventory", "tree_height": 22.2, "crown_radius": 6.0, "height_source": "lidar2025" }, "geometry": { "type": "Point", "coordinates": [ 281442.81, 4156760.87 ] } },
{ "type": "Feature", "properties": { "id": "rva-tree:9986", "name": "Acer rubrum", "kind": "tree", "species": "Acer rubrum", "source": "city_inventory", "tree_height": 8.0, "crown_radius": 2.5, "height_source": "estimated" }, "geometry": { "type": "Point", "coordinates": [ 281431.66, 4156761.43 ] } },
{ "type": "Feature", "properties": { "id": "rva-tree:10114", "name": "Acer rubrum", "kind": "tree", "species": "Acer rubrum", "source": "city_inventory", "tree_height": 17.5, "crown_radius": 6.0, "height_source": "lidar2025" }, "geometry": { "type": "Point", "coordinates": [ 281415.02, 4156777.38 ] } },
{ "type": "Feature", "properties": { "id": "rva-tree:9993", "name": "Acer rubrum", "kind": "tree", "species": "Acer rubrum", "source": "city_inventory", "tree_height": 18.9, "crown_radius": 6.0, "height_source": "lidar2025" }, "geometry": { "type": "Point", "coordinates": [ 281427.49, 4156782.58 ] } },
{ "type": "Feature", "properties": { "id": "lidar-tree:281478:4156760", "name": null, "kind": "tree", "species": null, "source": "lidar2025", "tree_height": 16.3, "crown_radius": 6.0, "height_source": "lidar2025" }, "geometry": { "type": "Point", "coordinates": [ 281477.5, 4156759.5 ] } },
{ "type": "Feature", "properties": { "id": "rva-tree:9984", "name": "Acer rubrum", "kind": "tree", "species": "Acer rubrum", "source": "city_inventory", "tree_height": 8.0, "crown_radius": 2.5, "height_source": "estimated" }, "geometry": { "type": "Point", "coordinates": [ 281454.27, 4156760.73 ] } },
{ "type": "Feature", "properties": { "id": "lidar-tree:281474:4156786", "name": null, "kind": "tree", "species": null, "source": "lidar2025", "tree_height": 14.2, "crown_radius": 5.6, "height_source": "lidar2025" }, "geometry": { "type": "Point", "coordinates": [ 281473.5, 4156786.5 ] } },
{ "type": "Feature", "properties": { "id": "lidar-tree:281490:4156788", "name": null, "kind": "tree", "species": null, "source": "lidar2025", "tree_height": 9.5, "crown_radius": 5.4, "height_source": "lidar2025" }, "geometry": { "type": "Point", "coordinates": [ 281489.5, 4156787.5 ] } },
{ "type": "Feature", "properties": { "id": "lidar-tree:281484:4156796", "name": null, "kind": "tree", "species": null, "source": "lidar2025", "tree_height": 6.9, "crown_radius": 5.4, "height_source": "lidar2025" }, "geometry": { "type": "Point", "coordinates": [ 281484.5, 4156796.5 ] } },
{ "type": "Feature", "properties": { "id": "lidar-tree:281468:4156806", "name": null, "kind": "tree", "species": null, "source": "lidar2025", "tree_height": 23.4, "crown_radius": 6.0, "height_source": "lidar2025" }, "geometry": { "type": "Point", "coordinates": [ 281467.5, 4156805.5 ] } },
{ "type": "Feature", "properties": { "id": "lidar-tree:281494:4156818", "name": null, "kind": "tree", "species": null, "source": "lidar2025", "tree_height": 7.5, "crown_radius": 4.3, "height_source": "lidar2025" }, "geometry": { "type": "Point", "coordinates": [ 281493.5, 4156817.5 ] } },
{ "type": "Feature", "properties": { "id": "lidar-tree:281294:4156764", "name": null, "kind": "tree", "species": null, "source": "lidar2025", "tree_height": 26.2, "crown_radius": 6.0, "height_source": "lidar2025" }, "geometry": { "type": "Point", "coordinates": [ 281293.5, 4156764.5 ] } },
{ "type": "Feature", "properties": { "id": "lidar-tree:281300:4156770", "name": null, "kind": "tree", "species": null, "source": "lidar2025", "tree_height": 26.0, "crown_radius": 6.0, "height_source": "lidar2025" }, "geometry": { "type": "Point", "coordinates": [ 281299.5, 4156770.5 ] } },
{ "type": "Feature", "properties": { "id": "lidar-tree:281336:4156772", "name": null, "kind": "tree", "species": null, "source": "lidar2025", "tree_height": 5.7, "crown_radius": 3.1, "height_source": "lidar2025" }, "geometry": { "type": "Point", "coordinates": [ 281335.5, 4156771.5 ] } },
{ "type": "Feature", "properties": { "id": "lidar-tree:281320:4156776", "name": null, "kind": "tree", "species": null, "source": "lidar2025", "tree_height": 20.8, "crown_radius": 6.0, "height_source": "lidar2025" }, "geometry": { "type": "Point", "coordinates": [ 281320.5, 4156775.5 ] } },
{ "type": "Feature", "properties": { "id": "lidar-tree:281306:4156776", "name": null, "kind": "tree", "species": null, "source": "lidar2025", "tree_height": 21.1, "crown_radius": 6.0, "height_source": "lidar2025" }, "geometry": { "type": "Point", "coordinates": [ 281306.5, 4156775.5 ] } },
{ "type": "Feature", "properties": { "id": "lidar-tree:281298:4156780", "name": null, "kind": "tree", "species": null, "source": "lidar2025", "tree_height": 28.2, "crown_radius": 6.0, "height_source": "lidar2025" }, "geometry": { "type": "Point", "coordinates": [ 281297.5, 4156780.5 ] } },
{ "type": "Feature", "properties": { "id": "lidar-tree:281296:4156808", "name": null, "kind": "tree", "species": null, "source": "lidar2025", "tree_height": 40.3, "crown_radius": 6.0, "height_source": "lidar2025" }, "geometry": { "type": "Point", "coordinates": [ 281295.5, 4156807.5 ] } },
{ "type": "Feature", "properties": { "id": "lidar-tree:281312:4156808", "name": null, "kind": "tree", "species": null, "source": "lidar2025", "tree_height": 35.3, "crown_radius": 6.0, "height_source": "lidar2025" }, "geometry": { "type": "Point", "coordinates": [ 281312.5, 4156808.5 ] } },
{ "type": "Feature", "properties": { "id": "lidar-tree:281292:4156816", "name": null, "kind": "tree", "species": null, "source": "lidar2025", "tree_height": 44.5, "crown_radius": 6.0, "height_source": "lidar2025" }, "geometry": { "type": "Point", "coordinates": [ 281291.5, 4156816.5 ] } },
{ "type": "Feature", "properties": { "id": "lidar-tree:281320:4156826", "name": null, "kind": "tree", "species": null, "source": "lidar2025", "tree_height": 37.2, "crown_radius": 6.0, "height_source": "lidar2025" }, "geometry": { "type": "Point", "coordinates": [ 281320.5, 4156825.5 ] } },
{ "type": "Feature", "properties": { "id": "rva-tree:10113", "name": "Acer rubrum", "kind": "tree", "species": "Acer rubrum", "source": "city_inventory", "tree_height": 18.6, "crown_radius": 6.0, "height_source": "lidar2025" }, "geometry": { "type": "Point", "coordinates": [ 281417.49, 4156789.91 ] } },
{ "type": "Feature", "properties": { "id": "lidar-tree:281440:4156790", "name": null, "kind": "tree", "species": null, "source": "lidar2025", "tree_height": 9.9, "crown_radius": 6.0, "height_source": "lidar2025" }, "geometry": { "type": "Point", "coordinates": [ 281440.5, 4156790.5 ] } },
{ "type": "Feature", "properties": { "id": "rva-tree:9994", "name": "Acer rubrum", "kind": "tree", "species": "Acer rubrum", "source": "city_inventory", "tree_height": 15.7, "crown_radius": 6.0, "height_source": "lidar2025" }, "geometry": { "type": "Point", "coordinates": [ 281431.03, 4156795.37 ] } },
{ "type": "Feature", "properties": { "id": "lidar-tree:281412:4156802", "name": null, "kind": "tree", "species": null, "source": "lidar2025", "tree_height": 19.9, "crown_radius": 5.7, "height_source": "lidar2025" }, "geometry": { "type": "Point", "coordinates": [ 281412.5, 4156802.5 ] } },
{ "type": "Feature", "properties": { "id": "rva-tree:10112", "name": "Acer rubrum", "kind": "tree", "species": "Acer rubrum", "source": "city_inventory", "tree_height": 12.8, "crown_radius": 5.6, "height_source": "lidar2025" }, "geometry": { "type": "Point", "coordinates": [ 281419.99, 4156803.04 ] } },
{ "type": "Feature", "properties": { "id": "rva-tree:9995", "name": "Acer saccharum", "kind": "tree", "species": "Acer saccharum", "source": "city_inventory", "tree_height": 14.8, "crown_radius": 6.0, "height_source": "lidar2025" }, "geometry": { "type": "Point", "coordinates": [ 281434.01, 4156806.99 ] } },
{ "type": "Feature", "properties": { "id": "lidar-tree:281404:4156810", "name": null, "kind": "tree", "species": null, "source": "lidar2025", "tree_height": 4.9, "crown_radius": 3.0, "height_source": "lidar2025" }, "geometry": { "type": "Point", "coordinates": [ 281403.5, 4156809.5 ] } },
{ "type": "Feature", "properties": { "id": "lidar-tree:281444:4156816", "name": null, "kind": "tree", "species": null, "source": "lidar2025", "tree_height": 25.9, "crown_radius": 6.0, "height_source": "lidar2025" }, "geometry": { "type": "Point", "coordinates": [ 281443.5, 4156816.5 ] } },
{ "type": "Feature", "properties": { "id": "lidar-tree:281446:4156826", "name": null, "kind": "tree", "species": null, "source": "lidar2025", "tree_height": 23.7, "crown_radius": 6.0, "height_source": "lidar2025" }, "geometry": { "type": "Point", "coordinates": [ 281445.5, 4156826.5 ] } },
{ "type": "Feature", "properties": { "id": "rva-tree:10110", "name": "Acer rubrum", "kind": "tree", "species": "Acer rubrum", "source": "city_inventory", "tree_height": 16.7, "crown_radius": 5.6, "height_source": "lidar2025" }, "geometry": { "type": "Point", "coordinates": [ 281427.2, 4156828.84 ] } },
{ "type": "Feature", "properties": { "id": "lidar-tree:281374:4156766", "name": null, "kind": "tree", "species": null, "source": "lidar2025", "tree_height": 25.2, "crown_radius": 6.0, "height_source": "lidar2025" }, "geometry": { "type": "Point", "coordinates": [ 281374.5, 4156765.5 ] } },
{ "type": "Feature", "properties": { "id": "lidar-tree:281368:4156794", "name": null, "kind": "tree", "species": null, "source": "lidar2025", "tree_height": 29.2, "crown_radius": 6.0, "height_source": "lidar2025" }, "geometry": { "type": "Point", "coordinates": [ 281367.5, 4156793.5 ] } },
{ "type": "Feature", "properties": { "id": "lidar-tree:281342:4156794", "name": null, "kind": "tree", "species": null, "source": "lidar2025", "tree_height": 20.4, "crown_radius": 5.5, "height_source": "lidar2025" }, "geometry": { "type": "Point", "coordinates": [ 281341.5, 4156794.5 ] } },
{ "type": "Feature", "properties": { "id": "lidar-tree:281368:4156816", "name": null, "kind": "tree", "species": null, "source": "lidar2025", "tree_height": 19.2, "crown_radius": 6.0, "height_source": "lidar2025" }, "geometry": { "type": "Point", "coordinates": [ 281367.5, 4156815.5 ] } },
{ "type": "Feature", "properties": { "id": "lidar-tree:281354:4156822", "name": null, "kind": "tree", "species": null, "source": "lidar2025", "tree_height": 15.9, "crown_radius": 6.0, "height_source": "lidar2025" }, "geometry": { "type": "Point", "coordinates": [ 281353.5, 4156822.5 ] } },
{ "type": "Feature", "properties": { "id": "lidar-tree:281384:4156828", "name": null, "kind": "tree", "species": null, "source": "lidar2025", "tree_height": 26.9, "crown_radius": 6.0, "height_source": "lidar2025" }, "geometry": { "type": "Point", "coordinates": [ 281383.5, 4156828.5 ] } },
{ "type": "Feature", "properties": { "id": "lidar-tree:281346:4156830", "name": null, "kind": "tree", "species": null, "source": "lidar2025", "tree_height": 23.4, "crown_radius": 6.0, "height_source": "lidar2025" }, "geometry": { "type": "Point", "coordinates": [ 281345.5, 4156829.5 ] } },
{ "type": "Feature", "properties": { "id": "lidar-tree:281370:4156850", "name": null, "kind": "tree", "species": null, "source": "lidar2025", "tree_height": 17.9, "crown_radius": 4.9, "height_source": "lidar2025" }, "geometry": { "type": "Point", "coordinates": [ 281369.5, 4156850.5 ] } },
{ "type": "Feature", "properties": { "id": "lidar-tree:281396:4156854", "name": null, "kind": "tree", "species": null, "source": "lidar2025", "tree_height": 5.3, "crown_radius": 3.4, "height_source": "lidar2025" }, "geometry": { "type": "Point", "coordinates": [ 281395.5, 4156853.5 ] } },
{ "type": "Feature", "properties": { "id": "lidar-tree:281358:4156856", "name": null, "kind": "tree", "species": null, "source": "lidar2025", "tree_height": 8.2, "crown_radius": 4.4, "height_source": "lidar2025" }, "geometry": { "type": "Point", "coordinates": [ 281358.5, 4156855.5 ] } },
{ "type": "Feature", "properties": { "id": "lidar-tree:281266:4156814", "name": null, "kind": "tree", "species": null, "source": "lidar2025", "tree_height": 34.1, "crown_radius": 6.0, "height_source": "lidar2025" }, "geometry": { "type": "Point", "coordinates": [ 281266.5, 4156813.5 ] } },
{ "type": "Feature", "properties": { "id": "lidar-tree:281254:4156824", "name": null, "kind": "tree", "species": null, "source": "lidar2025", "tree_height": 24.9, "crown_radius": 6.0, "height_source": "lidar2025" }, "geometry": { "type": "Point", "coordinates": [ 281254.5, 4156823.5 ] } },
{ "type": "Feature", "properties": { "id": "lidar-tree:281270:4156824", "name": null, "kind": "tree", "species": null, "source": "lidar2025", "tree_height": 30.7, "crown_radius": 6.0, "height_source": "lidar2025" }, "geometry": { "type": "Point", "coordinates": [ 281269.5, 4156824.5 ] } },
{ "type": "Feature", "properties": { "id": "lidar-tree:281254:4156844", "name": null, "kind": "tree", "species": null, "source": "lidar2025", "tree_height": 22.8, "crown_radius": 6.0, "height_source": "lidar2025" }, "geometry": { "type": "Point", "coordinates": [ 281254.5, 4156844.5 ] } },
{ "type": "Feature", "properties": { "id": "lidar-tree:281262:4156848", "name": null, "kind": "tree", "species": null, "source": "lidar2025", "tree_height": 23.1, "crown_radius": 6.0, "height_source": "lidar2025" }, "geometry": { "type": "Point", "coordinates": [ 281262.5, 4156848.5 ] } },
{ "type": "Feature", "properties": { "id": "lidar-tree:281286:4156850", "name": null, "kind": "tree", "species": null, "source": "lidar2025", "tree_height": 28.3, "crown_radius": 6.0, "height_source": "lidar2025" }, "geometry": { "type": "Point", "coordinates": [ 281285.5, 4156850.5 ] } },
{ "type": "Feature", "properties": { "id": "lidar-tree:281262:4156864", "name": null, "kind": "tree", "species": null, "source": "lidar2025", "tree_height": 30.6, "crown_radius": 6.0, "height_source": "lidar2025" }, "geometry": { "type": "Point", "coordinates": [ 281262.5, 4156864.5 ] } },
{ "type": "Feature", "properties": { "id": "lidar-tree:281306:4156834", "name": null, "kind": "tree", "species": null, "source": "lidar2025", "tree_height": 29.4, "crown_radius": 6.0, "height_source": "lidar2025" }, "geometry": { "type": "Point", "coordinates": [ 281305.5, 4156833.5 ] } },
{ "type": "Feature", "properties": { "id": "lidar-tree:281286:4156836", "name": null, "kind": "tree", "species": null, "source": "lidar2025", "tree_height": 30.7, "crown_radius": 6.0, "height_source": "lidar2025" }, "geometry": { "type": "Point", "coordinates": [ 281286.5, 4156835.5 ] } },
{ "type": "Feature", "properties": { "id": "lidar-tree:281326:4156840", "name": null, "kind": "tree", "species": null, "source": "lidar2025", "tree_height": 26.5, "crown_radius": 6.0, "height_source": "lidar2025" }, "geometry": { "type": "Point", "coordinates": [ 281325.5, 4156839.5 ] } },
{ "type": "Feature", "properties": { "id": "lidar-tree:281312:4156842", "name": null, "kind": "tree", "species": null, "source": "lidar2025", "tree_height": 27.3, "crown_radius": 6.0, "height_source": "lidar2025" }, "geometry": { "type": "Point", "coordinates": [ 281312.5, 4156841.5 ] } },
{ "type": "Feature", "properties": { "id": "lidar-tree:281328:4156850", "name": null, "kind": "tree", "species": null, "source": "lidar2025", "tree_height": 23.2, "crown_radius": 6.0, "height_source": "lidar2025" }, "geometry": { "type": "Point", "coordinates": [ 281327.5, 4156849.5 ] } },
{ "type": "Feature", "properties": { "id": "lidar-tree:281308:4156854", "name": null, "kind": "tree", "species": null, "source": "lidar2025", "tree_height": 24.8, "crown_radius": 6.0, "height_source": "lidar2025" }, "geometry": { "type": "Point", "coordinates": [ 281308.5, 4156853.5 ] } },
{ "type": "Feature", "properties": { "id": "lidar-tree:281292:4156856", "name": null, "kind": "tree", "species": null, "source": "lidar2025", "tree_height": 29.7, "crown_radius": 6.0, "height_source": "lidar2025" }, "geometry": { "type": "Point", "coordinates": [ 281292.5, 4156855.5 ] } },
{ "type": "Feature", "properties": { "id": "lidar-tree:281314:4156860", "name": null, "kind": "tree", "species": null, "source": "lidar2025", "tree_height": 23.1, "crown_radius": 6.0, "height_source": "lidar2025" }, "geometry": { "type": "Point", "coordinates": [ 281314.5, 4156860.5 ] } },
{ "type": "Feature", "properties": { "id": "lidar-tree:281302:4156866", "name": null, "kind": "tree", "species": null, "source": "lidar2025", "tree_height": 29.2, "crown_radius": 6.0, "height_source": "lidar2025" }, "geometry": { "type": "Point", "coordinates": [ 281302.5, 4156865.5 ] } },
{ "type": "Feature", "properties": { "id": "lidar-tree:281290:4156870", "name": null, "kind": "tree", "species": null, "source": "lidar2025", "tree_height": 37.8, "crown_radius": 6.0, "height_source": "lidar2025" }, "geometry": { "type": "Point", "coordinates": [ 281290.5, 4156870.5 ] } },
{ "type": "Feature", "properties": { "id": "rva-tree:9998", "name": "Acer rubrum", "kind": "tree", "species": "Acer rubrum", "source": "city_inventory", "tree_height": 8.7, "crown_radius": 3.2, "height_source": "lidar2025" }, "geometry": { "type": "Point", "coordinates": [ 281442.56, 4156844.91 ] } },
{ "type": "Feature", "properties": { "id": "lidar-tree:281414:4156850", "name": null, "kind": "tree", "species": null, "source": "lidar2025", "tree_height": 5.0, "crown_radius": 3.4, "height_source": "lidar2025" }, "geometry": { "type": "Point", "coordinates": [ 281414.5, 4156849.5 ] } },
{ "type": "Feature", "properties": { "id": "lidar-tree:281408:4156856", "name": null, "kind": "tree", "species": null, "source": "lidar2025", "tree_height": 9.6, "crown_radius": 4.3, "height_source": "lidar2025" }, "geometry": { "type": "Point", "coordinates": [ 281407.5, 4156855.5 ] } },
{ "type": "Feature", "properties": { "id": "lidar-tree:281430:4156864", "name": null, "kind": "tree", "species": null, "source": "lidar2025", "tree_height": 27.8, "crown_radius": 6.0, "height_source": "lidar2025" }, "geometry": { "type": "Point", "coordinates": [ 281429.5, 4156864.5 ] } },
{ "type": "Feature", "properties": { "id": "rva-tree:10106", "name": "Zelkova serrata", "kind": "tree", "species": "Zelkova serrata", "source": "city_inventory", "tree_height": 8.0, "crown_radius": 2.5, "height_source": "estimated" }, "geometry": { "type": "Point", "coordinates": [ 281423.06, 4156873.01 ] } },
{ "type": "Feature", "properties": { "id": "rva-tree:10105", "name": "Zelkova serrata", "kind": "tree", "species": "Zelkova serrata", "source": "city_inventory", "tree_height": 12.6, "crown_radius": 5.5, "height_source": "lidar2025" }, "geometry": { "type": "Point", "coordinates": [ 281406.46, 4156873.86 ] } },
{ "type": "Feature", "properties": { "id": "rva-tree:10101", "name": "Pinus strobus", "kind": "tree", "species": "Pinus strobus", "source": "city_inventory", "tree_height": 8.0, "crown_radius": 2.5, "height_source": "estimated" }, "geometry": { "type": "Point", "coordinates": [ 281432.82, 4156884.8 ] } },
{ "type": "Feature", "properties": { "id": "lidar-tree:281420:4156886", "name": null, "kind": "tree", "species": null, "source": "lidar2025", "tree_height": 6.3, "crown_radius": 3.5, "height_source": "lidar2025" }, "geometry": { "type": "Point", "coordinates": [ 281420.5, 4156886.5 ] } },
{ "type": "Feature", "properties": { "id": "rva-tree:10100", "name": "Acer palmatum", "kind": "tree", "species": "Acer palmatum", "source": "city_inventory", "tree_height": 8.0, "crown_radius": 2.5, "height_source": "estimated" }, "geometry": { "type": "Point", "coordinates": [ 281438.8, 4156886.94 ] } },
{ "type": "Feature", "properties": { "id": "lidar-tree:281422:4156906", "name": null, "kind": "tree", "species": null, "source": "lidar2025", "tree_height": 14.5, "crown_radius": 4.3, "height_source": "lidar2025" }, "geometry": { "type": "Point", "coordinates": [ 281421.5, 4156905.5 ] } },
{ "type": "Feature", "properties": { "id": "lidar-tree:281314:4156872", "name": null, "kind": "tree", "species": null, "source": "lidar2025", "tree_height": 23.1, "crown_radius": 6.0, "height_source": "lidar2025" }, "geometry": { "type": "Point", "coordinates": [ 281313.5, 4156871.5 ] } },
{ "type": "Feature", "properties": { "id": "lidar-tree:281302:4156874", "name": null, "kind": "tree", "species": null, "source": "lidar2025", "tree_height": 28.9, "crown_radius": 6.0, "height_source": "lidar2025" }, "geometry": { "type": "Point", "coordinates": [ 281302.5, 4156874.5 ] } },
{ "type": "Feature", "properties": { "id": "lidar-tree:281330:4156876", "name": null, "kind": "tree", "species": null, "source": "lidar2025", "tree_height": 17.5, "crown_radius": 6.0, "height_source": "lidar2025" }, "geometry": { "type": "Point", "coordinates": [ 281329.5, 4156876.5 ] } },
{ "type": "Feature", "properties": { "id": "lidar-tree:281340:4156880", "name": null, "kind": "tree", "species": null, "source": "lidar2025", "tree_height": 14.1, "crown_radius": 5.8, "height_source": "lidar2025" }, "geometry": { "type": "Point", "coordinates": [ 281340.5, 4156879.5 ] } },
{ "type": "Feature", "properties": { "id": "lidar-tree:281310:4156880", "name": null, "kind": "tree", "species": null, "source": "lidar2025", "tree_height": 27.9, "crown_radius": 6.0, "height_source": "lidar2025" }, "geometry": { "type": "Point", "coordinates": [ 281309.5, 4156879.5 ] } },
{ "type": "Feature", "properties": { "id": "lidar-tree:281290:4156888", "name": null, "kind": "tree", "species": null, "source": "lidar2025", "tree_height": 20.4, "crown_radius": 6.0, "height_source": "lidar2025" }, "geometry": { "type": "Point", "coordinates": [ 281289.5, 4156887.5 ] } },
{ "type": "Feature", "properties": { "id": "lidar-tree:281316:4156890", "name": null, "kind": "tree", "species": null, "source": "lidar2025", "tree_height": 23.6, "crown_radius": 6.0, "height_source": "lidar2025" }, "geometry": { "type": "Point", "coordinates": [ 281316.5, 4156890.5 ] } },
{ "type": "Feature", "properties": { "id": "lidar-tree:281326:4156898", "name": null, "kind": "tree", "species": null, "source": "lidar2025", "tree_height": 25.2, "crown_radius": 6.0, "height_source": "lidar2025" }, "geometry": { "type": "Point", "coordinates": [ 281326.5, 4156897.5 ] } },
{ "type": "Feature", "properties": { "id": "lidar-tree:281330:4156910", "name": null, "kind": "tree", "species": null, "source": "lidar2025", "tree_height": 27.0, "crown_radius": 6.0, "height_source": "lidar2025" }, "geometry": { "type": "Point", "coordinates": [ 281330.5, 4156909.5 ] } },
{ "type": "Feature", "properties": { "id": "lidar-tree:281338:4156920", "name": null, "kind": "tree", "species": null, "source": "lidar2025", "tree_height": 17.6, "crown_radius": 6.0, "height_source": "lidar2025" }, "geometry": { "type": "Point", "coordinates": [ 281337.5, 4156920.5 ] } },
{ "type": "Feature", "properties": { "id": "lidar-tree:281376:4156868", "name": null, "kind": "tree", "species": null, "source": "lidar2025", "tree_height": 27.3, "crown_radius": 6.0, "height_source": "lidar2025" }, "geometry": { "type": "Point", "coordinates": [ 281376.5, 4156867.5 ] } },
{ "type": "Feature", "properties": { "id": "rva-tree:10104", "name": "Zelkova serrata", "kind": "tree", "species": "Zelkova serrata", "source": "city_inventory", "tree_height": 10.9, "crown_radius": 5.5, "height_source": "lidar2025" }, "geometry": { "type": "Point", "coordinates": [ 281386.08, 4156874.86 ] } },
{ "type": "Feature", "properties": { "id": "rva-tree:10103", "name": "Zelkova serrata", "kind": "tree", "species": "Zelkova serrata", "source": "city_inventory", "tree_height": 8.0, "crown_radius": 2.5, "height_source": "estimated" }, "geometry": { "type": "Point", "coordinates": [ 281371.79, 4156887.3 ] } },
{ "type": "Feature", "properties": { "id": "lidar-tree:281348:4156894", "name": null, "kind": "tree", "species": null, "source": "lidar2025", "tree_height": 14.7, "crown_radius": 5.3, "height_source": "lidar2025" }, "geometry": { "type": "Point", "coordinates": [ 281348.5, 4156894.5 ] } },
{ "type": "Feature", "properties": { "id": "osm:node/4265414639", "name": null, "kind": "tree", "species": null, "source": null, "tree_height": null, "crown_radius": null, "height_source": null }, "geometry": { "type": "Point", "coordinates": [ 281357.03, 4156925.86 ] } },
{ "type": "Feature", "properties": { "id": "rva-tree:10153", "name": "Ilex opaca", "kind": "tree", "species": "Ilex opaca", "source": "city_inventory", "tree_height": 8.0, "crown_radius": 2.5, "height_source": "estimated" }, "geometry": { "type": "Point", "coordinates": [ 281370.21, 4156927.42 ] } },
{ "type": "Feature", "properties": { "id": "lidar-tree:281378:4156930", "name": null, "kind": "tree", "species": null, "source": "lidar2025", "tree_height": 7.2, "crown_radius": 5.3, "height_source": "lidar2025" }, "geometry": { "type": "Point", "coordinates": [ 281378.5, 4156930.5 ] } },
{ "type": "Feature", "properties": { "id": "lidar-tree:281360:4156932", "name": null, "kind": "tree", "species": null, "source": "lidar2025", "tree_height": 22.6, "crown_radius": 6.0, "height_source": "lidar2025" }, "geometry": { "type": "Point", "coordinates": [ 281360.5, 4156931.5 ] } },
{ "type": "Feature", "properties": { "id": "lidar-tree:281352:4156932", "name": null, "kind": "tree", "species": null, "source": "lidar2025", "tree_height": 25.0, "crown_radius": 6.0, "height_source": "lidar2025" }, "geometry": { "type": "Point", "coordinates": [ 281351.5, 4156932.5 ] } },
{ "type": "Feature", "properties": { "id": "rva-tree:10154", "name": "Cornus florida", "kind": "tree", "species": "Cornus florida", "source": "city_inventory", "tree_height": 7.3, "crown_radius": 5.8, "height_source": "lidar2025" }, "geometry": { "type": "Point", "coordinates": [ 281372.84, 4156938.01 ] } },
{ "type": "Feature", "properties": { "id": "lidar-tree:281252:4156876", "name": null, "kind": "tree", "species": null, "source": "lidar2025", "tree_height": 26.8, "crown_radius": 6.0, "height_source": "lidar2025" }, "geometry": { "type": "Point", "coordinates": [ 281251.5, 4156875.5 ] } },
{ "type": "Feature", "properties": { "id": "lidar-tree:281258:4156884", "name": null, "kind": "tree", "species": null, "source": "lidar2025", "tree_height": 22.8, "crown_radius": 6.0, "height_source": "lidar2025" }, "geometry": { "type": "Point", "coordinates": [ 281258.5, 4156884.5 ] } },
{ "type": "Feature", "properties": { "id": "lidar-tree:281268:4156916", "name": null, "kind": "tree", "species": null, "source": "lidar2025", "tree_height": 21.5, "crown_radius": 6.0, "height_source": "lidar2025" }, "geometry": { "type": "Point", "coordinates": [ 281268.5, 4156915.5 ] } },
{ "type": "Feature", "properties": { "id": "lidar-tree:281260:4156920", "name": null, "kind": "tree", "species": null, "source": "lidar2025", "tree_height": 21.1, "crown_radius": 6.0, "height_source": "lidar2025" }, "geometry": { "type": "Point", "coordinates": [ 281260.5, 4156919.5 ] } },
{ "type": "Feature", "properties": { "id": "lidar-tree:281272:4156926", "name": null, "kind": "tree", "species": null, "source": "lidar2025", "tree_height": 21.8, "crown_radius": 6.0, "height_source": "lidar2025" }, "geometry": { "type": "Point", "coordinates": [ 281272.5, 4156926.5 ] } },
{ "type": "Feature", "properties": { "id": "lidar-tree:281284:4156932", "name": null, "kind": "tree", "species": null, "source": "lidar2025", "tree_height": 13.2, "crown_radius": 4.0, "height_source": "lidar2025" }, "geometry": { "type": "Point", "coordinates": [ 281284.5, 4156932.5 ] } },
{ "type": "Feature", "properties": { "id": "lidar-tree:281272:4156938", "name": null, "kind": "tree", "species": null, "source": "lidar2025", "tree_height": 15.1, "crown_radius": 5.7, "height_source": "lidar2025" }, "geometry": { "type": "Point", "coordinates": [ 281271.5, 4156937.5 ] } },
{ "type": "Feature", "properties": { "id": "lidar-tree:281410:4156914", "name": null, "kind": "tree", "species": null, "source": "lidar2025", "tree_height": 5.2, "crown_radius": 2.6, "height_source": "lidar2025" }, "geometry": { "type": "Point", "coordinates": [ 281410.5, 4156913.5 ] } },
{ "type": "Feature", "properties": { "id": "lidar-tree:281406:4156926", "name": null, "kind": "tree", "species": null, "source": "lidar2025", "tree_height": 7.3, "crown_radius": 3.8, "height_source": "lidar2025" }, "geometry": { "type": "Point", "coordinates": [ 281405.5, 4156926.5 ] } },
{ "type": "Feature", "properties": { "id": "lidar-tree:281420:4156930", "name": null, "kind": "tree", "species": null, "source": "lidar2025", "tree_height": 17.7, "crown_radius": 6.0, "height_source": "lidar2025" }, "geometry": { "type": "Point", "coordinates": [ 281419.5, 4156930.5 ] } },
{ "type": "Feature", "properties": { "id": "lidar-tree:281438:4156932", "name": null, "kind": "tree", "species": null, "source": "lidar2025", "tree_height": 9.4, "crown_radius": 4.3, "height_source": "lidar2025" }, "geometry": { "type": "Point", "coordinates": [ 281438.5, 4156931.5 ] } },
{ "type": "Feature", "properties": { "id": "lidar-tree:281448:4156932", "name": null, "kind": "tree", "species": null, "source": "lidar2025", "tree_height": 5.9, "crown_radius": 4.4, "height_source": "lidar2025" }, "geometry": { "type": "Point", "coordinates": [ 281447.5, 4156931.5 ] } },
{ "type": "Feature", "properties": { "id": "lidar-tree:281448:4156942", "name": null, "kind": "tree", "species": null, "source": "lidar2025", "tree_height": 17.1, "crown_radius": 5.6, "height_source": "lidar2025" }, "geometry": { "type": "Point", "coordinates": [ 281448.5, 4156941.5 ] } },
{ "type": "Feature", "properties": { "id": "lidar-tree:281424:4156942", "name": null, "kind": "tree", "species": null, "source": "lidar2025", "tree_height": 21.2, "crown_radius": 6.0, "height_source": "lidar2025" }, "geometry": { "type": "Point", "coordinates": [ 281423.5, 4156941.5 ] } },
{ "type": "Feature", "properties": { "id": "lidar-tree:281414:4156948", "name": null, "kind": "tree", "species": null, "source": "lidar2025", "tree_height": 20.6, "crown_radius": 6.0, "height_source": "lidar2025" }, "geometry": { "type": "Point", "coordinates": [ 281414.5, 4156947.5 ] } },
{ "type": "Feature", "properties": { "id": "lidar-tree:281438:4156956", "name": null, "kind": "tree", "species": null, "source": "lidar2025", "tree_height": 18.3, "crown_radius": 6.0, "height_source": "lidar2025" }, "geometry": { "type": "Point", "coordinates": [ 281438.5, 4156955.5 ] } },
{ "type": "Feature", "properties": { "id": "lidar-tree:281408:4156956", "name": null, "kind": "tree", "species": null, "source": "lidar2025", "tree_height": 9.5, "crown_radius": 4.9, "height_source": "lidar2025" }, "geometry": { "type": "Point", "coordinates": [ 281408.5, 4156956.5 ] } },
{ "type": "Feature", "properties": { "id": "lidar-tree:281272:4156758", "name": null, "kind": "tree", "species": null, "source": "lidar2025", "tree_height": 19.5, "crown_radius": 6.0, "height_source": "lidar2025" }, "geometry": { "type": "Point", "coordinates": [ 281272.5, 4156757.5 ] } },
{ "type": "Feature", "properties": { "id": "lidar-tree:281284:4156760", "name": null, "kind": "tree", "species": null, "source": "lidar2025", "tree_height": 22.3, "crown_radius": 6.0, "height_source": "lidar2025" }, "geometry": { "type": "Point", "coordinates": [ 281283.5, 4156760.5 ] } },
{ "type": "Feature", "properties": { "id": "lidar-tree:281250:4156762", "name": null, "kind": "tree", "species": null, "source": "lidar2025", "tree_height": 25.7, "crown_radius": 6.0, "height_source": "lidar2025" }, "geometry": { "type": "Point", "coordinates": [ 281250.5, 4156762.5 ] } },
{ "type": "Feature", "properties": { "id": "lidar-tree:281258:4156778", "name": null, "kind": "tree", "species": null, "source": "lidar2025", "tree_height": 26.7, "crown_radius": 6.0, "height_source": "lidar2025" }, "geometry": { "type": "Point", "coordinates": [ 281258.5, 4156778.5 ] } },
{ "type": "Feature", "properties": { "id": "lidar-tree:281274:4156780", "name": null, "kind": "tree", "species": null, "source": "lidar2025", "tree_height": 30.7, "crown_radius": 6.0, "height_source": "lidar2025" }, "geometry": { "type": "Point", "coordinates": [ 281273.5, 4156780.5 ] } },
{ "type": "Feature", "properties": { "id": "lidar-tree:281274:4156796", "name": null, "kind": "tree", "species": null, "source": "lidar2025", "tree_height": 38.0, "crown_radius": 6.0, "height_source": "lidar2025" }, "geometry": { "type": "Point", "coordinates": [ 281274.5, 4156796.5 ] } },
{ "type": "Feature", "properties": { "id": "lidar-tree:281254:4156800", "name": null, "kind": "tree", "species": null, "source": "lidar2025", "tree_height": 25.3, "crown_radius": 6.0, "height_source": "lidar2025" }, "geometry": { "type": "Point", "coordinates": [ 281253.5, 4156800.5 ] } },
{ "type": "Feature", "properties": { "id": "lidar-tree:281284:4156808", "name": null, "kind": "tree", "species": null, "source": "lidar2025", "tree_height": 43.8, "crown_radius": 6.0, "height_source": "lidar2025" }, "geometry": { "type": "Point", "coordinates": [ 281283.5, 4156808.5 ] } },
{ "type": "Feature", "properties": { "id": "osm:node/7684160356", "name": null, "kind": "tree", "species": null, "source": null, "tree_height": null, "crown_radius": null, "height_source": null }, "geometry": { "type": "Point", "coordinates": [ 281254.38, 4156940.21 ] } },
{ "type": "Feature", "properties": { "id": "lidar-tree:281266:4156946", "name": null, "kind": "tree", "species": null, "source": "lidar2025", "tree_height": 9.5, "crown_radius": 4.4, "height_source": "lidar2025" }, "geometry": { "type": "Point", "coordinates": [ 281266.5, 4156945.5 ] } },
{ "type": "Feature", "properties": { "id": "osm:node/7684160357", "name": null, "kind": "tree", "species": null, "source": null, "tree_height": null, "crown_radius": null, "height_source": null }, "geometry": { "type": "Point", "coordinates": [ 281254.83, 4156948.62 ] } },
{ "type": "Feature", "properties": { "id": "osm:node/7684182225", "name": null, "kind": "tree", "species": null, "source": null, "tree_height": null, "crown_radius": null, "height_source": null }, "geometry": { "type": "Point", "coordinates": [ 281264.3, 4156955.3 ] } },
{ "type": "Feature", "properties": { "id": "lidar-tree:281256:4156956", "name": null, "kind": "tree", "species": null, "source": "lidar2025", "tree_height": 4.2, "crown_radius": 2.2, "height_source": "lidar2025" }, "geometry": { "type": "Point", "coordinates": [ 281256.5, 4156956.5 ] } },
{ "type": "Feature", "properties": { "id": "lidar-tree:281268:4156962", "name": null, "kind": "tree", "species": null, "source": "lidar2025", "tree_height": 6.6, "crown_radius": 4.0, "height_source": "lidar2025" }, "geometry": { "type": "Point", "coordinates": [ 281268.5, 4156962.5 ] } },
{ "type": "Feature", "properties": { "id": "lidar-tree:281250:4156964", "name": null, "kind": "tree", "species": null, "source": "lidar2025", "tree_height": 4.4, "crown_radius": 2.9, "height_source": "lidar2025" }, "geometry": { "type": "Point", "coordinates": [ 281250.5, 4156964.5 ] } },
{ "type": "Feature", "properties": { "id": "lidar-tree:281262:4156976", "name": null, "kind": "tree", "species": null, "source": "lidar2025", "tree_height": 4.4, "crown_radius": 4.1, "height_source": "lidar2025" }, "geometry": { "type": "Point", "coordinates": [ 281261.5, 4156976.5 ] } },
{ "type": "Feature", "properties": { "id": "osm:node/4265414632", "name": null, "kind": "tree", "species": null, "source": null, "tree_height": null, "crown_radius": null, "height_source": null }, "geometry": { "type": "Point", "coordinates": [ 281267.5, 4156985.15 ] } },
{ "type": "Feature", "properties": { "id": "lidar-tree:281482:4156822", "name": null, "kind": "tree", "species": null, "source": "lidar2025", "tree_height": 12.4, "crown_radius": 5.4, "height_source": "lidar2025" }, "geometry": { "type": "Point", "coordinates": [ 281481.5, 4156821.5 ] } },
{ "type": "Feature", "properties": { "id": "lidar-tree:281470:4156828", "name": null, "kind": "tree", "species": null, "source": "lidar2025", "tree_height": 4.9, "crown_radius": 2.4, "height_source": "lidar2025" }, "geometry": { "type": "Point", "coordinates": [ 281469.5, 4156828.5 ] } },
{ "type": "Feature", "properties": { "id": "lidar-tree:281500:4156844", "name": null, "kind": "tree", "species": null, "source": "lidar2025", "tree_height": 14.0, "crown_radius": 4.9, "height_source": "lidar2025" }, "geometry": { "type": "Point", "coordinates": [ 281499.5, 4156843.5 ] } },
{ "type": "Feature", "properties": { "id": "lidar-tree:281488:4156848", "name": null, "kind": "tree", "species": null, "source": "lidar2025", "tree_height": 13.5, "crown_radius": 6.0, "height_source": "lidar2025" }, "geometry": { "type": "Point", "coordinates": [ 281488.5, 4156848.5 ] } },
{ "type": "Feature", "properties": { "id": "rva-tree:9971", "name": "Zelkova serrata", "kind": "tree", "species": "Zelkova serrata", "source": "city_inventory", "tree_height": 15.3, "crown_radius": 6.0, "height_source": "lidar2025" }, "geometry": { "type": "Point", "coordinates": [ 281495.76, 4156870.01 ] } },
{ "type": "Feature", "properties": { "id": "rva-tree:9970", "name": "Pyrus calleryana", "kind": "tree", "species": "Pyrus calleryana", "source": "city_inventory", "tree_height": 11.3, "crown_radius": 4.9, "height_source": "lidar2025" }, "geometry": { "type": "Point", "coordinates": [ 281483.08, 4156870.15 ] } },
{ "type": "Feature", "properties": { "id": "rva-tree:9969", "name": "Pyrus calleryana", "kind": "tree", "species": "Pyrus calleryana", "source": "city_inventory", "tree_height": 8.0, "crown_radius": 2.5, "height_source": "estimated" }, "geometry": { "type": "Point", "coordinates": [ 281474.04, 4156870.65 ] } },
{ "type": "Feature", "properties": { "id": "rva-tree:9967", "name": "Ulmus alata", "kind": "tree", "species": "Ulmus alata", "source": "city_inventory", "tree_height": 8.0, "crown_radius": 2.5, "height_source": "estimated" }, "geometry": { "type": "Point", "coordinates": [ 281464.5, 4156871.01 ] } },
{ "type": "Feature", "properties": { "id": "rva-tree:9966", "name": "Prunus x yedoensis", "kind": "tree", "species": "Prunus x yedoensis", "source": "city_inventory", "tree_height": 8.0, "crown_radius": 2.5, "height_source": "estimated" }, "geometry": { "type": "Point", "coordinates": [ 281458.43, 4156871.72 ] } },
{ "type": "Feature", "properties": { "id": "rva-tree:9964", "name": "Zelkova serrata", "kind": "tree", "species": "Zelkova serrata", "source": "city_inventory", "tree_height": 14.7, "crown_radius": 6.0, "height_source": "lidar2025" }, "geometry": { "type": "Point", "coordinates": [ 281499.46, 4156880.91 ] } },
{ "type": "Feature", "properties": { "id": "lidar-tree:281454:4156882", "name": null, "kind": "tree", "species": null, "source": "lidar2025", "tree_height": 25.6, "crown_radius": 6.0, "height_source": "lidar2025" }, "geometry": { "type": "Point", "coordinates": [ 281454.5, 4156882.5 ] } },
{ "type": "Feature", "properties": { "id": "lidar-tree:281474:4156884", "name": null, "kind": "tree", "species": null, "source": "lidar2025", "tree_height": 9.2, "crown_radius": 5.2, "height_source": "lidar2025" }, "geometry": { "type": "Point", "coordinates": [ 281474.5, 4156884.5 ] } },
{ "type": "Feature", "properties": { "id": "lidar-tree:281488:4156898", "name": null, "kind": "tree", "species": null, "source": "lidar2025", "tree_height": 11.7, "crown_radius": 5.4, "height_source": "lidar2025" }, "geometry": { "type": "Point", "coordinates": [ 281488.5, 4156898.5 ] } },
{ "type": "Feature", "properties": { "id": "lidar-tree:281498:4156904", "name": null, "kind": "tree", "species": null, "source": "lidar2025", "tree_height": 15.8, "crown_radius": 6.0, "height_source": "lidar2025" }, "geometry": { "type": "Point", "coordinates": [ 281498.5, 4156903.5 ] } },
{ "type": "Feature", "properties": { "id": "rva-tree:10002", "name": "Juniperus virginiana", "kind": "tree", "species": "Juniperus virginiana", "source": "city_inventory", "tree_height": 26.9, "crown_radius": 6.0, "height_source": "lidar2025" }, "geometry": { "type": "Point", "coordinates": [ 281459.02, 4156912.8 ] } },
{ "type": "Feature", "properties": { "id": "lidar-tree:281492:4156916", "name": null, "kind": "tree", "species": null, "source": "lidar2025", "tree_height": 4.1, "crown_radius": 3.0, "height_source": "lidar2025" }, "geometry": { "type": "Point", "coordinates": [ 281491.5, 4156915.5 ] } },
{ "type": "Feature", "properties": { "id": "rva-tree:10003", "name": "Acer palmatum", "kind": "tree", "species": "Acer palmatum", "source": "city_inventory", "tree_height": 8.0, "crown_radius": 2.5, "height_source": "estimated" }, "geometry": { "type": "Point", "coordinates": [ 281460.59, 4156919.22 ] } },
{ "type": "Feature", "properties": { "id": "lidar-tree:281498:4156922", "name": null, "kind": "tree", "species": null, "source": "lidar2025", "tree_height": 3.9, "crown_radius": 2.9, "height_source": "lidar2025" }, "geometry": { "type": "Point", "coordinates": [ 281497.5, 4156921.5 ] } },
{ "type": "Feature", "properties": { "id": "lidar-tree:281470:4156926", "name": null, "kind": "tree", "species": null, "source": "lidar2025", "tree_height": 5.8, "crown_radius": 3.0, "height_source": "lidar2025" }, "geometry": { "type": "Point", "coordinates": [ 281469.5, 4156926.5 ] } },
{ "type": "Feature", "properties": { "id": "lidar-tree:281478:4156926", "name": null, "kind": "tree", "species": null, "source": "lidar2025", "tree_height": 9.0, "crown_radius": 2.9, "height_source": "lidar2025" }, "geometry": { "type": "Point", "coordinates": [ 281477.5, 4156926.5 ] } },
{ "type": "Feature", "properties": { "id": "lidar-tree:281486:4156926", "name": null, "kind": "tree", "species": null, "source": "lidar2025", "tree_height": 10.1, "crown_radius": 2.6, "height_source": "lidar2025" }, "geometry": { "type": "Point", "coordinates": [ 281485.5, 4156926.5 ] } },
{ "type": "Feature", "properties": { "id": "rva-tree:10004", "name": "Quercus palustris", "kind": "tree", "species": "Quercus palustris", "source": "city_inventory", "tree_height": 8.0, "crown_radius": 2.5, "height_source": "estimated" }, "geometry": { "type": "Point", "coordinates": [ 281463.8, 4156934.03 ] } },
{ "type": "Feature", "properties": { "id": "lidar-tree:281476:4156942", "name": null, "kind": "tree", "species": null, "source": "lidar2025", "tree_height": 9.2, "crown_radius": 3.7, "height_source": "lidar2025" }, "geometry": { "type": "Point", "coordinates": [ 281475.5, 4156941.5 ] } },
{ "type": "Feature", "properties": { "id": "rva-tree:60832", "name": "Quercus palustris", "kind": "tree", "species": "Quercus palustris", "source": "city_inventory", "tree_height": 8.0, "crown_radius": 2.5, "height_source": "estimated" }, "geometry": { "type": "Point", "coordinates": [ 281466.7, 4156945.37 ] } },
{ "type": "Feature", "properties": { "id": "lidar-tree:281478:4156952", "name": null, "kind": "tree", "species": null, "source": "lidar2025", "tree_height": 9.9, "crown_radius": 4.1, "height_source": "lidar2025" }, "geometry": { "type": "Point", "coordinates": [ 281478.5, 4156952.5 ] } },
{ "type": "Feature", "properties": { "id": "lidar-tree:281476:4156972", "name": null, "kind": "tree", "species": null, "source": "lidar2025", "tree_height": 14.3, "crown_radius": 5.2, "height_source": "lidar2025" }, "geometry": { "type": "Point", "coordinates": [ 281476.5, 4156972.5 ] } },
{ "type": "Feature", "properties": { "id": "lidar-tree:281494:4156974", "name": null, "kind": "tree", "species": null, "source": "lidar2025", "tree_height": 7.4, "crown_radius": 3.9, "height_source": "lidar2025" }, "geometry": { "type": "Point", "coordinates": [ 281493.5, 4156974.5 ] } },
{ "type": "Feature", "properties": { "id": "lidar-tree:281482:4156980", "name": null, "kind": "tree", "species": null, "source": "lidar2025", "tree_height": 6.5, "crown_radius": 3.9, "height_source": "lidar2025" }, "geometry": { "type": "Point", "coordinates": [ 281482.5, 4156980.5 ] } },
{ "type": "Feature", "properties": { "id": "rva-tree:9950", "name": "Juniperus virginiana", "kind": "tree", "species": "Juniperus virginiana", "source": "city_inventory", "tree_height": 8.0, "crown_radius": 2.5, "height_source": "estimated" }, "geometry": { "type": "Point", "coordinates": [ 281495.86, 4156992.23 ] } },
{ "type": "Feature", "properties": { "id": "lidar-tree:281480:4156994", "name": null, "kind": "tree", "species": null, "source": "lidar2025", "tree_height": 5.0, "crown_radius": 3.1, "height_source": "lidar2025" }, "geometry": { "type": "Point", "coordinates": [ 281479.5, 4156993.5 ] } },
{ "type": "Feature", "properties": { "id": "lidar-tree:281334:4156938", "name": null, "kind": "tree", "species": null, "source": "lidar2025", "tree_height": 17.5, "crown_radius": 6.0, "height_source": "lidar2025" }, "geometry": { "type": "Point", "coordinates": [ 281333.5, 4156938.5 ] } },
{ "type": "Feature", "properties": { "id": "lidar-tree:281300:4156958", "name": null, "kind": "tree", "species": null, "source": "lidar2025", "tree_height": 27.9, "crown_radius": 6.0, "height_source": "lidar2025" }, "geometry": { "type": "Point", "coordinates": [ 281300.5, 4156958.5 ] } },
{ "type": "Feature", "properties": { "id": "lidar-tree:281316:4156960", "name": null, "kind": "tree", "species": null, "source": "lidar2025", "tree_height": 22.0, "crown_radius": 6.0, "height_source": "lidar2025" }, "geometry": { "type": "Point", "coordinates": [ 281315.5, 4156959.5 ] } },
{ "type": "Feature", "properties": { "id": "lidar-tree:281334:4156968", "name": null, "kind": "tree", "species": null, "source": "lidar2025", "tree_height": 6.5, "crown_radius": 5.1, "height_source": "lidar2025" }, "geometry": { "type": "Point", "coordinates": [ 281334.5, 4156968.5 ] } },
{ "type": "Feature", "properties": { "id": "lidar-tree:281318:4156976", "name": null, "kind": "tree", "species": null, "source": "lidar2025", "tree_height": 24.7, "crown_radius": 6.0, "height_source": "lidar2025" }, "geometry": { "type": "Point", "coordinates": [ 281317.5, 4156976.5 ] } },
{ "type": "Feature", "properties": { "id": "lidar-tree:281338:4156982", "name": null, "kind": "tree", "species": null, "source": "lidar2025", "tree_height": 8.6, "crown_radius": 5.0, "height_source": "lidar2025" }, "geometry": { "type": "Point", "coordinates": [ 281337.5, 4156981.5 ] } },
{ "type": "Feature", "properties": { "id": "lidar-tree:281298:4156984", "name": null, "kind": "tree", "species": null, "source": "lidar2025", "tree_height": 13.9, "crown_radius": 6.0, "height_source": "lidar2025" }, "geometry": { "type": "Point", "coordinates": [ 281298.5, 4156984.5 ] } },
{ "type": "Feature", "properties": { "id": "lidar-tree:281336:4156990", "name": null, "kind": "tree", "species": null, "source": "lidar2025", "tree_height": 6.2, "crown_radius": 4.5, "height_source": "lidar2025" }, "geometry": { "type": "Point", "coordinates": [ 281335.5, 4156990.5 ] } },
{ "type": "Feature", "properties": { "id": "lidar-tree:281326:4156992", "name": null, "kind": "tree", "species": null, "source": "lidar2025", "tree_height": 16.7, "crown_radius": 4.7, "height_source": "lidar2025" }, "geometry": { "type": "Point", "coordinates": [ 281326.5, 4156991.5 ] } },
{ "type": "Feature", "properties": { "id": "lidar-tree:281336:4157000", "name": null, "kind": "tree", "species": null, "source": "lidar2025", "tree_height": 17.0, "crown_radius": 3.8, "height_source": "lidar2025" }, "geometry": { "type": "Point", "coordinates": [ 281336.5, 4156999.5 ] } },
{ "type": "Feature", "properties": { "id": "lidar-tree:281392:4156942", "name": null, "kind": "tree", "species": null, "source": "lidar2025", "tree_height": 6.3, "crown_radius": 3.0, "height_source": "lidar2025" }, "geometry": { "type": "Point", "coordinates": [ 281392.5, 4156941.5 ] } },
{ "type": "Feature", "properties": { "id": "osm:node/4265414640", "name": null, "kind": "tree", "species": null, "source": null, "tree_height": null, "crown_radius": null, "height_source": null }, "geometry": { "type": "Point", "coordinates": [ 281349.17, 4156941.77 ] } },
{ "type": "Feature", "properties": { "id": "lidar-tree:281378:4156944", "name": null, "kind": "tree", "species": null, "source": "lidar2025", "tree_height": 7.2, "crown_radius": 4.2, "height_source": "lidar2025" }, "geometry": { "type": "Point", "coordinates": [ 281378.5, 4156943.5 ] } },
{ "type": "Feature", "properties": { "id": "osm:node/4265414638", "name": null, "kind": "tree", "species": null, "source": null, "tree_height": null, "crown_radius": null, "height_source": null }, "geometry": { "type": "Point", "coordinates": [ 281362.87, 4156952.8 ] } },
{ "type": "Feature", "properties": { "id": "osm:node/4265414637", "name": null, "kind": "tree", "species": null, "source": null, "tree_height": null, "crown_radius": null, "height_source": null }, "geometry": { "type": "Point", "coordinates": [ 281348.71, 4156969.28 ] } },
{ "type": "Feature", "properties": { "id": "rva-tree:10157", "name": "Acer rubrum", "kind": "tree", "species": "Acer rubrum", "source": "city_inventory", "tree_height": 13.8, "crown_radius": 5.2, "height_source": "lidar2025" }, "geometry": { "type": "Point", "coordinates": [ 281380.96, 4156975.23 ] } },
{ "type": "Feature", "properties": { "id": "rva-tree:10158", "name": "Acer rubrum", "kind": "tree", "species": "Acer rubrum", "source": "city_inventory", "tree_height": 16.9, "crown_radius": 6.0, "height_source": "lidar2025" }, "geometry": { "type": "Point", "coordinates": [ 281384.23, 4156988.25 ] } },
{ "type": "Feature", "properties": { "id": "lidar-tree:281358:4156996", "name": null, "kind": "tree", "species": null, "source": "lidar2025", "tree_height": 17.4, "crown_radius": 6.0, "height_source": "lidar2025" }, "geometry": { "type": "Point", "coordinates": [ 281358.5, 4156996.5 ] } },
{ "type": "Feature", "properties": { "id": "lidar-tree:281422:4156960", "name": null, "kind": "tree", "species": null, "source": "lidar2025", "tree_height": 12.9, "crown_radius": 5.9, "height_source": "lidar2025" }, "geometry": { "type": "Point", "coordinates": [ 281421.5, 4156959.5 ] } },
{ "type": "Feature", "properties": { "id": "lidar-tree:281424:4156970", "name": null, "kind": "tree", "species": null, "source": "lidar2025", "tree_height": 18.3, "crown_radius": 6.0, "height_source": "lidar2025" }, "geometry": { "type": "Point", "coordinates": [ 281423.5, 4156969.5 ] } },
{ "type": "Feature", "properties": { "id": "rva-tree:60830", "name": "Quercus phellos", "kind": "tree", "species": "Quercus phellos", "source": "city_inventory", "tree_height": 24.5, "crown_radius": 6.0, "height_source": "lidar2025" }, "geometry": { "type": "Point", "coordinates": [ 281436.23, 4156995.58 ] } },
{ "type": "Feature", "properties": { "id": "rva-tree:10088", "name": "Pyrus calleryana", "kind": "tree", "species": "Pyrus calleryana", "source": "city_inventory", "tree_height": 13.6, "crown_radius": 5.8, "height_source": "lidar2025" }, "geometry": { "type": "Point", "coordinates": [ 281417.4, 4156996.64 ] } },
{ "type": "Feature", "properties": { "id": "rva-tree:10087", "name": "Quercus phellos", "kind": "tree", "species": "Quercus phellos", "source": "city_inventory", "tree_height": 25.7, "crown_radius": 6.0, "height_source": "lidar2025" }, "geometry": { "type": "Point", "coordinates": [ 281398.9, 4156997.33 ] } }
]
}
