{
"type": "FeatureCollection",
"name": "crossings",
"crs": { "type": "name", "properties": { "name": "urn:ogc:def:crs:EPSG::32618" } },
"xy_coordinate_resolution": 0.01,
"features": [
{ "type": "Feature", "properties": { "id": "osm:node/10292600196", "crossing": "unmarked", "crossing_markings": "no", "road_id": "osm:way/374729211", "road_width": 7.0, "road_dx": -0.994081, "road_dy": -0.10864, "road_x": 283379.5, "road_y": 4157086.84, "foot_dx": 0.033855, "foot_dy": -0.999427, "crossing_island": false }, "geometry": { "type": "Point", "coordinates": [ 283379.5, 4157086.84 ] } },
{ "type": "Feature", "properties": { "id": "osm:node/7682160843", "crossing": "unmarked", "crossing_markings": "no", "road_id": "osm:way/6034998", "road_width": 7.0, "road_dx": -0.999994, "road_dy": -0.003462, "road_x": 283495.09, "road_y": 4157095.0, "foot_dx": 0.421149, "foot_dy": -0.906992, "crossing_island": false }, "geometry": { "type": "Point", "coordinates": [ 283495.09, 4157095.0 ] } },
{ "type": "Feature", "properties": { "id": "osm:node/7690282035", "crossing": "unmarked", "crossing_markings": null, "road_id": null, "road_width": null, "road_dx": null, "road_dy": null, "road_x": null, "road_y": null, "foot_dx": null, "foot_dy": null, "crossing_island": false }, "geometry": { "type": "Point", "coordinates": [ 283491.29, 4157151.43 ] } },
{ "type": "Feature", "properties": { "id": "osm:node/7690282087", "crossing": "unmarked", "crossing_markings": "no", "road_id": "osm:way/1153735663", "road_width": 7.0, "road_dx": -0.99967, "road_dy": 0.02568, "road_x": 283493.98, "road_y": 4157212.19, "foot_dx": -0.044787, "foot_dy": -0.998997, "crossing_island": false }, "geometry": { "type": "Point", "coordinates": [ 283493.98, 4157212.19 ] } },
{ "type": "Feature", "properties": { "id": "osm:node/7690282054", "crossing": "unmarked", "crossing_markings": "no", "road_id": "osm:way/374729211", "road_width": 7.0, "road_dx": -0.996358, "road_dy": -0.085271, "road_x": 283427.41, "road_y": 4157092.08, "foot_dx": 0.04542, "foot_dy": 0.998968, "crossing_island": false }, "geometry": { "type": "Point", "coordinates": [ 283427.41, 4157092.08 ] } },
{ "type": "Feature", "properties": { "id": "osm:node/11097486510", "crossing": "unmarked", "crossing_markings": "no", "road_id": "osm:way/38230977", "road_width": 7.0, "road_dx": -0.038877, "road_dy": -0.999244, "road_x": 283373.39, "road_y": 4157094.89, "foot_dx": 0.997893, "foot_dy": -0.064889, "crossing_island": false }, "geometry": { "type": "Point", "coordinates": [ 283373.39, 4157094.89 ] } },
{ "type": "Feature", "properties": { "id": "osm:node/11097486513", "crossing": "unmarked", "crossing_markings": "no", "road_id": "osm:way/6035004", "road_width": 7.0, "road_dx": 0.040728, "road_dy": 0.99917, "road_x": 283482.99, "road_y": 4157102.36, "foot_dx": 0.999807, "foot_dy": 0.019622, "crossing_island": false }, "geometry": { "type": "Point", "coordinates": [ 283482.99, 4157102.36 ] } },
{ "type": "Feature", "properties": { "id": "osm:node/7690282064", "crossing": "unmarked", "crossing_markings": null, "road_id": "osm:way/1050842083", "road_width": 7.0, "road_dx": 0.049868, "road_dy": 0.998756, "road_x": 283320.58, "road_y": 4157117.32, "foot_dx": 0.996095, "foot_dy": -0.088289, "crossing_island": false }, "geometry": { "type": "Point", "coordinates": [ 283320.58, 4157117.32 ] } },
{ "type": "Feature", "properties": { "id": "osm:node/7690282221", "crossing": "unmarked", "crossing_markings": "no", "road_id": null, "road_width": null, "road_dx": null, "road_dy": null, "road_x": null, "road_y": null, "foot_dx": null, "foot_dy": null, "crossing_island": false }, "geometry": { "type": "Point", "coordinates": [ 283477.64, 4157133.63 ] } },
{ "type": "Feature", "properties": { "id": "osm:node/7690282062", "crossing": "unmarked", "crossing_markings": "no", "road_id": null, "road_width": null, "road_dx": null, "road_dy": null, "road_x": null, "road_y": null, "foot_dx": null, "foot_dy": null, "crossing_island": false }, "geometry": { "type": "Point", "coordinates": [ 283380.93, 4157136.4 ] } },
{ "type": "Feature", "properties": { "id": "osm:node/7690282069", "crossing": "unmarked", "crossing_markings": "no", "road_id": null, "road_width": null, "road_dx": null, "road_dy": null, "road_x": null, "road_y": null, "foot_dx": null, "foot_dy": null, "crossing_island": false }, "geometry": { "type": "Point", "coordinates": [ 283368.49, 4157142.61 ] } },
{ "type": "Feature", "properties": { "id": "osm:node/7690282089", "crossing": "unmarked", "crossing_markings": "no", "road_id": "osm:way/6035004", "road_width": 7.0, "road_dx": 0.042055, "road_dy": 0.999115, "road_x": 283487.27, "road_y": 4157204.07, "foot_dx": -0.994859, "foot_dy": 0.101272, "crossing_island": false }, "geometry": { "type": "Point", "coordinates": [ 283487.27, 4157204.07 ] } },
{ "type": "Feature", "properties": { "id": "osm:node/7690282072", "crossing": "unmarked", "crossing_markings": "no", "road_id": "osm:way/38230977", "road_width": 7.0, "road_dx": -0.034068, "road_dy": -0.99942, "road_x": 283377.83, "road_y": 4157207.18, "foot_dx": 0.999517, "foot_dy": -0.031086, "crossing_island": false }, "geometry": { "type": "Point", "coordinates": [ 283377.83, 4157207.18 ] } },
{ "type": "Feature", "properties": { "id": "osm:node/11082221575", "crossing": "unmarked", "crossing_markings": "no", "road_id": "osm:way/6039056", "road_width": 7.0, "road_dx": 0.045199, "road_dy": 0.998978, "road_x": 283324.82, "road_y": 4157208.3, "foot_dx": -0.946276, "foot_dy": -0.323359, "crossing_island": false }, "geometry": { "type": "Point", "coordinates": [ 283324.82, 4157208.3 ] } },
{ "type": "Feature", "properties": { "id": "osm:node/7690282090", "crossing": "unmarked", "crossing_markings": "no", "road_id": "osm:way/1153735663", "road_width": 7.0, "road_dx": -0.999435, "road_dy": 0.033618, "road_x": 283480.32, "road_y": 4157212.6, "foot_dx": 0.029468, "foot_dy": 0.999566, "crossing_island": false }, "geometry": { "type": "Point", "coordinates": [ 283480.32, 4157212.6 ] } },
{ "type": "Feature", "properties": { "id": "osm:node/7690282073", "crossing": "unmarked", "crossing_markings": "no", "road_id": "osm:way/1153735663", "road_width": 7.0, "road_dx": -0.999066, "road_dy": 0.043208, "road_x": 283384.67, "road_y": 4157215.76, "foot_dx": -0.011169, "foot_dy": -0.999938, "crossing_island": false }, "geometry": { "type": "Point", "coordinates": [ 283384.67, 4157215.76 ] } },
{ "type": "Feature", "properties": { "id": "osm:node/7690282075", "crossing": "unmarked", "crossing_markings": "no", "road_id": "osm:way/1153735663", "road_width": 7.0, "road_dx": -0.998785, "road_dy": 0.049282, "road_x": 283371.44, "road_y": 4157216.35, "foot_dx": 0.029035, "foot_dy": 0.999578, "crossing_island": false }, "geometry": { "type": "Point", "coordinates": [ 283371.44, 4157216.35 ] } },
{ "type": "Feature", "properties": { "id": "osm:node/7690282088", "crossing": "unmarked", "crossing_markings": "no", "road_id": "osm:way/6035004", "road_width": 7.0, "road_dx": 0.042974, "road_dy": 0.999076, "road_x": 283488.03, "road_y": 4157220.71, "foot_dx": 0.999986, "foot_dy": -0.005217, "crossing_island": false }, "geometry": { "type": "Point", "coordinates": [ 283488.03, 4157220.71 ] } },
{ "type": "Feature", "properties": { "id": "osm:node/7690282029", "crossing": "unmarked", "crossing_markings": null, "road_id": null, "road_width": null, "road_dx": null, "road_dy": null, "road_x": null, "road_y": null, "foot_dx": null, "foot_dy": null, "crossing_island": false }, "geometry": { "type": "Point", "coordinates": [ 283432.79, 4157222.88 ] } },
{ "type": "Feature", "properties": { "id": "osm:node/7690282074", "crossing": "unmarked", "crossing_markings": "no", "road_id": "osm:way/38230977", "road_width": 7.0, "road_dx": -0.039304, "road_dy": -0.999227, "road_x": 283378.47, "road_y": 4157224.85, "foot_dx": 0.99952, "foot_dy": -0.030995, "crossing_island": false }, "geometry": { "type": "Point", "coordinates": [ 283378.47, 4157224.85 ] } }
]
}
