{
"type": "FeatureCollection",
"name": "landuse",
"crs": { "type": "name", "properties": { "name": "urn:ogc:def:crs:EPSG::32618" } },
"xy_coordinate_resolution": 0.01,
"features": [
{ "type": "Feature", "properties": { "id": "imagery:groundcover_paved:2808", "name": null, "kind": "groundcover_paved", "sport": null, "surface": null, "pitch_layout": null, "source": "vgin_vbmp+naip+lidar2025", "source_updated": null, "base_z": null, "top_z": null }, "geometry": { "type": "MultiPolygon", "coordinates": [ [ [ [ 283465.13, 4157010.03 ], [ 283465.13, 4157007.63 ], [ 283462.13, 4157004.63 ], [ 283447.13, 4157004.63 ], [ 283444.13, 4157007.63 ], [ 283444.13, 4157010.03 ], [ 283443.71, 4157011.05 ], [ 283441.55, 4157013.2 ], [ 283439.98, 4157013.85 ], [ 283438.19, 4157017.21 ], [ 283441.13, 4157019.63 ], [ 283468.13, 4157019.63 ], [ 283471.07, 4157017.21 ], [ 283469.28, 4157013.85 ], [ 283467.71, 4157013.2 ], [ 283465.55, 4157011.05 ], [ 283465.13, 4157010.03 ] ] ], [ [ [ 283255.25, 4157028.49 ], [ 283255.36, 4157028.39 ], [ 283255.5, 4157028.29 ], [ 283255.66, 4157028.2 ], [ 283255.82, 4157028.12 ], [ 283255.98, 4157028.06 ], [ 283256.15, 4157028.02 ], [ 283256.33, 4157028.0 ], [ 283256.51, 4157027.99 ], [ 283256.68, 4157028.0 ], [ 283256.86, 4157028.02 ], [ 283257.02, 4157028.07 ], [ 283256.54, 4157026.34 ], [ 283256.28, 4157025.85 ], [ 283254.71, 4157025.2 ], [ 283252.55, 4157023.05 ], [ 283252.13, 4157022.03 ], [ 283252.13, 4157018.16 ], [ 283252.24, 4157017.6 ], [ 283252.9, 4157016.02 ], [ 283253.22, 4157015.54 ], [ 283253.75, 4157015.01 ], [ 283253.67, 4157014.64 ], [ 283250.28, 4157007.87 ], [ 283250.19, 4157007.68 ], [ 283250.13, 4157007.49 ], [ 283250.09, 4157007.3 ], [ 283250.06, 4157007.1 ], [ 283250.06, 4157006.89 ], [ 283250.07, 4157006.69 ], [ 283250.11, 4157006.5 ], [ 283250.16, 4157006.3 ], [ 283250.24, 4157006.11 ], [ 283250.33, 4157005.93 ], [ 283250.44, 4157005.77 ], [ 283250.56, 4157005.61 ], [ 283250.7, 4157005.46 ], [ 283250.85, 4157005.33 ], [ 283251.02, 4157005.22 ], [ 283251.19, 4157005.12 ], [ 283251.38, 4157005.04 ], [ 283251.57, 4157004.97 ], [ 283251.76, 4157004.93 ], [ 283251.96, 4157004.9 ], [ 283252.16, 4157004.9 ], [ 283252.36, 4157004.92 ], [ 283252.56, 4157004.95 ], [ 283252.76, 4157005.0 ], [ 283252.94, 4157005.08 ], [ 283253.12, 4157005.17 ], [ 283253.29, 4157005.28 ], [ 283253.45, 4157005.4 ], [ 283253.6, 4157005.54 ], [ 283253.73, 4157005.69 ], [ 283253.84, 4157005.86 ], [ 283253.94, 4157006.03 ], [ 283256.87, 4157011.89 ], [ 283257.04, 4157011.71 ], [ 283257.53, 4157011.39 ], [ 283259.1, 4157010.74 ], [ 283259.67, 4157010.63 ], [ 283288.5, 4157010.63 ], [ 283289.35, 4157010.9 ], [ 283291.43, 4157012.4 ], [ 283291.87, 4157012.99 ], [ 283366.48, 4157016.84 ], [ 283371.45, 4157016.65 ], [ 283371.72, 4157016.67 ], [ 283372.52, 4157016.78 ], [ 283372.78, 4157016.84 ], [ 283373.94, 4157017.23 ], [ 283412.38, 4157019.21 ], [ 283414.07, 4157016.04 ], [ 283411.13, 4157013.63 ], [ 283405.73, 4157013.63 ], [ 283404.71, 4157013.2 ], [ 283402.55, 4157011.05 ], [ 283402.13, 4157010.03 ], [ 283402.13, 4157007.63 ], [ 283399.13, 4157004.63 ], [ 283378.13, 4157004.63 ], [ 283375.36, 4157006.48 ], [ 283374.71, 4157008.05 ], [ 283372.55, 4157010.2 ], [ 283371.67, 4157010.57 ], [ 283370.58, 4157009.96 ], [ 283368.3, 4157006.28 ], [ 283367.8, 4157006.59 ], [ 283365.74, 4157004.63 ], [ 283363.13, 4157004.63 ], [ 283360.36, 4157006.48 ], [ 283359.71, 4157008.05 ], [ 283357.55, 4157010.2 ], [ 283356.53, 4157010.63 ], [ 283336.73, 4157010.63 ], [ 283335.71, 4157010.2 ], [ 283333.55, 4157008.05 ], [ 283333.13, 4157007.03 ], [ 283333.13, 4157003.79 ], [ 283331.08, 4157000.94 ], [ 283328.25, 4157000.0 ], [ 283250.0, 4157000.0 ], [ 283250.0, 4157029.72 ], [ 283251.62, 4157029.36 ], [ 283255.25, 4157028.49 ] ] ], [ [ [ 283496.87, 4157010.26 ], [ 283496.68, 4157008.99 ], [ 283496.81, 4157008.57 ], [ 283493.97, 4157004.63 ], [ 283489.13, 4157004.63 ], [ 283486.13, 4157007.63 ], [ 283486.13, 4157010.03 ], [ 283485.71, 4157011.05 ], [ 283483.55, 4157013.2 ], [ 283481.98, 4157013.85 ], [ 283480.19, 4157017.21 ], [ 283483.13, 4157019.63 ], [ 283497.0, 4157019.63 ], [ 283497.43, 4157019.69 ], [ 283498.68, 4157020.07 ], [ 283499.07, 4157020.25 ], [ 283500.0, 4157020.87 ], [ 283500.0, 4157013.62 ], [ 283498.87, 4157013.04 ], [ 283496.87, 4157010.26 ] ] ] ] } },
{ "type": "Feature", "properties": { "id": "imagery:groundcover_bare:2638", "name": null, "kind": "groundcover_bare", "sport": null, "surface": null, "pitch_layout": null, "source": "vgin_vbmp+naip+lidar2025", "source_updated": null, "base_z": null, "top_z": null }, "geometry": { "type": "Polygon", "coordinates": [ [ [ 283295.89, 4157048.67 ], [ 283314.11, 4157045.38 ], [ 283320.03, 4157044.14 ], [ 283317.29, 4157040.63 ], [ 283289.46, 4157040.63 ], [ 283287.75, 4157041.01 ], [ 283285.13, 4157043.63 ], [ 283285.13, 4157050.99 ], [ 283295.84, 4157048.68 ], [ 283295.89, 4157048.67 ] ] ] } },
{ "type": "Feature", "properties": { "id": "osm:way/822783210", "name": null, "kind": "forest", "sport": null, "surface": null, "pitch_layout": null, "source": null, "source_updated": null, "base_z": null, "top_z": null }, "geometry": { "type": "Polygon", "coordinates": [ [ [ 283365.42, 4157076.47 ], [ 283388.87, 4157080.82 ], [ 283401.19, 4157081.16 ], [ 283409.3, 4157077.19 ], [ 283412.28, 4157060.07 ], [ 283411.45, 4157052.04 ], [ 283408.21, 4157044.39 ], [ 283341.36, 4157041.27 ], [ 283282.49, 4157053.15 ], [ 283274.81, 4157058.79 ], [ 283271.18, 4157066.58 ], [ 283315.84, 4157072.97 ], [ 283350.86, 4157081.05 ], [ 283365.42, 4157076.47 ] ] ] } },
{ "type": "Feature", "properties": { "id": "richmond_structure:408556", "name": null, "kind": "deck", "sport": null, "surface": null, "pitch_layout": null, "source": "richmond_structures", "source_updated": "2026-09-08T12:07:13.637000Z", "base_z": null, "top_z": null }, "geometry": { "type": "Polygon", "coordinates": [ [ [ 283279.83, 4157136.4 ], [ 283281.72, 4157136.3 ], [ 283281.05, 4157125.49 ], [ 283279.28, 4157125.58 ], [ 283279.83, 4157136.4 ] ] ] } },
{ "type": "Feature", "properties": { "id": "richmond_structure:272697", "name": null, "kind": "deck", "sport": null, "surface": null, "pitch_layout": null, "source": "richmond_structures", "source_updated": "2026-09-08T12:07:13.637000Z", "base_z": null, "top_z": null }, "geometry": { "type": "Polygon", "coordinates": [ [ [ 283316.85, 4157136.0 ], [ 283316.74, 4157132.76 ], [ 283311.09, 4157132.96 ], [ 283311.2, 4157136.2 ], [ 283316.85, 4157136.0 ] ] ] } },
{ "type": "Feature", "properties": { "id": "richmond_structure:272889", "name": null, "kind": "deck", "sport": null, "surface": null, "pitch_layout": null, "source": "richmond_structures", "source_updated": "2026-09-08T12:07:13.637000Z", "base_z": null, "top_z": null }, "geometry": { "type": "Polygon", "coordinates": [ [ [ 283295.16, 4157142.38 ], [ 283301.43, 4157142.21 ], [ 283301.31, 4157134.94 ], [ 283294.93, 4157134.9 ], [ 283294.84, 4157133.71 ], [ 283295.16, 4157142.38 ] ] ] } },
{ "type": "Feature", "properties": { "id": "richmond_structure:408026", "name": null, "kind": "deck", "sport": null, "surface": null, "pitch_layout": null, "source": "richmond_structures", "source_updated": "2026-09-08T12:07:13.637000Z", "base_z": null, "top_z": null }, "geometry": { "type": "Polygon", "coordinates": [ [ [ 283273.86, 4157139.84 ], [ 283279.99, 4157139.53 ], [ 283279.94, 4157138.41 ], [ 283273.8, 4157138.73 ], [ 283273.86, 4157139.84 ] ] ] } },
{ "type": "Feature", "properties": { "id": "richmond_structure:408027", "name": null, "kind": "deck", "sport": null, "surface": null, "pitch_layout": null, "source": "richmond_structures", "source_updated": "2026-09-08T12:07:13.637000Z", "base_z": null, "top_z": null }, "geometry": { "type": "Polygon", "coordinates": [ [ [ 283288.55, 4157137.4 ], [ 283287.63, 4157137.45 ], [ 283287.72, 4157138.96 ], [ 283282.19, 4157139.3 ], [ 283282.17, 4157141.55 ], [ 283285.36, 4157141.55 ], [ 283285.56, 4157142.66 ], [ 283292.89, 4157142.21 ], [ 283292.54, 4157136.6 ], [ 283288.51, 4157136.85 ], [ 283288.55, 4157137.4 ] ] ] } },
{ "type": "Feature", "properties": { "id": "imagery:groundcover_lawn:2602", "name": null, "kind": "groundcover_lawn", "sport": null, "surface": null, "pitch_layout": null, "source": "vgin_vbmp+naip+lidar2025", "source_updated": null, "base_z": null, "top_z": null }, "geometry": { "type": "Polygon", "coordinates": [ [ [ 283352.21, 4157189.72 ], [ 283353.68, 4157188.71 ], [ 283352.91, 4157185.41 ], [ 283352.57, 4157185.1 ], [ 283351.35, 4157183.13 ], [ 283351.13, 4157182.35 ], [ 283351.13, 4157164.28 ], [ 283348.63, 4157161.32 ], [ 283347.12, 4157162.22 ], [ 283347.12, 4157162.4 ], [ 283347.08, 4157162.7 ], [ 283347.02, 4157162.99 ], [ 283346.93, 4157163.27 ], [ 283346.81, 4157163.55 ], [ 283346.66, 4157163.81 ], [ 283346.49, 4157164.05 ], [ 283346.3, 4157164.28 ], [ 283346.08, 4157164.49 ], [ 283345.85, 4157164.67 ], [ 283345.59, 4157164.84 ], [ 283345.33, 4157164.97 ], [ 283345.05, 4157165.08 ], [ 283344.76, 4157165.16 ], [ 283344.47, 4157165.21 ], [ 283344.4, 4157165.22 ], [ 283343.17, 4157166.8 ], [ 283342.37, 4157167.32 ], [ 283335.4, 4157169.06 ], [ 283333.34, 4157171.7 ], [ 283333.83, 4157188.32 ], [ 283335.74, 4157190.24 ], [ 283352.21, 4157189.72 ] ] ] } },
{ "type": "Feature", "properties": { "id": "richmond_structure:272883", "name": null, "kind": "deck", "sport": null, "surface": null, "pitch_layout": null, "source": "richmond_structures", "source_updated": "2026-09-08T12:07:13.637000Z", "base_z": null, "top_z": null }, "geometry": { "type": "Polygon", "coordinates": [ [ [ 283344.66, 4157190.84 ], [ 283344.64, 4157192.7 ], [ 283346.49, 4157192.63 ], [ 283346.61, 4157190.85 ], [ 283344.66, 4157190.84 ] ] ] } },
{ "type": "Feature", "properties": { "id": "imagery:groundcover_lawn:2688", "name": null, "kind": "groundcover_lawn", "sport": null, "surface": null, "pitch_layout": null, "source": "vgin_vbmp+naip+lidar2025", "source_updated": null, "base_z": null, "top_z": null }, "geometry": { "type": "Polygon", "coordinates": [ [ [ 283332.4, 4157004.14 ], [ 283334.01, 4157004.64 ], [ 283500.0, 4157007.23 ], [ 283500.0, 4157000.0 ], [ 283327.1, 4157000.0 ], [ 283327.36, 4157000.78 ], [ 283332.4, 4157004.14 ] ] ] } },
{ "type": "Feature", "properties": { "id": "osm:way/308093048", "name": null, "kind": "forest", "sport": null, "surface": null, "pitch_layout": null, "source": null, "source_updated": null, "base_z": null, "top_z": null }, "geometry": { "type": "Polygon", "coordinates": [ [ [ 283262.34, 4157026.29 ], [ 283500.0, 4157048.91 ], [ 283500.0, 4157023.73 ], [ 283258.63, 4157011.28 ], [ 283262.34, 4157026.29 ] ] ] } },
{ "type": "Feature", "properties": { "id": "imagery:groundcover_lawn:2607", "name": null, "kind": "groundcover_lawn", "sport": null, "surface": null, "pitch_layout": null, "source": "vgin_vbmp+naip+lidar2025", "source_updated": null, "base_z": null, "top_z": null }, "geometry": { "type": "Polygon", "coordinates": [ [ [ 283419.29, 4157148.63 ], [ 283423.86, 4157148.63 ], [ 283424.63, 4157148.85 ], [ 283425.02, 4157149.08 ], [ 283425.49, 4157149.06 ], [ 283425.59, 4157149.06 ], [ 283425.69, 4157149.07 ], [ 283425.78, 4157149.09 ], [ 283425.88, 4157149.12 ], [ 283425.97, 4157149.16 ], [ 283426.05, 4157149.2 ], [ 283426.14, 4157149.26 ], [ 283426.21, 4157149.32 ], [ 283426.28, 4157149.39 ], [ 283426.34, 4157149.46 ], [ 283426.4, 4157149.55 ], [ 283426.44, 4157149.63 ], [ 283426.48, 4157149.72 ], [ 283426.51, 4157149.82 ], [ 283426.53, 4157149.91 ], [ 283426.54, 4157150.01 ], [ 283426.54, 4157150.02 ], [ 283426.6, 4157150.06 ], [ 283427.15, 4157150.66 ], [ 283427.29, 4157150.94 ], [ 283431.3, 4157150.8 ], [ 283432.13, 4157151.63 ], [ 283433.54, 4157150.22 ], [ 283433.52, 4157149.82 ], [ 283433.52, 4157149.72 ], [ 283433.53, 4157149.62 ], [ 283433.55, 4157149.52 ], [ 283433.58, 4157149.43 ], [ 283433.61, 4157149.34 ], [ 283433.66, 4157149.25 ], [ 283433.72, 4157149.17 ], [ 283433.78, 4157149.1 ], [ 283433.85, 4157149.03 ], [ 283433.92, 4157148.96 ], [ 283434.01, 4157148.91 ], [ 283434.09, 4157148.86 ], [ 283434.18, 4157148.83 ], [ 283434.28, 4157148.8 ], [ 283434.37, 4157148.78 ], [ 283434.47, 4157148.77 ], [ 283435.49, 4157148.73 ], [ 283435.73, 4157148.63 ], [ 283437.71, 4157148.63 ], [ 283441.29, 4157148.46 ], [ 283444.13, 4157145.63 ], [ 283444.13, 4157143.22 ], [ 283444.55, 4157142.2 ], [ 283446.95, 4157139.81 ], [ 283447.21, 4157138.43 ], [ 283447.17, 4157137.55 ], [ 283415.63, 4157138.45 ], [ 283415.04, 4157140.05 ], [ 283414.17, 4157140.61 ], [ 283414.77, 4157141.55 ], [ 283416.45, 4157146.57 ], [ 283419.29, 4157148.63 ] ] ] } },
{ "type": "Feature", "properties": { "id": "richmond_structure:272890", "name": null, "kind": "deck", "sport": null, "surface": null, "pitch_layout": null, "source": "richmond_structures", "source_updated": "2026-09-08T12:07:13.637000Z", "base_z": null, "top_z": null }, "geometry": { "type": "Polygon", "coordinates": [ [ [ 283438.99, 4157150.71 ], [ 283442.91, 4157150.61 ], [ 283442.76, 4157147.79 ], [ 283438.85, 4157148.31 ], [ 283438.99, 4157150.71 ] ] ] } },
{ "type": "Feature", "properties": { "id": "richmond_structure:272898", "name": null, "kind": "deck", "sport": null, "surface": null, "pitch_layout": null, "source": "richmond_structures", "source_updated": "2026-09-08T12:07:13.637000Z", "base_z": null, "top_z": null }, "geometry": { "type": "Polygon", "coordinates": [ [ [ 283418.68, 4157151.71 ], [ 283422.95, 4157151.65 ], [ 283422.72, 4157148.82 ], [ 283418.59, 4157149.11 ], [ 283418.68, 4157151.71 ] ] ] } },
{ "type": "Feature", "properties": { "id": "richmond_structure:272699", "name": null, "kind": "deck", "sport": null, "surface": null, "pitch_layout": null, "source": "richmond_structures", "source_updated": "2026-09-08T12:07:13.637000Z", "base_z": null, "top_z": null }, "geometry": { "type": "Polygon", "coordinates": [ [ [ 283352.65, 4157151.22 ], [ 283352.74, 4157153.71 ], [ 283354.09, 4157153.66 ], [ 283353.94, 4157149.42 ], [ 283353.1, 4157149.45 ], [ 283353.16, 4157151.2 ], [ 283352.65, 4157151.22 ] ] ] } },
{ "type": "Feature", "properties": { "id": "richmond_structure:272700", "name": null, "kind": "deck", "sport": null, "surface": null, "pitch_layout": null, "source": "richmond_structures", "source_updated": "2026-09-08T12:07:13.637000Z", "base_z": null, "top_z": null }, "geometry": { "type": "Polygon", "coordinates": [ [ [ 283353.13, 4157157.78 ], [ 283353.23, 4157160.53 ], [ 283354.22, 4157160.5 ], [ 283354.06, 4157156.25 ], [ 283353.45, 4157156.28 ], [ 283353.5, 4157157.76 ], [ 283353.13, 4157157.78 ] ] ] } },
{ "type": "Feature", "properties": { "id": "imagery:groundcover_paved:2639", "name": null, "kind": "groundcover_paved", "sport": null, "surface": null, "pitch_layout": null, "source": "vgin_vbmp+naip+lidar2025", "source_updated": null, "base_z": null, "top_z": null }, "geometry": { "type": "Polygon", "coordinates": [ [ [ 283404.07, 4157140.04 ], [ 283405.65, 4157183.95 ], [ 283405.65, 4157183.96 ], [ 283409.36, 4157183.84 ], [ 283407.24, 4157140.15 ], [ 283403.99, 4157139.34 ], [ 283404.03, 4157139.55 ], [ 283404.07, 4157140.04 ] ] ] } },
{ "type": "Feature", "properties": { "id": "richmond_structure:272701", "name": null, "kind": "deck", "sport": null, "surface": null, "pitch_layout": null, "source": "richmond_structures", "source_updated": "2026-09-08T12:07:13.637000Z", "base_z": null, "top_z": null }, "geometry": { "type": "Polygon", "coordinates": [ [ [ 283352.93, 4157165.43 ], [ 283352.99, 4157166.92 ], [ 283354.58, 4157166.86 ], [ 283354.46, 4157163.62 ], [ 283353.38, 4157163.66 ], [ 283353.44, 4157165.41 ], [ 283352.93, 4157165.43 ] ] ] } },
{ "type": "Feature", "properties": { "id": "richmond_structure:272720", "name": null, "kind": "deck", "sport": null, "surface": null, "pitch_layout": null, "source": "richmond_structures", "source_updated": "2026-09-08T12:07:13.637000Z", "base_z": null, "top_z": null }, "geometry": { "type": "Polygon", "coordinates": [ [ [ 283353.12, 4157170.02 ], [ 283353.18, 4157171.52 ], [ 283354.75, 4157171.46 ], [ 283354.63, 4157168.22 ], [ 283353.56, 4157168.26 ], [ 283353.63, 4157170.0 ], [ 283353.12, 4157170.02 ] ] ] } },
{ "type": "Feature", "properties": { "id": "osm:way/822783211", "name": null, "kind": "grass", "sport": null, "surface": null, "pitch_layout": null, "source": null, "source_updated": null, "base_z": null, "top_z": null }, "geometry": { "type": "Polygon", "coordinates": [ [ [ 283472.5, 4157090.1 ], [ 283500.0, 4157090.72 ], [ 283500.0, 4157050.72 ], [ 283482.36, 4157049.0 ], [ 283409.11, 4157046.53 ], [ 283411.45, 4157052.04 ], [ 283412.28, 4157060.07 ], [ 283411.0, 4157070.64 ], [ 283409.3, 4157077.19 ], [ 283401.19, 4157081.16 ], [ 283388.87, 4157080.82 ], [ 283414.83, 4157086.34 ], [ 283472.5, 4157090.1 ] ] ] } },
{ "type": "Feature", "properties": { "id": "richmond_structure:408028", "name": null, "kind": "deck", "sport": null, "surface": null, "pitch_layout": null, "source": "richmond_structures", "source_updated": "2026-09-08T12:07:13.637000Z", "base_z": null, "top_z": null }, "geometry": { "type": "Polygon", "coordinates": [ [ [ 283461.99, 4157142.9 ], [ 283461.83, 4157138.54 ], [ 283460.28, 4157138.6 ], [ 283460.44, 4157142.94 ], [ 283461.99, 4157142.9 ] ] ] } },
{ "type": "Feature", "properties": { "id": "richmond_structure:408557", "name": null, "kind": "deck", "sport": null, "surface": null, "pitch_layout": null, "source": "richmond_structures", "source_updated": "2026-09-08T12:07:13.637000Z", "base_z": null, "top_z": null }, "geometry": { "type": "Polygon", "coordinates": [ [ [ 283500.0, 4157149.24 ], [ 283500.0, 4157146.95 ], [ 283495.21, 4157147.14 ], [ 283495.3, 4157149.42 ], [ 283500.0, 4157149.24 ] ] ] } },
{ "type": "Feature", "properties": { "id": "richmond_structure:408030", "name": null, "kind": "deck", "sport": null, "surface": null, "pitch_layout": null, "source": "richmond_structures", "source_updated": "2026-09-08T12:07:13.637000Z", "base_z": null, "top_z": null }, "geometry": { "type": "Polygon", "coordinates": [ [ [ 283462.27, 4157150.36 ], [ 283462.16, 4157147.49 ], [ 283459.78, 4157147.45 ], [ 283459.89, 4157150.45 ], [ 283462.27, 4157150.36 ] ] ] } },
{ "type": "Feature", "properties": { "id": "richmond_structure:408031", "name": null, "kind": "deck", "sport": null, "surface": null, "pitch_layout": null, "source": "richmond_structures", "source_updated": "2026-09-08T12:07:13.637000Z", "base_z": null, "top_z": null }, "geometry": { "type": "Polygon", "coordinates": [ [ [ 283462.44, 4157155.05 ], [ 283462.29, 4157151.06 ], [ 283459.92, 4157151.15 ], [ 283460.07, 4157155.14 ], [ 283462.44, 4157155.05 ] ] ] } },
{ "type": "Feature", "properties": { "id": "imagery:groundcover_paved:2605", "name": null, "kind": "groundcover_paved", "sport": null, "surface": null, "pitch_layout": null, "source": "vgin_vbmp+naip+lidar2025", "source_updated": null, "base_z": null, "top_z": null }, "geometry": { "type": "Polygon", "coordinates": [ [ [ 283455.18, 4157181.93 ], [ 283455.15, 4157182.18 ], [ 283458.64, 4157182.03 ], [ 283456.67, 4157140.16 ], [ 283456.13, 4157139.63 ], [ 283453.36, 4157139.63 ], [ 283455.18, 4157181.63 ], [ 283455.18, 4157181.93 ] ] ] } },
{ "type": "Feature", "properties": { "id": "richmond_structure:408033", "name": null, "kind": "deck", "sport": null, "surface": null, "pitch_layout": null, "source": "richmond_structures", "source_updated": "2026-09-08T12:07:13.637000Z", "base_z": null, "top_z": null }, "geometry": { "type": "Polygon", "coordinates": [ [ [ 283460.39, 4157163.77 ], [ 283462.76, 4157163.61 ], [ 283462.62, 4157159.89 ], [ 283460.25, 4157159.98 ], [ 283460.39, 4157163.77 ] ] ] } },
{ "type": "Feature", "properties": { "id": "richmond_structure:272721", "name": null, "kind": "deck", "sport": null, "surface": null, "pitch_layout": null, "source": "richmond_structures", "source_updated": "2026-09-08T12:07:13.637000Z", "base_z": null, "top_z": null }, "geometry": { "type": "Polygon", "coordinates": [ [ [ 283496.69, 4157175.57 ], [ 283498.94, 4157175.48 ], [ 283498.71, 4157169.83 ], [ 283496.46, 4157169.92 ], [ 283496.69, 4157175.57 ] ] ] } },
{ "type": "Feature", "properties": { "id": "richmond_structure:272722", "name": null, "kind": "deck", "sport": null, "surface": null, "pitch_layout": null, "source": "richmond_structures", "source_updated": "2026-09-08T12:07:13.637000Z", "base_z": null, "top_z": null }, "geometry": { "type": "Polygon", "coordinates": [ [ [ 283496.92, 4157181.28 ], [ 283499.17, 4157181.19 ], [ 283498.94, 4157175.48 ], [ 283496.69, 4157175.57 ], [ 283496.92, 4157181.28 ] ] ] } },
{ "type": "Feature", "properties": { "id": "richmond_structure:408043", "name": null, "kind": "deck", "sport": null, "surface": null, "pitch_layout": null, "source": "richmond_structures", "source_updated": "2026-09-08T12:07:13.637000Z", "base_z": null, "top_z": null }, "geometry": { "type": "Polygon", "coordinates": [ [ [ 283458.42, 4157231.88 ], [ 283453.69, 4157232.77 ], [ 283453.8, 4157235.71 ], [ 283461.2, 4157235.42 ], [ 283460.98, 4157230.01 ], [ 283458.38, 4157230.03 ], [ 283458.42, 4157231.88 ] ] ] } },
{ "type": "Feature", "properties": { "id": "richmond_structure:272885", "name": null, "kind": "deck", "sport": null, "surface": null, "pitch_layout": null, "source": "richmond_structures", "source_updated": "2026-09-08T12:07:13.637000Z", "base_z": null, "top_z": null }, "geometry": { "type": "Polygon", "coordinates": [ [ [ 283363.66, 4157190.13 ], [ 283363.54, 4157192.02 ], [ 283365.67, 4157191.95 ], [ 283365.74, 4157190.14 ], [ 283363.66, 4157190.13 ] ] ] } },
{ "type": "Feature", "properties": { "id": "richmond_structure:272884", "name": null, "kind": "deck", "sport": null, "surface": null, "pitch_layout": null, "source": "richmond_structures", "source_updated": "2026-09-08T12:07:13.637000Z", "base_z": null, "top_z": null }, "geometry": { "type": "Polygon", "coordinates": [ [ [ 283357.21, 4157190.33 ], [ 283357.02, 4157190.89 ], [ 283356.05, 4157190.92 ], [ 283356.07, 4157192.29 ], [ 283359.03, 4157192.18 ], [ 283358.99, 4157190.31 ], [ 283357.21, 4157190.33 ] ] ] } },
{ "type": "Feature", "properties": { "id": "richmond_structure:272886", "name": null, "kind": "deck", "sport": null, "surface": null, "pitch_layout": null, "source": "richmond_structures", "source_updated": "2026-09-08T12:07:13.637000Z", "base_z": null, "top_z": null }, "geometry": { "type": "Polygon", "coordinates": [ [ [ 283350.98, 4157190.77 ], [ 283351.11, 4157192.47 ], [ 283352.97, 4157192.4 ], [ 283352.85, 4157190.7 ], [ 283350.98, 4157190.77 ] ] ] } },
{ "type": "Feature", "properties": { "id": "osm:way/264479487", "name": "Oregon Hill Park", "kind": "park", "sport": null, "surface": null, "pitch_layout": null, "source": null, "source_updated": null, "base_z": null, "top_z": null }, "geometry": { "type": "Polygon", "coordinates": [ [ [ 283427.41, 4157092.08 ], [ 283373.05, 4157086.18 ], [ 283315.84, 4157072.97 ], [ 283271.18, 4157066.58 ], [ 283258.07, 4157068.91 ], [ 283259.88, 4157107.42 ], [ 283483.34, 4157111.36 ], [ 283484.06, 4157128.12 ], [ 283500.0, 4157127.6 ], [ 283500.0, 4157095.85 ], [ 283482.72, 4157095.73 ], [ 283427.41, 4157092.08 ] ] ] } },
{ "type": "Feature", "properties": { "id": "imagery:groundcover_lawn:2588", "name": null, "kind": "groundcover_lawn", "sport": null, "surface": null, "pitch_layout": null, "source": "vgin_vbmp+naip+lidar2025", "source_updated": null, "base_z": null, "top_z": null }, "geometry": { "type": "Polygon", "coordinates": [ [ [ 283359.2, 4157212.02 ], [ 283360.3, 4157212.38 ], [ 283360.41, 4157212.48 ], [ 283369.17, 4157212.14 ], [ 283369.5, 4157211.34 ], [ 283369.44, 4157209.26 ], [ 283331.86, 4157210.8 ], [ 283332.37, 4157212.35 ], [ 283334.15, 4157213.5 ], [ 283350.9, 4157212.85 ], [ 283359.2, 4157212.02 ] ] ] } },
{ "type": "Feature", "properties": { "id": "richmond_structure:272723", "name": null, "kind": "deck", "sport": null, "surface": null, "pitch_layout": null, "source": "richmond_structures", "source_updated": "2026-09-08T12:07:13.637000Z", "base_z": null, "top_z": null }, "geometry": { "type": "Polygon", "coordinates": [ [ [ 283404.74, 4157231.03 ], [ 283412.16, 4157230.76 ], [ 283412.09, 4157228.87 ], [ 283404.67, 4157229.15 ], [ 283404.74, 4157231.03 ] ] ] } },
{ "type": "Feature", "properties": { "id": "richmond_structure:272891", "name": null, "kind": "deck", "sport": null, "surface": null, "pitch_layout": null, "source": "richmond_structures", "source_updated": "2026-09-08T12:07:13.637000Z", "base_z": null, "top_z": null }, "geometry": { "type": "Polygon", "coordinates": [ [ [ 283398.47, 4157241.94 ], [ 283399.08, 4157248.78 ], [ 283404.65, 4157248.74 ], [ 283404.49, 4157245.86 ], [ 283400.69, 4157246.09 ], [ 283400.43, 4157241.82 ], [ 283398.47, 4157241.94 ] ] ] } },
{ "type": "Feature", "properties": { "id": "richmond_structure:272827", "name": null, "kind": "deck", "sport": null, "surface": null, "pitch_layout": null, "source": "richmond_structures", "source_updated": "2026-09-08T12:07:13.637000Z", "base_z": null, "top_z": null }, "geometry": { "type": "Polygon", "coordinates": [ [ [ 283498.44, 4157236.29 ], [ 283500.0, 4157236.28 ], [ 283500.0, 4157231.52 ], [ 283498.29, 4157231.58 ], [ 283498.44, 4157236.29 ] ] ] } },
{ "type": "Feature", "properties": { "id": "richmond_structure:408045", "name": null, "kind": "deck", "sport": null, "surface": null, "pitch_layout": null, "source": "richmond_structures", "source_updated": "2026-09-08T12:07:13.637000Z", "base_z": null, "top_z": null }, "geometry": { "type": "Polygon", "coordinates": [ [ [ 283461.35, 4157239.4 ], [ 283458.93, 4157239.49 ], [ 283458.89, 4157238.47 ], [ 283456.45, 4157238.57 ], [ 283456.53, 4157240.59 ], [ 283462.01, 4157240.38 ], [ 283461.98, 4157239.77 ], [ 283461.37, 4157239.8 ], [ 283461.35, 4157239.4 ] ] ] } },
{ "type": "Feature", "properties": { "id": "richmond_structure:272839", "name": null, "kind": "deck", "sport": null, "surface": null, "pitch_layout": null, "source": "richmond_structures", "source_updated": "2026-09-08T12:07:13.637000Z", "base_z": null, "top_z": null }, "geometry": { "type": "Polygon", "coordinates": [ [ [ 283445.53, 4157241.11 ], [ 283445.46, 4157239.27 ], [ 283442.27, 4157239.39 ], [ 283442.35, 4157241.24 ], [ 283445.53, 4157241.11 ] ] ] } },
{ "type": "Feature", "properties": { "id": "richmond_structure:408049", "name": null, "kind": "deck", "sport": null, "surface": null, "pitch_layout": null, "source": "richmond_structures", "source_updated": "2026-09-08T12:07:13.637000Z", "base_z": null, "top_z": null }, "geometry": { "type": "Polygon", "coordinates": [ [ [ 283478.66, 4157243.67 ], [ 283477.0, 4157243.74 ], [ 283477.23, 4157249.07 ], [ 283479.54, 4157248.97 ], [ 283479.44, 4157246.59 ], [ 283478.78, 4157246.61 ], [ 283478.66, 4157243.67 ] ] ] } },
{ "type": "Feature", "properties": { "id": "richmond_structure:408050", "name": null, "kind": "deck", "sport": null, "surface": null, "pitch_layout": null, "source": "richmond_structures", "source_updated": "2026-09-08T12:07:13.637000Z", "base_z": null, "top_z": null }, "geometry": { "type": "Polygon", "coordinates": [ [ [ 283456.13, 4157245.58 ], [ 283453.98, 4157245.68 ], [ 283454.16, 4157250.0 ], [ 283454.42, 4157250.0 ], [ 283458.57, 4157249.82 ], [ 283458.27, 4157242.96 ], [ 283456.02, 4157242.96 ], [ 283456.13, 4157245.58 ] ] ] } },
{ "type": "Feature", "properties": { "id": "richmond_structure:272900", "name": null, "kind": "deck", "sport": null, "surface": null, "pitch_layout": null, "source": "richmond_structures", "source_updated": "2026-09-08T12:07:13.637000Z", "base_z": null, "top_z": null }, "geometry": { "type": "Polygon", "coordinates": [ [ [ 283334.21, 4157191.25 ], [ 283334.17, 4157193.07 ], [ 283336.16, 4157193.0 ], [ 283336.23, 4157191.28 ], [ 283334.21, 4157191.25 ] ] ] } },
{ "type": "Feature", "properties": { "id": "osm:way/822396327", "name": null, "kind": "pitch", "sport": "basketball", "surface": null, "pitch_layout": { "cx": 283292.48853102763, "cy": 4157195.783445259, "ax": -0.9991078361032514, "ay": 0.04223188176104327, "hl": 11.688889881570812, "hs": 7.593995434877968 }, "source": null, "source_updated": null, "base_z": null, "top_z": null }, "geometry": { "type": "Polygon", "coordinates": [ [ [ 283280.49, 4157188.69 ], [ 283281.14, 4157203.86 ], [ 283304.49, 4157202.88 ], [ 283303.84, 4157187.7 ], [ 283280.49, 4157188.69 ] ] ] } },
{ "type": "Feature", "properties": { "id": "osm:way/252837456", "name": "Holly Street Park", "kind": "park", "sport": null, "surface": null, "pitch_layout": null, "source": null, "source_updated": null, "base_z": null, "top_z": null }, "geometry": { "type": "Polygon", "coordinates": [ [ [ 283275.89, 4157245.38 ], [ 283323.41, 4157241.26 ], [ 283319.18, 4157146.27 ], [ 283271.32, 4157148.16 ], [ 283275.89, 4157245.38 ] ] ] } },
{ "type": "Feature", "properties": { "id": "richmond_structure:424899", "name": null, "kind": "deck", "sport": null, "surface": null, "pitch_layout": null, "source": "richmond_structures", "source_updated": "2026-09-08T12:07:13.637000Z", "base_z": null, "top_z": null }, "geometry": { "type": "Polygon", "coordinates": [ [ [ 283314.32, 4157234.41 ], [ 283317.02, 4157234.24 ], [ 283316.76, 4157230.04 ], [ 283314.06, 4157230.21 ], [ 283314.32, 4157234.41 ] ] ] } },
{ "type": "Feature", "properties": { "id": "osm:way/822396328", "name": null, "kind": "park", "sport": null, "surface": null, "pitch_layout": null, "source": null, "source_updated": null, "base_z": null, "top_z": null }, "geometry": { "type": "Polygon", "coordinates": [ [ [ 283310.29, 4157240.91 ], [ 283313.43, 4157238.52 ], [ 283314.22, 4157230.67 ], [ 283307.69, 4157226.45 ], [ 283297.73, 4157225.93 ], [ 283293.94, 4157229.11 ], [ 283296.21, 4157239.85 ], [ 283304.12, 4157242.06 ], [ 283310.29, 4157240.91 ] ] ] } },
{ "type": "Feature", "properties": { "id": "osm:way/76362268", "name": "Hollywood Cemetery", "kind": "cemetery", "sport": null, "surface": null, "pitch_layout": null, "source": null, "source_updated": null, "base_z": null, "top_z": null }, "geometry": { "type": "Polygon", "coordinates": [ [ [ 283250.0, 4157048.9 ], [ 283250.0, 4157250.0 ], [ 283266.3, 4157250.0 ], [ 283256.8, 4157050.8 ], [ 283250.0, 4157048.9 ] ] ] } },
{ "type": "Feature", "properties": { "id": "imagery:groundcover_lawn:2823", "name": null, "kind": "groundcover_lawn", "sport": null, "surface": null, "pitch_layout": null, "source": "vgin_vbmp+naip+lidar2025", "source_updated": null, "base_z": null, "top_z": null }, "geometry": { "type": "MultiPolygon", "coordinates": [ [ [ [ 283258.36, 4157075.23 ], [ 283258.07, 4157068.91 ], [ 283261.28, 4157068.34 ], [ 283262.88, 4157064.6 ], [ 283263.65, 4157062.75 ], [ 283263.73, 4157062.57 ], [ 283263.84, 4157062.4 ], [ 283263.96, 4157062.25 ], [ 283264.1, 4157062.11 ], [ 283266.19, 4157060.2 ], [ 283266.3, 4157060.1 ], [ 283266.42, 4157060.02 ], [ 283266.55, 4157059.94 ], [ 283267.27, 4157059.56 ], [ 283267.25, 4157059.5 ], [ 283264.46, 4157054.88 ], [ 283264.42, 4157054.82 ], [ 283264.39, 4157054.76 ], [ 283264.38, 4157054.74 ], [ 283264.37, 4157054.72 ], [ 283264.35, 4157054.66 ], [ 283264.32, 4157054.59 ], [ 283260.93, 4157045.77 ], [ 283251.49, 4157045.72 ], [ 283251.34, 4157045.71 ], [ 283251.2, 4157045.69 ], [ 283251.06, 4157045.65 ], [ 283250.0, 4157045.34 ], [ 283250.0, 4157048.9 ], [ 283256.8, 4157050.8 ], [ 283258.19, 4157080.07 ], [ 283258.55, 4157079.21 ], [ 283258.44, 4157076.75 ], [ 283258.43, 4157076.75 ], [ 283258.36, 4157076.59 ], [ 283258.3, 4157076.42 ], [ 283258.26, 4157076.25 ], [ 283258.24, 4157076.08 ], [ 283258.23, 4157075.9 ], [ 283258.24, 4157075.72 ], [ 283258.27, 4157075.55 ], [ 283258.31, 4157075.38 ], [ 283258.36, 4157075.23 ] ] ], [ [ [ 283500.0, 4157022.77 ], [ 283492.67, 4157019.84 ], [ 283491.55, 4157019.63 ], [ 283420.39, 4157019.63 ], [ 283500.0, 4157023.73 ], [ 283500.0, 4157022.77 ] ] ], [ [ [ 283300.68, 4157034.99 ], [ 283331.44, 4157037.41 ], [ 283331.56, 4157037.42 ], [ 283331.67, 4157037.44 ], [ 283341.57, 4157039.72 ], [ 283365.42, 4157040.79 ], [ 283399.7, 4157042.43 ], [ 283408.28, 4157042.84 ], [ 283428.4, 4157043.79 ], [ 283452.51, 4157044.69 ], [ 283452.53, 4157044.68 ], [ 283452.58, 4157044.65 ], [ 283452.6, 4157044.64 ], [ 283452.63, 4157044.63 ], [ 283452.68, 4157044.61 ], [ 283452.74, 4157044.59 ], [ 283452.77, 4157044.58 ], [ 283452.79, 4157044.57 ], [ 283452.85, 4157044.55 ], [ 283452.91, 4157044.53 ], [ 283452.94, 4157044.53 ], [ 283452.96, 4157044.52 ], [ 283453.02, 4157044.51 ], [ 283453.08, 4157044.5 ], [ 283453.11, 4157044.49 ], [ 283453.14, 4157044.49 ], [ 283453.2, 4157044.48 ], [ 283453.26, 4157044.48 ], [ 283453.29, 4157044.48 ], [ 283453.31, 4157044.47 ], [ 283262.34, 4157026.29 ], [ 283258.63, 4157011.28 ], [ 283291.92, 4157012.99 ], [ 283291.81, 4157012.68 ], [ 283288.97, 4157010.63 ], [ 283259.37, 4157010.63 ], [ 283257.25, 4157011.5 ], [ 283256.87, 4157011.89 ], [ 283257.44, 4157013.03 ], [ 283257.54, 4157013.25 ], [ 283257.6, 4157013.48 ], [ 283259.63, 4157022.14 ], [ 283261.46, 4157028.74 ], [ 283268.02, 4157030.16 ], [ 283291.35, 4157034.25 ], [ 283300.68, 4157034.99 ] ] ], [ [ [ 283260.22, 4157031.91 ], [ 283260.02, 4157031.96 ], [ 283259.82, 4157031.98 ], [ 283259.62, 4157031.99 ], [ 283259.42, 4157031.97 ], [ 283259.33, 4157031.96 ], [ 283261.42, 4157037.06 ], [ 283261.44, 4157037.09 ], [ 283263.44, 4157042.29 ], [ 283267.58, 4157041.13 ], [ 283267.75, 4157041.09 ], [ 283286.78, 4157038.05 ], [ 283290.41, 4157037.23 ], [ 283267.46, 4157033.21 ], [ 283267.4, 4157033.2 ], [ 283260.65, 4157031.74 ], [ 283260.59, 4157031.77 ], [ 283260.41, 4157031.85 ], [ 283260.22, 4157031.91 ] ] ], [ [ [ 283258.08, 4157038.41 ], [ 283255.32, 4157031.66 ], [ 283252.32, 4157032.38 ], [ 283252.3, 4157032.39 ], [ 283251.11, 4157032.65 ], [ 283250.0, 4157033.76 ], [ 283250.0, 4157042.11 ], [ 283251.72, 4157042.62 ], [ 283259.73, 4157042.66 ], [ 283258.08, 4157038.41 ] ] ], [ [ [ 283270.41, 4157057.79 ], [ 283270.44, 4157057.82 ], [ 283270.46, 4157057.86 ], [ 283270.48, 4157057.91 ], [ 283270.49, 4157057.94 ], [ 283270.51, 4157057.98 ], [ 283270.61, 4157058.22 ], [ 283271.54, 4157058.01 ], [ 283271.81, 4157057.78 ], [ 283277.29, 4157055.05 ], [ 283281.57, 4157051.9 ], [ 283281.71, 4157051.81 ], [ 283281.85, 4157051.74 ], [ 283281.95, 4157051.7 ], [ 283282.38, 4157051.12 ], [ 283283.96, 4157041.64 ], [ 283268.33, 4157044.14 ], [ 283264.56, 4157045.2 ], [ 283267.62, 4157053.15 ], [ 283270.4, 4157057.75 ], [ 283270.41, 4157057.79 ] ] ], [ [ [ 283321.28, 4157111.81 ], [ 283321.33, 4157111.86 ], [ 283321.37, 4157111.9 ], [ 283323.7, 4157114.36 ], [ 283323.73, 4157114.4 ], [ 283323.76, 4157114.43 ], [ 283323.87, 4157114.56 ], [ 283323.98, 4157114.68 ], [ 283324.0, 4157114.72 ], [ 283324.03, 4157114.75 ], [ 283324.12, 4157114.89 ], [ 283324.22, 4157115.03 ], [ 283324.24, 4157115.07 ], [ 283324.26, 4157115.11 ], [ 283324.34, 4157115.25 ], [ 283324.42, 4157115.38 ], [ 283365.75, 4157114.29 ], [ 283365.56, 4157109.29 ], [ 283318.97, 4157108.46 ], [ 283319.15, 4157108.66 ], [ 283320.38, 4157111.12 ], [ 283320.51, 4157111.2 ], [ 283320.63, 4157111.28 ], [ 283320.68, 4157111.32 ], [ 283320.74, 4157111.35 ], [ 283320.85, 4157111.44 ], [ 283320.97, 4157111.53 ], [ 283321.02, 4157111.57 ], [ 283321.07, 4157111.61 ], [ 283321.17, 4157111.71 ], [ 283321.28, 4157111.81 ] ] ], [ [ [ 283323.57, 4157247.44 ], [ 283323.28, 4157241.27 ], [ 283275.89, 4157245.38 ], [ 283271.33, 4157148.23 ], [ 283266.16, 4157148.39 ], [ 283265.86, 4157148.38 ], [ 283265.56, 4157148.34 ], [ 283265.27, 4157148.28 ], [ 283264.99, 4157148.19 ], [ 283264.71, 4157148.07 ], [ 283264.45, 4157147.92 ], [ 283264.21, 4157147.75 ], [ 283263.98, 4157147.56 ], [ 283263.77, 4157147.34 ], [ 283263.59, 4157147.11 ], [ 283263.42, 4157146.86 ], [ 283263.29, 4157146.59 ], [ 283263.18, 4157146.31 ], [ 283263.1, 4157146.03 ], [ 283263.04, 4157145.73 ], [ 283263.02, 4157145.43 ], [ 283262.94, 4157143.06 ], [ 283261.42, 4157142.92 ], [ 283261.19, 4157142.81 ], [ 283266.3, 4157250.0 ], [ 283323.73, 4157250.0 ], [ 283323.57, 4157247.49 ], [ 283323.57, 4157247.44 ] ] ], [ [ [ 283349.1, 4157228.78 ], [ 283349.16, 4157228.85 ], [ 283349.23, 4157228.93 ], [ 283349.28, 4157229.01 ], [ 283349.32, 4157229.1 ], [ 283349.36, 4157229.19 ], [ 283349.39, 4157229.28 ], [ 283349.41, 4157229.38 ], [ 283349.41, 4157229.48 ], [ 283349.47, 4157230.99 ], [ 283353.58, 4157231.33 ], [ 283353.53, 4157229.95 ], [ 283353.53, 4157229.85 ], [ 283353.54, 4157229.75 ], [ 283353.56, 4157229.66 ], [ 283353.59, 4157229.56 ], [ 283353.63, 4157229.47 ], [ 283353.68, 4157229.39 ], [ 283353.73, 4157229.3 ], [ 283353.79, 4157229.23 ], [ 283353.86, 4157229.16 ], [ 283353.94, 4157229.1 ], [ 283354.02, 4157229.05 ], [ 283354.11, 4157229.0 ], [ 283354.2, 4157228.96 ], [ 283354.3, 4157228.94 ], [ 283354.39, 4157228.92 ], [ 283354.49, 4157228.91 ], [ 283366.33, 4157228.47 ], [ 283366.43, 4157228.47 ], [ 283366.52, 4157228.48 ], [ 283366.62, 4157228.5 ], [ 283366.71, 4157228.53 ], [ 283366.8, 4157228.57 ], [ 283366.89, 4157228.62 ], [ 283366.97, 4157228.67 ], [ 283367.05, 4157228.73 ], [ 283367.11, 4157228.8 ], [ 283367.17, 4157228.88 ], [ 283367.23, 4157228.96 ], [ 283367.27, 4157229.05 ], [ 283367.31, 4157229.14 ], [ 283367.34, 4157229.24 ], [ 283367.36, 4157229.33 ], [ 283367.36, 4157229.43 ], [ 283367.52, 4157233.64 ], [ 283368.75, 4157234.97 ], [ 283369.13, 4157235.95 ], [ 283369.13, 4157243.09 ], [ 283369.02, 4157243.66 ], [ 283368.37, 4157245.23 ], [ 283368.04, 4157245.71 ], [ 283365.25, 4157248.5 ], [ 283365.25, 4157250.0 ], [ 283370.81, 4157250.0 ], [ 283369.9, 4157225.13 ], [ 283369.9, 4157225.12 ], [ 283369.85, 4157223.63 ], [ 283337.99, 4157223.63 ], [ 283335.3, 4157225.28 ], [ 283335.11, 4157225.66 ], [ 283336.96, 4157228.95 ], [ 283348.38, 4157228.52 ], [ 283348.48, 4157228.52 ], [ 283348.57, 4157228.53 ], [ 283348.67, 4157228.55 ], [ 283348.76, 4157228.58 ], [ 283348.85, 4157228.62 ], [ 283348.94, 4157228.66 ], [ 283349.02, 4157228.72 ], [ 283349.1, 4157228.78 ] ] ], [ [ [ 283335.84, 4157245.17 ], [ 283335.79, 4157245.05 ], [ 283335.21, 4157244.71 ], [ 283333.46, 4157242.57 ], [ 283333.13, 4157241.65 ], [ 283333.13, 4157232.89 ], [ 283332.38, 4157232.89 ], [ 283330.25, 4157229.63 ], [ 283328.85, 4157229.63 ], [ 283329.66, 4157247.13 ], [ 283329.84, 4157250.0 ], [ 283345.82, 4157250.0 ], [ 283344.28, 4157246.86 ], [ 283335.84, 4157245.17 ] ] ], [ [ [ 283456.84, 4157247.79 ], [ 283457.93, 4157243.43 ], [ 283457.88, 4157241.94 ], [ 283455.29, 4157238.63 ], [ 283452.16, 4157238.63 ], [ 283449.38, 4157240.51 ], [ 283445.58, 4157250.0 ], [ 283457.5, 4157250.0 ], [ 283456.93, 4157248.76 ], [ 283456.84, 4157247.79 ] ] ], [ [ [ 283409.28, 4157244.63 ], [ 283405.69, 4157244.63 ], [ 283405.71, 4157245.11 ], [ 283405.71, 4157245.2 ], [ 283405.7, 4157245.3 ], [ 283405.67, 4157245.4 ], [ 283405.64, 4157245.49 ], [ 283405.6, 4157245.58 ], [ 283405.56, 4157245.67 ], [ 283405.5, 4157245.75 ], [ 283405.44, 4157245.82 ], [ 283405.37, 4157245.89 ], [ 283405.29, 4157245.95 ], [ 283405.21, 4157246.0 ], [ 283405.12, 4157246.05 ], [ 283405.03, 4157246.08 ], [ 283404.93, 4157246.11 ], [ 283404.84, 4157246.13 ], [ 283404.74, 4157246.14 ], [ 283400.97, 4157246.24 ], [ 283400.88, 4157246.24 ], [ 283400.78, 4157246.23 ], [ 283400.68, 4157246.21 ], [ 283400.59, 4157246.18 ], [ 283400.5, 4157246.14 ], [ 283400.41, 4157246.09 ], [ 283400.33, 4157246.04 ], [ 283400.26, 4157245.97 ], [ 283400.19, 4157245.9 ], [ 283400.13, 4157245.83 ], [ 283400.08, 4157245.74 ], [ 283400.03, 4157245.66 ], [ 283400.0, 4157245.56 ], [ 283399.97, 4157245.47 ], [ 283399.95, 4157245.37 ], [ 283399.95, 4157245.28 ], [ 283399.93, 4157244.63 ], [ 283387.73, 4157244.63 ], [ 283387.41, 4157244.49 ], [ 283387.64, 4157250.0 ], [ 283413.82, 4157250.0 ], [ 283411.96, 4157246.28 ], [ 283409.28, 4157244.63 ] ] ] ] } }
]
}
