{
"type": "FeatureCollection",
"name": "landuse",
"crs": { "type": "name", "properties": { "name": "urn:ogc:def:crs:EPSG::32618" } },
"xy_coordinate_resolution": 0.01,
"features": [
{ "type": "Feature", "properties": { "id": "osm:way/76230682", "name": null, "kind": "forest", "source": null, "source_updated": null, "base_z": null, "top_z": null }, "geometry": { "type": "Polygon", "coordinates": [ [ [ 284380.4, 4156504.01 ], [ 284382.06, 4156502.21 ], [ 284383.22, 4156500.77 ], [ 284383.5, 4156500.0 ], [ 284346.51, 4156500.0 ], [ 284345.65, 4156502.87 ], [ 284361.51, 4156510.48 ], [ 284379.19, 4156506.23 ], [ 284380.4, 4156504.01 ] ] ] } },
{ "type": "Feature", "properties": { "id": "osm:way/823013648", "name": null, "kind": "forest", "source": null, "source_updated": null, "base_z": null, "top_z": null }, "geometry": { "type": "Polygon", "coordinates": [ [ [ 284469.37, 4156680.2 ], [ 284466.04, 4156674.72 ], [ 284461.17, 4156671.68 ], [ 284458.49, 4156672.51 ], [ 284457.39, 4156675.13 ], [ 284457.87, 4156683.7 ], [ 284458.71, 4156689.23 ], [ 284462.53, 4156693.69 ], [ 284466.53, 4156698.63 ], [ 284467.28, 4156699.58 ], [ 284471.07, 4156701.16 ], [ 284472.72, 4156700.46 ], [ 284473.81, 4156699.18 ], [ 284474.63, 4156698.81 ], [ 284474.23, 4156692.8 ], [ 284470.59, 4156686.27 ], [ 284469.37, 4156680.2 ] ] ] } }
]
}
