{
"type": "FeatureCollection",
"name": "buildings",
"crs": { "type": "name", "properties": { "name": "urn:ogc:def:crs:EPSG::32618" } },
"xy_coordinate_resolution": 0.01,
"features": [
{ "type": "Feature", "properties": { "id": "osm:way/1493273533", "name": null, "height": 5.19, "min_height": 0.0, "levels": null, "height_source": "lidar", "roof_shape": "flat", "roof_height": 7.06, "roof_azimuth": null, "roof_source": "lod2", "roof_color": "slate", "roof_color_source": "ortho", "lod2_roof": { "v": [ [ 282295.19, 4160104.34, 7.06 ], [ 282295.19, 4160104.34, 0.0 ], [ 282293.87, 4160103.65, 7.02 ], [ 282301.67, 4160100.98, 6.03 ], [ 282299.88, 4160101.91, 0.22 ], [ 282299.88, 4160101.91, 6.32 ], [ 282298.87, 4160099.71, 5.99 ], [ 282302.68, 4160108.21, 0.0 ], [ 282304.45, 4160104.02, 0.23 ] ], "f": [ [ [ 5, 0, 2, 6, 3 ] ], [ [ 8, 7, 1, 4 ] ], [ [ 5, 4, 1, 0 ] ] ] }, "roof_props": null, "wall_color": "concrete", "type": "roof", "landmark": null, "footprint_source": "osm", "source_updated": null, "is_part": true, "parent": "osm:way/252997396", "hidden": false, "addr": null, "wikidata": null, "website": null, "zoning": "B-4", "lidar_p90": 9.32, "ground_z": 61.35 }, "geometry": { "type": "Polygon", "coordinates": [ [ [ 282293.87, 4160103.65 ], [ 282302.68, 4160108.21 ], [ 282305.08, 4160102.54 ], [ 282298.87, 4160099.71 ], [ 282293.87, 4160103.65 ] ] ] } },
{ "type": "Feature", "properties": { "id": "osm:way/1131760691", "name": null, "height": 4.63, "min_height": 0.0, "levels": null, "height_source": "lidar", "roof_shape": "flat", "roof_height": 0.21, "roof_azimuth": null, "roof_source": "lod2", "roof_color": "roof_flat", "roof_color_source": "ortho", "lod2_roof": { "v": [ [ 282483.07, 4160214.08, 0.21 ], [ 282485.84, 4160209.11, 0.02 ], [ 282494.98, 4160220.68, 0.19 ], [ 282497.72, 4160215.78, 0.0 ] ], "f": [ [ [ 1, 3, 2, 0 ] ] ] }, "roof_props": null, "wall_color": "cream", "type": "yes", "landmark": null, "footprint_source": "osm", "source_updated": null, "is_part": false, "parent": null, "hidden": false, "addr": null, "wikidata": null, "website": null, "zoning": "TOD-1", "lidar_p90": 4.83, "ground_z": 59.02 }, "geometry": { "type": "Polygon", "coordinates": [ [ [ 282483.07, 4160214.08 ], [ 282494.97, 4160220.68 ], [ 282498.09, 4160215.12 ], [ 282486.19, 4160208.5 ], [ 282483.07, 4160214.08 ] ] ] } },
{ "type": "Feature", "properties": { "id": "richmond_structure:394937", "name": null, "height": 2.5, "min_height": 0.0, "levels": null, "height_source": "lidar", "roof_shape": "flat", "roof_height": 2.72, "roof_azimuth": null, "roof_source": "lod2", "roof_color": "roof_flat", "roof_color_source": "ortho", "lod2_roof": { "v": [ [ 282497.59, 4160195.56, 2.72 ], [ 282503.2, 4160198.45, 1.65 ], [ 282501.29, 4160202.18, 0.03 ], [ 282496.1, 4160199.51, 0.1 ], [ 282497.33, 4160197.22, 0.0 ], [ 282496.85, 4160197.0, 2.51 ], [ 282502.6, 4160199.62, 1.48 ], [ 282502.6, 4160199.62, 0.0 ], [ 282497.33, 4160197.22, 2.42 ] ], "f": [ [ [ 7, 2, 3, 4 ] ], [ [ 8, 5, 0, 1, 6 ] ], [ [ 6, 7, 4, 8 ] ] ] }, "roof_props": null, "wall_color": "sand", "type": "yes", "landmark": null, "footprint_source": "richmond_structures", "source_updated": "2026-09-08T12:07:13.637000Z", "is_part": false, "parent": null, "hidden": false, "addr": null, "wikidata": null, "website": null, "zoning": "TOD-1", "lidar_p90": 2.66, "ground_z": 59.34 }, "geometry": { "type": "Polygon", "coordinates": [ [ [ 282497.59, 4160195.56 ], [ 282495.68, 4160199.29 ], [ 282501.29, 4160202.18 ], [ 282503.2, 4160198.45 ], [ 282497.59, 4160195.56 ] ] ] } },
{ "type": "Feature", "properties": { "id": "osm:way/252997397", "name": "Midtown Green", "height": 9.03, "min_height": 0.0, "levels": null, "height_source": "lidar", "roof_shape": "flat", "roof_height": 0.0, "roof_azimuth": null, "roof_source": "heuristic", "roof_color": "roof_flat", "roof_color_source": "ortho", "lod2_roof": null, "roof_props": null, "wall_color": "concrete", "type": "yes", "landmark": null, "footprint_source": "osm", "source_updated": null, "is_part": false, "parent": null, "hidden": false, "addr": "2401 West Leigh Street", "wikidata": null, "website": null, "zoning": "B-4", "lidar_p90": 10.27, "ground_z": 61.81 }, "geometry": { "type": "Polygon", "coordinates": [ [ [ 282297.32, 4160176.71 ], [ 282303.56, 4160172.07 ], [ 282312.42, 4160176.91 ], [ 282309.82, 4160181.62 ], [ 282329.83, 4160192.57 ], [ 282332.27, 4160188.15 ], [ 282339.1, 4160191.89 ], [ 282337.03, 4160195.63 ], [ 282373.34, 4160215.52 ], [ 282385.9, 4160192.77 ], [ 282367.01, 4160182.43 ], [ 282368.91, 4160178.98 ], [ 282332.16, 4160158.84 ], [ 282326.35, 4160151.24 ], [ 282330.2, 4160149.85 ], [ 282320.35, 4160136.71 ], [ 282286.31, 4160162.03 ], [ 282297.32, 4160176.71 ] ] ] } }
]
}
