{
"type": "FeatureCollection",
"name": "landuse",
"crs": { "type": "name", "properties": { "name": "urn:ogc:def:crs:EPSG::32618" } },
"xy_coordinate_resolution": 0.01,
"features": [
{ "type": "Feature", "properties": { "id": "osm:way/45121685", "name": null, "kind": "industrial", "sport": null, "surface": null, "pitch_layout": null, "source": null, "source_updated": null, "base_z": null, "top_z": null }, "geometry": { "type": "Polygon", "coordinates": [ [ [ 283478.99, 4155250.0 ], [ 283500.0, 4155250.0 ], [ 283500.0, 4155000.0 ], [ 283314.8, 4155000.0 ], [ 283300.99, 4155172.49 ], [ 283478.99, 4155250.0 ] ] ] } },
{ "type": "Feature", "properties": { "id": "imagery:groundcover_lawn:3439", "name": null, "kind": "groundcover_lawn", "sport": null, "surface": null, "pitch_layout": null, "source": "vgin_vbmp+naip+lidar2025", "source_updated": null, "base_z": null, "top_z": null }, "geometry": { "type": "MultiPolygon", "coordinates": [ [ [ [ 283500.0, 4155012.13 ], [ 283500.0, 4155000.0 ], [ 283499.93, 4155000.0 ], [ 283498.99, 4155011.35 ], [ 283500.0, 4155012.13 ] ] ], [ [ [ 283498.39, 4155019.01 ], [ 283498.35, 4155019.05 ], [ 283498.22, 4155020.58 ], [ 283498.71, 4155022.5 ], [ 283500.0, 4155024.43 ], [ 283500.0, 4155016.92 ], [ 283498.45, 4155018.93 ], [ 283498.39, 4155019.01 ] ] ] ] } },
{ "type": "Feature", "properties": { "id": "imagery:groundcover_lawn:3335", "name": null, "kind": "groundcover_lawn", "sport": null, "surface": null, "pitch_layout": null, "source": "vgin_vbmp+naip+lidar2025", "source_updated": null, "base_z": null, "top_z": null }, "geometry": { "type": "Polygon", "coordinates": [ [ [ 283464.25, 4155143.75 ], [ 283466.37, 4155144.63 ], [ 283471.13, 4155144.63 ], [ 283474.13, 4155141.63 ], [ 283474.13, 4155139.87 ], [ 283473.25, 4155137.75 ], [ 283467.12, 4155131.62 ], [ 283467.03, 4155131.59 ], [ 283466.94, 4155131.55 ], [ 283466.85, 4155131.5 ], [ 283466.77, 4155131.45 ], [ 283464.93, 4155130.06 ], [ 283463.89, 4155129.63 ], [ 283462.13, 4155129.63 ], [ 283459.13, 4155132.63 ], [ 283459.13, 4155137.38 ], [ 283460.01, 4155139.5 ], [ 283464.25, 4155143.75 ] ] ] } },
{ "type": "Feature", "properties": { "id": "imagery:groundcover_lawn:3354", "name": null, "kind": "groundcover_lawn", "sport": null, "surface": null, "pitch_layout": null, "source": "vgin_vbmp+naip+lidar2025", "source_updated": null, "base_z": null, "top_z": null }, "geometry": { "type": "Polygon", "coordinates": [ [ [ 283371.59, 4155181.04 ], [ 283372.33, 4155182.57 ], [ 283374.3, 4155184.17 ], [ 283377.87, 4155185.06 ], [ 283377.9, 4155185.04 ], [ 283378.0, 4155185.01 ], [ 283378.09, 4155184.99 ], [ 283378.19, 4155184.98 ], [ 283378.29, 4155184.97 ], [ 283378.39, 4155184.98 ], [ 283378.48, 4155185.0 ], [ 283378.58, 4155185.02 ], [ 283378.67, 4155185.06 ], [ 283379.77, 4155185.53 ], [ 283380.4, 4155185.69 ], [ 283384.13, 4155182.78 ], [ 283384.13, 4155181.22 ], [ 283384.55, 4155180.2 ], [ 283386.71, 4155178.05 ], [ 283387.73, 4155177.63 ], [ 283395.53, 4155177.63 ], [ 283396.55, 4155178.05 ], [ 283398.71, 4155180.2 ], [ 283399.13, 4155181.22 ], [ 283399.13, 4155188.59 ], [ 283399.08, 4155188.99 ], [ 283398.76, 4155190.14 ], [ 283398.6, 4155190.51 ], [ 283392.86, 4155200.08 ], [ 283395.43, 4155204.63 ], [ 283396.13, 4155204.63 ], [ 283398.9, 4155202.77 ], [ 283399.55, 4155201.2 ], [ 283401.36, 4155199.4 ], [ 283403.9, 4155193.37 ], [ 283403.94, 4155193.28 ], [ 283403.99, 4155193.19 ], [ 283404.05, 4155193.11 ], [ 283404.12, 4155193.04 ], [ 283404.19, 4155192.98 ], [ 283404.27, 4155192.92 ], [ 283404.35, 4155192.87 ], [ 283404.44, 4155192.83 ], [ 283404.54, 4155192.8 ], [ 283404.63, 4155192.77 ], [ 283404.73, 4155192.76 ], [ 283404.83, 4155192.75 ], [ 283404.92, 4155192.76 ], [ 283405.02, 4155192.77 ], [ 283405.12, 4155192.8 ], [ 283405.21, 4155192.83 ], [ 283409.42, 4155194.6 ], [ 283409.51, 4155194.64 ], [ 283409.59, 4155194.69 ], [ 283409.67, 4155194.75 ], [ 283409.74, 4155194.82 ], [ 283409.81, 4155194.89 ], [ 283409.87, 4155194.97 ], [ 283409.92, 4155195.05 ], [ 283409.96, 4155195.14 ], [ 283409.99, 4155195.23 ], [ 283410.01, 4155195.33 ], [ 283410.03, 4155195.43 ], [ 283410.03, 4155195.53 ], [ 283410.03, 4155195.62 ], [ 283410.01, 4155195.72 ], [ 283409.99, 4155195.82 ], [ 283409.96, 4155195.91 ], [ 283408.81, 4155198.63 ], [ 283411.02, 4155198.63 ], [ 283411.79, 4155196.8 ], [ 283411.83, 4155196.71 ], [ 283411.89, 4155196.63 ], [ 283411.94, 4155196.55 ], [ 283412.01, 4155196.48 ], [ 283412.08, 4155196.41 ], [ 283412.16, 4155196.35 ], [ 283412.25, 4155196.3 ], [ 283412.34, 4155196.26 ], [ 283412.43, 4155196.23 ], [ 283412.53, 4155196.21 ], [ 283412.62, 4155196.19 ], [ 283412.72, 4155196.19 ], [ 283412.82, 4155196.2 ], [ 283412.92, 4155196.21 ], [ 283413.01, 4155196.24 ], [ 283413.1, 4155196.27 ], [ 283418.2, 4155198.44 ], [ 283418.29, 4155198.48 ], [ 283418.37, 4155198.53 ], [ 283418.45, 4155198.59 ], [ 283418.52, 4155198.65 ], [ 283418.59, 4155198.73 ], [ 283418.65, 4155198.81 ], [ 283418.7, 4155198.89 ], [ 283418.74, 4155198.98 ], [ 283418.77, 4155199.07 ], [ 283418.79, 4155199.17 ], [ 283418.81, 4155199.27 ], [ 283418.81, 4155199.36 ], [ 283418.8, 4155199.46 ], [ 283418.79, 4155199.56 ], [ 283418.76, 4155199.65 ], [ 283418.73, 4155199.75 ], [ 283416.15, 4155205.82 ], [ 283417.25, 4155206.29 ], [ 283417.34, 4155206.33 ], [ 283417.42, 4155206.38 ], [ 283417.5, 4155206.44 ], [ 283417.57, 4155206.51 ], [ 283417.64, 4155206.58 ], [ 283417.69, 4155206.66 ], [ 283417.74, 4155206.75 ], [ 283417.78, 4155206.84 ], [ 283417.82, 4155206.93 ], [ 283417.84, 4155207.02 ], [ 283417.85, 4155207.12 ], [ 283417.86, 4155207.22 ], [ 283417.85, 4155207.32 ], [ 283417.84, 4155207.41 ], [ 283417.81, 4155207.51 ], [ 283417.78, 4155207.6 ], [ 283416.87, 4155209.74 ], [ 283417.5, 4155210.85 ], [ 283421.1, 4155209.72 ], [ 283421.22, 4155209.54 ], [ 283426.5, 4155204.25 ], [ 283437.58, 4155189.87 ], [ 283435.98, 4155181.87 ], [ 283436.28, 4155180.69 ], [ 283438.36, 4155178.15 ], [ 283439.46, 4155177.63 ], [ 283447.0, 4155177.63 ], [ 283450.13, 4155173.56 ], [ 283450.13, 4155173.47 ], [ 283450.29, 4155172.81 ], [ 283451.17, 4155171.04 ], [ 283451.61, 4155170.52 ], [ 283453.66, 4155168.98 ], [ 283462.13, 4155157.98 ], [ 283462.13, 4155157.19 ], [ 283456.24, 4155152.15 ], [ 283451.13, 4155150.88 ], [ 283450.76, 4155150.73 ], [ 283449.72, 4155150.14 ], [ 283449.4, 4155149.89 ], [ 283439.17, 4155139.66 ], [ 283436.68, 4155138.81 ], [ 283419.62, 4155140.94 ], [ 283418.36, 4155140.44 ], [ 283416.13, 4155137.71 ], [ 283415.88, 4155136.38 ], [ 283419.3, 4155126.12 ], [ 283419.83, 4155125.4 ], [ 283421.91, 4155123.9 ], [ 283422.64, 4155123.67 ], [ 283423.55, 4155124.05 ], [ 283425.71, 4155126.2 ], [ 283426.18, 4155127.34 ], [ 283429.38, 4155129.16 ], [ 283444.96, 4155126.94 ], [ 283447.49, 4155124.46 ], [ 283448.91, 4155115.97 ], [ 283447.04, 4155114.39 ], [ 283446.97, 4155114.32 ], [ 283446.91, 4155114.25 ], [ 283446.85, 4155114.17 ], [ 283446.8, 4155114.08 ], [ 283446.76, 4155113.99 ], [ 283446.73, 4155113.9 ], [ 283446.71, 4155113.81 ], [ 283446.7, 4155113.71 ], [ 283446.69, 4155113.61 ], [ 283446.7, 4155113.51 ], [ 283446.71, 4155113.42 ], [ 283446.74, 4155113.32 ], [ 283446.77, 4155113.23 ], [ 283446.82, 4155113.14 ], [ 283446.87, 4155113.06 ], [ 283446.93, 4155112.98 ], [ 283449.2, 4155110.31 ], [ 283447.7, 4155107.81 ], [ 283444.76, 4155106.84 ], [ 283440.94, 4155108.81 ], [ 283440.88, 4155109.0 ], [ 283439.78, 4155110.64 ], [ 283438.39, 4155111.22 ], [ 283436.45, 4155110.83 ], [ 283435.7, 4155110.43 ], [ 283434.77, 4155109.5 ], [ 283432.65, 4155108.63 ], [ 283423.11, 4155108.63 ], [ 283422.19, 4155108.3 ], [ 283420.05, 4155106.54 ], [ 283419.55, 4155105.7 ], [ 283417.61, 4155096.04 ], [ 283414.67, 4155093.63 ], [ 283414.13, 4155093.63 ], [ 283411.13, 4155096.63 ], [ 283411.13, 4155096.99 ], [ 283410.86, 4155097.85 ], [ 283409.36, 4155099.93 ], [ 283408.63, 4155100.46 ], [ 283403.69, 4155102.1 ], [ 283401.73, 4155104.22 ], [ 283399.43, 4155113.45 ], [ 283399.24, 4155113.88 ], [ 283398.5, 4155115.05 ], [ 283398.2, 4155115.4 ], [ 283383.48, 4155127.67 ], [ 283381.42, 4155130.41 ], [ 283381.13, 4155131.03 ], [ 283381.13, 4155135.17 ], [ 283384.56, 4155138.14 ], [ 283398.57, 4155136.13 ], [ 283399.64, 4155136.41 ], [ 283402.08, 4155138.24 ], [ 283402.64, 4155139.19 ], [ 283404.48, 4155152.04 ], [ 283404.08, 4155153.24 ], [ 283401.73, 4155155.64 ], [ 283400.54, 4155156.05 ], [ 283382.33, 4155153.78 ], [ 283380.16, 4155154.35 ], [ 283373.36, 4155159.45 ], [ 283365.92, 4155169.04 ], [ 283363.05, 4155174.79 ], [ 283366.46, 4155179.04 ], [ 283367.73, 4155178.73 ], [ 283368.95, 4155178.98 ], [ 283371.59, 4155181.04 ] ] ] } },
{ "type": "Feature", "properties": { "id": "richmond_structure:242599", "name": null, "kind": "deck", "sport": null, "surface": null, "pitch_layout": null, "source": "richmond_structures", "source_updated": "2026-09-08T12:07:13.637000Z", "base_z": null, "top_z": null }, "geometry": { "type": "Polygon", "coordinates": [ [ [ 283379.35, 4155185.01 ], [ 283378.49, 4155186.99 ], [ 283393.1, 4155193.35 ], [ 283393.96, 4155191.38 ], [ 283379.35, 4155185.01 ] ] ] } },
{ "type": "Feature", "properties": { "id": "imagery:groundcover_lawn:3316", "name": null, "kind": "groundcover_lawn", "sport": null, "surface": null, "pitch_layout": null, "source": "vgin_vbmp+naip+lidar2025", "source_updated": null, "base_z": null, "top_z": null }, "geometry": { "type": "Polygon", "coordinates": [ [ [ 283449.12, 4155218.66 ], [ 283449.66, 4155218.06 ], [ 283451.04, 4155217.21 ], [ 283451.73, 4155215.79 ], [ 283451.78, 4155215.7 ], [ 283451.83, 4155215.62 ], [ 283451.9, 4155215.55 ], [ 283451.97, 4155215.48 ], [ 283452.04, 4155215.42 ], [ 283452.13, 4155215.36 ], [ 283452.21, 4155215.32 ], [ 283452.3, 4155215.28 ], [ 283452.4, 4155215.25 ], [ 283452.49, 4155215.24 ], [ 283452.59, 4155215.23 ], [ 283452.69, 4155215.23 ], [ 283452.79, 4155215.24 ], [ 283452.88, 4155215.26 ], [ 283452.98, 4155215.29 ], [ 283453.07, 4155215.33 ], [ 283457.4, 4155217.44 ], [ 283457.49, 4155217.48 ], [ 283457.57, 4155217.54 ], [ 283457.65, 4155217.6 ], [ 283457.71, 4155217.67 ], [ 283457.78, 4155217.75 ], [ 283457.83, 4155217.83 ], [ 283457.87, 4155217.92 ], [ 283457.91, 4155218.01 ], [ 283457.94, 4155218.1 ], [ 283457.96, 4155218.2 ], [ 283457.97, 4155218.3 ], [ 283457.96, 4155218.39 ], [ 283457.95, 4155218.49 ], [ 283457.93, 4155218.59 ], [ 283457.9, 4155218.68 ], [ 283457.86, 4155218.77 ], [ 283456.13, 4155222.33 ], [ 283456.13, 4155234.65 ], [ 283472.52, 4155242.08 ], [ 283473.12, 4155241.56 ], [ 283471.87, 4155235.34 ], [ 283472.11, 4155234.23 ], [ 283473.91, 4155231.68 ], [ 283474.88, 4155231.09 ], [ 283478.69, 4155230.55 ], [ 283482.96, 4155224.95 ], [ 283483.03, 4155224.87 ], [ 283483.1, 4155224.8 ], [ 283483.17, 4155224.74 ], [ 283483.26, 4155224.69 ], [ 283483.34, 4155224.64 ], [ 283483.43, 4155224.61 ], [ 283483.53, 4155224.58 ], [ 283483.62, 4155224.56 ], [ 283483.72, 4155224.55 ], [ 283483.82, 4155224.56 ], [ 283483.92, 4155224.57 ], [ 283484.01, 4155224.59 ], [ 283484.11, 4155224.62 ], [ 283484.2, 4155224.65 ], [ 283484.28, 4155224.7 ], [ 283484.36, 4155224.76 ], [ 283489.72, 4155228.8 ], [ 283492.13, 4155226.02 ], [ 283492.13, 4155212.66 ], [ 283490.25, 4155209.87 ], [ 283480.07, 4155205.8 ], [ 283479.31, 4155205.11 ], [ 283478.01, 4155202.57 ], [ 283477.9, 4155201.56 ], [ 283478.81, 4155197.93 ], [ 283474.95, 4155194.35 ], [ 283466.77, 4155197.08 ], [ 283465.49, 4155196.89 ], [ 283462.72, 4155194.89 ], [ 283462.13, 4155193.74 ], [ 283462.13, 4155186.63 ], [ 283459.13, 4155183.63 ], [ 283457.37, 4155183.63 ], [ 283455.25, 4155184.5 ], [ 283449.87, 4155189.89 ], [ 283447.51, 4155192.96 ], [ 283447.13, 4155193.87 ], [ 283447.13, 4155195.63 ], [ 283448.98, 4155198.4 ], [ 283450.55, 4155199.05 ], [ 283452.71, 4155201.2 ], [ 283453.13, 4155202.22 ], [ 283453.13, 4155203.09 ], [ 283452.59, 4155204.21 ], [ 283449.95, 4155206.27 ], [ 283448.73, 4155206.53 ], [ 283444.18, 4155205.39 ], [ 283440.51, 4155207.71 ], [ 283438.65, 4155217.03 ], [ 283440.64, 4155220.46 ], [ 283444.66, 4155221.8 ], [ 283448.29, 4155220.3 ], [ 283449.12, 4155218.66 ] ], [ [ 283477.11, 4155217.2 ], [ 283477.05, 4155217.28 ], [ 283476.99, 4155217.35 ], [ 283476.91, 4155217.42 ], [ 283476.83, 4155217.47 ], [ 283476.75, 4155217.52 ], [ 283476.66, 4155217.56 ], [ 283476.57, 4155217.6 ], [ 283476.47, 4155217.62 ], [ 283476.37, 4155217.63 ], [ 283476.27, 4155217.63 ], [ 283476.18, 4155217.63 ], [ 283476.08, 4155217.61 ], [ 283475.99, 4155217.59 ], [ 283475.89, 4155217.55 ], [ 283475.81, 4155217.51 ], [ 283475.72, 4155217.46 ], [ 283473.84, 4155216.15 ], [ 283473.76, 4155216.09 ], [ 283473.69, 4155216.03 ], [ 283473.63, 4155215.95 ], [ 283473.57, 4155215.87 ], [ 283473.52, 4155215.79 ], [ 283473.48, 4155215.7 ], [ 283473.45, 4155215.61 ], [ 283473.43, 4155215.51 ], [ 283473.41, 4155215.41 ], [ 283473.41, 4155215.31 ], [ 283473.42, 4155215.22 ], [ 283473.43, 4155215.12 ], [ 283473.46, 4155215.03 ], [ 283473.49, 4155214.93 ], [ 283473.54, 4155214.85 ], [ 283473.59, 4155214.76 ], [ 283479.15, 4155206.73 ], [ 283479.21, 4155206.65 ], [ 283479.28, 4155206.58 ], [ 283479.35, 4155206.52 ], [ 283479.43, 4155206.46 ], [ 283479.51, 4155206.41 ], [ 283479.6, 4155206.37 ], [ 283479.7, 4155206.34 ], [ 283479.79, 4155206.31 ], [ 283479.89, 4155206.3 ], [ 283479.99, 4155206.3 ], [ 283480.09, 4155206.31 ], [ 283480.18, 4155206.32 ], [ 283480.28, 4155206.35 ], [ 283480.37, 4155206.38 ], [ 283480.46, 4155206.42 ], [ 283480.54, 4155206.48 ], [ 283482.42, 4155207.78 ], [ 283482.5, 4155207.84 ], [ 283482.57, 4155207.91 ], [ 283482.64, 4155207.98 ], [ 283482.69, 4155208.06 ], [ 283482.74, 4155208.15 ], [ 283482.78, 4155208.23 ], [ 283482.81, 4155208.33 ], [ 283482.84, 4155208.42 ], [ 283482.85, 4155208.52 ], [ 283482.85, 4155208.62 ], [ 283482.85, 4155208.72 ], [ 283482.83, 4155208.81 ], [ 283482.8, 4155208.91 ], [ 283482.77, 4155209.0 ], [ 283482.73, 4155209.09 ], [ 283482.68, 4155209.17 ], [ 283477.11, 4155217.2 ] ] ] } },
{ "type": "Feature", "properties": { "id": "richmond_structure:242159", "name": null, "kind": "deck", "sport": null, "surface": null, "pitch_layout": null, "source": "richmond_structures", "source_updated": "2026-09-08T12:07:13.637000Z", "base_z": null, "top_z": null }, "geometry": { "type": "Polygon", "coordinates": [ [ [ 283453.33, 4155215.25 ], [ 283452.45, 4155217.06 ], [ 283456.78, 4155219.17 ], [ 283457.66, 4155217.36 ], [ 283453.33, 4155215.25 ] ] ] } },
{ "type": "Feature", "properties": { "id": "richmond_structure:242627", "name": null, "kind": "deck", "sport": null, "surface": null, "pitch_layout": null, "source": "richmond_structures", "source_updated": "2026-09-08T12:07:13.637000Z", "base_z": null, "top_z": null }, "geometry": { "type": "Polygon", "coordinates": [ [ [ 283494.33, 4155220.99 ], [ 283497.24, 4155216.74 ], [ 283493.56, 4155214.11 ], [ 283490.57, 4155218.21 ], [ 283494.33, 4155220.99 ] ] ] } },
{ "type": "Feature", "properties": { "id": "richmond_structure:242739", "name": null, "kind": "deck", "sport": null, "surface": null, "pitch_layout": null, "source": "richmond_structures", "source_updated": "2026-09-08T12:07:13.637000Z", "base_z": null, "top_z": null }, "geometry": { "type": "Polygon", "coordinates": [ [ [ 283479.77, 4155229.64 ], [ 283480.75, 4155230.09 ], [ 283483.57, 4155226.37 ], [ 283485.65, 4155227.95 ], [ 283487.33, 4155225.4 ], [ 283484.3, 4155223.26 ], [ 283479.77, 4155229.64 ] ] ] } },
{ "type": "Feature", "properties": { "id": "imagery:groundcover_lawn:3297", "name": null, "kind": "groundcover_lawn", "sport": null, "surface": null, "pitch_layout": null, "source": "vgin_vbmp+naip+lidar2025", "source_updated": null, "base_z": null, "top_z": null }, "geometry": { "type": "MultiPolygon", "coordinates": [ [ [ [ 283375.79, 4155238.0 ], [ 283377.72, 4155230.28 ], [ 283378.0, 4155229.71 ], [ 283379.16, 4155228.26 ], [ 283379.66, 4155227.86 ], [ 283379.8, 4155223.31 ], [ 283379.57, 4155223.1 ], [ 283378.35, 4155221.13 ], [ 283378.13, 4155220.35 ], [ 283378.13, 4155219.63 ], [ 283375.13, 4155216.63 ], [ 283374.67, 4155216.63 ], [ 283371.71, 4155219.13 ], [ 283369.71, 4155231.15 ], [ 283369.14, 4155232.08 ], [ 283366.7, 4155233.86 ], [ 283366.58, 4155233.89 ], [ 283365.94, 4155235.32 ], [ 283365.9, 4155235.41 ], [ 283365.85, 4155235.49 ], [ 283365.78, 4155235.57 ], [ 283365.72, 4155235.64 ], [ 283365.64, 4155235.7 ], [ 283365.56, 4155235.76 ], [ 283365.48, 4155235.81 ], [ 283365.39, 4155235.85 ], [ 283365.29, 4155235.88 ], [ 283365.2, 4155235.9 ], [ 283365.1, 4155235.91 ], [ 283365.0, 4155235.91 ], [ 283364.9, 4155235.9 ], [ 283364.81, 4155235.89 ], [ 283364.77, 4155235.88 ], [ 283363.84, 4155237.17 ], [ 283366.58, 4155239.91 ], [ 283372.59, 4155240.41 ], [ 283375.71, 4155238.18 ], [ 283375.79, 4155238.0 ] ] ], [ [ [ 283358.9, 4155233.25 ], [ 283358.81, 4155233.2 ], [ 283358.74, 4155233.14 ], [ 283351.24, 4155232.07 ], [ 283350.35, 4155231.58 ], [ 283349.58, 4155230.69 ], [ 283345.74, 4155230.11 ], [ 283344.54, 4155230.84 ], [ 283343.81, 4155232.35 ], [ 283343.83, 4155232.4 ], [ 283343.86, 4155232.49 ], [ 283343.88, 4155232.59 ], [ 283343.88, 4155232.69 ], [ 283343.88, 4155232.79 ], [ 283343.87, 4155232.88 ], [ 283343.85, 4155232.98 ], [ 283343.83, 4155233.07 ], [ 283343.79, 4155233.16 ], [ 283342.6, 4155235.65 ], [ 283348.6, 4155238.41 ], [ 283359.8, 4155239.35 ], [ 283363.03, 4155236.69 ], [ 283361.15, 4155234.27 ], [ 283358.98, 4155233.29 ], [ 283358.9, 4155233.25 ] ] ] ] } },
{ "type": "Feature", "properties": { "id": "imagery:groundcover_lawn:3421", "name": null, "kind": "groundcover_lawn", "sport": null, "surface": null, "pitch_layout": null, "source": "vgin_vbmp+naip+lidar2025", "source_updated": null, "base_z": null, "top_z": null }, "geometry": { "type": "Polygon", "coordinates": [ [ [ 283256.24, 4155000.0 ], [ 283255.71, 4155003.13 ], [ 283258.67, 4155006.63 ], [ 283259.98, 4155006.63 ], [ 283261.79, 4155000.0 ], [ 283256.24, 4155000.0 ] ] ] } },
{ "type": "Feature", "properties": { "id": "imagery:groundcover_paved:3423", "name": null, "kind": "groundcover_paved", "sport": null, "surface": null, "pitch_layout": null, "source": "vgin_vbmp+naip+lidar2025", "source_updated": null, "base_z": null, "top_z": null }, "geometry": { "type": "Polygon", "coordinates": [ [ [ 283284.71, 4155013.14 ], [ 283284.5, 4155013.57 ], [ 283282.57, 4155016.46 ], [ 283281.09, 4155022.19 ], [ 283280.94, 4155022.66 ], [ 283280.75, 4155023.11 ], [ 283280.51, 4155023.54 ], [ 283280.24, 4155023.94 ], [ 283279.92, 4155024.32 ], [ 283279.57, 4155024.67 ], [ 283279.19, 4155024.97 ], [ 283278.78, 4155025.24 ], [ 283278.35, 4155025.47 ], [ 283277.89, 4155025.65 ], [ 283277.78, 4155025.69 ], [ 283278.11, 4155025.79 ], [ 283278.56, 4155025.98 ], [ 283278.99, 4155026.21 ], [ 283279.4, 4155026.49 ], [ 283279.77, 4155026.8 ], [ 283280.12, 4155027.15 ], [ 283280.43, 4155027.53 ], [ 283280.66, 4155027.88 ], [ 283291.87, 4155029.75 ], [ 283295.15, 4155025.68 ], [ 283290.2, 4155013.31 ], [ 283284.71, 4155013.14 ] ] ] } },
{ "type": "Feature", "properties": { "id": "imagery:groundcover_paved:3415", "name": null, "kind": "groundcover_paved", "sport": null, "surface": null, "pitch_layout": null, "source": "vgin_vbmp+naip+lidar2025", "source_updated": null, "base_z": null, "top_z": null }, "geometry": { "type": "Polygon", "coordinates": [ [ [ 283322.19, 4155032.04 ], [ 283321.92, 4155031.44 ], [ 283321.54, 4155029.57 ], [ 283321.56, 4155028.92 ], [ 283323.35, 4155021.77 ], [ 283319.76, 4155011.12 ], [ 283319.03, 4155010.64 ], [ 283316.33, 4155013.21 ], [ 283312.62, 4155039.2 ], [ 283315.59, 4155042.63 ], [ 283324.13, 4155042.63 ], [ 283326.53, 4155037.83 ], [ 283322.19, 4155032.04 ] ] ] } },
{ "type": "Feature", "properties": { "id": "richmond_structure:242534", "name": null, "kind": "deck", "sport": null, "surface": null, "pitch_layout": null, "source": "richmond_structures", "source_updated": "2026-09-08T12:07:13.637000Z", "base_z": null, "top_z": null }, "geometry": { "type": "Polygon", "coordinates": [ [ [ 283251.38, 4155027.97 ], [ 283250.0, 4155027.7 ], [ 283250.0, 4155029.38 ], [ 283250.99, 4155029.58 ], [ 283251.38, 4155027.97 ] ] ] } },
{ "type": "Feature", "properties": { "id": "richmond_structure:242955", "name": null, "kind": "deck", "sport": null, "surface": null, "pitch_layout": null, "source": "richmond_structures", "source_updated": "2026-09-08T12:07:13.637000Z", "base_z": null, "top_z": null }, "geometry": { "type": "Polygon", "coordinates": [ [ [ 283295.52, 4155030.72 ], [ 283293.1, 4155030.01 ], [ 283292.18, 4155033.53 ], [ 283294.49, 4155034.2 ], [ 283295.52, 4155030.72 ] ] ] } },
{ "type": "Feature", "properties": { "id": "richmond_structure:242251", "name": null, "kind": "deck", "sport": null, "surface": null, "pitch_layout": null, "source": "richmond_structures", "source_updated": "2026-09-08T12:07:13.637000Z", "base_z": null, "top_z": null }, "geometry": { "type": "Polygon", "coordinates": [ [ [ 283282.96, 4155033.7 ], [ 283283.26, 4155032.79 ], [ 283281.02, 4155031.88 ], [ 283280.49, 4155033.07 ], [ 283282.96, 4155033.7 ] ] ] } },
{ "type": "Feature", "properties": { "id": "richmond_structure:244056", "name": null, "kind": "deck", "sport": null, "surface": null, "pitch_layout": null, "source": "richmond_structures", "source_updated": "2026-09-08T12:07:13.637000Z", "base_z": null, "top_z": null }, "geometry": { "type": "Polygon", "coordinates": [ [ [ 283284.44, 4155034.08 ], [ 283283.48, 4155037.83 ], [ 283284.0, 4155037.96 ], [ 283283.51, 4155039.88 ], [ 283282.71, 4155039.67 ], [ 283282.35, 4155041.07 ], [ 283284.2, 4155041.56 ], [ 283286.02, 4155034.49 ], [ 283284.44, 4155034.08 ] ] ] } },
{ "type": "Feature", "properties": { "id": "imagery:groundcover_paved:3387", "name": null, "kind": "groundcover_paved", "sport": null, "surface": null, "pitch_layout": null, "source": "vgin_vbmp+naip+lidar2025", "source_updated": null, "base_z": null, "top_z": null }, "geometry": { "type": "Polygon", "coordinates": [ [ [ 283325.08, 4155070.51 ], [ 283325.49, 4155070.24 ], [ 283325.93, 4155070.02 ], [ 283326.39, 4155069.84 ], [ 283326.86, 4155069.7 ], [ 283327.34, 4155069.62 ], [ 283327.83, 4155069.58 ], [ 283328.32, 4155069.58 ], [ 283328.81, 4155069.64 ], [ 283329.29, 4155069.74 ], [ 283329.76, 4155069.9 ], [ 283330.21, 4155070.09 ], [ 283330.63, 4155070.33 ], [ 283330.97, 4155070.56 ], [ 283336.76, 4155063.05 ], [ 283337.08, 4155062.68 ], [ 283337.43, 4155062.34 ], [ 283337.81, 4155062.03 ], [ 283338.23, 4155061.77 ], [ 283338.66, 4155061.54 ], [ 283339.12, 4155061.36 ], [ 283339.13, 4155061.36 ], [ 283339.13, 4155053.79 ], [ 283337.08, 4155050.94 ], [ 283331.31, 4155049.02 ], [ 283329.02, 4155049.18 ], [ 283325.79, 4155050.8 ], [ 283324.13, 4155053.48 ], [ 283324.13, 4155071.4 ], [ 283324.34, 4155071.15 ], [ 283324.7, 4155070.81 ], [ 283325.08, 4155070.51 ] ] ] } },
{ "type": "Feature", "properties": { "id": "imagery:groundcover_lawn:3389", "name": null, "kind": "groundcover_lawn", "sport": null, "surface": null, "pitch_layout": null, "source": "vgin_vbmp+naip+lidar2025", "source_updated": null, "base_z": null, "top_z": null }, "geometry": { "type": "Polygon", "coordinates": [ [ [ 283342.13, 4155063.63 ], [ 283343.16, 4155063.63 ], [ 283343.85, 4155063.8 ], [ 283345.7, 4155064.79 ], [ 283346.23, 4155065.27 ], [ 283349.1, 4155069.58 ], [ 283353.72, 4155070.04 ], [ 283355.63, 4155068.12 ], [ 283360.13, 4155062.16 ], [ 283360.13, 4155060.63 ], [ 283357.13, 4155057.63 ], [ 283350.11, 4155057.63 ], [ 283349.41, 4155057.45 ], [ 283347.57, 4155056.46 ], [ 283347.04, 4155055.98 ], [ 283344.63, 4155052.37 ], [ 283341.26, 4155051.16 ], [ 283339.13, 4155054.03 ], [ 283339.13, 4155060.63 ], [ 283342.13, 4155063.63 ] ] ] } },
{ "type": "Feature", "properties": { "id": "richmond_structure:242248", "name": null, "kind": "deck", "sport": null, "surface": null, "pitch_layout": null, "source": "richmond_structures", "source_updated": "2026-09-08T12:07:13.637000Z", "base_z": null, "top_z": null }, "geometry": { "type": "Polygon", "coordinates": [ [ [ 283327.47, 4155075.84 ], [ 283327.81, 4155075.41 ], [ 283331.7, 4155078.41 ], [ 283337.51, 4155070.86 ], [ 283328.48, 4155063.43 ], [ 283322.21, 4155071.77 ], [ 283327.47, 4155075.84 ] ] ] } },
{ "type": "Feature", "properties": { "id": "imagery:groundcover_lawn:3431", "name": null, "kind": "groundcover_lawn", "sport": null, "surface": null, "pitch_layout": null, "source": "vgin_vbmp+naip+lidar2025", "source_updated": null, "base_z": null, "top_z": null }, "geometry": { "type": "Polygon", "coordinates": [ [ [ 283259.77, 4155114.81 ], [ 283260.03, 4155116.03 ], [ 283258.71, 4155121.29 ], [ 283260.28, 4155124.7 ], [ 283262.1, 4155125.61 ], [ 283262.69, 4155126.15 ], [ 283263.91, 4155128.12 ], [ 283264.13, 4155128.9 ], [ 283264.13, 4155135.63 ], [ 283267.13, 4155138.63 ], [ 283267.21, 4155138.63 ], [ 283268.12, 4155138.95 ], [ 283270.25, 4155140.65 ], [ 283270.76, 4155141.47 ], [ 283273.99, 4155155.98 ], [ 283295.28, 4155165.13 ], [ 283295.35, 4155165.16 ], [ 283303.11, 4155168.64 ], [ 283306.13, 4155166.77 ], [ 283306.13, 4155166.22 ], [ 283306.18, 4155166.1 ], [ 283304.36, 4155165.35 ], [ 283304.2, 4155165.27 ], [ 283304.05, 4155165.18 ], [ 283303.91, 4155165.08 ], [ 283303.78, 4155164.96 ], [ 283303.66, 4155164.83 ], [ 283303.56, 4155164.68 ], [ 283303.46, 4155164.53 ], [ 283303.39, 4155164.37 ], [ 283303.33, 4155164.21 ], [ 283303.29, 4155164.03 ], [ 283303.26, 4155163.86 ], [ 283303.25, 4155163.68 ], [ 283303.26, 4155163.51 ], [ 283303.29, 4155163.33 ], [ 283303.33, 4155163.16 ], [ 283303.39, 4155162.99 ], [ 283303.47, 4155162.83 ], [ 283303.56, 4155162.68 ], [ 283303.66, 4155162.54 ], [ 283303.78, 4155162.41 ], [ 283303.91, 4155162.29 ], [ 283304.05, 4155162.19 ], [ 283304.21, 4155162.1 ], [ 283304.37, 4155162.02 ], [ 283304.53, 4155161.96 ], [ 283304.7, 4155161.92 ], [ 283304.88, 4155161.89 ], [ 283305.06, 4155161.89 ], [ 283305.23, 4155161.89 ], [ 283305.41, 4155161.92 ], [ 283305.58, 4155161.96 ], [ 283305.74, 4155162.02 ], [ 283308.56, 4155163.19 ], [ 283308.71, 4155163.05 ], [ 283309.73, 4155162.63 ], [ 283318.13, 4155162.63 ], [ 283321.13, 4155159.63 ], [ 283321.13, 4155158.79 ], [ 283319.08, 4155155.94 ], [ 283314.63, 4155154.46 ], [ 283313.91, 4155153.93 ], [ 283312.41, 4155151.85 ], [ 283312.13, 4155150.99 ], [ 283312.13, 4155146.16 ], [ 283312.24, 4155145.6 ], [ 283312.9, 4155144.02 ], [ 283313.22, 4155143.54 ], [ 283317.25, 4155139.5 ], [ 283318.13, 4155137.38 ], [ 283318.13, 4155134.48 ], [ 283316.47, 4155131.8 ], [ 283314.16, 4155130.64 ], [ 283313.57, 4155130.1 ], [ 283312.35, 4155128.13 ], [ 283312.13, 4155127.35 ], [ 283312.13, 4155110.9 ], [ 283312.35, 4155110.12 ], [ 283313.57, 4155108.15 ], [ 283314.16, 4155107.61 ], [ 283315.98, 4155106.7 ], [ 283317.55, 4155103.29 ], [ 283315.36, 4155094.53 ], [ 283315.31, 4155094.17 ], [ 283315.31, 4155093.08 ], [ 283315.36, 4155092.72 ], [ 283317.72, 4155083.28 ], [ 283318.0, 4155082.71 ], [ 283319.16, 4155081.26 ], [ 283319.66, 4155080.86 ], [ 283322.47, 4155079.45 ], [ 283324.13, 4155076.77 ], [ 283324.13, 4155053.9 ], [ 283324.35, 4155053.12 ], [ 283325.65, 4155051.02 ], [ 283324.05, 4155046.6 ], [ 283314.83, 4155043.53 ], [ 283314.08, 4155042.95 ], [ 283312.59, 4155040.71 ], [ 283312.35, 4155039.79 ], [ 283314.97, 4155005.71 ], [ 283315.22, 4155005.0 ], [ 283316.43, 4155003.19 ], [ 283317.0, 4155002.69 ], [ 283319.2, 4155001.59 ], [ 283320.03, 4155000.0 ], [ 283300.83, 4155000.0 ], [ 283294.46, 4155014.85 ], [ 283294.25, 4155016.46 ], [ 283296.39, 4155031.47 ], [ 283295.94, 4155032.71 ], [ 283293.36, 4155035.04 ], [ 283292.08, 4155035.36 ], [ 283288.86, 4155034.56 ], [ 283285.13, 4155037.47 ], [ 283285.13, 4155046.35 ], [ 283284.91, 4155047.13 ], [ 283283.69, 4155049.1 ], [ 283283.1, 4155049.64 ], [ 283274.79, 4155053.8 ], [ 283274.36, 4155054.49 ], [ 283274.43, 4155054.54 ], [ 283274.5, 4155054.6 ], [ 283274.57, 4155054.67 ], [ 283274.63, 4155054.75 ], [ 283274.68, 4155054.83 ], [ 283274.72, 4155054.92 ], [ 283274.76, 4155055.01 ], [ 283274.78, 4155055.11 ], [ 283274.8, 4155055.21 ], [ 283274.81, 4155055.3 ], [ 283274.8, 4155055.4 ], [ 283274.79, 4155055.5 ], [ 283274.2, 4155058.79 ], [ 283274.17, 4155058.89 ], [ 283274.14, 4155058.98 ], [ 283274.1, 4155059.07 ], [ 283274.05, 4155059.15 ], [ 283274.0, 4155059.23 ], [ 283273.93, 4155059.31 ], [ 283273.86, 4155059.37 ], [ 283273.78, 4155059.43 ], [ 283273.7, 4155059.49 ], [ 283273.61, 4155059.53 ], [ 283273.52, 4155059.56 ], [ 283273.42, 4155059.59 ], [ 283273.33, 4155059.61 ], [ 283273.23, 4155059.61 ], [ 283273.13, 4155059.61 ], [ 283273.05, 4155059.6 ], [ 283272.63, 4155060.51 ], [ 283270.8, 4155062.06 ], [ 283279.6, 4155064.35 ], [ 283279.69, 4155064.38 ], [ 283279.78, 4155064.41 ], [ 283279.87, 4155064.46 ], [ 283279.95, 4155064.52 ], [ 283280.03, 4155064.58 ], [ 283280.1, 4155064.65 ], [ 283280.16, 4155064.73 ], [ 283280.21, 4155064.81 ], [ 283280.26, 4155064.9 ], [ 283280.29, 4155064.99 ], [ 283280.32, 4155065.08 ], [ 283280.34, 4155065.18 ], [ 283280.35, 4155065.28 ], [ 283280.35, 4155065.37 ], [ 283280.34, 4155065.47 ], [ 283280.32, 4155065.57 ], [ 283277.32, 4155077.01 ], [ 283277.29, 4155077.1 ], [ 283277.26, 4155077.19 ], [ 283277.21, 4155077.28 ], [ 283277.15, 4155077.36 ], [ 283277.09, 4155077.43 ], [ 283277.02, 4155077.5 ], [ 283276.94, 4155077.56 ], [ 283276.86, 4155077.62 ], [ 283276.78, 4155077.66 ], [ 283276.68, 4155077.7 ], [ 283276.59, 4155077.72 ], [ 283276.49, 4155077.74 ], [ 283276.4, 4155077.75 ], [ 283276.3, 4155077.75 ], [ 283276.2, 4155077.74 ], [ 283276.11, 4155077.72 ], [ 283257.39, 4155072.86 ], [ 283256.97, 4155075.03 ], [ 283260.15, 4155075.86 ], [ 283260.24, 4155075.89 ], [ 283260.33, 4155075.93 ], [ 283260.42, 4155075.97 ], [ 283260.5, 4155076.03 ], [ 283260.58, 4155076.09 ], [ 283260.65, 4155076.16 ], [ 283260.71, 4155076.24 ], [ 283260.76, 4155076.32 ], [ 283260.81, 4155076.41 ], [ 283260.84, 4155076.5 ], [ 283260.87, 4155076.59 ], [ 283260.89, 4155076.69 ], [ 283260.9, 4155076.79 ], [ 283260.9, 4155076.89 ], [ 283260.89, 4155076.98 ], [ 283260.87, 4155077.08 ], [ 283255.57, 4155097.29 ], [ 283255.63, 4155097.34 ], [ 283255.7, 4155097.41 ], [ 283255.76, 4155097.49 ], [ 283255.81, 4155097.57 ], [ 283255.86, 4155097.66 ], [ 283255.9, 4155097.75 ], [ 283255.92, 4155097.84 ], [ 283255.94, 4155097.94 ], [ 283255.95, 4155098.04 ], [ 283255.95, 4155098.14 ], [ 283255.94, 4155098.23 ], [ 283255.92, 4155098.33 ], [ 283255.13, 4155101.34 ], [ 283255.13, 4155109.04 ], [ 283256.82, 4155111.73 ], [ 283257.72, 4155112.17 ], [ 283259.77, 4155114.81 ] ] ] } },
{ "type": "Feature", "properties": { "id": "richmond_structure:242778", "name": null, "kind": "deck", "sport": null, "surface": null, "pitch_layout": null, "source": "richmond_structures", "source_updated": "2026-09-08T12:07:13.637000Z", "base_z": null, "top_z": null }, "geometry": { "type": "Polygon", "coordinates": [ [ [ 283321.21, 4155219.42 ], [ 283322.39, 4155216.92 ], [ 283318.4, 4155215.13 ], [ 283317.38, 4155218.07 ], [ 283321.21, 4155219.42 ] ] ] } },
{ "type": "Feature", "properties": { "id": "richmond_structure:242462", "name": null, "kind": "deck", "sport": null, "surface": null, "pitch_layout": null, "source": "richmond_structures", "source_updated": "2026-09-08T12:07:13.637000Z", "base_z": null, "top_z": null }, "geometry": { "type": "Polygon", "coordinates": [ [ [ 283313.87, 4155242.83 ], [ 283314.05, 4155241.99 ], [ 283313.12, 4155241.52 ], [ 283311.39, 4155245.19 ], [ 283316.04, 4155247.16 ], [ 283317.2, 4155244.39 ], [ 283313.87, 4155242.83 ] ] ] } },
{ "type": "Feature", "properties": { "id": "richmond_structure:242793", "name": null, "kind": "deck", "sport": null, "surface": null, "pitch_layout": null, "source": "richmond_structures", "source_updated": "2026-09-08T12:07:13.637000Z", "base_z": null, "top_z": null }, "geometry": { "type": "Polygon", "coordinates": [ [ [ 283326.56, 4155250.0 ], [ 283327.62, 4155250.0 ], [ 283326.74, 4155249.6 ], [ 283326.56, 4155250.0 ] ] ] } },
{ "type": "Feature", "properties": { "id": "imagery:groundcover_lawn:3322", "name": null, "kind": "groundcover_lawn", "sport": null, "surface": null, "pitch_layout": null, "source": "vgin_vbmp+naip+lidar2025", "source_updated": null, "base_z": null, "top_z": null }, "geometry": { "type": "Polygon", "coordinates": [ [ [ 283309.42, 4155227.46 ], [ 283309.57, 4155227.23 ], [ 283309.74, 4155227.0 ], [ 283309.94, 4155226.8 ], [ 283310.15, 4155226.61 ], [ 283312.3, 4155224.87 ], [ 283312.54, 4155224.69 ], [ 283312.8, 4155224.54 ], [ 283313.0, 4155224.45 ], [ 283312.75, 4155222.21 ], [ 283312.93, 4155221.34 ], [ 283313.92, 4155219.55 ], [ 283314.67, 4155219.19 ], [ 283315.92, 4155214.91 ], [ 283314.71, 4155212.95 ], [ 283314.65, 4155211.59 ], [ 283317.12, 4155206.66 ], [ 283317.66, 4155206.06 ], [ 283319.63, 4155204.85 ], [ 283320.4, 4155204.63 ], [ 283320.55, 4155204.63 ], [ 283321.18, 4155203.22 ], [ 283321.23, 4155203.13 ], [ 283321.28, 4155203.05 ], [ 283321.34, 4155202.97 ], [ 283321.41, 4155202.9 ], [ 283321.48, 4155202.84 ], [ 283321.56, 4155202.78 ], [ 283321.65, 4155202.73 ], [ 283321.74, 4155202.69 ], [ 283321.83, 4155202.66 ], [ 283321.93, 4155202.64 ], [ 283322.03, 4155202.63 ], [ 283322.12, 4155202.63 ], [ 283322.22, 4155202.64 ], [ 283322.32, 4155202.65 ], [ 283322.41, 4155202.68 ], [ 283322.5, 4155202.72 ], [ 283328.14, 4155205.24 ], [ 283328.23, 4155205.29 ], [ 283328.31, 4155205.34 ], [ 283328.39, 4155205.4 ], [ 283328.46, 4155205.47 ], [ 283328.52, 4155205.55 ], [ 283328.58, 4155205.63 ], [ 283328.63, 4155205.71 ], [ 283328.67, 4155205.8 ], [ 283328.7, 4155205.89 ], [ 283328.72, 4155205.99 ], [ 283328.73, 4155206.09 ], [ 283328.73, 4155206.19 ], [ 283328.73, 4155206.28 ], [ 283328.71, 4155206.38 ], [ 283328.68, 4155206.47 ], [ 283328.65, 4155206.57 ], [ 283327.59, 4155208.93 ], [ 283330.13, 4155210.63 ], [ 283330.18, 4155210.63 ], [ 283331.35, 4155207.78 ], [ 283331.4, 4155207.69 ], [ 283331.45, 4155207.6 ], [ 283331.51, 4155207.53 ], [ 283331.57, 4155207.45 ], [ 283331.64, 4155207.39 ], [ 283331.72, 4155207.33 ], [ 283331.81, 4155207.28 ], [ 283331.9, 4155207.24 ], [ 283331.99, 4155207.2 ], [ 283332.08, 4155207.18 ], [ 283332.18, 4155207.16 ], [ 283332.28, 4155207.16 ], [ 283332.38, 4155207.16 ], [ 283332.48, 4155207.18 ], [ 283332.57, 4155207.2 ], [ 283332.66, 4155207.24 ], [ 283335.37, 4155208.36 ], [ 283335.46, 4155208.41 ], [ 283335.55, 4155208.46 ], [ 283335.62, 4155208.52 ], [ 283335.7, 4155208.58 ], [ 283335.76, 4155208.65 ], [ 283335.82, 4155208.73 ], [ 283335.87, 4155208.82 ], [ 283335.91, 4155208.91 ], [ 283335.95, 4155209.0 ], [ 283335.97, 4155209.09 ], [ 283335.98, 4155209.19 ], [ 283335.99, 4155209.29 ], [ 283335.98, 4155209.39 ], [ 283335.97, 4155209.48 ], [ 283335.95, 4155209.58 ], [ 283335.91, 4155209.67 ], [ 283335.85, 4155209.81 ], [ 283337.83, 4155210.63 ], [ 283339.13, 4155210.63 ], [ 283342.07, 4155208.21 ], [ 283340.28, 4155204.85 ], [ 283338.71, 4155204.2 ], [ 283336.55, 4155202.05 ], [ 283335.9, 4155200.48 ], [ 283333.13, 4155198.63 ], [ 283327.73, 4155198.63 ], [ 283326.71, 4155198.2 ], [ 283324.55, 4155196.05 ], [ 283323.9, 4155194.48 ], [ 283323.7, 4155194.56 ], [ 283322.3, 4155192.86 ], [ 283320.53, 4155192.07 ], [ 283319.83, 4155191.77 ], [ 283309.92, 4155189.78 ], [ 283309.62, 4155189.69 ], [ 283308.75, 4155189.31 ], [ 283308.48, 4155189.16 ], [ 283299.95, 4155183.07 ], [ 283281.52, 4155175.0 ], [ 283278.93, 4155177.41 ], [ 283276.41, 4155212.71 ], [ 283275.87, 4155213.73 ], [ 283273.38, 4155215.69 ], [ 283272.26, 4155215.98 ], [ 283259.99, 4155213.94 ], [ 283259.35, 4155213.67 ], [ 283257.73, 4155212.47 ], [ 283257.29, 4155211.94 ], [ 283256.07, 4155209.5 ], [ 283253.05, 4155207.86 ], [ 283250.0, 4155208.2 ], [ 283250.0, 4155237.67 ], [ 283252.91, 4155238.93 ], [ 283253.0, 4155238.97 ], [ 283253.09, 4155239.02 ], [ 283253.16, 4155239.08 ], [ 283253.24, 4155239.15 ], [ 283253.3, 4155239.22 ], [ 283253.36, 4155239.3 ], [ 283253.41, 4155239.39 ], [ 283253.45, 4155239.47 ], [ 283253.48, 4155239.57 ], [ 283253.5, 4155239.66 ], [ 283253.52, 4155239.76 ], [ 283253.52, 4155239.86 ], [ 283253.51, 4155239.96 ], [ 283253.5, 4155240.05 ], [ 283253.47, 4155240.15 ], [ 283253.44, 4155240.24 ], [ 283253.39, 4155240.33 ], [ 283253.34, 4155240.41 ], [ 283253.28, 4155240.49 ], [ 283253.22, 4155240.56 ], [ 283251.0, 4155242.71 ], [ 283250.68, 4155244.69 ], [ 283250.27, 4155245.49 ], [ 283250.0, 4155245.76 ], [ 283250.0, 4155250.0 ], [ 283299.03, 4155250.0 ], [ 283309.29, 4155227.71 ], [ 283309.42, 4155227.46 ] ] ] } },
{ "type": "Feature", "properties": { "id": "richmond_structure:242794", "name": null, "kind": "deck", "sport": null, "surface": null, "pitch_layout": null, "source": "richmond_structures", "source_updated": "2026-09-08T12:07:13.637000Z", "base_z": null, "top_z": null }, "geometry": { "type": "Polygon", "coordinates": [ [ [ 283381.88, 4155245.63 ], [ 283382.58, 4155243.96 ], [ 283379.87, 4155242.82 ], [ 283379.17, 4155244.5 ], [ 283381.88, 4155245.63 ] ] ] } },
{ "type": "Feature", "properties": { "id": "imagery:groundcover_lawn:3284", "name": null, "kind": "groundcover_lawn", "sport": null, "surface": null, "pitch_layout": null, "source": "vgin_vbmp+naip+lidar2025", "source_updated": null, "base_z": null, "top_z": null }, "geometry": { "type": "Polygon", "coordinates": [ [ [ 283494.38, 4155250.0 ], [ 283496.95, 4155243.58 ], [ 283495.11, 4155239.62 ], [ 283492.99, 4155238.91 ], [ 283489.78, 4155240.53 ], [ 283488.87, 4155241.8 ], [ 283488.86, 4155241.85 ], [ 283487.36, 4155243.93 ], [ 283486.63, 4155244.46 ], [ 283482.18, 4155245.94 ], [ 283481.9, 4155246.34 ], [ 283488.15, 4155249.18 ], [ 283490.03, 4155250.0 ], [ 283494.38, 4155250.0 ] ] ] } },
{ "type": "Feature", "properties": { "id": "richmond_structure:242472", "name": null, "kind": "deck", "sport": null, "surface": null, "pitch_layout": null, "source": "richmond_structures", "source_updated": "2026-09-08T12:07:13.637000Z", "base_z": null, "top_z": null }, "geometry": { "type": "Polygon", "coordinates": [ [ [ 283399.37, 4155247.55 ], [ 283399.89, 4155246.54 ], [ 283396.2, 4155244.86 ], [ 283395.76, 4155245.98 ], [ 283399.37, 4155247.55 ] ] ] } },
{ "type": "Feature", "properties": { "id": "imagery:groundcover_paved:3471", "name": null, "kind": "groundcover_paved", "sport": null, "surface": null, "pitch_layout": null, "source": "vgin_vbmp+naip+lidar2025", "source_updated": null, "base_z": null, "top_z": null }, "geometry": { "type": "MultiPolygon", "coordinates": [ [ [ [ 283254.36, 4155207.7 ], [ 283255.7, 4155208.15 ], [ 283256.12, 4155208.37 ], [ 283266.33, 4155216.03 ], [ 283268.13, 4155216.63 ], [ 283273.34, 4155216.63 ], [ 283276.33, 4155213.84 ], [ 283278.89, 4155177.98 ], [ 283279.35, 4155177.02 ], [ 283281.51, 4155175.01 ], [ 283281.52, 4155175.01 ], [ 283250.0, 4155161.21 ], [ 283250.0, 4155207.63 ], [ 283253.89, 4155207.63 ], [ 283254.36, 4155207.7 ] ] ], [ [ [ 283499.27, 4155023.06 ], [ 283498.79, 4155023.19 ], [ 283498.31, 4155023.28 ], [ 283497.82, 4155023.32 ], [ 283497.33, 4155023.31 ], [ 283496.84, 4155023.25 ], [ 283496.36, 4155023.15 ], [ 283495.9, 4155023.0 ], [ 283495.45, 4155022.8 ], [ 283495.02, 4155022.57 ], [ 283494.62, 4155022.29 ], [ 283493.43, 4155021.38 ], [ 283493.22, 4155021.33 ], [ 283492.75, 4155021.18 ], [ 283492.3, 4155020.99 ], [ 283491.87, 4155020.75 ], [ 283491.47, 4155020.47 ], [ 283480.46, 4155012.01 ], [ 283480.09, 4155011.69 ], [ 283479.75, 4155011.34 ], [ 283479.45, 4155010.96 ], [ 283479.18, 4155010.54 ], [ 283478.96, 4155010.11 ], [ 283478.78, 4155009.65 ], [ 283478.64, 4155009.18 ], [ 283478.55, 4155008.69 ], [ 283478.51, 4155008.21 ], [ 283478.52, 4155007.72 ], [ 283478.58, 4155007.23 ], [ 283478.68, 4155006.75 ], [ 283478.83, 4155006.28 ], [ 283479.03, 4155005.83 ], [ 283479.27, 4155005.4 ], [ 283479.55, 4155005.0 ], [ 283483.08, 4155000.4 ], [ 283483.4, 4155000.02 ], [ 283483.42, 4155000.0 ], [ 283352.02, 4155000.0 ], [ 283367.61, 4155011.24 ], [ 283368.0, 4155011.55 ], [ 283368.35, 4155011.9 ], [ 283368.67, 4155012.28 ], [ 283368.95, 4155012.69 ], [ 283369.19, 4155013.12 ], [ 283369.38, 4155013.58 ], [ 283369.53, 4155014.05 ], [ 283369.63, 4155014.54 ], [ 283369.68, 4155015.03 ], [ 283369.68, 4155015.53 ], [ 283369.63, 4155016.02 ], [ 283369.53, 4155016.51 ], [ 283369.39, 4155016.99 ], [ 283369.2, 4155017.44 ], [ 283368.96, 4155017.88 ], [ 283368.69, 4155018.29 ], [ 283366.78, 4155020.84 ], [ 283366.81, 4155020.9 ], [ 283367.0, 4155021.36 ], [ 283367.14, 4155021.83 ], [ 283367.23, 4155022.31 ], [ 283367.28, 4155022.8 ], [ 283367.28, 4155023.29 ], [ 283367.23, 4155023.78 ], [ 283367.13, 4155024.26 ], [ 283366.98, 4155024.73 ], [ 283366.79, 4155025.18 ], [ 283366.56, 4155025.61 ], [ 283366.28, 4155026.02 ], [ 283358.38, 4155036.56 ], [ 283364.43, 4155041.19 ], [ 283364.81, 4155041.51 ], [ 283365.15, 4155041.86 ], [ 283365.45, 4155042.24 ], [ 283365.72, 4155042.66 ], [ 283365.94, 4155043.09 ], [ 283366.12, 4155043.55 ], [ 283366.26, 4155044.02 ], [ 283366.35, 4155044.5 ], [ 283366.39, 4155044.99 ], [ 283366.38, 4155045.47 ], [ 283366.33, 4155045.96 ], [ 283366.23, 4155046.44 ], [ 283366.08, 4155046.91 ], [ 283365.89, 4155047.36 ], [ 283365.65, 4155047.79 ], [ 283365.37, 4155048.19 ], [ 283362.44, 4155052.05 ], [ 283362.37, 4155052.23 ], [ 283362.04, 4155052.71 ], [ 283361.59, 4155053.17 ], [ 283361.28, 4155053.58 ], [ 283361.38, 4155053.9 ], [ 283361.43, 4155053.84 ], [ 283361.78, 4155053.49 ], [ 283362.16, 4155053.19 ], [ 283362.57, 4155052.92 ], [ 283363.0, 4155052.69 ], [ 283363.46, 4155052.51 ], [ 283363.93, 4155052.37 ], [ 283364.41, 4155052.27 ], [ 283364.9, 4155052.23 ], [ 283365.39, 4155052.23 ], [ 283365.88, 4155052.29 ], [ 283366.36, 4155052.39 ], [ 283366.83, 4155052.53 ], [ 283367.28, 4155052.72 ], [ 283367.71, 4155052.96 ], [ 283368.11, 4155053.23 ], [ 283370.18, 4155054.79 ], [ 283370.02, 4155054.53 ], [ 283369.89, 4155054.26 ], [ 283369.78, 4155053.97 ], [ 283369.71, 4155053.68 ], [ 283369.66, 4155053.37 ], [ 283369.65, 4155053.07 ], [ 283369.67, 4155052.76 ], [ 283369.71, 4155052.46 ], [ 283369.79, 4155052.17 ], [ 283369.89, 4155051.88 ], [ 283370.03, 4155051.61 ], [ 283370.19, 4155051.35 ], [ 283386.32, 4155027.91 ], [ 283386.5, 4155027.67 ], [ 283386.69, 4155027.46 ], [ 283386.91, 4155027.27 ], [ 283387.15, 4155027.09 ], [ 283387.39, 4155026.94 ], [ 283387.66, 4155026.82 ], [ 283387.93, 4155026.72 ], [ 283388.21, 4155026.65 ], [ 283388.5, 4155026.6 ], [ 283388.79, 4155026.59 ], [ 283389.08, 4155026.6 ], [ 283389.37, 4155026.63 ], [ 283389.65, 4155026.7 ], [ 283389.93, 4155026.79 ], [ 283390.2, 4155026.91 ], [ 283390.45, 4155027.05 ], [ 283399.14, 4155032.49 ], [ 283402.39, 4155027.23 ], [ 283402.52, 4155027.04 ], [ 283402.54, 4155027.01 ], [ 283397.71, 4155023.43 ], [ 283397.57, 4155023.31 ], [ 283397.44, 4155023.19 ], [ 283397.33, 4155023.05 ], [ 283397.23, 4155022.91 ], [ 283397.15, 4155022.75 ], [ 283397.08, 4155022.59 ], [ 283397.03, 4155022.42 ], [ 283397.0, 4155022.24 ], [ 283396.98, 4155022.07 ], [ 283396.98, 4155021.89 ], [ 283397.0, 4155021.72 ], [ 283397.03, 4155021.54 ], [ 283397.08, 4155021.37 ], [ 283397.15, 4155021.21 ], [ 283397.23, 4155021.05 ], [ 283397.33, 4155020.91 ], [ 283397.44, 4155020.77 ], [ 283397.57, 4155020.65 ], [ 283397.71, 4155020.53 ], [ 283397.85, 4155020.44 ], [ 283398.01, 4155020.35 ], [ 283398.17, 4155020.29 ], [ 283398.34, 4155020.23 ], [ 283398.51, 4155020.2 ], [ 283398.69, 4155020.18 ], [ 283398.87, 4155020.18 ], [ 283399.04, 4155020.2 ], [ 283399.22, 4155020.23 ], [ 283399.39, 4155020.29 ], [ 283399.55, 4155020.35 ], [ 283399.7, 4155020.44 ], [ 283399.85, 4155020.53 ], [ 283404.66, 4155024.11 ], [ 283409.81, 4155017.09 ], [ 283410.0, 4155016.86 ], [ 283410.21, 4155016.65 ], [ 283410.44, 4155016.46 ], [ 283410.68, 4155016.29 ], [ 283410.95, 4155016.15 ], [ 283411.22, 4155016.03 ], [ 283411.51, 4155015.94 ], [ 283411.8, 4155015.88 ], [ 283412.1, 4155015.85 ], [ 283412.4, 4155015.85 ], [ 283412.7, 4155015.88 ], [ 283412.99, 4155015.93 ], [ 283413.28, 4155016.02 ], [ 283413.56, 4155016.13 ], [ 283413.82, 4155016.27 ], [ 283414.07, 4155016.44 ], [ 283414.3, 4155016.63 ], [ 283414.51, 4155016.84 ], [ 283414.71, 4155017.07 ], [ 283414.87, 4155017.31 ], [ 283415.02, 4155017.58 ], [ 283415.13, 4155017.85 ], [ 283415.22, 4155018.14 ], [ 283415.28, 4155018.43 ], [ 283415.31, 4155018.73 ], [ 283415.31, 4155019.03 ], [ 283415.29, 4155019.33 ], [ 283415.23, 4155019.62 ], [ 283415.14, 4155019.91 ], [ 283415.03, 4155020.19 ], [ 283414.89, 4155020.45 ], [ 283414.73, 4155020.7 ], [ 283409.56, 4155027.75 ], [ 283432.99, 4155045.18 ], [ 283433.13, 4155045.29 ], [ 283433.25, 4155045.41 ], [ 283433.35, 4155045.54 ], [ 283435.21, 4155042.97 ], [ 283435.19, 4155042.86 ], [ 283435.13, 4155042.14 ], [ 283435.13, 4155041.41 ], [ 283435.21, 4155040.69 ], [ 283435.36, 4155039.98 ], [ 283435.58, 4155039.29 ], [ 283435.86, 4155038.62 ], [ 283436.21, 4155037.98 ], [ 283436.62, 4155037.38 ], [ 283437.08, 4155036.82 ], [ 283437.6, 4155036.31 ], [ 283438.16, 4155035.86 ], [ 283438.77, 4155035.46 ], [ 283439.42, 4155035.12 ], [ 283439.55, 4155035.07 ], [ 283434.29, 4155030.97 ], [ 283433.91, 4155030.65 ], [ 283433.58, 4155030.29 ], [ 283433.27, 4155029.9 ], [ 283433.01, 4155029.49 ], [ 283432.79, 4155029.05 ], [ 283432.61, 4155028.59 ], [ 283432.48, 4155028.12 ], [ 283432.4, 4155027.64 ], [ 283432.36, 4155027.15 ], [ 283432.37, 4155026.66 ], [ 283432.43, 4155026.17 ], [ 283432.54, 4155025.69 ], [ 283432.7, 4155025.23 ], [ 283432.89, 4155024.78 ], [ 283433.14, 4155024.35 ], [ 283433.42, 4155023.95 ], [ 283448.3, 4155004.87 ], [ 283448.62, 4155004.5 ], [ 283448.98, 4155004.16 ], [ 283449.36, 4155003.86 ], [ 283449.78, 4155003.6 ], [ 283450.22, 4155003.38 ], [ 283450.67, 4155003.2 ], [ 283451.15, 4155003.07 ], [ 283451.63, 4155002.98 ], [ 283452.12, 4155002.95 ], [ 283452.61, 4155002.96 ], [ 283453.1, 4155003.02 ], [ 283453.58, 4155003.13 ], [ 283454.04, 4155003.28 ], [ 283454.49, 4155003.48 ], [ 283454.92, 4155003.72 ], [ 283455.32, 4155004.0 ], [ 283462.06, 4155009.26 ], [ 283462.43, 4155009.58 ], [ 283462.77, 4155009.94 ], [ 283463.07, 4155010.32 ], [ 283463.33, 4155010.73 ], [ 283463.56, 4155011.17 ], [ 283463.73, 4155011.62 ], [ 283463.86, 4155012.09 ], [ 283463.95, 4155012.57 ], [ 283463.99, 4155013.06 ], [ 283463.98, 4155013.55 ], [ 283463.92, 4155014.03 ], [ 283463.82, 4155014.51 ], [ 283463.67, 4155014.97 ], [ 283463.47, 4155015.42 ], [ 283463.23, 4155015.85 ], [ 283462.96, 4155016.25 ], [ 283448.23, 4155035.45 ], [ 283447.91, 4155035.83 ], [ 283447.55, 4155036.17 ], [ 283447.43, 4155036.27 ], [ 283450.85, 4155038.85 ], [ 283451.01, 4155038.81 ], [ 283451.18, 4155038.78 ], [ 283451.36, 4155038.76 ], [ 283451.53, 4155038.77 ], [ 283451.71, 4155038.79 ], [ 283451.88, 4155038.82 ], [ 283452.05, 4155038.88 ], [ 283452.21, 4155038.95 ], [ 283452.36, 4155039.04 ], [ 283452.51, 4155039.14 ], [ 283457.67, 4155043.1 ], [ 283457.76, 4155042.89 ], [ 283458.0, 4155042.46 ], [ 283458.28, 4155042.05 ], [ 283476.46, 4155018.37 ], [ 283476.78, 4155018.0 ], [ 283476.88, 4155017.9 ], [ 283470.44, 4155013.11 ], [ 283467.05, 4155010.71 ], [ 283466.81, 4155010.52 ], [ 283466.6, 4155010.32 ], [ 283466.4, 4155010.09 ], [ 283466.23, 4155009.85 ], [ 283466.08, 4155009.58 ], [ 283465.96, 4155009.31 ], [ 283465.87, 4155009.03 ], [ 283465.8, 4155008.73 ], [ 283465.77, 4155008.44 ], [ 283465.76, 4155008.14 ], [ 283465.78, 4155007.84 ], [ 283465.83, 4155007.54 ], [ 283465.91, 4155007.26 ], [ 283466.02, 4155006.98 ], [ 283466.16, 4155006.71 ], [ 283466.32, 4155006.46 ], [ 283466.5, 4155006.22 ], [ 283466.71, 4155006.01 ], [ 283466.94, 4155005.81 ], [ 283467.18, 4155005.64 ], [ 283467.44, 4155005.49 ], [ 283467.72, 4155005.37 ], [ 283468.0, 4155005.28 ], [ 283468.29, 4155005.21 ], [ 283468.59, 4155005.18 ], [ 283468.89, 4155005.17 ], [ 283469.19, 4155005.19 ], [ 283469.48, 4155005.24 ], [ 283469.77, 4155005.32 ], [ 283470.05, 4155005.43 ], [ 283470.32, 4155005.57 ], [ 283470.57, 4155005.73 ], [ 283473.99, 4155008.15 ], [ 283474.05, 4155008.19 ], [ 283487.39, 4155018.12 ], [ 283487.58, 4155018.28 ], [ 283500.0, 4155029.24 ], [ 283500.0, 4155022.73 ], [ 283499.72, 4155022.88 ], [ 283499.27, 4155023.06 ] ] ], [ [ [ 283498.97, 4155005.45 ], [ 283500.0, 4155000.28 ], [ 283500.0, 4155000.0 ], [ 283490.78, 4155000.0 ], [ 283498.27, 4155005.76 ], [ 283498.97, 4155005.45 ] ] ], [ [ [ 283493.66, 4155070.75 ], [ 283493.76, 4155070.43 ], [ 283493.96, 4155069.98 ], [ 283494.2, 4155069.55 ], [ 283494.49, 4155069.15 ], [ 283495.13, 4155068.33 ], [ 283495.13, 4155067.22 ], [ 283495.55, 4155066.2 ], [ 283497.71, 4155064.05 ], [ 283498.73, 4155063.63 ], [ 283498.8, 4155063.63 ], [ 283500.0, 4155062.09 ], [ 283500.0, 4155048.63 ], [ 283498.73, 4155048.63 ], [ 283497.71, 4155048.2 ], [ 283495.55, 4155046.05 ], [ 283495.13, 4155045.03 ], [ 283495.13, 4155043.22 ], [ 283495.55, 4155042.2 ], [ 283497.71, 4155040.05 ], [ 283498.73, 4155039.63 ], [ 283500.0, 4155039.63 ], [ 283500.0, 4155037.36 ], [ 283499.96, 4155037.33 ], [ 283499.81, 4155037.21 ], [ 283493.92, 4155032.01 ], [ 283475.9, 4155055.56 ], [ 283475.58, 4155055.93 ], [ 283475.23, 4155056.28 ], [ 283475.03, 4155056.44 ], [ 283493.66, 4155070.75 ] ] ], [ [ [ 283398.37, 4155039.2 ], [ 283389.69, 4155033.77 ], [ 283376.83, 4155052.46 ], [ 283402.3, 4155072.7 ], [ 283417.27, 4155053.94 ], [ 283398.37, 4155039.2 ] ] ], [ [ [ 283383.68, 4155096.01 ], [ 283398.49, 4155077.46 ], [ 283387.57, 4155068.78 ], [ 283387.64, 4155068.95 ], [ 283387.78, 4155069.4 ], [ 283387.88, 4155069.87 ], [ 283387.94, 4155070.34 ], [ 283388.19, 4155074.01 ], [ 283388.2, 4155074.51 ], [ 283388.16, 4155075.02 ], [ 283388.07, 4155075.52 ], [ 283387.93, 4155076.0 ], [ 283387.73, 4155076.47 ], [ 283387.5, 4155076.92 ], [ 283387.22, 4155077.34 ], [ 283379.9, 4155087.18 ], [ 283379.37, 4155089.54 ], [ 283381.78, 4155091.39 ], [ 283382.15, 4155091.7 ], [ 283382.49, 4155092.06 ], [ 283382.8, 4155092.44 ], [ 283383.06, 4155092.85 ], [ 283383.29, 4155093.29 ], [ 283383.46, 4155093.75 ], [ 283383.6, 4155094.22 ], [ 283383.69, 4155094.7 ], [ 283383.73, 4155095.19 ], [ 283383.72, 4155095.68 ], [ 283383.68, 4155096.01 ] ] ], [ [ [ 283424.07, 4155051.68 ], [ 283424.24, 4155051.94 ], [ 283424.37, 4155052.21 ], [ 283424.48, 4155052.49 ], [ 283424.56, 4155052.78 ], [ 283424.61, 4155053.08 ], [ 283424.63, 4155053.38 ], [ 283424.62, 4155053.68 ], [ 283424.58, 4155053.98 ], [ 283424.51, 4155054.27 ], [ 283424.41, 4155054.56 ], [ 283424.29, 4155054.83 ], [ 283424.14, 4155055.09 ], [ 283423.96, 4155055.34 ], [ 283405.17, 4155078.88 ], [ 283378.58, 4155112.17 ], [ 283358.91, 4155137.03 ], [ 283361.69, 4155139.42 ], [ 283399.28, 4155090.52 ], [ 283430.89, 4155049.54 ], [ 283431.03, 4155048.63 ], [ 283430.56, 4155047.86 ], [ 283407.44, 4155030.66 ], [ 283404.15, 4155035.98 ], [ 283423.45, 4155051.03 ], [ 283423.68, 4155051.22 ], [ 283423.89, 4155051.44 ], [ 283424.07, 4155051.68 ] ] ], [ [ [ 283434.71, 4155111.2 ], [ 283435.36, 4155112.77 ], [ 283438.72, 4155114.57 ], [ 283441.13, 4155111.63 ], [ 283441.13, 4155109.22 ], [ 283441.55, 4155108.2 ], [ 283443.71, 4155106.05 ], [ 283444.73, 4155105.63 ], [ 283446.25, 4155105.63 ], [ 283446.59, 4155105.67 ], [ 283447.6, 4155105.9 ], [ 283447.67, 4155105.93 ], [ 283448.26, 4155105.24 ], [ 283448.59, 4155104.88 ], [ 283448.96, 4155104.55 ], [ 283449.36, 4155104.27 ], [ 283449.79, 4155104.02 ], [ 283450.23, 4155103.82 ], [ 283450.7, 4155103.66 ], [ 283451.18, 4155103.55 ], [ 283451.66, 4155103.49 ], [ 283452.16, 4155103.47 ], [ 283452.65, 4155103.51 ], [ 283453.13, 4155103.59 ], [ 283453.6, 4155103.71 ], [ 283454.06, 4155103.89 ], [ 283454.5, 4155104.11 ], [ 283454.92, 4155104.37 ], [ 283455.31, 4155104.67 ], [ 283459.88, 4155108.55 ], [ 283460.02, 4155108.69 ], [ 283479.3, 4155083.19 ], [ 283466.52, 4155073.39 ], [ 283466.35, 4155073.78 ], [ 283466.11, 4155074.21 ], [ 283465.84, 4155074.62 ], [ 283456.93, 4155086.34 ], [ 283456.62, 4155086.72 ], [ 283456.27, 4155087.06 ], [ 283455.88, 4155087.37 ], [ 283455.47, 4155087.64 ], [ 283455.04, 4155087.86 ], [ 283454.58, 4155088.05 ], [ 283454.11, 4155088.18 ], [ 283453.63, 4155088.27 ], [ 283453.14, 4155088.32 ], [ 283452.65, 4155088.31 ], [ 283452.16, 4155088.26 ], [ 283451.68, 4155088.16 ], [ 283451.21, 4155088.01 ], [ 283450.76, 4155087.81 ], [ 283450.33, 4155087.58 ], [ 283449.93, 4155087.3 ], [ 283444.4, 4155083.1 ], [ 283444.03, 4155082.79 ], [ 283443.69, 4155082.44 ], [ 283443.38, 4155082.05 ], [ 283443.11, 4155081.64 ], [ 283442.88, 4155081.21 ], [ 283442.7, 4155080.75 ], [ 283442.57, 4155080.28 ], [ 283442.48, 4155079.8 ], [ 283442.43, 4155079.31 ], [ 283442.44, 4155078.82 ], [ 283442.49, 4155078.33 ], [ 283442.56, 4155077.99 ], [ 283442.21, 4155078.21 ], [ 283441.76, 4155078.43 ], [ 283441.29, 4155078.61 ], [ 283440.8, 4155078.73 ], [ 283440.3, 4155078.81 ], [ 283439.8, 4155078.84 ], [ 283439.29, 4155078.81 ], [ 283438.8, 4155078.74 ], [ 283438.31, 4155078.61 ], [ 283437.84, 4155078.44 ], [ 283437.38, 4155078.22 ], [ 283436.95, 4155077.95 ], [ 283436.19, 4155077.43 ], [ 283435.85, 4155077.64 ], [ 283435.41, 4155077.86 ], [ 283434.96, 4155078.04 ], [ 283434.48, 4155078.17 ], [ 283434.0, 4155078.25 ], [ 283433.51, 4155078.29 ], [ 283433.02, 4155078.28 ], [ 283432.53, 4155078.22 ], [ 283432.05, 4155078.11 ], [ 283431.59, 4155077.95 ], [ 283431.14, 4155077.75 ], [ 283430.96, 4155077.65 ], [ 283430.88, 4155077.86 ], [ 283430.74, 4155078.12 ], [ 283430.58, 4155078.37 ], [ 283420.87, 4155091.88 ], [ 283420.69, 4155092.12 ], [ 283420.48, 4155092.33 ], [ 283420.25, 4155092.53 ], [ 283420.0, 4155092.7 ], [ 283419.74, 4155092.84 ], [ 283419.47, 4155092.96 ], [ 283419.18, 4155093.05 ], [ 283418.89, 4155093.11 ], [ 283418.6, 4155093.15 ], [ 283418.3, 4155093.15 ], [ 283418.0, 4155093.13 ], [ 283417.71, 4155093.08 ], [ 283417.42, 4155093.0 ], [ 283417.14, 4155092.89 ], [ 283416.87, 4155092.75 ], [ 283416.62, 4155092.59 ], [ 283413.81, 4155090.58 ], [ 283412.85, 4155091.84 ], [ 283412.74, 4155091.97 ], [ 283412.61, 4155092.1 ], [ 283412.47, 4155092.21 ], [ 283412.32, 4155092.3 ], [ 283412.17, 4155092.38 ], [ 283412.0, 4155092.45 ], [ 283411.83, 4155092.5 ], [ 283411.66, 4155092.53 ], [ 283411.48, 4155092.54 ], [ 283411.31, 4155092.54 ], [ 283411.13, 4155092.52 ], [ 283410.96, 4155092.48 ], [ 283410.79, 4155092.43 ], [ 283410.63, 4155092.36 ], [ 283410.47, 4155092.27 ], [ 283410.33, 4155092.17 ], [ 283410.2, 4155092.06 ], [ 283401.24, 4155104.0 ], [ 283404.8, 4155103.29 ], [ 283407.06, 4155099.4 ], [ 283406.68, 4155098.26 ], [ 283406.87, 4155096.99 ], [ 283408.87, 4155094.21 ], [ 283410.02, 4155093.63 ], [ 283414.15, 4155093.63 ], [ 283415.07, 4155093.96 ], [ 283417.21, 4155095.71 ], [ 283417.72, 4155096.55 ], [ 283419.65, 4155106.21 ], [ 283422.59, 4155108.63 ], [ 283431.53, 4155108.63 ], [ 283432.55, 4155109.05 ], [ 283434.71, 4155111.2 ] ] ], [ [ [ 283436.34, 4155138.85 ], [ 283437.0, 4155138.92 ], [ 283438.84, 4155139.55 ], [ 283439.41, 4155139.91 ], [ 283449.54, 4155150.04 ], [ 283450.94, 4155150.83 ], [ 283456.24, 4155152.15 ], [ 283451.38, 4155148.0 ], [ 283451.14, 4155147.77 ], [ 283450.92, 4155147.52 ], [ 283450.74, 4155147.25 ], [ 283450.59, 4155146.96 ], [ 283446.81, 4155138.74 ], [ 283446.69, 4155138.44 ], [ 283446.6, 4155138.13 ], [ 283446.55, 4155137.81 ], [ 283446.53, 4155137.49 ], [ 283446.54, 4155137.16 ], [ 283446.59, 4155136.84 ], [ 283448.3, 4155128.63 ], [ 283448.38, 4155128.32 ], [ 283448.49, 4155128.02 ], [ 283448.63, 4155127.74 ], [ 283451.64, 4155122.47 ], [ 283451.2, 4155122.39 ], [ 283450.73, 4155122.27 ], [ 283450.52, 4155122.19 ], [ 283439.02, 4155129.09 ], [ 283438.65, 4155129.25 ], [ 283437.5, 4155129.57 ], [ 283437.1, 4155129.63 ], [ 283429.73, 4155129.63 ], [ 283428.71, 4155129.2 ], [ 283426.55, 4155127.05 ], [ 283425.9, 4155125.48 ], [ 283423.13, 4155123.63 ], [ 283422.29, 4155123.63 ], [ 283419.45, 4155125.68 ], [ 283415.64, 4155137.11 ], [ 283418.85, 4155141.04 ], [ 283436.34, 4155138.85 ] ] ], [ [ [ 283319.97, 4155107.42 ], [ 283319.57, 4155107.14 ], [ 283319.2, 4155106.86 ], [ 283314.4, 4155108.06 ], [ 283312.13, 4155110.97 ], [ 283312.13, 4155121.77 ], [ 283313.79, 4155124.45 ], [ 283315.59, 4155125.35 ], [ 283316.25, 4155126.03 ], [ 283317.41, 4155128.46 ], [ 283317.51, 4155129.4 ], [ 283312.94, 4155149.97 ], [ 283315.25, 4155152.85 ], [ 283315.05, 4155153.48 ], [ 283316.35, 4155153.9 ], [ 283318.43, 4155155.4 ], [ 283318.96, 4155156.12 ], [ 283319.59, 4155157.99 ], [ 283319.39, 4155159.26 ], [ 283317.39, 4155162.04 ], [ 283316.25, 4155162.63 ], [ 283309.13, 4155162.63 ], [ 283308.56, 4155163.19 ], [ 283323.13, 4155169.25 ], [ 283329.98, 4155156.74 ], [ 283330.0, 4155156.71 ], [ 283330.01, 4155156.68 ], [ 283330.08, 4155156.58 ], [ 283330.14, 4155156.48 ], [ 283330.16, 4155156.46 ], [ 283330.17, 4155156.43 ], [ 283330.25, 4155156.34 ], [ 283330.32, 4155156.24 ], [ 283330.34, 4155156.22 ], [ 283330.36, 4155156.19 ], [ 283341.43, 4155143.52 ], [ 283341.66, 4155143.29 ], [ 283341.92, 4155143.08 ], [ 283352.57, 4155135.22 ], [ 283355.99, 4155130.88 ], [ 283355.82, 4155130.91 ], [ 283355.33, 4155130.95 ], [ 283354.84, 4155130.94 ], [ 283354.35, 4155130.89 ], [ 283353.88, 4155130.78 ], [ 283353.41, 4155130.63 ], [ 283352.96, 4155130.44 ], [ 283352.53, 4155130.2 ], [ 283352.13, 4155129.92 ], [ 283328.35, 4155111.63 ], [ 283327.73, 4155111.63 ], [ 283326.71, 4155111.2 ], [ 283324.55, 4155109.05 ], [ 283324.34, 4155108.54 ], [ 283323.71, 4155108.05 ], [ 283323.27, 4155108.13 ], [ 283322.78, 4155108.17 ], [ 283322.29, 4155108.16 ], [ 283321.8, 4155108.11 ], [ 283321.32, 4155108.0 ], [ 283320.85, 4155107.85 ], [ 283320.4, 4155107.66 ], [ 283319.97, 4155107.42 ] ] ], [ [ [ 283256.91, 4155129.67 ], [ 283256.27, 4155129.94 ], [ 283250.0, 4155130.98 ], [ 283250.0, 4155145.67 ], [ 283276.13, 4155156.9 ], [ 283276.13, 4155155.23 ], [ 283274.8, 4155152.74 ], [ 283269.45, 4155149.17 ], [ 283268.88, 4155148.43 ], [ 283268.02, 4155145.92 ], [ 283268.01, 4155144.98 ], [ 283268.88, 4155142.38 ], [ 283267.05, 4155138.6 ], [ 283266.19, 4155138.3 ], [ 283264.05, 4155136.54 ], [ 283263.55, 4155135.7 ], [ 283262.57, 4155130.8 ], [ 283257.84, 4155128.98 ], [ 283256.91, 4155129.67 ] ] ], [ [ [ 283462.24, 4155139.07 ], [ 283461.35, 4155138.58 ], [ 283459.49, 4155136.43 ], [ 283459.13, 4155135.48 ], [ 283459.13, 4155130.69 ], [ 283455.82, 4155128.19 ], [ 283455.53, 4155127.95 ], [ 283454.17, 4155130.34 ], [ 283452.77, 4155137.1 ], [ 283455.85, 4155143.8 ], [ 283466.22, 4155152.66 ], [ 283474.13, 4155142.39 ], [ 283471.48, 4155140.39 ], [ 283462.24, 4155139.07 ] ] ], [ [ [ 283376.1, 4155153.23 ], [ 283376.52, 4155153.5 ], [ 283376.9, 4155153.82 ], [ 283377.26, 4155154.17 ], [ 283377.58, 4155154.55 ], [ 283377.86, 4155154.97 ], [ 283378.09, 4155155.41 ], [ 283378.29, 4155155.87 ], [ 283378.43, 4155156.35 ], [ 283378.48, 4155156.63 ], [ 283401.67, 4155156.63 ], [ 283404.64, 4155153.2 ], [ 283402.56, 4155138.6 ], [ 283399.16, 4155136.05 ], [ 283385.2, 4155138.04 ], [ 283384.06, 4155137.71 ], [ 283381.62, 4155135.59 ], [ 283381.13, 4155134.51 ], [ 283381.13, 4155130.87 ], [ 283381.15, 4155130.78 ], [ 283367.97, 4155148.34 ], [ 283367.32, 4155149.19 ], [ 283375.65, 4155153.0 ], [ 283376.1, 4155153.23 ] ] ], [ [ [ 283345.81, 4155147.79 ], [ 283335.17, 4155159.96 ], [ 283328.71, 4155171.74 ], [ 283334.84, 4155174.66 ], [ 283357.98, 4155144.27 ], [ 283354.56, 4155141.33 ], [ 283345.81, 4155147.79 ] ] ], [ [ [ 283498.06, 4155158.35 ], [ 283498.37, 4155158.36 ], [ 283498.67, 4155158.41 ], [ 283498.97, 4155158.48 ], [ 283499.26, 4155158.59 ], [ 283499.53, 4155158.72 ], [ 283499.79, 4155158.88 ], [ 283500.0, 4155159.02 ], [ 283500.0, 4155153.11 ], [ 283496.58, 4155150.48 ], [ 283491.02, 4155157.71 ], [ 283490.71, 4155158.09 ], [ 283490.35, 4155158.43 ], [ 283489.97, 4155158.73 ], [ 283489.56, 4155159.0 ], [ 283489.12, 4155159.22 ], [ 283488.66, 4155159.4 ], [ 283488.19, 4155159.54 ], [ 283487.71, 4155159.62 ], [ 283487.22, 4155159.66 ], [ 283486.73, 4155159.65 ], [ 283486.24, 4155159.6 ], [ 283485.76, 4155159.49 ], [ 283485.3, 4155159.34 ], [ 283484.85, 4155159.15 ], [ 283484.42, 4155158.91 ], [ 283484.01, 4155158.63 ], [ 283478.98, 4155154.77 ], [ 283475.03, 4155159.93 ], [ 283484.46, 4155167.48 ], [ 283487.73, 4155169.67 ], [ 283495.67, 4155159.52 ], [ 283495.87, 4155159.29 ], [ 283496.09, 4155159.08 ], [ 283496.33, 4155158.89 ], [ 283496.59, 4155158.73 ], [ 283496.87, 4155158.59 ], [ 283497.16, 4155158.49 ], [ 283497.45, 4155158.41 ], [ 283497.76, 4155158.36 ], [ 283498.06, 4155158.35 ] ] ], [ [ [ 283473.71, 4155193.05 ], [ 283474.73, 4155192.63 ], [ 283478.65, 4155192.63 ], [ 283487.45, 4155178.47 ], [ 283487.73, 4155178.06 ], [ 283488.04, 4155177.69 ], [ 283488.37, 4155177.38 ], [ 283486.77, 4155176.37 ], [ 283486.73, 4155176.34 ], [ 283486.69, 4155176.32 ], [ 283483.39, 4155174.11 ], [ 283470.29, 4155192.13 ], [ 283470.1, 4155192.36 ], [ 283469.89, 4155192.58 ], [ 283469.66, 4155192.77 ], [ 283469.42, 4155192.94 ], [ 283469.15, 4155193.08 ], [ 283468.88, 4155193.2 ], [ 283468.59, 4155193.29 ], [ 283468.3, 4155193.35 ], [ 283468.0, 4155193.38 ], [ 283467.7, 4155193.38 ], [ 283467.4, 4155193.36 ], [ 283467.11, 4155193.3 ], [ 283466.82, 4155193.22 ], [ 283466.54, 4155193.1 ], [ 283466.28, 4155192.97 ], [ 283466.03, 4155192.8 ], [ 283465.8, 4155192.61 ], [ 283465.58, 4155192.4 ], [ 283465.39, 4155192.17 ], [ 283465.22, 4155191.93 ], [ 283465.08, 4155191.66 ], [ 283464.96, 4155191.39 ], [ 283464.87, 4155191.1 ], [ 283464.81, 4155190.81 ], [ 283464.78, 4155190.51 ], [ 283464.78, 4155190.21 ], [ 283464.8, 4155189.92 ], [ 283464.86, 4155189.62 ], [ 283464.94, 4155189.33 ], [ 283465.05, 4155189.06 ], [ 283465.19, 4155188.79 ], [ 283465.36, 4155188.54 ], [ 283478.48, 4155170.5 ], [ 283471.32, 4155164.78 ], [ 283468.41, 4155168.59 ], [ 283468.3, 4155168.72 ], [ 283468.17, 4155168.84 ], [ 283468.03, 4155168.95 ], [ 283467.88, 4155169.05 ], [ 283467.73, 4155169.13 ], [ 283467.56, 4155169.2 ], [ 283467.39, 4155169.24 ], [ 283467.22, 4155169.28 ], [ 283467.04, 4155169.29 ], [ 283466.87, 4155169.29 ], [ 283466.69, 4155169.27 ], [ 283466.52, 4155169.23 ], [ 283466.35, 4155169.18 ], [ 283466.19, 4155169.11 ], [ 283466.03, 4155169.02 ], [ 283465.96, 4155168.97 ], [ 283449.87, 4155189.89 ], [ 283455.04, 4155184.71 ], [ 283455.53, 4155184.39 ], [ 283457.1, 4155183.74 ], [ 283457.67, 4155183.63 ], [ 283458.53, 4155183.63 ], [ 283459.55, 4155184.05 ], [ 283461.71, 4155186.2 ], [ 283462.13, 4155187.22 ], [ 283462.13, 4155195.63 ], [ 283465.13, 4155198.63 ], [ 283468.13, 4155198.63 ], [ 283470.9, 4155196.77 ], [ 283471.55, 4155195.2 ], [ 283473.71, 4155193.05 ] ] ], [ [ [ 283369.24, 4155194.41 ], [ 283369.37, 4155193.94 ], [ 283369.55, 4155193.48 ], [ 283373.69, 4155183.98 ], [ 283373.9, 4155183.54 ], [ 283374.16, 4155183.12 ], [ 283374.36, 4155182.86 ], [ 283372.55, 4155181.05 ], [ 283372.33, 4155180.5 ], [ 283368.61, 4155178.8 ], [ 283361.61, 4155181.13 ], [ 283355.92, 4155188.47 ], [ 283355.6, 4155188.84 ], [ 283355.25, 4155189.17 ], [ 283354.87, 4155189.47 ], [ 283354.68, 4155189.6 ], [ 283369.15, 4155195.94 ], [ 283369.15, 4155195.88 ], [ 283369.13, 4155195.38 ], [ 283369.16, 4155194.9 ], [ 283369.24, 4155194.41 ] ] ], [ [ [ 283408.45, 4155225.82 ], [ 283408.77, 4155225.87 ], [ 283331.33, 4155191.8 ], [ 283331.32, 4155191.79 ], [ 283331.31, 4155191.78 ], [ 283318.0, 4155185.82 ], [ 283291.46, 4155173.94 ], [ 283250.0, 4155156.12 ], [ 283250.0, 4155156.54 ], [ 283250.01, 4155156.54 ], [ 283250.02, 4155156.55 ], [ 283250.03, 4155156.56 ], [ 283250.08, 4155156.61 ], [ 283250.14, 4155156.66 ], [ 283251.4, 4155157.9 ], [ 283321.98, 4155188.78 ], [ 283370.41, 4155210.2 ], [ 283406.24, 4155226.11 ], [ 283406.51, 4155226.01 ], [ 283406.98, 4155225.89 ], [ 283407.47, 4155225.82 ], [ 283407.96, 4155225.79 ], [ 283408.45, 4155225.82 ] ] ], [ [ [ 283343.73, 4155207.75 ], [ 283344.22, 4155207.83 ], [ 283344.69, 4155207.97 ], [ 283345.15, 4155208.15 ], [ 283350.78, 4155210.67 ], [ 283351.22, 4155210.9 ], [ 283351.64, 4155211.16 ], [ 283352.02, 4155211.47 ], [ 283352.38, 4155211.81 ], [ 283352.69, 4155212.18 ], [ 283352.94, 4155212.54 ], [ 283352.98, 4155212.54 ], [ 283353.47, 4155212.56 ], [ 283353.96, 4155212.63 ], [ 283354.43, 4155212.75 ], [ 283354.9, 4155212.91 ], [ 283357.61, 4155214.03 ], [ 283358.05, 4155214.24 ], [ 283358.47, 4155214.49 ], [ 283358.86, 4155214.78 ], [ 283359.23, 4155215.11 ], [ 283359.56, 4155215.47 ], [ 283359.85, 4155215.86 ], [ 283360.1, 4155216.28 ], [ 283360.12, 4155216.33 ], [ 283360.2, 4155216.36 ], [ 283360.65, 4155216.57 ], [ 283361.07, 4155216.82 ], [ 283361.46, 4155217.11 ], [ 283361.83, 4155217.44 ], [ 283361.98, 4155217.61 ], [ 283362.2, 4155217.52 ], [ 283362.66, 4155217.37 ], [ 283363.14, 4155217.26 ], [ 283363.63, 4155217.2 ], [ 283364.12, 4155217.19 ], [ 283364.61, 4155217.23 ], [ 283365.09, 4155217.32 ], [ 283365.56, 4155217.45 ], [ 283366.02, 4155217.63 ], [ 283371.66, 4155220.16 ], [ 283372.07, 4155220.37 ], [ 283372.55, 4155219.2 ], [ 283374.71, 4155217.05 ], [ 283375.73, 4155216.63 ], [ 283376.01, 4155216.63 ], [ 283368.95, 4155213.49 ], [ 283322.3, 4155192.86 ], [ 283323.8, 4155194.68 ], [ 283324.13, 4155195.61 ], [ 283324.13, 4155195.63 ], [ 283327.13, 4155198.63 ], [ 283332.53, 4155198.63 ], [ 283333.55, 4155199.05 ], [ 283335.71, 4155201.2 ], [ 283336.36, 4155202.77 ], [ 283339.13, 4155204.63 ], [ 283340.25, 4155204.63 ], [ 283341.39, 4155205.21 ], [ 283343.19, 4155207.71 ], [ 283343.25, 4155207.71 ], [ 283343.73, 4155207.75 ] ] ], [ [ [ 283449.71, 4155198.2 ], [ 283447.55, 4155196.05 ], [ 283447.13, 4155195.03 ], [ 283447.13, 4155194.16 ], [ 283447.24, 4155193.6 ], [ 283447.51, 4155192.96 ], [ 283425.97, 4155220.96 ], [ 283442.1, 4155228.28 ], [ 283442.06, 4155227.85 ], [ 283442.06, 4155227.36 ], [ 283442.12, 4155226.87 ], [ 283442.22, 4155226.39 ], [ 283442.37, 4155225.93 ], [ 283442.56, 4155225.47 ], [ 283444.35, 4155221.8 ], [ 283444.29, 4155221.68 ], [ 283441.16, 4155220.64 ], [ 283440.37, 4155219.99 ], [ 283438.93, 4155217.5 ], [ 283438.76, 4155216.49 ], [ 283440.39, 4155208.31 ], [ 283441.03, 4155207.38 ], [ 283443.66, 4155205.72 ], [ 283444.78, 4155205.54 ], [ 283449.4, 4155206.69 ], [ 283453.13, 4155203.78 ], [ 283453.13, 4155201.63 ], [ 283451.28, 4155198.85 ], [ 283449.71, 4155198.2 ] ] ], [ [ [ 283499.53, 4155242.94 ], [ 283499.08, 4155243.1 ], [ 283498.61, 4155243.21 ], [ 283498.13, 4155243.28 ], [ 283497.64, 4155243.29 ], [ 283497.16, 4155243.27 ], [ 283496.68, 4155243.19 ], [ 283496.31, 4155243.09 ], [ 283494.01, 4155250.0 ], [ 283500.0, 4155250.0 ], [ 283500.0, 4155242.73 ], [ 283499.97, 4155242.74 ], [ 283499.53, 4155242.94 ] ] ], [ [ [ 283331.67, 4155247.87 ], [ 283332.02, 4155248.22 ], [ 283332.34, 4155248.59 ], [ 283332.55, 4155248.9 ], [ 283332.58, 4155248.9 ], [ 283333.07, 4155248.94 ], [ 283333.56, 4155249.03 ], [ 283334.03, 4155249.17 ], [ 283334.48, 4155249.35 ], [ 283335.89, 4155250.0 ], [ 283359.16, 4155250.0 ], [ 283340.19, 4155241.25 ], [ 283339.92, 4155241.2 ], [ 283339.45, 4155241.06 ], [ 283339.0, 4155240.87 ], [ 283335.53, 4155239.21 ], [ 283335.1, 4155238.97 ], [ 283334.77, 4155238.76 ], [ 283316.06, 4155230.13 ], [ 283315.97, 4155230.14 ], [ 283317.01, 4155239.53 ], [ 283319.46, 4155242.15 ], [ 283322.67, 4155240.54 ], [ 283323.12, 4155239.66 ], [ 283323.66, 4155239.06 ], [ 283325.63, 4155237.85 ], [ 283326.4, 4155237.63 ], [ 283328.8, 4155237.63 ], [ 283329.9, 4155238.15 ], [ 283331.99, 4155240.69 ], [ 283332.28, 4155241.87 ], [ 283331.16, 4155247.48 ], [ 283331.29, 4155247.57 ], [ 283331.67, 4155247.87 ] ] ], [ [ [ 283385.11, 4155247.54 ], [ 283384.66, 4155247.75 ], [ 283384.2, 4155247.91 ], [ 283383.72, 4155248.03 ], [ 283383.24, 4155248.1 ], [ 283382.75, 4155248.12 ], [ 283382.26, 4155248.1 ], [ 283381.77, 4155248.02 ], [ 283381.3, 4155247.9 ], [ 283380.84, 4155247.73 ], [ 283373.99, 4155244.87 ], [ 283373.55, 4155244.66 ], [ 283373.13, 4155244.4 ], [ 283372.74, 4155244.11 ], [ 283372.38, 4155243.78 ], [ 283372.05, 4155243.41 ], [ 283371.76, 4155243.02 ], [ 283371.51, 4155242.6 ], [ 283371.3, 4155242.15 ], [ 283371.21, 4155241.9 ], [ 283350.04, 4155239.08 ], [ 283373.73, 4155250.0 ], [ 283389.8, 4155250.0 ], [ 283388.55, 4155248.74 ], [ 283388.16, 4155247.48 ], [ 283388.41, 4155246.24 ], [ 283387.29, 4155245.25 ], [ 283387.17, 4155245.5 ], [ 283386.91, 4155245.92 ], [ 283386.62, 4155246.31 ], [ 283386.29, 4155246.67 ], [ 283385.92, 4155247.0 ], [ 283385.53, 4155247.29 ], [ 283385.11, 4155247.54 ] ] ], [ [ [ 283410.53, 4155249.1 ], [ 283410.05, 4155249.03 ], [ 283409.57, 4155248.91 ], [ 283409.11, 4155248.75 ], [ 283404.96, 4155247.04 ], [ 283404.62, 4155247.78 ], [ 283404.4, 4155248.21 ], [ 283404.13, 4155248.62 ], [ 283403.82, 4155249.01 ], [ 283403.48, 4155249.36 ], [ 283403.11, 4155249.67 ], [ 283402.7, 4155249.95 ], [ 283402.62, 4155250.0 ], [ 283410.28, 4155250.0 ], [ 283410.69, 4155249.11 ], [ 283410.53, 4155249.1 ] ] ] ] } }
]
}
