{
"type": "FeatureCollection",
"name": "landuse",
"crs": { "type": "name", "properties": { "name": "urn:ogc:def:crs:EPSG::32618" } },
"xy_coordinate_resolution": 0.01,
"features": [
{ "type": "Feature", "properties": { "id": "imagery:groundcover_lawn:3429", "name": null, "kind": "groundcover_lawn", "sport": null, "surface": null, "pitch_layout": null, "source": "vgin_vbmp+naip+lidar2025", "source_updated": null, "base_z": null, "top_z": null }, "geometry": { "type": "Polygon", "coordinates": [ [ [ 285411.04, 4156006.99 ], [ 285421.69, 4156000.0 ], [ 285408.67, 4156000.0 ], [ 285408.02, 4156002.45 ], [ 285411.04, 4156006.99 ] ] ] } },
{ "type": "Feature", "properties": { "id": "imagery:groundcover_paved:3461", "name": null, "kind": "groundcover_paved", "sport": null, "surface": null, "pitch_layout": null, "source": "vgin_vbmp+naip+lidar2025", "source_updated": null, "base_z": null, "top_z": null }, "geometry": { "type": "MultiPolygon", "coordinates": [ [ [ [ 285322.63, 4156006.91 ], [ 285322.52, 4156007.01 ], [ 285303.0, 4156021.6 ], [ 285302.89, 4156021.68 ], [ 285302.76, 4156021.76 ], [ 285286.9, 4156030.05 ], [ 285284.21, 4156031.46 ], [ 285276.74, 4156035.37 ], [ 285264.69, 4156041.96 ], [ 285250.0, 4156050.04 ], [ 285250.0, 4156086.64 ], [ 285314.67, 4156056.7 ], [ 285359.38, 4156021.56 ], [ 285369.53, 4156005.97 ], [ 285370.44, 4156000.0 ], [ 285329.3, 4156000.0 ], [ 285322.74, 4156006.81 ], [ 285322.63, 4156006.91 ] ] ], [ [ [ 285312.88, 4156076.25 ], [ 285341.65, 4156055.6 ], [ 285342.67, 4156054.24 ], [ 285342.87, 4156054.02 ], [ 285343.56, 4156053.42 ], [ 285343.8, 4156053.24 ], [ 285349.36, 4156050.07 ], [ 285364.5, 4156039.2 ], [ 285368.41, 4156013.37 ], [ 285361.84, 4156023.47 ], [ 285361.74, 4156023.6 ], [ 285361.62, 4156023.73 ], [ 285361.49, 4156023.84 ], [ 285316.45, 4156059.25 ], [ 285316.3, 4156059.35 ], [ 285316.14, 4156059.44 ], [ 285250.0, 4156090.06 ], [ 285250.0, 4156097.19 ], [ 285295.81, 4156084.78 ], [ 285312.88, 4156076.25 ] ] ], [ [ [ 285250.0, 4156044.88 ], [ 285250.0, 4156045.93 ], [ 285253.07, 4156044.24 ], [ 285250.0, 4156044.88 ] ] ] ] } },
{ "type": "Feature", "properties": { "id": "osm:way/679319538", "name": "Walker's Creek Retention Basin Park", "kind": "park", "sport": null, "surface": null, "pitch_layout": null, "source": null, "source_updated": null, "base_z": null, "top_z": null }, "geometry": { "type": "Polygon", "coordinates": [ [ [ 285301.93, 4156020.16 ], [ 285321.44, 4156005.56 ], [ 285326.8, 4156000.0 ], [ 285250.0, 4156000.0 ], [ 285250.0, 4156043.16 ], [ 285263.82, 4156040.38 ], [ 285301.93, 4156020.16 ] ] ] } },
{ "type": "Feature", "properties": { "id": "osm:way/200859659", "name": "Mayo Island", "kind": "industrial", "sport": null, "surface": null, "pitch_layout": null, "source": null, "source_updated": null, "base_z": null, "top_z": null }, "geometry": { "type": "Polygon", "coordinates": [ [ [ 285322.63, 4156246.85 ], [ 285322.54, 4156246.45 ], [ 285322.39, 4156246.19 ], [ 285322.12, 4156245.93 ], [ 285309.47, 4156250.0 ], [ 285321.86, 4156250.0 ], [ 285322.61, 4156247.04 ], [ 285322.63, 4156246.85 ] ] ] } }
]
}
