{
"type": "FeatureCollection",
"name": "roads",
"crs": { "type": "name", "properties": { "name": "urn:ogc:def:crs:EPSG::32618" } },
"xy_coordinate_resolution": 0.01,
"features": [
{ "type": "Feature", "properties": { "id": "osm:way/207703618", "name": "East Franklin Street", "highway": "residential", "lanes": 2.0, "width": 7.0, "oneway": false, "surface": "asphalt", "footway": null, "sidewalk_left": true, "sidewalk_right": true, "generated_sidewalk": true, "bus_lanes": null, "bus_lane_side": null, "bus_only": false, "sidewalk": true, "bridge": false, "ramp": false, "tunnel": false, "layer": 0, "deck": null }, "geometry": { "type": "LineString", "coordinates": [ [ 285652.15, 4156793.46 ], [ 285705.33, 4156750.02 ], [ 285705.35, 4156750.0 ] ] } },
{ "type": "Feature", "properties": { "id": "osm:way/735114872", "name": null, "highway": "service", "lanes": null, "width": 4.5, "oneway": false, "surface": null, "footway": null, "sidewalk_left": false, "sidewalk_right": false, "generated_sidewalk": false, "bus_lanes": null, "bus_lane_side": null, "bus_only": false, "sidewalk": false, "bridge": false, "ramp": false, "tunnel": false, "layer": 0, "deck": null }, "geometry": { "type": "LineString", "coordinates": [ [ 285705.33, 4156750.02 ], [ 285705.31, 4156750.0 ] ] } },
{ "type": "Feature", "properties": { "id": "osm:way/1510734151", "name": null, "highway": "footway", "lanes": null, "width": 2.0, "oneway": false, "surface": "paving_stones", "footway": "sidewalk", "sidewalk_left": false, "sidewalk_right": false, "generated_sidewalk": false, "bus_lanes": null, "bus_lane_side": null, "bus_only": false, "sidewalk": false, "bridge": false, "ramp": false, "tunnel": false, "layer": 0, "deck": null }, "geometry": { "type": "LineString", "coordinates": [ [ 285629.6, 4156750.0 ], [ 285653.42, 4156779.74 ] ] } },
{ "type": "Feature", "properties": { "id": "osm:way/6040766", "name": "North 20th Street", "highway": "residential", "lanes": null, "width": 7.0, "oneway": false, "surface": "asphalt", "footway": null, "sidewalk_left": true, "sidewalk_right": true, "generated_sidewalk": true, "bus_lanes": null, "bus_lane_side": null, "bus_only": false, "sidewalk": false, "bridge": false, "ramp": false, "tunnel": false, "layer": 0, "deck": null }, "geometry": { "type": "LineString", "coordinates": [ [ 285747.66, 4156750.0 ], [ 285750.0, 4156752.89 ] ] } },
{ "type": "Feature", "properties": { "id": "osm:way/1510734155", "name": null, "highway": "footway", "lanes": null, "width": 2.0, "oneway": false, "surface": null, "footway": "crossing", "sidewalk_left": false, "sidewalk_right": false, "generated_sidewalk": false, "bus_lanes": null, "bus_lane_side": null, "bus_only": false, "sidewalk": false, "bridge": false, "ramp": false, "tunnel": false, "layer": 0, "deck": null }, "geometry": { "type": "LineString", "coordinates": [ [ 285640.93, 4156790.11 ], [ 285645.96, 4156785.93 ], [ 285653.42, 4156779.74 ] ] } },
{ "type": "Feature", "properties": { "id": "osm:way/6034193", "name": "North 19th Street", "highway": "residential", "lanes": null, "width": 7.0, "oneway": false, "surface": null, "footway": null, "sidewalk_left": null, "sidewalk_right": false, "generated_sidewalk": true, "bus_lanes": null, "bus_lane_side": null, "bus_only": false, "sidewalk": false, "bridge": false, "ramp": false, "tunnel": false, "layer": 0, "deck": null }, "geometry": { "type": "LineString", "coordinates": [ [ 285727.79, 4156888.0 ], [ 285710.78, 4156866.74 ], [ 285695.32, 4156847.42 ], [ 285652.15, 4156793.46 ], [ 285645.96, 4156785.93 ], [ 285616.4, 4156750.0 ] ] } },
{ "type": "Feature", "properties": { "id": "osm:way/1253439484", "name": null, "highway": "footway", "lanes": null, "width": 2.0, "oneway": false, "surface": null, "footway": "sidewalk", "sidewalk_left": false, "sidewalk_right": false, "generated_sidewalk": false, "bus_lanes": null, "bus_lane_side": null, "bus_only": false, "sidewalk": false, "bridge": false, "ramp": false, "tunnel": false, "layer": 0, "deck": null }, "geometry": { "type": "MultiLineString", "coordinates": [ [ [ 285728.75, 4156874.61 ], [ 285664.43, 4156793.55 ], [ 285718.14, 4156750.0 ] ], [ [ 285737.89, 4156750.0 ], [ 285750.0, 4156764.99 ] ] ] } },
{ "type": "Feature", "properties": { "id": "osm:way/1253439493", "name": null, "highway": "footway", "lanes": null, "width": 2.0, "oneway": false, "surface": "concrete", "footway": "sidewalk", "sidewalk_left": false, "sidewalk_right": false, "generated_sidewalk": false, "bus_lanes": null, "bus_lane_side": null, "bus_only": false, "sidewalk": false, "bridge": false, "ramp": false, "tunnel": false, "layer": 0, "deck": null }, "geometry": { "type": "LineString", "coordinates": [ [ 285750.0, 4156859.03 ], [ 285729.87, 4156875.22 ], [ 285728.75, 4156874.61 ] ] } },
{ "type": "Feature", "properties": { "id": "osm:way/47969573", "name": "East Grace Street", "highway": "residential", "lanes": null, "width": 7.0, "oneway": false, "surface": null, "footway": null, "sidewalk_left": true, "sidewalk_right": true, "generated_sidewalk": true, "bus_lanes": null, "bus_lane_side": null, "bus_only": false, "sidewalk": false, "bridge": false, "ramp": false, "tunnel": false, "layer": 0, "deck": null }, "geometry": { "type": "LineString", "coordinates": [ [ 285649.34, 4156950.37 ], [ 285663.61, 4156939.42 ], [ 285690.5, 4156917.35 ], [ 285707.19, 4156904.21 ], [ 285727.79, 4156888.0 ], [ 285750.0, 4156870.06 ] ] } },
{ "type": "Feature", "properties": { "id": "osm:way/910286046", "name": null, "highway": "service", "lanes": null, "width": 4.5, "oneway": false, "surface": null, "footway": null, "sidewalk_left": false, "sidewalk_right": false, "generated_sidewalk": false, "bus_lanes": null, "bus_lane_side": null, "bus_only": false, "sidewalk": false, "bridge": false, "ramp": false, "tunnel": false, "layer": 0, "deck": null }, "geometry": { "type": "LineString", "coordinates": [ [ 285695.32, 4156847.42 ], [ 285686.12, 4156854.69 ], [ 285674.49, 4156862.94 ], [ 285670.97, 4156864.48 ], [ 285666.61, 4156865.17 ], [ 285662.8, 4156865.22 ] ] } },
{ "type": "Feature", "properties": { "id": "osm:way/1453510177", "name": "East Main Street", "highway": "primary", "lanes": 5.0, "width": 16.5, "oneway": false, "surface": "asphalt", "footway": null, "sidewalk_left": false, "sidewalk_right": false, "generated_sidewalk": true, "bus_lanes": null, "bus_lane_side": null, "bus_only": false, "sidewalk": false, "bridge": false, "ramp": false, "tunnel": false, "layer": 0, "deck": null }, "geometry": { "type": "LineString", "coordinates": [ [ 285510.46, 4156750.0 ], [ 285500.0, 4156758.39 ] ] } },
{ "type": "Feature", "properties": { "id": "osm:way/1510734137", "name": null, "highway": "footway", "lanes": null, "width": 2.0, "oneway": false, "surface": "paving_stones", "footway": "sidewalk", "sidewalk_left": false, "sidewalk_right": false, "generated_sidewalk": false, "bus_lanes": null, "bus_lane_side": null, "bus_only": false, "sidewalk": false, "bridge": false, "ramp": false, "tunnel": false, "layer": 0, "deck": null }, "geometry": { "type": "LineString", "coordinates": [ [ 285512.03, 4156764.07 ], [ 285513.26, 4156760.67 ], [ 285526.35, 4156750.0 ] ] } },
{ "type": "Feature", "properties": { "id": "osm:way/1510734136", "name": null, "highway": "footway", "lanes": null, "width": 2.0, "oneway": false, "surface": "concrete", "footway": "sidewalk", "sidewalk_left": false, "sidewalk_right": false, "generated_sidewalk": false, "bus_lanes": null, "bus_lane_side": null, "bus_only": false, "sidewalk": false, "bridge": false, "ramp": false, "tunnel": false, "layer": 0, "deck": null }, "geometry": { "type": "LineString", "coordinates": [ [ 285512.03, 4156764.07 ], [ 285509.65, 4156763.75 ] ] } },
{ "type": "Feature", "properties": { "id": "osm:way/1510734129", "name": null, "highway": "footway", "lanes": null, "width": 2.0, "oneway": false, "surface": "paving_stones", "footway": "sidewalk", "sidewalk_left": false, "sidewalk_right": false, "generated_sidewalk": false, "bus_lanes": null, "bus_lane_side": null, "bus_only": false, "sidewalk": false, "bridge": false, "ramp": false, "tunnel": false, "layer": 0, "deck": null }, "geometry": { "type": "LineString", "coordinates": [ [ 285528.65, 4156812.41 ], [ 285528.32, 4156812.02 ], [ 285500.0, 4156777.09 ] ] } },
{ "type": "Feature", "properties": { "id": "osm:way/1510734135", "name": null, "highway": "footway", "lanes": null, "width": 2.0, "oneway": false, "surface": "paving_stones", "footway": "sidewalk", "sidewalk_left": false, "sidewalk_right": false, "generated_sidewalk": false, "bus_lanes": null, "bus_lane_side": null, "bus_only": false, "sidewalk": false, "bridge": false, "ramp": false, "tunnel": false, "layer": 0, "deck": null }, "geometry": { "type": "LineString", "coordinates": [ [ 285575.41, 4156842.88 ], [ 285512.03, 4156764.07 ] ] } },
{ "type": "Feature", "properties": { "id": "osm:way/1510734128", "name": null, "highway": "footway", "lanes": null, "width": 2.0, "oneway": false, "surface": "unhewn_cobblestone", "footway": "crossing", "sidewalk_left": false, "sidewalk_right": false, "generated_sidewalk": false, "bus_lanes": null, "bus_lane_side": null, "bus_only": false, "sidewalk": false, "bridge": false, "ramp": false, "tunnel": false, "layer": 0, "deck": null }, "geometry": { "type": "LineString", "coordinates": [ [ 285531.47, 4156815.9 ], [ 285530.61, 4156814.84 ], [ 285528.65, 4156812.41 ] ] } },
{ "type": "Feature", "properties": { "id": "osm:way/1510734131", "name": null, "highway": "footway", "lanes": null, "width": 2.0, "oneway": false, "surface": "paving_stones", "footway": "sidewalk", "sidewalk_left": false, "sidewalk_right": false, "generated_sidewalk": false, "bus_lanes": null, "bus_lane_side": null, "bus_only": false, "sidewalk": false, "bridge": false, "ramp": false, "tunnel": false, "layer": 0, "deck": null }, "geometry": { "type": "LineString", "coordinates": [ [ 285531.79, 4156816.3 ], [ 285501.31, 4156840.72 ] ] } },
{ "type": "Feature", "properties": { "id": "osm:way/1510734130", "name": null, "highway": "footway", "lanes": null, "width": 2.0, "oneway": false, "surface": "paving_stones", "footway": "sidewalk", "sidewalk_left": false, "sidewalk_right": false, "generated_sidewalk": false, "bus_lanes": null, "bus_lane_side": null, "bus_only": false, "sidewalk": false, "bridge": false, "ramp": false, "tunnel": false, "layer": 0, "deck": null }, "geometry": { "type": "LineString", "coordinates": [ [ 285528.32, 4156812.02 ], [ 285500.0, 4156834.67 ] ] } },
{ "type": "Feature", "properties": { "id": "osm:way/6041005", "name": "Walnut Alley", "highway": "service", "lanes": null, "width": 4.5, "oneway": false, "surface": null, "footway": null, "sidewalk_left": false, "sidewalk_right": false, "generated_sidewalk": false, "bus_lanes": null, "bus_lane_side": null, "bus_only": false, "sidewalk": false, "bridge": false, "ramp": false, "tunnel": false, "layer": 0, "deck": null }, "geometry": { "type": "LineString", "coordinates": [ [ 285500.0, 4156838.02 ], [ 285530.61, 4156814.84 ], [ 285536.25, 4156810.56 ] ] } },
{ "type": "Feature", "properties": { "id": "osm:way/1510734132", "name": null, "highway": "footway", "lanes": null, "width": 2.0, "oneway": false, "surface": "unhewn_cobblestone", "footway": "crossing", "sidewalk_left": false, "sidewalk_right": false, "generated_sidewalk": false, "bus_lanes": null, "bus_lane_side": null, "bus_only": false, "sidewalk": false, "bridge": false, "ramp": false, "tunnel": false, "layer": 0, "deck": null }, "geometry": { "type": "LineString", "coordinates": [ [ 285501.31, 4156840.72 ], [ 285500.0, 4156841.79 ] ] } },
{ "type": "Feature", "properties": { "id": "osm:way/1510734147", "name": null, "highway": "footway", "lanes": null, "width": 2.0, "oneway": false, "surface": "unhewn_cobblestone", "footway": "crossing", "sidewalk_left": false, "sidewalk_right": false, "generated_sidewalk": false, "bus_lanes": null, "bus_lane_side": null, "bus_only": false, "sidewalk": false, "bridge": false, "ramp": false, "tunnel": false, "layer": 0, "deck": null }, "geometry": { "type": "LineString", "coordinates": [ [ 285607.99, 4156750.0 ], [ 285608.12, 4156750.16 ], [ 285610.51, 4156753.08 ] ] } },
{ "type": "Feature", "properties": { "id": "osm:way/207696521", "name": null, "highway": "service", "lanes": null, "width": 4.5, "oneway": false, "surface": null, "footway": null, "sidewalk_left": false, "sidewalk_right": false, "generated_sidewalk": false, "bus_lanes": null, "bus_lane_side": null, "bus_only": false, "sidewalk": false, "bridge": false, "ramp": false, "tunnel": false, "layer": 0, "deck": null }, "geometry": { "type": "MultiLineString", "coordinates": [ [ [ 285520.99, 4156791.7 ], [ 285572.99, 4156750.0 ] ], [ [ 285577.71, 4156750.0 ], [ 285589.71, 4156764.83 ], [ 285608.12, 4156750.16 ], [ 285608.31, 4156750.0 ] ] ] } },
{ "type": "Feature", "properties": { "id": "osm:way/207696519", "name": null, "highway": "service", "lanes": null, "width": 4.5, "oneway": false, "surface": null, "footway": null, "sidewalk_left": false, "sidewalk_right": false, "generated_sidewalk": false, "bus_lanes": null, "bus_lane_side": null, "bus_only": false, "sidewalk": false, "bridge": false, "ramp": false, "tunnel": false, "layer": 0, "deck": null }, "geometry": { "type": "LineString", "coordinates": [ [ 285589.71, 4156764.83 ], [ 285569.38, 4156781.15 ] ] } },
{ "type": "Feature", "properties": { "id": "osm:way/1510734148", "name": null, "highway": "footway", "lanes": null, "width": 2.0, "oneway": false, "surface": "paving_stones", "footway": "sidewalk", "sidewalk_left": false, "sidewalk_right": false, "generated_sidewalk": false, "bus_lanes": null, "bus_lane_side": null, "bus_only": false, "sidewalk": false, "bridge": false, "ramp": false, "tunnel": false, "layer": 0, "deck": null }, "geometry": { "type": "LineString", "coordinates": [ [ 285610.51, 4156753.08 ], [ 285640.93, 4156790.11 ], [ 285575.41, 4156842.88 ] ] } },
{ "type": "Feature", "properties": { "id": "osm:way/1510734149", "name": null, "highway": "footway", "lanes": null, "width": 2.0, "oneway": false, "surface": "concrete", "footway": "sidewalk", "sidewalk_left": false, "sidewalk_right": false, "generated_sidewalk": false, "bus_lanes": null, "bus_lane_side": null, "bus_only": false, "sidewalk": false, "bridge": false, "ramp": false, "tunnel": false, "layer": 0, "deck": null }, "geometry": { "type": "LineString", "coordinates": [ [ 285604.47, 4156842.33 ], [ 285650.57, 4156805.18 ] ] } },
{ "type": "Feature", "properties": { "id": "osm:way/1121026530", "name": "East Franklin Street", "highway": "residential", "lanes": 2.0, "width": 7.0, "oneway": false, "surface": "asphalt", "footway": null, "sidewalk_left": null, "sidewalk_right": null, "generated_sidewalk": true, "bus_lanes": null, "bus_lane_side": null, "bus_only": false, "sidewalk": false, "bridge": false, "ramp": false, "tunnel": false, "layer": 0, "deck": null }, "geometry": { "type": "LineString", "coordinates": [ [ 285574.33, 4156857.0 ], [ 285581.11, 4156851.46 ], [ 285652.15, 4156793.46 ] ] } },
{ "type": "Feature", "properties": { "id": "osm:way/823972537", "name": null, "highway": "service", "lanes": null, "width": 4.5, "oneway": false, "surface": "asphalt", "footway": null, "sidewalk_left": false, "sidewalk_right": false, "generated_sidewalk": false, "bus_lanes": null, "bus_lane_side": null, "bus_only": false, "sidewalk": false, "bridge": false, "ramp": false, "tunnel": false, "layer": 0, "deck": null }, "geometry": { "type": "LineString", "coordinates": [ [ 285562.9, 4156843.51 ], [ 285581.64, 4156828.91 ] ] } },
{ "type": "Feature", "properties": { "id": "osm:way/1510734134", "name": null, "highway": "footway", "lanes": null, "width": 2.0, "oneway": false, "surface": "concrete", "footway": "sidewalk", "sidewalk_left": false, "sidewalk_right": false, "generated_sidewalk": false, "bus_lanes": null, "bus_lane_side": null, "bus_only": false, "sidewalk": false, "bridge": false, "ramp": false, "tunnel": false, "layer": 0, "deck": null }, "geometry": { "type": "LineString", "coordinates": [ [ 285575.31, 4156844.57 ], [ 285575.41, 4156842.88 ] ] } },
{ "type": "Feature", "properties": { "id": "osm:way/1510729381", "name": null, "highway": "footway", "lanes": null, "width": 2.0, "oneway": false, "surface": "paving_stones", "footway": "sidewalk", "sidewalk_left": false, "sidewalk_right": false, "generated_sidewalk": false, "bus_lanes": null, "bus_lane_side": null, "bus_only": false, "sidewalk": false, "bridge": false, "ramp": false, "tunnel": false, "layer": 0, "deck": null }, "geometry": { "type": "LineString", "coordinates": [ [ 285531.78, 4156878.97 ], [ 285560.66, 4156856.41 ], [ 285561.04, 4156855.03 ], [ 285561.19, 4156853.28 ], [ 285531.79, 4156816.3 ], [ 285531.47, 4156815.9 ] ] } },
{ "type": "Feature", "properties": { "id": "osm:way/1510730063", "name": null, "highway": "footway", "lanes": null, "width": 2.0, "oneway": false, "surface": "paving_stones", "footway": "sidewalk", "sidewalk_left": false, "sidewalk_right": false, "generated_sidewalk": false, "bus_lanes": null, "bus_lane_side": null, "bus_only": false, "sidewalk": false, "bridge": false, "ramp": false, "tunnel": false, "layer": 0, "deck": null }, "geometry": { "type": "LineString", "coordinates": [ [ 285587.09, 4156857.02 ], [ 285604.47, 4156842.33 ] ] } },
{ "type": "Feature", "properties": { "id": "osm:way/1510729392", "name": null, "highway": "footway", "lanes": null, "width": 2.0, "oneway": false, "surface": "paving_stones", "footway": "crossing", "sidewalk_left": false, "sidewalk_right": false, "generated_sidewalk": false, "bus_lanes": null, "bus_lane_side": null, "bus_only": false, "sidewalk": false, "bridge": false, "ramp": false, "tunnel": false, "layer": 0, "deck": null }, "geometry": { "type": "LineString", "coordinates": [ [ 285562.98, 4156854.81 ], [ 285568.55, 4156850.18 ], [ 285575.31, 4156844.57 ] ] } },
{ "type": "Feature", "properties": { "id": "osm:way/1510729393", "name": null, "highway": "footway", "lanes": null, "width": 2.0, "oneway": false, "surface": "paving_stones", "footway": "crossing", "sidewalk_left": false, "sidewalk_right": false, "generated_sidewalk": false, "bus_lanes": null, "bus_lane_side": null, "bus_only": false, "sidewalk": false, "bridge": false, "ramp": false, "tunnel": false, "layer": 0, "deck": null }, "geometry": { "type": "LineString", "coordinates": [ [ 285575.31, 4156844.57 ], [ 285581.11, 4156851.46 ], [ 285585.5, 4156856.7 ] ] } },
{ "type": "Feature", "properties": { "id": "osm:way/1510729390", "name": null, "highway": "footway", "lanes": null, "width": 2.0, "oneway": false, "surface": "concrete", "footway": "sidewalk", "sidewalk_left": false, "sidewalk_right": false, "generated_sidewalk": false, "bus_lanes": null, "bus_lane_side": null, "bus_only": false, "sidewalk": false, "bridge": false, "ramp": false, "tunnel": false, "layer": 0, "deck": null }, "geometry": { "type": "LineString", "coordinates": [ [ 285561.04, 4156855.03 ], [ 285562.98, 4156854.81 ] ] } },
{ "type": "Feature", "properties": { "id": "osm:way/6037408", "name": "North 18th Street", "highway": "primary", "lanes": 2.0, "width": 11.0, "oneway": false, "surface": "asphalt", "footway": null, "sidewalk_left": false, "sidewalk_right": null, "generated_sidewalk": true, "bus_lanes": null, "bus_lane_side": null, "bus_only": false, "sidewalk": false, "bridge": false, "ramp": false, "tunnel": false, "layer": 0, "deck": null }, "geometry": { "type": "LineString", "coordinates": [ [ 285500.0, 4156765.76 ], [ 285503.04, 4156769.51 ], [ 285520.99, 4156791.7 ], [ 285536.25, 4156810.56 ], [ 285562.9, 4156843.51 ], [ 285568.55, 4156850.18 ], [ 285574.33, 4156857.0 ], [ 285578.58, 4156862.32 ], [ 285599.18, 4156888.06 ], [ 285617.17, 4156910.59 ], [ 285644.44, 4156944.31 ], [ 285649.34, 4156950.37 ] ] } },
{ "type": "Feature", "properties": { "id": "osm:way/1510730055", "name": null, "highway": "footway", "lanes": null, "width": 2.0, "oneway": false, "surface": "concrete", "footway": "sidewalk", "sidewalk_left": false, "sidewalk_right": false, "generated_sidewalk": false, "bus_lanes": null, "bus_lane_side": null, "bus_only": false, "sidewalk": false, "bridge": false, "ramp": false, "tunnel": false, "layer": 0, "deck": null }, "geometry": { "type": "LineString", "coordinates": [ [ 285585.5, 4156856.7 ], [ 285587.09, 4156857.02 ] ] } },
{ "type": "Feature", "properties": { "id": "osm:way/1510729391", "name": null, "highway": "footway", "lanes": null, "width": 2.0, "oneway": false, "surface": "paving_stones", "footway": "crossing", "sidewalk_left": false, "sidewalk_right": false, "generated_sidewalk": false, "bus_lanes": null, "bus_lane_side": null, "bus_only": false, "sidewalk": false, "bridge": false, "ramp": false, "tunnel": false, "layer": 0, "deck": null }, "geometry": { "type": "LineString", "coordinates": [ [ 285573.25, 4156866.65 ], [ 285568.73, 4156861.44 ], [ 285562.98, 4156854.81 ] ] } },
{ "type": "Feature", "properties": { "id": "osm:way/1510729394", "name": null, "highway": "footway", "lanes": null, "width": 2.0, "oneway": false, "surface": "paving_stones", "footway": "crossing", "sidewalk_left": false, "sidewalk_right": false, "generated_sidewalk": false, "bus_lanes": null, "bus_lane_side": null, "bus_only": false, "sidewalk": false, "bridge": false, "ramp": false, "tunnel": false, "layer": 0, "deck": null }, "geometry": { "type": "LineString", "coordinates": [ [ 285573.25, 4156866.65 ], [ 285578.58, 4156862.32 ], [ 285585.5, 4156856.7 ] ] } },
{ "type": "Feature", "properties": { "id": "osm:way/1510729389", "name": null, "highway": "footway", "lanes": null, "width": 2.0, "oneway": false, "surface": "concrete", "footway": "sidewalk", "sidewalk_left": false, "sidewalk_right": false, "generated_sidewalk": false, "bus_lanes": null, "bus_lane_side": null, "bus_only": false, "sidewalk": false, "bridge": false, "ramp": false, "tunnel": false, "layer": 0, "deck": null }, "geometry": { "type": "LineString", "coordinates": [ [ 285572.81, 4156868.29 ], [ 285573.25, 4156866.65 ] ] } },
{ "type": "Feature", "properties": { "id": "osm:way/1510730061", "name": null, "highway": "footway", "lanes": null, "width": 2.0, "oneway": false, "surface": "paving_stones", "footway": "sidewalk", "sidewalk_left": false, "sidewalk_right": false, "generated_sidewalk": false, "bus_lanes": null, "bus_lane_side": null, "bus_only": false, "sidewalk": false, "bridge": false, "ramp": false, "tunnel": false, "layer": 0, "deck": null }, "geometry": { "type": "LineString", "coordinates": [ [ 285587.09, 4156857.02 ], [ 285604.68, 4156878.92 ] ] } },
{ "type": "Feature", "properties": { "id": "osm:way/1510730062", "name": null, "highway": "footway", "lanes": null, "width": 2.0, "oneway": false, "surface": "unhewn_cobblestone", "footway": "sidewalk", "sidewalk_left": false, "sidewalk_right": false, "generated_sidewalk": false, "bus_lanes": null, "bus_lane_side": null, "bus_only": false, "sidewalk": false, "bridge": false, "ramp": false, "tunnel": false, "layer": 0, "deck": null }, "geometry": { "type": "LineString", "coordinates": [ [ 285604.68, 4156878.92 ], [ 285606.98, 4156881.77 ] ] } },
{ "type": "Feature", "properties": { "id": "osm:way/1065193062", "name": null, "highway": "service", "lanes": null, "width": 4.5, "oneway": false, "surface": null, "footway": null, "sidewalk_left": false, "sidewalk_right": false, "generated_sidewalk": false, "bus_lanes": null, "bus_lane_side": null, "bus_only": false, "sidewalk": false, "bridge": false, "ramp": false, "tunnel": false, "layer": 0, "deck": null }, "geometry": { "type": "LineString", "coordinates": [ [ 285535.45, 4156887.84 ], [ 285529.77, 4156880.6 ], [ 285500.0, 4156842.76 ] ] } },
{ "type": "Feature", "properties": { "id": "osm:way/1510729380", "name": null, "highway": "footway", "lanes": null, "width": 2.0, "oneway": false, "surface": "concrete", "footway": "crossing", "sidewalk_left": false, "sidewalk_right": false, "generated_sidewalk": false, "bus_lanes": null, "bus_lane_side": null, "bus_only": false, "sidewalk": false, "bridge": false, "ramp": false, "tunnel": false, "layer": 0, "deck": null }, "geometry": { "type": "LineString", "coordinates": [ [ 285527.94, 4156882.08 ], [ 285529.77, 4156880.6 ], [ 285531.78, 4156878.97 ] ] } },
{ "type": "Feature", "properties": { "id": "osm:way/1510729387", "name": null, "highway": "footway", "lanes": null, "width": 2.0, "oneway": false, "surface": "concrete", "footway": "crossing", "sidewalk_left": false, "sidewalk_right": false, "generated_sidewalk": false, "bus_lanes": null, "bus_lane_side": null, "bus_only": false, "sidewalk": false, "bridge": false, "ramp": false, "tunnel": false, "layer": 0, "deck": null }, "geometry": { "type": "LineString", "coordinates": [ [ 285527.44, 4156904.41 ], [ 285531.05, 4156901.35 ], [ 285534.87, 4156898.15 ] ] } },
{ "type": "Feature", "properties": { "id": "osm:way/94668486", "name": "East Franklin Street", "highway": "residential", "lanes": 2.0, "width": 7.0, "oneway": false, "surface": "asphalt", "footway": null, "sidewalk_left": null, "sidewalk_right": null, "generated_sidewalk": true, "bus_lanes": null, "bus_lane_side": null, "bus_only": false, "sidewalk": false, "bridge": false, "ramp": false, "tunnel": false, "layer": 0, "deck": null }, "geometry": { "type": "LineString", "coordinates": [ [ 285500.0, 4156915.96 ], [ 285502.29, 4156914.14 ], [ 285526.14, 4156895.23 ], [ 285535.45, 4156887.84 ], [ 285568.73, 4156861.44 ], [ 285574.33, 4156857.0 ] ] } },
{ "type": "Feature", "properties": { "id": "osm:way/1510729373", "name": null, "highway": "footway", "lanes": null, "width": 2.0, "oneway": false, "surface": "paving_stones", "footway": "crossing", "sidewalk_left": false, "sidewalk_right": false, "generated_sidewalk": false, "bus_lanes": null, "bus_lane_side": null, "bus_only": false, "sidewalk": false, "bridge": false, "ramp": false, "tunnel": false, "layer": 0, "deck": null }, "geometry": { "type": "LineString", "coordinates": [ [ 285500.0, 4156910.0 ], [ 285502.29, 4156914.14 ], [ 285504.16, 4156917.53 ] ] } },
{ "type": "Feature", "properties": { "id": "osm:way/1510729376", "name": null, "highway": "footway", "lanes": null, "width": 2.0, "oneway": false, "surface": "paving_stones", "footway": "sidewalk", "sidewalk_left": false, "sidewalk_right": false, "generated_sidewalk": false, "bus_lanes": null, "bus_lane_side": null, "bus_only": false, "sidewalk": false, "bridge": false, "ramp": false, "tunnel": false, "layer": 0, "deck": null }, "geometry": { "type": "LineString", "coordinates": [ [ 285506.36, 4156921.57 ], [ 285507.14, 4156920.94 ], [ 285527.44, 4156904.41 ] ] } },
{ "type": "Feature", "properties": { "id": "osm:way/749747503", "name": null, "highway": "service", "lanes": null, "width": 4.5, "oneway": false, "surface": null, "footway": null, "sidewalk_left": false, "sidewalk_right": false, "generated_sidewalk": false, "bus_lanes": null, "bus_lane_side": null, "bus_only": false, "sidewalk": false, "bridge": false, "ramp": false, "tunnel": false, "layer": 0, "deck": null }, "geometry": { "type": "LineString", "coordinates": [ [ 285526.14, 4156895.23 ], [ 285531.05, 4156901.35 ], [ 285561.78, 4156939.65 ] ] } },
{ "type": "Feature", "properties": { "id": "osm:way/1510729375", "name": null, "highway": "footway", "lanes": null, "width": 2.0, "oneway": false, "surface": "concrete", "footway": "sidewalk", "sidewalk_left": false, "sidewalk_right": false, "generated_sidewalk": false, "bus_lanes": null, "bus_lane_side": null, "bus_only": false, "sidewalk": false, "bridge": false, "ramp": false, "tunnel": false, "layer": 0, "deck": null }, "geometry": { "type": "LineString", "coordinates": [ [ 285505.75, 4156919.07 ], [ 285504.16, 4156917.53 ] ] } },
{ "type": "Feature", "properties": { "id": "osm:way/1306729461", "name": null, "highway": "footway", "lanes": null, "width": 2.0, "oneway": false, "surface": "paving_stones", "footway": "sidewalk", "sidewalk_left": false, "sidewalk_right": false, "generated_sidewalk": false, "bus_lanes": null, "bus_lane_side": null, "bus_only": false, "sidewalk": false, "bridge": false, "ramp": false, "tunnel": false, "layer": 0, "deck": null }, "geometry": { "type": "LineString", "coordinates": [ [ 285500.0, 4156904.55 ], [ 285527.94, 4156882.08 ] ] } },
{ "type": "Feature", "properties": { "id": "osm:way/1510729377", "name": null, "highway": "footway", "lanes": null, "width": 2.0, "oneway": false, "surface": "paving_stones", "footway": "sidewalk", "sidewalk_left": false, "sidewalk_right": false, "generated_sidewalk": false, "bus_lanes": null, "bus_lane_side": null, "bus_only": false, "sidewalk": false, "bridge": false, "ramp": false, "tunnel": false, "layer": 0, "deck": null }, "geometry": { "type": "LineString", "coordinates": [ [ 285505.75, 4156919.07 ], [ 285507.14, 4156920.94 ], [ 285508.59, 4156922.88 ] ] } },
{ "type": "Feature", "properties": { "id": "osm:way/756852644", "name": null, "highway": "service", "lanes": null, "width": 4.5, "oneway": false, "surface": null, "footway": null, "sidewalk_left": false, "sidewalk_right": false, "generated_sidewalk": false, "bus_lanes": null, "bus_lane_side": null, "bus_only": false, "sidewalk": false, "bridge": false, "ramp": false, "tunnel": false, "layer": 0, "deck": null }, "geometry": { "type": "LineString", "coordinates": [ [ 285710.78, 4156866.74 ], [ 285698.73, 4156876.7 ], [ 285690.23, 4156880.01 ], [ 285688.14, 4156880.71 ], [ 285686.33, 4156881.42 ], [ 285671.83, 4156892.42 ] ] } },
{ "type": "Feature", "properties": { "id": "osm:way/1510730057", "name": null, "highway": "footway", "lanes": null, "width": 2.0, "oneway": false, "surface": "paving_stones", "footway": "sidewalk", "sidewalk_left": false, "sidewalk_right": false, "generated_sidewalk": false, "bus_lanes": null, "bus_lane_side": null, "bus_only": false, "sidewalk": false, "bridge": false, "ramp": false, "tunnel": false, "layer": 0, "deck": null }, "geometry": { "type": "LineString", "coordinates": [ [ 285703.85, 4156895.72 ], [ 285715.67, 4156886.36 ] ] } },
{ "type": "Feature", "properties": { "id": "osm:way/756852645", "name": null, "highway": "service", "lanes": null, "width": 4.5, "oneway": false, "surface": null, "footway": null, "sidewalk_left": false, "sidewalk_right": false, "generated_sidewalk": false, "bus_lanes": null, "bus_lane_side": null, "bus_only": false, "sidewalk": false, "bridge": false, "ramp": false, "tunnel": false, "layer": 0, "deck": null }, "geometry": { "type": "LineString", "coordinates": [ [ 285688.14, 4156880.71 ], [ 285701.69, 4156897.43 ], [ 285707.19, 4156904.21 ] ] } },
{ "type": "Feature", "properties": { "id": "osm:way/1510730058", "name": null, "highway": "footway", "lanes": null, "width": 2.0, "oneway": false, "surface": "concrete", "footway": "crossing", "sidewalk_left": false, "sidewalk_right": false, "generated_sidewalk": false, "bus_lanes": null, "bus_lane_side": null, "bus_only": false, "sidewalk": false, "bridge": false, "ramp": false, "tunnel": false, "layer": 0, "deck": null }, "geometry": { "type": "LineString", "coordinates": [ [ 285701.19, 4156897.83 ], [ 285701.69, 4156897.43 ], [ 285703.85, 4156895.72 ] ] } },
{ "type": "Feature", "properties": { "id": "osm:way/1510730056", "name": null, "highway": "footway", "lanes": null, "width": 2.0, "oneway": false, "surface": "paving_stones", "footway": "sidewalk", "sidewalk_left": false, "sidewalk_right": false, "generated_sidewalk": false, "bus_lanes": null, "bus_lane_side": null, "bus_only": false, "sidewalk": false, "bridge": false, "ramp": false, "tunnel": false, "layer": 0, "deck": null }, "geometry": { "type": "LineString", "coordinates": [ [ 285606.98, 4156881.77 ], [ 285651.48, 4156937.15 ], [ 285701.19, 4156897.83 ] ] } },
{ "type": "Feature", "properties": { "id": "osm:way/1253439488", "name": null, "highway": "footway", "lanes": null, "width": 2.0, "oneway": false, "surface": "paving_stones", "footway": "sidewalk", "sidewalk_left": false, "sidewalk_right": false, "generated_sidewalk": false, "bus_lanes": null, "bus_lane_side": null, "bus_only": false, "sidewalk": false, "bridge": false, "ramp": false, "tunnel": false, "layer": 0, "deck": null }, "geometry": { "type": "LineString", "coordinates": [ [ 285750.0, 4156899.73 ], [ 285741.74, 4156889.44 ], [ 285743.04, 4156886.77 ], [ 285750.0, 4156881.07 ] ] } },
{ "type": "Feature", "properties": { "id": "osm:way/207696514", "name": "North 19th Street", "highway": "residential", "lanes": null, "width": 7.0, "oneway": false, "surface": null, "footway": null, "sidewalk_left": null, "sidewalk_right": null, "generated_sidewalk": true, "bus_lanes": null, "bus_lane_side": null, "bus_only": false, "sidewalk": false, "bridge": false, "ramp": false, "tunnel": false, "layer": 0, "deck": null }, "geometry": { "type": "LineString", "coordinates": [ [ 285727.79, 4156888.0 ], [ 285750.0, 4156915.57 ] ] } },
{ "type": "Feature", "properties": { "id": "osm:way/1510730059", "name": null, "highway": "footway", "lanes": null, "width": 2.0, "oneway": false, "surface": "concrete", "footway": "sidewalk", "sidewalk_left": false, "sidewalk_right": false, "generated_sidewalk": false, "bus_lanes": null, "bus_lane_side": null, "bus_only": false, "sidewalk": false, "bridge": false, "ramp": false, "tunnel": false, "layer": 0, "deck": null }, "geometry": { "type": "LineString", "coordinates": [ [ 285651.48, 4156937.15 ], [ 285651.49, 4156938.51 ] ] } },
{ "type": "Feature", "properties": { "id": "osm:way/1510730060", "name": null, "highway": "footway", "lanes": null, "width": 2.0, "oneway": false, "surface": "asphalt", "footway": "crossing", "sidewalk_left": false, "sidewalk_right": false, "generated_sidewalk": false, "bus_lanes": null, "bus_lane_side": null, "bus_only": false, "sidewalk": false, "bridge": false, "ramp": false, "tunnel": false, "layer": 0, "deck": null }, "geometry": { "type": "LineString", "coordinates": [ [ 285651.49, 4156938.51 ], [ 285644.44, 4156944.31 ], [ 285639.51, 4156948.37 ] ] } },
{ "type": "Feature", "properties": { "id": "osm:way/1510730054", "name": null, "highway": "footway", "lanes": null, "width": 2.0, "oneway": false, "surface": "concrete", "footway": "sidewalk", "sidewalk_left": false, "sidewalk_right": false, "generated_sidewalk": false, "bus_lanes": null, "bus_lane_side": null, "bus_only": false, "sidewalk": false, "bridge": false, "ramp": false, "tunnel": false, "layer": 0, "deck": null }, "geometry": { "type": "LineString", "coordinates": [ [ 285637.91, 4156948.74 ], [ 285639.51, 4156948.37 ] ] } },
{ "type": "Feature", "properties": { "id": "osm:way/1510729388", "name": null, "highway": "footway", "lanes": null, "width": 2.0, "oneway": false, "surface": "paving_stones", "footway": "sidewalk", "sidewalk_left": false, "sidewalk_right": false, "generated_sidewalk": false, "bus_lanes": null, "bus_lane_side": null, "bus_only": false, "sidewalk": false, "bridge": false, "ramp": false, "tunnel": false, "layer": 0, "deck": null }, "geometry": { "type": "LineString", "coordinates": [ [ 285534.87, 4156898.15 ], [ 285572.81, 4156868.29 ], [ 285591.45, 4156889.64 ] ] } },
{ "type": "Feature", "properties": { "id": "osm:way/1510730049", "name": null, "highway": "footway", "lanes": null, "width": 2.0, "oneway": false, "surface": "concrete", "footway": "crossing", "sidewalk_left": false, "sidewalk_right": false, "generated_sidewalk": false, "bus_lanes": null, "bus_lane_side": null, "bus_only": false, "sidewalk": false, "bridge": false, "ramp": false, "tunnel": false, "layer": 0, "deck": null }, "geometry": { "type": "LineString", "coordinates": [ [ 285591.45, 4156889.64 ], [ 285593.59, 4156892.09 ], [ 285596.46, 4156895.36 ] ] } },
{ "type": "Feature", "properties": { "id": "osm:way/1510730050", "name": null, "highway": "service", "lanes": null, "width": 4.5, "oneway": false, "surface": null, "footway": null, "sidewalk_left": false, "sidewalk_right": false, "generated_sidewalk": false, "bus_lanes": null, "bus_lane_side": null, "bus_only": false, "sidewalk": false, "bridge": false, "ramp": false, "tunnel": false, "layer": 0, "deck": null }, "geometry": { "type": "LineString", "coordinates": [ [ 285599.18, 4156888.06 ], [ 285593.59, 4156892.09 ], [ 285580.75, 4156901.37 ], [ 285574.65, 4156892.99 ] ] } },
{ "type": "Feature", "properties": { "id": "osm:way/1510730051", "name": null, "highway": "footway", "lanes": null, "width": 2.0, "oneway": false, "surface": "paving_stones", "footway": "sidewalk", "sidewalk_left": false, "sidewalk_right": false, "generated_sidewalk": false, "bus_lanes": null, "bus_lane_side": null, "bus_only": false, "sidewalk": false, "bridge": false, "ramp": false, "tunnel": false, "layer": 0, "deck": null }, "geometry": { "type": "LineString", "coordinates": [ [ 285596.46, 4156895.36 ], [ 285606.39, 4156908.26 ] ] } },
{ "type": "Feature", "properties": { "id": "osm:way/1510730052", "name": null, "highway": "footway", "lanes": null, "width": 2.0, "oneway": false, "surface": "concrete", "footway": "crossing", "sidewalk_left": false, "sidewalk_right": false, "generated_sidewalk": false, "bus_lanes": null, "bus_lane_side": null, "bus_only": false, "sidewalk": false, "bridge": false, "ramp": false, "tunnel": false, "layer": 0, "deck": null }, "geometry": { "type": "LineString", "coordinates": [ [ 285606.39, 4156908.26 ], [ 285611.75, 4156914.94 ], [ 285613.16, 4156916.69 ] ] } },
{ "type": "Feature", "properties": { "id": "osm:way/266954823", "name": null, "highway": "service", "lanes": null, "width": 4.5, "oneway": false, "surface": "asphalt", "footway": null, "sidewalk_left": false, "sidewalk_right": false, "generated_sidewalk": false, "bus_lanes": null, "bus_lane_side": null, "bus_only": false, "sidewalk": false, "bridge": false, "ramp": false, "tunnel": false, "layer": 0, "deck": null }, "geometry": { "type": "LineString", "coordinates": [ [ 285617.17, 4156910.59 ], [ 285611.75, 4156914.94 ], [ 285585.25, 4156936.2 ] ] } },
{ "type": "Feature", "properties": { "id": "osm:way/1510730053", "name": null, "highway": "footway", "lanes": null, "width": 2.0, "oneway": false, "surface": "paving_stones", "footway": "sidewalk", "sidewalk_left": false, "sidewalk_right": false, "generated_sidewalk": false, "bus_lanes": null, "bus_lane_side": null, "bus_only": false, "sidewalk": false, "bridge": false, "ramp": false, "tunnel": false, "layer": 0, "deck": null }, "geometry": { "type": "LineString", "coordinates": [ [ 285613.16, 4156916.69 ], [ 285637.91, 4156948.74 ], [ 285573.91, 4157000.0 ] ] } },
{ "type": "Feature", "properties": { "id": "osm:way/47969572", "name": "East Grace Street", "highway": "residential", "lanes": 2.0, "width": 7.0, "oneway": false, "surface": "asphalt", "footway": null, "sidewalk_left": null, "sidewalk_right": null, "generated_sidewalk": true, "bus_lanes": null, "bus_lane_side": null, "bus_only": false, "sidewalk": false, "bridge": false, "ramp": false, "tunnel": false, "layer": 0, "deck": null }, "geometry": { "type": "LineString", "coordinates": [ [ 285587.61, 4157000.0 ], [ 285608.67, 4156983.25 ], [ 285649.34, 4156950.37 ] ] } },
{ "type": "Feature", "properties": { "id": "osm:way/266953828", "name": null, "highway": "service", "lanes": null, "width": 4.5, "oneway": false, "surface": null, "footway": null, "sidewalk_left": false, "sidewalk_right": false, "generated_sidewalk": false, "bus_lanes": null, "bus_lane_side": null, "bus_only": false, "sidewalk": false, "bridge": false, "ramp": false, "tunnel": false, "layer": 0, "deck": null }, "geometry": { "type": "LineString", "coordinates": [ [ 285666.94, 4156972.12 ], [ 285653.62, 4156982.8 ], [ 285632.19, 4157000.0 ] ] } },
{ "type": "Feature", "properties": { "id": "osm:way/266954804", "name": null, "highway": "service", "lanes": null, "width": 4.5, "oneway": false, "surface": null, "footway": null, "sidewalk_left": false, "sidewalk_right": false, "generated_sidewalk": false, "bus_lanes": null, "bus_lane_side": null, "bus_only": false, "sidewalk": false, "bridge": false, "ramp": false, "tunnel": false, "layer": 0, "deck": null }, "geometry": { "type": "LineString", "coordinates": [ [ 285690.5, 4156917.35 ], [ 285741.66, 4156980.6 ] ] } },
{ "type": "Feature", "properties": { "id": "osm:way/756852647", "name": null, "highway": "service", "lanes": null, "width": 4.5, "oneway": false, "surface": null, "footway": null, "sidewalk_left": false, "sidewalk_right": false, "generated_sidewalk": false, "bus_lanes": null, "bus_lane_side": null, "bus_only": false, "sidewalk": false, "bridge": false, "ramp": false, "tunnel": false, "layer": 0, "deck": null }, "geometry": { "type": "LineString", "coordinates": [ [ 285663.61, 4156939.42 ], [ 285694.48, 4156978.76 ] ] } },
{ "type": "Feature", "properties": { "id": "osm:way/756852646", "name": null, "highway": "service", "lanes": null, "width": 4.5, "oneway": false, "surface": null, "footway": null, "sidewalk_left": false, "sidewalk_right": false, "generated_sidewalk": false, "bus_lanes": null, "bus_lane_side": null, "bus_only": false, "sidewalk": false, "bridge": false, "ramp": false, "tunnel": false, "layer": 0, "deck": null }, "geometry": { "type": "LineString", "coordinates": [ [ 285681.09, 4156989.62 ], [ 285694.48, 4156978.76 ], [ 285707.29, 4156968.78 ], [ 285708.31, 4156967.4 ], [ 285708.27, 4156965.87 ], [ 285687.85, 4156939.38 ] ] } },
{ "type": "Feature", "properties": { "id": "osm:way/1082006815", "name": "North 18th Street", "highway": "primary", "lanes": 3.0, "width": 11.0, "oneway": false, "surface": "asphalt", "footway": null, "sidewalk_left": null, "sidewalk_right": null, "generated_sidewalk": true, "bus_lanes": null, "bus_lane_side": null, "bus_only": false, "sidewalk": false, "bridge": false, "ramp": false, "tunnel": false, "layer": 0, "deck": null }, "geometry": { "type": "LineString", "coordinates": [ [ 285649.34, 4156950.37 ], [ 285666.94, 4156972.12 ], [ 285681.09, 4156989.62 ], [ 285689.49, 4157000.0 ] ] } },
{ "type": "Feature", "properties": { "id": "osm:way/1366178758", "name": null, "highway": "service", "lanes": null, "width": 4.5, "oneway": false, "surface": null, "footway": null, "sidewalk_left": false, "sidewalk_right": false, "generated_sidewalk": false, "bus_lanes": null, "bus_lane_side": null, "bus_only": false, "sidewalk": false, "bridge": false, "ramp": false, "tunnel": false, "layer": 0, "deck": null }, "geometry": { "type": "LineString", "coordinates": [ [ 285741.66, 4156980.6 ], [ 285750.0, 4156990.91 ] ] } },
{ "type": "Feature", "properties": { "id": "osm:way/266954811", "name": null, "highway": "service", "lanes": null, "width": 4.5, "oneway": false, "surface": null, "footway": null, "sidewalk_left": false, "sidewalk_right": false, "generated_sidewalk": false, "bus_lanes": null, "bus_lane_side": null, "bus_only": false, "sidewalk": false, "bridge": false, "ramp": false, "tunnel": false, "layer": 0, "deck": null }, "geometry": { "type": "LineString", "coordinates": [ [ 285717.47, 4157000.0 ], [ 285741.66, 4156980.6 ] ] } },
{ "type": "Feature", "properties": { "id": "osm:way/266953829", "name": null, "highway": "service", "lanes": null, "width": 4.5, "oneway": false, "surface": null, "footway": null, "sidewalk_left": false, "sidewalk_right": false, "generated_sidewalk": false, "bus_lanes": null, "bus_lane_side": null, "bus_only": false, "sidewalk": false, "bridge": false, "ramp": false, "tunnel": false, "layer": 0, "deck": null }, "geometry": { "type": "LineString", "coordinates": [ [ 285653.62, 4156982.8 ], [ 285664.46, 4156996.18 ], [ 285659.7, 4157000.0 ] ] } },
{ "type": "Feature", "properties": { "id": "osm:way/1510729374", "name": null, "highway": "footway", "lanes": null, "width": 2.0, "oneway": false, "surface": "concrete", "footway": "sidewalk", "sidewalk_left": false, "sidewalk_right": false, "generated_sidewalk": false, "bus_lanes": null, "bus_lane_side": null, "bus_only": false, "sidewalk": false, "bridge": false, "ramp": false, "tunnel": false, "layer": 0, "deck": null }, "geometry": { "type": "LineString", "coordinates": [ [ 285504.34, 4156922.9 ], [ 285506.36, 4156921.57 ] ] } },
{ "type": "Feature", "properties": { "id": "osm:way/1510729372", "name": null, "highway": "footway", "lanes": null, "width": 2.0, "oneway": false, "surface": "paving_stones", "footway": "crossing", "sidewalk_left": false, "sidewalk_right": false, "generated_sidewalk": false, "bus_lanes": null, "bus_lane_side": null, "bus_only": false, "sidewalk": false, "bridge": false, "ramp": false, "tunnel": false, "layer": 0, "deck": null }, "geometry": { "type": "LineString", "coordinates": [ [ 285500.0, 4156925.68 ], [ 285501.69, 4156924.6 ], [ 285504.34, 4156922.9 ] ] } },
{ "type": "Feature", "properties": { "id": "osm:way/1065959570", "name": null, "highway": "service", "lanes": null, "width": 4.5, "oneway": false, "surface": null, "footway": null, "sidewalk_left": false, "sidewalk_right": false, "generated_sidewalk": false, "bus_lanes": null, "bus_lane_side": null, "bus_only": false, "sidewalk": false, "bridge": false, "ramp": false, "tunnel": false, "layer": 0, "deck": null }, "geometry": { "type": "LineString", "coordinates": [ [ 285531.21, 4156961.34 ], [ 285535.83, 4156957.19 ], [ 285536.15, 4156956.9 ], [ 285547.55, 4156948.43 ] ] } },
{ "type": "Feature", "properties": { "id": "osm:way/1510729386", "name": null, "highway": "footway", "lanes": null, "width": 2.0, "oneway": false, "surface": "concrete", "footway": "sidewalk", "sidewalk_left": false, "sidewalk_right": false, "generated_sidewalk": false, "bus_lanes": null, "bus_lane_side": null, "bus_only": false, "sidewalk": false, "bridge": false, "ramp": false, "tunnel": false, "layer": 0, "deck": null }, "geometry": { "type": "LineString", "coordinates": [ [ 285508.59, 4156922.88 ], [ 285535.83, 4156957.19 ], [ 285569.81, 4157000.0 ] ] } },
{ "type": "Feature", "properties": { "id": "osm:way/249793016", "name": "North 17th Street", "highway": "residential", "lanes": null, "width": 7.0, "oneway": true, "surface": "asphalt", "footway": null, "sidewalk_left": false, "sidewalk_right": false, "generated_sidewalk": true, "bus_lanes": null, "bus_lane_side": null, "bus_only": false, "sidewalk": false, "bridge": false, "ramp": false, "tunnel": false, "layer": 0, "deck": null }, "geometry": { "type": "LineString", "coordinates": [ [ 285500.0, 4156922.49 ], [ 285501.69, 4156924.6 ], [ 285531.21, 4156961.34 ], [ 285561.81, 4156999.15 ], [ 285562.49, 4157000.0 ] ] } },
{ "type": "Feature", "properties": { "id": "osm:way/1510729370", "name": null, "highway": "footway", "lanes": null, "width": 2.0, "oneway": false, "surface": "concrete", "footway": "sidewalk", "sidewalk_left": false, "sidewalk_right": false, "generated_sidewalk": false, "bus_lanes": null, "bus_lane_side": null, "bus_only": false, "sidewalk": false, "bridge": false, "ramp": false, "tunnel": false, "layer": 0, "deck": null }, "geometry": { "type": "LineString", "coordinates": [ [ 285500.0, 4156932.9 ], [ 285554.19, 4157000.0 ] ] } },
{ "type": "Feature", "properties": { "id": "osm:way/1023481486", "name": null, "highway": "service", "lanes": null, "width": 4.5, "oneway": true, "surface": null, "footway": null, "sidewalk_left": false, "sidewalk_right": false, "generated_sidewalk": false, "bus_lanes": null, "bus_lane_side": null, "bus_only": false, "sidewalk": false, "bridge": false, "ramp": false, "tunnel": false, "layer": 0, "deck": null }, "geometry": { "type": "LineString", "coordinates": [ [ 285543.66, 4157000.0 ], [ 285517.01, 4156965.76 ], [ 285500.0, 4156943.76 ] ] } },
{ "type": "Feature", "properties": { "id": "osm:way/822722129", "name": null, "highway": "service", "lanes": null, "width": 4.5, "oneway": true, "surface": null, "footway": null, "sidewalk_left": false, "sidewalk_right": false, "generated_sidewalk": false, "bus_lanes": null, "bus_lane_side": null, "bus_only": false, "sidewalk": false, "bridge": false, "ramp": false, "tunnel": false, "layer": 0, "deck": null }, "geometry": { "type": "LineString", "coordinates": [ [ 285524.06, 4157000.0 ], [ 285500.0, 4156970.72 ] ] } },
{ "type": "Feature", "properties": { "id": "osm:way/822722128", "name": null, "highway": "service", "lanes": null, "width": 4.5, "oneway": true, "surface": null, "footway": null, "sidewalk_left": false, "sidewalk_right": false, "generated_sidewalk": false, "bus_lanes": null, "bus_lane_side": null, "bus_only": false, "sidewalk": false, "bridge": false, "ramp": false, "tunnel": false, "layer": 0, "deck": null }, "geometry": { "type": "LineString", "coordinates": [ [ 285500.0, 4156996.27 ], [ 285502.95, 4157000.0 ] ] } }
]
}
