{
"type": "FeatureCollection",
"name": "crossings",
"crs": { "type": "name", "properties": { "name": "urn:ogc:def:crs:EPSG::32618" } },
"xy_coordinate_resolution": 0.01,
"features": [
{ "type": "Feature", "properties": { "id": "osm:node/13038503029", "crossing": "unmarked", "crossing_markings": "no", "road_id": "osm:way/6038416", "road_width": 8.0, "road_dx": 0.718302, "road_dy": -0.695731, "road_x": 285547.62, "road_y": 4159185.03, "crossing_island": false }, "geometry": { "type": "Point", "coordinates": [ 285544.96, 4159182.28 ] } }
]
}
