{
"type": "FeatureCollection",
"name": "pois",
"crs": { "type": "name", "properties": { "name": "urn:ogc:def:crs:EPSG::32618" } },
"xy_coordinate_resolution": 0.01,
"features": [
{ "type": "Feature", "properties": { "id": "lidar-tree:286076:4160506", "name": null, "kind": "tree", "species": null, "source": "lidar2025", "tree_height": 27.3, "crown_radius": 6.0, "height_source": "lidar2025" }, "geometry": { "type": "Point", "coordinates": [ 286076.5, 4160505.5 ] } },
{ "type": "Feature", "properties": { "id": "lidar-tree:286090:4160506", "name": null, "kind": "tree", "species": null, "source": "lidar2025", "tree_height": 26.1, "crown_radius": 6.0, "height_source": "lidar2025" }, "geometry": { "type": "Point", "coordinates": [ 286089.5, 4160506.5 ] } },
{ "type": "Feature", "properties": { "id": "lidar-tree:286112:4160508", "name": null, "kind": "tree", "species": null, "source": "lidar2025", "tree_height": 21.9, "crown_radius": 5.7, "height_source": "lidar2025" }, "geometry": { "type": "Point", "coordinates": [ 286112.5, 4160508.5 ] } },
{ "type": "Feature", "properties": { "id": "lidar-tree:286084:4160514", "name": null, "kind": "tree", "species": null, "source": "lidar2025", "tree_height": 27.3, "crown_radius": 6.0, "height_source": "lidar2025" }, "geometry": { "type": "Point", "coordinates": [ 286084.5, 4160513.5 ] } },
{ "type": "Feature", "properties": { "id": "lidar-tree:286074:4160514", "name": null, "kind": "tree", "species": null, "source": "lidar2025", "tree_height": 27.8, "crown_radius": 6.0, "height_source": "lidar2025" }, "geometry": { "type": "Point", "coordinates": [ 286074.5, 4160514.5 ] } },
{ "type": "Feature", "properties": { "id": "rva-tree:79782", "name": "Quercus shumardii", "kind": "tree", "species": "Quercus shumardii", "source": "city_inventory", "tree_height": 12.6, "crown_radius": 4.9, "height_source": "lidar2025" }, "geometry": { "type": "Point", "coordinates": [ 286231.35, 4160515.43 ] } },
{ "type": "Feature", "properties": { "id": "lidar-tree:286214:4160524", "name": null, "kind": "tree", "species": null, "source": "lidar2025", "tree_height": 8.2, "crown_radius": 6.0, "height_source": "lidar2025" }, "geometry": { "type": "Point", "coordinates": [ 286214.5, 4160523.5 ] } },
{ "type": "Feature", "properties": { "id": "rva-tree:95032", "name": "Fraxinus pennsylvanica", "kind": "tree", "species": "Fraxinus pennsylvanica", "source": "city_inventory", "tree_height": 14.6, "crown_radius": 5.5, "height_source": "lidar2025" }, "geometry": { "type": "Point", "coordinates": [ 286223.84, 4160530.31 ] } },
{ "type": "Feature", "properties": { "id": "rva-tree:79786", "name": "Quercus shumardii", "kind": "tree", "species": "Quercus shumardii", "source": "city_inventory", "tree_height": 8.0, "crown_radius": 2.5, "height_source": "estimated" }, "geometry": { "type": "Point", "coordinates": [ 286239.87, 4160530.5 ] } },
{ "type": "Feature", "properties": { "id": "lidar-tree:286228:4160546", "name": null, "kind": "tree", "species": null, "source": "lidar2025", "tree_height": 10.3, "crown_radius": 5.9, "height_source": "lidar2025" }, "geometry": { "type": "Point", "coordinates": [ 286227.5, 4160545.5 ] } },
{ "type": "Feature", "properties": { "id": "lidar-tree:286250:4160546", "name": null, "kind": "tree", "species": null, "source": "lidar2025", "tree_height": 14.0, "crown_radius": 5.7, "height_source": "lidar2025" }, "geometry": { "type": "Point", "coordinates": [ 286249.5, 4160546.5 ] } },
{ "type": "Feature", "properties": { "id": "lidar-tree:286212:4160558", "name": null, "kind": "tree", "species": null, "source": "lidar2025", "tree_height": 19.3, "crown_radius": 6.0, "height_source": "lidar2025" }, "geometry": { "type": "Point", "coordinates": [ 286212.5, 4160557.5 ] } },
{ "type": "Feature", "properties": { "id": "lidar-tree:286240:4160568", "name": null, "kind": "tree", "species": null, "source": "lidar2025", "tree_height": 16.8, "crown_radius": 6.0, "height_source": "lidar2025" }, "geometry": { "type": "Point", "coordinates": [ 286239.5, 4160567.5 ] } },
{ "type": "Feature", "properties": { "id": "lidar-tree:286006:4160522", "name": null, "kind": "tree", "species": null, "source": "lidar2025", "tree_height": 5.6, "crown_radius": 4.0, "height_source": "lidar2025" }, "geometry": { "type": "Point", "coordinates": [ 286006.5, 4160522.5 ] } },
{ "type": "Feature", "properties": { "id": "lidar-tree:286022:4160502", "name": null, "kind": "tree", "species": null, "source": "lidar2025", "tree_height": 9.8, "crown_radius": 4.3, "height_source": "lidar2025" }, "geometry": { "type": "Point", "coordinates": [ 286022.5, 4160502.5 ] } },
{ "type": "Feature", "properties": { "id": "lidar-tree:286036:4160508", "name": null, "kind": "tree", "species": null, "source": "lidar2025", "tree_height": 9.7, "crown_radius": 5.8, "height_source": "lidar2025" }, "geometry": { "type": "Point", "coordinates": [ 286035.5, 4160508.5 ] } },
{ "type": "Feature", "properties": { "id": "lidar-tree:286044:4160516", "name": null, "kind": "tree", "species": null, "source": "lidar2025", "tree_height": 20.5, "crown_radius": 6.0, "height_source": "lidar2025" }, "geometry": { "type": "Point", "coordinates": [ 286043.5, 4160515.5 ] } },
{ "type": "Feature", "properties": { "id": "lidar-tree:286064:4160518", "name": null, "kind": "tree", "species": null, "source": "lidar2025", "tree_height": 28.9, "crown_radius": 6.0, "height_source": "lidar2025" }, "geometry": { "type": "Point", "coordinates": [ 286064.5, 4160517.5 ] } },
{ "type": "Feature", "properties": { "id": "lidar-tree:286058:4160526", "name": null, "kind": "tree", "species": null, "source": "lidar2025", "tree_height": 17.7, "crown_radius": 6.0, "height_source": "lidar2025" }, "geometry": { "type": "Point", "coordinates": [ 286058.5, 4160526.5 ] } },
{ "type": "Feature", "properties": { "id": "lidar-tree:286018:4160528", "name": null, "kind": "tree", "species": null, "source": "lidar2025", "tree_height": 13.2, "crown_radius": 5.2, "height_source": "lidar2025" }, "geometry": { "type": "Point", "coordinates": [ 286018.5, 4160527.5 ] } },
{ "type": "Feature", "properties": { "id": "lidar-tree:286038:4160530", "name": null, "kind": "tree", "species": null, "source": "lidar2025", "tree_height": 16.2, "crown_radius": 6.0, "height_source": "lidar2025" }, "geometry": { "type": "Point", "coordinates": [ 286038.5, 4160529.5 ] } },
{ "type": "Feature", "properties": { "id": "lidar-tree:286046:4160534", "name": null, "kind": "tree", "species": null, "source": "lidar2025", "tree_height": 17.8, "crown_radius": 6.0, "height_source": "lidar2025" }, "geometry": { "type": "Point", "coordinates": [ 286045.5, 4160534.5 ] } },
{ "type": "Feature", "properties": { "id": "lidar-tree:286026:4160536", "name": null, "kind": "tree", "species": null, "source": "lidar2025", "tree_height": 4.5, "crown_radius": 2.6, "height_source": "lidar2025" }, "geometry": { "type": "Point", "coordinates": [ 286026.5, 4160536.5 ] } },
{ "type": "Feature", "properties": { "id": "lidar-tree:286018:4160566", "name": null, "kind": "tree", "species": null, "source": "lidar2025", "tree_height": 6.3, "crown_radius": 4.5, "height_source": "lidar2025" }, "geometry": { "type": "Point", "coordinates": [ 286018.5, 4160566.5 ] } },
{ "type": "Feature", "properties": { "id": "lidar-tree:286040:4160570", "name": null, "kind": "tree", "species": null, "source": "lidar2025", "tree_height": 21.3, "crown_radius": 5.2, "height_source": "lidar2025" }, "geometry": { "type": "Point", "coordinates": [ 286040.5, 4160569.5 ] } },
{ "type": "Feature", "properties": { "id": "lidar-tree:286050:4160570", "name": null, "kind": "tree", "species": null, "source": "lidar2025", "tree_height": 24.6, "crown_radius": 6.0, "height_source": "lidar2025" }, "geometry": { "type": "Point", "coordinates": [ 286049.5, 4160570.5 ] } },
{ "type": "Feature", "properties": { "id": "lidar-tree:286052:4160590", "name": null, "kind": "tree", "species": null, "source": "lidar2025", "tree_height": 10.9, "crown_radius": 6.0, "height_source": "lidar2025" }, "geometry": { "type": "Point", "coordinates": [ 286052.5, 4160590.5 ] } },
{ "type": "Feature", "properties": { "id": "lidar-tree:286034:4160596", "name": null, "kind": "tree", "species": null, "source": "lidar2025", "tree_height": 10.3, "crown_radius": 1.4, "height_source": "lidar2025" }, "geometry": { "type": "Point", "coordinates": [ 286034.5, 4160595.5 ] } },
{ "type": "Feature", "properties": { "id": "lidar-tree:286058:4160600", "name": null, "kind": "tree", "species": null, "source": "lidar2025", "tree_height": 13.0, "crown_radius": 6.0, "height_source": "lidar2025" }, "geometry": { "type": "Point", "coordinates": [ 286057.5, 4160600.5 ] } },
{ "type": "Feature", "properties": { "id": "lidar-tree:286036:4160602", "name": null, "kind": "tree", "species": null, "source": "lidar2025", "tree_height": 4.5, "crown_radius": 2.9, "height_source": "lidar2025" }, "geometry": { "type": "Point", "coordinates": [ 286035.5, 4160601.5 ] } },
{ "type": "Feature", "properties": { "id": "lidar-tree:286012:4160604", "name": null, "kind": "tree", "species": null, "source": "lidar2025", "tree_height": 6.0, "crown_radius": 4.1, "height_source": "lidar2025" }, "geometry": { "type": "Point", "coordinates": [ 286012.5, 4160604.5 ] } },
{ "type": "Feature", "properties": { "id": "lidar-tree:286040:4160612", "name": null, "kind": "tree", "species": null, "source": "lidar2025", "tree_height": 7.9, "crown_radius": 4.7, "height_source": "lidar2025" }, "geometry": { "type": "Point", "coordinates": [ 286039.5, 4160611.5 ] } },
{ "type": "Feature", "properties": { "id": "lidar-tree:286072:4160616", "name": null, "kind": "tree", "species": null, "source": "lidar2025", "tree_height": 19.5, "crown_radius": 6.0, "height_source": "lidar2025" }, "geometry": { "type": "Point", "coordinates": [ 286071.5, 4160616.5 ] } },
{ "type": "Feature", "properties": { "id": "lidar-tree:286022:4160620", "name": null, "kind": "tree", "species": null, "source": "lidar2025", "tree_height": 4.7, "crown_radius": 2.3, "height_source": "lidar2025" }, "geometry": { "type": "Point", "coordinates": [ 286022.5, 4160620.5 ] } },
{ "type": "Feature", "properties": { "id": "rva-tree:84898", "name": "Quercus phellos", "kind": "tree", "species": "Quercus phellos", "source": "city_inventory", "tree_height": 8.0, "crown_radius": 2.5, "height_source": "estimated" }, "geometry": { "type": "Point", "coordinates": [ 286070.21, 4160625.0 ] } },
{ "type": "Feature", "properties": { "id": "rva-tree:96434", "name": "Quercus nigra", "kind": "tree", "species": "Quercus nigra", "source": "city_inventory", "tree_height": 15.3, "crown_radius": 6.0, "height_source": "lidar2025" }, "geometry": { "type": "Point", "coordinates": [ 286055.45, 4160629.37 ] } },
{ "type": "Feature", "properties": { "id": "lidar-tree:286002:4160670", "name": null, "kind": "tree", "species": null, "source": "lidar2025", "tree_height": 23.1, "crown_radius": 2.5, "height_source": "lidar2025" }, "geometry": { "type": "Point", "coordinates": [ 286002.5, 4160669.5 ] } },
{ "type": "Feature", "properties": { "id": "rva-tree:95933", "name": "Quercus nigra", "kind": "tree", "species": "Quercus nigra", "source": "city_inventory", "tree_height": 9.4, "crown_radius": 5.4, "height_source": "lidar2025" }, "geometry": { "type": "Point", "coordinates": [ 286038.07, 4160634.65 ] } },
{ "type": "Feature", "properties": { "id": "rva-tree:97364", "name": "Quercus nigra", "kind": "tree", "species": "Quercus nigra", "source": "city_inventory", "tree_height": 16.5, "crown_radius": 6.0, "height_source": "lidar2025" }, "geometry": { "type": "Point", "coordinates": [ 286027.19, 4160637.13 ] } },
{ "type": "Feature", "properties": { "id": "rva-tree:83178", "name": "Quercus phellos", "kind": "tree", "species": "Quercus phellos", "source": "city_inventory", "tree_height": 14.1, "crown_radius": 6.0, "height_source": "lidar2025" }, "geometry": { "type": "Point", "coordinates": [ 286060.25, 4160639.47 ] } },
{ "type": "Feature", "properties": { "id": "lidar-tree:286048:4160646", "name": null, "kind": "tree", "species": null, "source": "lidar2025", "tree_height": 19.4, "crown_radius": 6.0, "height_source": "lidar2025" }, "geometry": { "type": "Point", "coordinates": [ 286047.5, 4160646.5 ] } },
{ "type": "Feature", "properties": { "id": "lidar-tree:286024:4160654", "name": null, "kind": "tree", "species": null, "source": "lidar2025", "tree_height": 6.9, "crown_radius": 4.4, "height_source": "lidar2025" }, "geometry": { "type": "Point", "coordinates": [ 286024.5, 4160654.5 ] } },
{ "type": "Feature", "properties": { "id": "lidar-tree:286024:4160662", "name": null, "kind": "tree", "species": null, "source": "lidar2025", "tree_height": 16.7, "crown_radius": 5.1, "height_source": "lidar2025" }, "geometry": { "type": "Point", "coordinates": [ 286023.5, 4160662.5 ] } },
{ "type": "Feature", "properties": { "id": "lidar-tree:286008:4160662", "name": null, "kind": "tree", "species": null, "source": "lidar2025", "tree_height": 24.3, "crown_radius": 5.8, "height_source": "lidar2025" }, "geometry": { "type": "Point", "coordinates": [ 286007.5, 4160662.5 ] } },
{ "type": "Feature", "properties": { "id": "lidar-tree:286024:4160670", "name": null, "kind": "tree", "species": null, "source": "lidar2025", "tree_height": 17.4, "crown_radius": 3.0, "height_source": "lidar2025" }, "geometry": { "type": "Point", "coordinates": [ 286024.5, 4160669.5 ] } },
{ "type": "Feature", "properties": { "id": "lidar-tree:286010:4160672", "name": null, "kind": "tree", "species": null, "source": "lidar2025", "tree_height": 23.3, "crown_radius": 2.0, "height_source": "lidar2025" }, "geometry": { "type": "Point", "coordinates": [ 286010.5, 4160671.5 ] } },
{ "type": "Feature", "properties": { "id": "lidar-tree:286016:4160672", "name": null, "kind": "tree", "species": null, "source": "lidar2025", "tree_height": 13.7, "crown_radius": 2.5, "height_source": "lidar2025" }, "geometry": { "type": "Point", "coordinates": [ 286016.5, 4160671.5 ] } },
{ "type": "Feature", "properties": { "id": "lidar-tree:286178:4160510", "name": null, "kind": "tree", "species": null, "source": "lidar2025", "tree_height": 20.8, "crown_radius": 6.0, "height_source": "lidar2025" }, "geometry": { "type": "Point", "coordinates": [ 286178.5, 4160509.5 ] } },
{ "type": "Feature", "properties": { "id": "lidar-tree:286192:4160514", "name": null, "kind": "tree", "species": null, "source": "lidar2025", "tree_height": 22.4, "crown_radius": 6.0, "height_source": "lidar2025" }, "geometry": { "type": "Point", "coordinates": [ 286192.5, 4160514.5 ] } },
{ "type": "Feature", "properties": { "id": "lidar-tree:286158:4160518", "name": null, "kind": "tree", "species": null, "source": "lidar2025", "tree_height": 19.6, "crown_radius": 6.0, "height_source": "lidar2025" }, "geometry": { "type": "Point", "coordinates": [ 286157.5, 4160518.5 ] } },
{ "type": "Feature", "properties": { "id": "lidar-tree:286150:4160530", "name": null, "kind": "tree", "species": null, "source": "lidar2025", "tree_height": 20.4, "crown_radius": 6.0, "height_source": "lidar2025" }, "geometry": { "type": "Point", "coordinates": [ 286149.5, 4160530.5 ] } },
{ "type": "Feature", "properties": { "id": "lidar-tree:286174:4160536", "name": null, "kind": "tree", "species": null, "source": "lidar2025", "tree_height": 32.5, "crown_radius": 6.0, "height_source": "lidar2025" }, "geometry": { "type": "Point", "coordinates": [ 286173.5, 4160536.5 ] } },
{ "type": "Feature", "properties": { "id": "lidar-tree:286186:4160540", "name": null, "kind": "tree", "species": null, "source": "lidar2025", "tree_height": 20.9, "crown_radius": 6.0, "height_source": "lidar2025" }, "geometry": { "type": "Point", "coordinates": [ 286185.5, 4160539.5 ] } },
{ "type": "Feature", "properties": { "id": "lidar-tree:286154:4160544", "name": null, "kind": "tree", "species": null, "source": "lidar2025", "tree_height": 12.5, "crown_radius": 6.0, "height_source": "lidar2025" }, "geometry": { "type": "Point", "coordinates": [ 286154.5, 4160543.5 ] } },
{ "type": "Feature", "properties": { "id": "lidar-tree:286192:4160550", "name": null, "kind": "tree", "species": null, "source": "lidar2025", "tree_height": 25.5, "crown_radius": 6.0, "height_source": "lidar2025" }, "geometry": { "type": "Point", "coordinates": [ 286192.5, 4160550.5 ] } },
{ "type": "Feature", "properties": { "id": "lidar-tree:286156:4160570", "name": null, "kind": "tree", "species": null, "source": "lidar2025", "tree_height": 28.3, "crown_radius": 6.0, "height_source": "lidar2025" }, "geometry": { "type": "Point", "coordinates": [ 286156.5, 4160570.5 ] } },
{ "type": "Feature", "properties": { "id": "rva-tree:85865", "name": "Quercus nigra", "kind": "tree", "species": "Quercus nigra", "source": "city_inventory", "tree_height": 12.4, "crown_radius": 5.8, "height_source": "lidar2025" }, "geometry": { "type": "Point", "coordinates": [ 286193.11, 4160590.74 ] } },
{ "type": "Feature", "properties": { "id": "lidar-tree:286078:4160522", "name": null, "kind": "tree", "species": null, "source": "lidar2025", "tree_height": 27.5, "crown_radius": 6.0, "height_source": "lidar2025" }, "geometry": { "type": "Point", "coordinates": [ 286078.5, 4160522.5 ] } },
{ "type": "Feature", "properties": { "id": "lidar-tree:286122:4160530", "name": null, "kind": "tree", "species": null, "source": "lidar2025", "tree_height": 10.0, "crown_radius": 5.4, "height_source": "lidar2025" }, "geometry": { "type": "Point", "coordinates": [ 286121.5, 4160529.5 ] } },
{ "type": "Feature", "properties": { "id": "lidar-tree:286096:4160614", "name": null, "kind": "tree", "species": null, "source": "lidar2025", "tree_height": 12.7, "crown_radius": 4.3, "height_source": "lidar2025" }, "geometry": { "type": "Point", "coordinates": [ 286095.5, 4160614.5 ] } },
{ "type": "Feature", "properties": { "id": "lidar-tree:286122:4160628", "name": null, "kind": "tree", "species": null, "source": "lidar2025", "tree_height": 10.2, "crown_radius": 4.9, "height_source": "lidar2025" }, "geometry": { "type": "Point", "coordinates": [ 286121.5, 4160628.5 ] } },
{ "type": "Feature", "properties": { "id": "rva-tree:82767", "name": "Quercus phellos", "kind": "tree", "species": "Quercus phellos", "source": "city_inventory", "tree_height": 16.7, "crown_radius": 6.0, "height_source": "lidar2025" }, "geometry": { "type": "Point", "coordinates": [ 286101.86, 4160628.52 ] } },
{ "type": "Feature", "properties": { "id": "rva-tree:81646", "name": "Acer saccharum", "kind": "tree", "species": "Acer saccharum", "source": "city_inventory", "tree_height": 8.0, "crown_radius": 2.5, "height_source": "estimated" }, "geometry": { "type": "Point", "coordinates": [ 286109.33, 4160631.49 ] } },
{ "type": "Feature", "properties": { "id": "lidar-tree:286104:4160640", "name": null, "kind": "tree", "species": null, "source": "lidar2025", "tree_height": 8.7, "crown_radius": 6.0, "height_source": "lidar2025" }, "geometry": { "type": "Point", "coordinates": [ 286103.5, 4160639.5 ] } },
{ "type": "Feature", "properties": { "id": "lidar-tree:286092:4160642", "name": null, "kind": "tree", "species": null, "source": "lidar2025", "tree_height": 21.8, "crown_radius": 6.0, "height_source": "lidar2025" }, "geometry": { "type": "Point", "coordinates": [ 286092.5, 4160642.5 ] } },
{ "type": "Feature", "properties": { "id": "rva-tree:81990", "name": "Acer saccharum", "kind": "tree", "species": "Acer saccharum", "source": "city_inventory", "tree_height": 11.6, "crown_radius": 5.9, "height_source": "lidar2025" }, "geometry": { "type": "Point", "coordinates": [ 286112.22, 4160642.52 ] } },
{ "type": "Feature", "properties": { "id": "lidar-tree:286090:4160654", "name": null, "kind": "tree", "species": null, "source": "lidar2025", "tree_height": 15.8, "crown_radius": 6.0, "height_source": "lidar2025" }, "geometry": { "type": "Point", "coordinates": [ 286090.5, 4160654.5 ] } },
{ "type": "Feature", "properties": { "id": "lidar-tree:286202:4160570", "name": null, "kind": "tree", "species": null, "source": "lidar2025", "tree_height": 20.0, "crown_radius": 5.9, "height_source": "lidar2025" }, "geometry": { "type": "Point", "coordinates": [ 286202.5, 4160569.5 ] } },
{ "type": "Feature", "properties": { "id": "lidar-tree:286234:4160574", "name": null, "kind": "tree", "species": null, "source": "lidar2025", "tree_height": 13.3, "crown_radius": 4.1, "height_source": "lidar2025" }, "geometry": { "type": "Point", "coordinates": [ 286233.5, 4160573.5 ] } },
{ "type": "Feature", "properties": { "id": "lidar-tree:286204:4160578", "name": null, "kind": "tree", "species": null, "source": "lidar2025", "tree_height": 17.6, "crown_radius": 5.8, "height_source": "lidar2025" }, "geometry": { "type": "Point", "coordinates": [ 286204.5, 4160577.5 ] } },
{ "type": "Feature", "properties": { "id": "lidar-tree:286218:4160586", "name": null, "kind": "tree", "species": null, "source": "lidar2025", "tree_height": 11.9, "crown_radius": 1.8, "height_source": "lidar2025" }, "geometry": { "type": "Point", "coordinates": [ 286218.5, 4160585.5 ] } },
{ "type": "Feature", "properties": { "id": "lidar-tree:286200:4160596", "name": null, "kind": "tree", "species": null, "source": "lidar2025", "tree_height": 9.5, "crown_radius": 4.7, "height_source": "lidar2025" }, "geometry": { "type": "Point", "coordinates": [ 286200.5, 4160595.5 ] } },
{ "type": "Feature", "properties": { "id": "lidar-tree:286244:4160602", "name": null, "kind": "tree", "species": null, "source": "lidar2025", "tree_height": 22.8, "crown_radius": 6.0, "height_source": "lidar2025" }, "geometry": { "type": "Point", "coordinates": [ 286244.5, 4160601.5 ] } },
{ "type": "Feature", "properties": { "id": "rva-tree:97068", "name": "Acer campestre", "kind": "tree", "species": "Acer campestre", "source": "city_inventory", "tree_height": 4.6, "crown_radius": 2.1, "height_source": "lidar2025" }, "geometry": { "type": "Point", "coordinates": [ 286204.22, 4160608.59 ] } },
{ "type": "Feature", "properties": { "id": "lidar-tree:286226:4160610", "name": null, "kind": "tree", "species": null, "source": "lidar2025", "tree_height": 19.8, "crown_radius": 6.0, "height_source": "lidar2025" }, "geometry": { "type": "Point", "coordinates": [ 286226.5, 4160609.5 ] } },
{ "type": "Feature", "properties": { "id": "rva-tree:81791", "name": "Betula nigra", "kind": "tree", "species": "Betula nigra", "source": "city_inventory", "tree_height": 8.0, "crown_radius": 2.5, "height_source": "estimated" }, "geometry": { "type": "Point", "coordinates": [ 286215.9, 4160610.05 ] } },
{ "type": "Feature", "properties": { "id": "rva-tree:77218", "name": "Nyssa sylvatica", "kind": "tree", "species": "Nyssa sylvatica", "source": "city_inventory", "tree_height": 8.0, "crown_radius": 2.5, "height_source": "estimated" }, "geometry": { "type": "Point", "coordinates": [ 286206.92, 4160617.18 ] } },
{ "type": "Feature", "properties": { "id": "rva-tree:84900", "name": "Quercus phellos", "kind": "tree", "species": "Quercus phellos", "source": "city_inventory", "tree_height": 11.3, "crown_radius": 5.8, "height_source": "lidar2025" }, "geometry": { "type": "Point", "coordinates": [ 286143.66, 4160604.23 ] } },
{ "type": "Feature", "properties": { "id": "lidar-tree:286192:4160608", "name": null, "kind": "tree", "species": null, "source": "lidar2025", "tree_height": 7.8, "crown_radius": 4.9, "height_source": "lidar2025" }, "geometry": { "type": "Point", "coordinates": [ 286191.5, 4160607.5 ] } },
{ "type": "Feature", "properties": { "id": "rva-tree:82162", "name": "Quercus phellos", "kind": "tree", "species": "Quercus phellos", "source": "city_inventory", "tree_height": 21.8, "crown_radius": 6.0, "height_source": "lidar2025" }, "geometry": { "type": "Point", "coordinates": [ 286162.12, 4160611.76 ] } },
{ "type": "Feature", "properties": { "id": "rva-tree:84451", "name": "Quercus phellos", "kind": "tree", "species": "Quercus phellos", "source": "city_inventory", "tree_height": 19.1, "crown_radius": 6.0, "height_source": "lidar2025" }, "geometry": { "type": "Point", "coordinates": [ 286151.53, 4160614.12 ] } },
{ "type": "Feature", "properties": { "id": "lidar-tree:286146:4160618", "name": null, "kind": "tree", "species": null, "source": "lidar2025", "tree_height": 19.1, "crown_radius": 6.0, "height_source": "lidar2025" }, "geometry": { "type": "Point", "coordinates": [ 286145.5, 4160617.5 ] } },
{ "type": "Feature", "properties": { "id": "lidar-tree:286186:4160638", "name": null, "kind": "tree", "species": null, "source": "lidar2025", "tree_height": 19.8, "crown_radius": 6.0, "height_source": "lidar2025" }, "geometry": { "type": "Point", "coordinates": [ 286186.5, 4160637.5 ] } },
{ "type": "Feature", "properties": { "id": "lidar-tree:286180:4160644", "name": null, "kind": "tree", "species": null, "source": "lidar2025", "tree_height": 17.9, "crown_radius": 6.0, "height_source": "lidar2025" }, "geometry": { "type": "Point", "coordinates": [ 286179.5, 4160644.5 ] } },
{ "type": "Feature", "properties": { "id": "lidar-tree:286148:4160646", "name": null, "kind": "tree", "species": null, "source": "lidar2025", "tree_height": 30.0, "crown_radius": 6.0, "height_source": "lidar2025" }, "geometry": { "type": "Point", "coordinates": [ 286147.5, 4160645.5 ] } },
{ "type": "Feature", "properties": { "id": "lidar-tree:286156:4160648", "name": null, "kind": "tree", "species": null, "source": "lidar2025", "tree_height": 26.0, "crown_radius": 6.0, "height_source": "lidar2025" }, "geometry": { "type": "Point", "coordinates": [ 286156.5, 4160647.5 ] } },
{ "type": "Feature", "properties": { "id": "lidar-tree:286172:4160650", "name": null, "kind": "tree", "species": null, "source": "lidar2025", "tree_height": 11.7, "crown_radius": 4.9, "height_source": "lidar2025" }, "geometry": { "type": "Point", "coordinates": [ 286171.5, 4160650.5 ] } },
{ "type": "Feature", "properties": { "id": "rva-tree:82453", "name": "Celtis occidentalis", "kind": "tree", "species": "Celtis occidentalis", "source": "city_inventory", "tree_height": 9.3, "crown_radius": 4.4, "height_source": "lidar2025" }, "geometry": { "type": "Point", "coordinates": [ 286219.41, 4160623.16 ] } },
{ "type": "Feature", "properties": { "id": "rva-tree:76617", "name": "Betula nigra", "kind": "tree", "species": "Betula nigra", "source": "city_inventory", "tree_height": 8.0, "crown_radius": 2.5, "height_source": "estimated" }, "geometry": { "type": "Point", "coordinates": [ 286210.84, 4160636.51 ] } },
{ "type": "Feature", "properties": { "id": "rva-tree:82455", "name": "Celtis occidentalis", "kind": "tree", "species": "Celtis occidentalis", "source": "city_inventory", "tree_height": 8.0, "crown_radius": 2.5, "height_source": "estimated" }, "geometry": { "type": "Point", "coordinates": [ 286222.43, 4160638.01 ] } },
{ "type": "Feature", "properties": { "id": "lidar-tree:286202:4160670", "name": null, "kind": "tree", "species": null, "source": "lidar2025", "tree_height": 22.7, "crown_radius": 2.4, "height_source": "lidar2025" }, "geometry": { "type": "Point", "coordinates": [ 286202.5, 4160669.5 ] } },
{ "type": "Feature", "properties": { "id": "lidar-tree:286246:4160672", "name": null, "kind": "tree", "species": null, "source": "lidar2025", "tree_height": 15.8, "crown_radius": 2.3, "height_source": "lidar2025" }, "geometry": { "type": "Point", "coordinates": [ 286245.5, 4160671.5 ] } },
{ "type": "Feature", "properties": { "id": "lidar-tree:286246:4160678", "name": null, "kind": "tree", "species": null, "source": "lidar2025", "tree_height": 18.8, "crown_radius": 2.5, "height_source": "lidar2025" }, "geometry": { "type": "Point", "coordinates": [ 286245.5, 4160677.5 ] } },
{ "type": "Feature", "properties": { "id": "lidar-tree:286200:4160678", "name": null, "kind": "tree", "species": null, "source": "lidar2025", "tree_height": 21.3, "crown_radius": 2.6, "height_source": "lidar2025" }, "geometry": { "type": "Point", "coordinates": [ 286200.5, 4160678.5 ] } },
{ "type": "Feature", "properties": { "id": "lidar-tree:286242:4160684", "name": null, "kind": "tree", "species": null, "source": "lidar2025", "tree_height": 12.9, "crown_radius": 2.2, "height_source": "lidar2025" }, "geometry": { "type": "Point", "coordinates": [ 286241.5, 4160684.5 ] } },
{ "type": "Feature", "properties": { "id": "lidar-tree:286240:4160690", "name": null, "kind": "tree", "species": null, "source": "lidar2025", "tree_height": 13.7, "crown_radius": 1.8, "height_source": "lidar2025" }, "geometry": { "type": "Point", "coordinates": [ 286239.5, 4160689.5 ] } },
{ "type": "Feature", "properties": { "id": "lidar-tree:286186:4160652", "name": null, "kind": "tree", "species": null, "source": "lidar2025", "tree_height": 17.8, "crown_radius": 5.6, "height_source": "lidar2025" }, "geometry": { "type": "Point", "coordinates": [ 286186.5, 4160651.5 ] } },
{ "type": "Feature", "properties": { "id": "lidar-tree:286146:4160660", "name": null, "kind": "tree", "species": null, "source": "lidar2025", "tree_height": 15.8, "crown_radius": 5.2, "height_source": "lidar2025" }, "geometry": { "type": "Point", "coordinates": [ 286146.5, 4160660.5 ] } },
{ "type": "Feature", "properties": { "id": "lidar-tree:286188:4160662", "name": null, "kind": "tree", "species": null, "source": "lidar2025", "tree_height": 24.3, "crown_radius": 5.0, "height_source": "lidar2025" }, "geometry": { "type": "Point", "coordinates": [ 286188.5, 4160662.5 ] } },
{ "type": "Feature", "properties": { "id": "lidar-tree:286190:4160672", "name": null, "kind": "tree", "species": null, "source": "lidar2025", "tree_height": 20.9, "crown_radius": 2.8, "height_source": "lidar2025" }, "geometry": { "type": "Point", "coordinates": [ 286190.5, 4160672.5 ] } },
{ "type": "Feature", "properties": { "id": "lidar-tree:286194:4160672", "name": null, "kind": "tree", "species": null, "source": "lidar2025", "tree_height": 21.3, "crown_radius": 2.6, "height_source": "lidar2025" }, "geometry": { "type": "Point", "coordinates": [ 286194.5, 4160672.5 ] } },
{ "type": "Feature", "properties": { "id": "lidar-tree:286168:4160674", "name": null, "kind": "tree", "species": null, "source": "lidar2025", "tree_height": 13.0, "crown_radius": 2.1, "height_source": "lidar2025" }, "geometry": { "type": "Point", "coordinates": [ 286168.5, 4160673.5 ] } },
{ "type": "Feature", "properties": { "id": "lidar-tree:286186:4160676", "name": null, "kind": "tree", "species": null, "source": "lidar2025", "tree_height": 18.8, "crown_radius": 2.2, "height_source": "lidar2025" }, "geometry": { "type": "Point", "coordinates": [ 286186.5, 4160675.5 ] } },
{ "type": "Feature", "properties": { "id": "lidar-tree:286162:4160678", "name": null, "kind": "tree", "species": null, "source": "lidar2025", "tree_height": 20.2, "crown_radius": 2.4, "height_source": "lidar2025" }, "geometry": { "type": "Point", "coordinates": [ 286161.5, 4160677.5 ] } },
{ "type": "Feature", "properties": { "id": "lidar-tree:286196:4160678", "name": null, "kind": "tree", "species": null, "source": "lidar2025", "tree_height": 23.0, "crown_radius": 2.4, "height_source": "lidar2025" }, "geometry": { "type": "Point", "coordinates": [ 286195.5, 4160677.5 ] } },
{ "type": "Feature", "properties": { "id": "lidar-tree:286196:4160682", "name": null, "kind": "tree", "species": null, "source": "lidar2025", "tree_height": 19.7, "crown_radius": 2.1, "height_source": "lidar2025" }, "geometry": { "type": "Point", "coordinates": [ 286195.5, 4160682.5 ] } },
{ "type": "Feature", "properties": { "id": "lidar-tree:286130:4160658", "name": null, "kind": "tree", "species": null, "source": "lidar2025", "tree_height": 13.1, "crown_radius": 4.8, "height_source": "lidar2025" }, "geometry": { "type": "Point", "coordinates": [ 286130.5, 4160658.5 ] } },
{ "type": "Feature", "properties": { "id": "lidar-tree:286090:4160666", "name": null, "kind": "tree", "species": null, "source": "lidar2025", "tree_height": 18.3, "crown_radius": 3.3, "height_source": "lidar2025" }, "geometry": { "type": "Point", "coordinates": [ 286089.5, 4160666.5 ] } },
{ "type": "Feature", "properties": { "id": "lidar-tree:286098:4160668", "name": null, "kind": "tree", "species": null, "source": "lidar2025", "tree_height": 17.3, "crown_radius": 3.1, "height_source": "lidar2025" }, "geometry": { "type": "Point", "coordinates": [ 286098.5, 4160667.5 ] } },
{ "type": "Feature", "properties": { "id": "lidar-tree:286090:4160672", "name": null, "kind": "tree", "species": null, "source": "lidar2025", "tree_height": 18.8, "crown_radius": 2.3, "height_source": "lidar2025" }, "geometry": { "type": "Point", "coordinates": [ 286090.5, 4160671.5 ] } },
{ "type": "Feature", "properties": { "id": "lidar-tree:286100:4160672", "name": null, "kind": "tree", "species": null, "source": "lidar2025", "tree_height": 17.9, "crown_radius": 2.6, "height_source": "lidar2025" }, "geometry": { "type": "Point", "coordinates": [ 286099.5, 4160671.5 ] } },
{ "type": "Feature", "properties": { "id": "lidar-tree:286104:4160674", "name": null, "kind": "tree", "species": null, "source": "lidar2025", "tree_height": 13.8, "crown_radius": 2.0, "height_source": "lidar2025" }, "geometry": { "type": "Point", "coordinates": [ 286104.5, 4160673.5 ] } },
{ "type": "Feature", "properties": { "id": "lidar-tree:286094:4160676", "name": null, "kind": "tree", "species": null, "source": "lidar2025", "tree_height": 18.8, "crown_radius": 2.3, "height_source": "lidar2025" }, "geometry": { "type": "Point", "coordinates": [ 286093.5, 4160675.5 ] } },
{ "type": "Feature", "properties": { "id": "lidar-tree:286114:4160678", "name": null, "kind": "tree", "species": null, "source": "lidar2025", "tree_height": 11.7, "crown_radius": 1.7, "height_source": "lidar2025" }, "geometry": { "type": "Point", "coordinates": [ 286113.5, 4160678.5 ] } },
{ "type": "Feature", "properties": { "id": "lidar-tree:286116:4160682", "name": null, "kind": "tree", "species": null, "source": "lidar2025", "tree_height": 12.4, "crown_radius": 2.1, "height_source": "lidar2025" }, "geometry": { "type": "Point", "coordinates": [ 286116.5, 4160682.5 ] } },
{ "type": "Feature", "properties": { "id": "lidar-tree:286112:4160682", "name": null, "kind": "tree", "species": null, "source": "lidar2025", "tree_height": 11.8, "crown_radius": 1.9, "height_source": "lidar2025" }, "geometry": { "type": "Point", "coordinates": [ 286111.5, 4160682.5 ] } },
{ "type": "Feature", "properties": { "id": "lidar-tree:286174:4160684", "name": null, "kind": "tree", "species": null, "source": "lidar2025", "tree_height": 20.8, "crown_radius": 2.7, "height_source": "lidar2025" }, "geometry": { "type": "Point", "coordinates": [ 286173.5, 4160683.5 ] } },
{ "type": "Feature", "properties": { "id": "lidar-tree:286168:4160688", "name": null, "kind": "tree", "species": null, "source": "lidar2025", "tree_height": 24.6, "crown_radius": 2.5, "height_source": "lidar2025" }, "geometry": { "type": "Point", "coordinates": [ 286167.5, 4160688.5 ] } },
{ "type": "Feature", "properties": { "id": "lidar-tree:286178:4160688", "name": null, "kind": "tree", "species": null, "source": "lidar2025", "tree_height": 21.4, "crown_radius": 2.3, "height_source": "lidar2025" }, "geometry": { "type": "Point", "coordinates": [ 286178.5, 4160688.5 ] } },
{ "type": "Feature", "properties": { "id": "lidar-tree:286162:4160688", "name": null, "kind": "tree", "species": null, "source": "lidar2025", "tree_height": 25.2, "crown_radius": 2.5, "height_source": "lidar2025" }, "geometry": { "type": "Point", "coordinates": [ 286162.5, 4160688.5 ] } },
{ "type": "Feature", "properties": { "id": "lidar-tree:286174:4160690", "name": null, "kind": "tree", "species": null, "source": "lidar2025", "tree_height": 21.0, "crown_radius": 2.6, "height_source": "lidar2025" }, "geometry": { "type": "Point", "coordinates": [ 286173.5, 4160689.5 ] } },
{ "type": "Feature", "properties": { "id": "lidar-tree:286160:4160692", "name": null, "kind": "tree", "species": null, "source": "lidar2025", "tree_height": 22.0, "crown_radius": 2.0, "height_source": "lidar2025" }, "geometry": { "type": "Point", "coordinates": [ 286159.5, 4160692.5 ] } },
{ "type": "Feature", "properties": { "id": "lidar-tree:286180:4160692", "name": null, "kind": "tree", "species": null, "source": "lidar2025", "tree_height": 21.3, "crown_radius": 1.7, "height_source": "lidar2025" }, "geometry": { "type": "Point", "coordinates": [ 286180.5, 4160692.5 ] } },
{ "type": "Feature", "properties": { "id": "lidar-tree:286168:4160694", "name": null, "kind": "tree", "species": null, "source": "lidar2025", "tree_height": 24.0, "crown_radius": 2.3, "height_source": "lidar2025" }, "geometry": { "type": "Point", "coordinates": [ 286167.5, 4160693.5 ] } },
{ "type": "Feature", "properties": { "id": "lidar-tree:286178:4160698", "name": null, "kind": "tree", "species": null, "source": "lidar2025", "tree_height": 19.6, "crown_radius": 2.3, "height_source": "lidar2025" }, "geometry": { "type": "Point", "coordinates": [ 286177.5, 4160697.5 ] } },
{ "type": "Feature", "properties": { "id": "lidar-tree:286166:4160700", "name": null, "kind": "tree", "species": null, "source": "lidar2025", "tree_height": 20.8, "crown_radius": 2.4, "height_source": "lidar2025" }, "geometry": { "type": "Point", "coordinates": [ 286166.5, 4160699.5 ] } },
{ "type": "Feature", "properties": { "id": "lidar-tree:286124:4160684", "name": null, "kind": "tree", "species": null, "source": "lidar2025", "tree_height": 14.6, "crown_radius": 2.2, "height_source": "lidar2025" }, "geometry": { "type": "Point", "coordinates": [ 286123.5, 4160683.5 ] } },
{ "type": "Feature", "properties": { "id": "lidar-tree:286128:4160684", "name": null, "kind": "tree", "species": null, "source": "lidar2025", "tree_height": 13.2, "crown_radius": 2.0, "height_source": "lidar2025" }, "geometry": { "type": "Point", "coordinates": [ 286127.5, 4160684.5 ] } },
{ "type": "Feature", "properties": { "id": "lidar-tree:286118:4160688", "name": null, "kind": "tree", "species": null, "source": "lidar2025", "tree_height": 11.7, "crown_radius": 2.1, "height_source": "lidar2025" }, "geometry": { "type": "Point", "coordinates": [ 286117.5, 4160688.5 ] } },
{ "type": "Feature", "properties": { "id": "lidar-tree:286122:4160688", "name": null, "kind": "tree", "species": null, "source": "lidar2025", "tree_height": 14.5, "crown_radius": 2.6, "height_source": "lidar2025" }, "geometry": { "type": "Point", "coordinates": [ 286122.5, 4160688.5 ] } },
{ "type": "Feature", "properties": { "id": "lidar-tree:286128:4160690", "name": null, "kind": "tree", "species": null, "source": "lidar2025", "tree_height": 14.9, "crown_radius": 2.0, "height_source": "lidar2025" }, "geometry": { "type": "Point", "coordinates": [ 286128.5, 4160689.5 ] } },
{ "type": "Feature", "properties": { "id": "lidar-tree:286122:4160694", "name": null, "kind": "tree", "species": null, "source": "lidar2025", "tree_height": 14.5, "crown_radius": 2.1, "height_source": "lidar2025" }, "geometry": { "type": "Point", "coordinates": [ 286122.5, 4160693.5 ] } },
{ "type": "Feature", "properties": { "id": "lidar-tree:286128:4160694", "name": null, "kind": "tree", "species": null, "source": "lidar2025", "tree_height": 13.3, "crown_radius": 1.9, "height_source": "lidar2025" }, "geometry": { "type": "Point", "coordinates": [ 286127.5, 4160693.5 ] } },
{ "type": "Feature", "properties": { "id": "lidar-tree:286126:4160708", "name": null, "kind": "tree", "species": null, "source": "lidar2025", "tree_height": 11.6, "crown_radius": 2.0, "height_source": "lidar2025" }, "geometry": { "type": "Point", "coordinates": [ 286125.5, 4160707.5 ] } },
{ "type": "Feature", "properties": { "id": "lidar-tree:286132:4160708", "name": null, "kind": "tree", "species": null, "source": "lidar2025", "tree_height": 13.8, "crown_radius": 2.1, "height_source": "lidar2025" }, "geometry": { "type": "Point", "coordinates": [ 286131.5, 4160708.5 ] } },
{ "type": "Feature", "properties": { "id": "lidar-tree:286124:4160712", "name": null, "kind": "tree", "species": null, "source": "lidar2025", "tree_height": 12.2, "crown_radius": 2.1, "height_source": "lidar2025" }, "geometry": { "type": "Point", "coordinates": [ 286123.5, 4160711.5 ] } },
{ "type": "Feature", "properties": { "id": "lidar-tree:286162:4160700", "name": null, "kind": "tree", "species": null, "source": "lidar2025", "tree_height": 20.6, "crown_radius": 2.3, "height_source": "lidar2025" }, "geometry": { "type": "Point", "coordinates": [ 286161.5, 4160700.5 ] } },
{ "type": "Feature", "properties": { "id": "lidar-tree:286172:4160700", "name": null, "kind": "tree", "species": null, "source": "lidar2025", "tree_height": 19.6, "crown_radius": 2.6, "height_source": "lidar2025" }, "geometry": { "type": "Point", "coordinates": [ 286172.5, 4160700.5 ] } },
{ "type": "Feature", "properties": { "id": "lidar-tree:286152:4160704", "name": null, "kind": "tree", "species": null, "source": "lidar2025", "tree_height": 13.5, "crown_radius": 1.9, "height_source": "lidar2025" }, "geometry": { "type": "Point", "coordinates": [ 286152.5, 4160703.5 ] } },
{ "type": "Feature", "properties": { "id": "lidar-tree:286162:4160704", "name": null, "kind": "tree", "species": null, "source": "lidar2025", "tree_height": 22.2, "crown_radius": 2.0, "height_source": "lidar2025" }, "geometry": { "type": "Point", "coordinates": [ 286161.5, 4160704.5 ] } },
{ "type": "Feature", "properties": { "id": "lidar-tree:286172:4160706", "name": null, "kind": "tree", "species": null, "source": "lidar2025", "tree_height": 15.9, "crown_radius": 2.4, "height_source": "lidar2025" }, "geometry": { "type": "Point", "coordinates": [ 286172.5, 4160705.5 ] } },
{ "type": "Feature", "properties": { "id": "lidar-tree:286168:4160706", "name": null, "kind": "tree", "species": null, "source": "lidar2025", "tree_height": 19.7, "crown_radius": 2.1, "height_source": "lidar2025" }, "geometry": { "type": "Point", "coordinates": [ 286168.5, 4160705.5 ] } },
{ "type": "Feature", "properties": { "id": "lidar-tree:286156:4160706", "name": null, "kind": "tree", "species": null, "source": "lidar2025", "tree_height": 19.5, "crown_radius": 2.2, "height_source": "lidar2025" }, "geometry": { "type": "Point", "coordinates": [ 286156.5, 4160705.5 ] } },
{ "type": "Feature", "properties": { "id": "lidar-tree:286182:4160706", "name": null, "kind": "tree", "species": null, "source": "lidar2025", "tree_height": 10.4, "crown_radius": 1.7, "height_source": "lidar2025" }, "geometry": { "type": "Point", "coordinates": [ 286182.5, 4160706.5 ] } },
{ "type": "Feature", "properties": { "id": "lidar-tree:286184:4160712", "name": null, "kind": "tree", "species": null, "source": "lidar2025", "tree_height": 12.8, "crown_radius": 1.7, "height_source": "lidar2025" }, "geometry": { "type": "Point", "coordinates": [ 286184.5, 4160711.5 ] } },
{ "type": "Feature", "properties": { "id": "lidar-tree:286178:4160712", "name": null, "kind": "tree", "species": null, "source": "lidar2025", "tree_height": 14.0, "crown_radius": 2.3, "height_source": "lidar2025" }, "geometry": { "type": "Point", "coordinates": [ 286177.5, 4160711.5 ] } },
{ "type": "Feature", "properties": { "id": "lidar-tree:286046:4160684", "name": null, "kind": "tree", "species": null, "source": "lidar2025", "tree_height": 12.8, "crown_radius": 1.6, "height_source": "lidar2025" }, "geometry": { "type": "Point", "coordinates": [ 286046.5, 4160683.5 ] } },
{ "type": "Feature", "properties": { "id": "lidar-tree:286024:4160684", "name": null, "kind": "tree", "species": null, "source": "lidar2025", "tree_height": 11.1, "crown_radius": 1.7, "height_source": "lidar2025" }, "geometry": { "type": "Point", "coordinates": [ 286023.5, 4160684.5 ] } },
{ "type": "Feature", "properties": { "id": "lidar-tree:286030:4160684", "name": null, "kind": "tree", "species": null, "source": "lidar2025", "tree_height": 11.9, "crown_radius": 1.8, "height_source": "lidar2025" }, "geometry": { "type": "Point", "coordinates": [ 286030.5, 4160684.5 ] } },
{ "type": "Feature", "properties": { "id": "lidar-tree:286016:4160686", "name": null, "kind": "tree", "species": null, "source": "lidar2025", "tree_height": 13.9, "crown_radius": 1.8, "height_source": "lidar2025" }, "geometry": { "type": "Point", "coordinates": [ 286015.5, 4160685.5 ] } },
{ "type": "Feature", "properties": { "id": "lidar-tree:286012:4160688", "name": null, "kind": "tree", "species": null, "source": "lidar2025", "tree_height": 13.5, "crown_radius": 2.0, "height_source": "lidar2025" }, "geometry": { "type": "Point", "coordinates": [ 286011.5, 4160688.5 ] } },
{ "type": "Feature", "properties": { "id": "lidar-tree:286028:4160690", "name": null, "kind": "tree", "species": null, "source": "lidar2025", "tree_height": 13.3, "crown_radius": 2.4, "height_source": "lidar2025" }, "geometry": { "type": "Point", "coordinates": [ 286028.5, 4160689.5 ] } },
{ "type": "Feature", "properties": { "id": "lidar-tree:286016:4160690", "name": null, "kind": "tree", "species": null, "source": "lidar2025", "tree_height": 13.7, "crown_radius": 2.5, "height_source": "lidar2025" }, "geometry": { "type": "Point", "coordinates": [ 286016.5, 4160689.5 ] } },
{ "type": "Feature", "properties": { "id": "lidar-tree:286024:4160690", "name": null, "kind": "tree", "species": null, "source": "lidar2025", "tree_height": 12.3, "crown_radius": 2.3, "height_source": "lidar2025" }, "geometry": { "type": "Point", "coordinates": [ 286023.5, 4160689.5 ] } },
{ "type": "Feature", "properties": { "id": "lidar-tree:286036:4160690", "name": null, "kind": "tree", "species": null, "source": "lidar2025", "tree_height": 10.5, "crown_radius": 2.0, "height_source": "lidar2025" }, "geometry": { "type": "Point", "coordinates": [ 286035.5, 4160690.5 ] } },
{ "type": "Feature", "properties": { "id": "lidar-tree:286042:4160692", "name": null, "kind": "tree", "species": null, "source": "lidar2025", "tree_height": 16.4, "crown_radius": 2.2, "height_source": "lidar2025" }, "geometry": { "type": "Point", "coordinates": [ 286042.5, 4160691.5 ] } },
{ "type": "Feature", "properties": { "id": "lidar-tree:286048:4160692", "name": null, "kind": "tree", "species": null, "source": "lidar2025", "tree_height": 16.8, "crown_radius": 2.1, "height_source": "lidar2025" }, "geometry": { "type": "Point", "coordinates": [ 286047.5, 4160692.5 ] } },
{ "type": "Feature", "properties": { "id": "lidar-tree:286012:4160692", "name": null, "kind": "tree", "species": null, "source": "lidar2025", "tree_height": 11.7, "crown_radius": 1.8, "height_source": "lidar2025" }, "geometry": { "type": "Point", "coordinates": [ 286011.5, 4160692.5 ] } },
{ "type": "Feature", "properties": { "id": "lidar-tree:286022:4160696", "name": null, "kind": "tree", "species": null, "source": "lidar2025", "tree_height": 18.0, "crown_radius": 2.7, "height_source": "lidar2025" }, "geometry": { "type": "Point", "coordinates": [ 286022.5, 4160695.5 ] } },
{ "type": "Feature", "properties": { "id": "lidar-tree:286018:4160696", "name": null, "kind": "tree", "species": null, "source": "lidar2025", "tree_height": 18.3, "crown_radius": 2.3, "height_source": "lidar2025" }, "geometry": { "type": "Point", "coordinates": [ 286018.5, 4160695.5 ] } },
{ "type": "Feature", "properties": { "id": "lidar-tree:286050:4160698", "name": null, "kind": "tree", "species": null, "source": "lidar2025", "tree_height": 12.5, "crown_radius": 1.7, "height_source": "lidar2025" }, "geometry": { "type": "Point", "coordinates": [ 286050.5, 4160698.5 ] } },
{ "type": "Feature", "properties": { "id": "lidar-tree:286034:4160698", "name": null, "kind": "tree", "species": null, "source": "lidar2025", "tree_height": 11.5, "crown_radius": 1.5, "height_source": "lidar2025" }, "geometry": { "type": "Point", "coordinates": [ 286034.5, 4160698.5 ] } },
{ "type": "Feature", "properties": { "id": "lidar-tree:286044:4160700", "name": null, "kind": "tree", "species": null, "source": "lidar2025", "tree_height": 12.8, "crown_radius": 2.0, "height_source": "lidar2025" }, "geometry": { "type": "Point", "coordinates": [ 286043.5, 4160699.5 ] } },
{ "type": "Feature", "properties": { "id": "lidar-tree:286018:4160700", "name": null, "kind": "tree", "species": null, "source": "lidar2025", "tree_height": 18.7, "crown_radius": 2.3, "height_source": "lidar2025" }, "geometry": { "type": "Point", "coordinates": [ 286017.5, 4160700.5 ] } },
{ "type": "Feature", "properties": { "id": "lidar-tree:286024:4160702", "name": null, "kind": "tree", "species": null, "source": "lidar2025", "tree_height": 20.1, "crown_radius": 2.4, "height_source": "lidar2025" }, "geometry": { "type": "Point", "coordinates": [ 286024.5, 4160701.5 ] } },
{ "type": "Feature", "properties": { "id": "lidar-tree:286018:4160706", "name": null, "kind": "tree", "species": null, "source": "lidar2025", "tree_height": 18.1, "crown_radius": 2.0, "height_source": "lidar2025" }, "geometry": { "type": "Point", "coordinates": [ 286018.5, 4160705.5 ] } },
{ "type": "Feature", "properties": { "id": "lidar-tree:286004:4160712", "name": null, "kind": "tree", "species": null, "source": "lidar2025", "tree_height": 11.9, "crown_radius": 2.1, "height_source": "lidar2025" }, "geometry": { "type": "Point", "coordinates": [ 286004.5, 4160711.5 ] } },
{ "type": "Feature", "properties": { "id": "lidar-tree:286022:4160706", "name": null, "kind": "tree", "species": null, "source": "lidar2025", "tree_height": 18.8, "crown_radius": 2.4, "height_source": "lidar2025" }, "geometry": { "type": "Point", "coordinates": [ 286022.5, 4160705.5 ] } },
{ "type": "Feature", "properties": { "id": "lidar-tree:286004:4160716", "name": null, "kind": "tree", "species": null, "source": "lidar2025", "tree_height": 11.5, "crown_radius": 2.0, "height_source": "lidar2025" }, "geometry": { "type": "Point", "coordinates": [ 286004.5, 4160715.5 ] } },
{ "type": "Feature", "properties": { "id": "lidar-tree:286000:4160718", "name": null, "kind": "tree", "species": null, "source": "lidar2025", "tree_height": 10.9, "crown_radius": 2.0, "height_source": "lidar2025" }, "geometry": { "type": "Point", "coordinates": [ 286000.5, 4160717.5 ] } },
{ "type": "Feature", "properties": { "id": "lidar-tree:286246:4160710", "name": null, "kind": "tree", "species": null, "source": "lidar2025", "tree_height": 14.5, "crown_radius": 2.1, "height_source": "lidar2025" }, "geometry": { "type": "Point", "coordinates": [ 286246.5, 4160710.5 ] } },
{ "type": "Feature", "properties": { "id": "lidar-tree:286248:4160714", "name": null, "kind": "tree", "species": null, "source": "lidar2025", "tree_height": 14.5, "crown_radius": 2.1, "height_source": "lidar2025" }, "geometry": { "type": "Point", "coordinates": [ 286247.5, 4160714.5 ] } },
{ "type": "Feature", "properties": { "id": "lidar-tree:286200:4160730", "name": null, "kind": "tree", "species": null, "source": "lidar2025", "tree_height": 17.7, "crown_radius": 2.0, "height_source": "lidar2025" }, "geometry": { "type": "Point", "coordinates": [ 286199.5, 4160729.5 ] } },
{ "type": "Feature", "properties": { "id": "lidar-tree:286198:4160734", "name": null, "kind": "tree", "species": null, "source": "lidar2025", "tree_height": 18.7, "crown_radius": 2.3, "height_source": "lidar2025" }, "geometry": { "type": "Point", "coordinates": [ 286197.5, 4160733.5 ] } },
{ "type": "Feature", "properties": { "id": "lidar-tree:286228:4160736", "name": null, "kind": "tree", "species": null, "source": "lidar2025", "tree_height": 12.1, "crown_radius": 1.9, "height_source": "lidar2025" }, "geometry": { "type": "Point", "coordinates": [ 286227.5, 4160736.5 ] } },
{ "type": "Feature", "properties": { "id": "lidar-tree:286206:4160740", "name": null, "kind": "tree", "species": null, "source": "lidar2025", "tree_height": 13.6, "crown_radius": 2.1, "height_source": "lidar2025" }, "geometry": { "type": "Point", "coordinates": [ 286205.5, 4160739.5 ] } },
{ "type": "Feature", "properties": { "id": "lidar-tree:286174:4160714", "name": null, "kind": "tree", "species": null, "source": "lidar2025", "tree_height": 13.6, "crown_radius": 1.7, "height_source": "lidar2025" }, "geometry": { "type": "Point", "coordinates": [ 286173.5, 4160714.5 ] } },
{ "type": "Feature", "properties": { "id": "lidar-tree:286180:4160730", "name": null, "kind": "tree", "species": null, "source": "lidar2025", "tree_height": 12.5, "crown_radius": 1.7, "height_source": "lidar2025" }, "geometry": { "type": "Point", "coordinates": [ 286180.5, 4160729.5 ] } },
{ "type": "Feature", "properties": { "id": "lidar-tree:286184:4160734", "name": null, "kind": "tree", "species": null, "source": "lidar2025", "tree_height": 13.6, "crown_radius": 2.5, "height_source": "lidar2025" }, "geometry": { "type": "Point", "coordinates": [ 286183.5, 4160733.5 ] } },
{ "type": "Feature", "properties": { "id": "lidar-tree:286180:4160734", "name": null, "kind": "tree", "species": null, "source": "lidar2025", "tree_height": 14.8, "crown_radius": 2.2, "height_source": "lidar2025" }, "geometry": { "type": "Point", "coordinates": [ 286179.5, 4160734.5 ] } },
{ "type": "Feature", "properties": { "id": "lidar-tree:286188:4160734", "name": null, "kind": "tree", "species": null, "source": "lidar2025", "tree_height": 13.4, "crown_radius": 2.0, "height_source": "lidar2025" }, "geometry": { "type": "Point", "coordinates": [ 286187.5, 4160734.5 ] } },
{ "type": "Feature", "properties": { "id": "lidar-tree:286184:4160740", "name": null, "kind": "tree", "species": null, "source": "lidar2025", "tree_height": 13.9, "crown_radius": 2.5, "height_source": "lidar2025" }, "geometry": { "type": "Point", "coordinates": [ 286184.5, 4160739.5 ] } },
{ "type": "Feature", "properties": { "id": "lidar-tree:286190:4160740", "name": null, "kind": "tree", "species": null, "source": "lidar2025", "tree_height": 15.1, "crown_radius": 2.0, "height_source": "lidar2025" }, "geometry": { "type": "Point", "coordinates": [ 286189.5, 4160739.5 ] } },
{ "type": "Feature", "properties": { "id": "lidar-tree:286178:4160740", "name": null, "kind": "tree", "species": null, "source": "lidar2025", "tree_height": 14.6, "crown_radius": 2.3, "height_source": "lidar2025" }, "geometry": { "type": "Point", "coordinates": [ 286178.5, 4160739.5 ] } },
{ "type": "Feature", "properties": { "id": "lidar-tree:286170:4160740", "name": null, "kind": "tree", "species": null, "source": "lidar2025", "tree_height": 8.4, "crown_radius": 1.4, "height_source": "lidar2025" }, "geometry": { "type": "Point", "coordinates": [ 286170.5, 4160740.5 ] } },
{ "type": "Feature", "properties": { "id": "lidar-tree:286184:4160744", "name": null, "kind": "tree", "species": null, "source": "lidar2025", "tree_height": 13.7, "crown_radius": 2.3, "height_source": "lidar2025" }, "geometry": { "type": "Point", "coordinates": [ 286184.5, 4160743.5 ] } },
{ "type": "Feature", "properties": { "id": "lidar-tree:286130:4160716", "name": null, "kind": "tree", "species": null, "source": "lidar2025", "tree_height": 13.9, "crown_radius": 2.0, "height_source": "lidar2025" }, "geometry": { "type": "Point", "coordinates": [ 286129.5, 4160716.5 ] } },
{ "type": "Feature", "properties": { "id": "lidar-tree:286094:4160730", "name": null, "kind": "tree", "species": null, "source": "lidar2025", "tree_height": 8.6, "crown_radius": 1.7, "height_source": "lidar2025" }, "geometry": { "type": "Point", "coordinates": [ 286094.5, 4160729.5 ] } },
{ "type": "Feature", "properties": { "id": "lidar-tree:286084:4160738", "name": null, "kind": "tree", "species": null, "source": "lidar2025", "tree_height": 20.4, "crown_radius": 2.3, "height_source": "lidar2025" }, "geometry": { "type": "Point", "coordinates": [ 286083.5, 4160738.5 ] } },
{ "type": "Feature", "properties": { "id": "lidar-tree:286078:4160740", "name": null, "kind": "tree", "species": null, "source": "lidar2025", "tree_height": 18.2, "crown_radius": 2.3, "height_source": "lidar2025" }, "geometry": { "type": "Point", "coordinates": [ 286078.5, 4160739.5 ] } },
{ "type": "Feature", "properties": { "id": "lidar-tree:286090:4160740", "name": null, "kind": "tree", "species": null, "source": "lidar2025", "tree_height": 19.0, "crown_radius": 2.3, "height_source": "lidar2025" }, "geometry": { "type": "Point", "coordinates": [ 286089.5, 4160739.5 ] } },
{ "type": "Feature", "properties": { "id": "lidar-tree:286100:4160740", "name": null, "kind": "tree", "species": null, "source": "lidar2025", "tree_height": 12.9, "crown_radius": 1.9, "height_source": "lidar2025" }, "geometry": { "type": "Point", "coordinates": [ 286100.5, 4160740.5 ] } },
{ "type": "Feature", "properties": { "id": "lidar-tree:286106:4160744", "name": null, "kind": "tree", "species": null, "source": "lidar2025", "tree_height": 12.4, "crown_radius": 2.1, "height_source": "lidar2025" }, "geometry": { "type": "Point", "coordinates": [ 286105.5, 4160743.5 ] } },
{ "type": "Feature", "properties": { "id": "lidar-tree:286084:4160744", "name": null, "kind": "tree", "species": null, "source": "lidar2025", "tree_height": 23.1, "crown_radius": 2.6, "height_source": "lidar2025" }, "geometry": { "type": "Point", "coordinates": [ 286083.5, 4160744.5 ] } },
{ "type": "Feature", "properties": { "id": "lidar-tree:286100:4160744", "name": null, "kind": "tree", "species": null, "source": "lidar2025", "tree_height": 17.1, "crown_radius": 2.0, "height_source": "lidar2025" }, "geometry": { "type": "Point", "coordinates": [ 286100.5, 4160744.5 ] } },
{ "type": "Feature", "properties": { "id": "lidar-tree:286078:4160744", "name": null, "kind": "tree", "species": null, "source": "lidar2025", "tree_height": 18.8, "crown_radius": 2.3, "height_source": "lidar2025" }, "geometry": { "type": "Point", "coordinates": [ 286078.5, 4160744.5 ] } },
{ "type": "Feature", "properties": { "id": "lidar-tree:286200:4160740", "name": null, "kind": "tree", "species": null, "source": "lidar2025", "tree_height": 18.4, "crown_radius": 2.3, "height_source": "lidar2025" }, "geometry": { "type": "Point", "coordinates": [ 286200.5, 4160739.5 ] } },
{ "type": "Feature", "properties": { "id": "lidar-tree:286090:4160746", "name": null, "kind": "tree", "species": null, "source": "lidar2025", "tree_height": 19.5, "crown_radius": 2.1, "height_source": "lidar2025" }, "geometry": { "type": "Point", "coordinates": [ 286089.5, 4160745.5 ] } },
{ "type": "Feature", "properties": { "id": "lidar-tree:286182:4160748", "name": null, "kind": "tree", "species": null, "source": "lidar2025", "tree_height": 10.5, "crown_radius": 1.5, "height_source": "lidar2025" }, "geometry": { "type": "Point", "coordinates": [ 286181.5, 4160747.5 ] } }
]
}
