{
"type": "FeatureCollection",
"name": "buildings",
"crs": { "type": "name", "properties": { "name": "urn:ogc:def:crs:EPSG::32618" } },
"xy_coordinate_resolution": 0.01,
"features": [
{ "type": "Feature", "properties": { "id": "osm:way/252996619", "name": null, "height": 4.77, "min_height": 0.0, "levels": null, "height_source": "lidar", "roof_shape": "flat", "roof_height": 2.24, "roof_azimuth": null, "roof_source": "lod2", "roof_color": "concrete", "roof_color_source": "ortho", "lod2_roof": { "v": [ [ 281837.48, 4160248.27, 1.02 ], [ 281835.4, 4160248.35, 0.98 ], [ 281834.88, 4160246.64, 1.03 ], [ 281836.51, 4160245.8, 1.09 ], [ 281836.86, 4160247.0, 1.06 ], [ 281836.21, 4160262.77, 2.11 ], [ 281835.93, 4160261.07, 2.19 ], [ 281836.54, 4160261.06, 2.19 ], [ 281837.86, 4160261.56, 2.17 ], [ 281837.35, 4160262.28, 2.13 ], [ 281837.48, 4160248.27, 0.57 ], [ 281845.39, 4160264.51, 0.58 ], [ 281820.59, 4160276.01, 0.09 ], [ 281818.48, 4160271.13, 0.09 ], [ 281814.32, 4160273.71, 0.01 ], [ 281806.67, 4160258.29, 0.0 ], [ 281848.12, 4160238.7, 0.82 ], [ 281848.55, 4160239.58, 0.82 ], [ 281836.51, 4160245.8, 0.58 ], [ 281834.88, 4160246.64, 0.54 ], [ 281835.4, 4160248.35, 0.54 ], [ 281835.35, 4160258.54, 0.46 ], [ 281834.91, 4160259.9, 0.44 ], [ 281835.38, 4160261.08, 0.44 ], [ 281835.93, 4160261.07, 0.45 ], [ 281836.21, 4160262.77, 0.44 ], [ 281837.35, 4160262.28, 0.46 ], [ 281837.86, 4160261.56, 0.48 ], [ 281839.05, 4160259.87, 0.51 ], [ 281836.85, 4160258.1, 0.49 ], [ 281835.35, 4160258.54, 1.1 ], [ 281836.85, 4160258.1, 1.11 ], [ 281839.05, 4160259.87, 1.09 ], [ 281837.86, 4160261.56, 1.08 ], [ 281836.54, 4160261.06, 1.08 ], [ 281835.93, 4160261.07, 1.09 ], [ 281835.38, 4160261.08, 1.09 ], [ 281834.91, 4160259.9, 1.09 ], [ 281845.39, 4160264.51, 1.87 ], [ 281837.48, 4160248.27, 1.89 ], [ 281836.86, 4160247.0, 1.89 ], [ 281836.51, 4160245.8, 1.89 ], [ 281848.55, 4160239.58, 2.24 ], [ 281857.86, 4160258.72, 2.22 ] ], "f": [ [ [ 0, 1, 2, 3, 4 ] ], [ [ 5, 6, 7, 8, 9 ] ], [ [ 10, 11, 12, 13, 14, 15, 16, 17, 18, 19, 20 ], [ 21, 22, 23, 24, 25, 26, 27, 28, 29 ] ], [ [ 30, 31, 32, 33, 34, 35, 36, 37 ] ], [ [ 38, 39, 40, 41, 42, 43 ] ], [ [ 39, 0, 4, 40 ] ], [ [ 31, 29, 28, 32 ] ], [ [ 8, 33, 27, 26, 9 ] ], [ [ 7, 34, 33, 8 ] ], [ [ 37, 22, 21, 30 ] ], [ [ 2, 19, 18, 3 ] ], [ [ 41, 3, 18, 17, 42 ] ], [ [ 1, 20, 19, 2 ] ], [ [ 40, 4, 3, 41 ] ], [ [ 9, 26, 25, 5 ] ], [ [ 6, 35, 34, 7 ] ], [ [ 32, 28, 27, 33 ] ], [ [ 0, 10, 20, 1 ] ], [ [ 36, 23, 22, 37 ] ], [ [ 5, 25, 24, 35, 6 ] ], [ [ 35, 24, 23, 36 ] ], [ [ 30, 21, 29, 31 ] ], [ [ 38, 11, 10, 0, 39 ] ] ] }, "roof_props": null, "wall_color": "cream", "wall_color_source": "heuristic", "type": "yes", "landmark": null, "footprint_source": "osm", "source_updated": null, "is_part": false, "parent": null, "hidden": false, "addr": "2811 W Marshall St", "wikidata": null, "website": null, "zoning": "TOD-1", "lidar_p90": 6.5, "ground_z": 60.21 }, "geometry": { "type": "Polygon", "coordinates": [ [ [ 281814.32, 4160273.72 ], [ 281818.48, 4160271.13 ], [ 281820.59, 4160276.02 ], [ 281857.86, 4160258.72 ], [ 281848.12, 4160238.7 ], [ 281806.67, 4160258.29 ], [ 281814.32, 4160273.72 ] ] ] } },
{ "type": "Feature", "properties": { "id": "osm:way/252996620", "name": null, "height": 4.26, "min_height": 0.0, "levels": null, "height_source": "lidar", "roof_shape": "flat", "roof_height": 0.0, "roof_azimuth": null, "roof_source": "lidar", "roof_color": "roof_flat", "roof_color_source": "ortho", "lod2_roof": null, "roof_props": null, "wall_color": "brick", "wall_color_source": "heuristic", "type": "yes", "landmark": null, "footprint_source": "osm", "source_updated": null, "is_part": false, "parent": null, "hidden": false, "addr": null, "wikidata": null, "website": null, "zoning": "TOD-1", "lidar_p90": 5.16, "ground_z": 60.26 }, "geometry": { "type": "Polygon", "coordinates": [ [ [ 281799.05, 4160242.79 ], [ 281774.24, 4160261.13 ], [ 281802.01, 4160286.83 ], [ 281814.32, 4160273.72 ], [ 281799.05, 4160242.79 ] ] ] } },
{ "type": "Feature", "properties": { "id": "osm:way/252996622", "name": null, "height": 3.5, "min_height": 0.0, "levels": null, "height_source": "lidar", "roof_shape": "flat", "roof_height": 0.0, "roof_azimuth": null, "roof_source": "lidar", "roof_color": "roof_flat", "roof_color_source": "ortho", "lod2_roof": null, "roof_props": null, "wall_color": "cream", "wall_color_source": "heuristic", "type": "yes", "landmark": null, "footprint_source": "osm", "source_updated": null, "is_part": false, "parent": null, "hidden": false, "addr": null, "wikidata": null, "website": null, "zoning": "TOD-1", "lidar_p90": 3.55, "ground_z": 59.53 }, "geometry": { "type": "Polygon", "coordinates": [ [ [ 281775.35, 4160262.11 ], [ 281769.94, 4160265.73 ], [ 281781.89, 4160276.8 ], [ 281786.21, 4160272.18 ], [ 281775.35, 4160262.11 ] ] ] } },
{ "type": "Feature", "properties": { "id": "osm:way/252996617", "name": null, "height": 4.99, "min_height": 0.0, "levels": null, "height_source": "lidar", "roof_shape": "flat", "roof_height": 1.69, "roof_azimuth": null, "roof_source": "lod2", "roof_color": "concrete", "roof_color_source": "ortho", "lod2_roof": { "v": [ [ 281814.2, 4160303.04, 0.51 ], [ 281820.73, 4160308.38, 0.0 ], [ 281823.45, 4160310.94, 0.0 ], [ 281822.61, 4160311.51, 0.87 ], [ 281813.81, 4160303.44, 1.01 ], [ 281813.93, 4160303.32, 0.85 ], [ 281823.07, 4160296.78, 0.92 ], [ 281817.83, 4160299.28, 1.11 ], [ 281814.2, 4160303.04, 0.87 ], [ 281813.81, 4160303.44, 0.85 ], [ 281813.21, 4160302.88, 1.02 ], [ 281817.08, 4160297.71, 1.48 ], [ 281823.34, 4160295.51, 1.12 ], [ 281823.55, 4160296.55, 0.9 ], [ 281829.06, 4160306.11, 1.44 ], [ 281827.25, 4160306.55, 0.0 ], [ 281826.05, 4160304.15, 0.0 ], [ 281823.07, 4160296.78, 0.48 ], [ 281824.03, 4160295.27, 1.69 ], [ 281817.83, 4160299.28, 0.56 ], [ 281829.06, 4160306.11, 0.0 ] ], "f": [ [ [ 0, 1, 2, 3, 4, 5 ] ], [ [ 6, 7, 8, 5, 9, 10, 11, 12, 13 ] ], [ [ 14, 15, 16, 17, 13, 12, 18 ] ], [ [ 1, 0, 19, 17, 16 ] ], [ [ 8, 0, 5 ] ], [ [ 4, 9, 5 ] ], [ [ 17, 6, 13 ] ], [ [ 7, 19, 0, 8 ] ], [ [ 6, 17, 19, 7 ] ], [ [ 14, 20, 15 ] ] ] }, "roof_props": null, "wall_color": "brick_dark", "wall_color_source": "assessor", "type": "yes", "landmark": null, "footprint_source": "osm", "source_updated": null, "is_part": false, "parent": null, "hidden": false, "addr": "2810 West Marshall Street", "wikidata": null, "website": null, "zoning": "TOD-1", "lidar_p90": 5.39, "ground_z": 59.36 }, "geometry": { "type": "Polygon", "coordinates": [ [ [ 281822.61, 4160311.51 ], [ 281829.43, 4160306.91 ], [ 281824.03, 4160295.27 ], [ 281817.08, 4160297.71 ], [ 281813.2, 4160302.88 ], [ 281822.61, 4160311.51 ] ] ] } },
{ "type": "Feature", "properties": { "id": "richmond_structure:445761", "name": null, "height": 23.04, "min_height": 0.0, "levels": null, "height_source": "lidar", "roof_shape": "flat", "roof_height": 0.0, "roof_azimuth": null, "roof_source": "heuristic", "roof_color": "roof_flat", "roof_color_source": "ortho", "lod2_roof": null, "roof_props": [ { "x": 281735.33, "y": 4160253.98, "w": 4.61, "d": 3.23, "h": 2.5, "a": 2.6012, "b": 0.0 }, { "x": 281740.94, "y": 4160254.77, "w": 3.79, "d": 3.01, "h": 1.77, "a": 1.1071, "b": 0.0 } ], "wall_color": "slate", "wall_color_source": "assessor", "type": "yes", "landmark": null, "footprint_source": "richmond_structures", "source_updated": "2026-09-08T12:07:13.637000Z", "is_part": false, "parent": null, "hidden": false, "addr": "2820 W Broad St", "wikidata": null, "website": null, "zoning": "TOD-1", "lidar_p90": 23.97, "ground_z": 59.55 }, "geometry": { "type": "Polygon", "coordinates": [ [ [ 281756.78, 4160222.2 ], [ 281720.97, 4160251.76 ], [ 281748.42, 4160276.36 ], [ 281779.53, 4160251.49 ], [ 281756.78, 4160222.2 ] ] ] } },
{ "type": "Feature", "properties": { "id": "osm:way/822691465", "name": null, "height": 3.79, "min_height": 0.0, "levels": null, "height_source": "lidar", "roof_shape": "flat", "roof_height": 0.06, "roof_azimuth": null, "roof_source": "lod2", "roof_color": "roof_flat", "roof_color_source": "ortho", "lod2_roof": { "v": [ [ 281768.39, 4160290.15, 0.05 ], [ 281759.37, 4160281.73, 0.06 ], [ 281764.5, 4160276.29, 0.02 ], [ 281773.51, 4160284.7, 0.0 ] ], "f": [ [ [ 0, 1, 2, 3 ] ] ] }, "roof_props": null, "wall_color": "terracotta", "wall_color_source": "heuristic", "type": "yes", "landmark": null, "footprint_source": "osm", "source_updated": null, "is_part": false, "parent": null, "hidden": false, "addr": "1005 North Sheppard Street", "wikidata": null, "website": null, "zoning": "TOD-1", "lidar_p90": 3.85, "ground_z": 59.18 }, "geometry": { "type": "Polygon", "coordinates": [ [ [ 281773.5, 4160284.71 ], [ 281764.5, 4160276.29 ], [ 281759.37, 4160281.73 ], [ 281768.39, 4160290.15 ], [ 281773.5, 4160284.71 ] ] ] } },
{ "type": "Feature", "properties": { "id": "osm:way/252996615", "name": null, "height": 4.57, "min_height": 0.0, "levels": null, "height_source": "lidar", "roof_shape": "flat", "roof_height": 0.0, "roof_azimuth": null, "roof_source": "lidar", "roof_color": "roof_flat", "roof_color_source": "ortho", "lod2_roof": null, "roof_props": null, "wall_color": "brick", "wall_color_source": "assessor", "type": "yes", "landmark": null, "footprint_source": "osm", "source_updated": null, "is_part": false, "parent": null, "hidden": false, "addr": "2800 West Marshall Street", "wikidata": null, "website": null, "zoning": "TOD-1", "lidar_p90": 5.95, "ground_z": 59.64 }, "geometry": { "type": "Polygon", "coordinates": [ [ [ 281874.95, 4160300.08 ], [ 281874.53, 4160299.21 ], [ 281875.62, 4160298.7 ], [ 281871.9, 4160290.88 ], [ 281870.9, 4160291.35 ], [ 281863.62, 4160276.03 ], [ 281858.21, 4160278.57 ], [ 281864.75, 4160292.33 ], [ 281835.71, 4160306.01 ], [ 281840.59, 4160316.27 ], [ 281874.95, 4160300.08 ] ] ] } },
{ "type": "Feature", "properties": { "id": "osm:way/252996614", "name": null, "height": 5.02, "min_height": 0.0, "levels": null, "height_source": "lidar", "roof_shape": "flat", "roof_height": 3.0, "roof_azimuth": null, "roof_source": "lod2", "roof_color": "roof_flat", "roof_color_source": "ortho", "lod2_roof": { "v": [ [ 281850.55, 4160340.67, 1.88 ], [ 281851.63, 4160342.95, 1.91 ], [ 281851.36, 4160343.08, 1.95 ], [ 281851.25, 4160343.13, 1.96 ], [ 281850.17, 4160340.87, 1.93 ], [ 281876.3, 4160301.89, 0.11 ], [ 281877.55, 4160301.32, 0.31 ], [ 281882.28, 4160311.23, 0.35 ], [ 281881.03, 4160311.85, 0.14 ], [ 281850.13, 4160331.92, 1.87 ], [ 281848.71, 4160331.58, 1.58 ], [ 281849.99, 4160331.06, 1.61 ], [ 281849.75, 4160330.36, 1.37 ], [ 281877.22, 4160319.5, 2.16 ], [ 281878.49, 4160319.0, 2.2 ], [ 281878.76, 4160319.28, 2.31 ], [ 281879.48, 4160320.01, 2.62 ], [ 281878.83, 4160321.64, 3.0 ], [ 281851.22, 4160334.87, 2.87 ], [ 281882.7, 4160322.01, 2.0 ], [ 281881.39, 4160322.72, 2.44 ], [ 281881.32, 4160322.45, 2.43 ], [ 281878.76, 4160319.28, 2.73 ], [ 281881.1, 4160318.32, 1.98 ], [ 281852.94, 4160312.66, 0.2 ], [ 281854.1, 4160316.84, 0.14 ], [ 281853.85, 4160317.98, 0.12 ], [ 281851.24, 4160318.77, 0.06 ], [ 281851.05, 4160318.38, 0.07 ], [ 281849.62, 4160318.96, 0.04 ], [ 281848.55, 4160320.12, 0.0 ], [ 281844.72, 4160316.62, 0.0 ], [ 281843.81, 4160315.67, 0.75 ], [ 281852.6, 4160311.42, 1.0 ], [ 281852.94, 4160312.66, 0.78 ], [ 281843.49, 4160317.21, 0.51 ], [ 281843.16, 4160316.6, 0.63 ], [ 281866.24, 4160306.39, 0.8 ], [ 281864.74, 4160305.56, 0.84 ], [ 281876.8, 4160299.73, 0.89 ], [ 281877.55, 4160301.32, 0.84 ], [ 281876.3, 4160301.89, 0.83 ], [ 281876.12, 4160301.51, 0.85 ], [ 281868.87, 4160305.0, 0.82 ], [ 281868.99, 4160305.16, 0.81 ], [ 281898.97, 4160371.22, 1.72 ], [ 281892.81, 4160354.4, 1.67 ], [ 281893.12, 4160353.51, 1.67 ], [ 281893.25, 4160353.45, 1.67 ], [ 281899.41, 4160350.54, 1.64 ], [ 281891.73, 4160334.38, 1.6 ], [ 281888.34, 4160326.13, 1.58 ], [ 281889.19, 4160325.71, 1.58 ], [ 281903.75, 4160356.2, 1.65 ], [ 281903.25, 4160356.45, 1.65 ], [ 281910.36, 4160371.44, 1.69 ], [ 281902.47, 4160375.19, 1.72 ], [ 281900.03, 4160371.01, 1.71 ], [ 281873.38, 4160350.73, 1.57 ], [ 281873.78, 4160351.83, 1.6 ], [ 281872.84, 4160352.05, 1.7 ], [ 281872.0, 4160351.48, 1.74 ], [ 281851.63, 4160342.95, 0.28 ], [ 281881.49, 4160328.36, 0.44 ], [ 281893.25, 4160353.45, 0.37 ], [ 281893.12, 4160353.51, 0.37 ], [ 281892.81, 4160354.4, 0.36 ], [ 281898.97, 4160371.22, 0.3 ], [ 281900.03, 4160371.01, 0.31 ], [ 281902.47, 4160375.19, 0.3 ], [ 281873.21, 4160389.08, 0.14 ], [ 281851.25, 4160343.13, 0.28 ], [ 281851.36, 4160343.08, 0.28 ], [ 281873.78, 4160351.83, 0.31 ], [ 281873.38, 4160350.73, 0.32 ], [ 281872.0, 4160351.48, 0.31 ], [ 281872.84, 4160352.05, 0.31 ], [ 281853.1, 4160325.32, 0.34 ], [ 281875.15, 4160314.72, 0.31 ], [ 281877.22, 4160319.5, 1.89 ], [ 281849.75, 4160330.36, 1.29 ], [ 281849.99, 4160331.06, 1.51 ], [ 281848.71, 4160331.58, 1.49 ], [ 281846.07, 4160330.97, 0.97 ], [ 281845.09, 4160328.98, 0.3 ], [ 281875.15, 4160314.72, 1.86 ], [ 281879.69, 4160312.5, 1.96 ], [ 281881.03, 4160311.85, 1.99 ], [ 281882.28, 4160311.23, 2.02 ], [ 281889.19, 4160325.71, 2.13 ], [ 281888.34, 4160326.13, 2.11 ], [ 281891.73, 4160334.38, 2.17 ], [ 281899.41, 4160350.54, 2.3 ], [ 281893.25, 4160353.45, 2.16 ], [ 281881.49, 4160328.36, 1.96 ], [ 281879.64, 4160324.41, 1.93 ], [ 281881.55, 4160323.37, 1.98 ], [ 281881.39, 4160322.72, 1.97 ], [ 281878.76, 4160319.28, 1.93 ], [ 281878.49, 4160319.0, 1.92 ], [ 281850.55, 4160340.67, 1.15 ], [ 281850.17, 4160340.87, 1.14 ], [ 281849.73, 4160339.96, 1.48 ], [ 281851.75, 4160336.32, 2.32 ], [ 281851.22, 4160334.87, 2.84 ], [ 281878.83, 4160321.64, 2.91 ], [ 281881.32, 4160322.45, 2.29 ], [ 281881.39, 4160322.72, 2.2 ], [ 281843.49, 4160317.21, 0.0 ], [ 281843.16, 4160316.6, 0.0 ], [ 281851.05, 4160318.38, 0.0 ], [ 281849.62, 4160318.96, 0.0 ], [ 281843.81, 4160315.67, 0.0 ], [ 281854.1, 4160316.84, 0.0 ], [ 281853.85, 4160317.98, 0.0 ], [ 281879.69, 4160312.5, 0.0 ], [ 281881.03, 4160311.85, 0.0 ], [ 281876.3, 4160301.89, 0.0 ], [ 281876.12, 4160301.51, 0.0 ], [ 281868.87, 4160305.0, 0.0 ], [ 281868.99, 4160305.16, 0.0 ], [ 281866.24, 4160306.39, 0.0 ], [ 281852.6, 4160311.42, 0.0 ], [ 281852.94, 4160312.66, 0.0 ], [ 281851.24, 4160318.77, 0.0 ], [ 281864.74, 4160305.56, 0.0 ], [ 281875.15, 4160314.72, 0.0 ], [ 281845.09, 4160328.98, 0.0 ], [ 281853.1, 4160325.32, 0.0 ] ], "f": [ [ [ 0, 1, 2, 3, 4 ] ], [ [ 5, 6, 7, 8 ] ], [ [ 9, 10, 11, 12, 13, 14, 15, 16, 17, 18 ] ], [ [ 19, 20, 21, 17, 16, 22, 23 ] ], [ [ 24, 25, 26, 27, 28, 29, 30, 31 ] ], [ [ 32, 33, 34, 35, 36 ] ], [ [ 37, 38, 39, 40, 41, 42, 43, 44 ] ], [ [ 45, 46, 47, 48, 49, 50, 51, 52, 53, 54, 55, 56, 57 ] ], [ [ 58, 59, 60, 61 ] ], [ [ 62, 63, 64, 65, 66, 67, 68, 69, 70, 71, 72 ], [ 73, 74, 75, 76 ] ], [ [ 77, 78, 79, 80, 81, 82, 83, 84 ] ], [ [ 79, 85, 86, 87, 88, 89, 90, 91, 92, 93, 94, 95, 96, 97, 19, 23, 98, 99 ] ], [ [ 63, 62, 100, 101, 102, 103, 104, 105, 106, 107, 96, 95 ] ], [ [ 35, 108, 109, 36 ] ], [ [ 28, 110, 111, 29 ] ], [ [ 15, 22, 16 ] ], [ [ 22, 15, 98, 23 ] ], [ [ 36, 109, 112, 32 ] ], [ [ 29, 111, 30 ] ], [ [ 17, 105, 104, 18 ] ], [ [ 59, 73, 76, 60 ] ], [ [ 46, 66, 65, 47 ] ], [ [ 47, 65, 64, 48 ] ], [ [ 21, 106, 105, 17 ] ], [ [ 2, 72, 71, 3 ] ], [ [ 1, 62, 72, 2 ] ], [ [ 4, 101, 100, 0 ] ], [ [ 0, 100, 62, 1 ] ], [ [ 60, 76, 75, 61 ] ], [ [ 61, 75, 74, 58 ] ], [ [ 25, 113, 114, 26 ] ], [ [ 13, 79, 99, 14 ] ], [ [ 87, 8, 7, 88 ] ], [ [ 86, 115, 116, 8, 87 ] ], [ [ 14, 99, 98, 15 ] ], [ [ 8, 116, 117, 5 ] ], [ [ 42, 118, 119, 43 ] ], [ [ 41, 5, 117, 118, 42 ] ], [ [ 40, 6, 5, 41 ] ], [ [ 43, 119, 120, 44 ] ], [ [ 44, 120, 121, 37 ] ], [ [ 92, 49, 48, 93 ] ], [ [ 12, 80, 79, 13 ] ], [ [ 34, 24, 31, 108, 35 ] ], [ [ 20, 107, 106, 21 ] ], [ [ 90, 51, 50, 91 ] ], [ [ 89, 52, 51, 90 ] ], [ [ 11, 81, 80, 12 ] ], [ [ 10, 82, 81, 11 ] ], [ [ 57, 68, 67, 45 ] ], [ [ 56, 69, 68, 57 ] ], [ [ 91, 50, 49, 92 ] ], [ [ 107, 97, 96 ] ], [ [ 97, 107, 20, 19 ] ], [ [ 94, 63, 95 ] ], [ [ 33, 122, 123, 24, 34 ] ], [ [ 26, 114, 124, 27 ] ], [ [ 27, 124, 110, 28 ] ], [ [ 37, 121, 125, 38 ] ], [ [ 24, 123, 113, 25 ] ], [ [ 85, 78, 126, 115, 86 ] ], [ [ 58, 74, 73, 59 ] ], [ [ 45, 67, 66, 46 ] ], [ [ 84, 127, 128, 77 ] ], [ [ 93, 48, 64, 63, 94 ] ], [ [ 79, 78, 85 ] ], [ [ 77, 128, 126, 78 ] ] ] }, "roof_props": null, "wall_color": "brick", "wall_color_source": "assessor", "type": "yes", "landmark": null, "footprint_source": "osm", "source_updated": null, "is_part": false, "parent": null, "hidden": false, "addr": "1008 N Arthur Ashe Blvd", "wikidata": null, "website": null, "zoning": "TOD-1", "lidar_p90": 6.7, "ground_z": 59.06 }, "geometry": { "type": "Polygon", "coordinates": [ [ [ 281876.79, 4160299.73 ], [ 281839.55, 4160317.73 ], [ 281846.07, 4160330.97 ], [ 281850.13, 4160331.92 ], [ 281851.75, 4160336.32 ], [ 281849.73, 4160339.96 ], [ 281873.21, 4160389.08 ], [ 281910.9, 4160371.18 ], [ 281876.79, 4160299.73 ] ] ] } },
{ "type": "Feature", "properties": { "id": "osm:way/252995158", "name": null, "height": 3.27, "min_height": 0.0, "levels": null, "height_source": "lidar", "roof_shape": "flat", "roof_height": 0.06, "roof_azimuth": null, "roof_source": "lod2", "roof_color": "roof_flat", "roof_color_source": "ortho", "lod2_roof": { "v": [ [ 281880.62, 4160405.59, 0.0 ], [ 281888.09, 4160404.06, 0.0 ], [ 281892.01, 4160412.28, 0.05 ], [ 281885.33, 4160415.44, 0.06 ] ], "f": [ [ [ 0, 1, 2, 3 ] ] ] }, "roof_props": null, "wall_color": "sand", "wall_color_source": "heuristic", "type": "yes", "landmark": null, "footprint_source": "osm", "source_updated": null, "is_part": false, "parent": null, "hidden": false, "addr": "2806 West Clay Street", "wikidata": null, "website": null, "zoning": "TOD-1", "lidar_p90": 3.75, "ground_z": 58.64 }, "geometry": { "type": "Polygon", "coordinates": [ [ [ 281885.33, 4160415.44 ], [ 281892.01, 4160412.28 ], [ 281887.31, 4160402.42 ], [ 281880.62, 4160405.59 ], [ 281885.33, 4160415.44 ] ] ] } },
{ "type": "Feature", "properties": { "id": "osm:way/252995152", "name": null, "height": 3.73, "min_height": 0.0, "levels": null, "height_source": "lidar", "roof_shape": "flat", "roof_height": 0.3, "roof_azimuth": null, "roof_source": "lod2", "roof_color": "roof_flat", "roof_color_source": "ortho", "lod2_roof": { "v": [ [ 281908.98, 4160423.53, 0.01 ], [ 281912.94, 4160431.77, 0.26 ], [ 281897.25, 4160439.26, 0.3 ], [ 281892.47, 4160429.34, 0.0 ], [ 281902.41, 4160425.69, 0.0 ], [ 281902.91, 4160426.58, 0.03 ], [ 281902.91, 4160426.58, 0.0 ], [ 281908.98, 4160423.53, 0.0 ] ], "f": [ [ [ 0, 1, 2, 3, 4, 5 ] ], [ [ 6, 5, 4 ] ], [ [ 5, 6, 7, 0 ] ] ] }, "roof_props": null, "wall_color": "concrete", "wall_color_source": "heuristic", "type": "yes", "landmark": null, "footprint_source": "osm", "source_updated": null, "is_part": false, "parent": null, "hidden": false, "addr": null, "wikidata": null, "website": null, "zoning": "TOD-1", "lidar_p90": 3.89, "ground_z": 58.94 }, "geometry": { "type": "Polygon", "coordinates": [ [ [ 281912.94, 4160431.77 ], [ 281908.0, 4160421.51 ], [ 281892.31, 4160429.01 ], [ 281897.25, 4160439.26 ], [ 281912.94, 4160431.77 ] ] ] } },
{ "type": "Feature", "properties": { "id": "osm:way/1131760712", "name": "Viv", "height": 17.26, "min_height": 0.0, "levels": null, "height_source": "lidar", "roof_shape": "flat", "roof_height": 0.0, "roof_azimuth": null, "roof_source": "lidar", "roof_color": "roof_flat", "roof_color_source": "ortho", "lod2_roof": null, "roof_props": null, "wall_color": "sand", "wall_color_source": "assessor", "type": "apartments", "landmark": null, "footprint_source": "osm", "source_updated": null, "is_part": false, "parent": null, "hidden": false, "addr": "2900 W Clay St", "wikidata": null, "website": "https://viv.scottscollection.com/", "zoning": "TOD-1", "lidar_p90": 17.91, "ground_z": 58.9 }, "geometry": { "type": "Polygon", "coordinates": [ [ [ 281879.31, 4160414.08 ], [ 281874.8, 4160410.06 ], [ 281844.83, 4160443.34 ], [ 281876.12, 4160471.25 ], [ 281896.13, 4160449.02 ], [ 281891.47, 4160444.85 ], [ 281892.57, 4160443.63 ], [ 281888.84, 4160440.29 ], [ 281887.41, 4160441.88 ], [ 281888.27, 4160442.66 ], [ 281874.97, 4160457.44 ], [ 281866.76, 4160450.11 ], [ 281885.99, 4160428.74 ], [ 281881.58, 4160424.79 ], [ 281883.16, 4160423.04 ], [ 281881.09, 4160421.2 ], [ 281879.31, 4160414.08 ] ] ] } },
{ "type": "Feature", "properties": { "id": "osm:way/252996599", "name": null, "height": 3.2, "min_height": 0.0, "levels": null, "height_source": "lidar", "roof_shape": "flat", "roof_height": 3.4, "roof_azimuth": null, "roof_source": "lod2", "roof_color": "roof_flat", "roof_color_source": "ortho", "lod2_roof": { "v": [ [ 281901.25, 4160477.84, 2.86 ], [ 281903.92, 4160474.79, 2.93 ], [ 281909.99, 4160480.86, 3.4 ], [ 281907.47, 4160483.58, 3.33 ], [ 281893.89, 4160466.78, 0.0 ], [ 281895.3, 4160466.17, 0.0 ], [ 281903.92, 4160474.79, 0.01 ], [ 281901.25, 4160477.84, 0.02 ], [ 281890.03, 4160467.48, 0.01 ], [ 281891.95, 4160465.19, 0.0 ] ], "f": [ [ [ 0, 1, 2, 3 ] ], [ [ 4, 5, 6, 7, 8, 9 ] ], [ [ 0, 7, 6, 1 ] ] ] }, "roof_props": null, "wall_color": "terracotta", "wall_color_source": "assessor", "type": "yes", "landmark": null, "footprint_source": "osm", "source_updated": null, "is_part": false, "parent": null, "hidden": false, "addr": "2913 West Leigh Street", "wikidata": null, "website": null, "zoning": "TOD-1", "lidar_p90": 6.44, "ground_z": 58.9 }, "geometry": { "type": "Polygon", "coordinates": [ [ [ 281893.79, 4160461.54 ], [ 281889.08, 4160466.59 ], [ 281907.47, 4160483.58 ], [ 281912.17, 4160478.52 ], [ 281893.79, 4160461.54 ] ] ] } },
{ "type": "Feature", "properties": { "id": "osm:way/252996626", "name": null, "height": 3.96, "min_height": 0.0, "levels": null, "height_source": "lidar", "roof_shape": "flat", "roof_height": 4.49, "roof_azimuth": null, "roof_source": "lod2", "roof_color": "roof_flat", "roof_color_source": "ortho", "lod2_roof": { "v": [ [ 281748.12, 4160312.8, 1.75 ], [ 281749.24, 4160313.32, 1.74 ], [ 281748.24, 4160314.77, 1.68 ], [ 281747.18, 4160313.84, 1.7 ], [ 281746.75, 4160316.24, 4.38 ], [ 281754.19, 4160323.12, 4.36 ], [ 281752.54, 4160324.31, 4.43 ], [ 281751.77, 4160325.25, 4.47 ], [ 281743.68, 4160317.85, 4.49 ], [ 281745.41, 4160317.29, 4.43 ], [ 281742.36, 4160316.65, 0.21 ], [ 281750.26, 4160307.89, 0.21 ], [ 281753.46, 4160310.9, 0.26 ], [ 281757.5, 4160314.69, 0.32 ], [ 281768.0, 4160324.55, 0.48 ], [ 281760.14, 4160332.91, 0.47 ], [ 281751.77, 4160325.25, 0.35 ], [ 281752.54, 4160324.31, 0.35 ], [ 281754.19, 4160323.12, 0.35 ], [ 281746.75, 4160316.24, 0.24 ], [ 281745.41, 4160317.29, 0.24 ], [ 281743.68, 4160317.85, 0.23 ], [ 281749.24, 4160313.32, 0.24 ], [ 281748.12, 4160312.8, 0.23 ], [ 281747.18, 4160313.84, 0.23 ], [ 281748.24, 4160314.77, 0.24 ], [ 281757.5, 4160314.69, 0.0 ], [ 281768.0, 4160324.55, 0.0 ], [ 281750.26, 4160307.89, 0.0 ], [ 281753.46, 4160310.9, 0.0 ] ], "f": [ [ [ 0, 1, 2, 3 ] ], [ [ 4, 5, 6, 7, 8, 9 ] ], [ [ 10, 11, 12, 13, 14, 15, 16, 17, 18, 19, 20, 21 ], [ 22, 23, 24, 25 ] ], [ [ 8, 21, 20, 9 ] ], [ [ 13, 26, 27, 14 ] ], [ [ 5, 18, 17, 6 ] ], [ [ 11, 28, 29, 12 ] ], [ [ 9, 20, 19, 4 ] ], [ [ 6, 17, 16, 7 ] ], [ [ 1, 22, 25, 2 ] ], [ [ 3, 24, 23, 0 ] ], [ [ 2, 25, 24, 3 ] ], [ [ 0, 23, 22, 1 ] ], [ [ 4, 19, 18, 5 ] ] ] }, "roof_props": null, "wall_color": "sand", "wall_color_source": "heuristic", "type": "yes", "landmark": null, "footprint_source": "osm", "source_updated": null, "is_part": false, "parent": null, "hidden": false, "addr": "2901 W Marshall St Fl 1", "wikidata": null, "website": null, "zoning": "TOD-1", "lidar_p90": 7.76, "ground_z": 59.11 }, "geometry": { "type": "Polygon", "coordinates": [ [ [ 281760.14, 4160332.91 ], [ 281773.81, 4160318.39 ], [ 281755.59, 4160301.98 ], [ 281742.36, 4160316.65 ], [ 281760.14, 4160332.91 ] ] ] } },
{ "type": "Feature", "properties": { "id": "osm:way/252996641", "name": null, "height": 3.42, "min_height": 0.0, "levels": null, "height_source": "lidar", "roof_shape": "flat", "roof_height": 0.0, "roof_azimuth": null, "roof_source": "heuristic", "roof_color": "roof_flat", "roof_color_source": "ortho", "lod2_roof": null, "roof_props": null, "wall_color": "sand", "wall_color_source": "assessor", "type": "yes", "landmark": null, "footprint_source": "osm", "source_updated": null, "is_part": false, "parent": null, "hidden": false, "addr": "2939 W Clay St", "wikidata": null, "website": null, "zoning": "TOD-1", "lidar_p90": 4.66, "ground_z": 59.69 }, "geometry": { "type": "Polygon", "coordinates": [ [ [ 281746.84, 4160469.59 ], [ 281741.1, 4160475.57 ], [ 281767.6, 4160500.76 ], [ 281773.33, 4160494.78 ], [ 281746.84, 4160469.59 ] ] ] } },
{ "type": "Feature", "properties": { "id": "osm:way/252996618", "name": "Koontz Paint & Body Works Inc.", "height": 4.24, "min_height": 0.0, "levels": null, "height_source": "lidar", "roof_shape": "flat", "roof_height": 0.25, "roof_azimuth": null, "roof_source": "lod2", "roof_color": "roof_flat", "roof_color_source": "ortho", "lod2_roof": { "v": [ [ 281819.59, 4160310.32, 0.06 ], [ 281827.98, 4160317.81, 0.01 ], [ 281827.13, 4160318.63, 0.02 ], [ 281835.32, 4160333.54, 0.0 ], [ 281824.5, 4160345.52, 0.14 ], [ 281804.15, 4160327.03, 0.25 ] ], "f": [ [ [ 0, 1, 2, 3, 4, 5 ] ] ] }, "roof_props": null, "wall_color": "concrete", "wall_color_source": "assessor", "type": "yes", "landmark": null, "footprint_source": "osm", "source_updated": null, "is_part": false, "parent": null, "hidden": false, "addr": "1105 North Sheppard Street", "wikidata": null, "website": "https://koontzpaintandbody.com/", "zoning": "TOD-1", "lidar_p90": 4.33, "ground_z": 59.05 }, "geometry": { "type": "Polygon", "coordinates": [ [ [ 281803.72, 4160326.64 ], [ 281824.5, 4160345.52 ], [ 281835.32, 4160333.54 ], [ 281827.13, 4160318.63 ], [ 281827.98, 4160317.81 ], [ 281819.04, 4160309.83 ], [ 281803.72, 4160326.64 ] ] ] } },
{ "type": "Feature", "properties": { "id": "osm:way/252996636", "name": null, "height": 6.11, "min_height": 0.0, "levels": null, "height_source": "lidar", "roof_shape": "flat", "roof_height": 0.0, "roof_azimuth": null, "roof_source": "heuristic", "roof_color": "roof_flat", "roof_color_source": "ortho", "lod2_roof": null, "roof_props": null, "wall_color": "terracotta", "wall_color_source": "assessor", "type": "yes", "landmark": null, "footprint_source": "osm", "source_updated": null, "is_part": false, "parent": null, "hidden": false, "addr": "2916 West Marshall Street", "wikidata": null, "website": null, "zoning": "TOD-1", "lidar_p90": 6.48, "ground_z": 59.12 }, "geometry": { "type": "Polygon", "coordinates": [ [ [ 281756.35, 4160366.4 ], [ 281789.21, 4160396.75 ], [ 281801.86, 4160382.84 ], [ 281767.88, 4160352.19 ], [ 281755.04, 4160366.32 ], [ 281756.35, 4160366.4 ] ] ] } },
{ "type": "Feature", "properties": { "id": "osm:way/252996640", "name": null, "height": 4.34, "min_height": 0.0, "levels": null, "height_source": "lidar", "roof_shape": "flat", "roof_height": 0.03, "roof_azimuth": null, "roof_source": "lod2", "roof_color": "roof_flat", "roof_color_source": "ortho", "lod2_roof": { "v": [ [ 281817.14, 4160391.8, 0.03 ], [ 281832.47, 4160375.02, 0.01 ], [ 281838.73, 4160380.71, 0.0 ], [ 281823.42, 4160397.48, 0.02 ] ], "f": [ [ [ 0, 1, 2, 3 ] ] ] }, "roof_props": null, "wall_color": "steel", "wall_color_source": "assessor", "type": "yes", "landmark": null, "footprint_source": "osm", "source_updated": null, "is_part": false, "parent": null, "hidden": false, "addr": "1112 North Sheppard Street", "wikidata": null, "website": null, "zoning": "TOD-1", "lidar_p90": 4.81, "ground_z": 59.02 }, "geometry": { "type": "Polygon", "coordinates": [ [ [ 281823.42, 4160397.48 ], [ 281840.18, 4160379.12 ], [ 281832.63, 4160372.28 ], [ 281815.87, 4160390.64 ], [ 281823.42, 4160397.48 ] ] ] } },
{ "type": "Feature", "properties": { "id": "osm:way/1512584766", "name": null, "height": 22.39, "min_height": 0.0, "levels": null, "height_source": "lidar", "roof_shape": "flat", "roof_height": 0.0, "roof_azimuth": null, "roof_source": "heuristic", "roof_color": "roof_flat", "roof_color_source": "ortho", "lod2_roof": null, "roof_props": null, "wall_color": "brick", "wall_color_source": "heuristic", "type": "apartments", "landmark": null, "footprint_source": "osm", "source_updated": null, "is_part": false, "parent": null, "hidden": false, "addr": "2921 W Clay St", "wikidata": null, "website": null, "zoning": "TOD-1", "lidar_p90": 23.66, "ground_z": 59.18 }, "geometry": { "type": "Polygon", "coordinates": [ [ [ 281795.64, 4160469.01 ], [ 281793.75, 4160467.28 ], [ 281819.82, 4160438.83 ], [ 281822.01, 4160440.82 ], [ 281833.02, 4160428.81 ], [ 281798.95, 4160397.84 ], [ 281764.57, 4160435.33 ], [ 281771.53, 4160441.65 ], [ 281757.12, 4160457.37 ], [ 281783.95, 4160481.76 ], [ 281795.64, 4160469.01 ] ] ] } },
{ "type": "Feature", "properties": { "id": "osm:way/252996598", "name": null, "height": 7.32, "min_height": 0.0, "levels": null, "height_source": "lidar", "roof_shape": "flat", "roof_height": 10.05, "roof_azimuth": null, "roof_source": "lod2", "roof_color": "roof_flat", "roof_color_source": "ortho", "lod2_roof": { "v": [ [ 281849.04, 4160449.34, 0.34 ], [ 281861.56, 4160459.0, 0.17 ], [ 281861.24, 4160459.43, 0.17 ], [ 281870.31, 4160467.35, 0.04 ], [ 281869.91, 4160468.03, 0.04 ], [ 281872.72, 4160470.68, 0.0 ], [ 281843.88, 4160503.83, 0.0 ], [ 281814.89, 4160476.44, 0.42 ], [ 281844.83, 4160443.34, 0.42 ], [ 281846.17, 4160444.53, 0.4 ], [ 281849.39, 4160449.41, 0.34 ], [ 281853.02, 4160455.3, 0.27 ], [ 281850.69, 4160453.7, 0.3 ], [ 281850.27, 4160453.17, 0.3 ], [ 281847.91, 4160455.44, 0.31 ], [ 281848.76, 4160456.0, 0.3 ], [ 281850.3, 4160458.64, 0.27 ], [ 281850.69, 4160453.7, 1.81 ], [ 281853.02, 4160455.3, 1.79 ], [ 281850.3, 4160458.64, 1.78 ], [ 281848.76, 4160456.0, 1.8 ], [ 281847.91, 4160455.44, 1.81 ], [ 281850.27, 4160453.17, 1.82 ], [ 281861.56, 4160459.0, 9.99 ], [ 281849.04, 4160449.34, 10.05 ], [ 281849.39, 4160449.41, 10.05 ], [ 281846.17, 4160444.53, 9.99 ], [ 281876.12, 4160471.25, 9.94 ], [ 281874.83, 4160472.67, 10.02 ], [ 281869.91, 4160468.03, 10.02 ], [ 281870.31, 4160467.35, 9.99 ], [ 281861.24, 4160459.43, 10.01 ], [ 281874.83, 4160472.67, 0.0 ] ], "f": [ [ [ 0, 1, 2, 3, 4, 5, 6, 7, 8, 9, 10 ], [ 11, 12, 13, 14, 15, 16 ] ], [ [ 17, 18, 19, 20, 21, 22 ] ], [ [ 23, 24, 25, 26, 27, 28, 29, 30, 31 ] ], [ [ 30, 3, 2, 31 ] ], [ [ 29, 4, 3, 30 ] ], [ [ 28, 32, 5, 4, 29 ] ], [ [ 25, 10, 9, 26 ] ], [ [ 21, 14, 13, 22 ] ], [ [ 24, 0, 10, 25 ] ], [ [ 31, 2, 1, 23 ] ], [ [ 22, 13, 12, 17 ] ], [ [ 20, 15, 14, 21 ] ], [ [ 18, 11, 16, 19 ] ], [ [ 19, 16, 15, 20 ] ], [ [ 17, 12, 11, 18 ] ], [ [ 23, 1, 0, 24 ] ] ] }, "roof_props": null, "wall_color": "cream", "wall_color_source": "assessor", "type": "yes", "landmark": null, "footprint_source": "osm", "source_updated": null, "is_part": false, "parent": null, "hidden": false, "addr": "2906 West Clay Street", "wikidata": null, "website": null, "zoning": "TOD-1", "lidar_p90": 8.31, "ground_z": 59.04 }, "geometry": { "type": "Polygon", "coordinates": [ [ [ 281844.83, 4160443.34 ], [ 281814.89, 4160476.44 ], [ 281845.26, 4160505.13 ], [ 281876.12, 4160471.25 ], [ 281844.83, 4160443.34 ] ] ] } },
{ "type": "Feature", "properties": { "id": "osm:way/252996600", "name": null, "height": 4.53, "min_height": 0.0, "levels": null, "height_source": "lidar", "roof_shape": "flat", "roof_height": 2.64, "roof_azimuth": null, "roof_source": "lod2", "roof_color": "roof_flat", "roof_color_source": "ortho", "lod2_roof": { "v": [ [ 281904.4, 4160490.14, 1.96 ], [ 281907.18, 4160487.08, 1.97 ], [ 281913.52, 4160493.4, 2.64 ], [ 281907.17, 4160500.67, 2.61 ], [ 281900.49, 4160494.44, 1.93 ], [ 281900.49, 4160494.44, 0.44 ], [ 281886.43, 4160481.29, 0.35 ], [ 281884.1, 4160480.19, 0.32 ], [ 281888.68, 4160475.32, 0.45 ], [ 281904.4, 4160490.14, 0.56 ], [ 281902.16, 4160482.08, 2.18 ], [ 281899.56, 4160479.49, 1.97 ], [ 281901.01, 4160477.83, 1.7 ], [ 281907.64, 4160484.15, 2.23 ], [ 281905.44, 4160485.35, 2.46 ], [ 281903.41, 4160483.32, 2.29 ], [ 281903.54, 4160482.23, 2.15 ], [ 281905.44, 4160485.35, 0.0 ], [ 281903.41, 4160483.32, 0.0 ], [ 281904.4, 4160490.14, 0.0 ], [ 281907.18, 4160487.08, 0.0 ], [ 281899.56, 4160479.49, 0.0 ], [ 281901.01, 4160477.83, 0.0 ], [ 281888.68, 4160475.32, 0.0 ], [ 281902.16, 4160482.08, 0.0 ] ], "f": [ [ [ 0, 1, 2, 3, 4 ] ], [ [ 5, 6, 7, 8, 9 ] ], [ [ 10, 11, 12, 13, 14, 15, 16 ] ], [ [ 14, 17, 18, 15 ] ], [ [ 4, 5, 9, 0 ] ], [ [ 0, 9, 19, 20, 1 ] ], [ [ 11, 21, 22, 12 ] ], [ [ 8, 23, 19, 9 ] ], [ [ 10, 24, 21, 11 ] ] ] }, "roof_props": null, "wall_color": "brick", "wall_color_source": "assessor", "type": "yes", "landmark": null, "footprint_source": "osm", "source_updated": null, "is_part": false, "parent": null, "hidden": false, "addr": "2915 West Leigh Street", "wikidata": null, "website": null, "zoning": "TOD-1", "lidar_p90": 6.53, "ground_z": 59.14 }, "geometry": { "type": "Polygon", "coordinates": [ [ [ 281884.1, 4160480.19 ], [ 281886.43, 4160481.29 ], [ 281907.16, 4160500.68 ], [ 281914.18, 4160492.64 ], [ 281914.59, 4160490.77 ], [ 281893.26, 4160470.46 ], [ 281884.1, 4160480.19 ] ] ] } },
{ "type": "Feature", "properties": { "id": "osm:way/252996601", "name": null, "height": 4.51, "min_height": 0.0, "levels": null, "height_source": "lidar", "roof_shape": "flat", "roof_height": 2.28, "roof_azimuth": null, "roof_source": "lod2", "roof_color": "roof_flat", "roof_color_source": "ortho", "lod2_roof": { "v": [ [ 281898.52, 4160494.55, 1.49 ], [ 281897.11, 4160493.04, 1.51 ], [ 281897.7, 4160491.83, 1.56 ], [ 281899.71, 4160493.71, 1.54 ], [ 281898.29, 4160496.71, 0.43 ], [ 281884.51, 4160483.33, 0.31 ], [ 281886.43, 4160481.29, 0.0 ], [ 281897.7, 4160491.83, 0.06 ], [ 281897.11, 4160493.04, 0.2 ], [ 281898.52, 4160494.55, 0.23 ], [ 281899.71, 4160493.71, 0.07 ], [ 281900.27, 4160494.22, 0.07 ], [ 281896.17, 4160499.37, 1.75 ], [ 281898.29, 4160496.71, 1.73 ], [ 281900.27, 4160494.22, 1.7 ], [ 281907.17, 4160500.67, 2.26 ], [ 281902.66, 4160505.45, 2.28 ], [ 281898.29, 4160496.71, 0.0 ], [ 281884.51, 4160483.33, 0.0 ], [ 281896.17, 4160499.37, 0.0 ] ], "f": [ [ [ 0, 1, 2, 3 ] ], [ [ 4, 5, 6, 7, 8, 9, 10, 11 ] ], [ [ 12, 13, 14, 15, 16 ] ], [ [ 1, 8, 7, 2 ] ], [ [ 13, 4, 11, 14 ] ], [ [ 3, 10, 9, 0 ] ], [ [ 0, 9, 8, 1 ] ], [ [ 4, 17, 18, 5 ] ], [ [ 12, 19, 17, 4, 13 ] ] ] }, "roof_props": null, "wall_color": "sand", "wall_color_source": "assessor", "type": "yes", "landmark": null, "footprint_source": "osm", "source_updated": null, "is_part": false, "parent": null, "hidden": false, "addr": "2919 West Leigh Street", "wikidata": null, "website": null, "zoning": "TOD-1", "lidar_p90": 6.17, "ground_z": 59.51 }, "geometry": { "type": "Polygon", "coordinates": [ [ [ 281886.43, 4160481.29 ], [ 281881.93, 4160486.06 ], [ 281902.66, 4160505.45 ], [ 281907.16, 4160500.68 ], [ 281886.43, 4160481.29 ] ] ] } },
{ "type": "Feature", "properties": { "id": "osm:way/334124812", "name": "AAA Scott's Addition Car Care Insurance Travel Center", "height": 4.86, "min_height": 0.0, "levels": null, "height_source": "lidar", "roof_shape": "flat", "roof_height": 1.78, "roof_azimuth": null, "roof_source": "lod2", "roof_color": "roof_flat", "roof_color_source": "ortho", "lod2_roof": { "v": [ [ 281973.87, 4160264.49, 0.94 ], [ 281972.27, 4160265.68, 0.97 ], [ 281971.24, 4160264.44, 1.03 ], [ 281972.92, 4160263.42, 0.98 ], [ 281952.95, 4160279.89, 1.76 ], [ 281951.13, 4160282.94, 1.78 ], [ 281950.46, 4160281.54, 1.78 ], [ 281990.22, 4160257.21, 0.03 ], [ 281956.81, 4160283.6, 0.04 ], [ 281957.66, 4160284.68, 0.0 ], [ 281949.99, 4160290.75, 0.0 ], [ 281949.23, 4160289.79, 0.04 ], [ 281944.8, 4160293.29, 0.04 ], [ 281936.66, 4160283.09, 0.41 ], [ 281982.19, 4160247.12, 0.4 ], [ 281972.27, 4160265.68, 0.16 ], [ 281973.87, 4160264.49, 0.16 ], [ 281972.92, 4160263.42, 0.2 ], [ 281971.24, 4160264.44, 0.21 ], [ 281951.13, 4160282.94, 0.16 ], [ 281952.95, 4160279.89, 0.19 ], [ 281950.46, 4160281.54, 0.2 ] ], "f": [ [ [ 0, 1, 2, 3 ] ], [ [ 4, 5, 6 ] ], [ [ 7, 8, 9, 10, 11, 12, 13, 14 ], [ 15, 16, 17, 18 ], [ 19, 20, 21 ] ], [ [ 1, 15, 18, 2 ] ], [ [ 6, 21, 20, 4 ] ], [ [ 5, 19, 21, 6 ] ], [ [ 2, 18, 17, 3 ] ], [ [ 3, 17, 16, 0 ] ], [ [ 0, 16, 15, 1 ] ], [ [ 4, 20, 19, 5 ] ] ] }, "roof_props": null, "wall_color": "concrete", "wall_color_source": "heuristic", "type": "yes", "landmark": null, "footprint_source": "osm", "source_updated": null, "is_part": false, "parent": null, "hidden": false, "addr": "929 Myers Street", "wikidata": null, "website": "https://cluballiance.aaa.com/about/StoreDetails?id=MA9034", "zoning": "TOD-1", "lidar_p90": 5.24, "ground_z": 60.45 }, "geometry": { "type": "Polygon", "coordinates": [ [ [ 281944.8, 4160293.29 ], [ 281949.23, 4160289.79 ], [ 281949.99, 4160290.75 ], [ 281957.66, 4160284.68 ], [ 281956.81, 4160283.61 ], [ 281990.22, 4160257.21 ], [ 281982.19, 4160247.13 ], [ 281936.66, 4160283.09 ], [ 281944.8, 4160293.29 ] ] ] } },
{ "type": "Feature", "properties": { "id": "osm:way/252996616", "name": "En Su Boca", "height": 4.02, "min_height": 0.0, "levels": null, "height_source": "lidar", "roof_shape": "flat", "roof_height": 1.33, "roof_azimuth": null, "roof_source": "lod2", "roof_color": "roof_flat", "roof_color_source": "ortho", "lod2_roof": { "v": [ [ 281906.55, 4160266.77, 0.84 ], [ 281902.25, 4160273.6, 0.83 ], [ 281901.86, 4160272.81, 0.83 ], [ 281903.58, 4160267.2, 0.84 ], [ 281904.16, 4160267.12, 0.84 ], [ 281908.57, 4160265.27, 0.85 ], [ 281909.07, 4160266.4, 0.85 ], [ 281915.05, 4160281.53, 0.84 ], [ 281907.6, 4160284.64, 0.82 ], [ 281906.95, 4160283.31, 0.82 ], [ 281914.67, 4160279.92, 0.84 ], [ 281915.02, 4160279.76, 0.85 ], [ 281915.63, 4160281.14, 0.85 ], [ 281904.6, 4160273.46, 1.24 ], [ 281904.56, 4160273.3, 1.24 ], [ 281905.66, 4160272.42, 1.33 ], [ 281906.42, 4160273.46, 1.33 ], [ 281905.42, 4160274.33, 1.24 ], [ 281902.25, 4160273.6, 0.29 ], [ 281906.55, 4160266.77, 0.08 ], [ 281909.07, 4160266.4, 0.02 ], [ 281911.64, 4160272.17, 0.04 ], [ 281913.83, 4160277.1, 0.05 ], [ 281914.41, 4160278.39, 0.06 ], [ 281914.67, 4160279.92, 0.07 ], [ 281906.95, 4160283.31, 0.31 ], [ 281904.56, 4160273.3, 0.23 ], [ 281904.6, 4160273.46, 0.23 ], [ 281905.42, 4160274.33, 0.22 ], [ 281906.42, 4160273.46, 0.18 ], [ 281905.66, 4160272.42, 0.19 ], [ 281915.02, 4160279.76, 0.0 ], [ 281915.63, 4160281.14, 0.0 ], [ 281913.83, 4160277.1, 0.0 ], [ 281914.41, 4160278.39, 0.0 ], [ 281911.64, 4160272.17, 0.0 ], [ 281914.67, 4160279.92, 0.0 ], [ 281915.05, 4160281.53, 0.0 ], [ 281907.6, 4160284.64, 0.0 ] ], "f": [ [ [ 0, 1, 2, 3, 4, 5, 6 ] ], [ [ 7, 8, 9, 10, 11, 12 ] ], [ [ 13, 14, 15, 16, 17 ] ], [ [ 18, 19, 20, 21, 22, 23, 24, 25 ], [ 26, 27, 28, 29, 30 ] ], [ [ 11, 31, 32, 12 ] ], [ [ 6, 20, 19, 0 ] ], [ [ 22, 33, 34, 23 ] ], [ [ 21, 35, 33, 22 ] ], [ [ 16, 29, 28, 17 ] ], [ [ 9, 25, 24, 10 ] ], [ [ 15, 30, 29, 16 ] ], [ [ 23, 34, 36, 24 ] ], [ [ 10, 24, 36, 31, 11 ] ], [ [ 12, 32, 37, 7 ] ], [ [ 7, 37, 38, 8 ] ], [ [ 17, 28, 27, 13 ] ], [ [ 14, 26, 30, 15 ] ], [ [ 13, 27, 26, 14 ] ], [ [ 0, 19, 18, 1 ] ] ] }, "roof_props": null, "wall_color": "brick", "wall_color_source": "assessor", "type": "yes", "landmark": null, "footprint_source": "osm", "source_updated": null, "is_part": false, "parent": null, "hidden": false, "addr": "1001 North Arthur Ashe Boulevard", "wikidata": null, "website": "https://www.ensuboca.com/", "zoning": "TOD-1", "lidar_p90": 5.04, "ground_z": 59.78 }, "geometry": { "type": "Polygon", "coordinates": [ [ [ 281904.38, 4160264.6 ], [ 281901.86, 4160272.81 ], [ 281909.57, 4160288.72 ], [ 281921.11, 4160283.47 ], [ 281918.12, 4160277.57 ], [ 281915.91, 4160278.37 ], [ 281908.17, 4160262.62 ], [ 281904.38, 4160264.6 ] ] ] } },
{ "type": "Feature", "properties": { "id": "osm:way/466009775", "name": null, "height": 3.2, "min_height": 0.0, "levels": 1.0, "height_source": "osm_levels", "roof_shape": "flat", "roof_height": 1.38, "roof_azimuth": null, "roof_source": "lod2", "roof_color": "roof_flat", "roof_color_source": "ortho", "lod2_roof": { "v": [ [ 281944.61, 4160338.87, 1.35 ], [ 281945.52, 4160338.44, 1.35 ], [ 281949.09, 4160345.65, 1.23 ], [ 281937.55, 4160351.32, 1.22 ], [ 281933.93, 4160344.01, 1.34 ], [ 281935.98, 4160335.34, 1.38 ], [ 281935.84, 4160336.55, 1.38 ], [ 281934.58, 4160337.24, 1.32 ], [ 281933.73, 4160336.07, 1.27 ], [ 281939.37, 4160327.18, 0.92 ], [ 281939.83, 4160326.96, 0.93 ], [ 281945.52, 4160338.44, 0.93 ], [ 281944.61, 4160338.87, 0.93 ], [ 281928.47, 4160332.98, 0.09 ], [ 281928.82, 4160332.81, 0.09 ], [ 281928.66, 4160332.2, 0.1 ], [ 281929.7, 4160331.73, 0.1 ], [ 281939.37, 4160327.18, 0.11 ], [ 281944.61, 4160338.87, 0.01 ], [ 281933.93, 4160344.01, 0.0 ], [ 281935.84, 4160336.55, 0.05 ], [ 281935.98, 4160335.34, 0.06 ], [ 281933.73, 4160336.07, 0.06 ], [ 281934.58, 4160337.24, 0.05 ], [ 281928.82, 4160332.81, 0.91 ], [ 281928.47, 4160332.98, 0.91 ], [ 281927.78, 4160331.58, 0.91 ], [ 281928.06, 4160331.45, 0.91 ], [ 281928.47, 4160332.29, 0.91 ], [ 281928.66, 4160332.2, 0.91 ] ], "f": [ [ [ 0, 1, 2, 3, 4 ] ], [ [ 5, 6, 7, 8 ] ], [ [ 9, 10, 11, 12 ] ], [ [ 13, 14, 15, 16, 17, 18, 19 ], [ 20, 21, 22, 23 ] ], [ [ 24, 25, 26, 27, 28, 29 ] ], [ [ 4, 19, 18, 12, 0 ] ], [ [ 8, 22, 21, 5 ] ], [ [ 0, 12, 11, 1 ] ], [ [ 6, 20, 23, 7 ] ], [ [ 7, 23, 22, 8 ] ], [ [ 5, 21, 20, 6 ] ], [ [ 12, 18, 17, 9 ] ], [ [ 29, 15, 14, 24 ] ], [ [ 24, 14, 13, 25 ] ] ] }, "roof_props": null, "wall_color": "concrete", "wall_color_source": "assessor", "type": "retail", "landmark": null, "footprint_source": "osm", "source_updated": null, "is_part": false, "parent": null, "hidden": false, "addr": "1017 N Arthur Ashe Blvd", "wikidata": null, "website": null, "zoning": "TOD-1", "lidar_p90": 6.11, "ground_z": 59.13 }, "geometry": { "type": "Polygon", "coordinates": [ [ [ 281949.09, 4160345.65 ], [ 281939.32, 4160325.92 ], [ 281927.78, 4160331.59 ], [ 281937.54, 4160351.32 ], [ 281949.09, 4160345.65 ] ] ] } },
{ "type": "Feature", "properties": { "id": "osm:way/252995138", "name": "DeVoss Auto Service", "height": 6.4, "min_height": 0.0, "levels": 2.0, "height_source": "osm_levels", "roof_shape": "flat", "roof_height": 0.9, "roof_azimuth": null, "roof_source": "lod2", "roof_color": "roof_flat", "roof_color_source": "ortho", "lod2_roof": { "v": [ [ 281973.47, 4160381.11, 0.71 ], [ 281977.81, 4160390.08, 0.69 ], [ 281962.91, 4160397.2, 0.88 ], [ 281957.95, 4160386.89, 0.9 ], [ 281972.83, 4160379.78, 0.71 ], [ 281973.47, 4160381.11, 0.0 ], [ 281977.81, 4160390.08, 0.0 ] ], "f": [ [ [ 0, 1, 2, 3, 4 ] ], [ [ 0, 5, 6, 1 ] ] ] }, "roof_props": null, "wall_color": "brick_dark", "wall_color_source": "assessor", "type": "yes", "landmark": null, "footprint_source": "osm", "source_updated": null, "is_part": false, "parent": null, "hidden": false, "addr": "1103 North Arthur Ashe Boulevard", "wikidata": null, "website": null, "zoning": "TOD-1", "lidar_p90": 7.03, "ground_z": 58.91 }, "geometry": { "type": "Polygon", "coordinates": [ [ [ 281985.25, 4160386.53 ], [ 281980.28, 4160376.22 ], [ 281957.95, 4160386.89 ], [ 281962.91, 4160397.2 ], [ 281985.25, 4160386.53 ] ] ] } },
{ "type": "Feature", "properties": { "id": "osm:way/252995156", "name": null, "height": 3.86, "min_height": 0.0, "levels": null, "height_source": "lidar", "roof_shape": "flat", "roof_height": 0.55, "roof_azimuth": null, "roof_source": "lod2", "roof_color": "roof_flat", "roof_color_source": "ortho", "lod2_roof": { "v": [ [ 281923.48, 4160426.77, 0.52 ], [ 281921.21, 4160421.97, 0.0 ], [ 281931.11, 4160417.06, 0.0 ], [ 281933.44, 4160422.09, 0.55 ] ], "f": [ [ [ 0, 1, 2, 3 ] ] ] }, "roof_props": null, "wall_color": "brick", "wall_color_source": "heuristic", "type": "yes", "landmark": null, "footprint_source": "osm", "source_updated": null, "is_part": false, "parent": null, "hidden": false, "addr": "1114 N Arthur Ashe Blvd", "wikidata": null, "website": null, "zoning": "TOD-1", "lidar_p90": 3.95, "ground_z": 58.77 }, "geometry": { "type": "Polygon", "coordinates": [ [ [ 281923.48, 4160426.77 ], [ 281933.44, 4160422.1 ], [ 281929.6, 4160413.8 ], [ 281919.65, 4160418.66 ], [ 281923.48, 4160426.77 ] ] ] } },
{ "type": "Feature", "properties": { "id": "osm:way/698373104", "name": "River City Roll", "height": 3.2, "min_height": 0.0, "levels": 1.0, "height_source": "osm_levels", "roof_shape": "flat", "roof_height": 2.98, "roof_azimuth": null, "roof_source": "lod2", "roof_color": "roof_flat", "roof_color_source": "ortho", "lod2_roof": { "v": [ [ 282008.43, 4160334.95, 2.97 ], [ 282006.97, 4160336.77, 2.97 ], [ 282006.28, 4160336.18, 2.98 ], [ 282005.42, 4160336.73, 2.98 ], [ 282005.37, 4160335.41, 2.98 ], [ 282005.25, 4160335.3, 2.98 ], [ 282006.69, 4160333.76, 2.97 ], [ 282007.16, 4160334.12, 2.97 ], [ 282007.61, 4160333.83, 2.97 ], [ 281997.51, 4160344.23, 2.74 ], [ 281997.52, 4160344.33, 2.74 ], [ 281999.62, 4160342.56, 2.76 ], [ 282000.89, 4160343.43, 2.77 ], [ 281997.99, 4160346.71, 2.73 ], [ 281997.64, 4160344.92, 2.74 ], [ 281997.29, 4160344.54, 2.73 ], [ 281972.82, 4160309.78, 2.09 ], [ 281972.51, 4160309.2, 2.08 ], [ 281971.87, 4160309.34, 2.08 ], [ 281972.12, 4160308.47, 2.08 ], [ 281971.8, 4160307.88, 2.07 ], [ 281973.61, 4160306.6, 2.06 ], [ 281974.02, 4160307.14, 2.07 ], [ 281974.27, 4160307.03, 2.06 ], [ 281974.25, 4160307.44, 2.07 ], [ 281974.88, 4160308.27, 2.07 ], [ 281974.17, 4160308.81, 2.08 ], [ 281974.08, 4160308.86, 2.08 ], [ 281994.97, 4160296.43, 0.3 ], [ 282025.35, 4160334.36, 1.31 ], [ 281997.46, 4160356.52, 1.3 ], [ 281958.42, 4160307.8, 0.0 ], [ 281990.72, 4160282.14, 0.01 ], [ 281999.37, 4160292.94, 0.3 ], [ 281997.52, 4160344.33, 1.11 ], [ 281997.51, 4160344.23, 1.1 ], [ 281997.29, 4160344.54, 1.11 ], [ 281997.64, 4160344.92, 1.12 ], [ 281997.99, 4160346.71, 1.15 ], [ 282000.89, 4160343.43, 1.13 ], [ 281999.62, 4160342.56, 1.1 ], [ 281974.27, 4160307.03, 0.2 ], [ 281974.02, 4160307.14, 0.2 ], [ 281973.61, 4160306.6, 0.18 ], [ 281971.8, 4160307.88, 0.18 ], [ 281972.12, 4160308.47, 0.19 ], [ 281971.87, 4160309.34, 0.2 ], [ 281972.51, 4160309.2, 0.21 ], [ 281972.82, 4160309.78, 0.22 ], [ 281974.08, 4160308.86, 0.22 ], [ 281974.17, 4160308.81, 0.22 ], [ 281974.88, 4160308.27, 0.22 ], [ 281974.25, 4160307.44, 0.2 ], [ 282008.43, 4160334.95, 1.1 ], [ 282007.61, 4160333.83, 1.07 ], [ 282007.16, 4160334.12, 1.07 ], [ 282006.69, 4160333.76, 1.05 ], [ 282005.25, 4160335.3, 1.06 ], [ 282005.37, 4160335.41, 1.06 ], [ 282005.42, 4160336.73, 1.09 ], [ 282006.28, 4160336.18, 1.09 ], [ 282006.97, 4160336.77, 1.11 ] ], "f": [ [ [ 0, 1, 2, 3, 4, 5, 6, 7, 8 ] ], [ [ 9, 10, 11, 12, 13, 14, 15 ] ], [ [ 16, 17, 18, 19, 20, 21, 22, 23, 24, 25, 26, 27 ] ], [ [ 28, 29, 30, 31, 32, 33 ], [ 34, 35, 36, 37, 38, 39, 40 ], [ 41, 42, 43, 44, 45, 46, 47, 48, 49, 50, 51, 52 ], [ 53, 54, 55, 56, 57, 58, 59, 60, 61 ] ], [ [ 12, 39, 38, 13 ] ], [ [ 4, 58, 57, 5 ] ], [ [ 5, 57, 56, 6 ] ], [ [ 3, 59, 58, 4 ] ], [ [ 22, 42, 41, 23 ] ], [ [ 23, 41, 52, 24 ] ], [ [ 24, 52, 51, 25 ] ], [ [ 2, 60, 59, 3 ] ], [ [ 20, 44, 43, 21 ] ], [ [ 18, 46, 45, 19 ] ], [ [ 19, 45, 44, 20 ] ], [ [ 21, 43, 42, 22 ] ], [ [ 15, 36, 35, 9 ] ], [ [ 26, 50, 49, 27 ] ], [ [ 14, 37, 36, 15 ] ], [ [ 13, 38, 37, 14 ] ], [ [ 10, 34, 40, 11 ] ], [ [ 11, 40, 39, 12 ] ], [ [ 1, 61, 60, 2 ] ], [ [ 8, 54, 53, 0 ] ], [ [ 7, 55, 54, 8 ] ], [ [ 6, 56, 55, 7 ] ], [ [ 0, 53, 61, 1 ] ], [ [ 9, 35, 34, 10 ] ], [ [ 27, 49, 48, 16 ] ], [ [ 25, 51, 50, 26 ] ], [ [ 17, 47, 46, 18 ] ], [ [ 16, 48, 47, 17 ] ] ] }, "roof_props": [ { "x": 282006.73, "y": 4160335.37, "w": 4.31, "d": 2.82, "h": 2.47, "a": -0.7854, "b": 2.97 } ], "wall_color": "concrete", "wall_color_source": "heuristic", "type": "yes", "landmark": null, "footprint_source": "osm", "source_updated": null, "is_part": false, "parent": null, "hidden": false, "addr": "939 Myers Street", "wikidata": null, "website": "https://www.rivercityroll.com/", "zoning": "TOD-1", "lidar_p90": 6.6, "ground_z": 59.47 }, "geometry": { "type": "Polygon", "coordinates": [ [ [ 281997.46, 4160356.52 ], [ 282025.35, 4160334.36 ], [ 281994.96, 4160296.43 ], [ 281999.37, 4160292.94 ], [ 281990.72, 4160282.14 ], [ 281958.42, 4160307.8 ], [ 281997.46, 4160356.52 ] ] ] } },
{ "type": "Feature", "properties": { "id": "osm:way/252995136", "name": "Westwood Athletics", "height": 3.2, "min_height": 0.0, "levels": 1.0, "height_source": "osm_levels", "roof_shape": "flat", "roof_height": 0.14, "roof_azimuth": null, "roof_source": "lod2", "roof_color": "roof_flat", "roof_color_source": "ortho", "lod2_roof": { "v": [ [ 281971.76, 4160396.46, 0.14 ], [ 282000.87, 4160382.5, 0.04 ], [ 282006.23, 4160393.57, 0.0 ], [ 281977.1, 4160407.53, 0.1 ] ], "f": [ [ [ 0, 1, 2, 3 ] ] ] }, "roof_props": null, "wall_color": "brick_dark", "wall_color_source": "assessor", "type": "yes", "landmark": null, "footprint_source": "osm", "source_updated": null, "is_part": false, "parent": null, "hidden": false, "addr": "1105 North Arthur Ashe Boulevard", "wikidata": null, "website": "https://westwoodathletics.co/", "zoning": "TOD-1", "lidar_p90": 4.63, "ground_z": 58.85 }, "geometry": { "type": "Polygon", "coordinates": [ [ [ 282000.87, 4160382.5 ], [ 281971.76, 4160396.46 ], [ 281977.1, 4160407.53 ], [ 282006.22, 4160393.58 ], [ 282000.87, 4160382.5 ] ] ] } },
{ "type": "Feature", "properties": { "id": "osm:way/252995154", "name": null, "height": 3.77, "min_height": 0.0, "levels": null, "height_source": "lidar", "roof_shape": "flat", "roof_height": 0.0, "roof_azimuth": null, "roof_source": "lidar", "roof_color": "roof_flat", "roof_color_source": "ortho", "lod2_roof": null, "roof_props": null, "wall_color": "cream", "wall_color_source": "heuristic", "type": "yes", "landmark": null, "footprint_source": "osm", "source_updated": null, "is_part": false, "parent": null, "hidden": false, "addr": "1100 N Arthur Ashe Blvd", "wikidata": null, "website": null, "zoning": "TOD-1", "lidar_p90": 3.87, "ground_z": 58.9 }, "geometry": { "type": "Polygon", "coordinates": [ [ [ 281912.94, 4160431.77 ], [ 281923.48, 4160426.77 ], [ 281919.65, 4160418.66 ], [ 281909.02, 4160423.64 ], [ 281912.94, 4160431.77 ] ] ] } },
{ "type": "Feature", "properties": { "id": "osm:way/252995150", "name": "Vogue Flower Market", "height": 4.75, "min_height": 0.0, "levels": null, "height_source": "lidar", "roof_shape": "flat", "roof_height": 1.8, "roof_azimuth": null, "roof_source": "lod2", "roof_color": "roof_flat", "roof_color_source": "ortho", "lod2_roof": { "v": [ [ 281926.49, 4160439.8, 0.83 ], [ 281922.59, 4160442.05, 1.52 ], [ 281921.84, 4160440.81, 1.6 ], [ 281925.99, 4160438.85, 0.87 ], [ 281923.05, 4160427.02, 0.45 ], [ 281936.02, 4160454.27, 0.53 ], [ 281914.8, 4160464.66, 0.0 ], [ 281904.62, 4160435.76, 0.0 ], [ 281922.59, 4160442.05, 0.33 ], [ 281926.49, 4160439.8, 0.43 ], [ 281925.99, 4160438.85, 0.43 ], [ 281921.84, 4160440.81, 0.33 ], [ 281923.05, 4160427.02, 1.51 ], [ 281933.44, 4160422.09, 1.77 ], [ 281946.8, 4160448.99, 1.8 ], [ 281936.02, 4160454.27, 1.52 ] ], "f": [ [ [ 0, 1, 2, 3 ] ], [ [ 4, 5, 6, 7 ], [ 8, 9, 10, 11 ] ], [ [ 12, 13, 14, 15 ] ], [ [ 2, 11, 10, 3 ] ], [ [ 1, 8, 11, 2 ] ], [ [ 3, 10, 9, 0 ] ], [ [ 0, 9, 8, 1 ] ], [ [ 15, 5, 4, 12 ] ] ] }, "roof_props": null, "wall_color": "terracotta", "wall_color_source": "heuristic", "type": "yes", "landmark": null, "footprint_source": "osm", "source_updated": null, "is_part": false, "parent": null, "hidden": false, "addr": "1114 North Arthur Ashe Boulevard", "wikidata": null, "website": "https://www.vogueflowers.com/", "zoning": "TOD-1", "lidar_p90": 6.17, "ground_z": 58.82 }, "geometry": { "type": "Polygon", "coordinates": [ [ [ 281946.8, 4160449.0 ], [ 281933.44, 4160422.1 ], [ 281897.25, 4160439.26 ], [ 281910.38, 4160466.82 ], [ 281946.8, 4160449.0 ] ] ] } },
{ "type": "Feature", "properties": { "id": "osm:way/252995147", "name": null, "height": 5.06, "min_height": 0.0, "levels": null, "height_source": "lidar", "roof_shape": "flat", "roof_height": 0.0, "roof_azimuth": null, "roof_source": "heuristic", "roof_color": "roof_flat", "roof_color_source": "ortho", "lod2_roof": null, "roof_props": null, "wall_color": "brick", "wall_color_source": "assessor", "type": "yes", "landmark": null, "footprint_source": "osm", "source_updated": null, "is_part": false, "parent": null, "hidden": false, "addr": "1122 N Arthur Ashe Blvd", "wikidata": null, "website": null, "zoning": "TOD-1", "lidar_p90": 6.55, "ground_z": 58.88 }, "geometry": { "type": "Polygon", "coordinates": [ [ [ 281954.71, 4160466.06 ], [ 281946.8, 4160449.0 ], [ 281927.13, 4160458.62 ], [ 281935.1, 4160475.43 ], [ 281954.71, 4160466.06 ] ] ] } },
{ "type": "Feature", "properties": { "id": "osm:way/252995149", "name": null, "height": 3.79, "min_height": 0.0, "levels": null, "height_source": "lidar", "roof_shape": "flat", "roof_height": 1.78, "roof_azimuth": null, "roof_source": "lod2", "roof_color": "roof_flat", "roof_color_source": "ortho", "lod2_roof": { "v": [ [ 281927.67, 4160459.71, 0.19 ], [ 281930.8, 4160466.14, 0.04 ], [ 281913.84, 4160473.94, 0.0 ], [ 281910.79, 4160467.65, 0.15 ], [ 281927.13, 4160458.62, 1.78 ], [ 281910.39, 4160466.82, 1.35 ] ], "f": [ [ [ 0, 1, 2, 3 ] ], [ [ 4, 0, 3, 5 ] ] ] }, "roof_props": null, "wall_color": "cream", "wall_color_source": "heuristic", "type": "yes", "landmark": null, "footprint_source": "osm", "source_updated": null, "is_part": false, "parent": null, "hidden": false, "addr": null, "wikidata": null, "website": null, "zoning": "TOD-1", "lidar_p90": 4.3, "ground_z": 59.01 }, "geometry": { "type": "Polygon", "coordinates": [ [ [ 281927.13, 4160458.62 ], [ 281910.38, 4160466.82 ], [ 281913.84, 4160473.94 ], [ 281930.8, 4160466.14 ], [ 281927.13, 4160458.62 ] ] ] } },
{ "type": "Feature", "properties": { "id": "osm:way/252995145", "name": "Sheppard Street Antiques", "height": 4.77, "min_height": 0.0, "levels": null, "height_source": "lidar", "roof_shape": "flat", "roof_height": 0.0, "roof_azimuth": null, "roof_source": "lidar", "roof_color": "roof_flat", "roof_color_source": "ortho", "lod2_roof": null, "roof_props": null, "wall_color": "terracotta", "wall_color_source": "assessor", "type": "yes", "landmark": null, "footprint_source": "osm", "source_updated": null, "is_part": false, "parent": null, "hidden": false, "addr": "1126 North Arthur Ashe Boulevard", "wikidata": null, "website": "https://sheppardstreetantiques.com/", "zoning": "TOD-1", "lidar_p90": 5.24, "ground_z": 58.78 }, "geometry": { "type": "Polygon", "coordinates": [ [ [ 281957.2, 4160471.23 ], [ 281954.71, 4160466.06 ], [ 281935.1, 4160475.43 ], [ 281937.58, 4160480.61 ], [ 281957.2, 4160471.23 ] ] ] } },
{ "type": "Feature", "properties": { "id": "osm:way/252995143", "name": "River City Tattoo Company", "height": 3.61, "min_height": 0.0, "levels": null, "height_source": "lidar", "roof_shape": "flat", "roof_height": 0.03, "roof_azimuth": null, "roof_source": "lod2", "roof_color": "roof_flat", "roof_color_source": "ortho", "lod2_roof": { "v": [ [ 281956.38, 4160471.62, 0.01 ], [ 281956.74, 4160472.19, 0.01 ], [ 281957.54, 4160471.81, 0.01 ], [ 281960.8, 4160477.34, 0.03 ], [ 281959.28, 4160481.56, 0.03 ], [ 281924.71, 4160497.1, 0.02 ], [ 281920.75, 4160488.61, 0.0 ] ], "f": [ [ [ 0, 1, 2, 3, 4, 5, 6 ] ] ] }, "roof_props": null, "wall_color": "brick", "wall_color_source": "assessor", "type": "yes", "landmark": null, "footprint_source": "osm", "source_updated": null, "is_part": false, "parent": null, "hidden": false, "addr": "1128 North Arthur Ashe Boulevard", "wikidata": null, "website": "https://www.rivercitytattoo.com/boulevard", "zoning": "TOD-1", "lidar_p90": 3.73, "ground_z": 58.84 }, "geometry": { "type": "Polygon", "coordinates": [ [ [ 281920.75, 4160488.61 ], [ 281924.71, 4160497.1 ], [ 281959.27, 4160481.56 ], [ 281960.8, 4160477.34 ], [ 281957.2, 4160471.23 ], [ 281920.75, 4160488.61 ] ] ] } }
]
}
