{
"type": "FeatureCollection",
"name": "crossings",
"crs": { "type": "name", "properties": { "name": "urn:ogc:def:crs:EPSG::32618" } },
"xy_coordinate_resolution": 0.01,
"features": [
{ "type": "Feature", "properties": { "id": "osm:node/11585371739", "crossing": "unmarked", "crossing_markings": "no", "road_id": "osm:way/863763705", "road_width": 7.0, "road_dx": 0.63062, "road_dy": 0.776092, "road_x": 286133.51, "road_y": 4156261.92, "crossing_island": false }, "geometry": { "type": "Point", "coordinates": [ 286133.51, 4156261.92 ] } },
{ "type": "Feature", "properties": { "id": "osm:node/11585371731", "crossing": "unmarked", "crossing_markings": "no", "road_id": null, "road_width": null, "road_dx": null, "road_dy": null, "road_x": null, "road_y": null, "crossing_island": false }, "geometry": { "type": "Point", "coordinates": [ 286149.43, 4156270.29 ] } },
{ "type": "Feature", "properties": { "id": "osm:node/12042924338", "crossing": "unmarked", "crossing_markings": "no", "road_id": null, "road_width": null, "road_dx": null, "road_dy": null, "road_x": null, "road_y": null, "crossing_island": false }, "geometry": { "type": "Point", "coordinates": [ 286020.9, 4156296.82 ] } },
{ "type": "Feature", "properties": { "id": "osm:node/11585371726", "crossing": "unmarked", "crossing_markings": "no", "road_id": null, "road_width": null, "road_dx": null, "road_dy": null, "road_x": null, "road_y": null, "crossing_island": false }, "geometry": { "type": "Point", "coordinates": [ 286089.77, 4156296.82 ] } },
{ "type": "Feature", "properties": { "id": "osm:node/12042926208", "crossing": "traffic_signals", "crossing_markings": "zebra", "road_id": "osm:way/6034575", "road_width": 7.0, "road_dx": -0.615818, "road_dy": -0.787889, "road_x": 286043.38, "road_y": 4156311.25, "crossing_island": false }, "geometry": { "type": "Point", "coordinates": [ 286043.38, 4156311.25 ] } },
{ "type": "Feature", "properties": { "id": "osm:node/12042926209", "crossing": "traffic_signals", "crossing_markings": null, "road_id": "osm:way/1367637556", "road_width": 13.2, "road_dx": -0.769972, "road_dy": 0.638077, "road_x": 286056.22, "road_y": 4156312.17, "crossing_island": false }, "geometry": { "type": "Point", "coordinates": [ 286056.22, 4156312.17 ] } },
{ "type": "Feature", "properties": { "id": "osm:node/12042924335", "crossing": "traffic_signals", "crossing_markings": null, "road_id": "osm:way/692873477", "road_width": 13.2, "road_dx": -0.791433, "road_dy": 0.611256, "road_x": 286042.66, "road_y": 4156323.08, "crossing_island": false }, "geometry": { "type": "Point", "coordinates": [ 286042.66, 4156323.08 ] } },
{ "type": "Feature", "properties": { "id": "osm:node/12042924321", "crossing": "traffic_signals", "crossing_markings": "zebra", "road_id": "osm:way/692873474", "road_width": 9.5, "road_dx": -0.616169, "road_dy": -0.787614, "road_x": 286054.02, "road_y": 4156324.86, "crossing_island": false }, "geometry": { "type": "Point", "coordinates": [ 286054.02, 4156324.86 ] } },
{ "type": "Feature", "properties": { "id": "osm:node/11585351325", "crossing": "unmarked", "crossing_markings": "no", "road_id": null, "road_width": null, "road_dx": null, "road_dy": null, "road_x": null, "road_y": null, "crossing_island": false }, "geometry": { "type": "Point", "coordinates": [ 286068.7, 4156329.8 ] } },
{ "type": "Feature", "properties": { "id": "osm:node/12042924314", "crossing": "unmarked", "crossing_markings": "no", "road_id": null, "road_width": null, "road_dx": null, "road_dy": null, "road_x": null, "road_y": null, "crossing_island": false }, "geometry": { "type": "Point", "coordinates": [ 286064.64, 4156351.4 ] } },
{ "type": "Feature", "properties": { "id": "osm:node/12042924320", "crossing": "unmarked", "crossing_markings": "no", "road_id": null, "road_width": null, "road_dx": null, "road_dy": null, "road_x": null, "road_y": null, "crossing_island": false }, "geometry": { "type": "Point", "coordinates": [ 286072.93, 4156361.76 ] } },
{ "type": "Feature", "properties": { "id": "osm:node/12042924319", "crossing": "unmarked", "crossing_markings": "no", "road_id": null, "road_width": null, "road_dx": null, "road_dy": null, "road_x": null, "road_y": null, "crossing_island": false }, "geometry": { "type": "Point", "coordinates": [ 286083.92, 4156375.04 ] } },
{ "type": "Feature", "properties": { "id": "osm:node/11585371721", "crossing": "unmarked", "crossing_markings": "no", "road_id": "osm:way/266956503", "road_width": 7.0, "road_dx": 0.774628, "road_dy": -0.632417, "road_x": 286208.47, "road_y": 4156345.34, "crossing_island": false }, "geometry": { "type": "Point", "coordinates": [ 286208.47, 4156345.34 ] } },
{ "type": "Feature", "properties": { "id": "osm:node/11585371723", "crossing": "unmarked", "crossing_markings": "no", "road_id": "osm:way/266956503", "road_width": 7.0, "road_dx": 0.782921, "road_dy": -0.622121, "road_x": 286196.57, "road_y": 4156354.93, "crossing_island": false }, "geometry": { "type": "Point", "coordinates": [ 286196.57, 4156354.93 ] } },
{ "type": "Feature", "properties": { "id": "osm:node/11585351303", "crossing": "unmarked", "crossing_markings": "no", "road_id": "osm:way/692891974", "road_width": 7.0, "road_dx": 0.630421, "road_dy": 0.776253, "road_x": 286206.36, "road_y": 4156355.89, "crossing_island": false }, "geometry": { "type": "Point", "coordinates": [ 286206.36, 4156355.89 ] } },
{ "type": "Feature", "properties": { "id": "osm:node/11585351288", "crossing": "unmarked", "crossing_markings": "no", "road_id": null, "road_width": null, "road_dx": null, "road_dy": null, "road_x": null, "road_y": null, "crossing_island": false }, "geometry": { "type": "Point", "coordinates": [ 286244.0, 4156389.78 ] } },
{ "type": "Feature", "properties": { "id": "osm:node/11585333230", "crossing": "unmarked", "crossing_markings": "no", "road_id": null, "road_width": null, "road_dx": null, "road_dy": null, "road_x": null, "road_y": null, "crossing_island": false }, "geometry": { "type": "Point", "coordinates": [ 286233.52, 4156401.3 ] } },
{ "type": "Feature", "properties": { "id": "osm:node/11585351307", "crossing": "unmarked", "crossing_markings": "no", "road_id": "osm:way/692873474", "road_width": 9.5, "road_dx": -0.628727, "road_dy": -0.777626, "road_x": 286117.62, "road_y": 4156406.61, "crossing_island": false }, "geometry": { "type": "Point", "coordinates": [ 286117.62, 4156406.61 ] } },
{ "type": "Feature", "properties": { "id": "osm:node/11585351308", "crossing": "unmarked", "crossing_markings": "no", "road_id": "osm:way/266956503", "road_width": 7.0, "road_dx": 0.78271, "road_dy": -0.622386, "road_x": 286130.49, "road_y": 4156407.45, "crossing_island": false }, "geometry": { "type": "Point", "coordinates": [ 286130.49, 4156407.45 ] } },
{ "type": "Feature", "properties": { "id": "osm:node/12042924352", "crossing": "unmarked", "crossing_markings": "no", "road_id": null, "road_width": null, "road_dx": null, "road_dy": null, "road_x": null, "road_y": null, "crossing_island": false }, "geometry": { "type": "Point", "coordinates": [ 286007.35, 4156416.69 ] } },
{ "type": "Feature", "properties": { "id": "osm:node/11585351306", "crossing": "unmarked", "crossing_markings": "no", "road_id": "osm:way/692873475", "road_width": 7.0, "road_dx": 0.780016, "road_dy": -0.62576, "road_x": 286117.63, "road_y": 4156417.72, "crossing_island": false }, "geometry": { "type": "Point", "coordinates": [ 286117.63, 4156417.72 ] } },
{ "type": "Feature", "properties": { "id": "osm:node/11585351305", "crossing": "unmarked", "crossing_markings": "no", "road_id": "osm:way/6039408", "road_width": 9.5, "road_dx": -0.628907, "road_dy": -0.777481, "road_x": 286128.1, "road_y": 4156419.57, "crossing_island": false }, "geometry": { "type": "Point", "coordinates": [ 286128.1, 4156419.57 ] } },
{ "type": "Feature", "properties": { "id": "osm:node/12042924351", "crossing": "unmarked", "crossing_markings": "no", "road_id": null, "road_width": null, "road_dx": null, "road_dy": null, "road_x": null, "road_y": null, "crossing_island": false }, "geometry": { "type": "Point", "coordinates": [ 286007.05, 4156427.78 ] } },
{ "type": "Feature", "properties": { "id": "osm:node/11585333248", "crossing": "unmarked", "crossing_markings": "no", "road_id": null, "road_width": null, "road_dx": null, "road_dy": null, "road_x": null, "road_y": null, "crossing_island": false }, "geometry": { "type": "Point", "coordinates": [ 286168.78, 4156454.92 ] } },
{ "type": "Feature", "properties": { "id": "osm:node/11585351304", "crossing": "unmarked", "crossing_markings": "no", "road_id": "osm:way/6039408", "road_width": 9.5, "road_dx": -0.639255, "road_dy": -0.768995, "road_x": 286154.25, "road_y": 4156451.9, "crossing_island": false }, "geometry": { "type": "Point", "coordinates": [ 286149.14, 4156456.15 ] } },
{ "type": "Feature", "properties": { "id": "osm:node/11585351328", "crossing": "unmarked", "crossing_markings": "no", "road_id": null, "road_width": null, "road_dx": null, "road_dy": null, "road_x": null, "road_y": null, "crossing_island": false }, "geometry": { "type": "Point", "coordinates": [ 286156.35, 4156465.02 ] } },
{ "type": "Feature", "properties": { "id": "osm:node/2723864506", "crossing": "unmarked", "crossing_markings": "no", "road_id": "osm:way/692873475", "road_width": 7.0, "road_dx": 0.780911, "road_dy": -0.624642, "road_x": 286046.01, "road_y": 4156475.15, "crossing_island": false }, "geometry": { "type": "Point", "coordinates": [ 286046.01, 4156475.15 ] } }
]
}
