{
"type": "FeatureCollection",
"name": "pois",
"crs": { "type": "name", "properties": { "name": "urn:ogc:def:crs:EPSG::32618" } },
"xy_coordinate_resolution": 0.01,
"features": [
{ "type": "Feature", "properties": { "id": "lidar-tree:286192:4156272", "name": null, "kind": "tree", "species": null, "source": "lidar2025", "tree_height": 23.8, "crown_radius": 6.0, "height_source": "lidar2025" }, "geometry": { "type": "Point", "coordinates": [ 286191.5, 4156272.5 ] } },
{ "type": "Feature", "properties": { "id": "rva-tree:71644", "name": "Zelkova serrata", "kind": "tree", "species": "Zelkova serrata", "source": "city_inventory", "tree_height": 7.2, "crown_radius": 2.0, "height_source": "lidar2025" }, "geometry": { "type": "Point", "coordinates": [ 286106.97, 4156261.68 ] } },
{ "type": "Feature", "properties": { "id": "rva-tree:71643", "name": "Zelkova serrata", "kind": "tree", "species": "Zelkova serrata", "source": "city_inventory", "tree_height": 7.4, "crown_radius": 2.0, "height_source": "lidar2025" }, "geometry": { "type": "Point", "coordinates": [ 286099.21, 4156268.03 ] } },
{ "type": "Feature", "properties": { "id": "lidar-tree:286210:4156270", "name": null, "kind": "tree", "species": null, "source": "lidar2025", "tree_height": 27.6, "crown_radius": 6.0, "height_source": "lidar2025" }, "geometry": { "type": "Point", "coordinates": [ 286209.5, 4156269.5 ] } },
{ "type": "Feature", "properties": { "id": "lidar-tree:286244:4156282", "name": null, "kind": "tree", "species": null, "source": "lidar2025", "tree_height": 18.2, "crown_radius": 6.0, "height_source": "lidar2025" }, "geometry": { "type": "Point", "coordinates": [ 286244.5, 4156281.5 ] } },
{ "type": "Feature", "properties": { "id": "lidar-tree:286228:4156286", "name": null, "kind": "tree", "species": null, "source": "lidar2025", "tree_height": 9.0, "crown_radius": 5.9, "height_source": "lidar2025" }, "geometry": { "type": "Point", "coordinates": [ 286227.5, 4156285.5 ] } },
{ "type": "Feature", "properties": { "id": "lidar-tree:286246:4156290", "name": null, "kind": "tree", "species": null, "source": "lidar2025", "tree_height": 21.9, "crown_radius": 6.0, "height_source": "lidar2025" }, "geometry": { "type": "Point", "coordinates": [ 286245.5, 4156290.5 ] } },
{ "type": "Feature", "properties": { "id": "lidar-tree:286198:4156292", "name": null, "kind": "tree", "species": null, "source": "lidar2025", "tree_height": 18.7, "crown_radius": 6.0, "height_source": "lidar2025" }, "geometry": { "type": "Point", "coordinates": [ 286198.5, 4156291.5 ] } },
{ "type": "Feature", "properties": { "id": "lidar-tree:286224:4156294", "name": null, "kind": "tree", "species": null, "source": "lidar2025", "tree_height": 17.1, "crown_radius": 5.9, "height_source": "lidar2025" }, "geometry": { "type": "Point", "coordinates": [ 286224.5, 4156294.5 ] } },
{ "type": "Feature", "properties": { "id": "rva-tree:64936", "name": "Quercus laurifolia", "kind": "tree", "species": "Quercus laurifolia", "source": "city_inventory", "tree_height": 8.0, "crown_radius": 2.5, "height_source": "estimated" }, "geometry": { "type": "Point", "coordinates": [ 286247.53, 4156303.64 ] } },
{ "type": "Feature", "properties": { "id": "rva-tree:64941", "name": "Quercus laurifolia", "kind": "tree", "species": "Quercus laurifolia", "source": "city_inventory", "tree_height": 8.0, "crown_radius": 2.5, "height_source": "estimated" }, "geometry": { "type": "Point", "coordinates": [ 286239.71, 4156309.41 ] } },
{ "type": "Feature", "properties": { "id": "rva-tree:64935", "name": "Cornus kousa", "kind": "tree", "species": "Cornus kousa", "source": "city_inventory", "tree_height": 8.0, "crown_radius": 2.5, "height_source": "estimated" }, "geometry": { "type": "Point", "coordinates": [ 286230.47, 4156316.32 ] } },
{ "type": "Feature", "properties": { "id": "rva-tree:71634", "name": "Quercus phellos", "kind": "tree", "species": "Quercus phellos", "source": "city_inventory", "tree_height": 18.4, "crown_radius": 6.0, "height_source": "lidar2025" }, "geometry": { "type": "Point", "coordinates": [ 286011.18, 4156261.14 ] } },
{ "type": "Feature", "properties": { "id": "rva-tree:71635", "name": "Zelkova serrata", "kind": "tree", "species": "Zelkova serrata", "source": "city_inventory", "tree_height": 8.0, "crown_radius": 2.5, "height_source": "estimated" }, "geometry": { "type": "Point", "coordinates": [ 286018.43, 4156269.95 ] } },
{ "type": "Feature", "properties": { "id": "osm:node/12148787001", "name": "Virginia ABC", "kind": "shop", "species": null, "source": null, "tree_height": null, "crown_radius": null, "height_source": null }, "geometry": { "type": "Point", "coordinates": [ 286073.4, 4156271.93 ] } },
{ "type": "Feature", "properties": { "id": "lidar-tree:286028:4156284", "name": null, "kind": "tree", "species": null, "source": "lidar2025", "tree_height": 6.8, "crown_radius": 2.1, "height_source": "lidar2025" }, "geometry": { "type": "Point", "coordinates": [ 286028.5, 4156284.5 ] } },
{ "type": "Feature", "properties": { "id": "rva-tree:90548", "name": "Quercus phellos", "kind": "tree", "species": "Quercus phellos", "source": "city_inventory", "tree_height": 15.9, "crown_radius": 6.0, "height_source": "lidar2025" }, "geometry": { "type": "Point", "coordinates": [ 286015.95, 4156290.58 ] } },
{ "type": "Feature", "properties": { "id": "rva-tree:71640", "name": "Zelkova serrata", "kind": "tree", "species": "Zelkova serrata", "source": "city_inventory", "tree_height": 7.1, "crown_radius": 2.7, "height_source": "lidar2025" }, "geometry": { "type": "Point", "coordinates": [ 286067.29, 4156293.21 ] } },
{ "type": "Feature", "properties": { "id": "rva-tree:71637", "name": "Zelkova serrata", "kind": "tree", "species": "Zelkova serrata", "source": "city_inventory", "tree_height": 7.1, "crown_radius": 2.0, "height_source": "lidar2025" }, "geometry": { "type": "Point", "coordinates": [ 286040.16, 4156296.38 ] } },
{ "type": "Feature", "properties": { "id": "rva-tree:71639", "name": "Zelkova serrata", "kind": "tree", "species": "Zelkova serrata", "source": "city_inventory", "tree_height": 7.9, "crown_radius": 2.8, "height_source": "lidar2025" }, "geometry": { "type": "Point", "coordinates": [ 286059.74, 4156299.76 ] } },
{ "type": "Feature", "properties": { "id": "rva-tree:71613", "name": "Quercus phellos", "kind": "tree", "species": "Quercus phellos", "source": "city_inventory", "tree_height": 13.6, "crown_radius": 6.0, "height_source": "lidar2025" }, "geometry": { "type": "Point", "coordinates": [ 286025.91, 4156302.53 ] } },
{ "type": "Feature", "properties": { "id": "rva-tree:72768", "name": "Quercus phellos", "kind": "tree", "species": "Quercus phellos", "source": "city_inventory", "tree_height": 14.1, "crown_radius": 5.3, "height_source": "lidar2025" }, "geometry": { "type": "Point", "coordinates": [ 286000.08, 4156270.85 ] } },
{ "type": "Feature", "properties": { "id": "rva-tree:72765", "name": "Quercus phellos", "kind": "tree", "species": "Quercus phellos", "source": "city_inventory", "tree_height": 16.1, "crown_radius": 4.9, "height_source": "lidar2025" }, "geometry": { "type": "Point", "coordinates": [ 286006.19, 4156278.19 ] } },
{ "type": "Feature", "properties": { "id": "rva-tree:71652", "name": "Quercus phellos", "kind": "tree", "species": "Quercus phellos", "source": "city_inventory", "tree_height": 8.7, "crown_radius": 4.3, "height_source": "lidar2025" }, "geometry": { "type": "Point", "coordinates": [ 286121.43, 4156270.18 ] } },
{ "type": "Feature", "properties": { "id": "rva-tree:72812", "name": "Zelkova serrata", "kind": "tree", "species": "Zelkova serrata", "source": "city_inventory", "tree_height": 7.4, "crown_radius": 1.9, "height_source": "lidar2025" }, "geometry": { "type": "Point", "coordinates": [ 286091.01, 4156274.38 ] } },
{ "type": "Feature", "properties": { "id": "rva-tree:71653", "name": "Quercus phellos", "kind": "tree", "species": "Quercus phellos", "source": "city_inventory", "tree_height": 6.8, "crown_radius": 4.6, "height_source": "lidar2025" }, "geometry": { "type": "Point", "coordinates": [ 286112.16, 4156277.47 ] } },
{ "type": "Feature", "properties": { "id": "rva-tree:71642", "name": "Zelkova serrata", "kind": "tree", "species": "Zelkova serrata", "source": "city_inventory", "tree_height": 7.0, "crown_radius": 2.0, "height_source": "lidar2025" }, "geometry": { "type": "Point", "coordinates": [ 286083.67, 4156280.28 ] } },
{ "type": "Feature", "properties": { "id": "rva-tree:71654", "name": "Quercus phellos", "kind": "tree", "species": "Quercus phellos", "source": "city_inventory", "tree_height": 6.8, "crown_radius": 4.6, "height_source": "lidar2025" }, "geometry": { "type": "Point", "coordinates": [ 286107.09, 4156281.13 ] } },
{ "type": "Feature", "properties": { "id": "rva-tree:71641", "name": "Zelkova serrata", "kind": "tree", "species": "Zelkova serrata", "source": "city_inventory", "tree_height": 7.1, "crown_radius": 1.8, "height_source": "lidar2025" }, "geometry": { "type": "Point", "coordinates": [ 286076.52, 4156285.73 ] } },
{ "type": "Feature", "properties": { "id": "rva-tree:71655", "name": "Quercus phellos", "kind": "tree", "species": "Quercus phellos", "source": "city_inventory", "tree_height": 7.5, "crown_radius": 3.4, "height_source": "lidar2025" }, "geometry": { "type": "Point", "coordinates": [ 286098.24, 4156287.96 ] } },
{ "type": "Feature", "properties": { "id": "rva-tree:71656", "name": "Quercus phellos", "kind": "tree", "species": "Quercus phellos", "source": "city_inventory", "tree_height": 5.6, "crown_radius": 2.4, "height_source": "lidar2025" }, "geometry": { "type": "Point", "coordinates": [ 286081.42, 4156302.25 ] } },
{ "type": "Feature", "properties": { "id": "rva-tree:71657", "name": "Quercus phellos", "kind": "tree", "species": "Quercus phellos", "source": "city_inventory", "tree_height": 8.0, "crown_radius": 2.5, "height_source": "estimated" }, "geometry": { "type": "Point", "coordinates": [ 286073.62, 4156308.4 ] } },
{ "type": "Feature", "properties": { "id": "osm:way/753721987", "name": "Emerald Tires", "kind": "shop", "species": null, "source": null, "tree_height": null, "crown_radius": null, "height_source": null }, "geometry": { "type": "Point", "coordinates": [ 286091.24, 4156316.23 ] } },
{ "type": "Feature", "properties": { "id": "lidar-tree:286182:4156280", "name": null, "kind": "tree", "species": null, "source": "lidar2025", "tree_height": 22.4, "crown_radius": 6.0, "height_source": "lidar2025" }, "geometry": { "type": "Point", "coordinates": [ 286182.5, 4156280.5 ] } },
{ "type": "Feature", "properties": { "id": "lidar-tree:286172:4156286", "name": null, "kind": "tree", "species": null, "source": "lidar2025", "tree_height": 24.6, "crown_radius": 6.0, "height_source": "lidar2025" }, "geometry": { "type": "Point", "coordinates": [ 286172.5, 4156286.5 ] } },
{ "type": "Feature", "properties": { "id": "lidar-tree:286190:4156290", "name": null, "kind": "tree", "species": null, "source": "lidar2025", "tree_height": 20.5, "crown_radius": 6.0, "height_source": "lidar2025" }, "geometry": { "type": "Point", "coordinates": [ 286189.5, 4156290.5 ] } },
{ "type": "Feature", "properties": { "id": "lidar-tree:286146:4156296", "name": null, "kind": "tree", "species": null, "source": "lidar2025", "tree_height": 13.8, "crown_radius": 6.0, "height_source": "lidar2025" }, "geometry": { "type": "Point", "coordinates": [ 286146.5, 4156296.5 ] } },
{ "type": "Feature", "properties": { "id": "lidar-tree:286170:4156304", "name": null, "kind": "tree", "species": null, "source": "lidar2025", "tree_height": 19.5, "crown_radius": 6.0, "height_source": "lidar2025" }, "geometry": { "type": "Point", "coordinates": [ 286170.5, 4156304.5 ] } },
{ "type": "Feature", "properties": { "id": "lidar-tree:286158:4156306", "name": null, "kind": "tree", "species": null, "source": "lidar2025", "tree_height": 25.6, "crown_radius": 6.0, "height_source": "lidar2025" }, "geometry": { "type": "Point", "coordinates": [ 286157.5, 4156306.5 ] } },
{ "type": "Feature", "properties": { "id": "lidar-tree:286148:4156310", "name": null, "kind": "tree", "species": null, "source": "lidar2025", "tree_height": 26.2, "crown_radius": 6.0, "height_source": "lidar2025" }, "geometry": { "type": "Point", "coordinates": [ 286147.5, 4156309.5 ] } },
{ "type": "Feature", "properties": { "id": "lidar-tree:286176:4156312", "name": null, "kind": "tree", "species": null, "source": "lidar2025", "tree_height": 17.4, "crown_radius": 6.0, "height_source": "lidar2025" }, "geometry": { "type": "Point", "coordinates": [ 286176.5, 4156312.5 ] } },
{ "type": "Feature", "properties": { "id": "lidar-tree:286196:4156314", "name": null, "kind": "tree", "species": null, "source": "lidar2025", "tree_height": 5.9, "crown_radius": 4.2, "height_source": "lidar2025" }, "geometry": { "type": "Point", "coordinates": [ 286195.5, 4156314.5 ] } },
{ "type": "Feature", "properties": { "id": "lidar-tree:286168:4156316", "name": null, "kind": "tree", "species": null, "source": "lidar2025", "tree_height": 13.4, "crown_radius": 5.4, "height_source": "lidar2025" }, "geometry": { "type": "Point", "coordinates": [ 286167.5, 4156315.5 ] } },
{ "type": "Feature", "properties": { "id": "rva-tree:64926", "name": "Quercus laurifolia", "kind": "tree", "species": "Quercus laurifolia", "source": "city_inventory", "tree_height": 11.3, "crown_radius": 5.8, "height_source": "lidar2025" }, "geometry": { "type": "Point", "coordinates": [ 286217.87, 4156325.92 ] } },
{ "type": "Feature", "properties": { "id": "osm:node/13616245531", "name": "2601 E. Franklin Street", "kind": "monument", "species": null, "source": null, "tree_height": null, "crown_radius": null, "height_source": null }, "geometry": { "type": "Point", "coordinates": [ 286207.9, 4156326.92 ] } },
{ "type": "Feature", "properties": { "id": "rva-tree:95146", "name": "Quercus laurifolia", "kind": "tree", "species": "Quercus laurifolia", "source": "city_inventory", "tree_height": 15.5, "crown_radius": 6.0, "height_source": "lidar2025" }, "geometry": { "type": "Point", "coordinates": [ 286242.22, 4156326.94 ] } },
{ "type": "Feature", "properties": { "id": "rva-tree:67877", "name": "Quercus laurifolia", "kind": "tree", "species": "Quercus laurifolia", "source": "city_inventory", "tree_height": 15.6, "crown_radius": 6.0, "height_source": "lidar2025" }, "geometry": { "type": "Point", "coordinates": [ 286208.66, 4156333.57 ] } },
{ "type": "Feature", "properties": { "id": "rva-tree:76704", "name": "Quercus laurifolia", "kind": "tree", "species": "Quercus laurifolia", "source": "city_inventory", "tree_height": 17.9, "crown_radius": 6.0, "height_source": "lidar2025" }, "geometry": { "type": "Point", "coordinates": [ 286229.78, 4156337.26 ] } },
{ "type": "Feature", "properties": { "id": "rva-tree:84079", "name": "Quercus texana", "kind": "tree", "species": "Quercus texana", "source": "city_inventory", "tree_height": 7.5, "crown_radius": 5.3, "height_source": "lidar2025" }, "geometry": { "type": "Point", "coordinates": [ 286219.6, 4156345.58 ] } },
{ "type": "Feature", "properties": { "id": "lidar-tree:286226:4156350", "name": null, "kind": "tree", "species": null, "source": "lidar2025", "tree_height": 8.5, "crown_radius": 5.4, "height_source": "lidar2025" }, "geometry": { "type": "Point", "coordinates": [ 286225.5, 4156350.5 ] } },
{ "type": "Feature", "properties": { "id": "lidar-tree:286216:4156352", "name": null, "kind": "tree", "species": null, "source": "lidar2025", "tree_height": 7.2, "crown_radius": 4.1, "height_source": "lidar2025" }, "geometry": { "type": "Point", "coordinates": [ 286215.5, 4156352.5 ] } },
{ "type": "Feature", "properties": { "id": "osm:node/13615589401", "name": "Royster House", "kind": "monument", "species": null, "source": null, "tree_height": null, "crown_radius": null, "height_source": null }, "geometry": { "type": "Point", "coordinates": [ 286225.03, 4156354.02 ] } },
{ "type": "Feature", "properties": { "id": "lidar-tree:286158:4156318", "name": null, "kind": "tree", "species": null, "source": "lidar2025", "tree_height": 22.3, "crown_radius": 6.0, "height_source": "lidar2025" }, "geometry": { "type": "Point", "coordinates": [ 286157.5, 4156318.5 ] } },
{ "type": "Feature", "properties": { "id": "lidar-tree:286138:4156322", "name": null, "kind": "tree", "species": null, "source": "lidar2025", "tree_height": 13.4, "crown_radius": 6.0, "height_source": "lidar2025" }, "geometry": { "type": "Point", "coordinates": [ 286138.5, 4156321.5 ] } },
{ "type": "Feature", "properties": { "id": "lidar-tree:286174:4156326", "name": null, "kind": "tree", "species": null, "source": "lidar2025", "tree_height": 23.3, "crown_radius": 6.0, "height_source": "lidar2025" }, "geometry": { "type": "Point", "coordinates": [ 286174.5, 4156326.5 ] } },
{ "type": "Feature", "properties": { "id": "lidar-tree:286152:4156326", "name": null, "kind": "tree", "species": null, "source": "lidar2025", "tree_height": 19.4, "crown_radius": 6.0, "height_source": "lidar2025" }, "geometry": { "type": "Point", "coordinates": [ 286152.5, 4156326.5 ] } },
{ "type": "Feature", "properties": { "id": "lidar-tree:286146:4156334", "name": null, "kind": "tree", "species": null, "source": "lidar2025", "tree_height": 17.8, "crown_radius": 5.8, "height_source": "lidar2025" }, "geometry": { "type": "Point", "coordinates": [ 286145.5, 4156333.5 ] } },
{ "type": "Feature", "properties": { "id": "lidar-tree:286190:4156338", "name": null, "kind": "tree", "species": null, "source": "lidar2025", "tree_height": 20.5, "crown_radius": 5.5, "height_source": "lidar2025" }, "geometry": { "type": "Point", "coordinates": [ 286189.5, 4156338.5 ] } },
{ "type": "Feature", "properties": { "id": "lidar-tree:286160:4156340", "name": null, "kind": "tree", "species": null, "source": "lidar2025", "tree_height": 22.7, "crown_radius": 5.2, "height_source": "lidar2025" }, "geometry": { "type": "Point", "coordinates": [ 286159.5, 4156339.5 ] } },
{ "type": "Feature", "properties": { "id": "rva-tree:67846", "name": "Zelkova serrata", "kind": "tree", "species": "Zelkova serrata", "source": "city_inventory", "tree_height": 13.3, "crown_radius": 6.0, "height_source": "lidar2025" }, "geometry": { "type": "Point", "coordinates": [ 286190.1, 4156350.15 ] } },
{ "type": "Feature", "properties": { "id": "rva-tree:64925", "name": "Zelkova serrata", "kind": "tree", "species": "Zelkova serrata", "source": "city_inventory", "tree_height": 11.4, "crown_radius": 5.6, "height_source": "lidar2025" }, "geometry": { "type": "Point", "coordinates": [ 286179.81, 4156358.38 ] } },
{ "type": "Feature", "properties": { "id": "rva-tree:64924", "name": "Zelkova serrata", "kind": "tree", "species": "Zelkova serrata", "source": "city_inventory", "tree_height": 14.4, "crown_radius": 6.0, "height_source": "lidar2025" }, "geometry": { "type": "Point", "coordinates": [ 286171.83, 4156364.71 ] } },
{ "type": "Feature", "properties": { "id": "lidar-tree:286108:4156320", "name": null, "kind": "tree", "species": null, "source": "lidar2025", "tree_height": 18.3, "crown_radius": 6.0, "height_source": "lidar2025" }, "geometry": { "type": "Point", "coordinates": [ 286107.5, 4156319.5 ] } },
{ "type": "Feature", "properties": { "id": "lidar-tree:286128:4156322", "name": null, "kind": "tree", "species": null, "source": "lidar2025", "tree_height": 17.5, "crown_radius": 6.0, "height_source": "lidar2025" }, "geometry": { "type": "Point", "coordinates": [ 286127.5, 4156322.5 ] } },
{ "type": "Feature", "properties": { "id": "lidar-tree:286116:4156324", "name": null, "kind": "tree", "species": null, "source": "lidar2025", "tree_height": 17.9, "crown_radius": 6.0, "height_source": "lidar2025" }, "geometry": { "type": "Point", "coordinates": [ 286115.5, 4156324.5 ] } },
{ "type": "Feature", "properties": { "id": "lidar-tree:286084:4156334", "name": null, "kind": "tree", "species": null, "source": "lidar2025", "tree_height": 12.4, "crown_radius": 5.6, "height_source": "lidar2025" }, "geometry": { "type": "Point", "coordinates": [ 286084.5, 4156334.5 ] } },
{ "type": "Feature", "properties": { "id": "lidar-tree:286114:4156340", "name": null, "kind": "tree", "species": null, "source": "lidar2025", "tree_height": 18.5, "crown_radius": 5.9, "height_source": "lidar2025" }, "geometry": { "type": "Point", "coordinates": [ 286114.5, 4156340.5 ] } },
{ "type": "Feature", "properties": { "id": "lidar-tree:286086:4156354", "name": null, "kind": "tree", "species": null, "source": "lidar2025", "tree_height": 7.3, "crown_radius": 4.7, "height_source": "lidar2025" }, "geometry": { "type": "Point", "coordinates": [ 286085.5, 4156354.5 ] } },
{ "type": "Feature", "properties": { "id": "lidar-tree:286090:4156362", "name": null, "kind": "tree", "species": null, "source": "lidar2025", "tree_height": 6.5, "crown_radius": 4.6, "height_source": "lidar2025" }, "geometry": { "type": "Point", "coordinates": [ 286090.5, 4156361.5 ] } },
{ "type": "Feature", "properties": { "id": "lidar-tree:286108:4156382", "name": null, "kind": "tree", "species": null, "source": "lidar2025", "tree_height": 10.2, "crown_radius": 5.0, "height_source": "lidar2025" }, "geometry": { "type": "Point", "coordinates": [ 286108.5, 4156382.5 ] } },
{ "type": "Feature", "properties": { "id": "rva-tree:68369", "name": "Acer campestre", "kind": "tree", "species": "Acer campestre", "source": "city_inventory", "tree_height": 10.1, "crown_radius": 4.9, "height_source": "lidar2025" }, "geometry": { "type": "Point", "coordinates": [ 286115.11, 4156388.8 ] } },
{ "type": "Feature", "properties": { "id": "rva-tree:121068", "name": "Cornus spp.", "kind": "tree", "species": "Cornus spp.", "source": "city_inventory", "tree_height": 8.0, "crown_radius": 2.5, "height_source": "estimated" }, "geometry": { "type": "Point", "coordinates": [ 286096.76, 4156392.12 ] } },
{ "type": "Feature", "properties": { "id": "rva-tree:85424", "name": "Zelkova serrata", "kind": "tree", "species": "Zelkova serrata", "source": "city_inventory", "tree_height": 10.7, "crown_radius": 4.6, "height_source": "lidar2025" }, "geometry": { "type": "Point", "coordinates": [ 286195.98, 4156363.66 ] } },
{ "type": "Feature", "properties": { "id": "rva-tree:67871", "name": "Magnolia grandiflora", "kind": "tree", "species": "Magnolia grandiflora", "source": "city_inventory", "tree_height": 11.7, "crown_radius": 4.3, "height_source": "lidar2025" }, "geometry": { "type": "Point", "coordinates": [ 286206.45, 4156365.39 ] } },
{ "type": "Feature", "properties": { "id": "rva-tree:67567", "name": "Zelkova serrata", "kind": "tree", "species": "Zelkova serrata", "source": "city_inventory", "tree_height": 14.0, "crown_radius": 6.0, "height_source": "lidar2025" }, "geometry": { "type": "Point", "coordinates": [ 286226.48, 4156371.42 ] } },
{ "type": "Feature", "properties": { "id": "rva-tree:67438", "name": "Lagerstroemia indica", "kind": "tree", "species": "Lagerstroemia indica", "source": "city_inventory", "tree_height": 8.0, "crown_radius": 2.5, "height_source": "estimated" }, "geometry": { "type": "Point", "coordinates": [ 286216.17, 4156377.19 ] } },
{ "type": "Feature", "properties": { "id": "rva-tree:67872", "name": "Zelkova serrata", "kind": "tree", "species": "Zelkova serrata", "source": "city_inventory", "tree_height": 16.7, "crown_radius": 6.0, "height_source": "lidar2025" }, "geometry": { "type": "Point", "coordinates": [ 286236.85, 4156383.95 ] } },
{ "type": "Feature", "properties": { "id": "rva-tree:67870", "name": "Ostrya virginiana", "kind": "tree", "species": "Ostrya virginiana", "source": "city_inventory", "tree_height": 8.0, "crown_radius": 2.5, "height_source": "estimated" }, "geometry": { "type": "Point", "coordinates": [ 286223.81, 4156387.19 ] } },
{ "type": "Feature", "properties": { "id": "lidar-tree:286214:4156390", "name": null, "kind": "tree", "species": null, "source": "lidar2025", "tree_height": 16.5, "crown_radius": 6.0, "height_source": "lidar2025" }, "geometry": { "type": "Point", "coordinates": [ 286214.5, 4156390.5 ] } },
{ "type": "Feature", "properties": { "id": "lidar-tree:286222:4156396", "name": null, "kind": "tree", "species": null, "source": "lidar2025", "tree_height": 13.9, "crown_radius": 6.0, "height_source": "lidar2025" }, "geometry": { "type": "Point", "coordinates": [ 286222.5, 4156395.5 ] } },
{ "type": "Feature", "properties": { "id": "lidar-tree:286202:4156396", "name": null, "kind": "tree", "species": null, "source": "lidar2025", "tree_height": 11.4, "crown_radius": 5.3, "height_source": "lidar2025" }, "geometry": { "type": "Point", "coordinates": [ 286202.5, 4156396.5 ] } },
{ "type": "Feature", "properties": { "id": "rva-tree:83344", "name": "Zelkova serrata", "kind": "tree", "species": "Zelkova serrata", "source": "city_inventory", "tree_height": 11.0, "crown_radius": 6.0, "height_source": "lidar2025" }, "geometry": { "type": "Point", "coordinates": [ 286183.72, 4156373.13 ] } },
{ "type": "Feature", "properties": { "id": "rva-tree:64923", "name": "Zelkova serrata", "kind": "tree", "species": "Zelkova serrata", "source": "city_inventory", "tree_height": 16.6, "crown_radius": 6.0, "height_source": "lidar2025" }, "geometry": { "type": "Point", "coordinates": [ 286160.15, 4156374.64 ] } },
{ "type": "Feature", "properties": { "id": "osm:node/13616245530", "name": "2514 E. Franklin Street", "kind": "monument", "species": null, "source": null, "tree_height": null, "crown_radius": null, "height_source": null }, "geometry": { "type": "Point", "coordinates": [ 286183.77, 4156381.63 ] } },
{ "type": "Feature", "properties": { "id": "lidar-tree:286194:4156384", "name": null, "kind": "tree", "species": null, "source": "lidar2025", "tree_height": 11.0, "crown_radius": 5.1, "height_source": "lidar2025" }, "geometry": { "type": "Point", "coordinates": [ 286193.5, 4156383.5 ] } },
{ "type": "Feature", "properties": { "id": "rva-tree:83980", "name": "Zelkova serrata", "kind": "tree", "species": "Zelkova serrata", "source": "city_inventory", "tree_height": 13.4, "crown_radius": 6.0, "height_source": "lidar2025" }, "geometry": { "type": "Point", "coordinates": [ 286171.02, 4156384.09 ] } },
{ "type": "Feature", "properties": { "id": "rva-tree:68380", "name": "Acer campestre", "kind": "tree", "species": "Acer campestre", "source": "city_inventory", "tree_height": 8.9, "crown_radius": 3.6, "height_source": "lidar2025" }, "geometry": { "type": "Point", "coordinates": [ 286142.67, 4156385.88 ] } },
{ "type": "Feature", "properties": { "id": "osm:node/13615589403", "name": "2510 E. Franklin Street", "kind": "monument", "species": null, "source": null, "tree_height": null, "crown_radius": null, "height_source": null }, "geometry": { "type": "Point", "coordinates": [ 286173.07, 4156389.81 ] } },
{ "type": "Feature", "properties": { "id": "rva-tree:68379", "name": "Acer campestre", "kind": "tree", "species": "Acer campestre", "source": "city_inventory", "tree_height": 7.9, "crown_radius": 3.7, "height_source": "lidar2025" }, "geometry": { "type": "Point", "coordinates": [ 286137.54, 4156390.27 ] } },
{ "type": "Feature", "properties": { "id": "lidar-tree:286162:4156396", "name": null, "kind": "tree", "species": null, "source": "lidar2025", "tree_height": 6.9, "crown_radius": 5.2, "height_source": "lidar2025" }, "geometry": { "type": "Point", "coordinates": [ 286161.5, 4156396.5 ] } },
{ "type": "Feature", "properties": { "id": "lidar-tree:286156:4156406", "name": null, "kind": "tree", "species": null, "source": "lidar2025", "tree_height": 7.3, "crown_radius": 3.9, "height_source": "lidar2025" }, "geometry": { "type": "Point", "coordinates": [ 286155.5, 4156405.5 ] } },
{ "type": "Feature", "properties": { "id": "rva-tree:67869", "name": "Carpinus betulus", "kind": "tree", "species": "Carpinus betulus", "source": "city_inventory", "tree_height": 8.0, "crown_radius": 2.5, "height_source": "estimated" }, "geometry": { "type": "Point", "coordinates": [ 286232.35, 4156397.65 ] } },
{ "type": "Feature", "properties": { "id": "lidar-tree:286218:4156408", "name": null, "kind": "tree", "species": null, "source": "lidar2025", "tree_height": 14.9, "crown_radius": 4.9, "height_source": "lidar2025" }, "geometry": { "type": "Point", "coordinates": [ 286218.5, 4156407.5 ] } },
{ "type": "Feature", "properties": { "id": "rva-tree:67437", "name": "Ostrya virginiana", "kind": "tree", "species": "Ostrya virginiana", "source": "city_inventory", "tree_height": 8.0, "crown_radius": 2.5, "height_source": "estimated" }, "geometry": { "type": "Point", "coordinates": [ 286248.37, 4156417.24 ] } },
{ "type": "Feature", "properties": { "id": "lidar-tree:286206:4156426", "name": null, "kind": "tree", "species": null, "source": "lidar2025", "tree_height": 23.3, "crown_radius": 6.0, "height_source": "lidar2025" }, "geometry": { "type": "Point", "coordinates": [ 286206.5, 4156425.5 ] } },
{ "type": "Feature", "properties": { "id": "lidar-tree:286236:4156428", "name": null, "kind": "tree", "species": null, "source": "lidar2025", "tree_height": 18.0, "crown_radius": 6.0, "height_source": "lidar2025" }, "geometry": { "type": "Point", "coordinates": [ 286236.5, 4156427.5 ] } },
{ "type": "Feature", "properties": { "id": "lidar-tree:286228:4156432", "name": null, "kind": "tree", "species": null, "source": "lidar2025", "tree_height": 17.3, "crown_radius": 6.0, "height_source": "lidar2025" }, "geometry": { "type": "Point", "coordinates": [ 286227.5, 4156431.5 ] } },
{ "type": "Feature", "properties": { "id": "lidar-tree:286230:4156448", "name": null, "kind": "tree", "species": null, "source": "lidar2025", "tree_height": 8.0, "crown_radius": 4.0, "height_source": "lidar2025" }, "geometry": { "type": "Point", "coordinates": [ 286229.5, 4156448.5 ] } },
{ "type": "Feature", "properties": { "id": "lidar-tree:286206:4156450", "name": null, "kind": "tree", "species": null, "source": "lidar2025", "tree_height": 6.8, "crown_radius": 5.4, "height_source": "lidar2025" }, "geometry": { "type": "Point", "coordinates": [ 286205.5, 4156449.5 ] } },
{ "type": "Feature", "properties": { "id": "lidar-tree:286190:4156408", "name": null, "kind": "tree", "species": null, "source": "lidar2025", "tree_height": 17.1, "crown_radius": 6.0, "height_source": "lidar2025" }, "geometry": { "type": "Point", "coordinates": [ 286190.5, 4156407.5 ] } },
{ "type": "Feature", "properties": { "id": "lidar-tree:286174:4156410", "name": null, "kind": "tree", "species": null, "source": "lidar2025", "tree_height": 19.1, "crown_radius": 6.0, "height_source": "lidar2025" }, "geometry": { "type": "Point", "coordinates": [ 286173.5, 4156410.5 ] } },
{ "type": "Feature", "properties": { "id": "lidar-tree:286140:4156416", "name": null, "kind": "tree", "species": null, "source": "lidar2025", "tree_height": 8.2, "crown_radius": 4.5, "height_source": "lidar2025" }, "geometry": { "type": "Point", "coordinates": [ 286139.5, 4156416.5 ] } },
{ "type": "Feature", "properties": { "id": "lidar-tree:286164:4156416", "name": null, "kind": "tree", "species": null, "source": "lidar2025", "tree_height": 6.6, "crown_radius": 3.8, "height_source": "lidar2025" }, "geometry": { "type": "Point", "coordinates": [ 286164.5, 4156416.5 ] } },
{ "type": "Feature", "properties": { "id": "lidar-tree:286196:4156420", "name": null, "kind": "tree", "species": null, "source": "lidar2025", "tree_height": 19.7, "crown_radius": 6.0, "height_source": "lidar2025" }, "geometry": { "type": "Point", "coordinates": [ 286195.5, 4156419.5 ] } },
{ "type": "Feature", "properties": { "id": "lidar-tree:286148:4156426", "name": null, "kind": "tree", "species": null, "source": "lidar2025", "tree_height": 8.1, "crown_radius": 5.1, "height_source": "lidar2025" }, "geometry": { "type": "Point", "coordinates": [ 286148.5, 4156426.5 ] } },
{ "type": "Feature", "properties": { "id": "lidar-tree:286176:4156430", "name": null, "kind": "tree", "species": null, "source": "lidar2025", "tree_height": 6.1, "crown_radius": 3.9, "height_source": "lidar2025" }, "geometry": { "type": "Point", "coordinates": [ 286176.5, 4156430.5 ] } },
{ "type": "Feature", "properties": { "id": "lidar-tree:286160:4156440", "name": null, "kind": "tree", "species": null, "source": "lidar2025", "tree_height": 7.6, "crown_radius": 5.4, "height_source": "lidar2025" }, "geometry": { "type": "Point", "coordinates": [ 286159.5, 4156440.5 ] } },
{ "type": "Feature", "properties": { "id": "lidar-tree:286178:4156450", "name": null, "kind": "tree", "species": null, "source": "lidar2025", "tree_height": 11.8, "crown_radius": 4.9, "height_source": "lidar2025" }, "geometry": { "type": "Point", "coordinates": [ 286178.5, 4156450.5 ] } },
{ "type": "Feature", "properties": { "id": "lidar-tree:286146:4156460", "name": null, "kind": "tree", "species": null, "source": "lidar2025", "tree_height": 15.3, "crown_radius": 5.9, "height_source": "lidar2025" }, "geometry": { "type": "Point", "coordinates": [ 286146.5, 4156460.5 ] } },
{ "type": "Feature", "properties": { "id": "rva-tree:68371", "name": "Acer campestre", "kind": "tree", "species": "Acer campestre", "source": "city_inventory", "tree_height": 9.6, "crown_radius": 4.6, "height_source": "lidar2025" }, "geometry": { "type": "Point", "coordinates": [ 286120.41, 4156395.2 ] } },
{ "type": "Feature", "properties": { "id": "rva-tree:68372", "name": "Acer campestre", "kind": "tree", "species": "Acer campestre", "source": "city_inventory", "tree_height": 9.6, "crown_radius": 4.6, "height_source": "lidar2025" }, "geometry": { "type": "Point", "coordinates": [ 286123.65, 4156399.69 ] } },
{ "type": "Feature", "properties": { "id": "rva-tree:121069", "name": "Pistacia chinensis", "kind": "tree", "species": "Pistacia chinensis", "source": "city_inventory", "tree_height": 8.4, "crown_radius": 4.3, "height_source": "lidar2025" }, "geometry": { "type": "Point", "coordinates": [ 286105.1, 4156400.3 ] } },
{ "type": "Feature", "properties": { "id": "lidar-tree:286082:4156478", "name": null, "kind": "tree", "species": null, "source": "lidar2025", "tree_height": 25.4, "crown_radius": 6.0, "height_source": "lidar2025" }, "geometry": { "type": "Point", "coordinates": [ 286081.5, 4156477.5 ] } },
{ "type": "Feature", "properties": { "id": "lidar-tree:286130:4156478", "name": null, "kind": "tree", "species": null, "source": "lidar2025", "tree_height": 11.1, "crown_radius": 5.0, "height_source": "lidar2025" }, "geometry": { "type": "Point", "coordinates": [ 286130.5, 4156478.5 ] } },
{ "type": "Feature", "properties": { "id": "lidar-tree:286096:4156484", "name": null, "kind": "tree", "species": null, "source": "lidar2025", "tree_height": 25.6, "crown_radius": 6.0, "height_source": "lidar2025" }, "geometry": { "type": "Point", "coordinates": [ 286096.5, 4156483.5 ] } },
{ "type": "Feature", "properties": { "id": "lidar-tree:286116:4156484", "name": null, "kind": "tree", "species": null, "source": "lidar2025", "tree_height": 7.9, "crown_radius": 4.0, "height_source": "lidar2025" }, "geometry": { "type": "Point", "coordinates": [ 286115.5, 4156483.5 ] } },
{ "type": "Feature", "properties": { "id": "lidar-tree:286086:4156490", "name": null, "kind": "tree", "species": null, "source": "lidar2025", "tree_height": 26.1, "crown_radius": 6.0, "height_source": "lidar2025" }, "geometry": { "type": "Point", "coordinates": [ 286085.5, 4156489.5 ] } },
{ "type": "Feature", "properties": { "id": "lidar-tree:286110:4156494", "name": null, "kind": "tree", "species": null, "source": "lidar2025", "tree_height": 15.8, "crown_radius": 6.0, "height_source": "lidar2025" }, "geometry": { "type": "Point", "coordinates": [ 286109.5, 4156493.5 ] } },
{ "type": "Feature", "properties": { "id": "lidar-tree:286020:4156306", "name": null, "kind": "tree", "species": null, "source": "lidar2025", "tree_height": 13.6, "crown_radius": 6.0, "height_source": "lidar2025" }, "geometry": { "type": "Point", "coordinates": [ 286020.5, 4156305.5 ] } },
{ "type": "Feature", "properties": { "id": "osm:node/3696244186", "name": "Main & 25th", "kind": "bus_stop", "species": null, "source": null, "tree_height": null, "crown_radius": null, "height_source": null }, "geometry": { "type": "Point", "coordinates": [ 286063.9, 4156305.71 ] } },
{ "type": "Feature", "properties": { "id": "lidar-tree:286010:4156312", "name": null, "kind": "tree", "species": null, "source": "lidar2025", "tree_height": 12.7, "crown_radius": 4.4, "height_source": "lidar2025" }, "geometry": { "type": "Point", "coordinates": [ 286009.5, 4156311.5 ] } },
{ "type": "Feature", "properties": { "id": "rva-tree:71610", "name": "Quercus phellos", "kind": "tree", "species": "Quercus phellos", "source": "city_inventory", "tree_height": 8.0, "crown_radius": 2.5, "height_source": "estimated" }, "geometry": { "type": "Point", "coordinates": [ 286034.92, 4156312.36 ] } },
{ "type": "Feature", "properties": { "id": "lidar-tree:286026:4156316", "name": null, "kind": "tree", "species": null, "source": "lidar2025", "tree_height": 15.1, "crown_radius": 6.0, "height_source": "lidar2025" }, "geometry": { "type": "Point", "coordinates": [ 286025.5, 4156316.5 ] } },
{ "type": "Feature", "properties": { "id": "osm:node/49615885", "name": null, "kind": "traffic_signals", "species": null, "source": null, "tree_height": null, "crown_radius": null, "height_source": null }, "geometry": { "type": "Point", "coordinates": [ 286048.87, 4156318.28 ] } },
{ "type": "Feature", "properties": { "id": "rva-tree:71609", "name": "Quercus phellos", "kind": "tree", "species": "Quercus phellos", "source": "city_inventory", "tree_height": 7.5, "crown_radius": 5.8, "height_source": "lidar2025" }, "geometry": { "type": "Point", "coordinates": [ 286033.48, 4156319.98 ] } },
{ "type": "Feature", "properties": { "id": "rva-tree:71608", "name": "Quercus phellos", "kind": "tree", "species": "Quercus phellos", "source": "city_inventory", "tree_height": 8.0, "crown_radius": 2.5, "height_source": "estimated" }, "geometry": { "type": "Point", "coordinates": [ 286028.92, 4156325.33 ] } },
{ "type": "Feature", "properties": { "id": "rva-tree:71665", "name": "Quercus phellos", "kind": "tree", "species": "Quercus phellos", "source": "city_inventory", "tree_height": 9.7, "crown_radius": 5.1, "height_source": "lidar2025" }, "geometry": { "type": "Point", "coordinates": [ 286020.51, 4156331.7 ] } },
{ "type": "Feature", "properties": { "id": "osm:node/3696244187", "name": "Main & 25th", "kind": "bus_stop", "species": null, "source": null, "tree_height": null, "crown_radius": null, "height_source": null }, "geometry": { "type": "Point", "coordinates": [ 286029.54, 4156333.6 ] } },
{ "type": "Feature", "properties": { "id": "rva-tree:71605", "name": "Quercus phellos", "kind": "tree", "species": "Quercus phellos", "source": "city_inventory", "tree_height": 11.2, "crown_radius": 5.9, "height_source": "lidar2025" }, "geometry": { "type": "Point", "coordinates": [ 286006.44, 4156343.03 ] } },
{ "type": "Feature", "properties": { "id": "lidar-tree:286002:4156386", "name": null, "kind": "tree", "species": null, "source": "lidar2025", "tree_height": 11.3, "crown_radius": 6.0, "height_source": "lidar2025" }, "geometry": { "type": "Point", "coordinates": [ 286002.5, 4156386.5 ] } },
{ "type": "Feature", "properties": { "id": "rva-tree:71552", "name": "Quercus phellos", "kind": "tree", "species": "Quercus phellos", "source": "city_inventory", "tree_height": 12.1, "crown_radius": 5.7, "height_source": "lidar2025" }, "geometry": { "type": "Point", "coordinates": [ 286040.52, 4156335.07 ] } },
{ "type": "Feature", "properties": { "id": "rva-tree:121073", "name": "Pistacia chinensis", "kind": "tree", "species": "Pistacia chinensis", "source": "city_inventory", "tree_height": 5.0, "crown_radius": 2.7, "height_source": "lidar2025" }, "geometry": { "type": "Point", "coordinates": [ 286052.33, 4156335.55 ] } },
{ "type": "Feature", "properties": { "id": "rva-tree:71606", "name": "Quercus phellos", "kind": "tree", "species": "Quercus phellos", "source": "city_inventory", "tree_height": 7.4, "crown_radius": 5.5, "height_source": "lidar2025" }, "geometry": { "type": "Point", "coordinates": [ 286012.71, 4156337.18 ] } },
{ "type": "Feature", "properties": { "id": "rva-tree:71553", "name": "Quercus phellos", "kind": "tree", "species": "Quercus phellos", "source": "city_inventory", "tree_height": 8.9, "crown_radius": 4.9, "height_source": "lidar2025" }, "geometry": { "type": "Point", "coordinates": [ 286033.36, 4156340.09 ] } },
{ "type": "Feature", "properties": { "id": "rva-tree:121072", "name": "Pistacia chinensis", "kind": "tree", "species": "Pistacia chinensis", "source": "city_inventory", "tree_height": 7.0, "crown_radius": 3.3, "height_source": "lidar2025" }, "geometry": { "type": "Point", "coordinates": [ 286058.91, 4156344.19 ] } },
{ "type": "Feature", "properties": { "id": "rva-tree:90416", "name": "Quercus phellos", "kind": "tree", "species": "Quercus phellos", "source": "city_inventory", "tree_height": 11.2, "crown_radius": 5.2, "height_source": "lidar2025" }, "geometry": { "type": "Point", "coordinates": [ 286017.44, 4156353.87 ] } },
{ "type": "Feature", "properties": { "id": "lidar-tree:286014:4156398", "name": null, "kind": "tree", "species": null, "source": "lidar2025", "tree_height": 10.0, "crown_radius": 5.6, "height_source": "lidar2025" }, "geometry": { "type": "Point", "coordinates": [ 286013.5, 4156398.5 ] } },
{ "type": "Feature", "properties": { "id": "rva-tree:72834", "name": "Prunus spp.", "kind": "tree", "species": "Prunus spp.", "source": "city_inventory", "tree_height": 4.8, "crown_radius": 2.3, "height_source": "lidar2025" }, "geometry": { "type": "Point", "coordinates": [ 286044.96, 4156466.13 ] } },
{ "type": "Feature", "properties": { "id": "rva-tree:30212", "name": "Ailanthus altissima", "kind": "tree", "species": "Ailanthus altissima", "source": "city_inventory", "tree_height": 8.0, "crown_radius": 2.5, "height_source": "estimated" }, "geometry": { "type": "Point", "coordinates": [ 286067.96, 4156467.49 ] } },
{ "type": "Feature", "properties": { "id": "lidar-tree:286068:4156476", "name": null, "kind": "tree", "species": null, "source": "lidar2025", "tree_height": 28.7, "crown_radius": 6.0, "height_source": "lidar2025" }, "geometry": { "type": "Point", "coordinates": [ 286068.5, 4156475.5 ] } },
{ "type": "Feature", "properties": { "id": "rva-tree:68351", "name": "Prunus caroliniana", "kind": "tree", "species": "Prunus caroliniana", "source": "city_inventory", "tree_height": 8.0, "crown_radius": 2.5, "height_source": "estimated" }, "geometry": { "type": "Point", "coordinates": [ 286005.92, 4156497.63 ] } },
{ "type": "Feature", "properties": { "id": "rva-tree:68357", "name": "Prunus caroliniana", "kind": "tree", "species": "Prunus caroliniana", "source": "city_inventory", "tree_height": 8.0, "crown_radius": 2.5, "height_source": "estimated" }, "geometry": { "type": "Point", "coordinates": [ 286029.68, 4156479.45 ] } },
{ "type": "Feature", "properties": { "id": "lidar-tree:286050:4156484", "name": null, "kind": "tree", "species": null, "source": "lidar2025", "tree_height": 16.8, "crown_radius": 4.4, "height_source": "lidar2025" }, "geometry": { "type": "Point", "coordinates": [ 286050.5, 4156484.5 ] } },
{ "type": "Feature", "properties": { "id": "rva-tree:121071", "name": "Platanus occidentalis", "kind": "tree", "species": "Platanus occidentalis", "source": "city_inventory", "tree_height": 13.2, "crown_radius": 5.5, "height_source": "lidar2025" }, "geometry": { "type": "Point", "coordinates": [ 286042.65, 4156487.17 ] } },
{ "type": "Feature", "properties": { "id": "rva-tree:68356", "name": "Prunus caroliniana", "kind": "tree", "species": "Prunus caroliniana", "source": "city_inventory", "tree_height": 8.0, "crown_radius": 2.5, "height_source": "estimated" }, "geometry": { "type": "Point", "coordinates": [ 286019.59, 4156487.17 ] } },
{ "type": "Feature", "properties": { "id": "rva-tree:83647", "name": "Platanus occidentalis", "kind": "tree", "species": "Platanus occidentalis", "source": "city_inventory", "tree_height": 13.2, "crown_radius": 5.5, "height_source": "lidar2025" }, "geometry": { "type": "Point", "coordinates": [ 286038.62, 4156490.87 ] } },
{ "type": "Feature", "properties": { "id": "rva-tree:85004", "name": "Platanus occidentalis", "kind": "tree", "species": "Platanus occidentalis", "source": "city_inventory", "tree_height": 14.4, "crown_radius": 4.4, "height_source": "lidar2025" }, "geometry": { "type": "Point", "coordinates": [ 286032.67, 4156495.3 ] } },
{ "type": "Feature", "properties": { "id": "lidar-tree:286050:4156496", "name": null, "kind": "tree", "species": null, "source": "lidar2025", "tree_height": 5.7, "crown_radius": 4.6, "height_source": "lidar2025" }, "geometry": { "type": "Point", "coordinates": [ 286049.5, 4156495.5 ] } },
{ "type": "Feature", "properties": { "id": "rva-tree:85005", "name": "Platanus occidentalis", "kind": "tree", "species": "Platanus occidentalis", "source": "city_inventory", "tree_height": 14.4, "crown_radius": 4.4, "height_source": "lidar2025" }, "geometry": { "type": "Point", "coordinates": [ 286028.64, 4156498.76 ] } },
{ "type": "Feature", "properties": { "id": "lidar-tree:286216:4156454", "name": null, "kind": "tree", "species": null, "source": "lidar2025", "tree_height": 7.6, "crown_radius": 3.2, "height_source": "lidar2025" }, "geometry": { "type": "Point", "coordinates": [ 286215.5, 4156454.5 ] } },
{ "type": "Feature", "properties": { "id": "lidar-tree:286200:4156460", "name": null, "kind": "tree", "species": null, "source": "lidar2025", "tree_height": 9.9, "crown_radius": 6.0, "height_source": "lidar2025" }, "geometry": { "type": "Point", "coordinates": [ 286200.5, 4156459.5 ] } },
{ "type": "Feature", "properties": { "id": "lidar-tree:286232:4156468", "name": null, "kind": "tree", "species": null, "source": "lidar2025", "tree_height": 9.6, "crown_radius": 4.1, "height_source": "lidar2025" }, "geometry": { "type": "Point", "coordinates": [ 286232.5, 4156467.5 ] } },
{ "type": "Feature", "properties": { "id": "osm:node/13616245550", "name": "2505 E. Grace Street", "kind": "monument", "species": null, "source": null, "tree_height": null, "crown_radius": null, "height_source": null }, "geometry": { "type": "Point", "coordinates": [ 286208.69, 4156481.19 ] } },
{ "type": "Feature", "properties": { "id": "rva-tree:67865", "name": "Acer saccharum", "kind": "tree", "species": "Acer saccharum", "source": "city_inventory", "tree_height": 14.7, "crown_radius": 5.4, "height_source": "lidar2025" }, "geometry": { "type": "Point", "coordinates": [ 286218.44, 4156482.83 ] } },
{ "type": "Feature", "properties": { "id": "lidar-tree:286244:4156484", "name": null, "kind": "tree", "species": null, "source": "lidar2025", "tree_height": 19.6, "crown_radius": 6.0, "height_source": "lidar2025" }, "geometry": { "type": "Point", "coordinates": [ 286243.5, 4156483.5 ] } },
{ "type": "Feature", "properties": { "id": "osm:node/13634058560", "name": "Adams Double House", "kind": "monument", "species": null, "source": null, "tree_height": null, "crown_radius": null, "height_source": null }, "geometry": { "type": "Point", "coordinates": [ 286200.67, 4156490.33 ] } },
{ "type": "Feature", "properties": { "id": "rva-tree:68558", "name": "Cladrastis kentukea", "kind": "tree", "species": "Cladrastis kentukea", "source": "city_inventory", "tree_height": 6.9, "crown_radius": 3.5, "height_source": "lidar2025" }, "geometry": { "type": "Point", "coordinates": [ 286195.94, 4156490.65 ] } },
{ "type": "Feature", "properties": { "id": "rva-tree:67857", "name": "Zelkova serrata", "kind": "tree", "species": "Zelkova serrata", "source": "city_inventory", "tree_height": 10.3, "crown_radius": 4.9, "height_source": "lidar2025" }, "geometry": { "type": "Point", "coordinates": [ 286206.92, 4156491.69 ] } },
{ "type": "Feature", "properties": { "id": "lidar-tree:286188:4156462", "name": null, "kind": "tree", "species": null, "source": "lidar2025", "tree_height": 11.6, "crown_radius": 5.9, "height_source": "lidar2025" }, "geometry": { "type": "Point", "coordinates": [ 286187.5, 4156462.5 ] } },
{ "type": "Feature", "properties": { "id": "rva-tree:69453", "name": "Prunus spp.", "kind": "tree", "species": "Prunus spp.", "source": "city_inventory", "tree_height": 6.3, "crown_radius": 3.5, "height_source": "lidar2025" }, "geometry": { "type": "Point", "coordinates": [ 286175.93, 4156465.96 ] } },
{ "type": "Feature", "properties": { "id": "lidar-tree:286154:4156472", "name": null, "kind": "tree", "species": null, "source": "lidar2025", "tree_height": 16.1, "crown_radius": 6.0, "height_source": "lidar2025" }, "geometry": { "type": "Point", "coordinates": [ 286154.5, 4156471.5 ] } },
{ "type": "Feature", "properties": { "id": "lidar-tree:286138:4156472", "name": null, "kind": "tree", "species": null, "source": "lidar2025", "tree_height": 12.4, "crown_radius": 5.6, "height_source": "lidar2025" }, "geometry": { "type": "Point", "coordinates": [ 286137.5, 4156472.5 ] } },
{ "type": "Feature", "properties": { "id": "lidar-tree:286186:4156472", "name": null, "kind": "tree", "species": null, "source": "lidar2025", "tree_height": 11.6, "crown_radius": 6.0, "height_source": "lidar2025" }, "geometry": { "type": "Point", "coordinates": [ 286185.5, 4156472.5 ] } },
{ "type": "Feature", "properties": { "id": "rva-tree:67429", "name": "Acer rubrum", "kind": "tree", "species": "Acer rubrum", "source": "city_inventory", "tree_height": 15.3, "crown_radius": 4.6, "height_source": "lidar2025" }, "geometry": { "type": "Point", "coordinates": [ 286168.22, 4156478.5 ] } },
{ "type": "Feature", "properties": { "id": "rva-tree:68629", "name": "Ulmus x", "kind": "tree", "species": "Ulmus x", "source": "city_inventory", "tree_height": 7.2, "crown_radius": 3.4, "height_source": "lidar2025" }, "geometry": { "type": "Point", "coordinates": [ 286177.43, 4156488.57 ] } },
{ "type": "Feature", "properties": { "id": "lidar-tree:286152:4156490", "name": null, "kind": "tree", "species": null, "source": "lidar2025", "tree_height": 14.4, "crown_radius": 6.0, "height_source": "lidar2025" }, "geometry": { "type": "Point", "coordinates": [ 286152.5, 4156490.5 ] } }
]
}
