{
"type": "FeatureCollection",
"name": "crossings",
"crs": { "type": "name", "properties": { "name": "urn:ogc:def:crs:EPSG::32618" } },
"xy_coordinate_resolution": 0.01,
"features": [
{ "type": "Feature", "properties": { "id": "osm:node/7690282189", "crossing": "unmarked", "crossing_markings": null, "road_id": null, "road_width": null, "road_dx": null, "road_dy": null, "road_x": null, "road_y": null, "foot_dx": null, "foot_dy": null, "crossing_island": false }, "geometry": { "type": "Point", "coordinates": [ 283417.35, 4158027.99 ] } },
{ "type": "Feature", "properties": { "id": "osm:node/7689640851", "crossing": "unmarked", "crossing_markings": null, "road_id": null, "road_width": null, "road_dx": null, "road_dy": null, "road_x": null, "road_y": null, "foot_dx": null, "foot_dy": null, "crossing_island": false }, "geometry": { "type": "Point", "coordinates": [ 283403.93, 4158028.45 ] } },
{ "type": "Feature", "properties": { "id": "osm:node/7690231738", "crossing": "unmarked", "crossing_markings": null, "road_id": null, "road_width": null, "road_dx": null, "road_dy": null, "road_x": null, "road_y": null, "foot_dx": null, "foot_dy": null, "crossing_island": false }, "geometry": { "type": "Point", "coordinates": [ 283308.61, 4158031.69 ] } },
{ "type": "Feature", "properties": { "id": "osm:node/14074986636", "crossing": "unmarked", "crossing_markings": null, "road_id": null, "road_width": null, "road_dx": null, "road_dy": null, "road_x": null, "road_y": null, "foot_dx": null, "foot_dy": null, "crossing_island": false }, "geometry": { "type": "Point", "coordinates": [ 283309.34, 4158062.97 ] } },
{ "type": "Feature", "properties": { "id": "osm:node/7687533364", "crossing": "traffic_signals", "crossing_markings": null, "road_id": "osm:way/41384068", "road_width": 8.0, "road_dx": -0.036432, "road_dy": -0.999336, "road_x": 283412.93, "road_y": 4158094.8, "foot_dx": -0.99966, "foot_dy": 0.026081, "crossing_island": false }, "geometry": { "type": "Point", "coordinates": [ 283412.94, 4158095.02 ] } },
{ "type": "Feature", "properties": { "id": "osm:node/9002498104", "crossing": "traffic_signals", "crossing_markings": null, "road_id": "osm:way/41384059", "road_width": 8.0, "road_dx": 0.003593, "road_dy": 0.999994, "road_x": 283303.58, "road_y": 4158098.73, "foot_dx": 0.99932, "foot_dy": -0.03687, "crossing_island": false }, "geometry": { "type": "Point", "coordinates": [ 283303.58, 4158098.73 ] } },
{ "type": "Feature", "properties": { "id": "osm:node/7687533350", "crossing": "traffic_signals", "crossing_markings": null, "road_id": "osm:way/265141468", "road_width": 11.0, "road_dx": 0.999253, "road_dy": -0.038633, "road_x": 283420.28, "road_y": 4158102.42, "foot_dx": -0.045125, "foot_dy": -0.998981, "crossing_island": false }, "geometry": { "type": "Point", "coordinates": [ 283420.28, 4158102.42 ] } },
{ "type": "Feature", "properties": { "id": "osm:node/7690282231", "crossing": "unmarked", "crossing_markings": null, "road_id": "osm:way/174327782", "road_width": 7.0, "road_dx": -0.999181, "road_dy": 0.040459, "road_x": 283294.86, "road_y": 4158010.06, "foot_dx": null, "foot_dy": null, "crossing_island": false }, "geometry": { "type": "Point", "coordinates": [ 283294.91, 4158010.06 ] } },
{ "type": "Feature", "properties": { "id": "osm:node/7687533351", "crossing": "traffic_signals", "crossing_markings": null, "road_id": "osm:way/265141468", "road_width": 11.0, "road_dx": 0.999283, "road_dy": -0.037869, "road_x": 283406.82, "road_y": 4158102.94, "foot_dx": 0.052504, "foot_dy": 0.998621, "crossing_island": false }, "geometry": { "type": "Point", "coordinates": [ 283406.87, 4158102.94 ] } },
{ "type": "Feature", "properties": { "id": "osm:node/9002498103", "crossing": "traffic_signals", "crossing_markings": null, "road_id": "osm:way/265141468", "road_width": 11.0, "road_dx": 0.998808, "road_dy": -0.048813, "road_x": 283310.35, "road_y": 4158107.09, "foot_dx": 0.015836, "foot_dy": 0.999875, "crossing_island": false }, "geometry": { "type": "Point", "coordinates": [ 283310.3, 4158107.09 ] } },
{ "type": "Feature", "properties": { "id": "osm:node/7687533336", "crossing": "traffic_signals", "crossing_markings": null, "road_id": "osm:way/6036978", "road_width": 8.0, "road_dx": -0.054487, "road_dy": -0.998514, "road_x": 283413.7, "road_y": 4158112.31, "foot_dx": 0.999523, "foot_dy": -0.030874, "crossing_island": false }, "geometry": { "type": "Point", "coordinates": [ 283413.7, 4158112.31 ] } },
{ "type": "Feature", "properties": { "id": "osm:node/7687533339", "crossing": "traffic_signals", "crossing_markings": null, "road_id": "osm:way/6032947", "road_width": 8.0, "road_dx": 0.037148, "road_dy": 0.99931, "road_x": 283304.28, "road_y": 4158116.19, "foot_dx": -0.998592, "foot_dy": 0.053055, "crossing_island": false }, "geometry": { "type": "Point", "coordinates": [ 283304.28, 4158116.19 ] } },
{ "type": "Feature", "properties": { "id": "osm:node/7687530706", "crossing": "unmarked", "crossing_markings": null, "road_id": null, "road_width": null, "road_dx": null, "road_dy": null, "road_x": null, "road_y": null, "foot_dx": null, "foot_dy": null, "crossing_island": false }, "geometry": { "type": "Point", "coordinates": [ 283410.4, 4158170.14 ] } },
{ "type": "Feature", "properties": { "id": "osm:node/7687530701", "crossing": "unmarked", "crossing_markings": null, "road_id": "osm:way/6032947", "road_width": 8.0, "road_dx": 0.043268, "road_dy": 0.999064, "road_x": 283306.71, "road_y": 4158174.29, "foot_dx": null, "foot_dy": null, "crossing_island": false }, "geometry": { "type": "Point", "coordinates": [ 283312.34, 4158174.04 ] } },
{ "type": "Feature", "properties": { "id": "osm:node/7687530705", "crossing": "unmarked", "crossing_markings": null, "road_id": null, "road_width": null, "road_dx": null, "road_dy": null, "road_x": null, "road_y": null, "foot_dx": null, "foot_dy": null, "crossing_island": false }, "geometry": { "type": "Point", "coordinates": [ 283410.57, 4158175.05 ] } },
{ "type": "Feature", "properties": { "id": "osm:node/7687530700", "crossing": "unmarked", "crossing_markings": null, "road_id": "osm:way/6032947", "road_width": 8.0, "road_dx": 0.040601, "road_dy": 0.999175, "road_x": 283306.91, "road_y": 4158178.89, "foot_dx": null, "foot_dy": null, "crossing_island": false }, "geometry": { "type": "Point", "coordinates": [ 283312.46, 4158178.67 ] } },
{ "type": "Feature", "properties": { "id": "osm:node/7687530704", "crossing": "unmarked", "crossing_markings": null, "road_id": null, "road_width": null, "road_dx": null, "road_dy": null, "road_x": null, "road_y": null, "foot_dx": null, "foot_dy": null, "crossing_island": false }, "geometry": { "type": "Point", "coordinates": [ 283410.73, 4158179.49 ] } },
{ "type": "Feature", "properties": { "id": "osm:node/7687530699", "crossing": "unmarked", "crossing_markings": null, "road_id": "osm:way/6032947", "road_width": 8.0, "road_dx": 0.040601, "road_dy": 0.999175, "road_x": 283307.08, "road_y": 4158183.07, "foot_dx": null, "foot_dy": null, "crossing_island": false }, "geometry": { "type": "Point", "coordinates": [ 283312.56, 4158182.86 ] } },
{ "type": "Feature", "properties": { "id": "osm:node/7687533342", "crossing": "traffic_signals", "crossing_markings": null, "road_id": "osm:way/265141468", "road_width": 11.0, "road_dx": 0.998817, "road_dy": -0.048618, "road_x": 283297.56, "road_y": 4158107.71, "foot_dx": -0.027098, "foot_dy": -0.999633, "crossing_island": false }, "geometry": { "type": "Point", "coordinates": [ 283297.63, 4158107.71 ] } },
{ "type": "Feature", "properties": { "id": "osm:node/7687401780", "crossing": "traffic_signals", "crossing_markings": null, "road_id": "osm:way/6036978", "road_width": 8.0, "road_dx": -0.161726, "road_dy": -0.986836, "road_x": 283419.3, "road_y": 4158242.87, "foot_dx": -0.999729, "foot_dy": -0.023264, "crossing_island": false }, "geometry": { "type": "Point", "coordinates": [ 283419.3, 4158242.87 ] } },
{ "type": "Feature", "properties": { "id": "osm:node/7687401700", "crossing": "traffic_signals", "crossing_markings": null, "road_id": "osm:way/6032947", "road_width": 8.0, "road_dx": 0.028688, "road_dy": 0.999588, "road_x": 283308.91, "road_y": 4158246.62, "foot_dx": 0.999241, "foot_dy": -0.038953, "crossing_island": false }, "geometry": { "type": "Point", "coordinates": [ 283308.91, 4158246.62 ] } }
]
}
