{
"type": "FeatureCollection",
"name": "pois",
"crs": { "type": "name", "properties": { "name": "urn:ogc:def:crs:EPSG::32618" } },
"xy_coordinate_resolution": 0.01,
"features": [
{ "type": "Feature", "properties": { "id": "rva-tree:120676", "name": "Quercus bicolor", "kind": "tree", "species": "Quercus bicolor", "source": "city_inventory", "tree_height": 8.0, "crown_radius": 2.5, "height_source": "estimated" }, "geometry": { "type": "Point", "coordinates": [ 282811.09, 4155750.52 ] } },
{ "type": "Feature", "properties": { "id": "rva-tree:120675", "name": "Quercus macrocarpa", "kind": "tree", "species": "Quercus macrocarpa", "source": "city_inventory", "tree_height": 8.0, "crown_radius": 2.5, "height_source": "estimated" }, "geometry": { "type": "Point", "coordinates": [ 282815.79, 4155759.84 ] } },
{ "type": "Feature", "properties": { "id": "rva-tree:120668", "name": "Nyssa sylvatica", "kind": "tree", "species": "Nyssa sylvatica", "source": "city_inventory", "tree_height": 8.0, "crown_radius": 2.5, "height_source": "estimated" }, "geometry": { "type": "Point", "coordinates": [ 282881.65, 4155763.11 ] } },
{ "type": "Feature", "properties": { "id": "rva-tree:120734", "name": "Nyssa sylvatica", "kind": "tree", "species": "Nyssa sylvatica", "source": "city_inventory", "tree_height": 8.0, "crown_radius": 2.5, "height_source": "estimated" }, "geometry": { "type": "Point", "coordinates": [ 282811.04, 4155765.56 ] } },
{ "type": "Feature", "properties": { "id": "rva-tree:120671", "name": "Quercus nuttalli", "kind": "tree", "species": "Quercus nuttalli", "source": "city_inventory", "tree_height": 8.0, "crown_radius": 2.5, "height_source": "estimated" }, "geometry": { "type": "Point", "coordinates": [ 282868.23, 4155766.4 ] } },
{ "type": "Feature", "properties": { "id": "rva-tree:120674", "name": "Quercus macrocarpa", "kind": "tree", "species": "Quercus macrocarpa", "source": "city_inventory", "tree_height": 8.0, "crown_radius": 2.5, "height_source": "estimated" }, "geometry": { "type": "Point", "coordinates": [ 282826.05, 4155767.06 ] } },
{ "type": "Feature", "properties": { "id": "lidar-tree:282988:4155752", "name": null, "kind": "tree", "species": null, "source": "lidar2025", "tree_height": 8.0, "crown_radius": 6.0, "height_source": "lidar2025" }, "geometry": { "type": "Point", "coordinates": [ 282988.5, 4155751.5 ] } },
{ "type": "Feature", "properties": { "id": "lidar-tree:282976:4155756", "name": null, "kind": "tree", "species": null, "source": "lidar2025", "tree_height": 15.4, "crown_radius": 5.8, "height_source": "lidar2025" }, "geometry": { "type": "Point", "coordinates": [ 282976.5, 4155755.5 ] } },
{ "type": "Feature", "properties": { "id": "lidar-tree:282996:4155756", "name": null, "kind": "tree", "species": null, "source": "lidar2025", "tree_height": 13.6, "crown_radius": 6.0, "height_source": "lidar2025" }, "geometry": { "type": "Point", "coordinates": [ 282996.5, 4155755.5 ] } },
{ "type": "Feature", "properties": { "id": "lidar-tree:282980:4155766", "name": null, "kind": "tree", "species": null, "source": "lidar2025", "tree_height": 20.5, "crown_radius": 6.0, "height_source": "lidar2025" }, "geometry": { "type": "Point", "coordinates": [ 282980.5, 4155765.5 ] } },
{ "type": "Feature", "properties": { "id": "lidar-tree:282966:4155768", "name": null, "kind": "tree", "species": null, "source": "lidar2025", "tree_height": 20.0, "crown_radius": 6.0, "height_source": "lidar2025" }, "geometry": { "type": "Point", "coordinates": [ 282966.5, 4155767.5 ] } },
{ "type": "Feature", "properties": { "id": "lidar-tree:282992:4155772", "name": null, "kind": "tree", "species": null, "source": "lidar2025", "tree_height": 20.9, "crown_radius": 6.0, "height_source": "lidar2025" }, "geometry": { "type": "Point", "coordinates": [ 282991.5, 4155771.5 ] } },
{ "type": "Feature", "properties": { "id": "rva-tree:120673", "name": "Nyssa sylvatica", "kind": "tree", "species": "Nyssa sylvatica", "source": "city_inventory", "tree_height": 8.0, "crown_radius": 2.5, "height_source": "estimated" }, "geometry": { "type": "Point", "coordinates": [ 282839.76, 4155767.15 ] } },
{ "type": "Feature", "properties": { "id": "rva-tree:120672", "name": "Nyssa sylvatica", "kind": "tree", "species": "Nyssa sylvatica", "source": "city_inventory", "tree_height": 8.0, "crown_radius": 2.5, "height_source": "estimated" }, "geometry": { "type": "Point", "coordinates": [ 282854.92, 4155767.18 ] } },
{ "type": "Feature", "properties": { "id": "rva-tree:48892", "name": "Acer buergerianum", "kind": "tree", "species": "Acer buergerianum", "source": "city_inventory", "tree_height": 8.0, "crown_radius": 2.5, "height_source": "estimated" }, "geometry": { "type": "Point", "coordinates": [ 282821.44, 4155776.83 ] } },
{ "type": "Feature", "properties": { "id": "rva-tree:120669", "name": "Quercus nuttalli", "kind": "tree", "species": "Quercus nuttalli", "source": "city_inventory", "tree_height": 8.0, "crown_radius": 2.5, "height_source": "estimated" }, "geometry": { "type": "Point", "coordinates": [ 282880.75, 4155777.74 ] } },
{ "type": "Feature", "properties": { "id": "rva-tree:48894", "name": "Acer buergerianum", "kind": "tree", "species": "Acer buergerianum", "source": "city_inventory", "tree_height": 4.4, "crown_radius": 2.1, "height_source": "lidar2025" }, "geometry": { "type": "Point", "coordinates": [ 282840.78, 4155778.57 ] } },
{ "type": "Feature", "properties": { "id": "rva-tree:120733", "name": "Nyssa sylvatica", "kind": "tree", "species": "Nyssa sylvatica", "source": "city_inventory", "tree_height": 6.4, "crown_radius": 3.3, "height_source": "lidar2025" }, "geometry": { "type": "Point", "coordinates": [ 282809.71, 4155779.61 ] } },
{ "type": "Feature", "properties": { "id": "rva-tree:120670", "name": "Quercus nuttalli", "kind": "tree", "species": "Quercus nuttalli", "source": "city_inventory", "tree_height": 8.0, "crown_radius": 2.5, "height_source": "estimated" }, "geometry": { "type": "Point", "coordinates": [ 282865.24, 4155780.19 ] } },
{ "type": "Feature", "properties": { "id": "rva-tree:48893", "name": "Acer buergerianum", "kind": "tree", "species": "Acer buergerianum", "source": "city_inventory", "tree_height": 5.2, "crown_radius": 2.5, "height_source": "lidar2025" }, "geometry": { "type": "Point", "coordinates": [ 282829.8, 4155783.57 ] } },
{ "type": "Feature", "properties": { "id": "rva-tree:48895", "name": "Acer buergerianum", "kind": "tree", "species": "Acer buergerianum", "source": "city_inventory", "tree_height": 5.4, "crown_radius": 3.4, "height_source": "lidar2025" }, "geometry": { "type": "Point", "coordinates": [ 282848.4, 4155785.0 ] } },
{ "type": "Feature", "properties": { "id": "rva-tree:48896", "name": "Acer rubrum", "kind": "tree", "species": "Acer rubrum", "source": "city_inventory", "tree_height": 13.5, "crown_radius": 4.3, "height_source": "lidar2025" }, "geometry": { "type": "Point", "coordinates": [ 282840.43, 4155789.17 ] } },
{ "type": "Feature", "properties": { "id": "rva-tree:48592", "name": "Ilex cornuta", "kind": "tree", "species": "Ilex cornuta", "source": "city_inventory", "tree_height": 8.0, "crown_radius": 2.5, "height_source": "estimated" }, "geometry": { "type": "Point", "coordinates": [ 282921.58, 4155752.25 ] } },
{ "type": "Feature", "properties": { "id": "rva-tree:48593", "name": "Zelkova serrata", "kind": "tree", "species": "Zelkova serrata", "source": "city_inventory", "tree_height": 8.0, "crown_radius": 2.5, "height_source": "estimated" }, "geometry": { "type": "Point", "coordinates": [ 282920.0, 4155756.08 ] } },
{ "type": "Feature", "properties": { "id": "rva-tree:48600", "name": "Catalpa speciosa", "kind": "tree", "species": "Catalpa speciosa", "source": "city_inventory", "tree_height": 9.7, "crown_radius": 4.3, "height_source": "lidar2025" }, "geometry": { "type": "Point", "coordinates": [ 282900.3, 4155765.35 ] } },
{ "type": "Feature", "properties": { "id": "rva-tree:48594", "name": "Ulmus alata", "kind": "tree", "species": "Ulmus alata", "source": "city_inventory", "tree_height": 21.1, "crown_radius": 6.0, "height_source": "lidar2025" }, "geometry": { "type": "Point", "coordinates": [ 282914.46, 4155767.28 ] } },
{ "type": "Feature", "properties": { "id": "lidar-tree:282952:4155774", "name": null, "kind": "tree", "species": null, "source": "lidar2025", "tree_height": 17.3, "crown_radius": 6.0, "height_source": "lidar2025" }, "geometry": { "type": "Point", "coordinates": [ 282952.5, 4155773.5 ] } },
{ "type": "Feature", "properties": { "id": "rva-tree:48598", "name": "Taxodium distichum", "kind": "tree", "species": "Taxodium distichum", "source": "city_inventory", "tree_height": 14.7, "crown_radius": 4.1, "height_source": "lidar2025" }, "geometry": { "type": "Point", "coordinates": [ 282892.52, 4155780.67 ] } },
{ "type": "Feature", "properties": { "id": "rva-tree:48573", "name": "Ligustrum japonicum", "kind": "tree", "species": "Ligustrum japonicum", "source": "city_inventory", "tree_height": 4.1, "crown_radius": 4.9, "height_source": "lidar2025" }, "geometry": { "type": "Point", "coordinates": [ 282955.75, 4155793.72 ] } },
{ "type": "Feature", "properties": { "id": "rva-tree:48597", "name": "Zelkova serrata", "kind": "tree", "species": "Zelkova serrata", "source": "city_inventory", "tree_height": 11.4, "crown_radius": 6.0, "height_source": "lidar2025" }, "geometry": { "type": "Point", "coordinates": [ 282902.02, 4155794.29 ] } },
{ "type": "Feature", "properties": { "id": "lidar-tree:282944:4155806", "name": null, "kind": "tree", "species": null, "source": "lidar2025", "tree_height": 6.0, "crown_radius": 4.2, "height_source": "lidar2025" }, "geometry": { "type": "Point", "coordinates": [ 282944.5, 4155805.5 ] } },
{ "type": "Feature", "properties": { "id": "lidar-tree:282902:4155810", "name": null, "kind": "tree", "species": null, "source": "lidar2025", "tree_height": 4.7, "crown_radius": 3.5, "height_source": "lidar2025" }, "geometry": { "type": "Point", "coordinates": [ 282901.5, 4155809.5 ] } },
{ "type": "Feature", "properties": { "id": "lidar-tree:282798:4155752", "name": null, "kind": "tree", "species": null, "source": "lidar2025", "tree_height": 5.9, "crown_radius": 5.4, "height_source": "lidar2025" }, "geometry": { "type": "Point", "coordinates": [ 282798.5, 4155751.5 ] } },
{ "type": "Feature", "properties": { "id": "rva-tree:48884", "name": "Robinia pseudoacacia", "kind": "tree", "species": "Robinia pseudoacacia", "source": "city_inventory", "tree_height": 15.2, "crown_radius": 5.6, "height_source": "lidar2025" }, "geometry": { "type": "Point", "coordinates": [ 282782.54, 4155755.91 ] } },
{ "type": "Feature", "properties": { "id": "rva-tree:48886", "name": "Prunus serotina", "kind": "tree", "species": "Prunus serotina", "source": "city_inventory", "tree_height": 15.2, "crown_radius": 5.6, "height_source": "lidar2025" }, "geometry": { "type": "Point", "coordinates": [ 282787.09, 4155756.8 ] } },
{ "type": "Feature", "properties": { "id": "rva-tree:48885", "name": "Prunus serotina", "kind": "tree", "species": "Prunus serotina", "source": "city_inventory", "tree_height": 15.2, "crown_radius": 5.6, "height_source": "lidar2025" }, "geometry": { "type": "Point", "coordinates": [ 282784.96, 4155758.41 ] } },
{ "type": "Feature", "properties": { "id": "rva-tree:48891", "name": "Acer buergerianum", "kind": "tree", "species": "Acer buergerianum", "source": "city_inventory", "tree_height": 8.0, "crown_radius": 2.5, "height_source": "estimated" }, "geometry": { "type": "Point", "coordinates": [ 282798.86, 4155759.59 ] } },
{ "type": "Feature", "properties": { "id": "lidar-tree:282798:4155768", "name": null, "kind": "tree", "species": null, "source": "lidar2025", "tree_height": 24.7, "crown_radius": 6.0, "height_source": "lidar2025" }, "geometry": { "type": "Point", "coordinates": [ 282797.5, 4155767.5 ] } },
{ "type": "Feature", "properties": { "id": "lidar-tree:282772:4155772", "name": null, "kind": "tree", "species": null, "source": "lidar2025", "tree_height": 6.2, "crown_radius": 2.9, "height_source": "lidar2025" }, "geometry": { "type": "Point", "coordinates": [ 282771.5, 4155772.5 ] } },
{ "type": "Feature", "properties": { "id": "rva-tree:48887", "name": "Robinia pseudoacacia", "kind": "tree", "species": "Robinia pseudoacacia", "source": "city_inventory", "tree_height": 12.1, "crown_radius": 5.1, "height_source": "lidar2025" }, "geometry": { "type": "Point", "coordinates": [ 282780.8, 4155777.25 ] } },
{ "type": "Feature", "properties": { "id": "rva-tree:120732", "name": "Liriodendron tulipifera", "kind": "tree", "species": "Liriodendron tulipifera", "source": "city_inventory", "tree_height": 6.4, "crown_radius": 3.3, "height_source": "lidar2025" }, "geometry": { "type": "Point", "coordinates": [ 282802.91, 4155781.29 ] } },
{ "type": "Feature", "properties": { "id": "rva-tree:48888", "name": "Quercus phellos", "kind": "tree", "species": "Quercus phellos", "source": "city_inventory", "tree_height": 23.2, "crown_radius": 6.0, "height_source": "lidar2025" }, "geometry": { "type": "Point", "coordinates": [ 282774.15, 4155785.04 ] } },
{ "type": "Feature", "properties": { "id": "lidar-tree:282790:4155788", "name": null, "kind": "tree", "species": null, "source": "lidar2025", "tree_height": 19.4, "crown_radius": 6.0, "height_source": "lidar2025" }, "geometry": { "type": "Point", "coordinates": [ 282790.5, 4155787.5 ] } },
{ "type": "Feature", "properties": { "id": "lidar-tree:282800:4155796", "name": null, "kind": "tree", "species": null, "source": "lidar2025", "tree_height": 19.2, "crown_radius": 6.0, "height_source": "lidar2025" }, "geometry": { "type": "Point", "coordinates": [ 282799.5, 4155796.5 ] } },
{ "type": "Feature", "properties": { "id": "rva-tree:48890", "name": "Robinia pseudoacacia", "kind": "tree", "species": "Robinia pseudoacacia", "source": "city_inventory", "tree_height": 8.0, "crown_radius": 2.5, "height_source": "estimated" }, "geometry": { "type": "Point", "coordinates": [ 282772.72, 4155798.39 ] } },
{ "type": "Feature", "properties": { "id": "rva-tree:48889", "name": "Robinia pseudoacacia", "kind": "tree", "species": "Robinia pseudoacacia", "source": "city_inventory", "tree_height": 8.0, "crown_radius": 2.5, "height_source": "estimated" }, "geometry": { "type": "Point", "coordinates": [ 282771.14, 4155799.19 ] } },
{ "type": "Feature", "properties": { "id": "rva-tree:51009", "name": "Pinus taeda", "kind": "tree", "species": "Pinus taeda", "source": "city_inventory", "tree_height": 16.0, "crown_radius": 6.0, "height_source": "lidar2025" }, "geometry": { "type": "Point", "coordinates": [ 282807.64, 4155810.23 ] } },
{ "type": "Feature", "properties": { "id": "lidar-tree:282770:4155812", "name": null, "kind": "tree", "species": null, "source": "lidar2025", "tree_height": 11.7, "crown_radius": 5.0, "height_source": "lidar2025" }, "geometry": { "type": "Point", "coordinates": [ 282770.5, 4155811.5 ] } },
{ "type": "Feature", "properties": { "id": "lidar-tree:282768:4155820", "name": null, "kind": "tree", "species": null, "source": "lidar2025", "tree_height": 15.0, "crown_radius": 6.0, "height_source": "lidar2025" }, "geometry": { "type": "Point", "coordinates": [ 282768.5, 4155819.5 ] } },
{ "type": "Feature", "properties": { "id": "rva-tree:51010", "name": "Ulmus alata", "kind": "tree", "species": "Ulmus alata", "source": "city_inventory", "tree_height": 17.1, "crown_radius": 6.0, "height_source": "lidar2025" }, "geometry": { "type": "Point", "coordinates": [ 282790.48, 4155822.57 ] } },
{ "type": "Feature", "properties": { "id": "rva-tree:51011", "name": "Robinia pseudoacacia", "kind": "tree", "species": "Robinia pseudoacacia", "source": "city_inventory", "tree_height": 17.1, "crown_radius": 6.0, "height_source": "lidar2025" }, "geometry": { "type": "Point", "coordinates": [ 282790.27, 4155824.11 ] } },
{ "type": "Feature", "properties": { "id": "lidar-tree:282760:4155826", "name": null, "kind": "tree", "species": null, "source": "lidar2025", "tree_height": 15.9, "crown_radius": 6.0, "height_source": "lidar2025" }, "geometry": { "type": "Point", "coordinates": [ 282760.5, 4155825.5 ] } },
{ "type": "Feature", "properties": { "id": "lidar-tree:282766:4155832", "name": null, "kind": "tree", "species": null, "source": "lidar2025", "tree_height": 20.0, "crown_radius": 6.0, "height_source": "lidar2025" }, "geometry": { "type": "Point", "coordinates": [ 282765.5, 4155832.5 ] } },
{ "type": "Feature", "properties": { "id": "lidar-tree:282788:4155834", "name": null, "kind": "tree", "species": null, "source": "lidar2025", "tree_height": 26.6, "crown_radius": 6.0, "height_source": "lidar2025" }, "geometry": { "type": "Point", "coordinates": [ 282787.5, 4155833.5 ] } },
{ "type": "Feature", "properties": { "id": "lidar-tree:282766:4155850", "name": null, "kind": "tree", "species": null, "source": "lidar2025", "tree_height": 8.1, "crown_radius": 5.1, "height_source": "lidar2025" }, "geometry": { "type": "Point", "coordinates": [ 282765.5, 4155850.5 ] } },
{ "type": "Feature", "properties": { "id": "lidar-tree:282780:4155854", "name": null, "kind": "tree", "species": null, "source": "lidar2025", "tree_height": 14.1, "crown_radius": 5.0, "height_source": "lidar2025" }, "geometry": { "type": "Point", "coordinates": [ 282779.5, 4155853.5 ] } },
{ "type": "Feature", "properties": { "id": "lidar-tree:282988:4155780", "name": null, "kind": "tree", "species": null, "source": "lidar2025", "tree_height": 21.5, "crown_radius": 6.0, "height_source": "lidar2025" }, "geometry": { "type": "Point", "coordinates": [ 282987.5, 4155779.5 ] } },
{ "type": "Feature", "properties": { "id": "rva-tree:48574", "name": "Ailanthus altissima", "kind": "tree", "species": "Ailanthus altissima", "source": "city_inventory", "tree_height": 20.1, "crown_radius": 6.0, "height_source": "lidar2025" }, "geometry": { "type": "Point", "coordinates": [ 282970.27, 4155786.5 ] } },
{ "type": "Feature", "properties": { "id": "rva-tree:48572", "name": "Ligustrum japonicum", "kind": "tree", "species": "Ligustrum japonicum", "source": "city_inventory", "tree_height": 8.0, "crown_radius": 2.5, "height_source": "estimated" }, "geometry": { "type": "Point", "coordinates": [ 282969.01, 4155799.94 ] } },
{ "type": "Feature", "properties": { "id": "rva-tree:48571", "name": "Ligustrum japonicum", "kind": "tree", "species": "Ligustrum japonicum", "source": "city_inventory", "tree_height": 8.0, "crown_radius": 2.5, "height_source": "estimated" }, "geometry": { "type": "Point", "coordinates": [ 282980.85, 4155805.55 ] } },
{ "type": "Feature", "properties": { "id": "rva-tree:48570", "name": "Ulmus alata", "kind": "tree", "species": "Ulmus alata", "source": "city_inventory", "tree_height": 16.5, "crown_radius": 6.0, "height_source": "lidar2025" }, "geometry": { "type": "Point", "coordinates": [ 282984.24, 4155814.4 ] } },
{ "type": "Feature", "properties": { "id": "rva-tree:48897", "name": "Quercus bicolor", "kind": "tree", "species": "Quercus bicolor", "source": "city_inventory", "tree_height": 7.2, "crown_radius": 3.2, "height_source": "lidar2025" }, "geometry": { "type": "Point", "coordinates": [ 282861.98, 4155789.56 ] } },
{ "type": "Feature", "properties": { "id": "rva-tree:51005", "name": "Broussonetia papyrifera", "kind": "tree", "species": "Broussonetia papyrifera", "source": "city_inventory", "tree_height": 8.0, "crown_radius": 2.5, "height_source": "estimated" }, "geometry": { "type": "Point", "coordinates": [ 282838.18, 4155812.89 ] } },
{ "type": "Feature", "properties": { "id": "rva-tree:51004", "name": "Ailanthus altissima", "kind": "tree", "species": "Ailanthus altissima", "source": "city_inventory", "tree_height": 8.0, "crown_radius": 2.5, "height_source": "estimated" }, "geometry": { "type": "Point", "coordinates": [ 282840.97, 4155816.31 ] } },
{ "type": "Feature", "properties": { "id": "rva-tree:51006", "name": "Broussonetia papyrifera", "kind": "tree", "species": "Broussonetia papyrifera", "source": "city_inventory", "tree_height": 17.6, "crown_radius": 4.9, "height_source": "lidar2025" }, "geometry": { "type": "Point", "coordinates": [ 282831.48, 4155816.79 ] } },
{ "type": "Feature", "properties": { "id": "rva-tree:51003", "name": "Ulmus americana", "kind": "tree", "species": "Ulmus americana", "source": "city_inventory", "tree_height": 24.9, "crown_radius": 6.0, "height_source": "lidar2025" }, "geometry": { "type": "Point", "coordinates": [ 282867.12, 4155818.86 ] } },
{ "type": "Feature", "properties": { "id": "rva-tree:51008", "name": "Prunus serotina", "kind": "tree", "species": "Prunus serotina", "source": "city_inventory", "tree_height": 8.0, "crown_radius": 2.5, "height_source": "estimated" }, "geometry": { "type": "Point", "coordinates": [ 282824.67, 4155821.3 ] } },
{ "type": "Feature", "properties": { "id": "rva-tree:51002", "name": "Platanus occidentalis", "kind": "tree", "species": "Platanus occidentalis", "source": "city_inventory", "tree_height": 8.0, "crown_radius": 4.2, "height_source": "lidar2025" }, "geometry": { "type": "Point", "coordinates": [ 282850.93, 4155821.45 ] } },
{ "type": "Feature", "properties": { "id": "rva-tree:51007", "name": "Cornus florida", "kind": "tree", "species": "Cornus florida", "source": "city_inventory", "tree_height": 17.6, "crown_radius": 4.9, "height_source": "lidar2025" }, "geometry": { "type": "Point", "coordinates": [ 282830.8, 4155821.74 ] } },
{ "type": "Feature", "properties": { "id": "rva-tree:51001", "name": "Cornus florida", "kind": "tree", "species": "Cornus florida", "source": "city_inventory", "tree_height": 8.0, "crown_radius": 4.2, "height_source": "lidar2025" }, "geometry": { "type": "Point", "coordinates": [ 282853.1, 4155824.36 ] } },
{ "type": "Feature", "properties": { "id": "rva-tree:50992", "name": "Ailanthus altissima", "kind": "tree", "species": "Ailanthus altissima", "source": "city_inventory", "tree_height": 8.0, "crown_radius": 2.5, "height_source": "estimated" }, "geometry": { "type": "Point", "coordinates": [ 282877.74, 4155829.5 ] } },
{ "type": "Feature", "properties": { "id": "lidar-tree:282940:4155818", "name": null, "kind": "tree", "species": null, "source": "lidar2025", "tree_height": 5.5, "crown_radius": 3.7, "height_source": "lidar2025" }, "geometry": { "type": "Point", "coordinates": [ 282939.5, 4155818.5 ] } },
{ "type": "Feature", "properties": { "id": "lidar-tree:282910:4155824", "name": null, "kind": "tree", "species": null, "source": "lidar2025", "tree_height": 4.2, "crown_radius": 2.7, "height_source": "lidar2025" }, "geometry": { "type": "Point", "coordinates": [ 282910.5, 4155823.5 ] } },
{ "type": "Feature", "properties": { "id": "lidar-tree:282948:4155830", "name": null, "kind": "tree", "species": null, "source": "lidar2025", "tree_height": 5.9, "crown_radius": 2.8, "height_source": "lidar2025" }, "geometry": { "type": "Point", "coordinates": [ 282947.5, 4155830.5 ] } },
{ "type": "Feature", "properties": { "id": "lidar-tree:282886:4155834", "name": null, "kind": "tree", "species": null, "source": "lidar2025", "tree_height": 14.2, "crown_radius": 6.0, "height_source": "lidar2025" }, "geometry": { "type": "Point", "coordinates": [ 282885.5, 4155834.5 ] } },
{ "type": "Feature", "properties": { "id": "lidar-tree:282958:4155836", "name": null, "kind": "tree", "species": null, "source": "lidar2025", "tree_height": 5.1, "crown_radius": 3.4, "height_source": "lidar2025" }, "geometry": { "type": "Point", "coordinates": [ 282957.5, 4155835.5 ] } },
{ "type": "Feature", "properties": { "id": "lidar-tree:282914:4155840", "name": null, "kind": "tree", "species": null, "source": "lidar2025", "tree_height": 13.3, "crown_radius": 5.8, "height_source": "lidar2025" }, "geometry": { "type": "Point", "coordinates": [ 282914.5, 4155839.5 ] } },
{ "type": "Feature", "properties": { "id": "lidar-tree:282948:4155840", "name": null, "kind": "tree", "species": null, "source": "lidar2025", "tree_height": 7.9, "crown_radius": 4.3, "height_source": "lidar2025" }, "geometry": { "type": "Point", "coordinates": [ 282947.5, 4155840.5 ] } },
{ "type": "Feature", "properties": { "id": "lidar-tree:282892:4155844", "name": null, "kind": "tree", "species": null, "source": "lidar2025", "tree_height": 15.1, "crown_radius": 6.0, "height_source": "lidar2025" }, "geometry": { "type": "Point", "coordinates": [ 282892.5, 4155843.5 ] } },
{ "type": "Feature", "properties": { "id": "rva-tree:50993", "name": "Ilex vomitoria", "kind": "tree", "species": "Ilex vomitoria", "source": "city_inventory", "tree_height": 20.6, "crown_radius": 6.0, "height_source": "lidar2025" }, "geometry": { "type": "Point", "coordinates": [ 282886.56, 4155845.86 ] } },
{ "type": "Feature", "properties": { "id": "rva-tree:50990", "name": "Fagus grandifolia", "kind": "tree", "species": "Fagus grandifolia", "source": "city_inventory", "tree_height": 18.3, "crown_radius": 6.0, "height_source": "lidar2025" }, "geometry": { "type": "Point", "coordinates": [ 282894.23, 4155851.53 ] } },
{ "type": "Feature", "properties": { "id": "lidar-tree:282820:4155834", "name": null, "kind": "tree", "species": null, "source": "lidar2025", "tree_height": 21.5, "crown_radius": 6.0, "height_source": "lidar2025" }, "geometry": { "type": "Point", "coordinates": [ 282820.5, 4155834.5 ] } },
{ "type": "Feature", "properties": { "id": "lidar-tree:282834:4155836", "name": null, "kind": "tree", "species": null, "source": "lidar2025", "tree_height": 23.8, "crown_radius": 6.0, "height_source": "lidar2025" }, "geometry": { "type": "Point", "coordinates": [ 282833.5, 4155836.5 ] } },
{ "type": "Feature", "properties": { "id": "rva-tree:50999", "name": "Prunus serotina", "kind": "tree", "species": "Prunus serotina", "source": "city_inventory", "tree_height": 23.1, "crown_radius": 6.0, "height_source": "lidar2025" }, "geometry": { "type": "Point", "coordinates": [ 282824.82, 4155841.57 ] } },
{ "type": "Feature", "properties": { "id": "rva-tree:51000", "name": "Betula nigra", "kind": "tree", "species": "Betula nigra", "source": "city_inventory", "tree_height": 8.0, "crown_radius": 2.5, "height_source": "estimated" }, "geometry": { "type": "Point", "coordinates": [ 282838.53, 4155841.92 ] } },
{ "type": "Feature", "properties": { "id": "rva-tree:50991", "name": "Betula nigra", "kind": "tree", "species": "Betula nigra", "source": "city_inventory", "tree_height": 13.1, "crown_radius": 4.7, "height_source": "lidar2025" }, "geometry": { "type": "Point", "coordinates": [ 282865.11, 4155854.04 ] } },
{ "type": "Feature", "properties": { "id": "lidar-tree:282864:4155860", "name": null, "kind": "tree", "species": null, "source": "lidar2025", "tree_height": 13.1, "crown_radius": 4.7, "height_source": "lidar2025" }, "geometry": { "type": "Point", "coordinates": [ 282863.5, 4155860.5 ] } },
{ "type": "Feature", "properties": { "id": "lidar-tree:282814:4155862", "name": null, "kind": "tree", "species": null, "source": "lidar2025", "tree_height": 16.0, "crown_radius": 5.9, "height_source": "lidar2025" }, "geometry": { "type": "Point", "coordinates": [ 282814.5, 4155862.5 ] } },
{ "type": "Feature", "properties": { "id": "rva-tree:50998", "name": "Ulmus americana", "kind": "tree", "species": "Ulmus americana", "source": "city_inventory", "tree_height": 20.3, "crown_radius": 6.0, "height_source": "lidar2025" }, "geometry": { "type": "Point", "coordinates": [ 282837.54, 4155865.29 ] } },
{ "type": "Feature", "properties": { "id": "lidar-tree:282824:4155866", "name": null, "kind": "tree", "species": null, "source": "lidar2025", "tree_height": 19.3, "crown_radius": 6.0, "height_source": "lidar2025" }, "geometry": { "type": "Point", "coordinates": [ 282824.5, 4155865.5 ] } },
{ "type": "Feature", "properties": { "id": "rva-tree:50995", "name": "Robinia pseudoacacia", "kind": "tree", "species": "Robinia pseudoacacia", "source": "city_inventory", "tree_height": 22.3, "crown_radius": 6.0, "height_source": "lidar2025" }, "geometry": { "type": "Point", "coordinates": [ 282879.81, 4155871.0 ] } },
{ "type": "Feature", "properties": { "id": "lidar-tree:282890:4155856", "name": null, "kind": "tree", "species": null, "source": "lidar2025", "tree_height": 18.3, "crown_radius": 6.0, "height_source": "lidar2025" }, "geometry": { "type": "Point", "coordinates": [ 282889.5, 4155856.5 ] } },
{ "type": "Feature", "properties": { "id": "rva-tree:48557", "name": "Lagerstroemia indica", "kind": "tree", "species": "Lagerstroemia indica", "source": "city_inventory", "tree_height": 8.0, "crown_radius": 2.5, "height_source": "estimated" }, "geometry": { "type": "Point", "coordinates": [ 282923.2, 4155858.61 ] } },
{ "type": "Feature", "properties": { "id": "rva-tree:48558", "name": "Lagerstroemia indica", "kind": "tree", "species": "Lagerstroemia indica", "source": "city_inventory", "tree_height": 8.0, "crown_radius": 2.5, "height_source": "estimated" }, "geometry": { "type": "Point", "coordinates": [ 282925.01, 4155859.07 ] } },
{ "type": "Feature", "properties": { "id": "rva-tree:48559", "name": "Lagerstroemia indica", "kind": "tree", "species": "Lagerstroemia indica", "source": "city_inventory", "tree_height": 8.0, "crown_radius": 2.5, "height_source": "estimated" }, "geometry": { "type": "Point", "coordinates": [ 282927.06, 4155862.39 ] } },
{ "type": "Feature", "properties": { "id": "rva-tree:48560", "name": "Prunus serotina", "kind": "tree", "species": "Prunus serotina", "source": "city_inventory", "tree_height": 17.1, "crown_radius": 5.9, "height_source": "lidar2025" }, "geometry": { "type": "Point", "coordinates": [ 282935.96, 4155863.99 ] } },
{ "type": "Feature", "properties": { "id": "rva-tree:50994", "name": "Celtis occidentalis", "kind": "tree", "species": "Celtis occidentalis", "source": "city_inventory", "tree_height": 22.3, "crown_radius": 6.0, "height_source": "lidar2025" }, "geometry": { "type": "Point", "coordinates": [ 282882.18, 4155865.22 ] } },
{ "type": "Feature", "properties": { "id": "rva-tree:48562", "name": "Cornus florida", "kind": "tree", "species": "Cornus florida", "source": "city_inventory", "tree_height": 17.1, "crown_radius": 5.9, "height_source": "lidar2025" }, "geometry": { "type": "Point", "coordinates": [ 282942.6, 4155867.33 ] } },
{ "type": "Feature", "properties": { "id": "rva-tree:48561", "name": "Morus alba", "kind": "tree", "species": "Morus alba", "source": "city_inventory", "tree_height": 17.1, "crown_radius": 5.9, "height_source": "lidar2025" }, "geometry": { "type": "Point", "coordinates": [ 282939.76, 4155867.7 ] } },
{ "type": "Feature", "properties": { "id": "rva-tree:48563", "name": "Lagerstroemia indica", "kind": "tree", "species": "Lagerstroemia indica", "source": "city_inventory", "tree_height": 8.0, "crown_radius": 2.5, "height_source": "estimated" }, "geometry": { "type": "Point", "coordinates": [ 282945.57, 4155870.28 ] } },
{ "type": "Feature", "properties": { "id": "lidar-tree:282888:4155876", "name": null, "kind": "tree", "species": null, "source": "lidar2025", "tree_height": 19.3, "crown_radius": 6.0, "height_source": "lidar2025" }, "geometry": { "type": "Point", "coordinates": [ 282888.5, 4155876.5 ] } },
{ "type": "Feature", "properties": { "id": "lidar-tree:282968:4155838", "name": null, "kind": "tree", "species": null, "source": "lidar2025", "tree_height": 6.9, "crown_radius": 2.2, "height_source": "lidar2025" }, "geometry": { "type": "Point", "coordinates": [ 282968.5, 4155838.5 ] } },
{ "type": "Feature", "properties": { "id": "rva-tree:48693", "name": "Ulmus alata", "kind": "tree", "species": "Ulmus alata", "source": "city_inventory", "tree_height": 4.0, "crown_radius": 2.5, "height_source": "lidar2025" }, "geometry": { "type": "Point", "coordinates": [ 282983.51, 4155842.4 ] } },
{ "type": "Feature", "properties": { "id": "rva-tree:48566", "name": "Paulownia tomentosa", "kind": "tree", "species": "Paulownia tomentosa", "source": "city_inventory", "tree_height": 14.2, "crown_radius": 6.0, "height_source": "lidar2025" }, "geometry": { "type": "Point", "coordinates": [ 282961.56, 4155856.92 ] } },
{ "type": "Feature", "properties": { "id": "rva-tree:48695", "name": "Ulmus alata", "kind": "tree", "species": "Ulmus alata", "source": "city_inventory", "tree_height": 18.6, "crown_radius": 6.0, "height_source": "lidar2025" }, "geometry": { "type": "Point", "coordinates": [ 282973.29, 4155865.03 ] } },
{ "type": "Feature", "properties": { "id": "lidar-tree:282982:4155892", "name": null, "kind": "tree", "species": null, "source": "lidar2025", "tree_height": 11.4, "crown_radius": 3.8, "height_source": "lidar2025" }, "geometry": { "type": "Point", "coordinates": [ 282981.5, 4155892.5 ] } },
{ "type": "Feature", "properties": { "id": "lidar-tree:282996:4155900", "name": null, "kind": "tree", "species": null, "source": "lidar2025", "tree_height": 10.6, "crown_radius": 3.5, "height_source": "lidar2025" }, "geometry": { "type": "Point", "coordinates": [ 282995.5, 4155899.5 ] } },
{ "type": "Feature", "properties": { "id": "lidar-tree:282898:4155888", "name": null, "kind": "tree", "species": null, "source": "lidar2025", "tree_height": 26.1, "crown_radius": 6.0, "height_source": "lidar2025" }, "geometry": { "type": "Point", "coordinates": [ 282898.5, 4155888.5 ] } },
{ "type": "Feature", "properties": { "id": "rva-tree:50982", "name": "Ulmus americana", "kind": "tree", "species": "Ulmus americana", "source": "city_inventory", "tree_height": 19.7, "crown_radius": 6.0, "height_source": "lidar2025" }, "geometry": { "type": "Point", "coordinates": [ 282949.31, 4155890.23 ] } },
{ "type": "Feature", "properties": { "id": "lidar-tree:282884:4155890", "name": null, "kind": "tree", "species": null, "source": "lidar2025", "tree_height": 19.2, "crown_radius": 6.0, "height_source": "lidar2025" }, "geometry": { "type": "Point", "coordinates": [ 282883.5, 4155890.5 ] } },
{ "type": "Feature", "properties": { "id": "lidar-tree:282924:4155892", "name": null, "kind": "tree", "species": null, "source": "lidar2025", "tree_height": 21.8, "crown_radius": 6.0, "height_source": "lidar2025" }, "geometry": { "type": "Point", "coordinates": [ 282924.5, 4155892.5 ] } },
{ "type": "Feature", "properties": { "id": "osm:node/3873415508", "name": null, "kind": "bench", "species": null, "source": null, "tree_height": null, "crown_radius": null, "height_source": null }, "geometry": { "type": "Point", "coordinates": [ 282946.04, 4155898.31 ] } },
{ "type": "Feature", "properties": { "id": "rva-tree:50981", "name": "Quercus rubra", "kind": "tree", "species": "Quercus rubra", "source": "city_inventory", "tree_height": 21.6, "crown_radius": 6.0, "height_source": "lidar2025" }, "geometry": { "type": "Point", "coordinates": [ 282941.37, 4155900.03 ] } },
{ "type": "Feature", "properties": { "id": "rva-tree:50980", "name": "Quercus rubra", "kind": "tree", "species": "Quercus rubra", "source": "city_inventory", "tree_height": 21.6, "crown_radius": 6.0, "height_source": "lidar2025" }, "geometry": { "type": "Point", "coordinates": [ 282943.21, 4155903.22 ] } },
{ "type": "Feature", "properties": { "id": "lidar-tree:282926:4155904", "name": null, "kind": "tree", "species": null, "source": "lidar2025", "tree_height": 19.0, "crown_radius": 6.0, "height_source": "lidar2025" }, "geometry": { "type": "Point", "coordinates": [ 282925.5, 4155903.5 ] } },
{ "type": "Feature", "properties": { "id": "rva-tree:50988", "name": "Ulmus alata", "kind": "tree", "species": "Ulmus alata", "source": "city_inventory", "tree_height": 21.6, "crown_radius": 6.0, "height_source": "lidar2025" }, "geometry": { "type": "Point", "coordinates": [ 282941.24, 4155903.69 ] } },
{ "type": "Feature", "properties": { "id": "rva-tree:50989", "name": "Quercus prinus", "kind": "tree", "species": "Quercus prinus", "source": "city_inventory", "tree_height": 21.6, "crown_radius": 6.0, "height_source": "lidar2025" }, "geometry": { "type": "Point", "coordinates": [ 282940.12, 4155905.72 ] } },
{ "type": "Feature", "properties": { "id": "rva-tree:50997", "name": "Pinus palustris", "kind": "tree", "species": "Pinus palustris", "source": "city_inventory", "tree_height": 23.3, "crown_radius": 6.0, "height_source": "lidar2025" }, "geometry": { "type": "Point", "coordinates": [ 282858.19, 4155873.7 ] } },
{ "type": "Feature", "properties": { "id": "rva-tree:50996", "name": "Robinia pseudoacacia", "kind": "tree", "species": "Robinia pseudoacacia", "source": "city_inventory", "tree_height": 8.0, "crown_radius": 2.5, "height_source": "estimated" }, "geometry": { "type": "Point", "coordinates": [ 282873.25, 4155876.14 ] } },
{ "type": "Feature", "properties": { "id": "lidar-tree:282874:4155888", "name": null, "kind": "tree", "species": null, "source": "lidar2025", "tree_height": 17.6, "crown_radius": 6.0, "height_source": "lidar2025" }, "geometry": { "type": "Point", "coordinates": [ 282873.5, 4155887.5 ] } },
{ "type": "Feature", "properties": { "id": "lidar-tree:282824:4155896", "name": null, "kind": "tree", "species": null, "source": "lidar2025", "tree_height": 15.2, "crown_radius": 6.0, "height_source": "lidar2025" }, "geometry": { "type": "Point", "coordinates": [ 282824.5, 4155896.5 ] } },
{ "type": "Feature", "properties": { "id": "lidar-tree:282864:4155910", "name": null, "kind": "tree", "species": null, "source": "lidar2025", "tree_height": 14.1, "crown_radius": 5.8, "height_source": "lidar2025" }, "geometry": { "type": "Point", "coordinates": [ 282864.5, 4155909.5 ] } },
{ "type": "Feature", "properties": { "id": "lidar-tree:282816:4155914", "name": null, "kind": "tree", "species": null, "source": "lidar2025", "tree_height": 17.6, "crown_radius": 6.0, "height_source": "lidar2025" }, "geometry": { "type": "Point", "coordinates": [ 282816.5, 4155913.5 ] } },
{ "type": "Feature", "properties": { "id": "lidar-tree:282878:4155916", "name": null, "kind": "tree", "species": null, "source": "lidar2025", "tree_height": 10.0, "crown_radius": 6.0, "height_source": "lidar2025" }, "geometry": { "type": "Point", "coordinates": [ 282877.5, 4155916.5 ] } },
{ "type": "Feature", "properties": { "id": "lidar-tree:282822:4155920", "name": null, "kind": "tree", "species": null, "source": "lidar2025", "tree_height": 19.6, "crown_radius": 6.0, "height_source": "lidar2025" }, "geometry": { "type": "Point", "coordinates": [ 282822.5, 4155920.5 ] } },
{ "type": "Feature", "properties": { "id": "lidar-tree:282854:4155924", "name": null, "kind": "tree", "species": null, "source": "lidar2025", "tree_height": 19.2, "crown_radius": 6.0, "height_source": "lidar2025" }, "geometry": { "type": "Point", "coordinates": [ 282853.5, 4155924.5 ] } },
{ "type": "Feature", "properties": { "id": "lidar-tree:282862:4155926", "name": null, "kind": "tree", "species": null, "source": "lidar2025", "tree_height": 21.1, "crown_radius": 6.0, "height_source": "lidar2025" }, "geometry": { "type": "Point", "coordinates": [ 282862.5, 4155926.5 ] } },
{ "type": "Feature", "properties": { "id": "rva-tree:50985", "name": "Fagus grandifolia", "kind": "tree", "species": "Fagus grandifolia", "source": "city_inventory", "tree_height": 23.2, "crown_radius": 6.0, "height_source": "lidar2025" }, "geometry": { "type": "Point", "coordinates": [ 282962.15, 4155911.88 ] } },
{ "type": "Feature", "properties": { "id": "lidar-tree:282966:4155916", "name": null, "kind": "tree", "species": null, "source": "lidar2025", "tree_height": 23.2, "crown_radius": 6.0, "height_source": "lidar2025" }, "geometry": { "type": "Point", "coordinates": [ 282966.5, 4155916.5 ] } },
{ "type": "Feature", "properties": { "id": "lidar-tree:282992:4155920", "name": null, "kind": "tree", "species": null, "source": "lidar2025", "tree_height": 24.1, "crown_radius": 6.0, "height_source": "lidar2025" }, "geometry": { "type": "Point", "coordinates": [ 282991.5, 4155920.5 ] } },
{ "type": "Feature", "properties": { "id": "lidar-tree:282982:4155926", "name": null, "kind": "tree", "species": null, "source": "lidar2025", "tree_height": 26.5, "crown_radius": 6.0, "height_source": "lidar2025" }, "geometry": { "type": "Point", "coordinates": [ 282981.5, 4155926.5 ] } },
{ "type": "Feature", "properties": { "id": "lidar-tree:283000:4155932", "name": null, "kind": "tree", "species": null, "source": "lidar2025", "tree_height": 24.9, "crown_radius": 6.0, "height_source": "lidar2025" }, "geometry": { "type": "Point", "coordinates": [ 282999.5, 4155931.5 ] } },
{ "type": "Feature", "properties": { "id": "lidar-tree:282992:4155936", "name": null, "kind": "tree", "species": null, "source": "lidar2025", "tree_height": 28.3, "crown_radius": 6.0, "height_source": "lidar2025" }, "geometry": { "type": "Point", "coordinates": [ 282991.5, 4155936.5 ] } },
{ "type": "Feature", "properties": { "id": "lidar-tree:282982:4155936", "name": null, "kind": "tree", "species": null, "source": "lidar2025", "tree_height": 25.9, "crown_radius": 6.0, "height_source": "lidar2025" }, "geometry": { "type": "Point", "coordinates": [ 282982.5, 4155936.5 ] } },
{ "type": "Feature", "properties": { "id": "lidar-tree:282920:4155910", "name": null, "kind": "tree", "species": null, "source": "lidar2025", "tree_height": 17.0, "crown_radius": 5.9, "height_source": "lidar2025" }, "geometry": { "type": "Point", "coordinates": [ 282919.5, 4155909.5 ] } },
{ "type": "Feature", "properties": { "id": "rva-tree:50987", "name": "Quercus rubra", "kind": "tree", "species": "Quercus rubra", "source": "city_inventory", "tree_height": 8.0, "crown_radius": 2.5, "height_source": "estimated" }, "geometry": { "type": "Point", "coordinates": [ 282942.9, 4155910.87 ] } },
{ "type": "Feature", "properties": { "id": "rva-tree:50984", "name": "Fagus grandifolia", "kind": "tree", "species": "Fagus grandifolia", "source": "city_inventory", "tree_height": 8.0, "crown_radius": 2.5, "height_source": "estimated" }, "geometry": { "type": "Point", "coordinates": [ 282956.37, 4155911.9 ] } },
{ "type": "Feature", "properties": { "id": "rva-tree:50983", "name": "Quercus phellos", "kind": "tree", "species": "Quercus phellos", "source": "city_inventory", "tree_height": 8.0, "crown_radius": 2.5, "height_source": "estimated" }, "geometry": { "type": "Point", "coordinates": [ 282953.98, 4155912.12 ] } },
{ "type": "Feature", "properties": { "id": "rva-tree:50986", "name": "Quercus rubra", "kind": "tree", "species": "Quercus rubra", "source": "city_inventory", "tree_height": 8.0, "crown_radius": 2.5, "height_source": "estimated" }, "geometry": { "type": "Point", "coordinates": [ 282948.52, 4155913.72 ] } },
{ "type": "Feature", "properties": { "id": "lidar-tree:282938:4155918", "name": null, "kind": "tree", "species": null, "source": "lidar2025", "tree_height": 26.9, "crown_radius": 5.7, "height_source": "lidar2025" }, "geometry": { "type": "Point", "coordinates": [ 282937.5, 4155918.5 ] } },
{ "type": "Feature", "properties": { "id": "lidar-tree:282882:4155928", "name": null, "kind": "tree", "species": null, "source": "lidar2025", "tree_height": 14.6, "crown_radius": 6.0, "height_source": "lidar2025" }, "geometry": { "type": "Point", "coordinates": [ 282882.5, 4155927.5 ] } },
{ "type": "Feature", "properties": { "id": "lidar-tree:282892:4155930", "name": null, "kind": "tree", "species": null, "source": "lidar2025", "tree_height": 13.0, "crown_radius": 6.0, "height_source": "lidar2025" }, "geometry": { "type": "Point", "coordinates": [ 282892.5, 4155929.5 ] } },
{ "type": "Feature", "properties": { "id": "lidar-tree:282902:4155932", "name": null, "kind": "tree", "species": null, "source": "lidar2025", "tree_height": 15.3, "crown_radius": 6.0, "height_source": "lidar2025" }, "geometry": { "type": "Point", "coordinates": [ 282902.5, 4155932.5 ] } },
{ "type": "Feature", "properties": { "id": "lidar-tree:282924:4155938", "name": null, "kind": "tree", "species": null, "source": "lidar2025", "tree_height": 10.1, "crown_radius": 4.7, "height_source": "lidar2025" }, "geometry": { "type": "Point", "coordinates": [ 282924.5, 4155938.5 ] } },
{ "type": "Feature", "properties": { "id": "lidar-tree:282972:4155938", "name": null, "kind": "tree", "species": null, "source": "lidar2025", "tree_height": 29.3, "crown_radius": 6.0, "height_source": "lidar2025" }, "geometry": { "type": "Point", "coordinates": [ 282972.5, 4155938.5 ] } },
{ "type": "Feature", "properties": { "id": "lidar-tree:282962:4155972", "name": null, "kind": "tree", "species": null, "source": "lidar2025", "tree_height": 23.6, "crown_radius": 6.0, "height_source": "lidar2025" }, "geometry": { "type": "Point", "coordinates": [ 282961.5, 4155972.5 ] } },
{ "type": "Feature", "properties": { "id": "lidar-tree:282982:4155980", "name": null, "kind": "tree", "species": null, "source": "lidar2025", "tree_height": 20.1, "crown_radius": 6.0, "height_source": "lidar2025" }, "geometry": { "type": "Point", "coordinates": [ 282981.5, 4155979.5 ] } },
{ "type": "Feature", "properties": { "id": "lidar-tree:283000:4155980", "name": null, "kind": "tree", "species": null, "source": "lidar2025", "tree_height": 19.7, "crown_radius": 6.0, "height_source": "lidar2025" }, "geometry": { "type": "Point", "coordinates": [ 282999.5, 4155980.5 ] } },
{ "type": "Feature", "properties": { "id": "lidar-tree:282954:4155970", "name": null, "kind": "tree", "species": null, "source": "lidar2025", "tree_height": 21.5, "crown_radius": 6.0, "height_source": "lidar2025" }, "geometry": { "type": "Point", "coordinates": [ 282953.5, 4155969.5 ] } },
{ "type": "Feature", "properties": { "id": "lidar-tree:282988:4155992", "name": null, "kind": "tree", "species": null, "source": "lidar2025", "tree_height": 14.3, "crown_radius": 6.0, "height_source": "lidar2025" }, "geometry": { "type": "Point", "coordinates": [ 282987.5, 4155991.5 ] } },
{ "type": "Feature", "properties": { "id": "lidar-tree:282964:4155992", "name": null, "kind": "tree", "species": null, "source": "lidar2025", "tree_height": 19.8, "crown_radius": 6.0, "height_source": "lidar2025" }, "geometry": { "type": "Point", "coordinates": [ 282964.5, 4155992.5 ] } },
{ "type": "Feature", "properties": { "id": "lidar-tree:282800:4155856", "name": null, "kind": "tree", "species": null, "source": "lidar2025", "tree_height": 19.6, "crown_radius": 5.6, "height_source": "lidar2025" }, "geometry": { "type": "Point", "coordinates": [ 282799.5, 4155855.5 ] } },
{ "type": "Feature", "properties": { "id": "lidar-tree:282762:4155882", "name": null, "kind": "tree", "species": null, "source": "lidar2025", "tree_height": 19.0, "crown_radius": 6.0, "height_source": "lidar2025" }, "geometry": { "type": "Point", "coordinates": [ 282762.5, 4155881.5 ] } },
{ "type": "Feature", "properties": { "id": "lidar-tree:282752:4155888", "name": null, "kind": "tree", "species": null, "source": "lidar2025", "tree_height": 23.8, "crown_radius": 6.0, "height_source": "lidar2025" }, "geometry": { "type": "Point", "coordinates": [ 282752.5, 4155887.5 ] } },
{ "type": "Feature", "properties": { "id": "lidar-tree:282772:4155888", "name": null, "kind": "tree", "species": null, "source": "lidar2025", "tree_height": 21.5, "crown_radius": 6.0, "height_source": "lidar2025" }, "geometry": { "type": "Point", "coordinates": [ 282771.5, 4155888.5 ] } },
{ "type": "Feature", "properties": { "id": "lidar-tree:282796:4155890", "name": null, "kind": "tree", "species": null, "source": "lidar2025", "tree_height": 18.1, "crown_radius": 5.5, "height_source": "lidar2025" }, "geometry": { "type": "Point", "coordinates": [ 282796.5, 4155890.5 ] } },
{ "type": "Feature", "properties": { "id": "lidar-tree:282788:4155896", "name": null, "kind": "tree", "species": null, "source": "lidar2025", "tree_height": 22.8, "crown_radius": 6.0, "height_source": "lidar2025" }, "geometry": { "type": "Point", "coordinates": [ 282787.5, 4155896.5 ] } },
{ "type": "Feature", "properties": { "id": "lidar-tree:282776:4155898", "name": null, "kind": "tree", "species": null, "source": "lidar2025", "tree_height": 21.6, "crown_radius": 6.0, "height_source": "lidar2025" }, "geometry": { "type": "Point", "coordinates": [ 282775.5, 4155898.5 ] } },
{ "type": "Feature", "properties": { "id": "lidar-tree:282808:4155900", "name": null, "kind": "tree", "species": null, "source": "lidar2025", "tree_height": 16.5, "crown_radius": 5.6, "height_source": "lidar2025" }, "geometry": { "type": "Point", "coordinates": [ 282808.5, 4155900.5 ] } },
{ "type": "Feature", "properties": { "id": "lidar-tree:282758:4155902", "name": null, "kind": "tree", "species": null, "source": "lidar2025", "tree_height": 25.9, "crown_radius": 6.0, "height_source": "lidar2025" }, "geometry": { "type": "Point", "coordinates": [ 282757.5, 4155901.5 ] } },
{ "type": "Feature", "properties": { "id": "lidar-tree:282798:4155902", "name": null, "kind": "tree", "species": null, "source": "lidar2025", "tree_height": 16.0, "crown_radius": 6.0, "height_source": "lidar2025" }, "geometry": { "type": "Point", "coordinates": [ 282798.5, 4155902.5 ] } },
{ "type": "Feature", "properties": { "id": "lidar-tree:282766:4155906", "name": null, "kind": "tree", "species": null, "source": "lidar2025", "tree_height": 21.9, "crown_radius": 5.1, "height_source": "lidar2025" }, "geometry": { "type": "Point", "coordinates": [ 282765.5, 4155905.5 ] } },
{ "type": "Feature", "properties": { "id": "lidar-tree:282776:4155912", "name": null, "kind": "tree", "species": null, "source": "lidar2025", "tree_height": 20.5, "crown_radius": 6.0, "height_source": "lidar2025" }, "geometry": { "type": "Point", "coordinates": [ 282776.5, 4155911.5 ] } },
{ "type": "Feature", "properties": { "id": "lidar-tree:282756:4155916", "name": null, "kind": "tree", "species": null, "source": "lidar2025", "tree_height": 19.4, "crown_radius": 6.0, "height_source": "lidar2025" }, "geometry": { "type": "Point", "coordinates": [ 282755.5, 4155915.5 ] } },
{ "type": "Feature", "properties": { "id": "lidar-tree:282798:4155916", "name": null, "kind": "tree", "species": null, "source": "lidar2025", "tree_height": 19.1, "crown_radius": 6.0, "height_source": "lidar2025" }, "geometry": { "type": "Point", "coordinates": [ 282798.5, 4155915.5 ] } },
{ "type": "Feature", "properties": { "id": "lidar-tree:282808:4155918", "name": null, "kind": "tree", "species": null, "source": "lidar2025", "tree_height": 22.9, "crown_radius": 6.0, "height_source": "lidar2025" }, "geometry": { "type": "Point", "coordinates": [ 282807.5, 4155917.5 ] } },
{ "type": "Feature", "properties": { "id": "lidar-tree:282790:4155920", "name": null, "kind": "tree", "species": null, "source": "lidar2025", "tree_height": 15.3, "crown_radius": 5.3, "height_source": "lidar2025" }, "geometry": { "type": "Point", "coordinates": [ 282790.5, 4155919.5 ] } },
{ "type": "Feature", "properties": { "id": "lidar-tree:282752:4155926", "name": null, "kind": "tree", "species": null, "source": "lidar2025", "tree_height": 21.7, "crown_radius": 6.0, "height_source": "lidar2025" }, "geometry": { "type": "Point", "coordinates": [ 282752.5, 4155926.5 ] } },
{ "type": "Feature", "properties": { "id": "lidar-tree:282792:4155930", "name": null, "kind": "tree", "species": null, "source": "lidar2025", "tree_height": 22.6, "crown_radius": 6.0, "height_source": "lidar2025" }, "geometry": { "type": "Point", "coordinates": [ 282791.5, 4155929.5 ] } },
{ "type": "Feature", "properties": { "id": "lidar-tree:282802:4155932", "name": null, "kind": "tree", "species": null, "source": "lidar2025", "tree_height": 23.0, "crown_radius": 6.0, "height_source": "lidar2025" }, "geometry": { "type": "Point", "coordinates": [ 282801.5, 4155932.5 ] } },
{ "type": "Feature", "properties": { "id": "lidar-tree:282774:4155932", "name": null, "kind": "tree", "species": null, "source": "lidar2025", "tree_height": 28.1, "crown_radius": 6.0, "height_source": "lidar2025" }, "geometry": { "type": "Point", "coordinates": [ 282773.5, 4155932.5 ] } },
{ "type": "Feature", "properties": { "id": "lidar-tree:282760:4155998", "name": null, "kind": "tree", "species": null, "source": "lidar2025", "tree_height": 20.7, "crown_radius": 5.9, "height_source": "lidar2025" }, "geometry": { "type": "Point", "coordinates": [ 282760.5, 4155998.5 ] } }
]
}
