{
"type": "FeatureCollection",
"name": "crossings",
"crs": { "type": "name", "properties": { "name": "urn:ogc:def:crs:EPSG::32618" } },
"xy_coordinate_resolution": 0.01,
"features": [
{ "type": "Feature", "properties": { "id": "osm:node/12147268669", "crossing": "unmarked", "crossing_markings": "no", "road_id": null, "road_width": null, "road_dx": null, "road_dy": null, "road_x": null, "road_y": null, "crossing_island": false }, "geometry": { "type": "Point", "coordinates": [ 282369.71, 4158787.85 ] } },
{ "type": "Feature", "properties": { "id": "osm:node/10582985711", "crossing": "uncontrolled", "crossing_markings": null, "road_id": "osm:way/6040199", "road_width": 7.0, "road_dx": 0.429284, "road_dy": 0.903169, "road_x": 282497.7, "road_y": 4158793.24, "crossing_island": false }, "geometry": { "type": "Point", "coordinates": [ 282497.7, 4158793.24 ] } },
{ "type": "Feature", "properties": { "id": "osm:node/11214909168", "crossing": "unmarked", "crossing_markings": "no", "road_id": null, "road_width": null, "road_dx": null, "road_dy": null, "road_x": null, "road_y": null, "crossing_island": false }, "geometry": { "type": "Point", "coordinates": [ 282357.97, 4158793.5 ] } },
{ "type": "Feature", "properties": { "id": "osm:node/10582985718", "crossing": "uncontrolled", "crossing_markings": null, "road_id": "osm:way/265143028", "road_width": 8.0, "road_dx": -0.904428, "road_dy": 0.426625, "road_x": 282495.43, "road_y": 4158803.85, "crossing_island": false }, "geometry": { "type": "Point", "coordinates": [ 282495.43, 4158803.85 ] } },
{ "type": "Feature", "properties": { "id": "osm:node/11214909165", "crossing": "unmarked", "crossing_markings": "no", "road_id": null, "road_width": null, "road_dx": null, "road_dy": null, "road_x": null, "road_y": null, "crossing_island": false }, "geometry": { "type": "Point", "coordinates": [ 282363.22, 4158804.54 ] } },
{ "type": "Feature", "properties": { "id": "osm:node/10582985726", "crossing": "uncontrolled", "crossing_markings": null, "road_id": "osm:way/6035225", "road_width": 7.0, "road_dx": 0.437231, "road_dy": 0.899349, "road_x": 282390.12, "road_y": 4158845.18, "crossing_island": false }, "geometry": { "type": "Point", "coordinates": [ 282390.12, 4158845.18 ] } },
{ "type": "Feature", "properties": { "id": "osm:node/10582985721", "crossing": "uncontrolled", "crossing_markings": null, "road_id": "osm:way/265143028", "road_width": 8.0, "road_dx": -0.902224, "road_dy": 0.431269, "road_x": 282398.37, "road_y": 4158850.25, "crossing_island": false }, "geometry": { "type": "Point", "coordinates": [ 282398.37, 4158850.25 ] } },
{ "type": "Feature", "properties": { "id": "osm:node/10582985725", "crossing": "uncontrolled", "crossing_markings": null, "road_id": "osm:way/265143028", "road_width": 8.0, "road_dx": -0.901257, "road_dy": 0.433285, "road_x": 282388.24, "road_y": 4158855.12, "crossing_island": false }, "geometry": { "type": "Point", "coordinates": [ 282388.24, 4158855.12 ] } },
{ "type": "Feature", "properties": { "id": "osm:node/10582985723", "crossing": "uncontrolled", "crossing_markings": null, "road_id": "osm:way/6035225", "road_width": 7.0, "road_dx": 0.408484, "road_dy": 0.912766, "road_x": 282396.43, "road_y": 4158859.29, "crossing_island": false }, "geometry": { "type": "Point", "coordinates": [ 282396.43, 4158859.29 ] } },
{ "type": "Feature", "properties": { "id": "osm:node/10582985785", "crossing": "unmarked", "crossing_markings": "no", "road_id": null, "road_width": null, "road_dx": null, "road_dy": null, "road_x": null, "road_y": null, "crossing_island": false }, "geometry": { "type": "Point", "coordinates": [ 282409.56, 4158901.59 ] } },
{ "type": "Feature", "properties": { "id": "osm:node/11214909095", "crossing": "traffic_signals", "crossing_markings": null, "road_id": "osm:way/265143028", "road_width": 8.0, "road_dx": -0.90111, "road_dy": 0.433592, "road_x": 282289.95, "road_y": 4158902.42, "crossing_island": false }, "geometry": { "type": "Point", "coordinates": [ 282289.95, 4158902.42 ] } },
{ "type": "Feature", "properties": { "id": "osm:node/11367862701", "crossing": "unmarked", "crossing_markings": "no", "road_id": null, "road_width": null, "road_dx": null, "road_dy": null, "road_x": null, "road_y": null, "crossing_island": false }, "geometry": { "type": "Point", "coordinates": [ 282428.27, 4158910.56 ] } },
{ "type": "Feature", "properties": { "id": "osm:node/10582985784", "crossing": "unmarked", "crossing_markings": "no", "road_id": null, "road_width": null, "road_dx": null, "road_dy": null, "road_x": null, "road_y": null, "crossing_island": false }, "geometry": { "type": "Point", "coordinates": [ 282416.48, 4158916.18 ] } },
{ "type": "Feature", "properties": { "id": "osm:node/11367862700", "crossing": "unmarked", "crossing_markings": "no", "road_id": null, "road_width": null, "road_dx": null, "road_dy": null, "road_x": null, "road_y": null, "crossing_island": false }, "geometry": { "type": "Point", "coordinates": [ 282436.08, 4158927.14 ] } },
{ "type": "Feature", "properties": { "id": "osm:node/11367697414", "crossing": "unmarked", "crossing_markings": "no", "road_id": null, "road_width": null, "road_dx": null, "road_dy": null, "road_x": null, "road_y": null, "crossing_island": false }, "geometry": { "type": "Point", "coordinates": [ 282320.71, 4158962.62 ] } },
{ "type": "Feature", "properties": { "id": "osm:node/10582985786", "crossing": "uncontrolled", "crossing_markings": null, "road_id": "osm:way/6035225", "road_width": 7.0, "road_dx": 0.437198, "road_dy": 0.899365, "road_x": 282448.58, "road_y": 4158967.23, "crossing_island": false }, "geometry": { "type": "Point", "coordinates": [ 282448.58, 4158967.23 ] } },
{ "type": "Feature", "properties": { "id": "osm:node/11214909173", "crossing": "unmarked", "crossing_markings": "no", "road_id": null, "road_width": null, "road_dx": null, "road_dy": null, "road_x": null, "road_y": null, "crossing_island": false }, "geometry": { "type": "Point", "coordinates": [ 282307.97, 4158968.8 ] } },
{ "type": "Feature", "properties": { "id": "osm:node/11214909197", "crossing": "unmarked", "crossing_markings": "no", "road_id": "osm:way/6034617", "road_width": 9.5, "road_dx": 0.436929, "road_dy": 0.899496, "road_x": 282255.87, "road_y": 4158843.68, "crossing_island": false }, "geometry": { "type": "Point", "coordinates": [ 282261.84, 4158840.82 ] } },
{ "type": "Feature", "properties": { "id": "osm:node/11214909185", "crossing": "unmarked", "crossing_markings": "no", "road_id": "osm:way/6034617", "road_width": 9.5, "road_dx": 0.40445, "road_dy": 0.91456, "road_x": 282262.49, "road_y": 4158858.64, "crossing_island": false }, "geometry": { "type": "Point", "coordinates": [ 282256.97, 4158861.3 ] } },
{ "type": "Feature", "properties": { "id": "osm:node/11214909094", "crossing": "traffic_signals", "crossing_markings": null, "road_id": "osm:way/6034617", "road_width": 9.5, "road_dx": 0.435358, "road_dy": 0.900257, "road_x": 282281.18, "road_y": 4158897.28, "crossing_island": false }, "geometry": { "type": "Point", "coordinates": [ 282281.18, 4158897.28 ] } },
{ "type": "Feature", "properties": { "id": "osm:node/11214909093", "crossing": "traffic_signals", "crossing_markings": null, "road_id": "osm:way/265143028", "road_width": 8.0, "road_dx": -0.903502, "road_dy": 0.428584, "road_x": 282279.19, "road_y": 4158907.55, "crossing_island": false }, "geometry": { "type": "Point", "coordinates": [ 282279.19, 4158907.55 ] } },
{ "type": "Feature", "properties": { "id": "osm:node/11214909096", "crossing": "traffic_signals", "crossing_markings": null, "road_id": "osm:way/6034617", "road_width": 9.5, "road_dx": 0.445663, "road_dy": 0.895201, "road_x": 282288.48, "road_y": 4158912.18, "crossing_island": false }, "geometry": { "type": "Point", "coordinates": [ 282288.48, 4158912.18 ] } },
{ "type": "Feature", "properties": { "id": "osm:node/11367839968", "crossing": "marked", "crossing_markings": "yes", "road_id": "osm:way/6033818", "road_width": 7.0, "road_dx": -0.902715, "road_dy": 0.43024, "road_x": 282457.27, "road_y": 4158971.97, "crossing_island": false }, "geometry": { "type": "Point", "coordinates": [ 282457.27, 4158971.97 ] } },
{ "type": "Feature", "properties": { "id": "osm:node/11367862669", "crossing": "marked", "crossing_markings": "yes", "road_id": "osm:way/6033818", "road_width": 7.0, "road_dx": -0.90112, "road_dy": 0.433571, "road_x": 282446.2, "road_y": 4158977.27, "crossing_island": false }, "geometry": { "type": "Point", "coordinates": [ 282446.2, 4158977.27 ] } },
{ "type": "Feature", "properties": { "id": "osm:node/11367862670", "crossing": "marked", "crossing_markings": "yes", "road_id": "osm:way/6035225", "road_width": 7.0, "road_dx": 0.418617, "road_dy": 0.908163, "road_x": 282455.97, "road_y": 4158983.26, "crossing_island": false }, "geometry": { "type": "Point", "coordinates": [ 282455.97, 4158983.26 ] } }
]
}
