{
"type": "FeatureCollection",
"name": "landuse",
"crs": { "type": "name", "properties": { "name": "urn:ogc:def:crs:EPSG::32618" } },
"xy_coordinate_resolution": 0.01,
"features": [
{ "type": "Feature", "properties": { "id": "osm:way/679324138", "name": "Ancarrow's Landing", "kind": "park", "source": null, "source_updated": null, "base_z": null, "top_z": null }, "geometry": { "type": "Polygon", "coordinates": [ [ [ 285750.0, 4155750.0 ], [ 285750.0, 4155756.14 ], [ 285759.4, 4155750.0 ], [ 285750.0, 4155750.0 ] ] ] } },
{ "type": "Feature", "properties": { "id": "osm:relation/13728919", "name": "Great Shiplock Park", "kind": "park", "source": null, "source_updated": null, "base_z": null, "top_z": null }, "geometry": { "type": "Polygon", "coordinates": [ [ [ 285992.94, 4155925.85 ], [ 285992.34, 4155930.73 ], [ 285997.08, 4155944.13 ], [ 285997.17, 4155961.56 ], [ 285993.11, 4155974.53 ], [ 285988.83, 4155978.78 ], [ 285988.62, 4155978.75 ], [ 285988.52, 4155979.1 ], [ 285987.3, 4155980.13 ], [ 285986.27, 4155980.48 ], [ 285984.3, 4155980.29 ], [ 285982.28, 4155977.72 ], [ 285979.47, 4155977.27 ], [ 285979.2, 4155977.28 ], [ 285979.04, 4155977.2 ], [ 285978.11, 4155977.05 ], [ 285967.66, 4155971.64 ], [ 285961.19, 4155964.37 ], [ 285959.52, 4155954.96 ], [ 285965.36, 4155942.3 ], [ 285965.36, 4155941.8 ], [ 285964.43, 4155941.88 ], [ 285963.49, 4155941.15 ], [ 285963.05, 4155939.17 ], [ 285963.64, 4155938.61 ], [ 285963.85, 4155938.24 ], [ 285964.21, 4155936.82 ], [ 285964.21, 4155936.81 ], [ 285962.92, 4155934.92 ], [ 285959.81, 4155933.94 ], [ 285952.35, 4155934.73 ], [ 285936.09, 4155941.67 ], [ 285881.25, 4155977.81 ], [ 285880.36, 4155978.45 ], [ 285880.24, 4155980.52 ], [ 285879.52, 4155982.36 ], [ 285877.3, 4155983.22 ], [ 285875.72, 4155982.3 ], [ 285875.51, 4155982.22 ], [ 285875.27, 4155982.2 ], [ 285875.04, 4155982.26 ], [ 285875.03, 4155982.27 ], [ 285874.72, 4155982.49 ], [ 285871.66, 4155985.11 ], [ 285871.51, 4155985.29 ], [ 285870.32, 4155987.23 ], [ 285867.68, 4155987.96 ], [ 285867.39, 4155988.1 ], [ 285867.2, 4155988.35 ], [ 285866.77, 4155989.2 ], [ 285865.45, 4155989.99 ], [ 285865.25, 4155990.17 ], [ 285865.12, 4155990.41 ], [ 285864.24, 4155993.13 ], [ 285862.99, 4155993.67 ], [ 285862.8, 4155993.78 ], [ 285862.65, 4155993.95 ], [ 285862.56, 4155994.16 ], [ 285862.53, 4155994.38 ], [ 285862.25, 4155994.9 ], [ 285862.19, 4155995.11 ], [ 285862.08, 4155995.66 ], [ 285862.3, 4155996.36 ], [ 285862.27, 4155996.69 ], [ 285862.18, 4155996.89 ], [ 285861.37, 4155996.98 ], [ 285860.59, 4155995.92 ], [ 285860.27, 4155995.66 ], [ 285859.86, 4155995.61 ], [ 285858.56, 4155995.8 ], [ 285858.26, 4155995.91 ], [ 285858.04, 4155996.14 ], [ 285857.53, 4155996.9 ], [ 285856.46, 4155997.27 ], [ 285856.14, 4155997.48 ], [ 285855.68, 4155997.98 ], [ 285855.52, 4155998.27 ], [ 285855.5, 4155998.64 ], [ 285855.65, 4155998.97 ], [ 285855.91, 4155999.18 ], [ 285857.13, 4155999.78 ], [ 285857.17, 4156000.0 ], [ 286000.0, 4156000.0 ], [ 286000.0, 4155917.33 ], [ 285996.81, 4155919.88 ], [ 285992.94, 4155925.85 ] ] ] } },
{ "type": "Feature", "properties": { "id": "osm:relation/13728920", "name": null, "kind": "forest", "source": null, "source_updated": null, "base_z": null, "top_z": null }, "geometry": { "type": "Polygon", "coordinates": [ [ [ 285992.94, 4155925.85 ], [ 285992.34, 4155930.73 ], [ 285997.08, 4155944.13 ], [ 285997.17, 4155961.56 ], [ 285993.11, 4155974.53 ], [ 285988.83, 4155978.78 ], [ 285988.62, 4155978.75 ], [ 285988.52, 4155979.1 ], [ 285987.3, 4155980.13 ], [ 285986.27, 4155980.48 ], [ 285984.3, 4155980.29 ], [ 285982.28, 4155977.72 ], [ 285979.47, 4155977.27 ], [ 285979.2, 4155977.28 ], [ 285979.04, 4155977.2 ], [ 285978.11, 4155977.05 ], [ 285967.66, 4155971.64 ], [ 285961.19, 4155964.37 ], [ 285959.52, 4155954.96 ], [ 285965.36, 4155942.3 ], [ 285965.36, 4155941.8 ], [ 285964.43, 4155941.88 ], [ 285963.49, 4155941.15 ], [ 285963.05, 4155939.17 ], [ 285963.64, 4155938.61 ], [ 285963.85, 4155938.24 ], [ 285964.21, 4155936.82 ], [ 285964.21, 4155936.81 ], [ 285962.92, 4155934.92 ], [ 285952.35, 4155934.73 ], [ 285936.09, 4155941.67 ], [ 285880.31, 4155979.32 ], [ 285880.24, 4155980.52 ], [ 285879.52, 4155982.36 ], [ 285877.3, 4155983.22 ], [ 285875.81, 4155982.35 ], [ 285871.56, 4155985.22 ], [ 285871.51, 4155985.29 ], [ 285870.32, 4155987.23 ], [ 285867.68, 4155987.96 ], [ 285867.39, 4155988.1 ], [ 285867.2, 4155988.35 ], [ 285866.77, 4155989.2 ], [ 285865.45, 4155989.99 ], [ 285865.25, 4155990.17 ], [ 285865.12, 4155990.41 ], [ 285864.24, 4155993.13 ], [ 285862.99, 4155993.67 ], [ 285862.8, 4155993.78 ], [ 285862.65, 4155993.95 ], [ 285862.56, 4155994.16 ], [ 285862.53, 4155994.38 ], [ 285862.25, 4155994.9 ], [ 285862.19, 4155995.11 ], [ 285862.08, 4155995.66 ], [ 285862.3, 4155996.36 ], [ 285862.27, 4155996.69 ], [ 285862.18, 4155996.89 ], [ 285861.37, 4155996.98 ], [ 285860.59, 4155995.92 ], [ 285860.27, 4155995.66 ], [ 285859.86, 4155995.61 ], [ 285858.56, 4155995.8 ], [ 285858.26, 4155995.91 ], [ 285858.04, 4155996.14 ], [ 285857.53, 4155996.9 ], [ 285856.46, 4155997.27 ], [ 285856.14, 4155997.48 ], [ 285855.68, 4155997.98 ], [ 285855.52, 4155998.27 ], [ 285855.5, 4155998.64 ], [ 285855.65, 4155998.97 ], [ 285855.91, 4155999.18 ], [ 285857.13, 4155999.78 ], [ 285857.17, 4156000.0 ], [ 286000.0, 4156000.0 ], [ 286000.0, 4155917.33 ], [ 285996.81, 4155919.88 ], [ 285992.94, 4155925.85 ] ] ] } }
]
}
