{
"type": "FeatureCollection",
"name": "pois",
"crs": { "type": "name", "properties": { "name": "urn:ogc:def:crs:EPSG::32618" } },
"xy_coordinate_resolution": 0.01,
"features": [
{ "type": "Feature", "properties": { "id": "lidar-tree:280504:4156008", "name": null, "kind": "tree", "species": null, "source": "lidar2025", "tree_height": 41.5, "crown_radius": 6.0, "height_source": "lidar2025" }, "geometry": { "type": "Point", "coordinates": [ 280503.5, 4156008.5 ] } },
{ "type": "Feature", "properties": { "id": "lidar-tree:280540:4156010", "name": null, "kind": "tree", "species": null, "source": "lidar2025", "tree_height": 34.9, "crown_radius": 6.0, "height_source": "lidar2025" }, "geometry": { "type": "Point", "coordinates": [ 280539.5, 4156009.5 ] } },
{ "type": "Feature", "properties": { "id": "lidar-tree:280518:4156012", "name": null, "kind": "tree", "species": null, "source": "lidar2025", "tree_height": 37.4, "crown_radius": 6.0, "height_source": "lidar2025" }, "geometry": { "type": "Point", "coordinates": [ 280518.5, 4156012.5 ] } },
{ "type": "Feature", "properties": { "id": "lidar-tree:280504:4156020", "name": null, "kind": "tree", "species": null, "source": "lidar2025", "tree_height": 40.1, "crown_radius": 6.0, "height_source": "lidar2025" }, "geometry": { "type": "Point", "coordinates": [ 280503.5, 4156020.5 ] } },
{ "type": "Feature", "properties": { "id": "lidar-tree:280522:4156022", "name": null, "kind": "tree", "species": null, "source": "lidar2025", "tree_height": 35.3, "crown_radius": 6.0, "height_source": "lidar2025" }, "geometry": { "type": "Point", "coordinates": [ 280522.5, 4156021.5 ] } },
{ "type": "Feature", "properties": { "id": "lidar-tree:280552:4156004", "name": null, "kind": "tree", "species": null, "source": "lidar2025", "tree_height": 33.4, "crown_radius": 6.0, "height_source": "lidar2025" }, "geometry": { "type": "Point", "coordinates": [ 280552.5, 4156003.5 ] } },
{ "type": "Feature", "properties": { "id": "lidar-tree:280594:4156004", "name": null, "kind": "tree", "species": null, "source": "lidar2025", "tree_height": 36.3, "crown_radius": 6.0, "height_source": "lidar2025" }, "geometry": { "type": "Point", "coordinates": [ 280593.5, 4156004.5 ] } },
{ "type": "Feature", "properties": { "id": "lidar-tree:280570:4156008", "name": null, "kind": "tree", "species": null, "source": "lidar2025", "tree_height": 35.2, "crown_radius": 6.0, "height_source": "lidar2025" }, "geometry": { "type": "Point", "coordinates": [ 280570.5, 4156008.5 ] } },
{ "type": "Feature", "properties": { "id": "lidar-tree:280586:4156012", "name": null, "kind": "tree", "species": null, "source": "lidar2025", "tree_height": 34.6, "crown_radius": 6.0, "height_source": "lidar2025" }, "geometry": { "type": "Point", "coordinates": [ 280586.5, 4156011.5 ] } },
{ "type": "Feature", "properties": { "id": "lidar-tree:280552:4156012", "name": null, "kind": "tree", "species": null, "source": "lidar2025", "tree_height": 35.1, "crown_radius": 6.0, "height_source": "lidar2025" }, "geometry": { "type": "Point", "coordinates": [ 280551.5, 4156012.5 ] } },
{ "type": "Feature", "properties": { "id": "lidar-tree:280564:4156020", "name": null, "kind": "tree", "species": null, "source": "lidar2025", "tree_height": 25.9, "crown_radius": 6.0, "height_source": "lidar2025" }, "geometry": { "type": "Point", "coordinates": [ 280563.5, 4156019.5 ] } },
{ "type": "Feature", "properties": { "id": "lidar-tree:280592:4156022", "name": null, "kind": "tree", "species": null, "source": "lidar2025", "tree_height": 33.1, "crown_radius": 6.0, "height_source": "lidar2025" }, "geometry": { "type": "Point", "coordinates": [ 280592.5, 4156021.5 ] } },
{ "type": "Feature", "properties": { "id": "lidar-tree:280552:4156026", "name": null, "kind": "tree", "species": null, "source": "lidar2025", "tree_height": 33.5, "crown_radius": 6.0, "height_source": "lidar2025" }, "geometry": { "type": "Point", "coordinates": [ 280552.5, 4156026.5 ] } },
{ "type": "Feature", "properties": { "id": "lidar-tree:280736:4156008", "name": null, "kind": "tree", "species": null, "source": "lidar2025", "tree_height": 19.3, "crown_radius": 6.0, "height_source": "lidar2025" }, "geometry": { "type": "Point", "coordinates": [ 280735.5, 4156008.5 ] } },
{ "type": "Feature", "properties": { "id": "lidar-tree:280658:4156004", "name": null, "kind": "tree", "species": null, "source": "lidar2025", "tree_height": 11.5, "crown_radius": 5.0, "height_source": "lidar2025" }, "geometry": { "type": "Point", "coordinates": [ 280658.5, 4156003.5 ] } },
{ "type": "Feature", "properties": { "id": "lidar-tree:280646:4156018", "name": null, "kind": "tree", "species": null, "source": "lidar2025", "tree_height": 6.5, "crown_radius": 4.5, "height_source": "lidar2025" }, "geometry": { "type": "Point", "coordinates": [ 280645.5, 4156018.5 ] } },
{ "type": "Feature", "properties": { "id": "lidar-tree:280684:4156022", "name": null, "kind": "tree", "species": null, "source": "lidar2025", "tree_height": 11.3, "crown_radius": 3.5, "height_source": "lidar2025" }, "geometry": { "type": "Point", "coordinates": [ 280683.5, 4156021.5 ] } },
{ "type": "Feature", "properties": { "id": "lidar-tree:280686:4156030", "name": null, "kind": "tree", "species": null, "source": "lidar2025", "tree_height": 11.7, "crown_radius": 4.3, "height_source": "lidar2025" }, "geometry": { "type": "Point", "coordinates": [ 280686.5, 4156030.5 ] } },
{ "type": "Feature", "properties": { "id": "lidar-tree:280656:4156032", "name": null, "kind": "tree", "species": null, "source": "lidar2025", "tree_height": 27.3, "crown_radius": 6.0, "height_source": "lidar2025" }, "geometry": { "type": "Point", "coordinates": [ 280656.5, 4156032.5 ] } },
{ "type": "Feature", "properties": { "id": "lidar-tree:280610:4156006", "name": null, "kind": "tree", "species": null, "source": "lidar2025", "tree_height": 37.7, "crown_radius": 6.0, "height_source": "lidar2025" }, "geometry": { "type": "Point", "coordinates": [ 280609.5, 4156005.5 ] } },
{ "type": "Feature", "properties": { "id": "lidar-tree:280642:4156012", "name": null, "kind": "tree", "species": null, "source": "lidar2025", "tree_height": 7.5, "crown_radius": 4.7, "height_source": "lidar2025" }, "geometry": { "type": "Point", "coordinates": [ 280642.5, 4156012.5 ] } },
{ "type": "Feature", "properties": { "id": "lidar-tree:280600:4156016", "name": null, "kind": "tree", "species": null, "source": "lidar2025", "tree_height": 36.6, "crown_radius": 6.0, "height_source": "lidar2025" }, "geometry": { "type": "Point", "coordinates": [ 280600.5, 4156016.5 ] } },
{ "type": "Feature", "properties": { "id": "lidar-tree:280634:4156020", "name": null, "kind": "tree", "species": null, "source": "lidar2025", "tree_height": 9.6, "crown_radius": 5.3, "height_source": "lidar2025" }, "geometry": { "type": "Point", "coordinates": [ 280634.5, 4156019.5 ] } },
{ "type": "Feature", "properties": { "id": "lidar-tree:280608:4156026", "name": null, "kind": "tree", "species": null, "source": "lidar2025", "tree_height": 28.1, "crown_radius": 6.0, "height_source": "lidar2025" }, "geometry": { "type": "Point", "coordinates": [ 280607.5, 4156025.5 ] } },
{ "type": "Feature", "properties": { "id": "lidar-tree:280600:4156036", "name": null, "kind": "tree", "species": null, "source": "lidar2025", "tree_height": 31.4, "crown_radius": 6.0, "height_source": "lidar2025" }, "geometry": { "type": "Point", "coordinates": [ 280599.5, 4156035.5 ] } },
{ "type": "Feature", "properties": { "id": "lidar-tree:280610:4156036", "name": null, "kind": "tree", "species": null, "source": "lidar2025", "tree_height": 34.3, "crown_radius": 6.0, "height_source": "lidar2025" }, "geometry": { "type": "Point", "coordinates": [ 280610.5, 4156036.5 ] } },
{ "type": "Feature", "properties": { "id": "lidar-tree:280612:4156046", "name": null, "kind": "tree", "species": null, "source": "lidar2025", "tree_height": 33.6, "crown_radius": 6.0, "height_source": "lidar2025" }, "geometry": { "type": "Point", "coordinates": [ 280612.5, 4156045.5 ] } },
{ "type": "Feature", "properties": { "id": "lidar-tree:280602:4156048", "name": null, "kind": "tree", "species": null, "source": "lidar2025", "tree_height": 30.5, "crown_radius": 6.0, "height_source": "lidar2025" }, "geometry": { "type": "Point", "coordinates": [ 280602.5, 4156047.5 ] } },
{ "type": "Feature", "properties": { "id": "lidar-tree:280698:4156010", "name": null, "kind": "tree", "species": null, "source": "lidar2025", "tree_height": 4.1, "crown_radius": 4.0, "height_source": "lidar2025" }, "geometry": { "type": "Point", "coordinates": [ 280698.5, 4156009.5 ] } },
{ "type": "Feature", "properties": { "id": "lidar-tree:280748:4156010", "name": null, "kind": "tree", "species": null, "source": "lidar2025", "tree_height": 11.6, "crown_radius": 5.1, "height_source": "lidar2025" }, "geometry": { "type": "Point", "coordinates": [ 280747.5, 4156009.5 ] } },
{ "type": "Feature", "properties": { "id": "lidar-tree:280744:4156024", "name": null, "kind": "tree", "species": null, "source": "lidar2025", "tree_height": 5.3, "crown_radius": 3.3, "height_source": "lidar2025" }, "geometry": { "type": "Point", "coordinates": [ 280744.5, 4156023.5 ] } },
{ "type": "Feature", "properties": { "id": "lidar-tree:280702:4156024", "name": null, "kind": "tree", "species": null, "source": "lidar2025", "tree_height": 5.6, "crown_radius": 2.7, "height_source": "lidar2025" }, "geometry": { "type": "Point", "coordinates": [ 280701.5, 4156024.5 ] } },
{ "type": "Feature", "properties": { "id": "lidar-tree:280720:4156026", "name": null, "kind": "tree", "species": null, "source": "lidar2025", "tree_height": 9.1, "crown_radius": 6.0, "height_source": "lidar2025" }, "geometry": { "type": "Point", "coordinates": [ 280720.5, 4156026.5 ] } },
{ "type": "Feature", "properties": { "id": "lidar-tree:280730:4156034", "name": null, "kind": "tree", "species": null, "source": "lidar2025", "tree_height": 6.4, "crown_radius": 6.0, "height_source": "lidar2025" }, "geometry": { "type": "Point", "coordinates": [ 280729.5, 4156033.5 ] } },
{ "type": "Feature", "properties": { "id": "lidar-tree:280714:4156036", "name": null, "kind": "tree", "species": null, "source": "lidar2025", "tree_height": 7.6, "crown_radius": 3.9, "height_source": "lidar2025" }, "geometry": { "type": "Point", "coordinates": [ 280713.5, 4156035.5 ] } },
{ "type": "Feature", "properties": { "id": "lidar-tree:280734:4156040", "name": null, "kind": "tree", "species": null, "source": "lidar2025", "tree_height": 6.0, "crown_radius": 5.1, "height_source": "lidar2025" }, "geometry": { "type": "Point", "coordinates": [ 280734.5, 4156039.5 ] } },
{ "type": "Feature", "properties": { "id": "lidar-tree:280740:4156044", "name": null, "kind": "tree", "species": null, "source": "lidar2025", "tree_height": 5.5, "crown_radius": 2.9, "height_source": "lidar2025" }, "geometry": { "type": "Point", "coordinates": [ 280740.5, 4156043.5 ] } },
{ "type": "Feature", "properties": { "id": "lidar-tree:280724:4156050", "name": null, "kind": "tree", "species": null, "source": "lidar2025", "tree_height": 22.7, "crown_radius": 6.0, "height_source": "lidar2025" }, "geometry": { "type": "Point", "coordinates": [ 280724.5, 4156049.5 ] } },
{ "type": "Feature", "properties": { "id": "lidar-tree:280690:4156038", "name": null, "kind": "tree", "species": null, "source": "lidar2025", "tree_height": 6.9, "crown_radius": 4.4, "height_source": "lidar2025" }, "geometry": { "type": "Point", "coordinates": [ 280690.5, 4156037.5 ] } },
{ "type": "Feature", "properties": { "id": "lidar-tree:280644:4156040", "name": null, "kind": "tree", "species": null, "source": "lidar2025", "tree_height": 21.2, "crown_radius": 6.0, "height_source": "lidar2025" }, "geometry": { "type": "Point", "coordinates": [ 280644.5, 4156039.5 ] } },
{ "type": "Feature", "properties": { "id": "rva-tree:115455", "name": "Acer saccharum", "kind": "tree", "species": "Acer saccharum", "source": "city_inventory", "tree_height": 28.4, "crown_radius": 5.8, "height_source": "lidar2025" }, "geometry": { "type": "Point", "coordinates": [ 280674.72, 4156041.54 ] } },
{ "type": "Feature", "properties": { "id": "rva-tree:115427", "name": "Cornus florida", "kind": "tree", "species": "Cornus florida", "source": "city_inventory", "tree_height": 9.8, "crown_radius": 3.8, "height_source": "lidar2025" }, "geometry": { "type": "Point", "coordinates": [ 280688.7, 4156048.16 ] } },
{ "type": "Feature", "properties": { "id": "lidar-tree:280672:4156054", "name": null, "kind": "tree", "species": null, "source": "lidar2025", "tree_height": 32.4, "crown_radius": 6.0, "height_source": "lidar2025" }, "geometry": { "type": "Point", "coordinates": [ 280672.5, 4156053.5 ] } },
{ "type": "Feature", "properties": { "id": "lidar-tree:280654:4156054", "name": null, "kind": "tree", "species": null, "source": "lidar2025", "tree_height": 30.5, "crown_radius": 6.0, "height_source": "lidar2025" }, "geometry": { "type": "Point", "coordinates": [ 280653.5, 4156053.5 ] } },
{ "type": "Feature", "properties": { "id": "lidar-tree:280680:4156060", "name": null, "kind": "tree", "species": null, "source": "lidar2025", "tree_height": 30.5, "crown_radius": 6.0, "height_source": "lidar2025" }, "geometry": { "type": "Point", "coordinates": [ 280679.5, 4156060.5 ] } },
{ "type": "Feature", "properties": { "id": "rva-tree:115452", "name": "Acer saccharum", "kind": "tree", "species": "Acer saccharum", "source": "city_inventory", "tree_height": 28.6, "crown_radius": 6.0, "height_source": "lidar2025" }, "geometry": { "type": "Point", "coordinates": [ 280689.27, 4156066.41 ] } },
{ "type": "Feature", "properties": { "id": "lidar-tree:280684:4156070", "name": null, "kind": "tree", "species": null, "source": "lidar2025", "tree_height": 28.6, "crown_radius": 6.0, "height_source": "lidar2025" }, "geometry": { "type": "Point", "coordinates": [ 280683.5, 4156069.5 ] } },
{ "type": "Feature", "properties": { "id": "lidar-tree:280652:4156074", "name": null, "kind": "tree", "species": null, "source": "lidar2025", "tree_height": 30.8, "crown_radius": 6.0, "height_source": "lidar2025" }, "geometry": { "type": "Point", "coordinates": [ 280652.5, 4156074.5 ] } },
{ "type": "Feature", "properties": { "id": "lidar-tree:280740:4156058", "name": null, "kind": "tree", "species": null, "source": "lidar2025", "tree_height": 11.0, "crown_radius": 6.0, "height_source": "lidar2025" }, "geometry": { "type": "Point", "coordinates": [ 280739.5, 4156057.5 ] } },
{ "type": "Feature", "properties": { "id": "lidar-tree:280706:4156060", "name": null, "kind": "tree", "species": null, "source": "lidar2025", "tree_height": 11.0, "crown_radius": 5.6, "height_source": "lidar2025" }, "geometry": { "type": "Point", "coordinates": [ 280705.5, 4156060.5 ] } },
{ "type": "Feature", "properties": { "id": "lidar-tree:280728:4156064", "name": null, "kind": "tree", "species": null, "source": "lidar2025", "tree_height": 6.7, "crown_radius": 4.4, "height_source": "lidar2025" }, "geometry": { "type": "Point", "coordinates": [ 280727.5, 4156064.5 ] } },
{ "type": "Feature", "properties": { "id": "rva-tree:115429", "name": "Acer saccharum", "kind": "tree", "species": "Acer saccharum", "source": "city_inventory", "tree_height": 8.0, "crown_radius": 2.5, "height_source": "estimated" }, "geometry": { "type": "Point", "coordinates": [ 280701.45, 4156071.26 ] } },
{ "type": "Feature", "properties": { "id": "lidar-tree:280718:4156080", "name": null, "kind": "tree", "species": null, "source": "lidar2025", "tree_height": 29.0, "crown_radius": 6.0, "height_source": "lidar2025" }, "geometry": { "type": "Point", "coordinates": [ 280718.5, 4156080.5 ] } },
{ "type": "Feature", "properties": { "id": "rva-tree:115430", "name": "Acer saccharum", "kind": "tree", "species": "Acer saccharum", "source": "city_inventory", "tree_height": 8.0, "crown_radius": 2.5, "height_source": "estimated" }, "geometry": { "type": "Point", "coordinates": [ 280708.25, 4156082.47 ] } },
{ "type": "Feature", "properties": { "id": "lidar-tree:280696:4156092", "name": null, "kind": "tree", "species": null, "source": "lidar2025", "tree_height": 24.6, "crown_radius": 6.0, "height_source": "lidar2025" }, "geometry": { "type": "Point", "coordinates": [ 280696.5, 4156091.5 ] } },
{ "type": "Feature", "properties": { "id": "rva-tree:115431", "name": "Acer saccharum", "kind": "tree", "species": "Acer saccharum", "source": "city_inventory", "tree_height": 28.2, "crown_radius": 6.0, "height_source": "lidar2025" }, "geometry": { "type": "Point", "coordinates": [ 280715.79, 4156096.14 ] } },
{ "type": "Feature", "properties": { "id": "rva-tree:115450", "name": "Acer saccharum", "kind": "tree", "species": "Acer saccharum", "source": "city_inventory", "tree_height": 8.0, "crown_radius": 2.5, "height_source": "estimated" }, "geometry": { "type": "Point", "coordinates": [ 280706.42, 4156097.25 ] } },
{ "type": "Feature", "properties": { "id": "lidar-tree:280730:4156100", "name": null, "kind": "tree", "species": null, "source": "lidar2025", "tree_height": 25.9, "crown_radius": 6.0, "height_source": "lidar2025" }, "geometry": { "type": "Point", "coordinates": [ 280729.5, 4156100.5 ] } },
{ "type": "Feature", "properties": { "id": "lidar-tree:280644:4156078", "name": null, "kind": "tree", "species": null, "source": "lidar2025", "tree_height": 31.7, "crown_radius": 6.0, "height_source": "lidar2025" }, "geometry": { "type": "Point", "coordinates": [ 280644.5, 4156077.5 ] } },
{ "type": "Feature", "properties": { "id": "lidar-tree:280664:4156086", "name": null, "kind": "tree", "species": null, "source": "lidar2025", "tree_height": 30.3, "crown_radius": 6.0, "height_source": "lidar2025" }, "geometry": { "type": "Point", "coordinates": [ 280663.5, 4156086.5 ] } },
{ "type": "Feature", "properties": { "id": "lidar-tree:280646:4156088", "name": null, "kind": "tree", "species": null, "source": "lidar2025", "tree_height": 30.2, "crown_radius": 6.0, "height_source": "lidar2025" }, "geometry": { "type": "Point", "coordinates": [ 280645.5, 4156087.5 ] } },
{ "type": "Feature", "properties": { "id": "lidar-tree:280668:4156100", "name": null, "kind": "tree", "species": null, "source": "lidar2025", "tree_height": 31.1, "crown_radius": 6.0, "height_source": "lidar2025" }, "geometry": { "type": "Point", "coordinates": [ 280668.5, 4156100.5 ] } },
{ "type": "Feature", "properties": { "id": "lidar-tree:280692:4156102", "name": null, "kind": "tree", "species": null, "source": "lidar2025", "tree_height": 26.7, "crown_radius": 5.2, "height_source": "lidar2025" }, "geometry": { "type": "Point", "coordinates": [ 280692.5, 4156101.5 ] } },
{ "type": "Feature", "properties": { "id": "lidar-tree:280652:4156102", "name": null, "kind": "tree", "species": null, "source": "lidar2025", "tree_height": 30.1, "crown_radius": 5.7, "height_source": "lidar2025" }, "geometry": { "type": "Point", "coordinates": [ 280652.5, 4156102.5 ] } },
{ "type": "Feature", "properties": { "id": "lidar-tree:280672:4156110", "name": null, "kind": "tree", "species": null, "source": "lidar2025", "tree_height": 32.3, "crown_radius": 6.0, "height_source": "lidar2025" }, "geometry": { "type": "Point", "coordinates": [ 280671.5, 4156110.5 ] } },
{ "type": "Feature", "properties": { "id": "lidar-tree:280652:4156116", "name": null, "kind": "tree", "species": null, "source": "lidar2025", "tree_height": 29.5, "crown_radius": 6.0, "height_source": "lidar2025" }, "geometry": { "type": "Point", "coordinates": [ 280651.5, 4156115.5 ] } },
{ "type": "Feature", "properties": { "id": "lidar-tree:280664:4156116", "name": null, "kind": "tree", "species": null, "source": "lidar2025", "tree_height": 34.1, "crown_radius": 6.0, "height_source": "lidar2025" }, "geometry": { "type": "Point", "coordinates": [ 280664.5, 4156116.5 ] } },
{ "type": "Feature", "properties": { "id": "lidar-tree:280650:4156130", "name": null, "kind": "tree", "species": null, "source": "lidar2025", "tree_height": 20.3, "crown_radius": 5.8, "height_source": "lidar2025" }, "geometry": { "type": "Point", "coordinates": [ 280649.5, 4156129.5 ] } },
{ "type": "Feature", "properties": { "id": "rva-tree:115432", "name": "Acer saccharum", "kind": "tree", "species": "Acer saccharum", "source": "city_inventory", "tree_height": 26.2, "crown_radius": 6.0, "height_source": "lidar2025" }, "geometry": { "type": "Point", "coordinates": [ 280720.77, 4156104.93 ] } },
{ "type": "Feature", "properties": { "id": "lidar-tree:280702:4156114", "name": null, "kind": "tree", "species": null, "source": "lidar2025", "tree_height": 25.1, "crown_radius": 5.6, "height_source": "lidar2025" }, "geometry": { "type": "Point", "coordinates": [ 280701.5, 4156113.5 ] } },
{ "type": "Feature", "properties": { "id": "rva-tree:115433", "name": "Acer saccharum", "kind": "tree", "species": "Acer saccharum", "source": "city_inventory", "tree_height": 8.0, "crown_radius": 2.5, "height_source": "estimated" }, "geometry": { "type": "Point", "coordinates": [ 280726.9, 4156115.84 ] } },
{ "type": "Feature", "properties": { "id": "rva-tree:115448", "name": "Acer saccharum", "kind": "tree", "species": "Acer saccharum", "source": "city_inventory", "tree_height": 8.0, "crown_radius": 2.5, "height_source": "estimated" }, "geometry": { "type": "Point", "coordinates": [ 280718.11, 4156117.69 ] } },
{ "type": "Feature", "properties": { "id": "rva-tree:115434", "name": "Ilex cornuta", "kind": "tree", "species": "Ilex cornuta", "source": "city_inventory", "tree_height": 8.0, "crown_radius": 2.5, "height_source": "estimated" }, "geometry": { "type": "Point", "coordinates": [ 280731.8, 4156119.56 ] } },
{ "type": "Feature", "properties": { "id": "lidar-tree:280712:4156126", "name": null, "kind": "tree", "species": null, "source": "lidar2025", "tree_height": 18.6, "crown_radius": 6.0, "height_source": "lidar2025" }, "geometry": { "type": "Point", "coordinates": [ 280712.5, 4156125.5 ] } },
{ "type": "Feature", "properties": { "id": "lidar-tree:280722:4156126", "name": null, "kind": "tree", "species": null, "source": "lidar2025", "tree_height": 20.3, "crown_radius": 6.0, "height_source": "lidar2025" }, "geometry": { "type": "Point", "coordinates": [ 280722.5, 4156125.5 ] } },
{ "type": "Feature", "properties": { "id": "lidar-tree:280698:4156126", "name": null, "kind": "tree", "species": null, "source": "lidar2025", "tree_height": 9.5, "crown_radius": 5.1, "height_source": "lidar2025" }, "geometry": { "type": "Point", "coordinates": [ 280697.5, 4156126.5 ] } },
{ "type": "Feature", "properties": { "id": "rva-tree:115447", "name": "Acer saccharum", "kind": "tree", "species": "Acer saccharum", "source": "city_inventory", "tree_height": 25.7, "crown_radius": 6.0, "height_source": "lidar2025" }, "geometry": { "type": "Point", "coordinates": [ 280725.2, 4156131.05 ] } },
{ "type": "Feature", "properties": { "id": "rva-tree:115446", "name": "Acer saccharum", "kind": "tree", "species": "Acer saccharum", "source": "city_inventory", "tree_height": 24.4, "crown_radius": 6.0, "height_source": "lidar2025" }, "geometry": { "type": "Point", "coordinates": [ 280733.73, 4156145.33 ] } },
{ "type": "Feature", "properties": { "id": "lidar-tree:280668:4156132", "name": null, "kind": "tree", "species": null, "source": "lidar2025", "tree_height": 31.5, "crown_radius": 6.0, "height_source": "lidar2025" }, "geometry": { "type": "Point", "coordinates": [ 280668.5, 4156132.5 ] } },
{ "type": "Feature", "properties": { "id": "lidar-tree:280690:4156136", "name": null, "kind": "tree", "species": null, "source": "lidar2025", "tree_height": 19.6, "crown_radius": 6.0, "height_source": "lidar2025" }, "geometry": { "type": "Point", "coordinates": [ 280689.5, 4156135.5 ] } },
{ "type": "Feature", "properties": { "id": "lidar-tree:280682:4156138", "name": null, "kind": "tree", "species": null, "source": "lidar2025", "tree_height": 29.1, "crown_radius": 4.9, "height_source": "lidar2025" }, "geometry": { "type": "Point", "coordinates": [ 280681.5, 4156137.5 ] } },
{ "type": "Feature", "properties": { "id": "lidar-tree:280670:4156146", "name": null, "kind": "tree", "species": null, "source": "lidar2025", "tree_height": 18.4, "crown_radius": 5.0, "height_source": "lidar2025" }, "geometry": { "type": "Point", "coordinates": [ 280669.5, 4156146.5 ] } },
{ "type": "Feature", "properties": { "id": "lidar-tree:280688:4156154", "name": null, "kind": "tree", "species": null, "source": "lidar2025", "tree_height": 16.7, "crown_radius": 6.0, "height_source": "lidar2025" }, "geometry": { "type": "Point", "coordinates": [ 280687.5, 4156153.5 ] } },
{ "type": "Feature", "properties": { "id": "lidar-tree:280652:4156158", "name": null, "kind": "tree", "species": null, "source": "lidar2025", "tree_height": 7.2, "crown_radius": 5.0, "height_source": "lidar2025" }, "geometry": { "type": "Point", "coordinates": [ 280652.5, 4156158.5 ] } },
{ "type": "Feature", "properties": { "id": "lidar-tree:280672:4156166", "name": null, "kind": "tree", "species": null, "source": "lidar2025", "tree_height": 24.7, "crown_radius": 6.0, "height_source": "lidar2025" }, "geometry": { "type": "Point", "coordinates": [ 280671.5, 4156166.5 ] } },
{ "type": "Feature", "properties": { "id": "lidar-tree:280648:4156174", "name": null, "kind": "tree", "species": null, "source": "lidar2025", "tree_height": 25.5, "crown_radius": 5.8, "height_source": "lidar2025" }, "geometry": { "type": "Point", "coordinates": [ 280647.5, 4156174.5 ] } },
{ "type": "Feature", "properties": { "id": "lidar-tree:280690:4156186", "name": null, "kind": "tree", "species": null, "source": "lidar2025", "tree_height": 28.7, "crown_radius": 6.0, "height_source": "lidar2025" }, "geometry": { "type": "Point", "coordinates": [ 280689.5, 4156186.5 ] } },
{ "type": "Feature", "properties": { "id": "lidar-tree:280662:4156190", "name": null, "kind": "tree", "species": null, "source": "lidar2025", "tree_height": 31.2, "crown_radius": 6.0, "height_source": "lidar2025" }, "geometry": { "type": "Point", "coordinates": [ 280661.5, 4156190.5 ] } },
{ "type": "Feature", "properties": { "id": "lidar-tree:280728:4156148", "name": null, "kind": "tree", "species": null, "source": "lidar2025", "tree_height": 24.4, "crown_radius": 6.0, "height_source": "lidar2025" }, "geometry": { "type": "Point", "coordinates": [ 280727.5, 4156147.5 ] } },
{ "type": "Feature", "properties": { "id": "lidar-tree:280706:4156156", "name": null, "kind": "tree", "species": null, "source": "lidar2025", "tree_height": 24.9, "crown_radius": 6.0, "height_source": "lidar2025" }, "geometry": { "type": "Point", "coordinates": [ 280706.5, 4156155.5 ] } },
{ "type": "Feature", "properties": { "id": "lidar-tree:280732:4156160", "name": null, "kind": "tree", "species": null, "source": "lidar2025", "tree_height": 27.2, "crown_radius": 6.0, "height_source": "lidar2025" }, "geometry": { "type": "Point", "coordinates": [ 280732.5, 4156160.5 ] } },
{ "type": "Feature", "properties": { "id": "lidar-tree:280742:4156170", "name": null, "kind": "tree", "species": null, "source": "lidar2025", "tree_height": 25.7, "crown_radius": 6.0, "height_source": "lidar2025" }, "geometry": { "type": "Point", "coordinates": [ 280741.5, 4156169.5 ] } },
{ "type": "Feature", "properties": { "id": "lidar-tree:280726:4156172", "name": null, "kind": "tree", "species": null, "source": "lidar2025", "tree_height": 27.8, "crown_radius": 6.0, "height_source": "lidar2025" }, "geometry": { "type": "Point", "coordinates": [ 280726.5, 4156171.5 ] } },
{ "type": "Feature", "properties": { "id": "lidar-tree:280696:4156178", "name": null, "kind": "tree", "species": null, "source": "lidar2025", "tree_height": 22.9, "crown_radius": 5.5, "height_source": "lidar2025" }, "geometry": { "type": "Point", "coordinates": [ 280695.5, 4156177.5 ] } },
{ "type": "Feature", "properties": { "id": "lidar-tree:280734:4156182", "name": null, "kind": "tree", "species": null, "source": "lidar2025", "tree_height": 25.7, "crown_radius": 6.0, "height_source": "lidar2025" }, "geometry": { "type": "Point", "coordinates": [ 280733.5, 4156182.5 ] } },
{ "type": "Feature", "properties": { "id": "lidar-tree:280710:4156186", "name": null, "kind": "tree", "species": null, "source": "lidar2025", "tree_height": 10.4, "crown_radius": 5.4, "height_source": "lidar2025" }, "geometry": { "type": "Point", "coordinates": [ 280710.5, 4156186.5 ] } },
{ "type": "Feature", "properties": { "id": "lidar-tree:280700:4156196", "name": null, "kind": "tree", "species": null, "source": "lidar2025", "tree_height": 8.7, "crown_radius": 4.3, "height_source": "lidar2025" }, "geometry": { "type": "Point", "coordinates": [ 280699.5, 4156195.5 ] } },
{ "type": "Feature", "properties": { "id": "lidar-tree:280736:4156204", "name": null, "kind": "tree", "species": null, "source": "lidar2025", "tree_height": 5.5, "crown_radius": 4.3, "height_source": "lidar2025" }, "geometry": { "type": "Point", "coordinates": [ 280736.5, 4156204.5 ] } },
{ "type": "Feature", "properties": { "id": "lidar-tree:280514:4156032", "name": null, "kind": "tree", "species": null, "source": "lidar2025", "tree_height": 36.0, "crown_radius": 6.0, "height_source": "lidar2025" }, "geometry": { "type": "Point", "coordinates": [ 280513.5, 4156031.5 ] } },
{ "type": "Feature", "properties": { "id": "lidar-tree:280538:4156038", "name": null, "kind": "tree", "species": null, "source": "lidar2025", "tree_height": 33.5, "crown_radius": 6.0, "height_source": "lidar2025" }, "geometry": { "type": "Point", "coordinates": [ 280538.5, 4156038.5 ] } },
{ "type": "Feature", "properties": { "id": "lidar-tree:280544:4156044", "name": null, "kind": "tree", "species": null, "source": "lidar2025", "tree_height": 32.1, "crown_radius": 6.0, "height_source": "lidar2025" }, "geometry": { "type": "Point", "coordinates": [ 280544.5, 4156044.5 ] } },
{ "type": "Feature", "properties": { "id": "lidar-tree:280532:4156046", "name": null, "kind": "tree", "species": null, "source": "lidar2025", "tree_height": 33.5, "crown_radius": 6.0, "height_source": "lidar2025" }, "geometry": { "type": "Point", "coordinates": [ 280532.5, 4156045.5 ] } },
{ "type": "Feature", "properties": { "id": "lidar-tree:280516:4156050", "name": null, "kind": "tree", "species": null, "source": "lidar2025", "tree_height": 33.3, "crown_radius": 6.0, "height_source": "lidar2025" }, "geometry": { "type": "Point", "coordinates": [ 280515.5, 4156050.5 ] } },
{ "type": "Feature", "properties": { "id": "lidar-tree:280546:4156054", "name": null, "kind": "tree", "species": null, "source": "lidar2025", "tree_height": 32.7, "crown_radius": 6.0, "height_source": "lidar2025" }, "geometry": { "type": "Point", "coordinates": [ 280545.5, 4156054.5 ] } },
{ "type": "Feature", "properties": { "id": "lidar-tree:280526:4156058", "name": null, "kind": "tree", "species": null, "source": "lidar2025", "tree_height": 33.0, "crown_radius": 6.0, "height_source": "lidar2025" }, "geometry": { "type": "Point", "coordinates": [ 280525.5, 4156057.5 ] } },
{ "type": "Feature", "properties": { "id": "lidar-tree:280502:4156058", "name": null, "kind": "tree", "species": null, "source": "lidar2025", "tree_height": 32.3, "crown_radius": 6.0, "height_source": "lidar2025" }, "geometry": { "type": "Point", "coordinates": [ 280502.5, 4156057.5 ] } },
{ "type": "Feature", "properties": { "id": "lidar-tree:280512:4156062", "name": null, "kind": "tree", "species": null, "source": "lidar2025", "tree_height": 31.0, "crown_radius": 6.0, "height_source": "lidar2025" }, "geometry": { "type": "Point", "coordinates": [ 280511.5, 4156062.5 ] } },
{ "type": "Feature", "properties": { "id": "lidar-tree:280524:4156066", "name": null, "kind": "tree", "species": null, "source": "lidar2025", "tree_height": 34.5, "crown_radius": 6.0, "height_source": "lidar2025" }, "geometry": { "type": "Point", "coordinates": [ 280524.5, 4156066.5 ] } },
{ "type": "Feature", "properties": { "id": "lidar-tree:280582:4156030", "name": null, "kind": "tree", "species": null, "source": "lidar2025", "tree_height": 32.7, "crown_radius": 6.0, "height_source": "lidar2025" }, "geometry": { "type": "Point", "coordinates": [ 280582.5, 4156029.5 ] } },
{ "type": "Feature", "properties": { "id": "lidar-tree:280552:4156038", "name": null, "kind": "tree", "species": null, "source": "lidar2025", "tree_height": 29.6, "crown_radius": 6.0, "height_source": "lidar2025" }, "geometry": { "type": "Point", "coordinates": [ 280551.5, 4156038.5 ] } },
{ "type": "Feature", "properties": { "id": "lidar-tree:280568:4156042", "name": null, "kind": "tree", "species": null, "source": "lidar2025", "tree_height": 35.8, "crown_radius": 5.9, "height_source": "lidar2025" }, "geometry": { "type": "Point", "coordinates": [ 280568.5, 4156041.5 ] } },
{ "type": "Feature", "properties": { "id": "lidar-tree:280562:4156050", "name": null, "kind": "tree", "species": null, "source": "lidar2025", "tree_height": 27.8, "crown_radius": 6.0, "height_source": "lidar2025" }, "geometry": { "type": "Point", "coordinates": [ 280561.5, 4156050.5 ] } },
{ "type": "Feature", "properties": { "id": "lidar-tree:280554:4156056", "name": null, "kind": "tree", "species": null, "source": "lidar2025", "tree_height": 31.3, "crown_radius": 6.0, "height_source": "lidar2025" }, "geometry": { "type": "Point", "coordinates": [ 280554.5, 4156056.5 ] } },
{ "type": "Feature", "properties": { "id": "lidar-tree:280566:4156058", "name": null, "kind": "tree", "species": null, "source": "lidar2025", "tree_height": 28.7, "crown_radius": 6.0, "height_source": "lidar2025" }, "geometry": { "type": "Point", "coordinates": [ 280566.5, 4156058.5 ] } },
{ "type": "Feature", "properties": { "id": "lidar-tree:280586:4156066", "name": null, "kind": "tree", "species": null, "source": "lidar2025", "tree_height": 25.5, "crown_radius": 6.0, "height_source": "lidar2025" }, "geometry": { "type": "Point", "coordinates": [ 280585.5, 4156065.5 ] } },
{ "type": "Feature", "properties": { "id": "lidar-tree:280564:4156066", "name": null, "kind": "tree", "species": null, "source": "lidar2025", "tree_height": 29.7, "crown_radius": 5.9, "height_source": "lidar2025" }, "geometry": { "type": "Point", "coordinates": [ 280563.5, 4156066.5 ] } },
{ "type": "Feature", "properties": { "id": "lidar-tree:280558:4156074", "name": null, "kind": "tree", "species": null, "source": "lidar2025", "tree_height": 6.5, "crown_radius": 4.2, "height_source": "lidar2025" }, "geometry": { "type": "Point", "coordinates": [ 280557.5, 4156074.5 ] } },
{ "type": "Feature", "properties": { "id": "lidar-tree:280596:4156076", "name": null, "kind": "tree", "species": null, "source": "lidar2025", "tree_height": 29.6, "crown_radius": 6.0, "height_source": "lidar2025" }, "geometry": { "type": "Point", "coordinates": [ 280596.5, 4156076.5 ] } },
{ "type": "Feature", "properties": { "id": "lidar-tree:280622:4156050", "name": null, "kind": "tree", "species": null, "source": "lidar2025", "tree_height": 33.9, "crown_radius": 6.0, "height_source": "lidar2025" }, "geometry": { "type": "Point", "coordinates": [ 280621.5, 4156049.5 ] } },
{ "type": "Feature", "properties": { "id": "lidar-tree:280628:4156060", "name": null, "kind": "tree", "species": null, "source": "lidar2025", "tree_height": 34.2, "crown_radius": 6.0, "height_source": "lidar2025" }, "geometry": { "type": "Point", "coordinates": [ 280628.5, 4156059.5 ] } },
{ "type": "Feature", "properties": { "id": "lidar-tree:280602:4156060", "name": null, "kind": "tree", "species": null, "source": "lidar2025", "tree_height": 27.4, "crown_radius": 6.0, "height_source": "lidar2025" }, "geometry": { "type": "Point", "coordinates": [ 280601.5, 4156060.5 ] } },
{ "type": "Feature", "properties": { "id": "lidar-tree:280620:4156064", "name": null, "kind": "tree", "species": null, "source": "lidar2025", "tree_height": 32.7, "crown_radius": 6.0, "height_source": "lidar2025" }, "geometry": { "type": "Point", "coordinates": [ 280619.5, 4156064.5 ] } },
{ "type": "Feature", "properties": { "id": "lidar-tree:280626:4156070", "name": null, "kind": "tree", "species": null, "source": "lidar2025", "tree_height": 32.9, "crown_radius": 6.0, "height_source": "lidar2025" }, "geometry": { "type": "Point", "coordinates": [ 280626.5, 4156070.5 ] } },
{ "type": "Feature", "properties": { "id": "lidar-tree:280626:4156080", "name": null, "kind": "tree", "species": null, "source": "lidar2025", "tree_height": 33.9, "crown_radius": 6.0, "height_source": "lidar2025" }, "geometry": { "type": "Point", "coordinates": [ 280626.5, 4156079.5 ] } },
{ "type": "Feature", "properties": { "id": "lidar-tree:280600:4156086", "name": null, "kind": "tree", "species": null, "source": "lidar2025", "tree_height": 26.8, "crown_radius": 6.0, "height_source": "lidar2025" }, "geometry": { "type": "Point", "coordinates": [ 280599.5, 4156086.5 ] } },
{ "type": "Feature", "properties": { "id": "lidar-tree:280634:4156094", "name": null, "kind": "tree", "species": null, "source": "lidar2025", "tree_height": 29.5, "crown_radius": 6.0, "height_source": "lidar2025" }, "geometry": { "type": "Point", "coordinates": [ 280633.5, 4156094.5 ] } },
{ "type": "Feature", "properties": { "id": "lidar-tree:280628:4156102", "name": null, "kind": "tree", "species": null, "source": "lidar2025", "tree_height": 27.6, "crown_radius": 6.0, "height_source": "lidar2025" }, "geometry": { "type": "Point", "coordinates": [ 280627.5, 4156102.5 ] } },
{ "type": "Feature", "properties": { "id": "lidar-tree:280604:4156108", "name": null, "kind": "tree", "species": null, "source": "lidar2025", "tree_height": 16.6, "crown_radius": 5.1, "height_source": "lidar2025" }, "geometry": { "type": "Point", "coordinates": [ 280603.5, 4156108.5 ] } },
{ "type": "Feature", "properties": { "id": "lidar-tree:280542:4156074", "name": null, "kind": "tree", "species": null, "source": "lidar2025", "tree_height": 26.3, "crown_radius": 6.0, "height_source": "lidar2025" }, "geometry": { "type": "Point", "coordinates": [ 280542.5, 4156073.5 ] } },
{ "type": "Feature", "properties": { "id": "lidar-tree:280516:4156074", "name": null, "kind": "tree", "species": null, "source": "lidar2025", "tree_height": 33.2, "crown_radius": 6.0, "height_source": "lidar2025" }, "geometry": { "type": "Point", "coordinates": [ 280516.5, 4156074.5 ] } },
{ "type": "Feature", "properties": { "id": "lidar-tree:280526:4156080", "name": null, "kind": "tree", "species": null, "source": "lidar2025", "tree_height": 30.3, "crown_radius": 6.0, "height_source": "lidar2025" }, "geometry": { "type": "Point", "coordinates": [ 280525.5, 4156080.5 ] } },
{ "type": "Feature", "properties": { "id": "lidar-tree:280546:4156084", "name": null, "kind": "tree", "species": null, "source": "lidar2025", "tree_height": 32.1, "crown_radius": 6.0, "height_source": "lidar2025" }, "geometry": { "type": "Point", "coordinates": [ 280545.5, 4156083.5 ] } },
{ "type": "Feature", "properties": { "id": "lidar-tree:280528:4156090", "name": null, "kind": "tree", "species": null, "source": "lidar2025", "tree_height": 30.2, "crown_radius": 6.0, "height_source": "lidar2025" }, "geometry": { "type": "Point", "coordinates": [ 280528.5, 4156089.5 ] } },
{ "type": "Feature", "properties": { "id": "lidar-tree:280516:4156092", "name": null, "kind": "tree", "species": null, "source": "lidar2025", "tree_height": 37.9, "crown_radius": 6.0, "height_source": "lidar2025" }, "geometry": { "type": "Point", "coordinates": [ 280515.5, 4156091.5 ] } },
{ "type": "Feature", "properties": { "id": "lidar-tree:280532:4156100", "name": null, "kind": "tree", "species": null, "source": "lidar2025", "tree_height": 35.2, "crown_radius": 6.0, "height_source": "lidar2025" }, "geometry": { "type": "Point", "coordinates": [ 280531.5, 4156099.5 ] } },
{ "type": "Feature", "properties": { "id": "lidar-tree:280512:4156106", "name": null, "kind": "tree", "species": null, "source": "lidar2025", "tree_height": 40.0, "crown_radius": 6.0, "height_source": "lidar2025" }, "geometry": { "type": "Point", "coordinates": [ 280511.5, 4156106.5 ] } },
{ "type": "Feature", "properties": { "id": "lidar-tree:280528:4156116", "name": null, "kind": "tree", "species": null, "source": "lidar2025", "tree_height": 41.7, "crown_radius": 6.0, "height_source": "lidar2025" }, "geometry": { "type": "Point", "coordinates": [ 280527.5, 4156115.5 ] } },
{ "type": "Feature", "properties": { "id": "lidar-tree:280508:4156128", "name": null, "kind": "tree", "species": null, "source": "lidar2025", "tree_height": 38.9, "crown_radius": 6.0, "height_source": "lidar2025" }, "geometry": { "type": "Point", "coordinates": [ 280507.5, 4156127.5 ] } },
{ "type": "Feature", "properties": { "id": "lidar-tree:280502:4156096", "name": null, "kind": "tree", "species": null, "source": "lidar2025", "tree_height": 37.3, "crown_radius": 6.0, "height_source": "lidar2025" }, "geometry": { "type": "Point", "coordinates": [ 280501.5, 4156095.5 ] } },
{ "type": "Feature", "properties": { "id": "lidar-tree:280580:4156094", "name": null, "kind": "tree", "species": null, "source": "lidar2025", "tree_height": 27.6, "crown_radius": 6.0, "height_source": "lidar2025" }, "geometry": { "type": "Point", "coordinates": [ 280579.5, 4156093.5 ] } },
{ "type": "Feature", "properties": { "id": "lidar-tree:280554:4156102", "name": null, "kind": "tree", "species": null, "source": "lidar2025", "tree_height": 30.7, "crown_radius": 6.0, "height_source": "lidar2025" }, "geometry": { "type": "Point", "coordinates": [ 280553.5, 4156102.5 ] } },
{ "type": "Feature", "properties": { "id": "lidar-tree:280566:4156106", "name": null, "kind": "tree", "species": null, "source": "lidar2025", "tree_height": 32.4, "crown_radius": 6.0, "height_source": "lidar2025" }, "geometry": { "type": "Point", "coordinates": [ 280565.5, 4156105.5 ] } },
{ "type": "Feature", "properties": { "id": "lidar-tree:280574:4156110", "name": null, "kind": "tree", "species": null, "source": "lidar2025", "tree_height": 34.1, "crown_radius": 6.0, "height_source": "lidar2025" }, "geometry": { "type": "Point", "coordinates": [ 280574.5, 4156110.5 ] } },
{ "type": "Feature", "properties": { "id": "lidar-tree:280568:4156116", "name": null, "kind": "tree", "species": null, "source": "lidar2025", "tree_height": 36.4, "crown_radius": 6.0, "height_source": "lidar2025" }, "geometry": { "type": "Point", "coordinates": [ 280568.5, 4156116.5 ] } },
{ "type": "Feature", "properties": { "id": "lidar-tree:280562:4156134", "name": null, "kind": "tree", "species": null, "source": "lidar2025", "tree_height": 37.1, "crown_radius": 6.0, "height_source": "lidar2025" }, "geometry": { "type": "Point", "coordinates": [ 280562.5, 4156134.5 ] } },
{ "type": "Feature", "properties": { "id": "lidar-tree:280580:4156136", "name": null, "kind": "tree", "species": null, "source": "lidar2025", "tree_height": 32.8, "crown_radius": 6.0, "height_source": "lidar2025" }, "geometry": { "type": "Point", "coordinates": [ 280579.5, 4156136.5 ] } },
{ "type": "Feature", "properties": { "id": "lidar-tree:280552:4156138", "name": null, "kind": "tree", "species": null, "source": "lidar2025", "tree_height": 37.5, "crown_radius": 6.0, "height_source": "lidar2025" }, "geometry": { "type": "Point", "coordinates": [ 280552.5, 4156137.5 ] } },
{ "type": "Feature", "properties": { "id": "lidar-tree:280570:4156144", "name": null, "kind": "tree", "species": null, "source": "lidar2025", "tree_height": 35.2, "crown_radius": 6.0, "height_source": "lidar2025" }, "geometry": { "type": "Point", "coordinates": [ 280570.5, 4156144.5 ] } },
{ "type": "Feature", "properties": { "id": "lidar-tree:280586:4156146", "name": null, "kind": "tree", "species": null, "source": "lidar2025", "tree_height": 32.4, "crown_radius": 6.0, "height_source": "lidar2025" }, "geometry": { "type": "Point", "coordinates": [ 280585.5, 4156146.5 ] } },
{ "type": "Feature", "properties": { "id": "lidar-tree:280628:4156118", "name": null, "kind": "tree", "species": null, "source": "lidar2025", "tree_height": 28.5, "crown_radius": 5.7, "height_source": "lidar2025" }, "geometry": { "type": "Point", "coordinates": [ 280627.5, 4156118.5 ] } },
{ "type": "Feature", "properties": { "id": "lidar-tree:280616:4156122", "name": null, "kind": "tree", "species": null, "source": "lidar2025", "tree_height": 35.3, "crown_radius": 6.0, "height_source": "lidar2025" }, "geometry": { "type": "Point", "coordinates": [ 280615.5, 4156121.5 ] } },
{ "type": "Feature", "properties": { "id": "lidar-tree:280602:4156126", "name": null, "kind": "tree", "species": null, "source": "lidar2025", "tree_height": 19.2, "crown_radius": 5.3, "height_source": "lidar2025" }, "geometry": { "type": "Point", "coordinates": [ 280602.5, 4156125.5 ] } },
{ "type": "Feature", "properties": { "id": "lidar-tree:280598:4156134", "name": null, "kind": "tree", "species": null, "source": "lidar2025", "tree_height": 22.5, "crown_radius": 5.2, "height_source": "lidar2025" }, "geometry": { "type": "Point", "coordinates": [ 280598.5, 4156134.5 ] } },
{ "type": "Feature", "properties": { "id": "lidar-tree:280612:4156140", "name": null, "kind": "tree", "species": null, "source": "lidar2025", "tree_height": 27.4, "crown_radius": 6.0, "height_source": "lidar2025" }, "geometry": { "type": "Point", "coordinates": [ 280611.5, 4156140.5 ] } },
{ "type": "Feature", "properties": { "id": "lidar-tree:280628:4156146", "name": null, "kind": "tree", "species": null, "source": "lidar2025", "tree_height": 10.3, "crown_radius": 3.2, "height_source": "lidar2025" }, "geometry": { "type": "Point", "coordinates": [ 280628.5, 4156146.5 ] } },
{ "type": "Feature", "properties": { "id": "lidar-tree:280600:4156152", "name": null, "kind": "tree", "species": null, "source": "lidar2025", "tree_height": 32.5, "crown_radius": 6.0, "height_source": "lidar2025" }, "geometry": { "type": "Point", "coordinates": [ 280600.5, 4156152.5 ] } },
{ "type": "Feature", "properties": { "id": "lidar-tree:280606:4156166", "name": null, "kind": "tree", "species": null, "source": "lidar2025", "tree_height": 36.7, "crown_radius": 6.0, "height_source": "lidar2025" }, "geometry": { "type": "Point", "coordinates": [ 280606.5, 4156165.5 ] } },
{ "type": "Feature", "properties": { "id": "lidar-tree:280598:4156170", "name": null, "kind": "tree", "species": null, "source": "lidar2025", "tree_height": 37.8, "crown_radius": 6.0, "height_source": "lidar2025" }, "geometry": { "type": "Point", "coordinates": [ 280598.5, 4156169.5 ] } },
{ "type": "Feature", "properties": { "id": "lidar-tree:280608:4156178", "name": null, "kind": "tree", "species": null, "source": "lidar2025", "tree_height": 40.9, "crown_radius": 6.0, "height_source": "lidar2025" }, "geometry": { "type": "Point", "coordinates": [ 280608.5, 4156178.5 ] } },
{ "type": "Feature", "properties": { "id": "lidar-tree:280546:4156128", "name": null, "kind": "tree", "species": null, "source": "lidar2025", "tree_height": 39.3, "crown_radius": 6.0, "height_source": "lidar2025" }, "geometry": { "type": "Point", "coordinates": [ 280546.5, 4156127.5 ] } },
{ "type": "Feature", "properties": { "id": "lidar-tree:280540:4156132", "name": null, "kind": "tree", "species": null, "source": "lidar2025", "tree_height": 40.9, "crown_radius": 6.0, "height_source": "lidar2025" }, "geometry": { "type": "Point", "coordinates": [ 280539.5, 4156132.5 ] } },
{ "type": "Feature", "properties": { "id": "lidar-tree:280522:4156136", "name": null, "kind": "tree", "species": null, "source": "lidar2025", "tree_height": 37.5, "crown_radius": 6.0, "height_source": "lidar2025" }, "geometry": { "type": "Point", "coordinates": [ 280521.5, 4156135.5 ] } },
{ "type": "Feature", "properties": { "id": "lidar-tree:280512:4156144", "name": null, "kind": "tree", "species": null, "source": "lidar2025", "tree_height": 27.6, "crown_radius": 6.0, "height_source": "lidar2025" }, "geometry": { "type": "Point", "coordinates": [ 280511.5, 4156144.5 ] } },
{ "type": "Feature", "properties": { "id": "lidar-tree:280532:4156146", "name": null, "kind": "tree", "species": null, "source": "lidar2025", "tree_height": 34.5, "crown_radius": 6.0, "height_source": "lidar2025" }, "geometry": { "type": "Point", "coordinates": [ 280532.5, 4156145.5 ] } },
{ "type": "Feature", "properties": { "id": "lidar-tree:280546:4156148", "name": null, "kind": "tree", "species": null, "source": "lidar2025", "tree_height": 36.9, "crown_radius": 6.0, "height_source": "lidar2025" }, "geometry": { "type": "Point", "coordinates": [ 280545.5, 4156147.5 ] } },
{ "type": "Feature", "properties": { "id": "lidar-tree:280506:4156154", "name": null, "kind": "tree", "species": null, "source": "lidar2025", "tree_height": 6.9, "crown_radius": 5.3, "height_source": "lidar2025" }, "geometry": { "type": "Point", "coordinates": [ 280506.5, 4156153.5 ] } },
{ "type": "Feature", "properties": { "id": "lidar-tree:280532:4156160", "name": null, "kind": "tree", "species": null, "source": "lidar2025", "tree_height": 31.3, "crown_radius": 6.0, "height_source": "lidar2025" }, "geometry": { "type": "Point", "coordinates": [ 280532.5, 4156160.5 ] } },
{ "type": "Feature", "properties": { "id": "lidar-tree:280518:4156160", "name": null, "kind": "tree", "species": null, "source": "lidar2025", "tree_height": 16.2, "crown_radius": 5.7, "height_source": "lidar2025" }, "geometry": { "type": "Point", "coordinates": [ 280518.5, 4156160.5 ] } },
{ "type": "Feature", "properties": { "id": "lidar-tree:280508:4156170", "name": null, "kind": "tree", "species": null, "source": "lidar2025", "tree_height": 10.4, "crown_radius": 5.9, "height_source": "lidar2025" }, "geometry": { "type": "Point", "coordinates": [ 280508.5, 4156169.5 ] } },
{ "type": "Feature", "properties": { "id": "lidar-tree:280578:4156152", "name": null, "kind": "tree", "species": null, "source": "lidar2025", "tree_height": 34.5, "crown_radius": 6.0, "height_source": "lidar2025" }, "geometry": { "type": "Point", "coordinates": [ 280578.5, 4156151.5 ] } },
{ "type": "Feature", "properties": { "id": "lidar-tree:280560:4156156", "name": null, "kind": "tree", "species": null, "source": "lidar2025", "tree_height": 41.3, "crown_radius": 6.0, "height_source": "lidar2025" }, "geometry": { "type": "Point", "coordinates": [ 280560.5, 4156155.5 ] } },
{ "type": "Feature", "properties": { "id": "lidar-tree:280592:4156160", "name": null, "kind": "tree", "species": null, "source": "lidar2025", "tree_height": 34.2, "crown_radius": 6.0, "height_source": "lidar2025" }, "geometry": { "type": "Point", "coordinates": [ 280591.5, 4156160.5 ] } },
{ "type": "Feature", "properties": { "id": "lidar-tree:280564:4156166", "name": null, "kind": "tree", "species": null, "source": "lidar2025", "tree_height": 44.9, "crown_radius": 6.0, "height_source": "lidar2025" }, "geometry": { "type": "Point", "coordinates": [ 280563.5, 4156166.5 ] } },
{ "type": "Feature", "properties": { "id": "lidar-tree:280574:4156168", "name": null, "kind": "tree", "species": null, "source": "lidar2025", "tree_height": 40.1, "crown_radius": 6.0, "height_source": "lidar2025" }, "geometry": { "type": "Point", "coordinates": [ 280574.5, 4156168.5 ] } },
{ "type": "Feature", "properties": { "id": "rva-tree:115637", "name": "Lagerstroemia indica", "kind": "tree", "species": "Lagerstroemia indica", "source": "city_inventory", "tree_height": 8.0, "crown_radius": 2.5, "height_source": "estimated" }, "geometry": { "type": "Point", "coordinates": [ 280573.77, 4156185.62 ] } },
{ "type": "Feature", "properties": { "id": "rva-tree:115636", "name": "Lagerstroemia indica", "kind": "tree", "species": "Lagerstroemia indica", "source": "city_inventory", "tree_height": 8.0, "crown_radius": 2.5, "height_source": "estimated" }, "geometry": { "type": "Point", "coordinates": [ 280567.51, 4156191.91 ] } },
{ "type": "Feature", "properties": { "id": "lidar-tree:280594:4156196", "name": null, "kind": "tree", "species": null, "source": "lidar2025", "tree_height": 39.2, "crown_radius": 6.0, "height_source": "lidar2025" }, "geometry": { "type": "Point", "coordinates": [ 280594.5, 4156196.5 ] } },
{ "type": "Feature", "properties": { "id": "rva-tree:115635", "name": "Cornus florida", "kind": "tree", "species": "Cornus florida", "source": "city_inventory", "tree_height": 5.2, "crown_radius": 3.0, "height_source": "lidar2025" }, "geometry": { "type": "Point", "coordinates": [ 280560.69, 4156200.38 ] } },
{ "type": "Feature", "properties": { "id": "lidar-tree:280570:4156212", "name": null, "kind": "tree", "species": null, "source": "lidar2025", "tree_height": 19.2, "crown_radius": 6.0, "height_source": "lidar2025" }, "geometry": { "type": "Point", "coordinates": [ 280569.5, 4156211.5 ] } },
{ "type": "Feature", "properties": { "id": "lidar-tree:280522:4156172", "name": null, "kind": "tree", "species": null, "source": "lidar2025", "tree_height": 18.5, "crown_radius": 6.0, "height_source": "lidar2025" }, "geometry": { "type": "Point", "coordinates": [ 280522.5, 4156171.5 ] } },
{ "type": "Feature", "properties": { "id": "lidar-tree:280536:4156174", "name": null, "kind": "tree", "species": null, "source": "lidar2025", "tree_height": 7.0, "crown_radius": 3.9, "height_source": "lidar2025" }, "geometry": { "type": "Point", "coordinates": [ 280536.5, 4156173.5 ] } },
{ "type": "Feature", "properties": { "id": "lidar-tree:280544:4156182", "name": null, "kind": "tree", "species": null, "source": "lidar2025", "tree_height": 26.7, "crown_radius": 5.5, "height_source": "lidar2025" }, "geometry": { "type": "Point", "coordinates": [ 280544.5, 4156182.5 ] } },
{ "type": "Feature", "properties": { "id": "lidar-tree:280510:4156184", "name": null, "kind": "tree", "species": null, "source": "lidar2025", "tree_height": 12.8, "crown_radius": 6.0, "height_source": "lidar2025" }, "geometry": { "type": "Point", "coordinates": [ 280510.5, 4156184.5 ] } },
{ "type": "Feature", "properties": { "id": "lidar-tree:280530:4156186", "name": null, "kind": "tree", "species": null, "source": "lidar2025", "tree_height": 19.1, "crown_radius": 6.0, "height_source": "lidar2025" }, "geometry": { "type": "Point", "coordinates": [ 280530.5, 4156186.5 ] } },
{ "type": "Feature", "properties": { "id": "lidar-tree:280542:4156210", "name": null, "kind": "tree", "species": null, "source": "lidar2025", "tree_height": 24.7, "crown_radius": 6.0, "height_source": "lidar2025" }, "geometry": { "type": "Point", "coordinates": [ 280542.5, 4156210.5 ] } },
{ "type": "Feature", "properties": { "id": "rva-tree:115633", "name": "Sassafras albidum", "kind": "tree", "species": "Sassafras albidum", "source": "city_inventory", "tree_height": 26.6, "crown_radius": 6.0, "height_source": "lidar2025" }, "geometry": { "type": "Point", "coordinates": [ 280549.08, 4156211.09 ] } },
{ "type": "Feature", "properties": { "id": "lidar-tree:280508:4156224", "name": null, "kind": "tree", "species": null, "source": "lidar2025", "tree_height": 26.3, "crown_radius": 6.0, "height_source": "lidar2025" }, "geometry": { "type": "Point", "coordinates": [ 280507.5, 4156223.5 ] } },
{ "type": "Feature", "properties": { "id": "lidar-tree:280542:4156226", "name": null, "kind": "tree", "species": null, "source": "lidar2025", "tree_height": 28.6, "crown_radius": 6.0, "height_source": "lidar2025" }, "geometry": { "type": "Point", "coordinates": [ 280542.5, 4156225.5 ] } },
{ "type": "Feature", "properties": { "id": "lidar-tree:280532:4156230", "name": null, "kind": "tree", "species": null, "source": "lidar2025", "tree_height": 27.3, "crown_radius": 6.0, "height_source": "lidar2025" }, "geometry": { "type": "Point", "coordinates": [ 280532.5, 4156229.5 ] } },
{ "type": "Feature", "properties": { "id": "lidar-tree:280632:4156186", "name": null, "kind": "tree", "species": null, "source": "lidar2025", "tree_height": 42.0, "crown_radius": 6.0, "height_source": "lidar2025" }, "geometry": { "type": "Point", "coordinates": [ 280632.5, 4156186.5 ] } },
{ "type": "Feature", "properties": { "id": "lidar-tree:280602:4156194", "name": null, "kind": "tree", "species": null, "source": "lidar2025", "tree_height": 39.7, "crown_radius": 6.0, "height_source": "lidar2025" }, "geometry": { "type": "Point", "coordinates": [ 280602.5, 4156193.5 ] } },
{ "type": "Feature", "properties": { "id": "lidar-tree:280622:4156204", "name": null, "kind": "tree", "species": null, "source": "lidar2025", "tree_height": 36.8, "crown_radius": 6.0, "height_source": "lidar2025" }, "geometry": { "type": "Point", "coordinates": [ 280621.5, 4156204.5 ] } },
{ "type": "Feature", "properties": { "id": "lidar-tree:280610:4156206", "name": null, "kind": "tree", "species": null, "source": "lidar2025", "tree_height": 40.8, "crown_radius": 6.0, "height_source": "lidar2025" }, "geometry": { "type": "Point", "coordinates": [ 280609.5, 4156206.5 ] } },
{ "type": "Feature", "properties": { "id": "lidar-tree:280636:4156212", "name": null, "kind": "tree", "species": null, "source": "lidar2025", "tree_height": 40.0, "crown_radius": 6.0, "height_source": "lidar2025" }, "geometry": { "type": "Point", "coordinates": [ 280635.5, 4156212.5 ] } },
{ "type": "Feature", "properties": { "id": "lidar-tree:280598:4156214", "name": null, "kind": "tree", "species": null, "source": "lidar2025", "tree_height": 40.7, "crown_radius": 6.0, "height_source": "lidar2025" }, "geometry": { "type": "Point", "coordinates": [ 280597.5, 4156214.5 ] } },
{ "type": "Feature", "properties": { "id": "lidar-tree:280620:4156224", "name": null, "kind": "tree", "species": null, "source": "lidar2025", "tree_height": 45.0, "crown_radius": 6.0, "height_source": "lidar2025" }, "geometry": { "type": "Point", "coordinates": [ 280619.5, 4156224.5 ] } },
{ "type": "Feature", "properties": { "id": "lidar-tree:280620:4156234", "name": null, "kind": "tree", "species": null, "source": "lidar2025", "tree_height": 42.7, "crown_radius": 6.0, "height_source": "lidar2025" }, "geometry": { "type": "Point", "coordinates": [ 280619.5, 4156234.5 ] } },
{ "type": "Feature", "properties": { "id": "lidar-tree:280634:4156240", "name": null, "kind": "tree", "species": null, "source": "lidar2025", "tree_height": 44.6, "crown_radius": 6.0, "height_source": "lidar2025" }, "geometry": { "type": "Point", "coordinates": [ 280634.5, 4156240.5 ] } },
{ "type": "Feature", "properties": { "id": "lidar-tree:280624:4156246", "name": null, "kind": "tree", "species": null, "source": "lidar2025", "tree_height": 45.0, "crown_radius": 6.0, "height_source": "lidar2025" }, "geometry": { "type": "Point", "coordinates": [ 280623.5, 4156246.5 ] } },
{ "type": "Feature", "properties": { "id": "lidar-tree:280578:4156214", "name": null, "kind": "tree", "species": null, "source": "lidar2025", "tree_height": 28.0, "crown_radius": 6.0, "height_source": "lidar2025" }, "geometry": { "type": "Point", "coordinates": [ 280578.5, 4156213.5 ] } },
{ "type": "Feature", "properties": { "id": "rva-tree:115634", "name": "Photinia spp.", "kind": "tree", "species": "Photinia spp.", "source": "city_inventory", "tree_height": 26.6, "crown_radius": 6.0, "height_source": "lidar2025" }, "geometry": { "type": "Point", "coordinates": [ 280557.15, 4156215.87 ] } },
{ "type": "Feature", "properties": { "id": "lidar-tree:280590:4156220", "name": null, "kind": "tree", "species": null, "source": "lidar2025", "tree_height": 43.8, "crown_radius": 6.0, "height_source": "lidar2025" }, "geometry": { "type": "Point", "coordinates": [ 280589.5, 4156220.5 ] } },
{ "type": "Feature", "properties": { "id": "lidar-tree:280574:4156222", "name": null, "kind": "tree", "species": null, "source": "lidar2025", "tree_height": 41.9, "crown_radius": 6.0, "height_source": "lidar2025" }, "geometry": { "type": "Point", "coordinates": [ 280574.5, 4156221.5 ] } },
{ "type": "Feature", "properties": { "id": "lidar-tree:280586:4156232", "name": null, "kind": "tree", "species": null, "source": "lidar2025", "tree_height": 39.7, "crown_radius": 6.0, "height_source": "lidar2025" }, "geometry": { "type": "Point", "coordinates": [ 280586.5, 4156232.5 ] } },
{ "type": "Feature", "properties": { "id": "rva-tree:115629", "name": "Cornus florida", "kind": "tree", "species": "Cornus florida", "source": "city_inventory", "tree_height": 8.4, "crown_radius": 5.0, "height_source": "lidar2025" }, "geometry": { "type": "Point", "coordinates": [ 280550.96, 4156239.89 ] } },
{ "type": "Feature", "properties": { "id": "lidar-tree:280570:4156240", "name": null, "kind": "tree", "species": null, "source": "lidar2025", "tree_height": 24.2, "crown_radius": 5.9, "height_source": "lidar2025" }, "geometry": { "type": "Point", "coordinates": [ 280569.5, 4156240.5 ] } },
{ "type": "Feature", "properties": { "id": "lidar-tree:280590:4156242", "name": null, "kind": "tree", "species": null, "source": "lidar2025", "tree_height": 38.5, "crown_radius": 6.0, "height_source": "lidar2025" }, "geometry": { "type": "Point", "coordinates": [ 280590.5, 4156242.5 ] } },
{ "type": "Feature", "properties": { "id": "lidar-tree:280502:4156236", "name": null, "kind": "tree", "species": null, "source": "lidar2025", "tree_height": 7.5, "crown_radius": 5.2, "height_source": "lidar2025" }, "geometry": { "type": "Point", "coordinates": [ 280501.5, 4156236.5 ] } },
{ "type": "Feature", "properties": { "id": "lidar-tree:280598:4156248", "name": null, "kind": "tree", "species": null, "source": "lidar2025", "tree_height": 21.2, "crown_radius": 6.0, "height_source": "lidar2025" }, "geometry": { "type": "Point", "coordinates": [ 280597.5, 4156247.5 ] } },
{ "type": "Feature", "properties": { "id": "lidar-tree:280508:4156250", "name": null, "kind": "tree", "species": null, "source": "lidar2025", "tree_height": 15.4, "crown_radius": 6.0, "height_source": "lidar2025" }, "geometry": { "type": "Point", "coordinates": [ 280508.5, 4156249.5 ] } },
{ "type": "Feature", "properties": { "id": "lidar-tree:280646:4156194", "name": null, "kind": "tree", "species": null, "source": "lidar2025", "tree_height": 37.0, "crown_radius": 6.0, "height_source": "lidar2025" }, "geometry": { "type": "Point", "coordinates": [ 280646.5, 4156193.5 ] } },
{ "type": "Feature", "properties": { "id": "lidar-tree:280648:4156206", "name": null, "kind": "tree", "species": null, "source": "lidar2025", "tree_height": 30.6, "crown_radius": 6.0, "height_source": "lidar2025" }, "geometry": { "type": "Point", "coordinates": [ 280648.5, 4156206.5 ] } },
{ "type": "Feature", "properties": { "id": "lidar-tree:280682:4156212", "name": null, "kind": "tree", "species": null, "source": "lidar2025", "tree_height": 29.6, "crown_radius": 6.0, "height_source": "lidar2025" }, "geometry": { "type": "Point", "coordinates": [ 280681.5, 4156211.5 ] } },
{ "type": "Feature", "properties": { "id": "lidar-tree:280688:4156220", "name": null, "kind": "tree", "species": null, "source": "lidar2025", "tree_height": 23.7, "crown_radius": 6.0, "height_source": "lidar2025" }, "geometry": { "type": "Point", "coordinates": [ 280687.5, 4156219.5 ] } },
{ "type": "Feature", "properties": { "id": "lidar-tree:280644:4156226", "name": null, "kind": "tree", "species": null, "source": "lidar2025", "tree_height": 35.3, "crown_radius": 6.0, "height_source": "lidar2025" }, "geometry": { "type": "Point", "coordinates": [ 280643.5, 4156225.5 ] } },
{ "type": "Feature", "properties": { "id": "lidar-tree:280690:4156232", "name": null, "kind": "tree", "species": null, "source": "lidar2025", "tree_height": 23.7, "crown_radius": 6.0, "height_source": "lidar2025" }, "geometry": { "type": "Point", "coordinates": [ 280689.5, 4156231.5 ] } },
{ "type": "Feature", "properties": { "id": "lidar-tree:280656:4156234", "name": null, "kind": "tree", "species": null, "source": "lidar2025", "tree_height": 33.0, "crown_radius": 6.0, "height_source": "lidar2025" }, "geometry": { "type": "Point", "coordinates": [ 280656.5, 4156233.5 ] } },
{ "type": "Feature", "properties": { "id": "lidar-tree:280672:4156234", "name": null, "kind": "tree", "species": null, "source": "lidar2025", "tree_height": 30.7, "crown_radius": 6.0, "height_source": "lidar2025" }, "geometry": { "type": "Point", "coordinates": [ 280671.5, 4156233.5 ] } },
{ "type": "Feature", "properties": { "id": "lidar-tree:280678:4156238", "name": null, "kind": "tree", "species": null, "source": "lidar2025", "tree_height": 28.8, "crown_radius": 6.0, "height_source": "lidar2025" }, "geometry": { "type": "Point", "coordinates": [ 280678.5, 4156238.5 ] } },
{ "type": "Feature", "properties": { "id": "lidar-tree:280644:4156238", "name": null, "kind": "tree", "species": null, "source": "lidar2025", "tree_height": 42.8, "crown_radius": 6.0, "height_source": "lidar2025" }, "geometry": { "type": "Point", "coordinates": [ 280643.5, 4156238.5 ] } },
{ "type": "Feature", "properties": { "id": "lidar-tree:280724:4156204", "name": null, "kind": "tree", "species": null, "source": "lidar2025", "tree_height": 19.6, "crown_radius": 6.0, "height_source": "lidar2025" }, "geometry": { "type": "Point", "coordinates": [ 280723.5, 4156204.5 ] } },
{ "type": "Feature", "properties": { "id": "lidar-tree:280732:4156210", "name": null, "kind": "tree", "species": null, "source": "lidar2025", "tree_height": 4.9, "crown_radius": 5.1, "height_source": "lidar2025" }, "geometry": { "type": "Point", "coordinates": [ 280732.5, 4156210.5 ] } },
{ "type": "Feature", "properties": { "id": "lidar-tree:280708:4156234", "name": null, "kind": "tree", "species": null, "source": "lidar2025", "tree_height": 20.2, "crown_radius": 6.0, "height_source": "lidar2025" }, "geometry": { "type": "Point", "coordinates": [ 280708.5, 4156233.5 ] } },
{ "type": "Feature", "properties": { "id": "lidar-tree:280730:4156236", "name": null, "kind": "tree", "species": null, "source": "lidar2025", "tree_height": 21.5, "crown_radius": 5.6, "height_source": "lidar2025" }, "geometry": { "type": "Point", "coordinates": [ 280729.5, 4156235.5 ] } },
{ "type": "Feature", "properties": { "id": "lidar-tree:280744:4156236", "name": null, "kind": "tree", "species": null, "source": "lidar2025", "tree_height": 27.0, "crown_radius": 6.0, "height_source": "lidar2025" }, "geometry": { "type": "Point", "coordinates": [ 280743.5, 4156235.5 ] } },
{ "type": "Feature", "properties": { "id": "lidar-tree:280696:4156238", "name": null, "kind": "tree", "species": null, "source": "lidar2025", "tree_height": 24.6, "crown_radius": 6.0, "height_source": "lidar2025" }, "geometry": { "type": "Point", "coordinates": [ 280696.5, 4156238.5 ] } },
{ "type": "Feature", "properties": { "id": "lidar-tree:280716:4156240", "name": null, "kind": "tree", "species": null, "source": "lidar2025", "tree_height": 23.4, "crown_radius": 6.0, "height_source": "lidar2025" }, "geometry": { "type": "Point", "coordinates": [ 280715.5, 4156239.5 ] } },
{ "type": "Feature", "properties": { "id": "lidar-tree:280704:4156246", "name": null, "kind": "tree", "species": null, "source": "lidar2025", "tree_height": 26.9, "crown_radius": 6.0, "height_source": "lidar2025" }, "geometry": { "type": "Point", "coordinates": [ 280704.5, 4156246.5 ] } },
{ "type": "Feature", "properties": { "id": "lidar-tree:280722:4156248", "name": null, "kind": "tree", "species": null, "source": "lidar2025", "tree_height": 27.6, "crown_radius": 6.0, "height_source": "lidar2025" }, "geometry": { "type": "Point", "coordinates": [ 280722.5, 4156247.5 ] } },
{ "type": "Feature", "properties": { "id": "lidar-tree:280666:4156240", "name": null, "kind": "tree", "species": null, "source": "lidar2025", "tree_height": 32.8, "crown_radius": 6.0, "height_source": "lidar2025" }, "geometry": { "type": "Point", "coordinates": [ 280666.5, 4156240.5 ] } },
{ "type": "Feature", "properties": { "id": "lidar-tree:280692:4156246", "name": null, "kind": "tree", "species": null, "source": "lidar2025", "tree_height": 27.4, "crown_radius": 6.0, "height_source": "lidar2025" }, "geometry": { "type": "Point", "coordinates": [ 280692.5, 4156246.5 ] } },
{ "type": "Feature", "properties": { "id": "lidar-tree:280654:4156250", "name": null, "kind": "tree", "species": null, "source": "lidar2025", "tree_height": 42.6, "crown_radius": 6.0, "height_source": "lidar2025" }, "geometry": { "type": "Point", "coordinates": [ 280653.5, 4156249.5 ] } }
]
}
