{
"type": "FeatureCollection",
"name": "pois",
"crs": { "type": "name", "properties": { "name": "urn:ogc:def:crs:EPSG::32618" } },
"xy_coordinate_resolution": 0.01,
"features": [
{ "type": "Feature", "properties": { "id": "lidar-tree:283542:4156932", "name": null, "kind": "tree", "species": null, "source": "lidar2025", "tree_height": 17.6, "crown_radius": 5.4, "height_source": "lidar2025" }, "geometry": { "type": "Point", "coordinates": [ 283542.5, 4156932.5 ] } },
{ "type": "Feature", "properties": { "id": "lidar-tree:283558:4156934", "name": null, "kind": "tree", "species": null, "source": "lidar2025", "tree_height": 18.7, "crown_radius": 6.0, "height_source": "lidar2025" }, "geometry": { "type": "Point", "coordinates": [ 283557.5, 4156934.5 ] } },
{ "type": "Feature", "properties": { "id": "lidar-tree:283624:4156952", "name": null, "kind": "tree", "species": null, "source": "lidar2025", "tree_height": 21.3, "crown_radius": 6.0, "height_source": "lidar2025" }, "geometry": { "type": "Point", "coordinates": [ 283623.5, 4156952.5 ] } },
{ "type": "Feature", "properties": { "id": "lidar-tree:283658:4156966", "name": null, "kind": "tree", "species": null, "source": "lidar2025", "tree_height": 9.2, "crown_radius": 5.4, "height_source": "lidar2025" }, "geometry": { "type": "Point", "coordinates": [ 283657.5, 4156965.5 ] } },
{ "type": "Feature", "properties": { "id": "lidar-tree:283636:4156966", "name": null, "kind": "tree", "species": null, "source": "lidar2025", "tree_height": 10.1, "crown_radius": 5.8, "height_source": "lidar2025" }, "geometry": { "type": "Point", "coordinates": [ 283635.5, 4156965.5 ] } },
{ "type": "Feature", "properties": { "id": "lidar-tree:283748:4156972", "name": null, "kind": "tree", "species": null, "source": "lidar2025", "tree_height": 9.5, "crown_radius": 5.7, "height_source": "lidar2025" }, "geometry": { "type": "Point", "coordinates": [ 283747.5, 4156971.5 ] } },
{ "type": "Feature", "properties": { "id": "lidar-tree:283740:4156972", "name": null, "kind": "tree", "species": null, "source": "lidar2025", "tree_height": 5.2, "crown_radius": 4.2, "height_source": "lidar2025" }, "geometry": { "type": "Point", "coordinates": [ 283739.5, 4156971.5 ] } },
{ "type": "Feature", "properties": { "id": "lidar-tree:283528:4156936", "name": null, "kind": "tree", "species": null, "source": "lidar2025", "tree_height": 25.5, "crown_radius": 5.9, "height_source": "lidar2025" }, "geometry": { "type": "Point", "coordinates": [ 283527.5, 4156935.5 ] } },
{ "type": "Feature", "properties": { "id": "lidar-tree:283506:4156938", "name": null, "kind": "tree", "species": null, "source": "lidar2025", "tree_height": 23.9, "crown_radius": 5.9, "height_source": "lidar2025" }, "geometry": { "type": "Point", "coordinates": [ 283505.5, 4156938.5 ] } },
{ "type": "Feature", "properties": { "id": "lidar-tree:283516:4156942", "name": null, "kind": "tree", "species": null, "source": "lidar2025", "tree_height": 26.4, "crown_radius": 6.0, "height_source": "lidar2025" }, "geometry": { "type": "Point", "coordinates": [ 283516.5, 4156942.5 ] } },
{ "type": "Feature", "properties": { "id": "lidar-tree:283508:4156952", "name": null, "kind": "tree", "species": null, "source": "lidar2025", "tree_height": 22.3, "crown_radius": 6.0, "height_source": "lidar2025" }, "geometry": { "type": "Point", "coordinates": [ 283507.5, 4156951.5 ] } },
{ "type": "Feature", "properties": { "id": "lidar-tree:283504:4156962", "name": null, "kind": "tree", "species": null, "source": "lidar2025", "tree_height": 20.0, "crown_radius": 6.0, "height_source": "lidar2025" }, "geometry": { "type": "Point", "coordinates": [ 283504.5, 4156961.5 ] } },
{ "type": "Feature", "properties": { "id": "lidar-tree:283662:4156958", "name": null, "kind": "tree", "species": null, "source": "lidar2025", "tree_height": 11.7, "crown_radius": 6.0, "height_source": "lidar2025" }, "geometry": { "type": "Point", "coordinates": [ 283661.5, 4156958.5 ] } },
{ "type": "Feature", "properties": { "id": "lidar-tree:283694:4156962", "name": null, "kind": "tree", "species": null, "source": "lidar2025", "tree_height": 14.3, "crown_radius": 6.0, "height_source": "lidar2025" }, "geometry": { "type": "Point", "coordinates": [ 283694.5, 4156961.5 ] } },
{ "type": "Feature", "properties": { "id": "lidar-tree:283706:4156966", "name": null, "kind": "tree", "species": null, "source": "lidar2025", "tree_height": 4.8, "crown_radius": 4.5, "height_source": "lidar2025" }, "geometry": { "type": "Point", "coordinates": [ 283706.5, 4156965.5 ] } },
{ "type": "Feature", "properties": { "id": "lidar-tree:283666:4156976", "name": null, "kind": "tree", "species": null, "source": "lidar2025", "tree_height": 13.3, "crown_radius": 5.9, "height_source": "lidar2025" }, "geometry": { "type": "Point", "coordinates": [ 283665.5, 4156976.5 ] } },
{ "type": "Feature", "properties": { "id": "lidar-tree:283672:4156986", "name": null, "kind": "tree", "species": null, "source": "lidar2025", "tree_height": 14.6, "crown_radius": 6.0, "height_source": "lidar2025" }, "geometry": { "type": "Point", "coordinates": [ 283671.5, 4156985.5 ] } },
{ "type": "Feature", "properties": { "id": "lidar-tree:283546:4156940", "name": null, "kind": "tree", "species": null, "source": "lidar2025", "tree_height": 9.4, "crown_radius": 5.9, "height_source": "lidar2025" }, "geometry": { "type": "Point", "coordinates": [ 283545.5, 4156940.5 ] } },
{ "type": "Feature", "properties": { "id": "lidar-tree:283562:4156944", "name": null, "kind": "tree", "species": null, "source": "lidar2025", "tree_height": 13.6, "crown_radius": 4.8, "height_source": "lidar2025" }, "geometry": { "type": "Point", "coordinates": [ 283561.5, 4156944.5 ] } },
{ "type": "Feature", "properties": { "id": "osm:node/12078699419", "name": null, "kind": "bench", "species": null, "source": null, "tree_height": null, "crown_radius": null, "height_source": null }, "geometry": { "type": "Point", "coordinates": [ 283549.6, 4156946.17 ] } },
{ "type": "Feature", "properties": { "id": "osm:node/12078737089", "name": null, "kind": "bench", "species": null, "source": null, "tree_height": null, "crown_radius": null, "height_source": null }, "geometry": { "type": "Point", "coordinates": [ 283592.8, 4156960.05 ] } },
{ "type": "Feature", "properties": { "id": "lidar-tree:283550:4156964", "name": null, "kind": "tree", "species": null, "source": "lidar2025", "tree_height": 4.1, "crown_radius": 5.4, "height_source": "lidar2025" }, "geometry": { "type": "Point", "coordinates": [ 283549.5, 4156964.5 ] } },
{ "type": "Feature", "properties": { "id": "lidar-tree:283572:4156968", "name": null, "kind": "tree", "species": null, "source": "lidar2025", "tree_height": 12.0, "crown_radius": 5.0, "height_source": "lidar2025" }, "geometry": { "type": "Point", "coordinates": [ 283571.5, 4156968.5 ] } },
{ "type": "Feature", "properties": { "id": "lidar-tree:283572:4156982", "name": null, "kind": "tree", "species": null, "source": "lidar2025", "tree_height": 7.7, "crown_radius": 4.8, "height_source": "lidar2025" }, "geometry": { "type": "Point", "coordinates": [ 283571.5, 4156981.5 ] } },
{ "type": "Feature", "properties": { "id": "lidar-tree:283550:4156992", "name": null, "kind": "tree", "species": null, "source": "lidar2025", "tree_height": 22.5, "crown_radius": 6.0, "height_source": "lidar2025" }, "geometry": { "type": "Point", "coordinates": [ 283549.5, 4156991.5 ] } },
{ "type": "Feature", "properties": { "id": "lidar-tree:283572:4156992", "name": null, "kind": "tree", "species": null, "source": "lidar2025", "tree_height": 14.2, "crown_radius": 5.5, "height_source": "lidar2025" }, "geometry": { "type": "Point", "coordinates": [ 283572.5, 4156992.5 ] } },
{ "type": "Feature", "properties": { "id": "osm:node/12078729494", "name": null, "kind": "bench", "species": null, "source": null, "tree_height": null, "crown_radius": null, "height_source": null }, "geometry": { "type": "Point", "coordinates": [ 283627.91, 4156966.18 ] } },
{ "type": "Feature", "properties": { "id": "lidar-tree:283642:4156978", "name": null, "kind": "tree", "species": null, "source": "lidar2025", "tree_height": 21.8, "crown_radius": 6.0, "height_source": "lidar2025" }, "geometry": { "type": "Point", "coordinates": [ 283641.5, 4156977.5 ] } },
{ "type": "Feature", "properties": { "id": "lidar-tree:283622:4156980", "name": null, "kind": "tree", "species": null, "source": "lidar2025", "tree_height": 15.1, "crown_radius": 4.9, "height_source": "lidar2025" }, "geometry": { "type": "Point", "coordinates": [ 283622.5, 4156979.5 ] } },
{ "type": "Feature", "properties": { "id": "lidar-tree:283656:4156988", "name": null, "kind": "tree", "species": null, "source": "lidar2025", "tree_height": 19.5, "crown_radius": 6.0, "height_source": "lidar2025" }, "geometry": { "type": "Point", "coordinates": [ 283655.5, 4156987.5 ] } },
{ "type": "Feature", "properties": { "id": "lidar-tree:283520:4156964", "name": null, "kind": "tree", "species": null, "source": "lidar2025", "tree_height": 21.6, "crown_radius": 6.0, "height_source": "lidar2025" }, "geometry": { "type": "Point", "coordinates": [ 283519.5, 4156963.5 ] } },
{ "type": "Feature", "properties": { "id": "lidar-tree:283534:4156964", "name": null, "kind": "tree", "species": null, "source": "lidar2025", "tree_height": 17.7, "crown_radius": 6.0, "height_source": "lidar2025" }, "geometry": { "type": "Point", "coordinates": [ 283533.5, 4156964.5 ] } },
{ "type": "Feature", "properties": { "id": "lidar-tree:283516:4156984", "name": null, "kind": "tree", "species": null, "source": "lidar2025", "tree_height": 26.7, "crown_radius": 6.0, "height_source": "lidar2025" }, "geometry": { "type": "Point", "coordinates": [ 283516.5, 4156984.5 ] } },
{ "type": "Feature", "properties": { "id": "lidar-tree:283530:4156986", "name": null, "kind": "tree", "species": null, "source": "lidar2025", "tree_height": 23.3, "crown_radius": 6.0, "height_source": "lidar2025" }, "geometry": { "type": "Point", "coordinates": [ 283529.5, 4156986.5 ] } },
{ "type": "Feature", "properties": { "id": "lidar-tree:283514:4156994", "name": null, "kind": "tree", "species": null, "source": "lidar2025", "tree_height": 25.1, "crown_radius": 6.0, "height_source": "lidar2025" }, "geometry": { "type": "Point", "coordinates": [ 283513.5, 4156993.5 ] } }
]
}
