{
"type": "FeatureCollection",
"name": "landuse",
"crs": { "type": "name", "properties": { "name": "urn:ogc:def:crs:EPSG::32618" } },
"xy_coordinate_resolution": 0.01,
"features": [
{ "type": "Feature", "properties": { "id": "osm:way/365924171", "name": null, "kind": "grass", "sport": null, "surface": null, "pitch_layout": null, "source": null, "source_updated": null, "base_z": null, "top_z": null }, "geometry": { "type": "Polygon", "coordinates": [ [ [ 285600.37, 4157500.0 ], [ 285595.49, 4157500.0 ], [ 285596.86, 4157505.02 ], [ 285600.37, 4157500.0 ] ] ] } },
{ "type": "Feature", "properties": { "id": "osm:way/365924173", "name": null, "kind": "grass", "sport": null, "surface": null, "pitch_layout": null, "source": null, "source_updated": null, "base_z": null, "top_z": null }, "geometry": { "type": "Polygon", "coordinates": [ [ [ 285645.6, 4157541.94 ], [ 285650.95, 4157535.78 ], [ 285654.79, 4157521.82 ], [ 285651.53, 4157507.53 ], [ 285647.44, 4157501.62 ], [ 285644.28, 4157500.0 ], [ 285611.97, 4157500.0 ], [ 285608.14, 4157504.47 ], [ 285604.35, 4157510.32 ], [ 285602.68, 4157517.16 ], [ 285607.18, 4157548.94 ], [ 285625.31, 4157549.26 ], [ 285636.28, 4157547.14 ], [ 285645.6, 4157541.94 ] ] ] } },
{ "type": "Feature", "properties": { "id": "osm:way/365924176", "name": null, "kind": "forest", "sport": null, "surface": null, "pitch_layout": null, "source": null, "source_updated": null, "base_z": null, "top_z": null }, "geometry": { "type": "Polygon", "coordinates": [ [ [ 285723.24, 4157614.71 ], [ 285727.03, 4157621.31 ], [ 285733.13, 4157625.0 ], [ 285739.6, 4157612.72 ], [ 285737.85, 4157500.0 ], [ 285705.62, 4157500.0 ], [ 285704.65, 4157500.04 ], [ 285708.65, 4157564.12 ], [ 285713.12, 4157585.79 ], [ 285723.24, 4157614.71 ] ] ] } },
{ "type": "Feature", "properties": { "id": "imagery:groundcover_lawn:2487", "name": null, "kind": "groundcover_lawn", "sport": null, "surface": null, "pitch_layout": null, "source": "vgin_vbmp+naip+lidar2025", "source_updated": null, "base_z": null, "top_z": null }, "geometry": { "type": "MultiPolygon", "coordinates": [ [ [ [ 285704.86, 4157503.31 ], [ 285704.65, 4157500.04 ], [ 285705.62, 4157500.0 ], [ 285698.96, 4157500.0 ], [ 285699.18, 4157500.31 ], [ 285703.43, 4157501.73 ], [ 285704.19, 4157502.3 ], [ 285704.86, 4157503.31 ] ] ], [ [ [ 285739.13, 4157512.77 ], [ 285739.13, 4157500.0 ], [ 285737.85, 4157500.0 ], [ 285738.07, 4157514.48 ], [ 285739.13, 4157512.77 ] ] ], [ [ [ 285739.44, 4157602.65 ], [ 285745.08, 4157548.08 ], [ 285745.04, 4157547.18 ], [ 285742.61, 4157535.04 ], [ 285739.67, 4157532.63 ], [ 285738.36, 4157532.63 ], [ 285739.44, 4157602.65 ] ] ], [ [ [ 285715.4, 4157593.56 ], [ 285726.51, 4157632.45 ], [ 285729.39, 4157634.63 ], [ 285733.43, 4157634.63 ], [ 285736.41, 4157631.93 ], [ 285738.1, 4157615.55 ], [ 285733.13, 4157625.0 ], [ 285727.03, 4157621.31 ], [ 285723.24, 4157614.71 ], [ 285713.12, 4157585.79 ], [ 285709.13, 4157566.46 ], [ 285709.13, 4157585.38 ], [ 285710.01, 4157587.5 ], [ 285714.45, 4157591.94 ], [ 285714.68, 4157592.24 ], [ 285715.25, 4157593.21 ], [ 285715.4, 4157593.56 ] ] ] ] } },
{ "type": "Feature", "properties": { "id": "osm:way/823304444", "name": null, "kind": "forest", "sport": null, "surface": null, "pitch_layout": null, "source": null, "source_updated": null, "base_z": null, "top_z": null }, "geometry": { "type": "Polygon", "coordinates": [ [ [ 285568.62, 4157561.11 ], [ 285558.53, 4157565.63 ], [ 285554.96, 4157583.55 ], [ 285560.67, 4157602.54 ], [ 285566.43, 4157614.31 ], [ 285564.36, 4157626.17 ], [ 285566.53, 4157627.42 ], [ 285570.07, 4157626.61 ], [ 285575.19, 4157622.37 ], [ 285575.43, 4157590.29 ], [ 285572.98, 4157561.33 ], [ 285568.62, 4157561.11 ] ] ] } },
{ "type": "Feature", "properties": { "id": "osm:way/365924178", "name": null, "kind": "forest", "sport": null, "surface": null, "pitch_layout": null, "source": null, "source_updated": null, "base_z": null, "top_z": null }, "geometry": { "type": "Polygon", "coordinates": [ [ [ 285643.85, 4157565.28 ], [ 285627.99, 4157568.73 ], [ 285609.68, 4157568.01 ], [ 285612.67, 4157627.2 ], [ 285610.8, 4157663.76 ], [ 285607.53, 4157687.32 ], [ 285674.47, 4157666.06 ], [ 285678.98, 4157625.31 ], [ 285678.8, 4157587.06 ], [ 285676.87, 4157524.19 ], [ 285672.97, 4157519.14 ], [ 285672.09, 4157535.67 ], [ 285661.65, 4157552.88 ], [ 285655.62, 4157558.76 ], [ 285643.85, 4157565.28 ] ] ] } },
{ "type": "Feature", "properties": { "id": "osm:way/823011248", "name": null, "kind": "forest", "sport": null, "surface": null, "pitch_layout": null, "source": null, "source_updated": null, "base_z": null, "top_z": null }, "geometry": { "type": "Polygon", "coordinates": [ [ [ 285692.74, 4157569.16 ], [ 285690.85, 4157569.68 ], [ 285690.31, 4157622.37 ], [ 285684.26, 4157663.37 ], [ 285720.55, 4157654.64 ], [ 285716.27, 4157635.63 ], [ 285694.7, 4157571.95 ], [ 285692.74, 4157569.16 ] ] ] } },
{ "type": "Feature", "properties": { "id": "imagery:groundcover_paved:2354", "name": null, "kind": "groundcover_paved", "sport": null, "surface": null, "pitch_layout": null, "source": "vgin_vbmp+naip+lidar2025", "source_updated": null, "base_z": null, "top_z": null }, "geometry": { "type": "Polygon", "coordinates": [ [ [ 285659.04, 4157736.63 ], [ 285657.38, 4157737.13 ], [ 285655.98, 4157738.06 ], [ 285653.36, 4157750.0 ], [ 285662.11, 4157750.0 ], [ 285664.93, 4157736.63 ], [ 285659.04, 4157736.63 ] ] ] } },
{ "type": "Feature", "properties": { "id": "osm:way/296796851", "name": null, "kind": "forest", "sport": null, "surface": null, "pitch_layout": null, "source": null, "source_updated": null, "base_z": null, "top_z": null }, "geometry": { "type": "Polygon", "coordinates": [ [ [ 285662.11, 4157750.0 ], [ 285719.91, 4157750.0 ], [ 285721.11, 4157737.77 ], [ 285722.24, 4157689.55 ], [ 285673.7, 4157702.15 ], [ 285671.98, 4157704.19 ], [ 285669.42, 4157715.36 ], [ 285662.11, 4157750.0 ] ] ] } },
{ "type": "Feature", "properties": { "id": "imagery:groundcover_lawn:2381", "name": null, "kind": "groundcover_lawn", "sport": null, "surface": null, "pitch_layout": null, "source": "vgin_vbmp+naip+lidar2025", "source_updated": null, "base_z": null, "top_z": null }, "geometry": { "type": "MultiPolygon", "coordinates": [ [ [ [ 285589.73, 4157737.02 ], [ 285586.44, 4157748.84 ], [ 285586.41, 4157748.95 ], [ 285586.1, 4157750.0 ], [ 285593.47, 4157750.0 ], [ 285598.28, 4157733.66 ], [ 285589.73, 4157737.02 ] ] ], [ [ [ 285726.89, 4157720.94 ], [ 285734.79, 4157718.96 ], [ 285736.75, 4157717.39 ], [ 285738.12, 4157714.66 ], [ 285738.66, 4157714.06 ], [ 285740.63, 4157712.85 ], [ 285741.4, 4157712.63 ], [ 285741.53, 4157712.63 ], [ 285742.55, 4157713.05 ], [ 285744.71, 4157715.2 ], [ 285745.15, 4157716.27 ], [ 285748.41, 4157718.08 ], [ 285750.0, 4157717.81 ], [ 285750.0, 4157687.56 ], [ 285736.34, 4157688.61 ], [ 285735.92, 4157688.67 ], [ 285722.19, 4157691.72 ], [ 285721.11, 4157737.77 ], [ 285720.01, 4157748.99 ], [ 285720.08, 4157748.93 ], [ 285720.98, 4157748.63 ], [ 285721.13, 4157748.63 ], [ 285724.13, 4157745.63 ], [ 285724.13, 4157724.47 ], [ 285724.44, 4157723.57 ], [ 285726.09, 4157721.45 ], [ 285726.89, 4157720.94 ] ] ], [ [ [ 285669.42, 4157715.36 ], [ 285671.87, 4157704.67 ], [ 285662.51, 4157708.36 ], [ 285655.98, 4157738.06 ], [ 285657.19, 4157737.25 ], [ 285657.59, 4157737.07 ], [ 285658.83, 4157736.69 ], [ 285659.26, 4157736.63 ], [ 285664.93, 4157736.63 ], [ 285669.42, 4157715.36 ] ] ] ] } },
{ "type": "Feature", "properties": { "id": "osm:way/365924162", "name": null, "kind": "grass", "sport": null, "surface": null, "pitch_layout": null, "source": null, "source_updated": null, "base_z": null, "top_z": null }, "geometry": { "type": "Polygon", "coordinates": [ [ [ 285560.27, 4157500.0 ], [ 285533.43, 4157500.0 ], [ 285548.49, 4157518.41 ], [ 285569.0, 4157534.83 ], [ 285560.27, 4157500.0 ] ] ] } },
{ "type": "Feature", "properties": { "id": "osm:way/823304404", "name": null, "kind": "forest", "sport": null, "surface": null, "pitch_layout": null, "source": null, "source_updated": null, "base_z": null, "top_z": null }, "geometry": { "type": "Polygon", "coordinates": [ [ [ 285548.49, 4157518.41 ], [ 285569.0, 4157534.83 ], [ 285560.27, 4157500.0 ], [ 285544.42, 4157500.0 ], [ 285544.7, 4157508.1 ], [ 285548.49, 4157518.41 ] ] ] } },
{ "type": "Feature", "properties": { "id": "osm:way/823011246", "name": null, "kind": "grass", "sport": null, "surface": null, "pitch_layout": null, "source": null, "source_updated": null, "base_z": null, "top_z": null }, "geometry": { "type": "Polygon", "coordinates": [ [ [ 285548.79, 4157671.7 ], [ 285551.29, 4157675.6 ], [ 285544.17, 4157601.24 ], [ 285537.7, 4157568.43 ], [ 285529.21, 4157546.26 ], [ 285518.5, 4157526.63 ], [ 285500.0, 4157504.01 ], [ 285500.0, 4157530.5 ], [ 285502.95, 4157528.14 ], [ 285515.53, 4157544.61 ], [ 285508.32, 4157550.63 ], [ 285532.33, 4157580.99 ], [ 285521.24, 4157590.21 ], [ 285524.46, 4157594.56 ], [ 285523.69, 4157597.59 ], [ 285541.21, 4157620.01 ], [ 285528.09, 4157631.36 ], [ 285543.7, 4157651.09 ], [ 285532.02, 4157660.15 ], [ 285535.5, 4157664.91 ], [ 285534.19, 4157665.94 ], [ 285541.86, 4157675.89 ], [ 285542.29, 4157672.84 ], [ 285546.31, 4157671.22 ], [ 285548.79, 4157671.7 ] ] ] } },
{ "type": "Feature", "properties": { "id": "osm:way/365924180", "name": null, "kind": "grass", "sport": null, "surface": null, "pitch_layout": null, "source": null, "source_updated": null, "base_z": null, "top_z": null }, "geometry": { "type": "Polygon", "coordinates": [ [ [ 285575.43, 4157590.29 ], [ 285572.76, 4157558.71 ], [ 285546.6, 4157547.6 ], [ 285531.12, 4157534.39 ], [ 285538.06, 4157545.61 ], [ 285549.72, 4157582.12 ], [ 285553.62, 4157604.46 ], [ 285562.78, 4157701.39 ], [ 285572.73, 4157657.34 ], [ 285575.18, 4157623.42 ], [ 285575.43, 4157590.29 ] ] ] } },
{ "type": "Feature", "properties": { "id": "osm:way/224510151", "name": "Deck D, Faculty/Staff Parking", "kind": "parking", "sport": null, "surface": null, "pitch_layout": null, "source": null, "source_updated": null, "base_z": null, "top_z": null }, "geometry": { "type": "Polygon", "coordinates": [ [ [ 285534.82, 4157664.71 ], [ 285530.61, 4157659.42 ], [ 285542.36, 4157650.17 ], [ 285526.74, 4157630.51 ], [ 285540.54, 4157619.63 ], [ 285521.56, 4157595.73 ], [ 285523.35, 4157594.31 ], [ 285519.35, 4157589.27 ], [ 285530.86, 4157580.19 ], [ 285508.57, 4157552.16 ], [ 285500.0, 4157558.91 ], [ 285500.0, 4157682.49 ], [ 285520.1, 4157707.77 ], [ 285548.74, 4157685.17 ], [ 285533.38, 4157665.85 ], [ 285534.82, 4157664.71 ] ] ] } },
{ "type": "Feature", "properties": { "id": "osm:way/823011245", "name": null, "kind": "forest", "sport": null, "surface": null, "pitch_layout": null, "source": null, "source_updated": null, "base_z": null, "top_z": null }, "geometry": { "type": "Polygon", "coordinates": [ [ [ 285544.68, 4157671.35 ], [ 285542.29, 4157672.84 ], [ 285541.86, 4157675.89 ], [ 285549.13, 4157685.27 ], [ 285530.71, 4157700.1 ], [ 285530.63, 4157710.78 ], [ 285525.71, 4157729.1 ], [ 285552.94, 4157713.99 ], [ 285551.29, 4157675.6 ], [ 285548.79, 4157671.7 ], [ 285544.68, 4157671.35 ] ] ] } },
{ "type": "Feature", "properties": { "id": "imagery:groundcover_lawn:2379", "name": null, "kind": "groundcover_lawn", "sport": null, "surface": null, "pitch_layout": null, "source": "vgin_vbmp+naip+lidar2025", "source_updated": null, "base_z": null, "top_z": null }, "geometry": { "type": "Polygon", "coordinates": [ [ [ 285527.72, 4157721.63 ], [ 285530.63, 4157710.78 ], [ 285530.68, 4157704.08 ], [ 285529.75, 4157704.12 ], [ 285527.76, 4157705.0 ], [ 285524.01, 4157708.75 ], [ 285523.13, 4157710.87 ], [ 285523.13, 4157718.63 ], [ 285526.13, 4157721.63 ], [ 285527.72, 4157721.63 ] ] ] } },
{ "type": "Feature", "properties": { "id": "imagery:groundcover_paved:2430", "name": null, "kind": "groundcover_paved", "sport": null, "surface": null, "pitch_layout": null, "source": "vgin_vbmp+naip+lidar2025", "source_updated": null, "base_z": null, "top_z": null }, "geometry": { "type": "Polygon", "coordinates": [ [ [ 285522.4, 4157727.63 ], [ 285522.59, 4157727.63 ], [ 285525.55, 4157724.13 ], [ 285523.8, 4157713.63 ], [ 285521.62, 4157712.52 ], [ 285521.47, 4157712.58 ], [ 285520.99, 4157712.69 ], [ 285520.5, 4157712.75 ], [ 285520.02, 4157712.77 ], [ 285519.53, 4157712.73 ], [ 285519.04, 4157712.65 ], [ 285518.57, 4157712.53 ], [ 285518.11, 4157712.35 ], [ 285517.67, 4157712.14 ], [ 285517.26, 4157711.88 ], [ 285516.87, 4157711.58 ], [ 285516.51, 4157711.25 ], [ 285516.51, 4157711.24 ], [ 285516.07, 4157711.17 ], [ 285515.27, 4157710.76 ], [ 285514.49, 4157709.98 ], [ 285514.42, 4157710.12 ], [ 285514.33, 4157710.27 ], [ 285514.22, 4157710.42 ], [ 285514.1, 4157710.54 ], [ 285513.97, 4157710.66 ], [ 285513.82, 4157710.76 ], [ 285513.67, 4157710.85 ], [ 285513.51, 4157710.93 ], [ 285513.34, 4157710.98 ], [ 285513.17, 4157711.02 ], [ 285513.0, 4157711.05 ], [ 285512.82, 4157711.05 ], [ 285512.64, 4157711.04 ], [ 285512.47, 4157711.01 ], [ 285512.3, 4157710.97 ], [ 285512.13, 4157710.91 ], [ 285511.98, 4157710.83 ], [ 285511.83, 4157710.73 ], [ 285511.68, 4157710.63 ], [ 285511.56, 4157710.51 ], [ 285511.44, 4157710.37 ], [ 285511.34, 4157710.23 ], [ 285509.99, 4157708.15 ], [ 285509.25, 4157708.57 ], [ 285509.48, 4157709.04 ], [ 285509.49, 4157709.05 ], [ 285509.5, 4157709.07 ], [ 285509.58, 4157709.27 ], [ 285509.67, 4157709.47 ], [ 285509.67, 4157709.49 ], [ 285509.68, 4157709.5 ], [ 285512.87, 4157718.28 ], [ 285512.95, 4157718.52 ], [ 285515.09, 4157725.55 ], [ 285515.17, 4157725.81 ], [ 285516.83, 4157732.67 ], [ 285517.96, 4157731.97 ], [ 285519.12, 4157729.66 ], [ 285519.66, 4157729.06 ], [ 285521.63, 4157727.85 ], [ 285522.4, 4157727.63 ] ] ] } },
{ "type": "Feature", "properties": { "id": "osm:way/822816398", "name": null, "kind": "forest", "sport": null, "surface": null, "pitch_layout": null, "source": null, "source_updated": null, "base_z": null, "top_z": null }, "geometry": { "type": "Polygon", "coordinates": [ [ [ 285500.8, 4157729.25 ], [ 285500.0, 4157728.11 ], [ 285500.0, 4157744.14 ], [ 285504.11, 4157741.89 ], [ 285500.8, 4157729.25 ] ] ] } },
{ "type": "Feature", "properties": { "id": "osm:way/296796852", "name": null, "kind": "forest", "sport": null, "surface": null, "pitch_layout": null, "source": null, "source_updated": null, "base_z": null, "top_z": null }, "geometry": { "type": "Polygon", "coordinates": [ [ [ 285613.38, 4157722.96 ], [ 285599.51, 4157729.49 ], [ 285593.47, 4157750.0 ], [ 285653.36, 4157750.0 ], [ 285663.29, 4157704.81 ], [ 285613.38, 4157722.96 ] ] ] } },
{ "type": "Feature", "properties": { "id": "imagery:groundcover_paved:2389", "name": null, "kind": "groundcover_paved", "sport": null, "surface": null, "pitch_layout": null, "source": "vgin_vbmp+naip+lidar2025", "source_updated": null, "base_z": null, "top_z": null }, "geometry": { "type": "Polygon", "coordinates": [ [ [ 285747.35, 4157718.58 ], [ 285745.49, 4157716.43 ], [ 285745.31, 4157715.97 ], [ 285741.32, 4157714.26 ], [ 285725.95, 4157720.85 ], [ 285724.13, 4157723.6 ], [ 285724.13, 4157745.03 ], [ 285723.71, 4157746.05 ], [ 285721.55, 4157748.2 ], [ 285720.53, 4157748.63 ], [ 285720.47, 4157748.63 ], [ 285720.01, 4157748.99 ], [ 285719.91, 4157750.0 ], [ 285750.0, 4157750.0 ], [ 285750.0, 4157719.32 ], [ 285748.24, 4157719.07 ], [ 285747.35, 4157718.58 ] ] ] } },
{ "type": "Feature", "properties": { "id": "imagery:groundcover_paved:2792", "name": null, "kind": "groundcover_paved", "sport": null, "surface": null, "pitch_layout": null, "source": "vgin_vbmp+naip+lidar2025", "source_updated": null, "base_z": null, "top_z": null }, "geometry": { "type": "MultiPolygon", "coordinates": [ [ [ [ 285580.17, 4157508.36 ], [ 285582.93, 4157520.4 ], [ 285582.98, 4157520.62 ], [ 285584.17, 4157526.63 ], [ 285584.56, 4157526.63 ], [ 285583.88, 4157522.24 ], [ 285579.49, 4157502.52 ], [ 285578.77, 4157500.0 ], [ 285577.81, 4157500.0 ], [ 285580.07, 4157507.96 ], [ 285580.17, 4157508.36 ] ] ], [ [ [ 285515.63, 4157509.71 ], [ 285515.83, 4157510.05 ], [ 285515.95, 4157510.3 ], [ 285533.2, 4157527.05 ], [ 285544.14, 4157535.62 ], [ 285556.98, 4157543.39 ], [ 285569.07, 4157548.75 ], [ 285569.87, 4157549.03 ], [ 285569.18, 4157544.92 ], [ 285564.66, 4157542.98 ], [ 285564.39, 4157542.85 ], [ 285564.13, 4157542.7 ], [ 285557.4, 4157538.46 ], [ 285557.16, 4157538.3 ], [ 285556.93, 4157538.11 ], [ 285548.46, 4157530.76 ], [ 285548.16, 4157530.47 ], [ 285539.67, 4157521.3 ], [ 285539.5, 4157521.09 ], [ 285522.59, 4157500.0 ], [ 285507.76, 4157500.0 ], [ 285515.39, 4157509.38 ], [ 285515.63, 4157509.71 ] ] ], [ [ [ 285596.65, 4157504.27 ], [ 285595.49, 4157500.0 ], [ 285594.91, 4157500.0 ], [ 285596.08, 4157505.26 ], [ 285596.65, 4157504.27 ] ] ], [ [ [ 285553.6, 4157525.16 ], [ 285558.03, 4157529.0 ], [ 285557.46, 4157525.59 ], [ 285548.49, 4157518.41 ], [ 285533.43, 4157500.0 ], [ 285532.33, 4157500.0 ], [ 285545.34, 4157516.23 ], [ 285553.6, 4157525.16 ] ] ], [ [ [ 285658.55, 4157502.37 ], [ 285658.76, 4157502.72 ], [ 285658.93, 4157503.09 ], [ 285662.01, 4157510.73 ], [ 285662.14, 4157511.11 ], [ 285662.23, 4157511.51 ], [ 285663.91, 4157521.16 ], [ 285663.95, 4157521.49 ], [ 285663.96, 4157521.83 ], [ 285663.95, 4157522.16 ], [ 285663.13, 4157530.72 ], [ 285663.08, 4157531.07 ], [ 285663.0, 4157531.42 ], [ 285662.89, 4157531.75 ], [ 285662.74, 4157532.07 ], [ 285658.69, 4157540.14 ], [ 285658.46, 4157540.53 ], [ 285658.18, 4157540.9 ], [ 285651.77, 4157548.41 ], [ 285651.51, 4157548.68 ], [ 285651.23, 4157548.93 ], [ 285650.92, 4157549.15 ], [ 285643.48, 4157553.87 ], [ 285643.21, 4157554.03 ], [ 285642.93, 4157554.16 ], [ 285642.63, 4157554.27 ], [ 285634.19, 4157557.04 ], [ 285633.86, 4157557.13 ], [ 285633.53, 4157557.19 ], [ 285625.41, 4157558.34 ], [ 285625.05, 4157558.37 ], [ 285624.69, 4157558.37 ], [ 285610.13, 4157557.65 ], [ 285610.13, 4157559.9 ], [ 285622.21, 4157560.02 ], [ 285634.12, 4157559.04 ], [ 285643.43, 4157555.84 ], [ 285651.1, 4157551.71 ], [ 285657.28, 4157545.24 ], [ 285662.7, 4157536.59 ], [ 285665.08, 4157527.84 ], [ 285665.57, 4157519.87 ], [ 285664.45, 4157512.37 ], [ 285660.74, 4157502.75 ], [ 285658.72, 4157500.0 ], [ 285656.58, 4157500.0 ], [ 285658.31, 4157502.05 ], [ 285658.55, 4157502.37 ] ] ], [ [ [ 285654.78, 4157521.86 ], [ 285654.94, 4157522.65 ], [ 285654.96, 4157523.04 ], [ 285654.89, 4157524.19 ], [ 285654.82, 4157524.57 ], [ 285652.96, 4157530.13 ], [ 285652.43, 4157530.85 ], [ 285652.27, 4157530.97 ], [ 285650.95, 4157535.78 ], [ 285645.6, 4157541.94 ], [ 285642.08, 4157543.9 ], [ 285641.36, 4157544.51 ], [ 285640.54, 4157544.86 ], [ 285640.32, 4157544.88 ], [ 285636.28, 4157547.14 ], [ 285625.31, 4157549.26 ], [ 285611.37, 4157549.01 ], [ 285610.41, 4157550.06 ], [ 285624.71, 4157550.76 ], [ 285632.14, 4157549.72 ], [ 285639.81, 4157547.2 ], [ 285646.36, 4157543.04 ], [ 285652.11, 4157536.31 ], [ 285655.63, 4157529.3 ], [ 285656.33, 4157521.95 ], [ 285654.81, 4157513.2 ], [ 285652.11, 4157506.49 ], [ 285646.99, 4157500.43 ], [ 285646.31, 4157500.0 ], [ 285644.28, 4157500.0 ], [ 285647.44, 4157501.62 ], [ 285651.53, 4157507.53 ], [ 285651.84, 4157508.87 ], [ 285652.21, 4157509.47 ], [ 285652.4, 4157509.95 ], [ 285654.65, 4157521.23 ], [ 285654.79, 4157521.82 ], [ 285654.78, 4157521.86 ] ] ], [ [ [ 285598.53, 4157516.26 ], [ 285599.16, 4157519.1 ], [ 285599.2, 4157519.34 ], [ 285599.25, 4157519.59 ], [ 285601.31, 4157532.8 ], [ 285602.01, 4157533.5 ], [ 285604.83, 4157532.34 ], [ 285602.68, 4157517.16 ], [ 285604.35, 4157510.32 ], [ 285608.14, 4157504.47 ], [ 285611.97, 4157500.0 ], [ 285610.05, 4157500.0 ], [ 285605.53, 4157504.07 ], [ 285598.53, 4157516.26 ] ] ], [ [ [ 285690.85, 4157569.68 ], [ 285692.74, 4157569.16 ], [ 285694.7, 4157571.95 ], [ 285713.7, 4157628.06 ], [ 285714.76, 4157630.7 ], [ 285714.86, 4157631.08 ], [ 285714.93, 4157631.67 ], [ 285716.27, 4157635.63 ], [ 285719.85, 4157651.52 ], [ 285750.0, 4157647.22 ], [ 285750.0, 4157500.0 ], [ 285741.81, 4157500.0 ], [ 285744.3, 4157508.73 ], [ 285744.24, 4157509.71 ], [ 285743.12, 4157512.26 ], [ 285742.43, 4157512.97 ], [ 285738.08, 4157515.15 ], [ 285738.36, 4157532.63 ], [ 285739.15, 4157532.63 ], [ 285740.07, 4157532.96 ], [ 285742.21, 4157534.71 ], [ 285742.72, 4157535.55 ], [ 285745.03, 4157547.13 ], [ 285745.06, 4157547.33 ], [ 285745.1, 4157547.93 ], [ 285745.1, 4157548.13 ], [ 285739.32, 4157628.98 ], [ 285738.98, 4157629.82 ], [ 285737.33, 4157631.79 ], [ 285736.56, 4157632.27 ], [ 285730.33, 4157633.83 ], [ 285729.29, 4157633.7 ], [ 285726.72, 4157632.31 ], [ 285726.04, 4157631.51 ], [ 285706.34, 4157575.23 ], [ 285706.28, 4157574.98 ], [ 285706.15, 4157574.24 ], [ 285706.13, 4157573.99 ], [ 285706.13, 4157523.75 ], [ 285704.84, 4157502.99 ], [ 285704.08, 4157501.94 ], [ 285699.63, 4157500.46 ], [ 285699.01, 4157500.0 ], [ 285676.62, 4157500.0 ], [ 285678.54, 4157520.86 ], [ 285680.8, 4157539.29 ], [ 285680.81, 4157539.52 ], [ 285680.96, 4157558.74 ], [ 285680.95, 4157558.93 ], [ 285680.92, 4157559.12 ], [ 285680.9, 4157559.27 ], [ 285681.96, 4157569.88 ], [ 285681.88, 4157570.52 ], [ 285681.24, 4157572.32 ], [ 285680.89, 4157572.87 ], [ 285678.44, 4157575.32 ], [ 285678.8, 4157587.06 ], [ 285678.9, 4157607.65 ], [ 285679.13, 4157608.22 ], [ 285679.13, 4157640.03 ], [ 285678.71, 4157641.05 ], [ 285677.06, 4157642.7 ], [ 285674.99, 4157661.4 ], [ 285675.29, 4157661.63 ], [ 285684.52, 4157661.63 ], [ 285690.31, 4157622.37 ], [ 285690.85, 4157569.68 ] ] ], [ [ [ 285606.94, 4157627.27 ], [ 285607.31, 4157626.98 ], [ 285608.53, 4157626.73 ], [ 285610.0, 4157627.09 ], [ 285611.22, 4157627.88 ], [ 285611.32, 4157627.73 ], [ 285612.62, 4157628.12 ], [ 285612.67, 4157627.2 ], [ 285610.35, 4157581.18 ], [ 285606.15, 4157582.02 ], [ 285606.4, 4157588.23 ], [ 285606.4, 4157588.36 ], [ 285606.77, 4157605.03 ], [ 285606.77, 4157605.04 ], [ 285607.13, 4157622.7 ], [ 285607.12, 4157623.2 ], [ 285606.94, 4157627.27 ] ] ], [ [ [ 285551.51, 4157680.61 ], [ 285552.66, 4157682.06 ], [ 285552.94, 4157682.46 ], [ 285553.19, 4157682.89 ], [ 285551.16, 4157660.95 ], [ 285546.16, 4157613.91 ], [ 285542.85, 4157587.54 ], [ 285539.45, 4157572.65 ], [ 285534.83, 4157558.22 ], [ 285527.78, 4157542.73 ], [ 285524.35, 4157537.35 ], [ 285529.21, 4157546.26 ], [ 285529.68, 4157547.49 ], [ 285529.72, 4157547.55 ], [ 285529.73, 4157547.61 ], [ 285537.7, 4157568.43 ], [ 285544.17, 4157601.24 ], [ 285551.29, 4157675.6 ], [ 285551.51, 4157680.61 ] ] ], [ [ [ 285553.7, 4157613.0 ], [ 285553.71, 4157613.07 ], [ 285558.72, 4157660.17 ], [ 285558.73, 4157660.22 ], [ 285562.23, 4157698.15 ], [ 285562.25, 4157698.32 ], [ 285562.64, 4157706.63 ], [ 285564.37, 4157706.63 ], [ 285565.1, 4157706.44 ], [ 285567.77, 4157694.32 ], [ 285570.88, 4157677.9 ], [ 285573.28, 4157661.08 ], [ 285574.64, 4157647.01 ], [ 285575.54, 4157632.63 ], [ 285575.82, 4157625.25 ], [ 285575.54, 4157625.81 ], [ 285574.97, 4157626.35 ], [ 285572.73, 4157657.34 ], [ 285562.78, 4157701.39 ], [ 285554.29, 4157611.57 ], [ 285551.21, 4157593.11 ], [ 285553.7, 4157613.0 ] ] ], [ [ [ 285605.23, 4157650.98 ], [ 285605.21, 4157651.15 ], [ 285602.96, 4157672.12 ], [ 285602.93, 4157672.38 ], [ 285600.81, 4157687.41 ], [ 285603.3, 4157686.07 ], [ 285603.65, 4157685.94 ], [ 285604.71, 4157685.67 ], [ 285605.07, 4157685.63 ], [ 285607.76, 4157685.63 ], [ 285610.8, 4157663.76 ], [ 285612.4, 4157632.4 ], [ 285611.42, 4157632.68 ], [ 285611.22, 4157632.37 ], [ 285610.0, 4157633.16 ], [ 285608.53, 4157633.53 ], [ 285607.31, 4157633.27 ], [ 285606.7, 4157632.79 ], [ 285606.61, 4157634.76 ], [ 285606.59, 4157635.09 ], [ 285605.23, 4157650.98 ] ] ] ] } }
]
}
