{
"type": "FeatureCollection",
"name": "roads",
"crs": { "type": "name", "properties": { "name": "urn:ogc:def:crs:EPSG::32618" } },
"xy_coordinate_resolution": 0.01,
"features": [
{ "type": "Feature", "properties": { "id": "osm:way/182027802", "name": null, "highway": "service", "lanes": null, "width": 4.5, "oneway": false, "surface": null, "footway": null, "sidewalk_left": false, "sidewalk_right": false, "generated_sidewalk": false, "bus_lanes": null, "bus_lane_side": null, "bus_only": false, "sidewalk": false, "bridge": false, "ramp": false, "tunnel": false, "layer": 0, "deck": null }, "geometry": { "type": "MultiLineString", "coordinates": [ [ [ 282333.38, 4156869.02 ], [ 282323.99, 4156853.73 ], [ 282318.54, 4156845.01 ], [ 282309.43, 4156832.06 ], [ 282300.67, 4156820.21 ], [ 282294.68, 4156812.54 ], [ 282290.15, 4156805.55 ], [ 282287.1, 4156799.42 ], [ 282284.22, 4156792.64 ], [ 282282.1, 4156783.84 ], [ 282280.56, 4156774.24 ], [ 282278.88, 4156762.07 ], [ 282277.63, 4156750.0 ] ], [ [ 282376.69, 4156750.0 ], [ 282371.81, 4156766.26 ], [ 282366.81, 4156782.95 ], [ 282365.2, 4156797.33 ], [ 282361.83, 4156805.39 ] ] ] } },
{ "type": "Feature", "properties": { "id": "osm:way/182027781", "name": null, "highway": "service", "lanes": null, "width": 4.5, "oneway": false, "surface": null, "footway": null, "sidewalk_left": false, "sidewalk_right": false, "generated_sidewalk": false, "bus_lanes": null, "bus_lane_side": null, "bus_only": false, "sidewalk": false, "bridge": false, "ramp": false, "tunnel": false, "layer": 0, "deck": null }, "geometry": { "type": "LineString", "coordinates": [ [ 282480.47, 4156750.0 ], [ 282481.65, 4156752.7 ], [ 282483.49, 4156758.08 ], [ 282484.77, 4156763.18 ], [ 282485.86, 4156768.64 ], [ 282486.34, 4156773.45 ], [ 282486.12, 4156777.97 ], [ 282485.7, 4156782.03 ], [ 282484.75, 4156785.77 ], [ 282483.46, 4156789.95 ], [ 282482.14, 4156793.47 ], [ 282480.41, 4156797.13 ], [ 282478.21, 4156801.42 ], [ 282474.75, 4156806.36 ], [ 282470.8, 4156810.82 ], [ 282453.07, 4156828.42 ], [ 282448.7, 4156833.43 ], [ 282446.2, 4156837.41 ], [ 282443.02, 4156844.5 ] ] } },
{ "type": "Feature", "properties": { "id": "osm:way/182027799", "name": null, "highway": "service", "lanes": null, "width": 4.5, "oneway": false, "surface": null, "footway": null, "sidewalk_left": false, "sidewalk_right": false, "generated_sidewalk": false, "bus_lanes": null, "bus_lane_side": null, "bus_only": false, "sidewalk": false, "bridge": false, "ramp": false, "tunnel": false, "layer": 0, "deck": null }, "geometry": { "type": "LineString", "coordinates": [ [ 282321.52, 4156750.0 ], [ 282321.26, 4156752.27 ], [ 282319.04, 4156765.21 ] ] } },
{ "type": "Feature", "properties": { "id": "osm:way/182027810", "name": null, "highway": "service", "lanes": null, "width": 4.5, "oneway": false, "surface": null, "footway": null, "sidewalk_left": false, "sidewalk_right": false, "generated_sidewalk": false, "bus_lanes": null, "bus_lane_side": null, "bus_only": false, "sidewalk": false, "bridge": false, "ramp": false, "tunnel": false, "layer": 0, "deck": null }, "geometry": { "type": "LineString", "coordinates": [ [ 282377.67, 4156750.0 ], [ 282390.02, 4156757.5 ], [ 282406.94, 4156766.64 ], [ 282414.72, 4156771.72 ] ] } },
{ "type": "Feature", "properties": { "id": "osm:way/182027782", "name": null, "highway": "service", "lanes": null, "width": 4.5, "oneway": false, "surface": null, "footway": null, "sidewalk_left": false, "sidewalk_right": false, "generated_sidewalk": false, "bus_lanes": null, "bus_lane_side": null, "bus_only": false, "sidewalk": false, "bridge": false, "ramp": false, "tunnel": false, "layer": 0, "deck": null }, "geometry": { "type": "LineString", "coordinates": [ [ 282299.57, 4156750.0 ], [ 282307.45, 4156756.2 ], [ 282319.04, 4156765.21 ], [ 282323.19, 4156768.43 ], [ 282344.89, 4156788.64 ], [ 282354.38, 4156798.51 ], [ 282361.83, 4156805.39 ], [ 282373.51, 4156819.5 ], [ 282382.61, 4156832.21 ], [ 282386.89, 4156837.45 ], [ 282387.23, 4156847.14 ], [ 282394.56, 4156872.54 ], [ 282401.72, 4156900.08 ] ] } },
{ "type": "Feature", "properties": { "id": "osm:way/174309514", "name": null, "highway": "footway", "lanes": null, "width": 2.0, "oneway": false, "surface": null, "footway": null, "sidewalk_left": false, "sidewalk_right": false, "generated_sidewalk": false, "bus_lanes": null, "bus_lane_side": null, "bus_only": false, "sidewalk": false, "bridge": false, "ramp": false, "tunnel": false, "layer": 0, "deck": null }, "geometry": { "type": "LineString", "coordinates": [ [ 282281.69, 4156879.51 ], [ 282250.0, 4156886.83 ] ] } },
{ "type": "Feature", "properties": { "id": "osm:way/182027787", "name": null, "highway": "service", "lanes": null, "width": 4.5, "oneway": false, "surface": null, "footway": null, "sidewalk_left": false, "sidewalk_right": false, "generated_sidewalk": false, "bus_lanes": null, "bus_lane_side": null, "bus_only": false, "sidewalk": false, "bridge": false, "ramp": false, "tunnel": false, "layer": 0, "deck": null }, "geometry": { "type": "LineString", "coordinates": [ [ 282358.07, 4157000.0 ], [ 282357.84, 4156996.93 ], [ 282357.02, 4156986.42 ], [ 282356.38, 4156973.49 ], [ 282355.44, 4156960.58 ], [ 282353.31, 4156948.58 ], [ 282347.75, 4156932.77 ], [ 282342.19, 4156916.66 ], [ 282338.45, 4156900.8 ], [ 282335.65, 4156886.43 ], [ 282333.38, 4156869.02 ], [ 282335.93, 4156861.06 ], [ 282337.03, 4156851.7 ], [ 282339.24, 4156841.15 ], [ 282343.85, 4156831.02 ], [ 282347.37, 4156824.5 ], [ 282361.83, 4156805.39 ] ] } },
{ "type": "Feature", "properties": { "id": "osm:way/182027789", "name": null, "highway": "service", "lanes": null, "width": 4.5, "oneway": false, "surface": null, "footway": null, "sidewalk_left": false, "sidewalk_right": false, "generated_sidewalk": false, "bus_lanes": null, "bus_lane_side": null, "bus_only": false, "sidewalk": false, "bridge": false, "ramp": false, "tunnel": false, "layer": 0, "deck": null }, "geometry": { "type": "LineString", "coordinates": [ [ 282357.84, 4156996.93 ], [ 282360.19, 4157000.0 ] ] } },
{ "type": "Feature", "properties": { "id": "osm:way/629352639", "name": null, "highway": "service", "lanes": null, "width": 4.5, "oneway": false, "surface": "asphalt", "footway": null, "sidewalk_left": false, "sidewalk_right": false, "generated_sidewalk": false, "bus_lanes": null, "bus_lane_side": null, "bus_only": false, "sidewalk": false, "bridge": false, "ramp": false, "tunnel": false, "layer": 0, "deck": null }, "geometry": { "type": "LineString", "coordinates": [ [ 282301.81, 4157000.0 ], [ 282295.18, 4156992.63 ], [ 282280.55, 4156978.09 ], [ 282268.84, 4156963.83 ], [ 282259.7, 4156949.87 ], [ 282251.99, 4156934.78 ], [ 282250.0, 4156930.18 ] ] } },
{ "type": "Feature", "properties": { "id": "osm:way/182027775", "name": null, "highway": "service", "lanes": null, "width": 4.5, "oneway": false, "surface": null, "footway": null, "sidewalk_left": false, "sidewalk_right": false, "generated_sidewalk": false, "bus_lanes": null, "bus_lane_side": null, "bus_only": false, "sidewalk": false, "bridge": false, "ramp": false, "tunnel": false, "layer": 0, "deck": null }, "geometry": { "type": "LineString", "coordinates": [ [ 282428.87, 4156766.89 ], [ 282439.84, 4156750.0 ] ] } },
{ "type": "Feature", "properties": { "id": "osm:way/182027767", "name": null, "highway": "service", "lanes": null, "width": 4.5, "oneway": false, "surface": null, "footway": null, "sidewalk_left": false, "sidewalk_right": false, "generated_sidewalk": false, "bus_lanes": null, "bus_lane_side": null, "bus_only": false, "sidewalk": false, "bridge": false, "ramp": false, "tunnel": false, "layer": 0, "deck": null }, "geometry": { "type": "LineString", "coordinates": [ [ 282500.0, 4156829.08 ], [ 282495.77, 4156834.17 ] ] } },
{ "type": "Feature", "properties": { "id": "osm:way/182027765", "name": null, "highway": "service", "lanes": null, "width": 4.5, "oneway": false, "surface": null, "footway": null, "sidewalk_left": false, "sidewalk_right": false, "generated_sidewalk": false, "bus_lanes": null, "bus_lane_side": null, "bus_only": false, "sidewalk": false, "bridge": false, "ramp": false, "tunnel": false, "layer": 0, "deck": null }, "geometry": { "type": "LineString", "coordinates": [ [ 282419.34, 4156767.2 ], [ 282416.69, 4156769.12 ], [ 282414.72, 4156771.72 ], [ 282413.58, 4156774.92 ], [ 282413.46, 4156778.29 ], [ 282414.38, 4156781.55 ], [ 282416.26, 4156784.37 ], [ 282418.89, 4156786.5 ], [ 282422.22, 4156787.76 ], [ 282425.77, 4156787.9 ], [ 282429.19, 4156786.91 ], [ 282432.11, 4156784.89 ], [ 282434.24, 4156782.06 ], [ 282435.36, 4156778.64 ], [ 282435.33, 4156775.06 ], [ 282434.12, 4156771.67 ], [ 282431.89, 4156768.85 ], [ 282428.87, 4156766.89 ], [ 282425.71, 4156766.04 ], [ 282422.44, 4156766.14 ], [ 282419.34, 4156767.2 ] ] } },
{ "type": "Feature", "properties": { "id": "osm:way/182027777", "name": null, "highway": "service", "lanes": null, "width": 4.5, "oneway": false, "surface": null, "footway": null, "sidewalk_left": false, "sidewalk_right": false, "generated_sidewalk": false, "bus_lanes": null, "bus_lane_side": null, "bus_only": false, "sidewalk": false, "bridge": false, "ramp": false, "tunnel": false, "layer": 0, "deck": null }, "geometry": { "type": "LineString", "coordinates": [ [ 282434.24, 4156782.06 ], [ 282474.75, 4156806.36 ] ] } },
{ "type": "Feature", "properties": { "id": "osm:way/182027808", "name": null, "highway": "service", "lanes": null, "width": 4.5, "oneway": false, "surface": null, "footway": null, "sidewalk_left": false, "sidewalk_right": false, "generated_sidewalk": false, "bus_lanes": null, "bus_lane_side": null, "bus_only": false, "sidewalk": false, "bridge": false, "ramp": false, "tunnel": false, "layer": 0, "deck": null }, "geometry": { "type": "LineString", "coordinates": [ [ 282418.89, 4156786.5 ], [ 282386.89, 4156837.45 ], [ 282399.07, 4156842.21 ], [ 282410.75, 4156847.65 ], [ 282418.04, 4156848.52 ], [ 282429.61, 4156849.07 ], [ 282436.75, 4156850.2 ] ] } },
{ "type": "Feature", "properties": { "id": "osm:way/182027769", "name": null, "highway": "service", "lanes": null, "width": 4.5, "oneway": false, "surface": null, "footway": null, "sidewalk_left": false, "sidewalk_right": false, "generated_sidewalk": false, "bus_lanes": null, "bus_lane_side": null, "bus_only": false, "sidewalk": false, "bridge": false, "ramp": false, "tunnel": false, "layer": 0, "deck": null }, "geometry": { "type": "LineString", "coordinates": [ [ 282500.0, 4156836.6 ], [ 282495.77, 4156834.17 ], [ 282480.86, 4156835.88 ], [ 282464.26, 4156839.57 ], [ 282454.37, 4156842.14 ], [ 282443.02, 4156844.5 ], [ 282436.75, 4156850.2 ], [ 282424.6, 4156859.46 ], [ 282415.91, 4156870.33 ], [ 282407.29, 4156884.18 ], [ 282401.72, 4156900.08 ], [ 282399.67, 4156910.88 ], [ 282399.17, 4156921.43 ], [ 282399.16, 4156932.56 ], [ 282399.59, 4156942.76 ], [ 282401.36, 4156954.33 ], [ 282402.94, 4156962.64 ], [ 282404.85, 4156970.67 ] ] } },
{ "type": "Feature", "properties": { "id": "osm:way/182027785", "name": null, "highway": "service", "lanes": null, "width": 4.5, "oneway": false, "surface": null, "footway": null, "sidewalk_left": false, "sidewalk_right": false, "generated_sidewalk": false, "bus_lanes": null, "bus_lane_side": null, "bus_only": false, "sidewalk": false, "bridge": false, "ramp": false, "tunnel": false, "layer": 0, "deck": null }, "geometry": { "type": "LineString", "coordinates": [ [ 282436.75, 4156850.2 ], [ 282482.2, 4156936.88 ], [ 282492.28, 4157000.0 ] ] } },
{ "type": "Feature", "properties": { "id": "osm:way/182027780", "name": null, "highway": "service", "lanes": null, "width": 4.5, "oneway": false, "surface": null, "footway": null, "sidewalk_left": false, "sidewalk_right": false, "generated_sidewalk": false, "bus_lanes": null, "bus_lane_side": null, "bus_only": false, "sidewalk": false, "bridge": false, "ramp": false, "tunnel": false, "layer": 0, "deck": null }, "geometry": { "type": "LineString", "coordinates": [ [ 282415.61, 4157000.0 ], [ 282411.92, 4156995.61 ], [ 282409.37, 4156988.22 ], [ 282406.9, 4156979.88 ], [ 282404.85, 4156970.67 ], [ 282482.2, 4156936.88 ], [ 282500.0, 4156929.1 ] ] } },
{ "type": "Feature", "properties": { "id": "osm:way/182027764", "name": null, "highway": "service", "lanes": null, "width": 4.5, "oneway": false, "surface": null, "footway": null, "sidewalk_left": false, "sidewalk_right": false, "generated_sidewalk": false, "bus_lanes": null, "bus_lane_side": null, "bus_only": false, "sidewalk": false, "bridge": false, "ramp": false, "tunnel": false, "layer": 0, "deck": null }, "geometry": { "type": "LineString", "coordinates": [ [ 282412.8, 4157000.0 ], [ 282411.92, 4156995.61 ] ] } }
]
}
