{
"type": "FeatureCollection",
"name": "pois",
"crs": { "type": "name", "properties": { "name": "urn:ogc:def:crs:EPSG::32618" } },
"xy_coordinate_resolution": 0.01,
"features": [
{ "type": "Feature", "properties": { "id": "lidar-tree:281666:4160768", "name": null, "kind": "tree", "species": null, "source": "lidar2025", "tree_height": 8.2, "crown_radius": 1.8, "height_source": "lidar2025" }, "geometry": { "type": "Point", "coordinates": [ 281666.5, 4160767.5 ] } },
{ "type": "Feature", "properties": { "id": "rva-tree:121627", "name": "Crataegus viridis", "kind": "tree", "species": "Crataegus viridis", "source": "city_inventory", "tree_height": 8.0, "crown_radius": 2.5, "height_source": "estimated" }, "geometry": { "type": "Point", "coordinates": [ 281669.9, 4160776.79 ] } },
{ "type": "Feature", "properties": { "id": "rva-tree:121626", "name": "Crataegus viridis", "kind": "tree", "species": "Crataegus viridis", "source": "city_inventory", "tree_height": 8.0, "crown_radius": 2.5, "height_source": "estimated" }, "geometry": { "type": "Point", "coordinates": [ 281661.71, 4160785.97 ] } },
{ "type": "Feature", "properties": { "id": "rva-tree:121625", "name": "Crataegus viridis", "kind": "tree", "species": "Crataegus viridis", "source": "city_inventory", "tree_height": 8.0, "crown_radius": 2.5, "height_source": "estimated" }, "geometry": { "type": "Point", "coordinates": [ 281650.08, 4160798.49 ] } },
{ "type": "Feature", "properties": { "id": "rva-tree:20746", "name": "Morus alba", "kind": "tree", "species": "Morus alba", "source": "city_inventory", "tree_height": 11.8, "crown_radius": 2.2, "height_source": "lidar2025" }, "geometry": { "type": "Point", "coordinates": [ 281543.32, 4160750.47 ] } },
{ "type": "Feature", "properties": { "id": "rva-tree:20745", "name": "Quercus phellos", "kind": "tree", "species": "Quercus phellos", "source": "city_inventory", "tree_height": 11.8, "crown_radius": 2.2, "height_source": "lidar2025" }, "geometry": { "type": "Point", "coordinates": [ 281542.27, 4160752.93 ] } },
{ "type": "Feature", "properties": { "id": "rva-tree:20744", "name": "Quercus phellos", "kind": "tree", "species": "Quercus phellos", "source": "city_inventory", "tree_height": 13.7, "crown_radius": 2.4, "height_source": "lidar2025" }, "geometry": { "type": "Point", "coordinates": [ 281540.92, 4160754.83 ] } },
{ "type": "Feature", "properties": { "id": "rva-tree:20743", "name": "Prunus spp.", "kind": "tree", "species": "Prunus spp.", "source": "city_inventory", "tree_height": 8.0, "crown_radius": 2.5, "height_source": "estimated" }, "geometry": { "type": "Point", "coordinates": [ 281532.9, 4160763.1 ] } },
{ "type": "Feature", "properties": { "id": "rva-tree:20742", "name": "Thuja occidentalis", "kind": "tree", "species": "Thuja occidentalis", "source": "city_inventory", "tree_height": 8.0, "crown_radius": 2.5, "height_source": "estimated" }, "geometry": { "type": "Point", "coordinates": [ 281532.8, 4160764.32 ] } },
{ "type": "Feature", "properties": { "id": "rva-tree:20741", "name": "Morus alba", "kind": "tree", "species": "Morus alba", "source": "city_inventory", "tree_height": 12.2, "crown_radius": 2.0, "height_source": "lidar2025" }, "geometry": { "type": "Point", "coordinates": [ 281529.07, 4160767.37 ] } },
{ "type": "Feature", "properties": { "id": "rva-tree:20740", "name": "Ulmus americana", "kind": "tree", "species": "Ulmus americana", "source": "city_inventory", "tree_height": 12.2, "crown_radius": 2.0, "height_source": "lidar2025" }, "geometry": { "type": "Point", "coordinates": [ 281525.84, 4160771.37 ] } },
{ "type": "Feature", "properties": { "id": "rva-tree:20739", "name": "Quercus phellos", "kind": "tree", "species": "Quercus phellos", "source": "city_inventory", "tree_height": 12.2, "crown_radius": 2.0, "height_source": "lidar2025" }, "geometry": { "type": "Point", "coordinates": [ 281522.68, 4160774.34 ] } },
{ "type": "Feature", "properties": { "id": "lidar-tree:281516:4160778", "name": null, "kind": "tree", "species": null, "source": "lidar2025", "tree_height": 12.1, "crown_radius": 1.8, "height_source": "lidar2025" }, "geometry": { "type": "Point", "coordinates": [ 281515.5, 4160777.5 ] } },
{ "type": "Feature", "properties": { "id": "rva-tree:20814", "name": "Prunus spp.", "kind": "tree", "species": "Prunus spp.", "source": "city_inventory", "tree_height": 8.0, "crown_radius": 2.5, "height_source": "estimated" }, "geometry": { "type": "Point", "coordinates": [ 281501.98, 4160799.77 ] } },
{ "type": "Feature", "properties": { "id": "rva-tree:121624", "name": "Cercis canadensis", "kind": "tree", "species": "Cercis canadensis", "source": "city_inventory", "tree_height": 8.0, "crown_radius": 2.5, "height_source": "estimated" }, "geometry": { "type": "Point", "coordinates": [ 281639.44, 4160811.89 ] } }
]
}
