{
"type": "FeatureCollection",
"name": "pois",
"crs": { "type": "name", "properties": { "name": "urn:ogc:def:crs:EPSG::32618" } },
"xy_coordinate_resolution": 0.01,
"features": [
{ "type": "Feature", "properties": { "id": "rva-tree:77897", "name": "Lagerstroemia indica", "kind": "tree", "species": "Lagerstroemia indica", "source": "city_inventory", "tree_height": 7.1, "crown_radius": 4.8, "height_source": "lidar2025" }, "geometry": { "type": "Point", "coordinates": [ 284517.09, 4159727.32 ] } },
{ "type": "Feature", "properties": { "id": "rva-tree:77903", "name": "Lagerstroemia indica", "kind": "tree", "species": "Lagerstroemia indica", "source": "city_inventory", "tree_height": 7.1, "crown_radius": 4.8, "height_source": "lidar2025" }, "geometry": { "type": "Point", "coordinates": [ 284511.93, 4159727.51 ] } },
{ "type": "Feature", "properties": { "id": "rva-tree:78442", "name": "Lagerstroemia indica", "kind": "tree", "species": "Lagerstroemia indica", "source": "city_inventory", "tree_height": 8.0, "crown_radius": 2.5, "height_source": "estimated" }, "geometry": { "type": "Point", "coordinates": [ 284505.53, 4159728.03 ] } },
{ "type": "Feature", "properties": { "id": "lidar-tree:284500:4159740", "name": null, "kind": "tree", "species": null, "source": "lidar2025", "tree_height": 12.8, "crown_radius": 4.8, "height_source": "lidar2025" }, "geometry": { "type": "Point", "coordinates": [ 284500.5, 4159739.5 ] } },
{ "type": "Feature", "properties": { "id": "lidar-tree:284678:4159504", "name": null, "kind": "tree", "species": null, "source": "lidar2025", "tree_height": 6.2, "crown_radius": 3.6, "height_source": "lidar2025" }, "geometry": { "type": "Point", "coordinates": [ 284678.5, 4159504.5 ] } },
{ "type": "Feature", "properties": { "id": "lidar-tree:284678:4159514", "name": null, "kind": "tree", "species": null, "source": "lidar2025", "tree_height": 6.2, "crown_radius": 4.4, "height_source": "lidar2025" }, "geometry": { "type": "Point", "coordinates": [ 284677.5, 4159513.5 ] } },
{ "type": "Feature", "properties": { "id": "lidar-tree:284628:4159518", "name": null, "kind": "tree", "species": null, "source": "lidar2025", "tree_height": 4.9, "crown_radius": 3.1, "height_source": "lidar2025" }, "geometry": { "type": "Point", "coordinates": [ 284627.5, 4159517.5 ] } },
{ "type": "Feature", "properties": { "id": "lidar-tree:284676:4159522", "name": null, "kind": "tree", "species": null, "source": "lidar2025", "tree_height": 7.6, "crown_radius": 5.0, "height_source": "lidar2025" }, "geometry": { "type": "Point", "coordinates": [ 284676.5, 4159521.5 ] } },
{ "type": "Feature", "properties": { "id": "lidar-tree:284670:4159530", "name": null, "kind": "tree", "species": null, "source": "lidar2025", "tree_height": 9.2, "crown_radius": 4.3, "height_source": "lidar2025" }, "geometry": { "type": "Point", "coordinates": [ 284669.5, 4159529.5 ] } },
{ "type": "Feature", "properties": { "id": "lidar-tree:284678:4159534", "name": null, "kind": "tree", "species": null, "source": "lidar2025", "tree_height": 12.3, "crown_radius": 5.2, "height_source": "lidar2025" }, "geometry": { "type": "Point", "coordinates": [ 284678.5, 4159533.5 ] } },
{ "type": "Feature", "properties": { "id": "lidar-tree:284722:4159500", "name": null, "kind": "tree", "species": null, "source": "lidar2025", "tree_height": 7.3, "crown_radius": 2.3, "height_source": "lidar2025" }, "geometry": { "type": "Point", "coordinates": [ 284721.5, 4159500.5 ] } },
{ "type": "Feature", "properties": { "id": "lidar-tree:284748:4159504", "name": null, "kind": "tree", "species": null, "source": "lidar2025", "tree_height": 7.0, "crown_radius": 6.0, "height_source": "lidar2025" }, "geometry": { "type": "Point", "coordinates": [ 284748.5, 4159504.5 ] } },
{ "type": "Feature", "properties": { "id": "lidar-tree:284712:4159510", "name": null, "kind": "tree", "species": null, "source": "lidar2025", "tree_height": 4.6, "crown_radius": 3.0, "height_source": "lidar2025" }, "geometry": { "type": "Point", "coordinates": [ 284712.5, 4159509.5 ] } },
{ "type": "Feature", "properties": { "id": "lidar-tree:284746:4159512", "name": null, "kind": "tree", "species": null, "source": "lidar2025", "tree_height": 11.1, "crown_radius": 6.0, "height_source": "lidar2025" }, "geometry": { "type": "Point", "coordinates": [ 284745.5, 4159512.5 ] } },
{ "type": "Feature", "properties": { "id": "lidar-tree:284712:4159516", "name": null, "kind": "tree", "species": null, "source": "lidar2025", "tree_height": 4.9, "crown_radius": 3.6, "height_source": "lidar2025" }, "geometry": { "type": "Point", "coordinates": [ 284711.5, 4159515.5 ] } },
{ "type": "Feature", "properties": { "id": "lidar-tree:284732:4159520", "name": null, "kind": "tree", "species": null, "source": "lidar2025", "tree_height": 10.3, "crown_radius": 6.0, "height_source": "lidar2025" }, "geometry": { "type": "Point", "coordinates": [ 284732.5, 4159519.5 ] } },
{ "type": "Feature", "properties": { "id": "lidar-tree:284700:4159522", "name": null, "kind": "tree", "species": null, "source": "lidar2025", "tree_height": 5.0, "crown_radius": 2.7, "height_source": "lidar2025" }, "geometry": { "type": "Point", "coordinates": [ 284699.5, 4159521.5 ] } },
{ "type": "Feature", "properties": { "id": "lidar-tree:284746:4159524", "name": null, "kind": "tree", "species": null, "source": "lidar2025", "tree_height": 10.4, "crown_radius": 6.0, "height_source": "lidar2025" }, "geometry": { "type": "Point", "coordinates": [ 284745.5, 4159524.5 ] } },
{ "type": "Feature", "properties": { "id": "lidar-tree:284726:4159526", "name": null, "kind": "tree", "species": null, "source": "lidar2025", "tree_height": 7.4, "crown_radius": 5.4, "height_source": "lidar2025" }, "geometry": { "type": "Point", "coordinates": [ 284726.5, 4159526.5 ] } },
{ "type": "Feature", "properties": { "id": "lidar-tree:284692:4159528", "name": null, "kind": "tree", "species": null, "source": "lidar2025", "tree_height": 7.7, "crown_radius": 3.8, "height_source": "lidar2025" }, "geometry": { "type": "Point", "coordinates": [ 284691.5, 4159527.5 ] } },
{ "type": "Feature", "properties": { "id": "lidar-tree:284716:4159532", "name": null, "kind": "tree", "species": null, "source": "lidar2025", "tree_height": 6.3, "crown_radius": 4.2, "height_source": "lidar2025" }, "geometry": { "type": "Point", "coordinates": [ 284716.5, 4159532.5 ] } },
{ "type": "Feature", "properties": { "id": "lidar-tree:284736:4159538", "name": null, "kind": "tree", "species": null, "source": "lidar2025", "tree_height": 12.2, "crown_radius": 6.0, "height_source": "lidar2025" }, "geometry": { "type": "Point", "coordinates": [ 284736.5, 4159537.5 ] } },
{ "type": "Feature", "properties": { "id": "lidar-tree:284746:4159538", "name": null, "kind": "tree", "species": null, "source": "lidar2025", "tree_height": 12.4, "crown_radius": 6.0, "height_source": "lidar2025" }, "geometry": { "type": "Point", "coordinates": [ 284745.5, 4159537.5 ] } },
{ "type": "Feature", "properties": { "id": "lidar-tree:284722:4159544", "name": null, "kind": "tree", "species": null, "source": "lidar2025", "tree_height": 10.6, "crown_radius": 5.6, "height_source": "lidar2025" }, "geometry": { "type": "Point", "coordinates": [ 284721.5, 4159543.5 ] } },
{ "type": "Feature", "properties": { "id": "lidar-tree:284518:4159594", "name": null, "kind": "tree", "species": null, "source": "lidar2025", "tree_height": 4.7, "crown_radius": 3.1, "height_source": "lidar2025" }, "geometry": { "type": "Point", "coordinates": [ 284517.5, 4159593.5 ] } },
{ "type": "Feature", "properties": { "id": "lidar-tree:284518:4159630", "name": null, "kind": "tree", "species": null, "source": "lidar2025", "tree_height": 7.6, "crown_radius": 4.2, "height_source": "lidar2025" }, "geometry": { "type": "Point", "coordinates": [ 284518.5, 4159630.5 ] } },
{ "type": "Feature", "properties": { "id": "lidar-tree:284514:4159648", "name": null, "kind": "tree", "species": null, "source": "lidar2025", "tree_height": 17.9, "crown_radius": 6.0, "height_source": "lidar2025" }, "geometry": { "type": "Point", "coordinates": [ 284514.5, 4159647.5 ] } },
{ "type": "Feature", "properties": { "id": "lidar-tree:284500:4159654", "name": null, "kind": "tree", "species": null, "source": "lidar2025", "tree_height": 20.8, "crown_radius": 6.0, "height_source": "lidar2025" }, "geometry": { "type": "Point", "coordinates": [ 284500.5, 4159653.5 ] } },
{ "type": "Feature", "properties": { "id": "lidar-tree:284506:4159694", "name": null, "kind": "tree", "species": null, "source": "lidar2025", "tree_height": 11.3, "crown_radius": 3.8, "height_source": "lidar2025" }, "geometry": { "type": "Point", "coordinates": [ 284506.5, 4159694.5 ] } },
{ "type": "Feature", "properties": { "id": "rva-tree:81571", "name": "Lagerstroemia indica", "kind": "tree", "species": "Lagerstroemia indica", "source": "city_inventory", "tree_height": 8.0, "crown_radius": 4.2, "height_source": "lidar2025" }, "geometry": { "type": "Point", "coordinates": [ 284513.97, 4159713.39 ] } },
{ "type": "Feature", "properties": { "id": "rva-tree:81564", "name": "Lagerstroemia indica", "kind": "tree", "species": "Lagerstroemia indica", "source": "city_inventory", "tree_height": 5.5, "crown_radius": 4.8, "height_source": "lidar2025" }, "geometry": { "type": "Point", "coordinates": [ 284506.59, 4159714.2 ] } },
{ "type": "Feature", "properties": { "id": "lidar-tree:284702:4159544", "name": null, "kind": "tree", "species": null, "source": "lidar2025", "tree_height": 8.1, "crown_radius": 2.6, "height_source": "lidar2025" }, "geometry": { "type": "Point", "coordinates": [ 284701.5, 4159544.5 ] } },
{ "type": "Feature", "properties": { "id": "lidar-tree:284732:4159546", "name": null, "kind": "tree", "species": null, "source": "lidar2025", "tree_height": 11.6, "crown_radius": 6.0, "height_source": "lidar2025" }, "geometry": { "type": "Point", "coordinates": [ 284732.5, 4159546.5 ] } },
{ "type": "Feature", "properties": { "id": "lidar-tree:284688:4159548", "name": null, "kind": "tree", "species": null, "source": "lidar2025", "tree_height": 7.8, "crown_radius": 4.9, "height_source": "lidar2025" }, "geometry": { "type": "Point", "coordinates": [ 284688.5, 4159547.5 ] } },
{ "type": "Feature", "properties": { "id": "lidar-tree:284742:4159552", "name": null, "kind": "tree", "species": null, "source": "lidar2025", "tree_height": 14.0, "crown_radius": 6.0, "height_source": "lidar2025" }, "geometry": { "type": "Point", "coordinates": [ 284741.5, 4159551.5 ] } },
{ "type": "Feature", "properties": { "id": "lidar-tree:284718:4159552", "name": null, "kind": "tree", "species": null, "source": "lidar2025", "tree_height": 9.7, "crown_radius": 6.0, "height_source": "lidar2025" }, "geometry": { "type": "Point", "coordinates": [ 284717.5, 4159552.5 ] } },
{ "type": "Feature", "properties": { "id": "lidar-tree:284694:4159558", "name": null, "kind": "tree", "species": null, "source": "lidar2025", "tree_height": 8.9, "crown_radius": 4.0, "height_source": "lidar2025" }, "geometry": { "type": "Point", "coordinates": [ 284694.5, 4159558.5 ] } },
{ "type": "Feature", "properties": { "id": "lidar-tree:284712:4159558", "name": null, "kind": "tree", "species": null, "source": "lidar2025", "tree_height": 10.3, "crown_radius": 5.6, "height_source": "lidar2025" }, "geometry": { "type": "Point", "coordinates": [ 284711.5, 4159558.5 ] } },
{ "type": "Feature", "properties": { "id": "lidar-tree:284670:4159542", "name": null, "kind": "tree", "species": null, "source": "lidar2025", "tree_height": 9.6, "crown_radius": 4.3, "height_source": "lidar2025" }, "geometry": { "type": "Point", "coordinates": [ 284670.5, 4159542.5 ] } },
{ "type": "Feature", "properties": { "id": "lidar-tree:284680:4159546", "name": null, "kind": "tree", "species": null, "source": "lidar2025", "tree_height": 9.6, "crown_radius": 4.8, "height_source": "lidar2025" }, "geometry": { "type": "Point", "coordinates": [ 284680.5, 4159545.5 ] } },
{ "type": "Feature", "properties": { "id": "lidar-tree:284680:4159554", "name": null, "kind": "tree", "species": null, "source": "lidar2025", "tree_height": 9.5, "crown_radius": 5.3, "height_source": "lidar2025" }, "geometry": { "type": "Point", "coordinates": [ 284679.5, 4159553.5 ] } },
{ "type": "Feature", "properties": { "id": "lidar-tree:284672:4159558", "name": null, "kind": "tree", "species": null, "source": "lidar2025", "tree_height": 7.3, "crown_radius": 4.8, "height_source": "lidar2025" }, "geometry": { "type": "Point", "coordinates": [ 284671.5, 4159557.5 ] } },
{ "type": "Feature", "properties": { "id": "lidar-tree:284676:4159564", "name": null, "kind": "tree", "species": null, "source": "lidar2025", "tree_height": 4.5, "crown_radius": 4.4, "height_source": "lidar2025" }, "geometry": { "type": "Point", "coordinates": [ 284675.5, 4159563.5 ] } },
{ "type": "Feature", "properties": { "id": "lidar-tree:284616:4159568", "name": null, "kind": "tree", "species": null, "source": "lidar2025", "tree_height": 6.6, "crown_radius": 2.4, "height_source": "lidar2025" }, "geometry": { "type": "Point", "coordinates": [ 284616.5, 4159567.5 ] } },
{ "type": "Feature", "properties": { "id": "rva-tree:75099", "name": "Gleditsia triacanthos inermis", "kind": "tree", "species": "Gleditsia triacanthos inermis", "source": "city_inventory", "tree_height": 8.0, "crown_radius": 2.5, "height_source": "estimated" }, "geometry": { "type": "Point", "coordinates": [ 284650.41, 4159576.57 ] } },
{ "type": "Feature", "properties": { "id": "rva-tree:86063", "name": "Pinus taeda", "kind": "tree", "species": "Pinus taeda", "source": "city_inventory", "tree_height": 16.6, "crown_radius": 6.0, "height_source": "lidar2025" }, "geometry": { "type": "Point", "coordinates": [ 284636.45, 4159578.41 ] } },
{ "type": "Feature", "properties": { "id": "rva-tree:76365", "name": "Pinus taeda", "kind": "tree", "species": "Pinus taeda", "source": "city_inventory", "tree_height": 16.6, "crown_radius": 6.0, "height_source": "lidar2025" }, "geometry": { "type": "Point", "coordinates": [ 284634.07, 4159578.5 ] } },
{ "type": "Feature", "properties": { "id": "rva-tree:76361", "name": "Pinus taeda", "kind": "tree", "species": "Pinus taeda", "source": "city_inventory", "tree_height": 16.6, "crown_radius": 6.0, "height_source": "lidar2025" }, "geometry": { "type": "Point", "coordinates": [ 284629.34, 4159579.47 ] } },
{ "type": "Feature", "properties": { "id": "rva-tree:76628", "name": "Pinus taeda", "kind": "tree", "species": "Pinus taeda", "source": "city_inventory", "tree_height": 13.1, "crown_radius": 6.0, "height_source": "lidar2025" }, "geometry": { "type": "Point", "coordinates": [ 284626.45, 4159579.84 ] } },
{ "type": "Feature", "properties": { "id": "rva-tree:86054", "name": "Pinus taeda", "kind": "tree", "species": "Pinus taeda", "source": "city_inventory", "tree_height": 13.1, "crown_radius": 6.0, "height_source": "lidar2025" }, "geometry": { "type": "Point", "coordinates": [ 284621.33, 4159580.96 ] } },
{ "type": "Feature", "properties": { "id": "rva-tree:76034", "name": "Pinus taeda", "kind": "tree", "species": "Pinus taeda", "source": "city_inventory", "tree_height": 13.1, "crown_radius": 6.0, "height_source": "lidar2025" }, "geometry": { "type": "Point", "coordinates": [ 284618.43, 4159581.2 ] } },
{ "type": "Feature", "properties": { "id": "rva-tree:77248", "name": "Ulmus pumila", "kind": "tree", "species": "Ulmus pumila", "source": "city_inventory", "tree_height": 10.7, "crown_radius": 6.0, "height_source": "lidar2025" }, "geometry": { "type": "Point", "coordinates": [ 284662.28, 4159582.48 ] } },
{ "type": "Feature", "properties": { "id": "rva-tree:77311", "name": "Ulmus pumila", "kind": "tree", "species": "Ulmus pumila", "source": "city_inventory", "tree_height": 10.7, "crown_radius": 6.0, "height_source": "lidar2025" }, "geometry": { "type": "Point", "coordinates": [ 284658.59, 4159582.88 ] } },
{ "type": "Feature", "properties": { "id": "lidar-tree:284676:4159584", "name": null, "kind": "tree", "species": null, "source": "lidar2025", "tree_height": 9.1, "crown_radius": 6.0, "height_source": "lidar2025" }, "geometry": { "type": "Point", "coordinates": [ 284675.5, 4159583.5 ] } },
{ "type": "Feature", "properties": { "id": "rva-tree:82136", "name": "Ulmus pumila", "kind": "tree", "species": "Ulmus pumila", "source": "city_inventory", "tree_height": 10.7, "crown_radius": 6.0, "height_source": "lidar2025" }, "geometry": { "type": "Point", "coordinates": [ 284652.28, 4159584.17 ] } },
{ "type": "Feature", "properties": { "id": "lidar-tree:284640:4159590", "name": null, "kind": "tree", "species": null, "source": "lidar2025", "tree_height": 10.3, "crown_radius": 5.4, "height_source": "lidar2025" }, "geometry": { "type": "Point", "coordinates": [ 284640.5, 4159589.5 ] } },
{ "type": "Feature", "properties": { "id": "rva-tree:75873", "name": "Ulmus pumila", "kind": "tree", "species": "Ulmus pumila", "source": "city_inventory", "tree_height": 8.0, "crown_radius": 2.5, "height_source": "estimated" }, "geometry": { "type": "Point", "coordinates": [ 284627.91, 4159590.64 ] } },
{ "type": "Feature", "properties": { "id": "lidar-tree:284666:4159594", "name": null, "kind": "tree", "species": null, "source": "lidar2025", "tree_height": 8.9, "crown_radius": 5.3, "height_source": "lidar2025" }, "geometry": { "type": "Point", "coordinates": [ 284665.5, 4159593.5 ] } },
{ "type": "Feature", "properties": { "id": "lidar-tree:284734:4159560", "name": null, "kind": "tree", "species": null, "source": "lidar2025", "tree_height": 11.8, "crown_radius": 6.0, "height_source": "lidar2025" }, "geometry": { "type": "Point", "coordinates": [ 284733.5, 4159559.5 ] } },
{ "type": "Feature", "properties": { "id": "lidar-tree:284750:4159566", "name": null, "kind": "tree", "species": null, "source": "lidar2025", "tree_height": 14.6, "crown_radius": 6.0, "height_source": "lidar2025" }, "geometry": { "type": "Point", "coordinates": [ 284749.5, 4159566.5 ] } },
{ "type": "Feature", "properties": { "id": "lidar-tree:284696:4159568", "name": null, "kind": "tree", "species": null, "source": "lidar2025", "tree_height": 6.9, "crown_radius": 5.2, "height_source": "lidar2025" }, "geometry": { "type": "Point", "coordinates": [ 284695.5, 4159567.5 ] } },
{ "type": "Feature", "properties": { "id": "lidar-tree:284686:4159570", "name": null, "kind": "tree", "species": null, "source": "lidar2025", "tree_height": 9.6, "crown_radius": 5.5, "height_source": "lidar2025" }, "geometry": { "type": "Point", "coordinates": [ 284685.5, 4159570.5 ] } },
{ "type": "Feature", "properties": { "id": "lidar-tree:284726:4159570", "name": null, "kind": "tree", "species": null, "source": "lidar2025", "tree_height": 10.3, "crown_radius": 6.0, "height_source": "lidar2025" }, "geometry": { "type": "Point", "coordinates": [ 284726.5, 4159570.5 ] } },
{ "type": "Feature", "properties": { "id": "lidar-tree:284718:4159572", "name": null, "kind": "tree", "species": null, "source": "lidar2025", "tree_height": 9.9, "crown_radius": 5.7, "height_source": "lidar2025" }, "geometry": { "type": "Point", "coordinates": [ 284718.5, 4159572.5 ] } },
{ "type": "Feature", "properties": { "id": "lidar-tree:284694:4159574", "name": null, "kind": "tree", "species": null, "source": "lidar2025", "tree_height": 7.1, "crown_radius": 4.1, "height_source": "lidar2025" }, "geometry": { "type": "Point", "coordinates": [ 284694.5, 4159574.5 ] } },
{ "type": "Feature", "properties": { "id": "lidar-tree:284536:4159588", "name": null, "kind": "tree", "species": null, "source": "lidar2025", "tree_height": 4.7, "crown_radius": 2.9, "height_source": "lidar2025" }, "geometry": { "type": "Point", "coordinates": [ 284536.5, 4159588.5 ] } },
{ "type": "Feature", "properties": { "id": "lidar-tree:284518:4159612", "name": null, "kind": "tree", "species": null, "source": "lidar2025", "tree_height": 4.6, "crown_radius": 3.1, "height_source": "lidar2025" }, "geometry": { "type": "Point", "coordinates": [ 284518.5, 4159612.5 ] } },
{ "type": "Feature", "properties": { "id": "lidar-tree:284560:4159620", "name": null, "kind": "tree", "species": null, "source": "lidar2025", "tree_height": 13.8, "crown_radius": 6.0, "height_source": "lidar2025" }, "geometry": { "type": "Point", "coordinates": [ 284560.5, 4159620.5 ] } },
{ "type": "Feature", "properties": { "id": "lidar-tree:284560:4159630", "name": null, "kind": "tree", "species": null, "source": "lidar2025", "tree_height": 10.6, "crown_radius": 5.5, "height_source": "lidar2025" }, "geometry": { "type": "Point", "coordinates": [ 284559.5, 4159630.5 ] } },
{ "type": "Feature", "properties": { "id": "lidar-tree:284572:4159676", "name": null, "kind": "tree", "species": null, "source": "lidar2025", "tree_height": 20.8, "crown_radius": 6.0, "height_source": "lidar2025" }, "geometry": { "type": "Point", "coordinates": [ 284572.5, 4159675.5 ] } },
{ "type": "Feature", "properties": { "id": "lidar-tree:284528:4159692", "name": null, "kind": "tree", "species": null, "source": "lidar2025", "tree_height": 14.9, "crown_radius": 6.0, "height_source": "lidar2025" }, "geometry": { "type": "Point", "coordinates": [ 284527.5, 4159692.5 ] } },
{ "type": "Feature", "properties": { "id": "rva-tree:81554", "name": "Lagerstroemia indica", "kind": "tree", "species": "Lagerstroemia indica", "source": "city_inventory", "tree_height": 6.5, "crown_radius": 3.7, "height_source": "lidar2025" }, "geometry": { "type": "Point", "coordinates": [ 284591.25, 4159709.55 ] } },
{ "type": "Feature", "properties": { "id": "rva-tree:81906", "name": "Lagerstroemia indica", "kind": "tree", "species": "Lagerstroemia indica", "source": "city_inventory", "tree_height": 6.5, "crown_radius": 3.7, "height_source": "lidar2025" }, "geometry": { "type": "Point", "coordinates": [ 284596.32, 4159709.74 ] } },
{ "type": "Feature", "properties": { "id": "rva-tree:81553", "name": "Lagerstroemia indica", "kind": "tree", "species": "Lagerstroemia indica", "source": "city_inventory", "tree_height": 6.5, "crown_radius": 3.7, "height_source": "lidar2025" }, "geometry": { "type": "Point", "coordinates": [ 284586.21, 4159710.12 ] } },
{ "type": "Feature", "properties": { "id": "rva-tree:81905", "name": "Lagerstroemia indica", "kind": "tree", "species": "Lagerstroemia indica", "source": "city_inventory", "tree_height": 8.8, "crown_radius": 3.7, "height_source": "lidar2025" }, "geometry": { "type": "Point", "coordinates": [ 284575.54, 4159710.7 ] } },
{ "type": "Feature", "properties": { "id": "lidar-tree:284638:4159606", "name": null, "kind": "tree", "species": null, "source": "lidar2025", "tree_height": 4.9, "crown_radius": 2.7, "height_source": "lidar2025" }, "geometry": { "type": "Point", "coordinates": [ 284637.5, 4159605.5 ] } },
{ "type": "Feature", "properties": { "id": "lidar-tree:284628:4159734", "name": null, "kind": "tree", "species": null, "source": "lidar2025", "tree_height": 15.6, "crown_radius": 5.8, "height_source": "lidar2025" }, "geometry": { "type": "Point", "coordinates": [ 284628.5, 4159733.5 ] } },
{ "type": "Feature", "properties": { "id": "lidar-tree:284566:4159712", "name": null, "kind": "tree", "species": null, "source": "lidar2025", "tree_height": 4.4, "crown_radius": 2.9, "height_source": "lidar2025" }, "geometry": { "type": "Point", "coordinates": [ 284566.5, 4159711.5 ] } },
{ "type": "Feature", "properties": { "id": "rva-tree:81295", "name": "Lagerstroemia indica", "kind": "tree", "species": "Lagerstroemia indica", "source": "city_inventory", "tree_height": 5.5, "crown_radius": 2.7, "height_source": "lidar2025" }, "geometry": { "type": "Point", "coordinates": [ 284556.08, 4159711.61 ] } },
{ "type": "Feature", "properties": { "id": "rva-tree:81824", "name": "Lagerstroemia indica", "kind": "tree", "species": "Lagerstroemia indica", "source": "city_inventory", "tree_height": 5.5, "crown_radius": 2.7, "height_source": "lidar2025" }, "geometry": { "type": "Point", "coordinates": [ 284560.21, 4159711.83 ] } },
{ "type": "Feature", "properties": { "id": "rva-tree:81258", "name": "Lagerstroemia indica", "kind": "tree", "species": "Lagerstroemia indica", "source": "city_inventory", "tree_height": 8.9, "crown_radius": 4.1, "height_source": "lidar2025" }, "geometry": { "type": "Point", "coordinates": [ 284551.22, 4159711.98 ] } },
{ "type": "Feature", "properties": { "id": "rva-tree:81602", "name": "Lagerstroemia indica", "kind": "tree", "species": "Lagerstroemia indica", "source": "city_inventory", "tree_height": 8.9, "crown_radius": 4.1, "height_source": "lidar2025" }, "geometry": { "type": "Point", "coordinates": [ 284545.4, 4159712.01 ] } },
{ "type": "Feature", "properties": { "id": "rva-tree:81256", "name": "Lagerstroemia indica", "kind": "tree", "species": "Lagerstroemia indica", "source": "city_inventory", "tree_height": 16.7, "crown_radius": 6.0, "height_source": "lidar2025" }, "geometry": { "type": "Point", "coordinates": [ 284520.85, 4159713.31 ] } },
{ "type": "Feature", "properties": { "id": "rva-tree:81923", "name": "Lagerstroemia indica", "kind": "tree", "species": "Lagerstroemia indica", "source": "city_inventory", "tree_height": 7.5, "crown_radius": 4.9, "height_source": "lidar2025" }, "geometry": { "type": "Point", "coordinates": [ 284578.28, 4159725.32 ] } },
{ "type": "Feature", "properties": { "id": "rva-tree:81960", "name": "Lagerstroemia indica", "kind": "tree", "species": "Lagerstroemia indica", "source": "city_inventory", "tree_height": 7.5, "crown_radius": 4.9, "height_source": "lidar2025" }, "geometry": { "type": "Point", "coordinates": [ 284572.28, 4159725.41 ] } },
{ "type": "Feature", "properties": { "id": "rva-tree:77625", "name": "Lagerstroemia indica", "kind": "tree", "species": "Lagerstroemia indica", "source": "city_inventory", "tree_height": 6.5, "crown_radius": 4.5, "height_source": "lidar2025" }, "geometry": { "type": "Point", "coordinates": [ 284557.65, 4159725.95 ] } },
{ "type": "Feature", "properties": { "id": "rva-tree:77481", "name": "Lagerstroemia indica", "kind": "tree", "species": "Lagerstroemia indica", "source": "city_inventory", "tree_height": 6.8, "crown_radius": 4.4, "height_source": "lidar2025" }, "geometry": { "type": "Point", "coordinates": [ 284564.91, 4159725.96 ] } },
{ "type": "Feature", "properties": { "id": "rva-tree:77640", "name": "Lagerstroemia indica", "kind": "tree", "species": "Lagerstroemia indica", "source": "city_inventory", "tree_height": 6.5, "crown_radius": 4.5, "height_source": "lidar2025" }, "geometry": { "type": "Point", "coordinates": [ 284551.94, 4159726.16 ] } },
{ "type": "Feature", "properties": { "id": "rva-tree:77743", "name": "Lagerstroemia indica", "kind": "tree", "species": "Lagerstroemia indica", "source": "city_inventory", "tree_height": 3.8, "crown_radius": 3.5, "height_source": "lidar2025" }, "geometry": { "type": "Point", "coordinates": [ 284545.8, 4159726.25 ] } },
{ "type": "Feature", "properties": { "id": "rva-tree:77816", "name": "Lagerstroemia indica", "kind": "tree", "species": "Lagerstroemia indica", "source": "city_inventory", "tree_height": 3.8, "crown_radius": 3.5, "height_source": "lidar2025" }, "geometry": { "type": "Point", "coordinates": [ 284541.48, 4159726.41 ] } },
{ "type": "Feature", "properties": { "id": "rva-tree:77821", "name": "Lagerstroemia indica", "kind": "tree", "species": "Lagerstroemia indica", "source": "city_inventory", "tree_height": 5.4, "crown_radius": 3.0, "height_source": "lidar2025" }, "geometry": { "type": "Point", "coordinates": [ 284530.62, 4159727.1 ] } },
{ "type": "Feature", "properties": { "id": "rva-tree:77822", "name": "Lagerstroemia indica", "kind": "tree", "species": "Lagerstroemia indica", "source": "city_inventory", "tree_height": 7.1, "crown_radius": 4.8, "height_source": "lidar2025" }, "geometry": { "type": "Point", "coordinates": [ 284522.81, 4159727.39 ] } },
{ "type": "Feature", "properties": { "id": "osm:node/13913052105", "name": null, "kind": "tree", "species": null, "source": null, "tree_height": null, "crown_radius": null, "height_source": null }, "geometry": { "type": "Point", "coordinates": [ 284571.05, 4159745.01 ] } },
{ "type": "Feature", "properties": { "id": "lidar-tree:284556:4159746", "name": null, "kind": "tree", "species": null, "source": "lidar2025", "tree_height": 12.1, "crown_radius": 5.2, "height_source": "lidar2025" }, "geometry": { "type": "Point", "coordinates": [ 284555.5, 4159746.5 ] } },
{ "type": "Feature", "properties": { "id": "lidar-tree:284564:4159748", "name": null, "kind": "tree", "species": null, "source": "lidar2025", "tree_height": 11.7, "crown_radius": 5.6, "height_source": "lidar2025" }, "geometry": { "type": "Point", "coordinates": [ 284564.5, 4159748.5 ] } }
]
}
