{
"type": "FeatureCollection",
"name": "landuse",
"crs": { "type": "name", "properties": { "name": "urn:ogc:def:crs:EPSG::32618" } },
"xy_coordinate_resolution": 0.01,
"features": [
{ "type": "Feature", "properties": { "id": "imagery:groundcover_lawn:2854", "name": null, "kind": "groundcover_lawn", "sport": null, "surface": null, "pitch_layout": null, "source": "vgin_vbmp+naip+lidar2025", "source_updated": null, "base_z": null, "top_z": null }, "geometry": { "type": "Polygon", "coordinates": [ [ [ 285126.43, 4156314.57 ], [ 285122.64, 4156308.4 ], [ 285114.22, 4156304.04 ], [ 285114.19, 4156308.82 ], [ 285114.45, 4156309.57 ], [ 285117.29, 4156311.63 ], [ 285122.04, 4156311.63 ], [ 285122.77, 4156311.82 ], [ 285124.67, 4156312.89 ], [ 285125.2, 4156313.42 ], [ 285130.52, 4156322.27 ], [ 285140.21, 4156321.09 ], [ 285140.06, 4156314.5 ], [ 285134.63, 4156317.03 ], [ 285130.34, 4156316.93 ], [ 285126.43, 4156314.57 ] ] ] } },
{ "type": "Feature", "properties": { "id": "osm:way/200859659", "name": "Mayo Island", "kind": "industrial", "sport": null, "surface": null, "pitch_layout": null, "source": null, "source_updated": null, "base_z": null, "top_z": null }, "geometry": { "type": "Polygon", "coordinates": [ [ [ 285004.75, 4156462.81 ], [ 285006.6, 4156462.14 ], [ 285010.27, 4156460.73 ], [ 285017.15, 4156457.93 ], [ 285026.29, 4156454.18 ], [ 285030.88, 4156452.36 ], [ 285046.51, 4156446.39 ], [ 285051.31, 4156444.46 ], [ 285060.87, 4156440.47 ], [ 285062.2, 4156439.89 ], [ 285064.82, 4156438.64 ], [ 285070.04, 4156436.1 ], [ 285072.7, 4156434.96 ], [ 285073.79, 4156434.57 ], [ 285076.0, 4156433.95 ], [ 285080.51, 4156432.95 ], [ 285082.75, 4156432.36 ], [ 285088.76, 4156430.43 ], [ 285141.09, 4156401.28 ], [ 285141.25, 4156400.59 ], [ 285141.47, 4156399.46 ], [ 285141.63, 4156398.92 ], [ 285142.03, 4156398.14 ], [ 285142.33, 4156397.75 ], [ 285143.04, 4156397.11 ], [ 285143.83, 4156396.6 ], [ 285145.57, 4156395.8 ], [ 285146.12, 4156395.62 ], [ 285147.28, 4156395.45 ], [ 285148.86, 4156395.32 ], [ 285149.6, 4156395.16 ], [ 285150.29, 4156394.87 ], [ 285150.61, 4156394.66 ], [ 285151.76, 4156393.69 ], [ 285153.98, 4156391.68 ], [ 285156.43, 4156389.37 ], [ 285157.19, 4156388.73 ], [ 285157.41, 4156388.57 ], [ 285158.09, 4156388.25 ], [ 285159.83, 4156387.6 ], [ 285161.56, 4156386.86 ], [ 285163.9, 4156385.33 ], [ 285164.03, 4156385.29 ], [ 285164.37, 4156385.28 ], [ 285164.58, 4156385.35 ], [ 285165.03, 4156385.64 ], [ 285166.39, 4156386.91 ], [ 285166.64, 4156387.05 ], [ 285176.61, 4156381.49 ], [ 285178.32, 4156380.09 ], [ 285181.66, 4156377.34 ], [ 285183.35, 4156376.01 ], [ 285188.59, 4156372.17 ], [ 285198.43, 4156364.03 ], [ 285204.22, 4156359.3 ], [ 285207.21, 4156357.05 ], [ 285210.69, 4156354.74 ], [ 285217.89, 4156350.48 ], [ 285231.54, 4156342.52 ], [ 285235.74, 4156339.9 ], [ 285241.27, 4156336.32 ], [ 285244.08, 4156334.61 ], [ 285248.22, 4156332.33 ], [ 285250.0, 4156331.44 ], [ 285250.0, 4156266.2 ], [ 285245.21, 4156267.08 ], [ 285238.39, 4156268.26 ], [ 285224.72, 4156270.46 ], [ 285213.78, 4156272.06 ], [ 285199.18, 4156274.11 ], [ 285191.88, 4156275.15 ], [ 285189.56, 4156275.52 ], [ 285188.41, 4156275.76 ], [ 285188.11, 4156275.87 ], [ 285187.61, 4156276.27 ], [ 285186.76, 4156277.34 ], [ 285186.26, 4156277.74 ], [ 285184.77, 4156278.47 ], [ 285184.01, 4156278.78 ], [ 285182.83, 4156279.13 ], [ 285175.12, 4156280.69 ], [ 285164.58, 4156282.66 ], [ 285159.97, 4156283.4 ], [ 285157.66, 4156283.7 ], [ 285154.18, 4156284.06 ], [ 285150.7, 4156284.29 ], [ 285148.96, 4156284.35 ], [ 285143.63, 4156284.43 ], [ 285132.96, 4156284.32 ], [ 285130.63, 4156284.22 ], [ 285127.52, 4156284.08 ], [ 285125.97, 4156284.1 ], [ 285123.55, 4156284.25 ], [ 285118.7, 4156284.69 ], [ 285113.18, 4156285.21 ], [ 285112.18, 4156285.22 ], [ 285111.52, 4156285.15 ], [ 285110.2, 4156284.89 ], [ 285106.25, 4156283.77 ], [ 285104.93, 4156283.55 ], [ 285104.27, 4156283.52 ], [ 285101.56, 4156283.55 ], [ 285100.19, 4156283.62 ], [ 285098.13, 4156283.78 ], [ 285095.06, 4156284.24 ], [ 285093.04, 4156284.7 ], [ 285092.05, 4156284.99 ], [ 285090.58, 4156285.5 ], [ 285085.37, 4156287.59 ], [ 285081.23, 4156289.33 ], [ 285080.96, 4156289.42 ], [ 285080.39, 4156289.49 ], [ 285079.21, 4156289.51 ], [ 285078.63, 4156289.59 ], [ 285073.21, 4156290.98 ], [ 285071.75, 4156291.26 ], [ 285068.77, 4156291.68 ], [ 285064.78, 4156292.19 ], [ 285062.81, 4156292.53 ], [ 285060.86, 4156293.0 ], [ 285059.91, 4156293.29 ], [ 285052.25, 4156296.11 ], [ 285050.18, 4156296.84 ], [ 285047.16, 4156298.39 ], [ 285041.42, 4156300.08 ], [ 285041.4, 4156300.09 ], [ 285039.08, 4156301.25 ], [ 285037.88, 4156301.72 ], [ 285037.01, 4156301.97 ], [ 285035.23, 4156302.35 ], [ 285031.63, 4156302.91 ], [ 285029.85, 4156303.29 ], [ 285028.2, 4156303.74 ], [ 285019.72, 4156305.42 ], [ 285014.88, 4156306.08 ], [ 285000.0, 4156308.76 ], [ 285000.0, 4156464.33 ], [ 285001.96, 4156463.74 ], [ 285004.75, 4156462.81 ] ] ] } },
{ "type": "Feature", "properties": { "id": "osm:way/823011267", "name": "VCU MCV M Lot", "kind": "parking", "sport": null, "surface": null, "pitch_layout": null, "source": null, "source_updated": null, "base_z": null, "top_z": null }, "geometry": { "type": "Polygon", "coordinates": [ [ [ 285094.07, 4156303.42 ], [ 285061.83, 4156317.37 ], [ 285002.57, 4156336.09 ], [ 285001.64, 4156332.92 ], [ 285000.0, 4156333.43 ], [ 285000.0, 4156353.09 ], [ 285014.22, 4156348.54 ], [ 285018.01, 4156358.04 ], [ 285031.84, 4156353.69 ], [ 285036.96, 4156354.07 ], [ 285039.74, 4156359.9 ], [ 285027.0, 4156364.29 ], [ 285025.29, 4156363.99 ], [ 285023.83, 4156359.82 ], [ 285000.0, 4156367.52 ], [ 285000.0, 4156405.94 ], [ 285022.48, 4156398.91 ], [ 285031.69, 4156428.6 ], [ 285118.47, 4156401.07 ], [ 285115.36, 4156384.74 ], [ 285124.45, 4156383.16 ], [ 285123.63, 4156366.64 ], [ 285078.56, 4156366.4 ], [ 285078.66, 4156348.03 ], [ 285093.82, 4156348.1 ], [ 285094.07, 4156303.42 ] ] ] } },
{ "type": "Feature", "properties": { "id": "osm:relation/11271935", "name": null, "kind": "forest", "sport": null, "surface": null, "pitch_layout": null, "source": null, "source_updated": null, "base_z": null, "top_z": null }, "geometry": { "type": "MultiPolygon", "coordinates": [ [ [ [ 285238.39, 4156268.26 ], [ 285224.72, 4156270.46 ], [ 285213.78, 4156272.06 ], [ 285199.18, 4156274.11 ], [ 285191.88, 4156275.15 ], [ 285189.56, 4156275.52 ], [ 285188.41, 4156275.76 ], [ 285188.11, 4156275.87 ], [ 285187.61, 4156276.27 ], [ 285186.76, 4156277.34 ], [ 285186.26, 4156277.74 ], [ 285184.77, 4156278.47 ], [ 285184.01, 4156278.78 ], [ 285182.83, 4156279.13 ], [ 285175.12, 4156280.69 ], [ 285164.58, 4156282.66 ], [ 285159.97, 4156283.4 ], [ 285157.66, 4156283.7 ], [ 285154.18, 4156284.06 ], [ 285150.7, 4156284.29 ], [ 285148.96, 4156284.35 ], [ 285143.63, 4156284.43 ], [ 285132.96, 4156284.32 ], [ 285130.63, 4156284.22 ], [ 285127.52, 4156284.08 ], [ 285125.97, 4156284.1 ], [ 285123.55, 4156284.25 ], [ 285118.7, 4156284.69 ], [ 285113.18, 4156285.21 ], [ 285112.18, 4156285.22 ], [ 285111.52, 4156285.15 ], [ 285110.2, 4156284.89 ], [ 285106.25, 4156283.77 ], [ 285104.93, 4156283.55 ], [ 285104.27, 4156283.52 ], [ 285101.56, 4156283.55 ], [ 285100.19, 4156283.62 ], [ 285098.13, 4156283.78 ], [ 285095.06, 4156284.24 ], [ 285093.04, 4156284.7 ], [ 285092.05, 4156284.99 ], [ 285090.58, 4156285.5 ], [ 285085.37, 4156287.59 ], [ 285081.23, 4156289.33 ], [ 285080.96, 4156289.42 ], [ 285080.39, 4156289.49 ], [ 285079.21, 4156289.51 ], [ 285078.63, 4156289.59 ], [ 285073.21, 4156290.98 ], [ 285071.75, 4156291.26 ], [ 285068.77, 4156291.68 ], [ 285064.78, 4156292.19 ], [ 285062.81, 4156292.53 ], [ 285060.86, 4156293.0 ], [ 285059.91, 4156293.29 ], [ 285052.25, 4156296.11 ], [ 285050.18, 4156296.84 ], [ 285047.16, 4156298.39 ], [ 285041.42, 4156300.08 ], [ 285041.4, 4156300.09 ], [ 285039.08, 4156301.25 ], [ 285037.88, 4156301.72 ], [ 285037.01, 4156301.97 ], [ 285035.23, 4156302.35 ], [ 285031.63, 4156302.91 ], [ 285029.85, 4156303.29 ], [ 285028.2, 4156303.74 ], [ 285019.72, 4156305.42 ], [ 285014.88, 4156306.08 ], [ 285000.0, 4156308.76 ], [ 285000.0, 4156333.44 ], [ 285001.64, 4156332.92 ], [ 285002.57, 4156336.09 ], [ 285061.83, 4156317.37 ], [ 285094.07, 4156303.42 ], [ 285113.22, 4156303.53 ], [ 285122.64, 4156308.4 ], [ 285126.43, 4156314.57 ], [ 285130.34, 4156316.93 ], [ 285134.63, 4156317.03 ], [ 285155.71, 4156307.21 ], [ 285165.57, 4156298.56 ], [ 285179.68, 4156295.34 ], [ 285189.67, 4156289.62 ], [ 285202.78, 4156286.21 ], [ 285244.59, 4156285.38 ], [ 285250.0, 4156284.2 ], [ 285250.0, 4156266.2 ], [ 285245.21, 4156267.08 ], [ 285238.39, 4156268.26 ] ] ], [ [ [ 285223.88, 4156336.69 ], [ 285198.1, 4156347.64 ], [ 285150.19, 4156379.88 ], [ 285150.56, 4156394.69 ], [ 285150.61, 4156394.66 ], [ 285151.76, 4156393.69 ], [ 285153.98, 4156391.68 ], [ 285156.43, 4156389.37 ], [ 285157.19, 4156388.73 ], [ 285157.41, 4156388.57 ], [ 285158.09, 4156388.25 ], [ 285159.83, 4156387.6 ], [ 285161.56, 4156386.86 ], [ 285163.9, 4156385.33 ], [ 285164.03, 4156385.29 ], [ 285164.37, 4156385.28 ], [ 285164.58, 4156385.35 ], [ 285165.03, 4156385.64 ], [ 285166.39, 4156386.91 ], [ 285166.66, 4156387.06 ], [ 285176.54, 4156381.56 ], [ 285178.32, 4156380.09 ], [ 285181.66, 4156377.34 ], [ 285183.35, 4156376.01 ], [ 285188.59, 4156372.17 ], [ 285198.43, 4156364.03 ], [ 285204.22, 4156359.3 ], [ 285207.21, 4156357.05 ], [ 285210.69, 4156354.74 ], [ 285217.89, 4156350.48 ], [ 285231.54, 4156342.52 ], [ 285235.74, 4156339.9 ], [ 285241.27, 4156336.32 ], [ 285244.08, 4156334.61 ], [ 285248.22, 4156332.33 ], [ 285250.0, 4156331.44 ], [ 285250.0, 4156320.57 ], [ 285237.65, 4156327.31 ], [ 285223.88, 4156336.69 ] ] ], [ [ [ 285000.0, 4156464.33 ], [ 285001.96, 4156463.74 ], [ 285004.75, 4156462.81 ], [ 285006.6, 4156462.14 ], [ 285010.27, 4156460.73 ], [ 285017.15, 4156457.93 ], [ 285026.29, 4156454.18 ], [ 285030.88, 4156452.36 ], [ 285046.51, 4156446.39 ], [ 285051.31, 4156444.46 ], [ 285060.87, 4156440.47 ], [ 285062.2, 4156439.89 ], [ 285064.82, 4156438.64 ], [ 285070.04, 4156436.1 ], [ 285072.7, 4156434.96 ], [ 285073.79, 4156434.57 ], [ 285076.0, 4156433.95 ], [ 285080.51, 4156432.95 ], [ 285082.75, 4156432.36 ], [ 285088.79, 4156430.42 ], [ 285141.08, 4156401.32 ], [ 285141.25, 4156400.59 ], [ 285141.47, 4156399.46 ], [ 285141.63, 4156398.92 ], [ 285142.03, 4156398.14 ], [ 285142.33, 4156397.75 ], [ 285143.04, 4156397.11 ], [ 285143.83, 4156396.6 ], [ 285145.1, 4156396.01 ], [ 285145.06, 4156383.38 ], [ 285141.02, 4156383.25 ], [ 285117.34, 4156394.02 ], [ 285118.47, 4156401.07 ], [ 285033.19, 4156428.2 ], [ 285031.96, 4156430.94 ], [ 285024.95, 4156435.38 ], [ 285000.0, 4156443.18 ], [ 285000.0, 4156464.33 ] ] ] ] } },
{ "type": "Feature", "properties": { "id": "imagery:groundcover_paved:2847", "name": null, "kind": "groundcover_paved", "sport": null, "surface": null, "pitch_layout": null, "source": "vgin_vbmp+naip+lidar2025", "source_updated": null, "base_z": null, "top_z": null }, "geometry": { "type": "MultiPolygon", "coordinates": [ [ [ [ 285118.18, 4156311.63 ], [ 285118.01, 4156342.56 ], [ 285123.75, 4156342.59 ], [ 285124.24, 4156342.62 ], [ 285124.72, 4156342.69 ], [ 285124.85, 4156322.97 ], [ 285130.13, 4156322.32 ], [ 285130.13, 4156318.87 ], [ 285129.25, 4156316.75 ], [ 285128.05, 4156315.55 ], [ 285126.43, 4156314.57 ], [ 285125.4, 4156312.9 ], [ 285125.01, 4156312.5 ], [ 285122.89, 4156311.63 ], [ 285118.18, 4156311.63 ] ] ], [ [ [ 285008.6, 4156350.34 ], [ 285000.0, 4156353.09 ], [ 285000.0, 4156356.49 ], [ 285009.59, 4156353.27 ], [ 285008.6, 4156350.34 ] ] ], [ [ [ 285132.71, 4156380.2 ], [ 285132.14, 4156379.64 ], [ 285124.45, 4156383.16 ], [ 285115.36, 4156384.74 ], [ 285116.3, 4156389.7 ], [ 285116.44, 4156389.77 ], [ 285116.7, 4156389.92 ], [ 285116.94, 4156390.1 ], [ 285117.16, 4156390.31 ], [ 285117.36, 4156390.53 ], [ 285117.53, 4156390.77 ], [ 285117.69, 4156391.03 ], [ 285117.81, 4156391.3 ], [ 285117.91, 4156391.58 ], [ 285117.98, 4156391.88 ], [ 285118.02, 4156392.17 ], [ 285118.03, 4156392.47 ], [ 285118.02, 4156392.77 ], [ 285117.97, 4156393.07 ], [ 285117.9, 4156393.36 ], [ 285117.79, 4156393.64 ], [ 285117.68, 4156393.86 ], [ 285126.48, 4156389.86 ], [ 285126.55, 4156389.55 ], [ 285127.05, 4156388.71 ], [ 285129.19, 4156386.96 ], [ 285130.11, 4156386.63 ], [ 285133.13, 4156386.63 ], [ 285136.07, 4156384.21 ], [ 285134.28, 4156380.85 ], [ 285132.71, 4156380.2 ] ] ], [ [ [ 285030.26, 4156424.36 ], [ 285030.31, 4156424.66 ], [ 285030.33, 4156424.96 ], [ 285030.31, 4156425.26 ], [ 285030.27, 4156425.55 ], [ 285030.2, 4156425.84 ], [ 285030.1, 4156426.13 ], [ 285029.98, 4156426.4 ], [ 285029.82, 4156426.65 ], [ 285029.65, 4156426.9 ], [ 285029.45, 4156427.12 ], [ 285029.23, 4156427.32 ], [ 285028.99, 4156427.5 ], [ 285028.73, 4156427.66 ], [ 285028.46, 4156427.79 ], [ 285028.18, 4156427.89 ], [ 285000.0, 4156436.65 ], [ 285000.0, 4156443.18 ], [ 285024.95, 4156435.38 ], [ 285031.96, 4156430.94 ], [ 285033.19, 4156428.2 ], [ 285041.28, 4156425.63 ], [ 285041.33, 4156425.55 ], [ 285031.69, 4156428.6 ], [ 285029.79, 4156422.48 ], [ 285029.25, 4156422.65 ], [ 285029.42, 4156422.81 ], [ 285029.62, 4156423.03 ], [ 285029.8, 4156423.27 ], [ 285029.96, 4156423.52 ], [ 285030.09, 4156423.79 ], [ 285030.19, 4156424.07 ], [ 285030.26, 4156424.36 ] ] ] ] } },
{ "type": "Feature", "properties": { "id": "osm:way/823011270", "name": null, "kind": "grass", "sport": null, "surface": null, "pitch_layout": null, "source": null, "source_updated": null, "base_z": null, "top_z": null }, "geometry": { "type": "Polygon", "coordinates": [ [ [ 285025.29, 4156363.99 ], [ 285027.0, 4156364.29 ], [ 285039.74, 4156359.9 ], [ 285037.92, 4156354.92 ], [ 285031.84, 4156353.69 ], [ 285000.0, 4156363.87 ], [ 285000.0, 4156367.52 ], [ 285023.83, 4156359.82 ], [ 285025.29, 4156363.99 ] ] ] } },
{ "type": "Feature", "properties": { "id": "osm:way/823011277", "name": null, "kind": "grass", "sport": null, "surface": null, "pitch_layout": null, "source": null, "source_updated": null, "base_z": null, "top_z": null }, "geometry": { "type": "Polygon", "coordinates": [ [ [ 285223.88, 4156336.69 ], [ 285237.65, 4156327.31 ], [ 285250.0, 4156320.57 ], [ 285250.0, 4156284.2 ], [ 285244.59, 4156285.38 ], [ 285202.78, 4156286.21 ], [ 285189.67, 4156289.62 ], [ 285179.68, 4156295.34 ], [ 285165.57, 4156298.56 ], [ 285161.11, 4156310.1 ], [ 285176.16, 4156309.61 ], [ 285177.41, 4156361.77 ], [ 285198.1, 4156347.64 ], [ 285223.88, 4156336.69 ] ] ] } },
{ "type": "Feature", "properties": { "id": "osm:way/823011278", "name": null, "kind": "grass", "sport": null, "surface": null, "pitch_layout": null, "source": null, "source_updated": null, "base_z": null, "top_z": null }, "geometry": { "type": "Polygon", "coordinates": [ [ [ 285148.56, 4156319.46 ], [ 285150.65, 4156372.55 ], [ 285165.09, 4156366.22 ], [ 285174.42, 4156357.31 ], [ 285162.64, 4156357.68 ], [ 285161.11, 4156310.1 ], [ 285148.56, 4156319.46 ] ] ] } },
{ "type": "Feature", "properties": { "id": "imagery:groundcover_paved:2849", "name": null, "kind": "groundcover_paved", "sport": null, "surface": null, "pitch_layout": null, "source": "vgin_vbmp+naip+lidar2025", "source_updated": null, "base_z": null, "top_z": null }, "geometry": { "type": "Polygon", "coordinates": [ [ [ 285162.96, 4156331.35 ], [ 285161.97, 4156333.19 ], [ 285161.86, 4156333.31 ], [ 285162.64, 4156357.68 ], [ 285174.42, 4156357.31 ], [ 285165.09, 4156366.22 ], [ 285151.95, 4156371.98 ], [ 285154.39, 4156374.63 ], [ 285158.0, 4156374.63 ], [ 285173.7, 4156364.05 ], [ 285177.38, 4156360.38 ], [ 285176.16, 4156309.61 ], [ 285170.97, 4156309.78 ], [ 285170.22, 4156310.54 ], [ 285169.74, 4156310.86 ], [ 285168.16, 4156311.51 ], [ 285167.59, 4156311.63 ], [ 285161.16, 4156311.63 ], [ 285161.39, 4156318.89 ], [ 285162.71, 4156320.2 ], [ 285163.13, 4156321.22 ], [ 285163.13, 4156330.65 ], [ 285162.96, 4156331.35 ] ] ] } },
{ "type": "Feature", "properties": { "id": "osm:way/823011275", "name": null, "kind": "forest", "sport": null, "surface": null, "pitch_layout": null, "source": null, "source_updated": null, "base_z": null, "top_z": null }, "geometry": { "type": "Polygon", "coordinates": [ [ [ 285124.85, 4156322.97 ], [ 285124.45, 4156383.16 ], [ 285143.76, 4156374.3 ], [ 285143.57, 4156320.67 ], [ 285124.85, 4156322.97 ] ] ] } },
{ "type": "Feature", "properties": { "id": "imagery:groundcover_lawn:2816", "name": null, "kind": "groundcover_lawn", "sport": null, "surface": null, "pitch_layout": null, "source": "vgin_vbmp+naip+lidar2025", "source_updated": null, "base_z": null, "top_z": null }, "geometry": { "type": "Polygon", "coordinates": [ [ [ 285217.55, 4156497.2 ], [ 285219.71, 4156495.05 ], [ 285220.63, 4156494.67 ], [ 285221.35, 4156494.9 ], [ 285223.43, 4156496.4 ], [ 285223.96, 4156497.12 ], [ 285224.92, 4156500.0 ], [ 285237.01, 4156500.0 ], [ 285242.48, 4156498.18 ], [ 285244.47, 4156495.92 ], [ 285246.78, 4156484.4 ], [ 285247.05, 4156483.79 ], [ 285248.24, 4156482.24 ], [ 285248.75, 4156481.82 ], [ 285250.0, 4156481.19 ], [ 285250.0, 4156469.49 ], [ 285208.92, 4156500.0 ], [ 285217.13, 4156500.0 ], [ 285217.13, 4156498.22 ], [ 285217.55, 4156497.2 ] ] ] } },
{ "type": "Feature", "properties": { "id": "imagery:groundcover_paved:2846", "name": null, "kind": "groundcover_paved", "sport": null, "surface": null, "pitch_layout": null, "source": "vgin_vbmp+naip+lidar2025", "source_updated": null, "base_z": null, "top_z": null }, "geometry": { "type": "MultiPolygon", "coordinates": [ [ [ [ 285236.37, 4156497.63 ], [ 285234.25, 4156498.5 ], [ 285232.76, 4156500.0 ], [ 285242.64, 4156500.0 ], [ 285250.0, 4156484.53 ], [ 285250.0, 4156481.19 ], [ 285248.44, 4156481.97 ], [ 285246.84, 4156484.06 ], [ 285244.72, 4156494.7 ], [ 285244.21, 4156495.54 ], [ 285242.07, 4156497.3 ], [ 285241.15, 4156497.63 ], [ 285236.37, 4156497.63 ] ] ], [ [ [ 285250.0, 4156500.0 ], [ 285250.0, 4156498.74 ], [ 285249.4, 4156500.0 ], [ 285250.0, 4156500.0 ] ] ] ] } }
]
}
