{
"type": "FeatureCollection",
"name": "buildings",
"crs": { "type": "name", "properties": { "name": "urn:ogc:def:crs:EPSG::32618" } },
"xy_coordinate_resolution": 0.01,
"features": [
{ "type": "Feature", "properties": { "id": "richmond_structure:388196", "name": null, "height": 3.9, "min_height": 0.0, "levels": null, "height_source": "lidar", "roof_shape": "flat", "roof_height": 0.0, "roof_azimuth": null, "roof_source": "lidar", "roof_color": "slate", "roof_color_source": "ortho", "lod2_roof": null, "roof_props": null, "wall_color": "concrete", "wall_color_source": "assessor", "type": "yes", "landmark": null, "footprint_source": "richmond_structures", "source_updated": "2026-09-08T12:07:13.637000Z", "is_part": false, "parent": null, "hidden": false, "addr": null, "wikidata": null, "website": null, "zoning": "M-2", "lidar_p90": 3.95, "ground_z": 17.71 }, "geometry": { "type": "Polygon", "coordinates": [ [ [ 285693.64, 4158535.61 ], [ 285679.91, 4158538.9 ], [ 285680.75, 4158542.39 ], [ 285694.48, 4158539.1 ], [ 285693.64, 4158535.61 ] ] ] } },
{ "type": "Feature", "properties": { "id": "richmond_structure:388197", "name": null, "height": 17.06, "min_height": 0.0, "levels": null, "height_source": "lidar", "roof_shape": "flat", "roof_height": 0.0, "roof_azimuth": null, "roof_source": "heuristic", "roof_color": "roof_dark", "roof_color_source": "heuristic", "lod2_roof": null, "roof_props": null, "wall_color": "steel", "wall_color_source": "assessor", "type": "yes", "landmark": null, "footprint_source": "richmond_structures", "source_updated": "2026-09-08T12:07:13.637000Z", "is_part": false, "parent": null, "hidden": false, "addr": null, "wikidata": null, "website": null, "zoning": "M-2", "lidar_p90": 17.65, "ground_z": 17.78 }, "geometry": { "type": "Polygon", "coordinates": [ [ [ 285667.03, 4158541.99 ], [ 285655.2, 4158544.76 ], [ 285656.05, 4158548.41 ], [ 285667.88, 4158545.64 ], [ 285667.03, 4158541.99 ] ] ] } },
{ "type": "Feature", "properties": { "id": "osm:way/757496415", "name": null, "height": 6.34, "min_height": 0.0, "levels": null, "height_source": "lidar", "roof_shape": "flat", "roof_height": 0.66, "roof_azimuth": null, "roof_source": "lod2", "roof_color": "roof_flat", "roof_color_source": "ortho", "lod2_roof": { "v": [ [ 285655.06, 4158550.82, 0.61 ], [ 285679.53, 4158544.98, 0.42 ], [ 285680.22, 4158544.52, 0.42 ], [ 285695.96, 4158541.32, 0.3 ], [ 285709.79, 4158599.03, 0.44 ], [ 285688.27, 4158604.12, 0.61 ], [ 285688.32, 4158604.33, 0.61 ], [ 285687.7, 4158604.49, 0.61 ], [ 285679.35, 4158576.86, 0.56 ], [ 285676.2, 4158577.43, 0.58 ], [ 285675.87, 4158576.02, 0.58 ], [ 285664.88, 4158578.62, 0.66 ], [ 285663.71, 4158577.25, 0.66 ], [ 285664.88, 4158578.62, 0.37 ], [ 285652.59, 4158581.52, 0.1 ], [ 285645.86, 4158553.01, 0.08 ], [ 285655.06, 4158550.82, 0.28 ], [ 285663.71, 4158577.25, 0.35 ], [ 285687.7, 4158604.49, 0.0 ], [ 285679.35, 4158576.86, 0.0 ], [ 285676.2, 4158577.43, 0.0 ], [ 285688.32, 4158604.33, 0.0 ] ], "f": [ [ [ 0, 1, 2, 3, 4, 5, 6, 7, 8, 9, 10, 11, 12 ] ], [ [ 13, 14, 15, 16, 17 ] ], [ [ 7, 18, 19, 8 ] ], [ [ 8, 19, 20, 9 ] ], [ [ 11, 13, 17, 12 ] ], [ [ 6, 21, 18, 7 ] ], [ [ 12, 17, 16, 0 ] ] ] }, "roof_props": null, "wall_color": "brick", "wall_color_source": "assessor", "type": "yes", "landmark": null, "footprint_source": "osm", "source_updated": null, "is_part": false, "parent": null, "hidden": false, "addr": "711 Hospital Street", "wikidata": null, "website": null, "zoning": "M-2", "lidar_p90": 6.73, "ground_z": 17.86 }, "geometry": { "type": "Polygon", "coordinates": [ [ [ 285688.27, 4158604.12 ], [ 285710.21, 4158598.93 ], [ 285696.12, 4158539.35 ], [ 285645.46, 4158551.33 ], [ 285652.59, 4158581.52 ], [ 285675.87, 4158576.02 ], [ 285686.23, 4158619.86 ], [ 285691.69, 4158618.58 ], [ 285688.27, 4158604.12 ] ] ] } },
{ "type": "Feature", "properties": { "id": "osm:way/757496442", "name": null, "height": 5.12, "min_height": 0.0, "levels": null, "height_source": "lidar", "roof_shape": "flat", "roof_height": 0.4, "roof_azimuth": null, "roof_source": "lod2", "roof_color": "roof_flat", "roof_color_source": "ortho", "lod2_roof": { "v": [ [ 285685.31, 4158621.44, 0.09 ], [ 285685.03, 4158620.15, 0.0 ], [ 285691.69, 4158618.58, 0.03 ], [ 285692.94, 4158623.87, 0.4 ], [ 285669.7, 4158629.36, 0.3 ], [ 285668.77, 4158625.43, 0.02 ] ], "f": [ [ [ 0, 1, 2, 3, 4, 5 ] ] ] }, "roof_props": null, "wall_color": "concrete", "wall_color_source": "assessor", "type": "yes", "landmark": null, "footprint_source": "osm", "source_updated": null, "is_part": false, "parent": null, "hidden": false, "addr": null, "wikidata": null, "website": null, "zoning": "M-2", "lidar_p90": 5.33, "ground_z": 18.09 }, "geometry": { "type": "Polygon", "coordinates": [ [ [ 285691.69, 4158618.58 ], [ 285668.45, 4158624.06 ], [ 285669.7, 4158629.36 ], [ 285692.94, 4158623.87 ], [ 285691.69, 4158618.58 ] ] ] } },
{ "type": "Feature", "properties": { "id": "osm:way/757496476", "name": null, "height": 5.79, "min_height": 0.0, "levels": null, "height_source": "lidar", "roof_shape": "gable", "roof_height": 1.59, "roof_azimuth": 6.7, "roof_source": "lod2", "roof_color": "roof_flat", "roof_color_source": "ortho", "lod2_roof": { "v": [ [ 285650.12, 4158618.27, 1.59 ], [ 285651.96, 4158632.16, 1.59 ], [ 285647.51, 4158632.69, 0.16 ], [ 285645.83, 4158618.42, 0.23 ], [ 285654.89, 4158618.11, 0.0 ], [ 285656.62, 4158631.62, 0.03 ] ], "f": [ [ [ 0, 1, 2, 3 ] ], [ [ 0, 4, 5, 1 ] ] ] }, "roof_props": null, "wall_color": "brick_dark", "wall_color_source": "assessor", "type": "yes", "landmark": null, "footprint_source": "osm", "source_updated": null, "is_part": false, "parent": null, "hidden": false, "addr": "711 Hospital Street", "wikidata": null, "website": null, "zoning": "M-2", "lidar_p90": 7.06, "ground_z": 18.64 }, "geometry": { "type": "Polygon", "coordinates": [ [ [ 285655.27, 4158616.16 ], [ 285645.7, 4158617.29 ], [ 285647.51, 4158632.69 ], [ 285657.08, 4158631.56 ], [ 285655.27, 4158616.16 ] ] ] } },
{ "type": "Feature", "properties": { "id": "osm:way/757496424", "name": null, "height": 4.82, "min_height": 0.0, "levels": null, "height_source": "lidar", "roof_shape": "flat", "roof_height": 0.0, "roof_azimuth": null, "roof_source": "lidar", "roof_color": "roof_flat", "roof_color_source": "ortho", "lod2_roof": null, "roof_props": null, "wall_color": "concrete", "wall_color_source": "assessor", "type": "yes", "landmark": null, "footprint_source": "osm", "source_updated": null, "is_part": false, "parent": null, "hidden": false, "addr": "711 Hospital Street", "wikidata": null, "website": null, "zoning": "M-2", "lidar_p90": 5.68, "ground_z": 18.73 }, "geometry": { "type": "Polygon", "coordinates": [ [ [ 285688.27, 4158604.12 ], [ 285708.57, 4158690.03 ], [ 285734.92, 4158683.79 ], [ 285727.14, 4158650.84 ], [ 285722.71, 4158651.89 ], [ 285710.21, 4158598.93 ], [ 285688.27, 4158604.12 ] ] ] } },
{ "type": "Feature", "properties": { "id": "osm:way/757496383", "name": null, "height": 6.54, "min_height": 0.0, "levels": null, "height_source": "lidar", "roof_shape": "flat", "roof_height": 3.43, "roof_azimuth": null, "roof_source": "lod2", "roof_color": "roof_flat", "roof_color_source": "ortho", "lod2_roof": { "v": [ [ 285695.11, 4158691.72, 0.0 ], [ 285694.74, 4158691.19, 0.18 ], [ 285696.17, 4158691.36, 0.0 ], [ 285673.69, 4158695.63, 0.0 ], [ 285674.07, 4158694.87, 0.22 ], [ 285673.84, 4158693.97, 0.5 ], [ 285686.48, 4158689.19, 1.45 ], [ 285688.58, 4158688.4, 1.6 ], [ 285688.74, 4158689.08, 1.39 ], [ 285690.06, 4158688.7, 1.45 ], [ 285690.78, 4158688.49, 1.48 ], [ 285691.91, 4158688.17, 1.54 ], [ 285691.93, 4158688.23, 1.52 ], [ 285692.78, 4158690.95, 0.65 ], [ 285694.74, 4158691.19, 0.49 ], [ 285695.75, 4158692.66, 0.0 ], [ 285660.18, 4158638.78, 0.46 ], [ 285660.5, 4158638.63, 0.48 ], [ 285661.7, 4158638.41, 0.57 ], [ 285675.64, 4158635.83, 1.57 ], [ 285679.89, 4158649.51, 1.64 ], [ 285679.99, 4158649.82, 1.64 ], [ 285678.27, 4158650.67, 1.51 ], [ 285681.59, 4158664.14, 1.52 ], [ 285680.96, 4158666.03, 1.44 ], [ 285679.98, 4158652.44, 2.9 ], [ 285681.73, 4158659.99, 2.88 ], [ 285682.66, 4158663.97, 2.86 ], [ 285682.98, 4158665.16, 2.88 ], [ 285683.14, 4158665.76, 2.9 ], [ 285688.58, 4158688.4, 2.93 ], [ 285681.59, 4158664.14, 2.14 ], [ 285678.27, 4158650.67, 2.07 ], [ 285679.99, 4158649.82, 3.31 ], [ 285680.78, 4158652.37, 3.43 ], [ 285706.19, 4158690.6, 0.0 ], [ 285700.68, 4158691.91, 0.65 ], [ 285694.74, 4158691.19, 1.28 ], [ 285692.78, 4158690.95, 1.5 ], [ 285691.91, 4158688.17, 1.52 ], [ 285691.62, 4158687.25, 1.53 ], [ 285694.92, 4158686.0, 1.13 ], [ 285704.29, 4158682.47, 0.0 ], [ 285660.5, 4158638.63, 0.0 ], [ 285665.64, 4158660.86, 0.0 ], [ 285673.84, 4158693.97, 0.21 ], [ 285660.0, 4158636.49, 0.0 ], [ 285661.36, 4158637.87, 0.41 ], [ 285661.7, 4158638.41, 0.49 ], [ 285682.66, 4158663.97, 2.91 ], [ 285679.98, 4158652.44, 2.82 ], [ 285680.78, 4158652.37, 2.24 ], [ 285681.51, 4158652.3, 1.7 ], [ 285683.52, 4158660.55, 1.71 ], [ 285683.48, 4158661.05, 1.82 ], [ 285684.22, 4158663.44, 1.71 ], [ 285685.61, 4158669.15, 1.71 ], [ 285690.06, 4158688.7, 1.93 ], [ 285688.74, 4158689.08, 2.93 ], [ 285683.14, 4158665.76, 2.87 ], [ 285688.67, 4158629.4, 0.0 ], [ 285689.62, 4158631.69, 0.6 ], [ 285679.38, 4158637.88, 1.48 ], [ 285678.56, 4158636.8, 1.17 ], [ 285678.23, 4158635.35, 0.8 ], [ 285675.64, 4158635.83, 0.77 ], [ 285661.7, 4158638.41, 0.56 ], [ 285702.62, 4158673.2, 0.33 ], [ 285703.0, 4158674.73, 0.33 ], [ 285703.05, 4158674.7, 0.33 ], [ 285703.57, 4158676.94, 0.33 ], [ 285704.87, 4158682.25, 0.32 ], [ 285691.62, 4158687.25, 1.4 ], [ 285691.91, 4158688.17, 1.39 ], [ 285690.06, 4158688.7, 1.54 ], [ 285685.61, 4158669.15, 1.54 ], [ 285684.22, 4158663.44, 1.55 ], [ 285683.48, 4158661.05, 1.56 ], [ 285683.52, 4158660.55, 1.55 ], [ 285681.51, 4158652.3, 1.56 ], [ 285680.78, 4158652.37, 1.62 ], [ 285679.99, 4158649.82, 1.63 ], [ 285675.64, 4158635.83, 1.72 ], [ 285678.23, 4158635.35, 1.52 ], [ 285678.56, 4158636.8, 1.52 ], [ 285691.36, 4158630.64, 0.45 ], [ 285697.5, 4158655.41, 0.41 ], [ 285699.04, 4158656.05, 0.31 ], [ 285701.01, 4158663.49, 0.29 ], [ 285700.93, 4158670.94, 0.42 ], [ 285701.86, 4158673.63, 0.4 ], [ 285701.87, 4158673.75, 0.4 ], [ 285702.58, 4158672.89, 0.33 ], [ 285700.68, 4158691.91, 0.0 ], [ 285703.57, 4158676.94, 0.0 ], [ 285704.87, 4158682.25, 0.0 ], [ 285702.58, 4158672.89, 0.0 ], [ 285702.62, 4158673.2, 0.0 ], [ 285660.18, 4158638.78, 0.0 ], [ 285701.86, 4158673.63, 0.0 ], [ 285701.87, 4158673.75, 0.0 ], [ 285697.5, 4158655.41, 0.0 ], [ 285699.04, 4158656.05, 0.0 ], [ 285701.01, 4158663.49, 0.0 ], [ 285689.62, 4158631.69, 0.0 ], [ 285691.36, 4158630.64, 0.0 ], [ 285703.05, 4158674.7, 0.0 ], [ 285700.93, 4158670.94, 0.0 ], [ 285703.0, 4158674.73, 0.0 ] ], "f": [ [ [ 0, 1, 2 ] ], [ [ 3, 4, 5, 6, 7, 8, 9, 10, 11, 12, 13, 14, 15 ] ], [ [ 16, 17, 18, 19, 20, 21, 22, 23, 24, 6, 5 ] ], [ [ 25, 26, 27, 28, 29, 30, 6, 24, 31, 32, 33, 34 ] ], [ [ 35, 36, 37, 38, 12, 39, 40, 41, 42 ] ], [ [ 43, 44, 45, 4, 3, 46, 47, 48 ] ], [ [ 49, 26, 50, 51, 52, 53, 54, 55, 56, 57, 58, 30, 59, 28 ] ], [ [ 60, 61, 62, 63, 64, 65, 66, 47, 46 ] ], [ [ 67, 68, 69, 70, 71, 41, 72, 73, 10, 74, 75, 76, 77, 78, 79, 80, 81, 20, 82, 83, 84, 62, 61, 85, 86, 87, 88, 89, 90, 91, 92 ] ], [ [ 36, 93, 2, 1, 14, 37 ] ], [ [ 70, 94, 95, 71 ] ], [ [ 40, 72, 41 ] ], [ [ 71, 95, 42, 41 ] ], [ [ 92, 96, 97, 67 ] ], [ [ 5, 45, 44, 98, 16 ] ], [ [ 53, 78, 77, 54 ] ], [ [ 56, 75, 74, 57 ] ], [ [ 32, 22, 21, 33 ] ], [ [ 90, 99, 100, 91 ] ], [ [ 91, 100, 96, 92 ] ], [ [ 86, 101, 102, 87 ] ], [ [ 87, 102, 103, 88 ] ], [ [ 82, 19, 65, 64, 83 ] ], [ [ 83, 64, 63, 84 ] ], [ [ 55, 76, 75, 56 ] ], [ [ 61, 104, 105, 85 ] ], [ [ 85, 105, 101, 86 ] ], [ [ 18, 66, 65, 19 ] ], [ [ 54, 77, 76, 55 ] ], [ [ 45, 5, 4 ] ], [ [ 57, 74, 9, 8, 58 ] ], [ [ 58, 8, 7, 30 ] ], [ [ 30, 7, 6 ] ], [ [ 73, 39, 11, 10 ] ], [ [ 9, 74, 10 ] ], [ [ 38, 13, 12 ] ], [ [ 39, 73, 72, 40 ] ], [ [ 69, 106, 94, 70 ] ], [ [ 37, 14, 13, 38 ] ], [ [ 14, 1, 0, 15 ] ], [ [ 27, 49, 28 ] ], [ [ 66, 48, 47 ] ], [ [ 29, 59, 30 ] ], [ [ 17, 43, 48, 66, 18 ] ], [ [ 88, 103, 107, 89 ] ], [ [ 89, 107, 99, 90 ] ], [ [ 31, 23, 22, 32 ] ], [ [ 23, 31, 24 ] ], [ [ 19, 82, 20 ] ], [ [ 84, 63, 62 ] ], [ [ 34, 51, 50, 25 ] ], [ [ 33, 21, 81, 80, 51, 34 ] ], [ [ 51, 80, 79, 52 ] ], [ [ 52, 79, 78, 53 ] ], [ [ 104, 61, 60 ] ], [ [ 16, 98, 43, 17 ] ], [ [ 25, 50, 26 ] ], [ [ 49, 27, 26 ] ], [ [ 68, 108, 106, 69 ] ], [ [ 67, 97, 108, 68 ] ] ] }, "roof_props": null, "wall_color": "steel", "wall_color_source": "assessor", "type": "yes", "landmark": null, "footprint_source": "osm", "source_updated": null, "is_part": false, "parent": null, "hidden": false, "addr": "711 Hospital Street", "wikidata": null, "website": null, "zoning": "M-2", "lidar_p90": 7.4, "ground_z": 18.25 }, "geometry": { "type": "Polygon", "coordinates": [ [ [ 285692.94, 4158623.87 ], [ 285656.27, 4158632.54 ], [ 285671.91, 4158698.75 ], [ 285708.57, 4158690.03 ], [ 285692.94, 4158623.87 ] ] ] } },
{ "type": "Feature", "properties": { "id": "osm:way/757496380", "name": null, "height": 5.13, "min_height": 0.0, "levels": null, "height_source": "lidar", "roof_shape": "flat", "roof_height": 0.62, "roof_azimuth": null, "roof_source": "lod2", "roof_color": "roof_flat", "roof_color_source": "ortho", "lod2_roof": { "v": [ [ 285658.3, 4158668.98, 0.0 ], [ 285663.98, 4158666.72, 0.58 ], [ 285663.17, 4158665.01, 0.53 ], [ 285663.76, 4158664.87, 0.59 ], [ 285665.37, 4158671.67, 0.62 ], [ 285659.27, 4158673.1, 0.02 ] ], "f": [ [ [ 0, 1, 2, 3, 4, 5 ] ] ] }, "roof_props": null, "wall_color": "brick_dark", "wall_color_source": "assessor", "type": "yes", "landmark": null, "footprint_source": "osm", "source_updated": null, "is_part": false, "parent": null, "hidden": false, "addr": null, "wikidata": null, "website": null, "zoning": "M-2", "lidar_p90": 5.46, "ground_z": 17.97 }, "geometry": { "type": "Polygon", "coordinates": [ [ [ 285663.76, 4158664.87 ], [ 285657.66, 4158666.3 ], [ 285659.27, 4158673.1 ], [ 285665.37, 4158671.67 ], [ 285663.76, 4158664.87 ] ] ] } },
{ "type": "Feature", "properties": { "id": "osm:way/1131767403", "name": null, "height": 3.66, "min_height": 0.0, "levels": null, "height_source": "lidar", "roof_shape": "flat", "roof_height": 0.11, "roof_azimuth": null, "roof_source": "lod2", "roof_color": "roof_dark", "roof_color_source": "heuristic", "lod2_roof": { "v": [ [ 285521.13, 4158685.49, 0.05 ], [ 285509.41, 4158689.13, 0.11 ], [ 285507.47, 4158682.89, 0.07 ], [ 285518.93, 4158678.7, 0.0 ] ], "f": [ [ [ 0, 1, 2, 3 ] ] ] }, "roof_props": null, "wall_color": "steel", "wall_color_source": "assessor", "type": "yes", "landmark": null, "footprint_source": "osm", "source_updated": null, "is_part": false, "parent": null, "hidden": false, "addr": "1200 North 7th Street", "wikidata": null, "website": null, "zoning": "M-1", "lidar_p90": 3.7, "ground_z": 31.29 }, "geometry": { "type": "Polygon", "coordinates": [ [ [ 285518.81, 4158678.3 ], [ 285507.18, 4158681.94 ], [ 285509.41, 4158689.13 ], [ 285521.13, 4158685.49 ], [ 285518.81, 4158678.3 ] ] ] } },
{ "type": "Feature", "properties": { "id": "osm:way/757496372", "name": null, "height": 4.64, "min_height": 0.0, "levels": null, "height_source": "lidar", "roof_shape": "flat", "roof_height": 1.0, "roof_azimuth": null, "roof_source": "lod2", "roof_color": "roof_flat", "roof_color_source": "ortho", "lod2_roof": { "v": [ [ 285704.13, 4158692.26, 0.87 ], [ 285720.09, 4158688.47, 0.9 ], [ 285720.27, 4158689.25, 1.0 ], [ 285704.22, 4158692.87, 0.95 ], [ 285714.23, 4158728.45, 0.52 ], [ 285711.91, 4158729.39, 0.52 ], [ 285711.17, 4158726.26, 0.47 ], [ 285691.27, 4158730.96, 0.43 ], [ 285691.02, 4158729.86, 0.41 ], [ 285685.09, 4158731.27, 0.4 ], [ 285679.68, 4158708.36, 0.0 ], [ 285721.22, 4158693.25, 0.0 ], [ 285727.83, 4158721.22, 0.49 ], [ 285715.07, 4158724.24, 0.46 ], [ 285716.22, 4158729.1, 0.54 ], [ 285714.78, 4158728.63, 0.53 ], [ 285711.91, 4158729.39, 0.08 ], [ 285714.23, 4158728.45, 0.18 ], [ 285714.78, 4158728.63, 0.2 ], [ 285717.23, 4158732.5, 0.26 ], [ 285719.87, 4158732.56, 0.37 ], [ 285722.96, 4158745.6, 0.35 ], [ 285716.12, 4158747.21, 0.05 ], [ 285720.27, 4158689.25, 0.0 ], [ 285704.22, 4158692.87, 0.0 ], [ 285704.13, 4158692.26, 0.0 ] ], "f": [ [ [ 0, 1, 2, 3 ] ], [ [ 4, 5, 6, 7, 8, 9, 10, 11, 12, 13, 14, 15 ] ], [ [ 16, 17, 18, 19, 20, 21, 22 ] ], [ [ 2, 23, 24, 3 ] ], [ [ 3, 24, 25, 0 ] ], [ [ 15, 18, 17, 4 ] ], [ [ 4, 17, 16, 5 ] ] ] }, "roof_props": null, "wall_color": "brick", "wall_color_source": "assessor", "type": "yes", "landmark": null, "footprint_source": "osm", "source_updated": null, "is_part": false, "parent": null, "hidden": false, "addr": "711 Hospital Street", "wikidata": null, "website": null, "zoning": "M-2", "lidar_p90": 5.14, "ground_z": 19.06 }, "geometry": { "type": "Polygon", "coordinates": [ [ [ 285719.36, 4158730.38 ], [ 285716.68, 4158731.02 ], [ 285715.07, 4158724.24 ], [ 285727.83, 4158721.22 ], [ 285720.09, 4158688.47 ], [ 285677.38, 4158698.63 ], [ 285685.09, 4158731.27 ], [ 285691.02, 4158729.86 ], [ 285691.27, 4158730.96 ], [ 285711.17, 4158726.26 ], [ 285716.12, 4158747.21 ], [ 285722.96, 4158745.6 ], [ 285719.36, 4158730.38 ] ] ] } }
]
}
