{
"type": "FeatureCollection",
"name": "pois",
"crs": { "type": "name", "properties": { "name": "urn:ogc:def:crs:EPSG::32618" } },
"xy_coordinate_resolution": 0.01,
"features": [
{ "type": "Feature", "properties": { "id": "lidar-tree:284194:4155756", "name": null, "kind": "tree", "species": null, "source": "lidar2025", "tree_height": 5.2, "crown_radius": 3.2, "height_source": "lidar2025" }, "geometry": { "type": "Point", "coordinates": [ 284194.5, 4155755.5 ] } },
{ "type": "Feature", "properties": { "id": "rva-tree:30375", "name": "Acer platanoides", "kind": "tree", "species": "Acer platanoides", "source": "city_inventory", "tree_height": 8.0, "crown_radius": 2.5, "height_source": "estimated" }, "geometry": { "type": "Point", "coordinates": [ 284000.43, 4155759.17 ] } },
{ "type": "Feature", "properties": { "id": "rva-tree:37318", "name": "Lagerstroemia indica", "kind": "tree", "species": "Lagerstroemia indica", "source": "city_inventory", "tree_height": 8.7, "crown_radius": 4.4, "height_source": "lidar2025" }, "geometry": { "type": "Point", "coordinates": [ 284249.9, 4155762.01 ] } },
{ "type": "Feature", "properties": { "id": "rva-tree:30394", "name": "Zelkova serrata", "kind": "tree", "species": "Zelkova serrata", "source": "city_inventory", "tree_height": 11.8, "crown_radius": 6.0, "height_source": "lidar2025" }, "geometry": { "type": "Point", "coordinates": [ 284181.8, 4155763.27 ] } },
{ "type": "Feature", "properties": { "id": "rva-tree:37319", "name": "Lagerstroemia indica", "kind": "tree", "species": "Lagerstroemia indica", "source": "city_inventory", "tree_height": 8.0, "crown_radius": 2.5, "height_source": "estimated" }, "geometry": { "type": "Point", "coordinates": [ 284247.32, 4155765.46 ] } },
{ "type": "Feature", "properties": { "id": "osm:node/3098093022", "name": null, "kind": "traffic_signals", "species": null, "source": null, "tree_height": null, "crown_radius": null, "height_source": null }, "geometry": { "type": "Point", "coordinates": [ 284200.3, 4155767.23 ] } },
{ "type": "Feature", "properties": { "id": "rva-tree:37320", "name": "Lagerstroemia indica", "kind": "tree", "species": "Lagerstroemia indica", "source": "city_inventory", "tree_height": 8.0, "crown_radius": 2.5, "height_source": "estimated" }, "geometry": { "type": "Point", "coordinates": [ 284244.13, 4155769.97 ] } },
{ "type": "Feature", "properties": { "id": "osm:node/3096589376", "name": null, "kind": "traffic_signals", "species": null, "source": null, "tree_height": null, "crown_radius": null, "height_source": null }, "geometry": { "type": "Point", "coordinates": [ 284230.98, 4155771.25 ] } },
{ "type": "Feature", "properties": { "id": "rva-tree:37321", "name": "Lagerstroemia indica", "kind": "tree", "species": "Lagerstroemia indica", "source": "city_inventory", "tree_height": 7.2, "crown_radius": 4.3, "height_source": "lidar2025" }, "geometry": { "type": "Point", "coordinates": [ 284240.29, 4155774.37 ] } },
{ "type": "Feature", "properties": { "id": "osm:node/3096589374", "name": null, "kind": "traffic_signals", "species": null, "source": null, "tree_height": null, "crown_radius": null, "height_source": null }, "geometry": { "type": "Point", "coordinates": [ 284201.14, 4155787.19 ] } },
{ "type": "Feature", "properties": { "id": "lidar-tree:284190:4155790", "name": null, "kind": "tree", "species": null, "source": "lidar2025", "tree_height": 9.3, "crown_radius": 3.0, "height_source": "lidar2025" }, "geometry": { "type": "Point", "coordinates": [ 284190.5, 4155790.5 ] } },
{ "type": "Feature", "properties": { "id": "osm:node/3098093023", "name": null, "kind": "traffic_signals", "species": null, "source": null, "tree_height": null, "crown_radius": null, "height_source": null }, "geometry": { "type": "Point", "coordinates": [ 284232.32, 4155791.07 ] } },
{ "type": "Feature", "properties": { "id": "lidar-tree:284146:4155768", "name": null, "kind": "tree", "species": null, "source": "lidar2025", "tree_height": 20.4, "crown_radius": 6.0, "height_source": "lidar2025" }, "geometry": { "type": "Point", "coordinates": [ 284146.5, 4155767.5 ] } },
{ "type": "Feature", "properties": { "id": "lidar-tree:284172:4155770", "name": null, "kind": "tree", "species": null, "source": "lidar2025", "tree_height": 15.3, "crown_radius": 6.0, "height_source": "lidar2025" }, "geometry": { "type": "Point", "coordinates": [ 284171.5, 4155770.5 ] } },
{ "type": "Feature", "properties": { "id": "lidar-tree:284134:4155778", "name": null, "kind": "tree", "species": null, "source": "lidar2025", "tree_height": 19.2, "crown_radius": 6.0, "height_source": "lidar2025" }, "geometry": { "type": "Point", "coordinates": [ 284134.5, 4155778.5 ] } },
{ "type": "Feature", "properties": { "id": "lidar-tree:284140:4155786", "name": null, "kind": "tree", "species": null, "source": "lidar2025", "tree_height": 21.4, "crown_radius": 6.0, "height_source": "lidar2025" }, "geometry": { "type": "Point", "coordinates": [ 284140.5, 4155786.5 ] } },
{ "type": "Feature", "properties": { "id": "lidar-tree:284170:4155788", "name": null, "kind": "tree", "species": null, "source": "lidar2025", "tree_height": 18.5, "crown_radius": 6.0, "height_source": "lidar2025" }, "geometry": { "type": "Point", "coordinates": [ 284170.5, 4155788.5 ] } },
{ "type": "Feature", "properties": { "id": "lidar-tree:284130:4155792", "name": null, "kind": "tree", "species": null, "source": "lidar2025", "tree_height": 19.2, "crown_radius": 6.0, "height_source": "lidar2025" }, "geometry": { "type": "Point", "coordinates": [ 284129.5, 4155791.5 ] } },
{ "type": "Feature", "properties": { "id": "lidar-tree:284154:4155794", "name": null, "kind": "tree", "species": null, "source": "lidar2025", "tree_height": 22.1, "crown_radius": 6.0, "height_source": "lidar2025" }, "geometry": { "type": "Point", "coordinates": [ 284154.5, 4155793.5 ] } },
{ "type": "Feature", "properties": { "id": "lidar-tree:284120:4155798", "name": null, "kind": "tree", "species": null, "source": "lidar2025", "tree_height": 6.0, "crown_radius": 6.0, "height_source": "lidar2025" }, "geometry": { "type": "Point", "coordinates": [ 284119.5, 4155798.5 ] } },
{ "type": "Feature", "properties": { "id": "lidar-tree:284144:4155802", "name": null, "kind": "tree", "species": null, "source": "lidar2025", "tree_height": 21.2, "crown_radius": 6.0, "height_source": "lidar2025" }, "geometry": { "type": "Point", "coordinates": [ 284143.5, 4155802.5 ] } },
{ "type": "Feature", "properties": { "id": "lidar-tree:284130:4155812", "name": null, "kind": "tree", "species": null, "source": "lidar2025", "tree_height": 11.8, "crown_radius": 6.0, "height_source": "lidar2025" }, "geometry": { "type": "Point", "coordinates": [ 284129.5, 4155811.5 ] } },
{ "type": "Feature", "properties": { "id": "rva-tree:120204", "name": "Ulmus americana", "kind": "tree", "species": "Ulmus americana", "source": "city_inventory", "tree_height": 17.7, "crown_radius": 6.0, "height_source": "lidar2025" }, "geometry": { "type": "Point", "coordinates": [ 284004.24, 4155792.34 ] } },
{ "type": "Feature", "properties": { "id": "rva-tree:30376", "name": "Tilia americana", "kind": "tree", "species": "Tilia americana", "source": "city_inventory", "tree_height": 8.0, "crown_radius": 2.5, "height_source": "estimated" }, "geometry": { "type": "Point", "coordinates": [ 284057.26, 4155802.16 ] } },
{ "type": "Feature", "properties": { "id": "lidar-tree:284036:4155806", "name": null, "kind": "tree", "species": null, "source": "lidar2025", "tree_height": 7.7, "crown_radius": 2.4, "height_source": "lidar2025" }, "geometry": { "type": "Point", "coordinates": [ 284036.5, 4155805.5 ] } },
{ "type": "Feature", "properties": { "id": "lidar-tree:284070:4155830", "name": null, "kind": "tree", "species": null, "source": "lidar2025", "tree_height": 4.7, "crown_radius": 2.8, "height_source": "lidar2025" }, "geometry": { "type": "Point", "coordinates": [ 284069.5, 4155830.5 ] } },
{ "type": "Feature", "properties": { "id": "lidar-tree:284020:4155836", "name": null, "kind": "tree", "species": null, "source": "lidar2025", "tree_height": 17.0, "crown_radius": 6.0, "height_source": "lidar2025" }, "geometry": { "type": "Point", "coordinates": [ 284020.5, 4155835.5 ] } },
{ "type": "Feature", "properties": { "id": "lidar-tree:284138:4155816", "name": null, "kind": "tree", "species": null, "source": "lidar2025", "tree_height": 15.1, "crown_radius": 6.0, "height_source": "lidar2025" }, "geometry": { "type": "Point", "coordinates": [ 284138.5, 4155815.5 ] } },
{ "type": "Feature", "properties": { "id": "lidar-tree:284116:4155818", "name": null, "kind": "tree", "species": null, "source": "lidar2025", "tree_height": 8.6, "crown_radius": 6.0, "height_source": "lidar2025" }, "geometry": { "type": "Point", "coordinates": [ 284115.5, 4155817.5 ] } },
{ "type": "Feature", "properties": { "id": "lidar-tree:284130:4155822", "name": null, "kind": "tree", "species": null, "source": "lidar2025", "tree_height": 10.0, "crown_radius": 6.0, "height_source": "lidar2025" }, "geometry": { "type": "Point", "coordinates": [ 284130.5, 4155822.5 ] } },
{ "type": "Feature", "properties": { "id": "lidar-tree:284138:4155830", "name": null, "kind": "tree", "species": null, "source": "lidar2025", "tree_height": 15.0, "crown_radius": 6.0, "height_source": "lidar2025" }, "geometry": { "type": "Point", "coordinates": [ 284138.5, 4155830.5 ] } },
{ "type": "Feature", "properties": { "id": "lidar-tree:284092:4155832", "name": null, "kind": "tree", "species": null, "source": "lidar2025", "tree_height": 14.8, "crown_radius": 5.9, "height_source": "lidar2025" }, "geometry": { "type": "Point", "coordinates": [ 284092.5, 4155832.5 ] } },
{ "type": "Feature", "properties": { "id": "lidar-tree:284108:4155834", "name": null, "kind": "tree", "species": null, "source": "lidar2025", "tree_height": 18.2, "crown_radius": 6.0, "height_source": "lidar2025" }, "geometry": { "type": "Point", "coordinates": [ 284107.5, 4155833.5 ] } },
{ "type": "Feature", "properties": { "id": "lidar-tree:284124:4155834", "name": null, "kind": "tree", "species": null, "source": "lidar2025", "tree_height": 19.3, "crown_radius": 6.0, "height_source": "lidar2025" }, "geometry": { "type": "Point", "coordinates": [ 284124.5, 4155834.5 ] } },
{ "type": "Feature", "properties": { "id": "lidar-tree:284134:4155840", "name": null, "kind": "tree", "species": null, "source": "lidar2025", "tree_height": 14.1, "crown_radius": 6.0, "height_source": "lidar2025" }, "geometry": { "type": "Point", "coordinates": [ 284133.5, 4155839.5 ] } },
{ "type": "Feature", "properties": { "id": "lidar-tree:284152:4155842", "name": null, "kind": "tree", "species": null, "source": "lidar2025", "tree_height": 8.5, "crown_radius": 2.9, "height_source": "lidar2025" }, "geometry": { "type": "Point", "coordinates": [ 284152.5, 4155841.5 ] } },
{ "type": "Feature", "properties": { "id": "rva-tree:30326", "name": "Acer campestre", "kind": "tree", "species": "Acer campestre", "source": "city_inventory", "tree_height": 12.0, "crown_radius": 6.0, "height_source": "lidar2025" }, "geometry": { "type": "Point", "coordinates": [ 284080.05, 4155843.33 ] } },
{ "type": "Feature", "properties": { "id": "lidar-tree:284004:4155838", "name": null, "kind": "tree", "species": null, "source": "lidar2025", "tree_height": 19.3, "crown_radius": 5.8, "height_source": "lidar2025" }, "geometry": { "type": "Point", "coordinates": [ 284003.5, 4155837.5 ] } },
{ "type": "Feature", "properties": { "id": "lidar-tree:284014:4155844", "name": null, "kind": "tree", "species": null, "source": "lidar2025", "tree_height": 20.6, "crown_radius": 6.0, "height_source": "lidar2025" }, "geometry": { "type": "Point", "coordinates": [ 284014.5, 4155844.5 ] } },
{ "type": "Feature", "properties": { "id": "lidar-tree:284002:4155846", "name": null, "kind": "tree", "species": null, "source": "lidar2025", "tree_height": 9.8, "crown_radius": 4.9, "height_source": "lidar2025" }, "geometry": { "type": "Point", "coordinates": [ 284001.5, 4155845.5 ] } },
{ "type": "Feature", "properties": { "id": "rva-tree:30327", "name": "Acer campestre", "kind": "tree", "species": "Acer campestre", "source": "city_inventory", "tree_height": 12.0, "crown_radius": 6.0, "height_source": "lidar2025" }, "geometry": { "type": "Point", "coordinates": [ 284077.99, 4155846.15 ] } },
{ "type": "Feature", "properties": { "id": "lidar-tree:284006:4155856", "name": null, "kind": "tree", "species": null, "source": "lidar2025", "tree_height": 6.9, "crown_radius": 4.0, "height_source": "lidar2025" }, "geometry": { "type": "Point", "coordinates": [ 284005.5, 4155855.5 ] } },
{ "type": "Feature", "properties": { "id": "rva-tree:30328", "name": "Acer campestre", "kind": "tree", "species": "Acer campestre", "source": "city_inventory", "tree_height": 8.0, "crown_radius": 2.5, "height_source": "estimated" }, "geometry": { "type": "Point", "coordinates": [ 284070.6, 4155856.48 ] } },
{ "type": "Feature", "properties": { "id": "rva-tree:30325", "name": "Celtis laevigata", "kind": "tree", "species": "Celtis laevigata", "source": "city_inventory", "tree_height": 8.0, "crown_radius": 2.5, "height_source": "estimated" }, "geometry": { "type": "Point", "coordinates": [ 284057.25, 4155856.86 ] } },
{ "type": "Feature", "properties": { "id": "rva-tree:30329", "name": "Acer campestre", "kind": "tree", "species": "Acer campestre", "source": "city_inventory", "tree_height": 8.0, "crown_radius": 2.5, "height_source": "estimated" }, "geometry": { "type": "Point", "coordinates": [ 284068.65, 4155859.29 ] } },
{ "type": "Feature", "properties": { "id": "lidar-tree:284244:4155810", "name": null, "kind": "tree", "species": null, "source": "lidar2025", "tree_height": 5.0, "crown_radius": 2.9, "height_source": "lidar2025" }, "geometry": { "type": "Point", "coordinates": [ 284243.5, 4155810.5 ] } },
{ "type": "Feature", "properties": { "id": "lidar-tree:284240:4155842", "name": null, "kind": "tree", "species": null, "source": "lidar2025", "tree_height": 7.3, "crown_radius": 2.3, "height_source": "lidar2025" }, "geometry": { "type": "Point", "coordinates": [ 284239.5, 4155841.5 ] } },
{ "type": "Feature", "properties": { "id": "lidar-tree:284234:4155848", "name": null, "kind": "tree", "species": null, "source": "lidar2025", "tree_height": 8.5, "crown_radius": 3.1, "height_source": "lidar2025" }, "geometry": { "type": "Point", "coordinates": [ 284233.5, 4155847.5 ] } },
{ "type": "Feature", "properties": { "id": "lidar-tree:284220:4155864", "name": null, "kind": "tree", "species": null, "source": "lidar2025", "tree_height": 7.2, "crown_radius": 3.0, "height_source": "lidar2025" }, "geometry": { "type": "Point", "coordinates": [ 284220.5, 4155864.5 ] } },
{ "type": "Feature", "properties": { "id": "lidar-tree:284212:4155876", "name": null, "kind": "tree", "species": null, "source": "lidar2025", "tree_height": 9.1, "crown_radius": 4.3, "height_source": "lidar2025" }, "geometry": { "type": "Point", "coordinates": [ 284211.5, 4155876.5 ] } },
{ "type": "Feature", "properties": { "id": "lidar-tree:284220:4155882", "name": null, "kind": "tree", "species": null, "source": "lidar2025", "tree_height": 7.8, "crown_radius": 3.4, "height_source": "lidar2025" }, "geometry": { "type": "Point", "coordinates": [ 284219.5, 4155881.5 ] } },
{ "type": "Feature", "properties": { "id": "lidar-tree:284184:4155902", "name": null, "kind": "tree", "species": null, "source": "lidar2025", "tree_height": 11.5, "crown_radius": 5.2, "height_source": "lidar2025" }, "geometry": { "type": "Point", "coordinates": [ 284184.5, 4155901.5 ] } },
{ "type": "Feature", "properties": { "id": "lidar-tree:284196:4155910", "name": null, "kind": "tree", "species": null, "source": "lidar2025", "tree_height": 11.6, "crown_radius": 5.1, "height_source": "lidar2025" }, "geometry": { "type": "Point", "coordinates": [ 284196.5, 4155910.5 ] } },
{ "type": "Feature", "properties": { "id": "lidar-tree:284208:4155920", "name": null, "kind": "tree", "species": null, "source": "lidar2025", "tree_height": 11.3, "crown_radius": 5.2, "height_source": "lidar2025" }, "geometry": { "type": "Point", "coordinates": [ 284208.5, 4155919.5 ] } },
{ "type": "Feature", "properties": { "id": "lidar-tree:284214:4155924", "name": null, "kind": "tree", "species": null, "source": "lidar2025", "tree_height": 11.2, "crown_radius": 5.0, "height_source": "lidar2025" }, "geometry": { "type": "Point", "coordinates": [ 284214.5, 4155924.5 ] } },
{ "type": "Feature", "properties": { "id": "lidar-tree:284124:4155848", "name": null, "kind": "tree", "species": null, "source": "lidar2025", "tree_height": 17.0, "crown_radius": 6.0, "height_source": "lidar2025" }, "geometry": { "type": "Point", "coordinates": [ 284124.5, 4155847.5 ] } },
{ "type": "Feature", "properties": { "id": "lidar-tree:284098:4155852", "name": null, "kind": "tree", "species": null, "source": "lidar2025", "tree_height": 4.2, "crown_radius": 4.1, "height_source": "lidar2025" }, "geometry": { "type": "Point", "coordinates": [ 284097.5, 4155851.5 ] } },
{ "type": "Feature", "properties": { "id": "lidar-tree:284106:4155866", "name": null, "kind": "tree", "species": null, "source": "lidar2025", "tree_height": 12.2, "crown_radius": 6.0, "height_source": "lidar2025" }, "geometry": { "type": "Point", "coordinates": [ 284105.5, 4155866.5 ] } },
{ "type": "Feature", "properties": { "id": "lidar-tree:284116:4155872", "name": null, "kind": "tree", "species": null, "source": "lidar2025", "tree_height": 12.0, "crown_radius": 6.0, "height_source": "lidar2025" }, "geometry": { "type": "Point", "coordinates": [ 284115.5, 4155872.5 ] } },
{ "type": "Feature", "properties": { "id": "lidar-tree:284118:4155880", "name": null, "kind": "tree", "species": null, "source": "lidar2025", "tree_height": 11.7, "crown_radius": 6.0, "height_source": "lidar2025" }, "geometry": { "type": "Point", "coordinates": [ 284118.5, 4155880.5 ] } },
{ "type": "Feature", "properties": { "id": "lidar-tree:284166:4155886", "name": null, "kind": "tree", "species": null, "source": "lidar2025", "tree_height": 9.9, "crown_radius": 4.2, "height_source": "lidar2025" }, "geometry": { "type": "Point", "coordinates": [ 284165.5, 4155885.5 ] } },
{ "type": "Feature", "properties": { "id": "lidar-tree:284082:4155890", "name": null, "kind": "tree", "species": null, "source": "lidar2025", "tree_height": 12.1, "crown_radius": 6.0, "height_source": "lidar2025" }, "geometry": { "type": "Point", "coordinates": [ 284081.5, 4155889.5 ] } },
{ "type": "Feature", "properties": { "id": "lidar-tree:284172:4155890", "name": null, "kind": "tree", "species": null, "source": "lidar2025", "tree_height": 10.2, "crown_radius": 4.8, "height_source": "lidar2025" }, "geometry": { "type": "Point", "coordinates": [ 284171.5, 4155890.5 ] } },
{ "type": "Feature", "properties": { "id": "rva-tree:30344", "name": "Nyssa sylvatica", "kind": "tree", "species": "Nyssa sylvatica", "source": "city_inventory", "tree_height": 6.4, "crown_radius": 3.3, "height_source": "lidar2025" }, "geometry": { "type": "Point", "coordinates": [ 284111.92, 4155893.84 ] } },
{ "type": "Feature", "properties": { "id": "lidar-tree:284088:4155896", "name": null, "kind": "tree", "species": null, "source": "lidar2025", "tree_height": 11.9, "crown_radius": 6.0, "height_source": "lidar2025" }, "geometry": { "type": "Point", "coordinates": [ 284087.5, 4155896.5 ] } },
{ "type": "Feature", "properties": { "id": "lidar-tree:284016:4155862", "name": null, "kind": "tree", "species": null, "source": "lidar2025", "tree_height": 7.2, "crown_radius": 3.0, "height_source": "lidar2025" }, "geometry": { "type": "Point", "coordinates": [ 284015.5, 4155862.5 ] } },
{ "type": "Feature", "properties": { "id": "lidar-tree:284050:4155864", "name": null, "kind": "tree", "species": null, "source": "lidar2025", "tree_height": 4.2, "crown_radius": 1.5, "height_source": "lidar2025" }, "geometry": { "type": "Point", "coordinates": [ 284050.5, 4155864.5 ] } },
{ "type": "Feature", "properties": { "id": "lidar-tree:284070:4155868", "name": null, "kind": "tree", "species": null, "source": "lidar2025", "tree_height": 12.7, "crown_radius": 5.9, "height_source": "lidar2025" }, "geometry": { "type": "Point", "coordinates": [ 284070.5, 4155867.5 ] } },
{ "type": "Feature", "properties": { "id": "lidar-tree:284026:4155874", "name": null, "kind": "tree", "species": null, "source": "lidar2025", "tree_height": 6.3, "crown_radius": 3.2, "height_source": "lidar2025" }, "geometry": { "type": "Point", "coordinates": [ 284025.5, 4155873.5 ] } },
{ "type": "Feature", "properties": { "id": "lidar-tree:284064:4155876", "name": null, "kind": "tree", "species": null, "source": "lidar2025", "tree_height": 5.0, "crown_radius": 4.0, "height_source": "lidar2025" }, "geometry": { "type": "Point", "coordinates": [ 284064.5, 4155875.5 ] } },
{ "type": "Feature", "properties": { "id": "rva-tree:30330", "name": "Acer campestre", "kind": "tree", "species": "Acer campestre", "source": "city_inventory", "tree_height": 7.9, "crown_radius": 3.5, "height_source": "lidar2025" }, "geometry": { "type": "Point", "coordinates": [ 284046.61, 4155887.08 ] } },
{ "type": "Feature", "properties": { "id": "rva-tree:30331", "name": "Acer campestre", "kind": "tree", "species": "Acer campestre", "source": "city_inventory", "tree_height": 7.9, "crown_radius": 3.5, "height_source": "lidar2025" }, "geometry": { "type": "Point", "coordinates": [ 284044.98, 4155889.42 ] } },
{ "type": "Feature", "properties": { "id": "rva-tree:30332", "name": "Acer campestre", "kind": "tree", "species": "Acer campestre", "source": "city_inventory", "tree_height": 8.2, "crown_radius": 3.0, "height_source": "lidar2025" }, "geometry": { "type": "Point", "coordinates": [ 284029.09, 4155909.03 ] } },
{ "type": "Feature", "properties": { "id": "rva-tree:30333", "name": "Acer campestre", "kind": "tree", "species": "Acer campestre", "source": "city_inventory", "tree_height": 7.6, "crown_radius": 4.6, "height_source": "lidar2025" }, "geometry": { "type": "Point", "coordinates": [ 284018.26, 4155924.97 ] } },
{ "type": "Feature", "properties": { "id": "rva-tree:30334", "name": "Acer campestre", "kind": "tree", "species": "Acer campestre", "source": "city_inventory", "tree_height": 7.6, "crown_radius": 4.6, "height_source": "lidar2025" }, "geometry": { "type": "Point", "coordinates": [ 284022.14, 4155928.14 ] } },
{ "type": "Feature", "properties": { "id": "rva-tree:30335", "name": "Acer campestre", "kind": "tree", "species": "Acer campestre", "source": "city_inventory", "tree_height": 8.9, "crown_radius": 5.6, "height_source": "lidar2025" }, "geometry": { "type": "Point", "coordinates": [ 284027.06, 4155931.39 ] } },
{ "type": "Feature", "properties": { "id": "rva-tree:30336", "name": "Acer campestre", "kind": "tree", "species": "Acer campestre", "source": "city_inventory", "tree_height": 11.2, "crown_radius": 4.4, "height_source": "lidar2025" }, "geometry": { "type": "Point", "coordinates": [ 284032.12, 4155935.31 ] } },
{ "type": "Feature", "properties": { "id": "rva-tree:37264", "name": "Acer tataricum ginnala", "kind": "tree", "species": "Acer tataricum ginnala", "source": "city_inventory", "tree_height": 10.3, "crown_radius": 4.7, "height_source": "lidar2025" }, "geometry": { "type": "Point", "coordinates": [ 284011.19, 4155936.85 ] } },
{ "type": "Feature", "properties": { "id": "rva-tree:37263", "name": "Acer tataricum ginnala", "kind": "tree", "species": "Acer tataricum ginnala", "source": "city_inventory", "tree_height": 10.3, "crown_radius": 4.7, "height_source": "lidar2025" }, "geometry": { "type": "Point", "coordinates": [ 284014.51, 4155939.02 ] } },
{ "type": "Feature", "properties": { "id": "lidar-tree:284178:4155896", "name": null, "kind": "tree", "species": null, "source": "lidar2025", "tree_height": 10.7, "crown_radius": 4.9, "height_source": "lidar2025" }, "geometry": { "type": "Point", "coordinates": [ 284177.5, 4155896.5 ] } },
{ "type": "Feature", "properties": { "id": "rva-tree:37303", "name": "Liquidambar styraciflua", "kind": "tree", "species": "Liquidambar styraciflua", "source": "city_inventory", "tree_height": 9.2, "crown_radius": 3.2, "height_source": "lidar2025" }, "geometry": { "type": "Point", "coordinates": [ 284143.63, 4155902.82 ] } },
{ "type": "Feature", "properties": { "id": "lidar-tree:284090:4155910", "name": null, "kind": "tree", "species": null, "source": "lidar2025", "tree_height": 12.5, "crown_radius": 6.0, "height_source": "lidar2025" }, "geometry": { "type": "Point", "coordinates": [ 284090.5, 4155909.5 ] } },
{ "type": "Feature", "properties": { "id": "rva-tree:66055", "name": "Quercus spp.", "kind": "tree", "species": "Quercus spp.", "source": "city_inventory", "tree_height": 8.0, "crown_radius": 2.5, "height_source": "estimated" }, "geometry": { "type": "Point", "coordinates": [ 284093.42, 4155918.64 ] } },
{ "type": "Feature", "properties": { "id": "rva-tree:37306", "name": "Liquidambar styraciflua", "kind": "tree", "species": "Liquidambar styraciflua", "source": "city_inventory", "tree_height": 9.2, "crown_radius": 3.2, "height_source": "lidar2025" }, "geometry": { "type": "Point", "coordinates": [ 284127.37, 4155924.66 ] } },
{ "type": "Feature", "properties": { "id": "rva-tree:30342", "name": "Quercus lyrata", "kind": "tree", "species": "Quercus lyrata", "source": "city_inventory", "tree_height": 9.5, "crown_radius": 3.5, "height_source": "lidar2025" }, "geometry": { "type": "Point", "coordinates": [ 284080.03, 4155936.5 ] } },
{ "type": "Feature", "properties": { "id": "rva-tree:37308", "name": "Quercus acutissima", "kind": "tree", "species": "Quercus acutissima", "source": "city_inventory", "tree_height": 9.7, "crown_radius": 3.7, "height_source": "lidar2025" }, "geometry": { "type": "Point", "coordinates": [ 284117.1, 4155938.49 ] } },
{ "type": "Feature", "properties": { "id": "lidar-tree:284168:4155944", "name": null, "kind": "tree", "species": null, "source": "lidar2025", "tree_height": 13.2, "crown_radius": 6.0, "height_source": "lidar2025" }, "geometry": { "type": "Point", "coordinates": [ 284167.5, 4155944.5 ] } },
{ "type": "Feature", "properties": { "id": "lidar-tree:284160:4155950", "name": null, "kind": "tree", "species": null, "source": "lidar2025", "tree_height": 11.4, "crown_radius": 5.1, "height_source": "lidar2025" }, "geometry": { "type": "Point", "coordinates": [ 284160.5, 4155949.5 ] } },
{ "type": "Feature", "properties": { "id": "rva-tree:37309", "name": "Liquidambar styraciflua", "kind": "tree", "species": "Liquidambar styraciflua", "source": "city_inventory", "tree_height": 7.6, "crown_radius": 3.0, "height_source": "lidar2025" }, "geometry": { "type": "Point", "coordinates": [ 284104.45, 4155954.98 ] } },
{ "type": "Feature", "properties": { "id": "rva-tree:37242", "name": "Acer tataricum ginnala", "kind": "tree", "species": "Acer tataricum ginnala", "source": "city_inventory", "tree_height": 10.3, "crown_radius": 4.7, "height_source": "lidar2025" }, "geometry": { "type": "Point", "coordinates": [ 284003.71, 4155940.41 ] } },
{ "type": "Feature", "properties": { "id": "rva-tree:30337", "name": "Acer campestre", "kind": "tree", "species": "Acer campestre", "source": "city_inventory", "tree_height": 7.8, "crown_radius": 4.1, "height_source": "lidar2025" }, "geometry": { "type": "Point", "coordinates": [ 284039.89, 4155941.53 ] } },
{ "type": "Feature", "properties": { "id": "rva-tree:30338", "name": "Acer campestre", "kind": "tree", "species": "Acer campestre", "source": "city_inventory", "tree_height": 7.8, "crown_radius": 4.1, "height_source": "lidar2025" }, "geometry": { "type": "Point", "coordinates": [ 284044.36, 4155944.91 ] } },
{ "type": "Feature", "properties": { "id": "rva-tree:37262", "name": "Acer tataricum ginnala", "kind": "tree", "species": "Acer tataricum ginnala", "source": "city_inventory", "tree_height": 5.2, "crown_radius": 3.5, "height_source": "lidar2025" }, "geometry": { "type": "Point", "coordinates": [ 284025.07, 4155947.43 ] } },
{ "type": "Feature", "properties": { "id": "rva-tree:30341", "name": "Liquidambar styraciflua", "kind": "tree", "species": "Liquidambar styraciflua", "source": "city_inventory", "tree_height": 6.8, "crown_radius": 2.6, "height_source": "lidar2025" }, "geometry": { "type": "Point", "coordinates": [ 284071.43, 4155947.79 ] } },
{ "type": "Feature", "properties": { "id": "rva-tree:30339", "name": "Acer campestre", "kind": "tree", "species": "Acer campestre", "source": "city_inventory", "tree_height": 9.3, "crown_radius": 4.5, "height_source": "lidar2025" }, "geometry": { "type": "Point", "coordinates": [ 284048.59, 4155948.07 ] } },
{ "type": "Feature", "properties": { "id": "rva-tree:30340", "name": "Acer campestre", "kind": "tree", "species": "Acer campestre", "source": "city_inventory", "tree_height": 9.3, "crown_radius": 4.5, "height_source": "lidar2025" }, "geometry": { "type": "Point", "coordinates": [ 284053.51, 4155951.31 ] } },
{ "type": "Feature", "properties": { "id": "lidar-tree:284204:4155938", "name": null, "kind": "tree", "species": null, "source": "lidar2025", "tree_height": 10.6, "crown_radius": 5.4, "height_source": "lidar2025" }, "geometry": { "type": "Point", "coordinates": [ 284203.5, 4155938.5 ] } },
{ "type": "Feature", "properties": { "id": "lidar-tree:284196:4155940", "name": null, "kind": "tree", "species": null, "source": "lidar2025", "tree_height": 10.4, "crown_radius": 5.0, "height_source": "lidar2025" }, "geometry": { "type": "Point", "coordinates": [ 284196.5, 4155940.5 ] } },
{ "type": "Feature", "properties": { "id": "rva-tree:37302", "name": "Nyssa sylvatica", "kind": "tree", "species": "Nyssa sylvatica", "source": "city_inventory", "tree_height": 7.2, "crown_radius": 3.4, "height_source": "lidar2025" }, "geometry": { "type": "Point", "coordinates": [ 284228.35, 4155949.81 ] } },
{ "type": "Feature", "properties": { "id": "osm:node/4261567909", "name": "Camden's Dogtown Market", "kind": "shop", "species": null, "source": null, "tree_height": null, "crown_radius": null, "height_source": null }, "geometry": { "type": "Point", "coordinates": [ 284223.95, 4155959.99 ] } },
{ "type": "Feature", "properties": { "id": "rva-tree:37261", "name": "Ulmus x", "kind": "tree", "species": "Ulmus x", "source": "city_inventory", "tree_height": 9.0, "crown_radius": 5.1, "height_source": "lidar2025" }, "geometry": { "type": "Point", "coordinates": [ 284041.39, 4155987.01 ] } },
{ "type": "Feature", "properties": { "id": "lidar-tree:284034:4155992", "name": null, "kind": "tree", "species": null, "source": "lidar2025", "tree_height": 6.0, "crown_radius": 4.5, "height_source": "lidar2025" }, "geometry": { "type": "Point", "coordinates": [ 284034.5, 4155992.5 ] } }
]
}
