{
"type": "FeatureCollection",
"name": "roads",
"crs": { "type": "name", "properties": { "name": "urn:ogc:def:crs:EPSG::32618" } },
"xy_coordinate_resolution": 0.01,
"features": [
{ "type": "Feature", "properties": { "id": "osm:way/6038761", "name": "Porter Street", "highway": "residential", "lanes": null, "width": 7.0, "oneway": false, "surface": "paved", "footway": null, "sidewalk_left": true, "sidewalk_right": true, "generated_sidewalk": true, "bus_lanes": null, "bus_lane_side": null, "bus_only": false, "sidewalk": false, "bridge": false, "ramp": false, "tunnel": false, "layer": 0, "deck": null }, "geometry": { "type": "LineString", "coordinates": [ [ 284010.23, 4155776.76 ], [ 284006.15, 4155773.68 ], [ 284000.0, 4155769.03 ] ] } },
{ "type": "Feature", "properties": { "id": "osm:way/1418843051", "name": null, "highway": "footway", "lanes": null, "width": 2.0, "oneway": false, "surface": null, "footway": "sidewalk", "sidewalk_left": false, "sidewalk_right": false, "generated_sidewalk": false, "bus_lanes": null, "bus_lane_side": null, "bus_only": false, "sidewalk": false, "bridge": false, "ramp": false, "tunnel": false, "layer": 0, "deck": null }, "geometry": { "type": "LineString", "coordinates": [ [ 284000.0, 4155756.54 ], [ 284012.5, 4155765.85 ] ] } },
{ "type": "Feature", "properties": { "id": "osm:way/1453476518", "name": "West 10th Street", "highway": "residential", "lanes": null, "width": 7.0, "oneway": true, "surface": null, "footway": null, "sidewalk_left": null, "sidewalk_right": false, "generated_sidewalk": true, "bus_lanes": null, "bus_lane_side": null, "bus_only": false, "sidewalk": false, "bridge": false, "ramp": false, "tunnel": false, "layer": 0, "deck": null }, "geometry": { "type": "LineString", "coordinates": [ [ 284000.0, 4155790.27 ], [ 284005.58, 4155782.9 ], [ 284010.23, 4155776.76 ], [ 284030.19, 4155750.0 ] ] } },
{ "type": "Feature", "properties": { "id": "osm:way/1418843037", "name": null, "highway": "footway", "lanes": null, "width": 2.0, "oneway": false, "surface": null, "footway": "sidewalk", "sidewalk_left": false, "sidewalk_right": false, "generated_sidewalk": false, "bus_lanes": null, "bus_lane_side": null, "bus_only": false, "sidewalk": false, "bridge": false, "ramp": false, "tunnel": false, "layer": 0, "deck": null }, "geometry": { "type": "LineString", "coordinates": [ [ 284000.0, 4155778.93 ], [ 284001.2, 4155779.85 ], [ 284002.01, 4155780.45 ] ] } },
{ "type": "Feature", "properties": { "id": "osm:way/1418843032", "name": null, "highway": "footway", "lanes": null, "width": 2.0, "oneway": false, "surface": null, "footway": "sidewalk", "sidewalk_left": false, "sidewalk_right": false, "generated_sidewalk": false, "bus_lanes": null, "bus_lane_side": null, "bus_only": false, "sidewalk": false, "bridge": false, "ramp": false, "tunnel": false, "layer": 0, "deck": null }, "geometry": { "type": "LineString", "coordinates": [ [ 284015.84, 4155760.82 ], [ 284012.5, 4155765.85 ], [ 284010.83, 4155768.21 ] ] } },
{ "type": "Feature", "properties": { "id": "osm:way/1418843031", "name": null, "highway": "footway", "lanes": null, "width": 2.0, "oneway": false, "surface": "paved", "footway": "crossing", "sidewalk_left": false, "sidewalk_right": false, "generated_sidewalk": false, "bus_lanes": null, "bus_lane_side": null, "bus_only": false, "sidewalk": false, "bridge": false, "ramp": false, "tunnel": false, "layer": 0, "deck": null }, "geometry": { "type": "LineString", "coordinates": [ [ 284010.83, 4155768.21 ], [ 284006.15, 4155773.68 ], [ 284002.47, 4155777.97 ] ] } },
{ "type": "Feature", "properties": { "id": "osm:way/1418843030", "name": null, "highway": "footway", "lanes": null, "width": 2.0, "oneway": false, "surface": null, "footway": "sidewalk", "sidewalk_left": false, "sidewalk_right": false, "generated_sidewalk": false, "bus_lanes": null, "bus_lane_side": null, "bus_only": false, "sidewalk": false, "bridge": false, "ramp": false, "tunnel": false, "layer": 0, "deck": null }, "geometry": { "type": "LineString", "coordinates": [ [ 284002.47, 4155777.97 ], [ 284001.2, 4155779.85 ] ] } },
{ "type": "Feature", "properties": { "id": "osm:way/1418843036", "name": null, "highway": "footway", "lanes": null, "width": 2.0, "oneway": false, "surface": null, "footway": "crossing", "sidewalk_left": false, "sidewalk_right": false, "generated_sidewalk": false, "bus_lanes": null, "bus_lane_side": null, "bus_only": false, "sidewalk": false, "bridge": false, "ramp": false, "tunnel": false, "layer": 0, "deck": null }, "geometry": { "type": "LineString", "coordinates": [ [ 284002.01, 4155780.45 ], [ 284005.58, 4155782.9 ], [ 284007.74, 4155784.37 ] ] } },
{ "type": "Feature", "properties": { "id": "osm:way/1418843006", "name": null, "highway": "footway", "lanes": null, "width": 2.0, "oneway": false, "surface": null, "footway": "sidewalk", "sidewalk_left": false, "sidewalk_right": false, "generated_sidewalk": false, "bus_lanes": null, "bus_lane_side": null, "bus_only": false, "sidewalk": false, "bridge": false, "ramp": false, "tunnel": false, "layer": 0, "deck": null }, "geometry": { "type": "LineString", "coordinates": [ [ 284000.0, 4155781.52 ], [ 284001.2, 4155779.85 ] ] } },
{ "type": "Feature", "properties": { "id": "osm:way/766954332", "name": null, "highway": "service", "lanes": null, "width": 4.5, "oneway": false, "surface": null, "footway": null, "sidewalk_left": false, "sidewalk_right": false, "generated_sidewalk": false, "bus_lanes": null, "bus_lane_side": null, "bus_only": false, "sidewalk": false, "bridge": false, "ramp": false, "tunnel": false, "layer": 0, "deck": null }, "geometry": { "type": "LineString", "coordinates": [ [ 284000.0, 4155843.49 ], [ 284034.64, 4155869.91 ], [ 284045.39, 4155878.1 ] ] } },
{ "type": "Feature", "properties": { "id": "osm:way/1418844987", "name": null, "highway": "footway", "lanes": null, "width": 2.0, "oneway": false, "surface": null, "footway": "sidewalk", "sidewalk_left": false, "sidewalk_right": false, "generated_sidewalk": false, "bus_lanes": null, "bus_lane_side": null, "bus_only": false, "sidewalk": false, "bridge": false, "ramp": false, "tunnel": false, "layer": 0, "deck": null }, "geometry": { "type": "LineString", "coordinates": [ [ 284024.1, 4155750.0 ], [ 284015.84, 4155760.82 ] ] } },
{ "type": "Feature", "properties": { "id": "osm:way/1453476516", "name": "Bainbridge Street", "highway": "tertiary", "lanes": null, "width": 8.0, "oneway": false, "surface": null, "footway": null, "sidewalk_left": null, "sidewalk_right": null, "generated_sidewalk": true, "bus_lanes": null, "bus_lane_side": null, "bus_only": false, "sidewalk": false, "bridge": false, "ramp": false, "tunnel": false, "layer": 0, "deck": null }, "geometry": { "type": "LineString", "coordinates": [ [ 284177.62, 4155750.0 ], [ 284200.3, 4155767.23 ], [ 284204.07, 4155769.93 ], [ 284210.18, 4155774.71 ] ] } },
{ "type": "Feature", "properties": { "id": "osm:way/1453476537", "name": "Porter Street", "highway": "residential", "lanes": null, "width": 7.0, "oneway": false, "surface": "paved", "footway": null, "sidewalk_left": null, "sidewalk_right": true, "generated_sidewalk": true, "bus_lanes": null, "bus_lane_side": null, "bus_only": false, "sidewalk": false, "bridge": false, "ramp": false, "tunnel": false, "layer": 0, "deck": null }, "geometry": { "type": "LineString", "coordinates": [ [ 284081.32, 4155830.48 ], [ 284010.23, 4155776.76 ] ] } },
{ "type": "Feature", "properties": { "id": "osm:way/1418843035", "name": null, "highway": "footway", "lanes": null, "width": 2.0, "oneway": false, "surface": null, "footway": "sidewalk", "sidewalk_left": false, "sidewalk_right": false, "generated_sidewalk": false, "bus_lanes": null, "bus_lane_side": null, "bus_only": false, "sidewalk": false, "bridge": false, "ramp": false, "tunnel": false, "layer": 0, "deck": null }, "geometry": { "type": "LineString", "coordinates": [ [ 284007.74, 4155784.37 ], [ 284040.7, 4155809.13 ], [ 284074.31, 4155834.46 ], [ 284075.21, 4155835.02 ] ] } },
{ "type": "Feature", "properties": { "id": "osm:way/1349721586", "name": null, "highway": "footway", "lanes": null, "width": 2.0, "oneway": false, "surface": "concrete", "footway": "sidewalk", "sidewalk_left": false, "sidewalk_right": false, "generated_sidewalk": false, "bus_lanes": null, "bus_lane_side": null, "bus_only": false, "sidewalk": false, "bridge": false, "ramp": false, "tunnel": false, "layer": 0, "deck": null }, "geometry": { "type": "LineString", "coordinates": [ [ 284135.37, 4155859.86 ], [ 284166.42, 4155818.77 ], [ 284198.33, 4155777.58 ] ] } },
{ "type": "Feature", "properties": { "id": "osm:way/1418843034", "name": null, "highway": "footway", "lanes": null, "width": 2.0, "oneway": false, "surface": null, "footway": "crossing", "sidewalk_left": false, "sidewalk_right": false, "generated_sidewalk": false, "bus_lanes": null, "bus_lane_side": null, "bus_only": false, "sidewalk": false, "bridge": false, "ramp": false, "tunnel": false, "layer": 0, "deck": null }, "geometry": { "type": "LineString", "coordinates": [ [ 284075.21, 4155835.02 ], [ 284076.96, 4155836.26 ], [ 284080.25, 4155838.6 ] ] } },
{ "type": "Feature", "properties": { "id": "osm:way/1418843033", "name": null, "highway": "footway", "lanes": null, "width": 2.0, "oneway": false, "surface": null, "footway": "sidewalk", "sidewalk_left": false, "sidewalk_right": false, "generated_sidewalk": false, "bus_lanes": null, "bus_lane_side": null, "bus_only": false, "sidewalk": false, "bridge": false, "ramp": false, "tunnel": false, "layer": 0, "deck": null }, "geometry": { "type": "LineString", "coordinates": [ [ 284080.25, 4155838.6 ], [ 284080.58, 4155839.81 ] ] } },
{ "type": "Feature", "properties": { "id": "osm:way/267610382", "name": "West Commerce Road", "highway": "primary", "lanes": 2.0, "width": 11.0, "oneway": true, "surface": "asphalt", "footway": null, "sidewalk_left": null, "sidewalk_right": null, "generated_sidewalk": true, "bus_lanes": null, "bus_lane_side": null, "bus_only": false, "sidewalk": false, "bridge": false, "ramp": false, "tunnel": false, "layer": 0, "deck": null }, "geometry": { "type": "LineString", "coordinates": [ [ 284139.79, 4155871.63 ], [ 284162.9, 4155840.73 ], [ 284180.54, 4155814.28 ] ] } },
{ "type": "Feature", "properties": { "id": "osm:way/1453476536", "name": "Porter Street", "highway": "residential", "lanes": null, "width": 7.0, "oneway": false, "surface": "paved", "footway": null, "sidewalk_left": null, "sidewalk_right": null, "generated_sidewalk": true, "bus_lanes": null, "bus_lane_side": null, "bus_only": false, "sidewalk": false, "bridge": false, "ramp": false, "tunnel": false, "layer": 0, "deck": null }, "geometry": { "type": "LineString", "coordinates": [ [ 284149.94, 4155879.07 ], [ 284139.79, 4155871.63 ], [ 284131.11, 4155865.51 ], [ 284109.54, 4155850.34 ], [ 284081.32, 4155830.48 ] ] } },
{ "type": "Feature", "properties": { "id": "osm:way/1356112628", "name": "West Commerce Road", "highway": "primary", "lanes": 3.0, "width": 11.0, "oneway": true, "surface": "asphalt", "footway": null, "sidewalk_left": null, "sidewalk_right": null, "generated_sidewalk": true, "bus_lanes": null, "bus_lane_side": null, "bus_only": false, "sidewalk": false, "bridge": false, "ramp": false, "tunnel": false, "layer": 0, "deck": null }, "geometry": { "type": "LineString", "coordinates": [ [ 284177.13, 4155842.89 ], [ 284149.94, 4155879.07 ] ] } },
{ "type": "Feature", "properties": { "id": "osm:way/1349721584", "name": null, "highway": "footway", "lanes": null, "width": 2.0, "oneway": false, "surface": "concrete", "footway": "sidewalk", "sidewalk_left": false, "sidewalk_right": false, "generated_sidewalk": false, "bus_lanes": null, "bus_lane_side": null, "bus_only": false, "sidewalk": false, "bridge": false, "ramp": false, "tunnel": false, "layer": 0, "deck": null }, "geometry": { "type": "LineString", "coordinates": [ [ 284208.2, 4155763.28 ], [ 284209.78, 4155760.79 ], [ 284217.38, 4155750.0 ] ] } },
{ "type": "Feature", "properties": { "id": "osm:way/1453990455", "name": "West Commerce Road", "highway": "primary", "lanes": 3.0, "width": 11.0, "oneway": true, "surface": "asphalt", "footway": null, "sidewalk_left": null, "sidewalk_right": null, "generated_sidewalk": true, "bus_lanes": null, "bus_lane_side": null, "bus_only": false, "sidewalk": false, "bridge": false, "ramp": false, "tunnel": false, "layer": 0, "deck": null }, "geometry": { "type": "LineString", "coordinates": [ [ 284210.18, 4155774.71 ], [ 284229.02, 4155750.0 ] ] } },
{ "type": "Feature", "properties": { "id": "osm:way/693428916", "name": "West Commerce Road", "highway": "primary", "lanes": 2.0, "width": 11.0, "oneway": true, "surface": "asphalt", "footway": null, "sidewalk_left": null, "sidewalk_right": null, "generated_sidewalk": true, "bus_lanes": null, "bus_lane_side": null, "bus_only": false, "sidewalk": false, "bridge": false, "ramp": false, "tunnel": false, "layer": 0, "deck": null }, "geometry": { "type": "LineString", "coordinates": [ [ 284247.89, 4155750.0 ], [ 284230.98, 4155771.25 ], [ 284221.9, 4155783.32 ] ] } },
{ "type": "Feature", "properties": { "id": "osm:way/1349721585", "name": null, "highway": "footway", "lanes": null, "width": 2.0, "oneway": false, "surface": "concrete", "footway": "crossing", "sidewalk_left": false, "sidewalk_right": false, "generated_sidewalk": false, "bus_lanes": null, "bus_lane_side": null, "bus_only": false, "sidewalk": false, "bridge": false, "ramp": false, "tunnel": false, "layer": 0, "deck": null }, "geometry": { "type": "LineString", "coordinates": [ [ 284198.33, 4155777.58 ], [ 284204.07, 4155769.93 ], [ 284208.2, 4155763.28 ] ] } },
{ "type": "Feature", "properties": { "id": "osm:way/305208630", "name": "Bainbridge Street", "highway": "tertiary", "lanes": null, "width": 8.0, "oneway": false, "surface": null, "footway": null, "sidewalk_left": null, "sidewalk_right": null, "generated_sidewalk": true, "bus_lanes": null, "bus_lane_side": null, "bus_only": false, "sidewalk": false, "bridge": false, "ramp": false, "tunnel": false, "layer": 0, "deck": null }, "geometry": { "type": "LineString", "coordinates": [ [ 284221.9, 4155783.32 ], [ 284210.18, 4155774.71 ] ] } },
{ "type": "Feature", "properties": { "id": "osm:way/305084570", "name": "West Commerce Road", "highway": "primary", "lanes": 4.0, "width": 13.2, "oneway": true, "surface": "asphalt", "footway": null, "sidewalk_left": null, "sidewalk_right": false, "generated_sidewalk": true, "bus_lanes": null, "bus_lane_side": null, "bus_only": false, "sidewalk": false, "bridge": false, "ramp": false, "tunnel": false, "layer": 0, "deck": null }, "geometry": { "type": "LineString", "coordinates": [ [ 284180.54, 4155814.28 ], [ 284201.14, 4155787.19 ], [ 284210.18, 4155774.71 ] ] } },
{ "type": "Feature", "properties": { "id": "osm:way/1356112626", "name": "West Commerce Road", "highway": "primary", "lanes": 2.0, "width": 11.0, "oneway": true, "surface": "asphalt", "footway": null, "sidewalk_left": null, "sidewalk_right": null, "generated_sidewalk": true, "bus_lanes": null, "bus_lane_side": null, "bus_only": false, "sidewalk": false, "bridge": false, "ramp": false, "tunnel": false, "layer": 0, "deck": null }, "geometry": { "type": "LineString", "coordinates": [ [ 284221.9, 4155783.32 ], [ 284177.13, 4155842.89 ] ] } },
{ "type": "Feature", "properties": { "id": "osm:way/1238516211", "name": null, "highway": "service", "lanes": null, "width": 4.5, "oneway": false, "surface": null, "footway": null, "sidewalk_left": false, "sidewalk_right": false, "generated_sidewalk": false, "bus_lanes": null, "bus_lane_side": null, "bus_only": false, "sidewalk": false, "bridge": false, "ramp": false, "tunnel": false, "layer": 0, "deck": null }, "geometry": { "type": "LineString", "coordinates": [ [ 284240.2, 4155846.38 ], [ 284225.72, 4155834.57 ] ] } },
{ "type": "Feature", "properties": { "id": "osm:way/1238516212", "name": null, "highway": "service", "lanes": null, "width": 4.5, "oneway": false, "surface": null, "footway": null, "sidewalk_left": false, "sidewalk_right": false, "generated_sidewalk": false, "bus_lanes": null, "bus_lane_side": null, "bus_only": false, "sidewalk": false, "bridge": false, "ramp": false, "tunnel": false, "layer": 0, "deck": null }, "geometry": { "type": "LineString", "coordinates": [ [ 284230.54, 4155858.89 ], [ 284215.27, 4155847.6 ] ] } },
{ "type": "Feature", "properties": { "id": "osm:way/749340917", "name": null, "highway": "service", "lanes": null, "width": 4.5, "oneway": true, "surface": null, "footway": null, "sidewalk_left": false, "sidewalk_right": false, "generated_sidewalk": false, "bus_lanes": null, "bus_lane_side": null, "bus_only": false, "sidewalk": false, "bridge": false, "ramp": false, "tunnel": false, "layer": 0, "deck": null }, "geometry": { "type": "LineString", "coordinates": [ [ 284250.0, 4155833.69 ], [ 284240.2, 4155846.38 ], [ 284230.54, 4155858.89 ], [ 284222.24, 4155869.63 ], [ 284214.26, 4155879.97 ], [ 284214.24, 4155881.21 ], [ 284214.22, 4155882.48 ], [ 284215.82, 4155884.27 ], [ 284241.12, 4155902.09 ], [ 284241.87, 4155902.61 ], [ 284246.81, 4155906.09 ] ] } },
{ "type": "Feature", "properties": { "id": "osm:way/1349721587", "name": null, "highway": "footway", "lanes": null, "width": 2.0, "oneway": false, "surface": "concrete", "footway": "crossing", "sidewalk_left": false, "sidewalk_right": false, "generated_sidewalk": false, "bus_lanes": null, "bus_lane_side": null, "bus_only": false, "sidewalk": false, "bridge": false, "ramp": false, "tunnel": false, "layer": 0, "deck": null }, "geometry": { "type": "LineString", "coordinates": [ [ 284125.46, 4155872.98 ], [ 284131.11, 4155865.51 ], [ 284135.37, 4155859.86 ] ] } },
{ "type": "Feature", "properties": { "id": "osm:way/132598302", "name": "West 9th Street", "highway": "residential", "lanes": null, "width": 7.0, "oneway": true, "surface": null, "footway": null, "sidewalk_left": false, "sidewalk_right": null, "generated_sidewalk": true, "bus_lanes": null, "bus_lane_side": null, "bus_only": false, "sidewalk": false, "bridge": false, "ramp": false, "tunnel": false, "layer": 0, "deck": null }, "geometry": { "type": "LineString", "coordinates": [ [ 284142.33, 4155750.0 ], [ 284081.32, 4155830.48 ], [ 284076.96, 4155836.26 ], [ 284045.39, 4155878.1 ], [ 284010.56, 4155924.28 ], [ 284004.36, 4155932.49 ], [ 284000.0, 4155938.28 ] ] } },
{ "type": "Feature", "properties": { "id": "osm:way/749745312", "name": null, "highway": "service", "lanes": null, "width": 4.5, "oneway": false, "surface": null, "footway": null, "sidewalk_left": false, "sidewalk_right": false, "generated_sidewalk": false, "bus_lanes": null, "bus_lane_side": null, "bus_only": false, "sidewalk": false, "bridge": false, "ramp": false, "tunnel": false, "layer": 0, "deck": null }, "geometry": { "type": "MultiLineString", "coordinates": [ [ [ 284109.54, 4155850.34 ], [ 284104.27, 4155858.06 ], [ 284097.59, 4155867.05 ] ], [ [ 284097.59, 4155867.05 ], [ 284083.08, 4155886.63 ], [ 284081.97, 4155889.8 ], [ 284081.92, 4155892.23 ], [ 284088.37, 4155897.12 ], [ 284090.64, 4155897.11 ], [ 284093.3, 4155896.04 ], [ 284105.7, 4155877.72 ], [ 284106.48, 4155875.33 ], [ 284106.18, 4155873.19 ], [ 284097.59, 4155867.05 ] ], [ [ 284097.59, 4155867.05 ], [ 284084.26, 4155856.82 ] ] ] } },
{ "type": "Feature", "properties": { "id": "osm:way/1356650608", "name": "West Commerce Road", "highway": "primary", "lanes": 3.0, "width": 11.0, "oneway": true, "surface": "asphalt", "footway": null, "sidewalk_left": null, "sidewalk_right": null, "generated_sidewalk": true, "bus_lanes": null, "bus_lane_side": null, "bus_only": false, "sidewalk": false, "bridge": false, "ramp": false, "tunnel": false, "layer": 0, "deck": null }, "geometry": { "type": "LineString", "coordinates": [ [ 284110.27, 4155910.49 ], [ 284139.79, 4155871.63 ] ] } },
{ "type": "Feature", "properties": { "id": "osm:way/1356610138", "name": "West Commerce Road", "highway": "primary", "lanes": 2.0, "width": 11.0, "oneway": true, "surface": "asphalt", "footway": null, "sidewalk_left": null, "sidewalk_right": null, "generated_sidewalk": true, "bus_lanes": null, "bus_lane_side": null, "bus_only": false, "sidewalk": false, "bridge": false, "ramp": false, "tunnel": false, "layer": 0, "deck": null }, "geometry": { "type": "LineString", "coordinates": [ [ 284149.94, 4155879.07 ], [ 284102.59, 4155941.94 ] ] } },
{ "type": "Feature", "properties": { "id": "osm:way/1356650607", "name": "West Commerce Road", "highway": "primary", "lanes": 2.0, "width": 11.0, "oneway": true, "surface": "asphalt", "footway": null, "sidewalk_left": null, "sidewalk_right": null, "generated_sidewalk": true, "bus_lanes": null, "bus_lane_side": null, "bus_only": false, "sidewalk": false, "bridge": false, "ramp": false, "tunnel": false, "layer": 0, "deck": null }, "geometry": { "type": "LineString", "coordinates": [ [ 284066.68, 4155968.52 ], [ 284110.27, 4155910.49 ] ] } },
{ "type": "Feature", "properties": { "id": "osm:way/1356610139", "name": "West Commerce Road", "highway": "primary", "lanes": 3.0, "width": 11.0, "oneway": true, "surface": "asphalt", "footway": null, "sidewalk_left": null, "sidewalk_right": null, "generated_sidewalk": true, "bus_lanes": null, "bus_lane_side": null, "bus_only": false, "sidewalk": false, "bridge": false, "ramp": false, "tunnel": false, "layer": 0, "deck": null }, "geometry": { "type": "LineString", "coordinates": [ [ 284102.59, 4155941.94 ], [ 284076.81, 4155976.18 ] ] } },
{ "type": "Feature", "properties": { "id": "osm:way/1356611517", "name": "West Commerce Road", "highway": "primary", "lanes": 3.0, "width": 11.0, "oneway": true, "surface": "asphalt", "footway": null, "sidewalk_left": null, "sidewalk_right": null, "generated_sidewalk": true, "bus_lanes": null, "bus_lane_side": null, "bus_only": false, "sidewalk": false, "bridge": false, "ramp": false, "tunnel": false, "layer": 0, "deck": null }, "geometry": { "type": "LineString", "coordinates": [ [ 284042.89, 4156000.0 ], [ 284066.68, 4155968.52 ] ] } },
{ "type": "Feature", "properties": { "id": "osm:way/1356611516", "name": "Perry Street", "highway": "residential", "lanes": null, "width": 7.0, "oneway": false, "surface": "asphalt", "footway": null, "sidewalk_left": null, "sidewalk_right": null, "generated_sidewalk": true, "bus_lanes": null, "bus_lane_side": null, "bus_only": false, "sidewalk": false, "bridge": false, "ramp": false, "tunnel": false, "layer": 0, "deck": null }, "geometry": { "type": "LineString", "coordinates": [ [ 284066.68, 4155968.52 ], [ 284076.81, 4155976.18 ], [ 284107.79, 4156000.0 ] ] } },
{ "type": "Feature", "properties": { "id": "osm:way/1238516213", "name": null, "highway": "service", "lanes": null, "width": 4.5, "oneway": false, "surface": null, "footway": null, "sidewalk_left": false, "sidewalk_right": false, "generated_sidewalk": false, "bus_lanes": null, "bus_lane_side": null, "bus_only": false, "sidewalk": false, "bridge": false, "ramp": false, "tunnel": false, "layer": 0, "deck": null }, "geometry": { "type": "LineString", "coordinates": [ [ 284222.24, 4155869.63 ], [ 284206.53, 4155859.48 ] ] } },
{ "type": "Feature", "properties": { "id": "osm:way/1238516214", "name": null, "highway": "service", "lanes": null, "width": 4.5, "oneway": false, "surface": null, "footway": null, "sidewalk_left": false, "sidewalk_right": false, "generated_sidewalk": false, "bus_lanes": null, "bus_lane_side": null, "bus_only": false, "sidewalk": false, "bridge": false, "ramp": false, "tunnel": false, "layer": 0, "deck": null }, "geometry": { "type": "LineString", "coordinates": [ [ 284196.48, 4155870.65 ], [ 284214.24, 4155881.21 ] ] } },
{ "type": "Feature", "properties": { "id": "osm:way/1436589386", "name": null, "highway": "footway", "lanes": null, "width": 2.0, "oneway": false, "surface": null, "footway": "sidewalk", "sidewalk_left": false, "sidewalk_right": false, "generated_sidewalk": false, "bus_lanes": null, "bus_lane_side": null, "bus_only": false, "sidewalk": false, "bridge": false, "ramp": false, "tunnel": false, "layer": 0, "deck": null }, "geometry": { "type": "LineString", "coordinates": [ [ 284250.0, 4155891.98 ], [ 284241.87, 4155902.61 ], [ 284239.35, 4155905.91 ], [ 284223.79, 4155927.12 ] ] } },
{ "type": "Feature", "properties": { "id": "osm:way/1436589384", "name": null, "highway": "footway", "lanes": null, "width": 2.0, "oneway": false, "surface": null, "footway": "sidewalk", "sidewalk_left": false, "sidewalk_right": false, "generated_sidewalk": false, "bus_lanes": null, "bus_lane_side": null, "bus_only": false, "sidewalk": false, "bridge": false, "ramp": false, "tunnel": false, "layer": 0, "deck": null }, "geometry": { "type": "LineString", "coordinates": [ [ 284250.0, 4155911.14 ], [ 284233.46, 4155933.4 ] ] } },
{ "type": "Feature", "properties": { "id": "osm:way/304421798", "name": "Bainbridge Street", "highway": "tertiary", "lanes": null, "width": 8.0, "oneway": false, "surface": null, "footway": null, "sidewalk_left": false, "sidewalk_right": null, "generated_sidewalk": true, "bus_lanes": null, "bus_lane_side": null, "bus_only": false, "sidewalk": false, "bridge": false, "ramp": false, "tunnel": false, "layer": 0, "deck": null }, "geometry": { "type": "LineString", "coordinates": [ [ 284250.0, 4155804.24 ], [ 284232.32, 4155791.07 ], [ 284221.9, 4155783.32 ] ] } },
{ "type": "Feature", "properties": { "id": "osm:way/1356112627", "name": "Porter Street", "highway": "residential", "lanes": null, "width": 7.0, "oneway": false, "surface": "paved", "footway": null, "sidewalk_left": null, "sidewalk_right": null, "generated_sidewalk": true, "bus_lanes": null, "bus_lane_side": null, "bus_only": false, "sidewalk": false, "bridge": false, "ramp": false, "tunnel": false, "layer": 0, "deck": null }, "geometry": { "type": "LineString", "coordinates": [ [ 284250.0, 4155955.81 ], [ 284224.24, 4155935.8 ], [ 284198.66, 4155916.26 ], [ 284149.94, 4155879.07 ] ] } },
{ "type": "Feature", "properties": { "id": "osm:way/887735275", "name": null, "highway": "service", "lanes": null, "width": 4.5, "oneway": false, "surface": null, "footway": null, "sidewalk_left": false, "sidewalk_right": false, "generated_sidewalk": false, "bus_lanes": null, "bus_lane_side": null, "bus_only": false, "sidewalk": false, "bridge": false, "ramp": false, "tunnel": false, "layer": 0, "deck": null }, "geometry": { "type": "LineString", "coordinates": [ [ 284198.66, 4155916.26 ], [ 284192.81, 4155923.64 ], [ 284190.71, 4155926.3 ], [ 284181.46, 4155939.63 ] ] } },
{ "type": "Feature", "properties": { "id": "osm:way/6040492", "name": "West 7th Street", "highway": "tertiary", "lanes": null, "width": 8.0, "oneway": false, "surface": "asphalt", "footway": null, "sidewalk_left": false, "sidewalk_right": false, "generated_sidewalk": true, "bus_lanes": null, "bus_lane_side": null, "bus_only": false, "sidewalk": false, "bridge": false, "ramp": false, "tunnel": false, "layer": 0, "deck": null }, "geometry": { "type": "LineString", "coordinates": [ [ 284250.0, 4155901.89 ], [ 284246.81, 4155906.09 ], [ 284224.24, 4155935.8 ], [ 284175.78, 4156000.0 ] ] } },
{ "type": "Feature", "properties": { "id": "osm:way/921384160", "name": "West 6th Street", "highway": "residential", "lanes": null, "width": 7.0, "oneway": false, "surface": null, "footway": null, "sidewalk_left": null, "sidewalk_right": null, "generated_sidewalk": true, "bus_lanes": null, "bus_lane_side": null, "bus_only": false, "sidewalk": false, "bridge": false, "ramp": false, "tunnel": false, "layer": 0, "deck": null }, "geometry": { "type": "LineString", "coordinates": [ [ 284250.0, 4155996.68 ], [ 284247.47, 4156000.0 ] ] } },
{ "type": "Feature", "properties": { "id": "osm:way/1131852652", "name": null, "highway": "service", "lanes": null, "width": 4.5, "oneway": false, "surface": null, "footway": null, "sidewalk_left": false, "sidewalk_right": false, "generated_sidewalk": false, "bus_lanes": null, "bus_lane_side": null, "bus_only": false, "sidewalk": false, "bridge": false, "ramp": false, "tunnel": false, "layer": 0, "deck": null }, "geometry": { "type": "LineString", "coordinates": [ [ 284000.0, 4155861.69 ], [ 284025.74, 4155881.42 ], [ 284034.64, 4155869.91 ] ] } },
{ "type": "Feature", "properties": { "id": "osm:way/1418843082", "name": null, "highway": "footway", "lanes": null, "width": 2.0, "oneway": false, "surface": null, "footway": "sidewalk", "sidewalk_left": false, "sidewalk_right": false, "generated_sidewalk": false, "bus_lanes": null, "bus_lane_side": null, "bus_only": false, "sidewalk": false, "bridge": false, "ramp": false, "tunnel": false, "layer": 0, "deck": null }, "geometry": { "type": "LineString", "coordinates": [ [ 284000.0, 4155928.65 ], [ 284002.4, 4155930.48 ], [ 284002.91, 4155930.88 ] ] } },
{ "type": "Feature", "properties": { "id": "osm:way/1453476538", "name": "Perry Street", "highway": "residential", "lanes": null, "width": 7.0, "oneway": false, "surface": "asphalt", "footway": null, "sidewalk_left": true, "sidewalk_right": null, "generated_sidewalk": true, "bus_lanes": null, "bus_lane_side": null, "bus_only": false, "sidewalk": false, "bridge": false, "ramp": false, "tunnel": false, "layer": 0, "deck": null }, "geometry": { "type": "LineString", "coordinates": [ [ 284000.0, 4155916.39 ], [ 284010.56, 4155924.28 ], [ 284046.92, 4155952.94 ], [ 284058.19, 4155961.83 ], [ 284066.68, 4155968.52 ] ] } },
{ "type": "Feature", "properties": { "id": "osm:way/1418843081", "name": null, "highway": "footway", "lanes": null, "width": 2.0, "oneway": false, "surface": null, "footway": "crossing", "sidewalk_left": false, "sidewalk_right": false, "generated_sidewalk": false, "bus_lanes": null, "bus_lane_side": null, "bus_only": false, "sidewalk": false, "bridge": false, "ramp": false, "tunnel": false, "layer": 0, "deck": null }, "geometry": { "type": "LineString", "coordinates": [ [ 284002.91, 4155930.88 ], [ 284004.36, 4155932.49 ], [ 284006.7, 4155935.11 ] ] } },
{ "type": "Feature", "properties": { "id": "osm:way/1418843080", "name": null, "highway": "footway", "lanes": null, "width": 2.0, "oneway": false, "surface": null, "footway": "sidewalk", "sidewalk_left": false, "sidewalk_right": false, "generated_sidewalk": false, "bus_lanes": null, "bus_lane_side": null, "bus_only": false, "sidewalk": false, "bridge": false, "ramp": false, "tunnel": false, "layer": 0, "deck": null }, "geometry": { "type": "LineString", "coordinates": [ [ 284006.7, 4155935.11 ], [ 284007.84, 4155936.27 ], [ 284041.51, 4155961.33 ], [ 284052.43, 4155969.45 ] ] } },
{ "type": "Feature", "properties": { "id": "osm:way/1418843078", "name": null, "highway": "footway", "lanes": null, "width": 2.0, "oneway": false, "surface": null, "footway": "sidewalk", "sidewalk_left": false, "sidewalk_right": false, "generated_sidewalk": false, "bus_lanes": null, "bus_lane_side": null, "bus_only": false, "sidewalk": false, "bridge": false, "ramp": false, "tunnel": false, "layer": 0, "deck": null }, "geometry": { "type": "LineString", "coordinates": [ [ 284000.0, 4155933.59 ], [ 284002.4, 4155930.48 ] ] } },
{ "type": "Feature", "properties": { "id": "osm:way/749747697", "name": null, "highway": "service", "lanes": null, "width": 4.5, "oneway": false, "surface": null, "footway": null, "sidewalk_left": false, "sidewalk_right": false, "generated_sidewalk": false, "bus_lanes": null, "bus_lane_side": null, "bus_only": false, "sidewalk": false, "bridge": false, "ramp": false, "tunnel": false, "layer": 0, "deck": null }, "geometry": { "type": "LineString", "coordinates": [ [ 284013.79, 4156000.0 ], [ 284029.15, 4155979.5 ], [ 284040.03, 4155963.62 ], [ 284041.51, 4155961.33 ], [ 284046.92, 4155952.94 ] ] } },
{ "type": "Feature", "properties": { "id": "osm:way/1027441754", "name": null, "highway": "footway", "lanes": null, "width": 2.0, "oneway": false, "surface": "concrete", "footway": "sidewalk", "sidewalk_left": false, "sidewalk_right": false, "generated_sidewalk": false, "bus_lanes": null, "bus_lane_side": null, "bus_only": false, "sidewalk": false, "bridge": false, "ramp": false, "tunnel": false, "layer": 0, "deck": null }, "geometry": { "type": "LineString", "coordinates": [ [ 284029.56, 4156000.0 ], [ 284051.98, 4155970.04 ], [ 284052.43, 4155969.45 ], [ 284058.19, 4155961.83 ], [ 284080.15, 4155932.79 ], [ 284104.12, 4155900.42 ], [ 284125.46, 4155872.98 ] ] } },
{ "type": "Feature", "properties": { "id": "osm:way/305084569", "name": "West Commerce Road", "highway": "primary", "lanes": 2.0, "width": 11.0, "oneway": true, "surface": "asphalt", "footway": null, "sidewalk_left": null, "sidewalk_right": null, "generated_sidewalk": true, "bus_lanes": null, "bus_lane_side": null, "bus_only": false, "sidewalk": false, "bridge": false, "ramp": false, "tunnel": false, "layer": 0, "deck": null }, "geometry": { "type": "LineString", "coordinates": [ [ 284076.81, 4155976.18 ], [ 284058.77, 4156000.0 ] ] } }
]
}
