{
"type": "FeatureCollection",
"name": "crossings",
"crs": { "type": "name", "properties": { "name": "urn:ogc:def:crs:EPSG::32618" } },
"xy_coordinate_resolution": 0.01,
"features": [
{ "type": "Feature", "properties": { "id": "osm:node/10962553368", "crossing": "unmarked", "crossing_markings": "no", "road_id": "osm:way/6035941", "road_width": 7.0, "road_dx": -0.998965, "road_dy": 0.045475, "road_x": 281902.65, "road_y": 4156856.49, "foot_dx": 0.07717, "foot_dy": -0.997018, "crossing_island": false }, "geometry": { "type": "Point", "coordinates": [ 281902.65, 4156856.49 ] } },
{ "type": "Feature", "properties": { "id": "osm:node/10962553413", "crossing": "unmarked", "crossing_markings": "no", "road_id": "osm:way/6038990", "road_width": 7.0, "road_dx": -0.245304, "road_dy": -0.969446, "road_x": 281841.03, "road_y": 4156974.82, "foot_dx": 0.999519, "foot_dy": -0.031028, "crossing_island": false }, "geometry": { "type": "Point", "coordinates": [ 281841.03, 4156974.82 ] } },
{ "type": "Feature", "properties": { "id": "osm:node/10962553364", "crossing": "unmarked", "crossing_markings": "no", "road_id": "osm:way/693393483", "road_width": 7.0, "road_dx": -0.995467, "road_dy": 0.095107, "road_x": 281928.61, "road_y": 4156977.38, "foot_dx": -0.22246, "foot_dy": -0.974942, "crossing_island": false }, "geometry": { "type": "Point", "coordinates": [ 281928.61, 4156977.38 ] } },
{ "type": "Feature", "properties": { "id": "osm:node/10962553341", "crossing": "unmarked", "crossing_markings": "no", "road_id": "osm:way/693393483", "road_width": 7.0, "road_dx": -0.998508, "road_dy": 0.054607, "road_x": 281849.6, "road_y": 4156981.66, "foot_dx": -0.204388, "foot_dy": -0.97889, "crossing_island": false }, "geometry": { "type": "Point", "coordinates": [ 281849.6, 4156981.66 ] } },
{ "type": "Feature", "properties": { "id": "osm:node/10962553333", "crossing": "unmarked", "crossing_markings": "no", "road_id": "osm:way/693393483", "road_width": 7.0, "road_dx": -0.999613, "road_dy": 0.027815, "road_x": 281835.72, "road_y": 4156982.23, "foot_dx": -0.223519, "foot_dy": -0.9747, "crossing_island": false }, "geometry": { "type": "Point", "coordinates": [ 281835.72, 4156982.23 ] } },
{ "type": "Feature", "properties": { "id": "osm:node/10962553262", "crossing": "unmarked", "crossing_markings": "no", "road_id": "osm:way/6038990", "road_width": 7.0, "road_dx": -0.207971, "road_dy": -0.978135, "road_x": 281844.21, "road_y": 4156988.46, "foot_dx": 0.999695, "foot_dy": -0.024682, "crossing_island": false }, "geometry": { "type": "Point", "coordinates": [ 281844.21, 4156988.46 ] } },
{ "type": "Feature", "properties": { "id": "osm:node/10962553372", "crossing": "unmarked", "crossing_markings": "no", "road_id": "osm:way/6038990", "road_width": 7.0, "road_dx": -0.219245, "road_dy": -0.97567, "road_x": 281813.72, "road_y": 4156852.67, "foot_dx": 0.999529, "foot_dy": -0.030678, "crossing_island": false }, "geometry": { "type": "Point", "coordinates": [ 281813.72, 4156852.67 ] } },
{ "type": "Feature", "properties": { "id": "osm:node/10962553337", "crossing": "unmarked", "crossing_markings": "no", "road_id": "osm:way/6035941", "road_width": 7.0, "road_dx": -0.998815, "road_dy": 0.048666, "road_x": 281822.12, "road_y": 4156859.61, "foot_dx": -0.299823, "foot_dy": -0.953995, "crossing_island": false }, "geometry": { "type": "Point", "coordinates": [ 281822.12, 4156859.61 ] } },
{ "type": "Feature", "properties": { "id": "osm:node/10962553335", "crossing": "unmarked", "crossing_markings": "no", "road_id": "osm:way/6035941", "road_width": 7.0, "road_dx": -0.998602, "road_dy": 0.052858, "road_x": 281807.85, "road_y": 4156860.33, "foot_dx": -0.220266, "foot_dy": -0.97544, "crossing_island": false }, "geometry": { "type": "Point", "coordinates": [ 281807.85, 4156860.33 ] } },
{ "type": "Feature", "properties": { "id": "osm:node/10962553369", "crossing": "unmarked", "crossing_markings": "no", "road_id": "osm:way/6038990", "road_width": 7.0, "road_dx": -0.217917, "road_dy": -0.975967, "road_x": 281816.7, "road_y": 4156866.03, "foot_dx": 0.999031, "foot_dy": -0.04402, "crossing_island": false }, "geometry": { "type": "Point", "coordinates": [ 281816.7, 4156866.03 ] } },
{ "type": "Feature", "properties": { "id": "osm:node/10962553355", "crossing": "unmarked", "crossing_markings": "no", "road_id": "osm:way/693393483", "road_width": 7.0, "road_dx": -0.997177, "road_dy": 0.075089, "road_x": 281756.18, "road_y": 4156985.13, "foot_dx": 0.195248, "foot_dy": 0.980754, "crossing_island": false }, "geometry": { "type": "Point", "coordinates": [ 281756.18, 4156985.13 ] } },
{ "type": "Feature", "properties": { "id": "osm:node/10962553356", "crossing": "unmarked", "crossing_markings": "no", "road_id": "osm:way/693393482", "road_width": 7.0, "road_dx": -0.215884, "road_dy": -0.976419, "road_x": 281750.94, "road_y": 4156993.55, "foot_dx": 0.99935, "foot_dy": -0.03604, "crossing_island": false }, "geometry": { "type": "Point", "coordinates": [ 281750.94, 4156993.55 ] } }
]
}
