{
"type": "FeatureCollection",
"name": "pois",
"crs": { "type": "name", "properties": { "name": "urn:ogc:def:crs:EPSG::32618" } },
"xy_coordinate_resolution": 0.01,
"features": [
{ "type": "Feature", "properties": { "id": "lidar-tree:284928:4156334", "name": null, "kind": "tree", "species": null, "source": "lidar2025", "tree_height": 13.6, "crown_radius": 5.4, "height_source": "lidar2025" }, "geometry": { "type": "Point", "coordinates": [ 284928.5, 4156334.5 ] } },
{ "type": "Feature", "properties": { "id": "lidar-tree:284920:4156340", "name": null, "kind": "tree", "species": null, "source": "lidar2025", "tree_height": 9.1, "crown_radius": 4.1, "height_source": "lidar2025" }, "geometry": { "type": "Point", "coordinates": [ 284919.5, 4156339.5 ] } },
{ "type": "Feature", "properties": { "id": "lidar-tree:284880:4156342", "name": null, "kind": "tree", "species": null, "source": "lidar2025", "tree_height": 18.7, "crown_radius": 6.0, "height_source": "lidar2025" }, "geometry": { "type": "Point", "coordinates": [ 284880.5, 4156342.5 ] } },
{ "type": "Feature", "properties": { "id": "lidar-tree:284898:4156346", "name": null, "kind": "tree", "species": null, "source": "lidar2025", "tree_height": 14.9, "crown_radius": 5.4, "height_source": "lidar2025" }, "geometry": { "type": "Point", "coordinates": [ 284898.5, 4156345.5 ] } },
{ "type": "Feature", "properties": { "id": "lidar-tree:284864:4156352", "name": null, "kind": "tree", "species": null, "source": "lidar2025", "tree_height": 20.0, "crown_radius": 6.0, "height_source": "lidar2025" }, "geometry": { "type": "Point", "coordinates": [ 284864.5, 4156351.5 ] } },
{ "type": "Feature", "properties": { "id": "lidar-tree:284880:4156354", "name": null, "kind": "tree", "species": null, "source": "lidar2025", "tree_height": 14.7, "crown_radius": 6.0, "height_source": "lidar2025" }, "geometry": { "type": "Point", "coordinates": [ 284880.5, 4156353.5 ] } },
{ "type": "Feature", "properties": { "id": "lidar-tree:284856:4156354", "name": null, "kind": "tree", "species": null, "source": "lidar2025", "tree_height": 21.6, "crown_radius": 6.0, "height_source": "lidar2025" }, "geometry": { "type": "Point", "coordinates": [ 284856.5, 4156354.5 ] } },
{ "type": "Feature", "properties": { "id": "lidar-tree:284842:4156356", "name": null, "kind": "tree", "species": null, "source": "lidar2025", "tree_height": 17.5, "crown_radius": 6.0, "height_source": "lidar2025" }, "geometry": { "type": "Point", "coordinates": [ 284841.5, 4156356.5 ] } },
{ "type": "Feature", "properties": { "id": "lidar-tree:284756:4156396", "name": null, "kind": "tree", "species": null, "source": "lidar2025", "tree_height": 18.3, "crown_radius": 6.0, "height_source": "lidar2025" }, "geometry": { "type": "Point", "coordinates": [ 284755.5, 4156395.5 ] } },
{ "type": "Feature", "properties": { "id": "lidar-tree:284766:4156404", "name": null, "kind": "tree", "species": null, "source": "lidar2025", "tree_height": 13.2, "crown_radius": 6.0, "height_source": "lidar2025" }, "geometry": { "type": "Point", "coordinates": [ 284766.5, 4156403.5 ] } },
{ "type": "Feature", "properties": { "id": "lidar-tree:284758:4156406", "name": null, "kind": "tree", "species": null, "source": "lidar2025", "tree_height": 11.6, "crown_radius": 6.0, "height_source": "lidar2025" }, "geometry": { "type": "Point", "coordinates": [ 284758.5, 4156406.5 ] } },
{ "type": "Feature", "properties": { "id": "lidar-tree:284970:4156320", "name": null, "kind": "tree", "species": null, "source": "lidar2025", "tree_height": 18.3, "crown_radius": 6.0, "height_source": "lidar2025" }, "geometry": { "type": "Point", "coordinates": [ 284970.5, 4156319.5 ] } },
{ "type": "Feature", "properties": { "id": "lidar-tree:284996:4156320", "name": null, "kind": "tree", "species": null, "source": "lidar2025", "tree_height": 4.4, "crown_radius": 4.3, "height_source": "lidar2025" }, "geometry": { "type": "Point", "coordinates": [ 284996.5, 4156319.5 ] } },
{ "type": "Feature", "properties": { "id": "lidar-tree:284954:4156320", "name": null, "kind": "tree", "species": null, "source": "lidar2025", "tree_height": 17.6, "crown_radius": 5.9, "height_source": "lidar2025" }, "geometry": { "type": "Point", "coordinates": [ 284953.5, 4156320.5 ] } },
{ "type": "Feature", "properties": { "id": "lidar-tree:284942:4156326", "name": null, "kind": "tree", "species": null, "source": "lidar2025", "tree_height": 19.2, "crown_radius": 6.0, "height_source": "lidar2025" }, "geometry": { "type": "Point", "coordinates": [ 284942.5, 4156326.5 ] } },
{ "type": "Feature", "properties": { "id": "lidar-tree:284954:4156332", "name": null, "kind": "tree", "species": null, "source": "lidar2025", "tree_height": 16.8, "crown_radius": 6.0, "height_source": "lidar2025" }, "geometry": { "type": "Point", "coordinates": [ 284954.5, 4156331.5 ] } },
{ "type": "Feature", "properties": { "id": "lidar-tree:284998:4156332", "name": null, "kind": "tree", "species": null, "source": "lidar2025", "tree_height": 5.2, "crown_radius": 2.1, "height_source": "lidar2025" }, "geometry": { "type": "Point", "coordinates": [ 284997.5, 4156332.5 ] } },
{ "type": "Feature", "properties": { "id": "lidar-tree:284968:4156344", "name": null, "kind": "tree", "species": null, "source": "lidar2025", "tree_height": 11.1, "crown_radius": 2.8, "height_source": "lidar2025" }, "geometry": { "type": "Point", "coordinates": [ 284967.5, 4156344.5 ] } },
{ "type": "Feature", "properties": { "id": "lidar-tree:284986:4156360", "name": null, "kind": "tree", "species": null, "source": "lidar2025", "tree_height": 6.5, "crown_radius": 4.4, "height_source": "lidar2025" }, "geometry": { "type": "Point", "coordinates": [ 284986.5, 4156359.5 ] } },
{ "type": "Feature", "properties": { "id": "lidar-tree:284932:4156366", "name": null, "kind": "tree", "species": null, "source": "lidar2025", "tree_height": 5.2, "crown_radius": 2.8, "height_source": "lidar2025" }, "geometry": { "type": "Point", "coordinates": [ 284932.5, 4156365.5 ] } },
{ "type": "Feature", "properties": { "id": "lidar-tree:284964:4156368", "name": null, "kind": "tree", "species": null, "source": "lidar2025", "tree_height": 4.7, "crown_radius": 3.6, "height_source": "lidar2025" }, "geometry": { "type": "Point", "coordinates": [ 284963.5, 4156367.5 ] } },
{ "type": "Feature", "properties": { "id": "lidar-tree:284982:4156374", "name": null, "kind": "tree", "species": null, "source": "lidar2025", "tree_height": 6.4, "crown_radius": 3.3, "height_source": "lidar2025" }, "geometry": { "type": "Point", "coordinates": [ 284981.5, 4156373.5 ] } },
{ "type": "Feature", "properties": { "id": "lidar-tree:284942:4156376", "name": null, "kind": "tree", "species": null, "source": "lidar2025", "tree_height": 6.9, "crown_radius": 2.6, "height_source": "lidar2025" }, "geometry": { "type": "Point", "coordinates": [ 284942.5, 4156375.5 ] } },
{ "type": "Feature", "properties": { "id": "lidar-tree:284958:4156380", "name": null, "kind": "tree", "species": null, "source": "lidar2025", "tree_height": 5.4, "crown_radius": 4.9, "height_source": "lidar2025" }, "geometry": { "type": "Point", "coordinates": [ 284957.5, 4156380.5 ] } },
{ "type": "Feature", "properties": { "id": "lidar-tree:284960:4156392", "name": null, "kind": "tree", "species": null, "source": "lidar2025", "tree_height": 5.3, "crown_radius": 4.7, "height_source": "lidar2025" }, "geometry": { "type": "Point", "coordinates": [ 284959.5, 4156391.5 ] } },
{ "type": "Feature", "properties": { "id": "lidar-tree:284938:4156394", "name": null, "kind": "tree", "species": null, "source": "lidar2025", "tree_height": 14.8, "crown_radius": 5.0, "height_source": "lidar2025" }, "geometry": { "type": "Point", "coordinates": [ 284938.5, 4156393.5 ] } },
{ "type": "Feature", "properties": { "id": "lidar-tree:284948:4156404", "name": null, "kind": "tree", "species": null, "source": "lidar2025", "tree_height": 5.3, "crown_radius": 4.8, "height_source": "lidar2025" }, "geometry": { "type": "Point", "coordinates": [ 284947.5, 4156404.5 ] } },
{ "type": "Feature", "properties": { "id": "lidar-tree:284970:4156412", "name": null, "kind": "tree", "species": null, "source": "lidar2025", "tree_height": 6.2, "crown_radius": 3.5, "height_source": "lidar2025" }, "geometry": { "type": "Point", "coordinates": [ 284970.5, 4156411.5 ] } },
{ "type": "Feature", "properties": { "id": "lidar-tree:284894:4156358", "name": null, "kind": "tree", "species": null, "source": "lidar2025", "tree_height": 15.7, "crown_radius": 6.0, "height_source": "lidar2025" }, "geometry": { "type": "Point", "coordinates": [ 284894.5, 4156358.5 ] } },
{ "type": "Feature", "properties": { "id": "lidar-tree:284928:4156360", "name": null, "kind": "tree", "species": null, "source": "lidar2025", "tree_height": 5.1, "crown_radius": 2.3, "height_source": "lidar2025" }, "geometry": { "type": "Point", "coordinates": [ 284928.5, 4156359.5 ] } },
{ "type": "Feature", "properties": { "id": "lidar-tree:284884:4156364", "name": null, "kind": "tree", "species": null, "source": "lidar2025", "tree_height": 15.9, "crown_radius": 6.0, "height_source": "lidar2025" }, "geometry": { "type": "Point", "coordinates": [ 284884.5, 4156364.5 ] } },
{ "type": "Feature", "properties": { "id": "lidar-tree:284908:4156366", "name": null, "kind": "tree", "species": null, "source": "lidar2025", "tree_height": 16.6, "crown_radius": 5.9, "height_source": "lidar2025" }, "geometry": { "type": "Point", "coordinates": [ 284907.5, 4156366.5 ] } },
{ "type": "Feature", "properties": { "id": "lidar-tree:284892:4156370", "name": null, "kind": "tree", "species": null, "source": "lidar2025", "tree_height": 19.4, "crown_radius": 6.0, "height_source": "lidar2025" }, "geometry": { "type": "Point", "coordinates": [ 284891.5, 4156369.5 ] } },
{ "type": "Feature", "properties": { "id": "lidar-tree:284906:4156378", "name": null, "kind": "tree", "species": null, "source": "lidar2025", "tree_height": 18.1, "crown_radius": 6.0, "height_source": "lidar2025" }, "geometry": { "type": "Point", "coordinates": [ 284906.5, 4156377.5 ] } },
{ "type": "Feature", "properties": { "id": "lidar-tree:284898:4156380", "name": null, "kind": "tree", "species": null, "source": "lidar2025", "tree_height": 17.9, "crown_radius": 6.0, "height_source": "lidar2025" }, "geometry": { "type": "Point", "coordinates": [ 284898.5, 4156380.5 ] } },
{ "type": "Feature", "properties": { "id": "osm:node/13071603548", "name": "14th + Reynolds Aluminum Co", "kind": "bus_stop", "species": null, "source": null, "tree_height": null, "crown_radius": null, "height_source": null }, "geometry": { "type": "Point", "coordinates": [ 284917.97, 4156393.34 ] } },
{ "type": "Feature", "properties": { "id": "lidar-tree:284896:4156442", "name": null, "kind": "tree", "species": null, "source": "lidar2025", "tree_height": 12.4, "crown_radius": 4.6, "height_source": "lidar2025" }, "geometry": { "type": "Point", "coordinates": [ 284895.5, 4156441.5 ] } },
{ "type": "Feature", "properties": { "id": "lidar-tree:284860:4156442", "name": null, "kind": "tree", "species": null, "source": "lidar2025", "tree_height": 13.7, "crown_radius": 6.0, "height_source": "lidar2025" }, "geometry": { "type": "Point", "coordinates": [ 284859.5, 4156441.5 ] } },
{ "type": "Feature", "properties": { "id": "lidar-tree:284852:4156366", "name": null, "kind": "tree", "species": null, "source": "lidar2025", "tree_height": 16.3, "crown_radius": 6.0, "height_source": "lidar2025" }, "geometry": { "type": "Point", "coordinates": [ 284851.5, 4156366.5 ] } },
{ "type": "Feature", "properties": { "id": "lidar-tree:284774:4156368", "name": null, "kind": "tree", "species": null, "source": "lidar2025", "tree_height": 31.3, "crown_radius": 6.0, "height_source": "lidar2025" }, "geometry": { "type": "Point", "coordinates": [ 284773.5, 4156368.5 ] } },
{ "type": "Feature", "properties": { "id": "lidar-tree:284816:4156370", "name": null, "kind": "tree", "species": null, "source": "lidar2025", "tree_height": 14.6, "crown_radius": 6.0, "height_source": "lidar2025" }, "geometry": { "type": "Point", "coordinates": [ 284816.5, 4156370.5 ] } },
{ "type": "Feature", "properties": { "id": "lidar-tree:284792:4156374", "name": null, "kind": "tree", "species": null, "source": "lidar2025", "tree_height": 12.5, "crown_radius": 6.0, "height_source": "lidar2025" }, "geometry": { "type": "Point", "coordinates": [ 284792.5, 4156374.5 ] } },
{ "type": "Feature", "properties": { "id": "lidar-tree:284774:4156392", "name": null, "kind": "tree", "species": null, "source": "lidar2025", "tree_height": 15.5, "crown_radius": 6.0, "height_source": "lidar2025" }, "geometry": { "type": "Point", "coordinates": [ 284774.5, 4156392.5 ] } },
{ "type": "Feature", "properties": { "id": "lidar-tree:284800:4156438", "name": null, "kind": "tree", "species": null, "source": "lidar2025", "tree_height": 15.3, "crown_radius": 6.0, "height_source": "lidar2025" }, "geometry": { "type": "Point", "coordinates": [ 284799.5, 4156438.5 ] } },
{ "type": "Feature", "properties": { "id": "lidar-tree:284828:4156446", "name": null, "kind": "tree", "species": null, "source": "lidar2025", "tree_height": 27.6, "crown_radius": 6.0, "height_source": "lidar2025" }, "geometry": { "type": "Point", "coordinates": [ 284828.5, 4156445.5 ] } },
{ "type": "Feature", "properties": { "id": "lidar-tree:284796:4156448", "name": null, "kind": "tree", "species": null, "source": "lidar2025", "tree_height": 19.9, "crown_radius": 6.0, "height_source": "lidar2025" }, "geometry": { "type": "Point", "coordinates": [ 284795.5, 4156447.5 ] } },
{ "type": "Feature", "properties": { "id": "lidar-tree:284776:4156448", "name": null, "kind": "tree", "species": null, "source": "lidar2025", "tree_height": 21.3, "crown_radius": 6.0, "height_source": "lidar2025" }, "geometry": { "type": "Point", "coordinates": [ 284775.5, 4156448.5 ] } },
{ "type": "Feature", "properties": { "id": "lidar-tree:284848:4156450", "name": null, "kind": "tree", "species": null, "source": "lidar2025", "tree_height": 15.6, "crown_radius": 6.0, "height_source": "lidar2025" }, "geometry": { "type": "Point", "coordinates": [ 284848.5, 4156449.5 ] } },
{ "type": "Feature", "properties": { "id": "lidar-tree:284966:4156424", "name": null, "kind": "tree", "species": null, "source": "lidar2025", "tree_height": 6.7, "crown_radius": 4.0, "height_source": "lidar2025" }, "geometry": { "type": "Point", "coordinates": [ 284965.5, 4156423.5 ] } },
{ "type": "Feature", "properties": { "id": "lidar-tree:284968:4156434", "name": null, "kind": "tree", "species": null, "source": "lidar2025", "tree_height": 6.7, "crown_radius": 4.4, "height_source": "lidar2025" }, "geometry": { "type": "Point", "coordinates": [ 284967.5, 4156434.5 ] } },
{ "type": "Feature", "properties": { "id": "lidar-tree:284954:4156434", "name": null, "kind": "tree", "species": null, "source": "lidar2025", "tree_height": 10.7, "crown_radius": 5.8, "height_source": "lidar2025" }, "geometry": { "type": "Point", "coordinates": [ 284954.5, 4156434.5 ] } },
{ "type": "Feature", "properties": { "id": "osm:node/13071603547", "name": "14th Bridge + Great Coastal", "kind": "bus_stop", "species": null, "source": null, "tree_height": null, "crown_radius": null, "height_source": null }, "geometry": { "type": "Point", "coordinates": [ 284950.06, 4156440.76 ] } },
{ "type": "Feature", "properties": { "id": "lidar-tree:284978:4156452", "name": null, "kind": "tree", "species": null, "source": "lidar2025", "tree_height": 17.6, "crown_radius": 6.0, "height_source": "lidar2025" }, "geometry": { "type": "Point", "coordinates": [ 284977.5, 4156452.5 ] } },
{ "type": "Feature", "properties": { "id": "lidar-tree:284996:4156454", "name": null, "kind": "tree", "species": null, "source": "lidar2025", "tree_height": 18.7, "crown_radius": 6.0, "height_source": "lidar2025" }, "geometry": { "type": "Point", "coordinates": [ 284995.5, 4156453.5 ] } },
{ "type": "Feature", "properties": { "id": "lidar-tree:284984:4156460", "name": null, "kind": "tree", "species": null, "source": "lidar2025", "tree_height": 22.1, "crown_radius": 6.0, "height_source": "lidar2025" }, "geometry": { "type": "Point", "coordinates": [ 284983.5, 4156459.5 ] } },
{ "type": "Feature", "properties": { "id": "lidar-tree:284870:4156452", "name": null, "kind": "tree", "species": null, "source": "lidar2025", "tree_height": 17.0, "crown_radius": 6.0, "height_source": "lidar2025" }, "geometry": { "type": "Point", "coordinates": [ 284869.5, 4156451.5 ] } },
{ "type": "Feature", "properties": { "id": "lidar-tree:284860:4156458", "name": null, "kind": "tree", "species": null, "source": "lidar2025", "tree_height": 14.7, "crown_radius": 6.0, "height_source": "lidar2025" }, "geometry": { "type": "Point", "coordinates": [ 284859.5, 4156457.5 ] } },
{ "type": "Feature", "properties": { "id": "lidar-tree:284868:4156464", "name": null, "kind": "tree", "species": null, "source": "lidar2025", "tree_height": 24.6, "crown_radius": 5.4, "height_source": "lidar2025" }, "geometry": { "type": "Point", "coordinates": [ 284868.5, 4156464.5 ] } },
{ "type": "Feature", "properties": { "id": "lidar-tree:284902:4156466", "name": null, "kind": "tree", "species": null, "source": "lidar2025", "tree_height": 8.2, "crown_radius": 4.5, "height_source": "lidar2025" }, "geometry": { "type": "Point", "coordinates": [ 284902.5, 4156465.5 ] } },
{ "type": "Feature", "properties": { "id": "lidar-tree:284808:4156450", "name": null, "kind": "tree", "species": null, "source": "lidar2025", "tree_height": 21.6, "crown_radius": 6.0, "height_source": "lidar2025" }, "geometry": { "type": "Point", "coordinates": [ 284808.5, 4156450.5 ] } },
{ "type": "Feature", "properties": { "id": "lidar-tree:284818:4156452", "name": null, "kind": "tree", "species": null, "source": "lidar2025", "tree_height": 27.6, "crown_radius": 6.0, "height_source": "lidar2025" }, "geometry": { "type": "Point", "coordinates": [ 284817.5, 4156451.5 ] } },
{ "type": "Feature", "properties": { "id": "lidar-tree:284760:4156446", "name": null, "kind": "tree", "species": null, "source": "lidar2025", "tree_height": 12.5, "crown_radius": 5.2, "height_source": "lidar2025" }, "geometry": { "type": "Point", "coordinates": [ 284759.5, 4156446.5 ] } },
{ "type": "Feature", "properties": { "id": "lidar-tree:284754:4156460", "name": null, "kind": "tree", "species": null, "source": "lidar2025", "tree_height": 16.7, "crown_radius": 6.0, "height_source": "lidar2025" }, "geometry": { "type": "Point", "coordinates": [ 284753.5, 4156459.5 ] } }
]
}
