{
"type": "FeatureCollection",
"name": "roads",
"crs": { "type": "name", "properties": { "name": "urn:ogc:def:crs:EPSG::32618" } },
"xy_coordinate_resolution": 0.01,
"features": [
{ "type": "Feature", "properties": { "id": "osm:way/207693042", "name": "North 18th Street", "highway": "primary", "lanes": 2.0, "width": 11.0, "oneway": true, "surface": "asphalt", "footway": null, "sidewalk_left": false, "sidewalk_right": false, "generated_sidewalk": true, "bus_lanes": null, "bus_lane_side": null, "bus_only": false, "sidewalk": false, "bridge": false, "ramp": false, "tunnel": false, "layer": 0, "deck": null }, "geometry": { "type": "LineString", "coordinates": [ [ 285932.57, 4157750.0 ], [ 285932.57, 4157750.22 ], [ 285930.55, 4157945.51 ] ] } },
{ "type": "Feature", "properties": { "id": "osm:way/573724525", "name": null, "highway": "service", "lanes": null, "width": 4.5, "oneway": false, "surface": null, "footway": null, "sidewalk_left": false, "sidewalk_right": false, "generated_sidewalk": false, "bus_lanes": null, "bus_lane_side": null, "bus_only": false, "sidewalk": false, "bridge": false, "ramp": false, "tunnel": false, "layer": 0, "deck": null }, "geometry": { "type": "LineString", "coordinates": [ [ 285932.57, 4157750.22 ], [ 285907.08, 4157750.29 ], [ 285904.1, 4157750.0 ] ] } },
{ "type": "Feature", "properties": { "id": "osm:way/1228365644", "name": null, "highway": "footway", "lanes": null, "width": 2.0, "oneway": false, "surface": "concrete", "footway": "sidewalk", "sidewalk_left": false, "sidewalk_right": false, "generated_sidewalk": false, "bus_lanes": null, "bus_lane_side": null, "bus_only": false, "sidewalk": false, "bridge": false, "ramp": false, "tunnel": false, "layer": 0, "deck": null }, "geometry": { "type": "LineString", "coordinates": [ [ 285940.42, 4157750.0 ], [ 285940.0, 4157790.75 ], [ 285938.65, 4157930.49 ], [ 285938.87, 4157937.63 ], [ 285941.44, 4157938.82 ], [ 286000.0, 4157939.59 ] ] } },
{ "type": "Feature", "properties": { "id": "osm:way/1175929069", "name": null, "highway": "service", "lanes": null, "width": 4.5, "oneway": false, "surface": null, "footway": null, "sidewalk_left": false, "sidewalk_right": false, "generated_sidewalk": false, "bus_lanes": null, "bus_lane_side": null, "bus_only": false, "sidewalk": false, "bridge": false, "ramp": false, "tunnel": false, "layer": 0, "deck": null }, "geometry": { "type": "LineString", "coordinates": [ [ 285858.99, 4157944.81 ], [ 285859.46, 4157903.97 ] ] } },
{ "type": "Feature", "properties": { "id": "osm:way/1453984806", "name": "Coalter Street", "highway": "residential", "lanes": null, "width": 7.0, "oneway": false, "surface": null, "footway": null, "sidewalk_left": null, "sidewalk_right": null, "generated_sidewalk": true, "bus_lanes": null, "bus_lane_side": null, "bus_only": false, "sidewalk": false, "bridge": false, "ramp": false, "tunnel": false, "layer": 0, "deck": null }, "geometry": { "type": "LineString", "coordinates": [ [ 285930.55, 4157945.51 ], [ 285858.99, 4157944.81 ], [ 285823.19, 4157944.47 ] ] } },
{ "type": "Feature", "properties": { "id": "osm:way/692873452", "name": "Coalter Street", "highway": "residential", "lanes": null, "width": 7.0, "oneway": false, "surface": null, "footway": null, "sidewalk_left": false, "sidewalk_right": null, "generated_sidewalk": true, "bus_lanes": null, "bus_lane_side": null, "bus_only": false, "sidewalk": false, "bridge": false, "ramp": false, "tunnel": false, "layer": 0, "deck": null }, "geometry": { "type": "LineString", "coordinates": [ [ 286000.0, 4157943.98 ], [ 285930.55, 4157945.51 ] ] } },
{ "type": "Feature", "properties": { "id": "osm:way/1453984805", "name": "North 18th Street", "highway": "primary", "lanes": 2.0, "width": 11.0, "oneway": true, "surface": "paved", "footway": null, "sidewalk_left": false, "sidewalk_right": false, "generated_sidewalk": true, "bus_lanes": null, "bus_lane_side": null, "bus_only": false, "sidewalk": false, "bridge": false, "ramp": false, "tunnel": false, "layer": 0, "deck": null }, "geometry": { "type": "LineString", "coordinates": [ [ 285930.55, 4157945.51 ], [ 285930.06, 4158000.0 ] ] } },
{ "type": "Feature", "properties": { "id": "osm:way/1426094231", "name": null, "highway": "footway", "lanes": null, "width": 2.0, "oneway": false, "surface": "concrete", "footway": "sidewalk", "sidewalk_left": false, "sidewalk_right": false, "generated_sidewalk": false, "bus_lanes": null, "bus_lane_side": null, "bus_only": false, "sidewalk": false, "bridge": false, "ramp": false, "tunnel": false, "layer": 0, "deck": null }, "geometry": { "type": "LineString", "coordinates": [ [ 285921.96, 4158000.0 ], [ 285922.67, 4157956.41 ], [ 285921.85, 4157953.84 ] ] } },
{ "type": "Feature", "properties": { "id": "osm:way/1426094235", "name": null, "highway": "footway", "lanes": null, "width": 2.0, "oneway": false, "surface": "concrete", "footway": "sidewalk", "sidewalk_left": false, "sidewalk_right": false, "generated_sidewalk": false, "bus_lanes": null, "bus_lane_side": null, "bus_only": false, "sidewalk": false, "bridge": false, "ramp": false, "tunnel": false, "layer": 0, "deck": null }, "geometry": { "type": "LineString", "coordinates": [ [ 285938.03, 4158000.0 ], [ 285938.49, 4157954.82 ] ] } },
{ "type": "Feature", "properties": { "id": "osm:way/827017323", "name": null, "highway": "service", "lanes": null, "width": 4.5, "oneway": false, "surface": null, "footway": null, "sidewalk_left": false, "sidewalk_right": false, "generated_sidewalk": false, "bus_lanes": null, "bus_lane_side": null, "bus_only": false, "sidewalk": false, "bridge": false, "ramp": false, "tunnel": false, "layer": 0, "deck": null }, "geometry": { "type": "LineString", "coordinates": [ [ 285776.65, 4157757.06 ], [ 285796.35, 4157756.62 ], [ 285804.09, 4157756.58 ], [ 285806.66, 4157756.48 ], [ 285824.96, 4157755.77 ] ] } },
{ "type": "Feature", "properties": { "id": "osm:way/1300825057", "name": null, "highway": "service", "lanes": null, "width": 4.5, "oneway": false, "surface": null, "footway": null, "sidewalk_left": false, "sidewalk_right": false, "generated_sidewalk": false, "bus_lanes": null, "bus_lane_side": null, "bus_only": false, "sidewalk": false, "bridge": false, "ramp": false, "tunnel": false, "layer": 0, "deck": null }, "geometry": { "type": "LineString", "coordinates": [ [ 285776.65, 4157757.06 ], [ 285776.46, 4157784.32 ], [ 285796.25, 4157784.35 ], [ 285796.35, 4157756.62 ] ] } },
{ "type": "Feature", "properties": { "id": "osm:way/908608903", "name": "Washington Street", "highway": "service", "lanes": null, "width": 4.5, "oneway": false, "surface": null, "footway": null, "sidewalk_left": false, "sidewalk_right": false, "generated_sidewalk": false, "bus_lanes": null, "bus_lane_side": null, "bus_only": false, "sidewalk": false, "bridge": false, "ramp": false, "tunnel": false, "layer": 0, "deck": null }, "geometry": { "type": "LineString", "coordinates": [ [ 285765.58, 4157796.86 ], [ 285805.97, 4157795.89 ], [ 285824.56, 4157795.41 ] ] } },
{ "type": "Feature", "properties": { "id": "osm:way/6041069", "name": null, "highway": "service", "lanes": null, "width": 4.5, "oneway": false, "surface": null, "footway": null, "sidewalk_left": false, "sidewalk_right": false, "generated_sidewalk": false, "bus_lanes": null, "bus_lane_side": null, "bus_only": false, "sidewalk": false, "bridge": false, "ramp": false, "tunnel": false, "layer": 0, "deck": null }, "geometry": { "type": "MultiLineString", "coordinates": [ [ [ 285784.28, 4157883.7 ], [ 285775.31, 4157881.61 ], [ 285751.35, 4157883.16 ], [ 285750.0, 4157883.02 ] ], [ [ 285750.0, 4157802.61 ], [ 285752.48, 4157800.25 ], [ 285758.64, 4157797.29 ], [ 285765.58, 4157796.86 ] ] ] } },
{ "type": "Feature", "properties": { "id": "osm:way/1175929068", "name": null, "highway": "service", "lanes": null, "width": 4.5, "oneway": false, "surface": null, "footway": null, "sidewalk_left": false, "sidewalk_right": false, "generated_sidewalk": false, "bus_lanes": null, "bus_lane_side": null, "bus_only": false, "sidewalk": false, "bridge": false, "ramp": false, "tunnel": false, "layer": 0, "deck": null }, "geometry": { "type": "LineString", "coordinates": [ [ 285824.13, 4157842.36 ], [ 285872.08, 4157842.77 ] ] } },
{ "type": "Feature", "properties": { "id": "osm:way/764907432", "name": "Oliver Hill Way", "highway": "primary", "lanes": 2.0, "width": 11.0, "oneway": true, "surface": "paved", "footway": null, "sidewalk_left": false, "sidewalk_right": false, "generated_sidewalk": true, "bus_lanes": null, "bus_lane_side": null, "bus_only": false, "sidewalk": false, "bridge": false, "ramp": false, "tunnel": false, "layer": 0, "deck": null }, "geometry": { "type": "LineString", "coordinates": [ [ 285822.73, 4158000.0 ], [ 285823.19, 4157944.47 ], [ 285823.74, 4157884.24 ], [ 285823.93, 4157863.17 ], [ 285824.13, 4157842.36 ], [ 285824.56, 4157795.41 ], [ 285824.96, 4157755.77 ], [ 285825.02, 4157750.0 ] ] } },
{ "type": "Feature", "properties": { "id": "osm:way/1175929067", "name": null, "highway": "service", "lanes": null, "width": 4.5, "oneway": false, "surface": null, "footway": null, "sidewalk_left": false, "sidewalk_right": false, "generated_sidewalk": false, "bus_lanes": null, "bus_lane_side": null, "bus_only": false, "sidewalk": false, "bridge": false, "ramp": false, "tunnel": false, "layer": 0, "deck": null }, "geometry": { "type": "LineString", "coordinates": [ [ 285823.93, 4157863.17 ], [ 285839.68, 4157863.34 ], [ 285879.41, 4157863.77 ] ] } },
{ "type": "Feature", "properties": { "id": "osm:way/1224428465", "name": null, "highway": "service", "lanes": null, "width": 4.5, "oneway": false, "surface": null, "footway": null, "sidewalk_left": false, "sidewalk_right": false, "generated_sidewalk": false, "bus_lanes": null, "bus_lane_side": null, "bus_only": false, "sidewalk": false, "bridge": false, "ramp": false, "tunnel": false, "layer": 0, "deck": null }, "geometry": { "type": "LineString", "coordinates": [ [ 285890.98, 4158000.0 ], [ 285891.07, 4157996.2 ] ] } },
{ "type": "Feature", "properties": { "id": "osm:way/764907430", "name": null, "highway": "service", "lanes": null, "width": 4.5, "oneway": false, "surface": null, "footway": null, "sidewalk_left": false, "sidewalk_right": false, "generated_sidewalk": false, "bus_lanes": null, "bus_lane_side": null, "bus_only": false, "sidewalk": false, "bridge": false, "ramp": false, "tunnel": false, "layer": 0, "deck": null }, "geometry": { "type": "LineString", "coordinates": [ [ 285750.0, 4157962.84 ], [ 285754.45, 4157943.1 ], [ 285763.51, 4157927.31 ], [ 285771.48, 4157907.82 ], [ 285777.48, 4157892.86 ], [ 285780.22, 4157888.41 ], [ 285784.28, 4157883.7 ], [ 285790.12, 4157883.66 ], [ 285797.09, 4157883.67 ], [ 285823.74, 4157884.24 ] ] } }
]
}
