{
"type": "FeatureCollection",
"name": "roads",
"crs": { "type": "name", "properties": { "name": "urn:ogc:def:crs:EPSG::32618" } },
"xy_coordinate_resolution": 0.01,
"features": [
{ "type": "Feature", "properties": { "id": "osm:way/295413459", "name": null, "highway": "path", "lanes": null, "width": 1.5, "oneway": false, "surface": "dirt", "footway": null, "sidewalk_left": false, "sidewalk_right": false, "generated_sidewalk": false, "bus_lanes": null, "bus_lane_side": null, "bus_only": false, "sidewalk": false, "bridge": false, "ramp": false, "tunnel": false, "layer": 0, "deck": null }, "geometry": { "type": "LineString", "coordinates": [ [ 281471.66, 4155107.14 ], [ 281488.23, 4155097.16 ], [ 281500.0, 4155088.77 ] ] } },
{ "type": "Feature", "properties": { "id": "osm:way/1041749418", "name": null, "highway": "footway", "lanes": null, "width": 2.0, "oneway": false, "surface": "paving_stones", "footway": "sidewalk", "sidewalk_left": false, "sidewalk_right": false, "generated_sidewalk": false, "bus_lanes": null, "bus_lane_side": null, "bus_only": false, "sidewalk": false, "bridge": false, "ramp": false, "tunnel": false, "layer": 0, "deck": null }, "geometry": { "type": "LineString", "coordinates": [ [ 281250.0, 4155093.14 ], [ 281251.56, 4155092.16 ], [ 281330.61, 4155049.8 ] ] } },
{ "type": "Feature", "properties": { "id": "osm:way/78942971", "name": null, "highway": "footway", "lanes": null, "width": 2.0, "oneway": false, "surface": null, "footway": null, "sidewalk_left": false, "sidewalk_right": false, "generated_sidewalk": false, "bus_lanes": null, "bus_lane_side": null, "bus_only": false, "sidewalk": false, "bridge": false, "ramp": false, "tunnel": false, "layer": 0, "deck": null }, "geometry": { "type": "LineString", "coordinates": [ [ 281272.14, 4155124.99 ], [ 281283.5, 4155126.77 ], [ 281297.02, 4155126.65 ], [ 281312.74, 4155129.08 ], [ 281328.7, 4155130.87 ], [ 281331.54, 4155131.18 ], [ 281354.41, 4155134.83 ], [ 281364.43, 4155136.92 ], [ 281371.45, 4155141.93 ], [ 281374.63, 4155150.19 ], [ 281375.47, 4155151.82 ], [ 281383.14, 4155162.89 ], [ 281386.08, 4155166.36 ], [ 281387.86, 4155170.8 ], [ 281392.15, 4155171.39 ], [ 281396.6, 4155169.62 ], [ 281400.5, 4155164.56 ], [ 281405.48, 4155163.96 ], [ 281412.65, 4155166.37 ], [ 281425.61, 4155171.7 ], [ 281435.91, 4155175.44 ], [ 281443.84, 4155175.55 ] ] } },
{ "type": "Feature", "properties": { "id": "osm:way/287532394", "name": "Forest Hill", "highway": "footway", "lanes": null, "width": 2.0, "oneway": false, "surface": null, "footway": null, "sidewalk_left": false, "sidewalk_right": false, "generated_sidewalk": false, "bus_lanes": null, "bus_lane_side": null, "bus_only": false, "sidewalk": false, "bridge": false, "ramp": false, "tunnel": false, "layer": 0, "deck": null }, "geometry": { "type": "LineString", "coordinates": [ [ 281374.63, 4155150.19 ], [ 281368.46, 4155169.53 ], [ 281361.34, 4155187.2 ], [ 281342.01, 4155203.12 ] ] } },
{ "type": "Feature", "properties": { "id": "osm:way/1112131234", "name": null, "highway": "cycleway", "lanes": null, "width": 2.5, "oneway": false, "surface": "asphalt", "footway": null, "sidewalk_left": false, "sidewalk_right": false, "generated_sidewalk": false, "bus_lanes": null, "bus_lane_side": null, "bus_only": false, "sidewalk": false, "bridge": false, "ramp": false, "tunnel": false, "layer": 0, "deck": null }, "geometry": { "type": "MultiLineString", "coordinates": [ [ [ 281439.47, 4155015.56 ], [ 281428.4, 4155019.85 ], [ 281370.22, 4155047.6 ], [ 281339.18, 4155061.37 ], [ 281325.21, 4155071.19 ], [ 281313.94, 4155093.7 ], [ 281304.73, 4155104.33 ], [ 281272.14, 4155124.99 ], [ 281262.72, 4155130.96 ], [ 281257.57, 4155134.75 ], [ 281252.93, 4155139.97 ], [ 281250.0, 4155146.08 ] ], [ [ 281250.0, 4155157.86 ], [ 281254.07, 4155162.83 ], [ 281267.53, 4155169.58 ], [ 281293.85, 4155177.86 ], [ 281305.47, 4155186.53 ], [ 281312.95, 4155200.51 ], [ 281317.18, 4155216.93 ], [ 281321.77, 4155247.05 ], [ 281323.29, 4155250.0 ] ] ] } },
{ "type": "Feature", "properties": { "id": "osm:way/76739262", "name": null, "highway": "cycleway", "lanes": null, "width": 2.5, "oneway": false, "surface": "asphalt", "footway": null, "sidewalk_left": false, "sidewalk_right": false, "generated_sidewalk": false, "bus_lanes": null, "bus_lane_side": null, "bus_only": false, "sidewalk": false, "bridge": false, "ramp": false, "tunnel": false, "layer": 0, "deck": null }, "geometry": { "type": "MultiLineString", "coordinates": [ [ [ 281440.36, 4155250.0 ], [ 281437.47, 4155244.48 ], [ 281425.2, 4155228.74 ], [ 281423.59, 4155203.74 ], [ 281433.13, 4155187.42 ], [ 281443.84, 4155175.55 ], [ 281449.73, 4155169.04 ], [ 281467.91, 4155156.74 ], [ 281497.41, 4155159.74 ], [ 281500.0, 4155160.19 ] ], [ [ 281500.0, 4155016.43 ], [ 281481.18, 4155011.81 ], [ 281462.11, 4155012.8 ] ] ] } },
{ "type": "Feature", "properties": { "id": "osm:way/576880629", "name": "Forest Hill", "highway": "path", "lanes": null, "width": 1.5, "oneway": false, "surface": "dirt", "footway": null, "sidewalk_left": false, "sidewalk_right": false, "generated_sidewalk": false, "bus_lanes": null, "bus_lane_side": null, "bus_only": false, "sidewalk": false, "bridge": false, "ramp": false, "tunnel": false, "layer": 0, "deck": null }, "geometry": { "type": "LineString", "coordinates": [ [ 281439.47, 4155015.56 ], [ 281441.55, 4155032.52 ], [ 281446.72, 4155040.3 ], [ 281455.88, 4155050.03 ], [ 281458.34, 4155061.77 ], [ 281460.15, 4155067.92 ], [ 281462.76, 4155073.74 ], [ 281467.59, 4155080.19 ], [ 281473.75, 4155099.53 ], [ 281471.66, 4155107.14 ], [ 281465.84, 4155109.17 ], [ 281455.8, 4155114.8 ], [ 281448.21, 4155117.16 ], [ 281435.21, 4155121.21 ], [ 281426.72, 4155122.5 ], [ 281421.47, 4155123.83 ], [ 281413.1, 4155123.38 ], [ 281406.49, 4155117.55 ], [ 281405.63, 4155109.11 ], [ 281403.91, 4155099.03 ], [ 281402.95, 4155093.31 ], [ 281400.13, 4155090.58 ], [ 281395.6, 4155089.38 ], [ 281388.91, 4155087.71 ], [ 281381.82, 4155088.04 ], [ 281372.23, 4155090.18 ], [ 281363.8, 4155095.6 ], [ 281357.4, 4155102.03 ], [ 281353.72, 4155109.59 ], [ 281347.45, 4155116.98 ], [ 281340.14, 4155123.09 ], [ 281330.39, 4155128.06 ], [ 281328.7, 4155130.87 ], [ 281322.46, 4155137.3 ], [ 281317.54, 4155145.76 ], [ 281319.28, 4155155.61 ], [ 281326.56, 4155162.95 ], [ 281333.11, 4155172.41 ], [ 281337.61, 4155183.56 ], [ 281340.83, 4155191.17 ], [ 281342.01, 4155203.12 ], [ 281342.46, 4155207.58 ], [ 281338.65, 4155216.1 ], [ 281338.13, 4155226.55 ], [ 281341.0, 4155236.91 ], [ 281342.31, 4155242.81 ], [ 281344.29, 4155250.0 ] ] } },
{ "type": "Feature", "properties": { "id": "osm:way/287532402", "name": "Forest Hill", "highway": "path", "lanes": null, "width": 1.5, "oneway": false, "surface": "dirt", "footway": null, "sidewalk_left": false, "sidewalk_right": false, "generated_sidewalk": false, "bus_lanes": null, "bus_lane_side": null, "bus_only": false, "sidewalk": false, "bridge": false, "ramp": false, "tunnel": false, "layer": 0, "deck": null }, "geometry": { "type": "MultiLineString", "coordinates": [ [ [ 281462.11, 4155012.8 ], [ 281469.38, 4155009.48 ], [ 281475.0, 4155004.71 ], [ 281481.73, 4155000.0 ] ], [ [ 281493.51, 4155000.0 ], [ 281500.0, 4155005.22 ] ] ] } }
]
}
