{
"type": "FeatureCollection",
"name": "roads",
"crs": { "type": "name", "properties": { "name": "urn:ogc:def:crs:EPSG::32618" } },
"xy_coordinate_resolution": 0.01,
"features": [
{ "type": "Feature", "properties": { "id": "osm:way/749990644", "name": null, "highway": "service", "lanes": null, "width": 4.5, "oneway": false, "surface": "asphalt", "footway": null, "sidewalk_left": false, "sidewalk_right": false, "generated_sidewalk": false, "bus_lanes": null, "bus_lane_side": null, "bus_only": false, "sidewalk": false, "bridge": false, "ramp": false, "tunnel": false, "layer": 0, "deck": null }, "geometry": { "type": "LineString", "coordinates": [ [ 281464.16, 4160000.0 ], [ 281465.98, 4160002.6 ], [ 281482.73, 4160026.43 ], [ 281487.9, 4160031.03 ] ] } },
{ "type": "Feature", "properties": { "id": "osm:way/749990645", "name": null, "highway": "service", "lanes": null, "width": 4.5, "oneway": false, "surface": "asphalt", "footway": null, "sidewalk_left": false, "sidewalk_right": false, "generated_sidewalk": false, "bus_lanes": null, "bus_lane_side": null, "bus_only": false, "sidewalk": false, "bridge": false, "ramp": false, "tunnel": false, "layer": 0, "deck": null }, "geometry": { "type": "LineString", "coordinates": [ [ 281465.98, 4160002.6 ], [ 281455.09, 4160011.32 ], [ 281464.06, 4160041.24 ] ] } },
{ "type": "Feature", "properties": { "id": "osm:way/132598235", "name": "Monument Avenue", "highway": "tertiary", "lanes": 2.0, "width": 8.0, "oneway": true, "surface": "asphalt", "footway": null, "sidewalk_left": null, "sidewalk_right": null, "generated_sidewalk": true, "bus_lanes": null, "bus_lane_side": null, "bus_only": false, "sidewalk": false, "bridge": false, "ramp": false, "tunnel": false, "layer": 0, "deck": null }, "geometry": { "type": "LineString", "coordinates": [ [ 281500.0, 4160117.09 ], [ 281472.2, 4160139.1 ], [ 281419.04, 4160181.22 ], [ 281402.64, 4160194.22 ] ] } },
{ "type": "Feature", "properties": { "id": "osm:way/370806330", "name": "North Belmont Avenue", "highway": "residential", "lanes": 2.0, "width": 7.0, "oneway": false, "surface": null, "footway": null, "sidewalk_left": null, "sidewalk_right": null, "generated_sidewalk": true, "bus_lanes": null, "bus_lane_side": null, "bus_only": false, "sidewalk": false, "bridge": false, "ramp": false, "tunnel": false, "layer": 0, "deck": null }, "geometry": { "type": "LineString", "coordinates": [ [ 281360.88, 4160041.24 ], [ 281377.32, 4160093.12 ], [ 281393.44, 4160144.56 ], [ 281404.27, 4160161.94 ] ] } },
{ "type": "Feature", "properties": { "id": "osm:way/270510931", "name": "West Franklin Street", "highway": "residential", "lanes": 1.0, "width": 7.0, "oneway": true, "surface": null, "footway": null, "sidewalk_left": null, "sidewalk_right": null, "generated_sidewalk": true, "bus_lanes": null, "bus_lane_side": null, "bus_only": false, "sidewalk": false, "bridge": false, "ramp": false, "tunnel": false, "layer": 0, "deck": null }, "geometry": { "type": "LineString", "coordinates": [ [ 281356.66, 4160159.86 ], [ 281364.28, 4160154.53 ], [ 281393.44, 4160144.56 ], [ 281455.09, 4160121.72 ] ] } },
{ "type": "Feature", "properties": { "id": "osm:way/236138595", "name": null, "highway": "residential", "lanes": 1.0, "width": 7.0, "oneway": true, "surface": null, "footway": null, "sidewalk_left": null, "sidewalk_right": null, "generated_sidewalk": true, "bus_lanes": null, "bus_lane_side": null, "bus_only": false, "sidewalk": false, "bridge": false, "ramp": false, "tunnel": false, "layer": 0, "deck": null }, "geometry": { "type": "LineString", "coordinates": [ [ 281384.63, 4160177.81 ], [ 281381.74, 4160171.44 ], [ 281378.76, 4160166.55 ], [ 281373.15, 4160162.63 ], [ 281364.73, 4160160.31 ], [ 281356.66, 4160159.86 ] ] } },
{ "type": "Feature", "properties": { "id": "osm:way/530860531", "name": null, "highway": "residential", "lanes": null, "width": 7.0, "oneway": true, "surface": null, "footway": null, "sidewalk_left": null, "sidewalk_right": null, "generated_sidewalk": true, "bus_lanes": null, "bus_lane_side": null, "bus_only": false, "sidewalk": false, "bridge": false, "ramp": false, "tunnel": false, "layer": 0, "deck": null }, "geometry": { "type": "LineString", "coordinates": [ [ 281404.27, 4160161.94 ], [ 281419.04, 4160181.22 ] ] } },
{ "type": "Feature", "properties": { "id": "osm:way/270510930", "name": null, "highway": "residential", "lanes": null, "width": 7.0, "oneway": true, "surface": null, "footway": null, "sidewalk_left": null, "sidewalk_right": null, "generated_sidewalk": true, "bus_lanes": null, "bus_lane_side": null, "bus_only": false, "sidewalk": false, "bridge": false, "ramp": false, "tunnel": false, "layer": 0, "deck": null }, "geometry": { "type": "LineString", "coordinates": [ [ 281402.64, 4160194.22 ], [ 281384.63, 4160177.81 ] ] } },
{ "type": "Feature", "properties": { "id": "osm:way/6035627", "name": "Wayne Street", "highway": "residential", "lanes": null, "width": 7.0, "oneway": false, "surface": null, "footway": null, "sidewalk_left": null, "sidewalk_right": null, "generated_sidewalk": true, "bus_lanes": null, "bus_lane_side": null, "bus_only": false, "sidewalk": false, "bridge": false, "ramp": false, "tunnel": false, "layer": 0, "deck": null }, "geometry": { "type": "LineString", "coordinates": [ [ 281472.2, 4160139.1 ], [ 281500.0, 4160173.26 ] ] } },
{ "type": "Feature", "properties": { "id": "osm:way/466466880", "name": "North Belmont Avenue", "highway": "residential", "lanes": null, "width": 7.0, "oneway": false, "surface": null, "footway": null, "sidewalk_left": false, "sidewalk_right": null, "generated_sidewalk": true, "bus_lanes": null, "bus_lane_side": null, "bus_only": false, "sidewalk": false, "bridge": false, "ramp": false, "tunnel": false, "layer": 0, "deck": null }, "geometry": { "type": "LineString", "coordinates": [ [ 281402.64, 4160194.22 ], [ 281436.78, 4160236.41 ], [ 281447.73, 4160250.0 ] ] } },
{ "type": "Feature", "properties": { "id": "osm:way/910336771", "name": null, "highway": "service", "lanes": null, "width": 4.5, "oneway": false, "surface": "gravel", "footway": null, "sidewalk_left": false, "sidewalk_right": false, "generated_sidewalk": false, "bus_lanes": null, "bus_lane_side": null, "bus_only": false, "sidewalk": false, "bridge": false, "ramp": false, "tunnel": false, "layer": 0, "deck": null }, "geometry": { "type": "LineString", "coordinates": [ [ 281348.74, 4160002.95 ], [ 281354.8, 4160000.0 ] ] } },
{ "type": "Feature", "properties": { "id": "osm:way/327377559", "name": "North Belmont Avenue", "highway": "residential", "lanes": 2.0, "width": 7.0, "oneway": false, "surface": "asphalt", "footway": null, "sidewalk_left": null, "sidewalk_right": null, "generated_sidewalk": true, "bus_lanes": null, "bus_lane_side": null, "bus_only": false, "sidewalk": false, "bridge": false, "ramp": false, "tunnel": false, "layer": 0, "deck": null }, "geometry": { "type": "LineString", "coordinates": [ [ 281347.79, 4160000.0 ], [ 281348.74, 4160002.95 ], [ 281360.88, 4160041.24 ] ] } },
{ "type": "Feature", "properties": { "id": "osm:way/297843655", "name": null, "highway": "service", "lanes": null, "width": 4.5, "oneway": false, "surface": null, "footway": null, "sidewalk_left": false, "sidewalk_right": false, "generated_sidewalk": false, "bus_lanes": null, "bus_lane_side": null, "bus_only": false, "sidewalk": false, "bridge": false, "ramp": false, "tunnel": false, "layer": 0, "deck": null }, "geometry": { "type": "LineString", "coordinates": [ [ 281250.0, 4160017.92 ], [ 281307.45, 4160000.0 ] ] } },
{ "type": "Feature", "properties": { "id": "osm:way/370806329", "name": "Park Avenue", "highway": "residential", "lanes": 2.0, "width": 7.0, "oneway": false, "surface": "asphalt", "footway": null, "sidewalk_left": null, "sidewalk_right": null, "generated_sidewalk": true, "bus_lanes": null, "bus_lane_side": null, "bus_only": false, "sidewalk": false, "bridge": false, "ramp": false, "tunnel": false, "layer": 0, "deck": null }, "geometry": { "type": "LineString", "coordinates": [ [ 281437.53, 4160000.0 ], [ 281366.36, 4160039.22 ], [ 281360.88, 4160041.24 ], [ 281250.0, 4160075.72 ] ] } },
{ "type": "Feature", "properties": { "id": "osm:way/327377541", "name": "Cleveland Street", "highway": "residential", "lanes": 2.0, "width": 7.0, "oneway": false, "surface": null, "footway": null, "sidewalk_left": true, "sidewalk_right": true, "generated_sidewalk": true, "bus_lanes": null, "bus_lane_side": null, "bus_only": false, "sidewalk": true, "bridge": false, "ramp": false, "tunnel": false, "layer": 0, "deck": null }, "geometry": { "type": "LineString", "coordinates": [ [ 281250.0, 4160198.9 ], [ 281265.89, 4160250.0 ] ] } },
{ "type": "Feature", "properties": { "id": "osm:way/297843654", "name": null, "highway": "service", "lanes": null, "width": 4.5, "oneway": false, "surface": null, "footway": null, "sidewalk_left": false, "sidewalk_right": false, "generated_sidewalk": false, "bus_lanes": null, "bus_lane_side": null, "bus_only": false, "sidewalk": false, "bridge": false, "ramp": false, "tunnel": false, "layer": 0, "deck": null }, "geometry": { "type": "LineString", "coordinates": [ [ 281250.0, 4160132.6 ], [ 281377.32, 4160093.12 ], [ 281455.22, 4160056.97 ], [ 281487.9, 4160031.03 ], [ 281500.0, 4160021.42 ] ] } },
{ "type": "Feature", "properties": { "id": "osm:way/370806302", "name": "West Franklin Street", "highway": "residential", "lanes": 2.0, "width": 7.0, "oneway": false, "surface": null, "footway": null, "sidewalk_left": null, "sidewalk_right": null, "generated_sidewalk": true, "bus_lanes": null, "bus_lane_side": null, "bus_only": false, "sidewalk": false, "bridge": false, "ramp": false, "tunnel": false, "layer": 0, "deck": null }, "geometry": { "type": "LineString", "coordinates": [ [ 281250.0, 4160193.33 ], [ 281356.66, 4160159.86 ] ] } },
{ "type": "Feature", "properties": { "id": "osm:way/297843645", "name": "Monument Avenue", "highway": "tertiary", "lanes": 2.0, "width": 8.0, "oneway": true, "surface": null, "footway": null, "sidewalk_left": null, "sidewalk_right": null, "generated_sidewalk": true, "bus_lanes": null, "bus_lane_side": null, "bus_only": false, "sidewalk": false, "bridge": false, "ramp": false, "tunnel": false, "layer": 0, "deck": null }, "geometry": { "type": "LineString", "coordinates": [ [ 281293.54, 4160250.0 ], [ 281384.63, 4160177.81 ], [ 281404.27, 4160161.94 ], [ 281455.09, 4160121.72 ], [ 281500.0, 4160086.18 ] ] } },
{ "type": "Feature", "properties": { "id": "osm:way/1483914788", "name": null, "highway": "footway", "lanes": null, "width": 2.0, "oneway": false, "surface": null, "footway": "sidewalk", "sidewalk_left": false, "sidewalk_right": false, "generated_sidewalk": false, "bus_lanes": null, "bus_lane_side": null, "bus_only": false, "sidewalk": false, "bridge": false, "ramp": false, "tunnel": false, "layer": 0, "deck": null }, "geometry": { "type": "LineString", "coordinates": [ [ 281258.4, 4160250.0 ], [ 281253.84, 4160235.22 ], [ 281250.0, 4160223.24 ] ] } },
{ "type": "Feature", "properties": { "id": "osm:way/297843646", "name": null, "highway": "service", "lanes": null, "width": 4.5, "oneway": false, "surface": null, "footway": null, "sidewalk_left": false, "sidewalk_right": false, "generated_sidewalk": false, "bus_lanes": null, "bus_lane_side": null, "bus_only": false, "sidewalk": false, "bridge": false, "ramp": false, "tunnel": false, "layer": 0, "deck": null }, "geometry": { "type": "LineString", "coordinates": [ [ 281500.0, 4160183.93 ], [ 281436.78, 4160236.41 ], [ 281419.59, 4160250.0 ] ] } },
{ "type": "Feature", "properties": { "id": "osm:way/297843643", "name": "Monument Avenue", "highway": "tertiary", "lanes": 2.0, "width": 8.0, "oneway": true, "surface": null, "footway": null, "sidewalk_left": null, "sidewalk_right": null, "generated_sidewalk": true, "bus_lanes": null, "bus_lane_side": null, "bus_only": false, "sidewalk": false, "bridge": false, "ramp": false, "tunnel": false, "layer": 0, "deck": null }, "geometry": { "type": "LineString", "coordinates": [ [ 281402.64, 4160194.22 ], [ 281332.09, 4160250.0 ] ] } }
]
}
