{
"type": "FeatureCollection",
"name": "buildings",
"crs": { "type": "name", "properties": { "name": "urn:ogc:def:crs:EPSG::32618" } },
"xy_coordinate_resolution": 0.01,
"features": [
{ "type": "Feature", "properties": { "id": "osm:way/755575864", "name": null, "height": 5.81, "min_height": 0.0, "levels": null, "height_source": "lidar", "roof_shape": "flat", "roof_height": 0.67, "roof_azimuth": null, "roof_source": "lod2", "roof_color": "concrete", "roof_color_source": "ortho", "lod2_roof": { "v": [ [ 284469.22, 4159511.58, 0.0 ], [ 284470.14, 4159505.44, 0.0 ], [ 284472.59, 4159512.09, 0.66 ], [ 284477.63, 4159506.03, 0.0 ], [ 284476.62, 4159512.7, 0.0 ], [ 284473.41, 4159505.7, 0.67 ] ], "f": [ [ [ 1, 5, 2, 0 ] ], [ [ 5, 3, 4, 2 ] ] ] }, "roof_props": null, "wall_color": "brick", "type": "yes", "landmark": null, "footprint_source": "osm", "source_updated": null, "is_part": false, "parent": null, "hidden": false, "addr": "1603 Brookfield Street", "wikidata": null, "website": null, "zoning": "R-53", "lidar_p90": 6.16, "ground_z": 48.33 }, "geometry": { "type": "Polygon", "coordinates": [ [ [ 284470.47, 4159503.3 ], [ 284469.22, 4159511.58 ], [ 284476.62, 4159512.7 ], [ 284477.87, 4159504.42 ], [ 284470.47, 4159503.3 ] ] ] } },
{ "type": "Feature", "properties": { "id": "richmond_structure:389111", "name": null, "height": 3.92, "min_height": 0.0, "levels": null, "height_source": "lidar", "roof_shape": "flat", "roof_height": 0.33, "roof_azimuth": null, "roof_source": "lod2", "roof_color": "roof_dark", "roof_color_source": "heuristic", "lod2_roof": { "v": [ [ 284436.78, 4159517.66, 0.32 ], [ 284436.67, 4159519.68, 0.0 ], [ 284427.97, 4159519.17, 0.0 ], [ 284436.14, 4159517.62, 0.32 ], [ 284436.1, 4159514.28, 0.0 ], [ 284430.9, 4159513.97, 0.0 ], [ 284431.02, 4159514.65, 0.0 ], [ 284428.22, 4159515.02, 0.0 ], [ 284428.1, 4159517.08, 0.33 ] ], "f": [ [ [ 3, 8, 7, 6, 5, 4 ] ], [ [ 8, 3, 0, 1, 2 ] ] ] }, "roof_props": null, "wall_color": "terracotta", "type": "yes", "landmark": null, "footprint_source": "richmond_structures", "source_updated": "2026-09-08T12:07:13.637000Z", "is_part": false, "parent": null, "hidden": false, "addr": null, "wikidata": null, "website": null, "zoning": "R-53", "lidar_p90": 3.98, "ground_z": 46.68 }, "geometry": { "type": "Polygon", "coordinates": [ [ [ 284428.29, 4159513.82 ], [ 284427.97, 4159519.17 ], [ 284436.67, 4159519.68 ], [ 284436.98, 4159514.33 ], [ 284428.29, 4159513.82 ] ] ] } },
{ "type": "Feature", "properties": { "id": "osm:way/755575862", "name": null, "height": 4.92, "min_height": 0.0, "levels": null, "height_source": "lidar", "roof_shape": "skillion", "roof_height": 1.45, "roof_azimuth": 92.3, "roof_source": "lod2", "roof_color": "concrete", "roof_color_source": "ortho", "lod2_roof": { "v": [ [ 284408.9, 4159524.71, 0.0 ], [ 284417.87, 4159524.64, 0.06 ], [ 284417.33, 4159528.18, 1.45 ], [ 284417.13, 4159530.04, 0.68 ], [ 284408.97, 4159530.15, 0.67 ], [ 284408.95, 4159528.32, 1.42 ], [ 284417.92, 4159528.17, 1.45 ] ], "f": [ [ [ 4, 5, 2, 3 ] ], [ [ 5, 0, 1, 6, 2 ] ] ] }, "roof_props": null, "wall_color": "concrete", "type": "yes", "landmark": null, "footprint_source": "osm", "source_updated": null, "is_part": false, "parent": null, "hidden": false, "addr": "510 West Fritz Street", "wikidata": null, "website": null, "zoning": "R-53", "lidar_p90": 6.19, "ground_z": 46.2 }, "geometry": { "type": "Polygon", "coordinates": [ [ [ 284408.87, 4159522.83 ], [ 284408.97, 4159530.15 ], [ 284417.94, 4159530.03 ], [ 284417.84, 4159522.7 ], [ 284408.87, 4159522.83 ] ] ] } },
{ "type": "Feature", "properties": { "id": "osm:way/755575835", "name": null, "height": 4.94, "min_height": 0.0, "levels": null, "height_source": "lidar", "roof_shape": "skillion", "roof_height": 1.27, "roof_azimuth": 1.9, "roof_source": "lidar", "roof_color": "roof_dark", "roof_color_source": "heuristic", "lod2_roof": null, "roof_props": null, "wall_color": "cream", "type": "yes", "landmark": null, "footprint_source": "osm", "source_updated": null, "is_part": false, "parent": null, "hidden": false, "addr": "1610 Tyler Street", "wikidata": null, "website": null, "zoning": "R-53", "lidar_p90": 6.16, "ground_z": 47.57 }, "geometry": { "type": "Polygon", "coordinates": [ [ [ 284495.01, 4159522.47 ], [ 284495.16, 4159530.9 ], [ 284502.51, 4159530.76 ], [ 284502.35, 4159522.34 ], [ 284495.01, 4159522.47 ] ] ] } },
{ "type": "Feature", "properties": { "id": "osm:way/755575841", "name": null, "height": 4.89, "min_height": 0.0, "levels": null, "height_source": "lidar", "roof_shape": "gable", "roof_height": 1.58, "roof_azimuth": 16.3, "roof_source": "lod2", "roof_color": "concrete", "roof_color_source": "ortho", "lod2_roof": { "v": [ [ 284464.3, 4159526.75, 0.17 ], [ 284464.3, 4159526.75, 0.0 ], [ 284467.74, 4159526.42, 0.0 ], [ 284467.74, 4159526.42, 1.58 ], [ 284471.96, 4159526.02, 0.0 ], [ 284472.12, 4159533.1, 0.0 ], [ 284467.85, 4159533.2, 1.56 ], [ 284464.25, 4159524.6, 0.0 ], [ 284467.71, 4159524.53, 0.0 ], [ 284464.45, 4159533.28, 0.17 ] ], "f": [ [ [ 5, 6, 3, 4 ] ], [ [ 9, 0, 3, 6 ] ], [ [ 1, 7, 8, 2 ] ], [ [ 0, 1, 2, 3 ] ] ] }, "roof_props": null, "wall_color": "cream", "type": "yes", "landmark": null, "footprint_source": "osm", "source_updated": null, "is_part": false, "parent": null, "hidden": false, "addr": "1609 Brookfield Street", "wikidata": null, "website": null, "zoning": "R-53", "lidar_p90": 6.19, "ground_z": 47.41 }, "geometry": { "type": "Polygon", "coordinates": [ [ [ 284464.25, 4159524.6 ], [ 284464.45, 4159533.28 ], [ 284472.12, 4159533.1 ], [ 284471.92, 4159524.44 ], [ 284464.25, 4159524.6 ] ] ] } },
{ "type": "Feature", "properties": { "id": "osm:way/755575744", "name": null, "height": 4.91, "min_height": 0.0, "levels": null, "height_source": "lidar", "roof_shape": "skillion", "roof_height": 1.48, "roof_azimuth": 45.4, "roof_source": "lod2", "roof_color": "roof_dark", "roof_color_source": "heuristic", "lod2_roof": { "v": [ [ 284432.78, 4159536.07, 1.48 ], [ 284431.34, 4159537.46, 0.65 ], [ 284435.52, 4159533.43, 0.0 ], [ 284425.92, 4159531.84, 0.67 ], [ 284430.17, 4159528.0, 0.01 ], [ 284427.37, 4159530.52, 1.48 ] ], "f": [ [ [ 3, 5, 0, 1 ] ], [ [ 5, 4, 2, 0 ] ] ] }, "roof_props": null, "wall_color": "cream", "type": "yes", "landmark": null, "footprint_source": "osm", "source_updated": null, "is_part": false, "parent": null, "hidden": false, "addr": "1600 Brookfield Street", "wikidata": null, "website": null, "zoning": "R-53", "lidar_p90": 6.31, "ground_z": 46.55 }, "geometry": { "type": "Polygon", "coordinates": [ [ [ 284430.74, 4159525.98 ], [ 284425.31, 4159531.21 ], [ 284431.34, 4159537.46 ], [ 284436.76, 4159532.24 ], [ 284430.74, 4159525.98 ] ] ] } },
{ "type": "Feature", "properties": { "id": "osm:way/755575721", "name": null, "height": 4.97, "min_height": 0.0, "levels": null, "height_source": "lidar", "roof_shape": "gable", "roof_height": 1.59, "roof_azimuth": 144.8, "roof_source": "lod2", "roof_color": "roof_flat", "roof_color_source": "ortho", "lod2_roof": { "v": [ [ 284394.1, 4159534.66, 0.0 ], [ 284393.26, 4159534.08, 0.0 ], [ 284393.02, 4159536.18, 0.0 ], [ 284393.49, 4159536.51, 0.0 ], [ 284395.02, 4159531.58, 0.0 ], [ 284397.63, 4159530.66, 0.1 ], [ 284399.8, 4159534.01, 1.59 ], [ 284396.19, 4159532.71, 0.1 ], [ 284396.19, 4159532.71, 0.0 ], [ 284399.07, 4159540.44, 0.38 ], [ 284396.49, 4159538.63, 1.59 ], [ 284402.68, 4159535.33, 0.4 ], [ 284400.41, 4159533.17, 1.59 ], [ 284393.49, 4159536.51, 0.11 ] ], "f": [ [ [ 12, 11, 9, 10, 6 ] ], [ [ 8, 3, 2, 0, 1, 4 ] ], [ [ 10, 13, 7, 5, 6 ] ], [ [ 13, 3, 8, 7 ] ] ] }, "roof_props": null, "wall_color": "concrete", "type": "yes", "landmark": null, "footprint_source": "osm", "source_updated": null, "is_part": false, "parent": null, "hidden": false, "addr": "1601 Roane Street", "wikidata": null, "website": null, "zoning": "R-53", "lidar_p90": 6.27, "ground_z": 45.51 }, "geometry": { "type": "Polygon", "coordinates": [ [ [ 284398.0, 4159529.16 ], [ 284396.78, 4159530.88 ], [ 284395.94, 4159530.29 ], [ 284393.26, 4159534.08 ], [ 284394.1, 4159534.67 ], [ 284393.02, 4159536.18 ], [ 284399.07, 4159540.44 ], [ 284404.03, 4159533.42 ], [ 284398.0, 4159529.16 ] ] ] } },
{ "type": "Feature", "properties": { "id": "osm:way/755575833", "name": null, "height": 4.53, "min_height": 0.0, "levels": null, "height_source": "lidar", "roof_shape": "flat", "roof_height": 3.1, "roof_azimuth": null, "roof_source": "lod2", "roof_color": "roof_flat", "roof_color_source": "ortho", "lod2_roof": { "v": [ [ 284292.24, 4159499.82, 0.01 ], [ 284294.23, 4159515.74, 0.0 ], [ 284292.24, 4159499.82, 3.1 ], [ 284287.76, 4159500.34, 0.01 ], [ 284287.76, 4159500.34, 3.09 ], [ 284292.9, 4159497.55, 3.05 ], [ 284293.18, 4159499.7, 3.1 ], [ 284274.99, 4159513.19, 0.02 ], [ 284275.46, 4159513.12, 0.02 ], [ 284275.03, 4159513.94, 0.02 ], [ 284273.95, 4159501.97, 0.02 ], [ 284269.76, 4159519.27, 0.02 ], [ 284270.21, 4159516.33, 0.02 ], [ 284286.22, 4159498.57, 3.05 ], [ 284288.52, 4159499.17, 3.07 ] ], "f": [ [ [ 12, 9, 7, 8, 10, 3, 0, 1, 11 ] ], [ [ 4, 14, 13, 5, 6, 2 ] ], [ [ 2, 0, 3, 4 ] ] ] }, "roof_props": null, "wall_color": "terracotta", "type": "yes", "landmark": null, "footprint_source": "osm", "source_updated": null, "is_part": false, "parent": null, "hidden": false, "addr": "1519 Chamberlayne Parkway", "wikidata": null, "website": null, "zoning": "M-1", "lidar_p90": 5.07, "ground_z": 47.42 }, "geometry": { "type": "Polygon", "coordinates": [ [ [ 284273.75, 4159500.48 ], [ 284275.46, 4159513.12 ], [ 284270.58, 4159513.86 ], [ 284269.76, 4159519.28 ], [ 284295.18, 4159515.6 ], [ 284292.9, 4159497.55 ], [ 284273.75, 4159500.48 ] ] ] } },
{ "type": "Feature", "properties": { "id": "osm:way/755575874", "name": null, "height": 4.96, "min_height": 0.0, "levels": null, "height_source": "lidar", "roof_shape": "skillion", "roof_height": 1.49, "roof_azimuth": 100.4, "roof_source": "lod2", "roof_color": "slate", "roof_color_source": "heuristic", "lod2_roof": { "v": [ [ 284359.3, 4159538.54, 1.49 ], [ 284359.3, 4159538.54, 0.0 ], [ 284359.5, 4159540.53, 0.0 ], [ 284359.5, 4159540.53, 0.75 ], [ 284360.84, 4159540.33, 0.0 ], [ 284360.0, 4159534.86, 0.0 ], [ 284352.15, 4159539.47, 1.48 ], [ 284351.61, 4159535.9, 0.04 ], [ 284358.94, 4159534.99, 0.0 ], [ 284358.94, 4159534.99, 0.07 ], [ 284352.48, 4159541.62, 0.67 ] ], "f": [ [ [ 9, 0, 6, 7 ] ], [ [ 1, 8, 5, 4, 2 ] ], [ [ 3, 10, 6, 0 ] ], [ [ 0, 1, 2, 3 ] ], [ [ 9, 8, 1, 0 ] ] ] }, "roof_props": null, "wall_color": "cream", "type": "yes", "landmark": null, "footprint_source": "osm", "source_updated": null, "is_part": false, "parent": null, "hidden": false, "addr": "1600 Roane Street", "wikidata": null, "website": null, "zoning": "R-53", "lidar_p90": 6.27, "ground_z": 45.71 }, "geometry": { "type": "Polygon", "coordinates": [ [ [ 284359.72, 4159533.05 ], [ 284351.37, 4159534.33 ], [ 284352.48, 4159541.62 ], [ 284360.84, 4159540.33 ], [ 284359.72, 4159533.05 ] ] ] } },
{ "type": "Feature", "properties": { "id": "osm:way/755575872", "name": null, "height": 4.73, "min_height": 0.0, "levels": null, "height_source": "lidar", "roof_shape": "gable", "roof_height": 1.78, "roof_azimuth": 1.1, "roof_source": "lod2", "roof_color": "roof_green", "roof_color_source": "heuristic", "lod2_roof": { "v": [ [ 284367.16, 4159551.42, 0.0 ], [ 284367.25, 4159555.97, 0.0 ], [ 284365.95, 4159558.57, 0.08 ], [ 284361.59, 4159558.66, 1.78 ], [ 284358.51, 4159558.72, 0.52 ], [ 284358.37, 4159551.78, 0.55 ], [ 284361.34, 4159551.59, 1.77 ], [ 284365.2, 4159551.34, 0.0 ], [ 284365.2, 4159551.34, 0.26 ], [ 284366.11, 4159551.45, 0.0 ], [ 284366.1, 4159551.28, 0.0 ], [ 284365.16, 4159558.18, 0.38 ], [ 284365.16, 4159558.18, 0.0 ], [ 284365.95, 4159558.12, 0.0 ], [ 284365.95, 4159558.12, 0.08 ], [ 284365.9, 4159556.0, 0.0 ] ], "f": [ [ [ 3, 6, 8, 11, 14, 2 ] ], [ [ 12, 7, 10, 9, 0, 1, 15, 13 ] ], [ [ 6, 3, 4, 5 ] ], [ [ 11, 12, 13, 14 ] ], [ [ 8, 7, 12, 11 ] ] ] }, "roof_props": null, "wall_color": "sand", "type": "yes", "landmark": null, "footprint_source": "osm", "source_updated": null, "is_part": false, "parent": null, "hidden": false, "addr": "1604 Roane Street", "wikidata": null, "website": null, "zoning": "R-53", "lidar_p90": 6.13, "ground_z": 45.91 }, "geometry": { "type": "Polygon", "coordinates": [ [ [ 284365.9, 4159556.0 ], [ 284367.25, 4159555.97 ], [ 284367.16, 4159551.42 ], [ 284366.1, 4159551.45 ], [ 284366.07, 4159549.49 ], [ 284358.33, 4159549.63 ], [ 284358.51, 4159558.72 ], [ 284365.95, 4159558.57 ], [ 284365.9, 4159556.0 ] ] ] } },
{ "type": "Feature", "properties": { "id": "osm:way/755575778", "name": null, "height": 4.52, "min_height": 0.0, "levels": null, "height_source": "lidar", "roof_shape": "flat", "roof_height": 1.82, "roof_azimuth": null, "roof_source": "lod2", "roof_color": "roof_flat", "roof_color_source": "ortho", "lod2_roof": { "v": [ [ 284336.18, 4159531.77, 0.0 ], [ 284336.15, 4159530.89, 0.0 ], [ 284343.67, 4159530.59, 0.0 ], [ 284345.32, 4159578.02, 0.0 ], [ 284339.46, 4159530.75, 0.0 ], [ 284339.06, 4159532.83, 1.18 ], [ 284339.06, 4159532.83, 1.1 ], [ 284339.18, 4159532.81, 1.15 ], [ 284339.05, 4159532.77, 1.18 ], [ 284339.05, 4159532.77, 0.99 ], [ 284339.46, 4159530.75, 1.04 ], [ 284339.52, 4159532.62, 1.05 ], [ 284341.17, 4159586.84, 1.82 ], [ 284337.95, 4159586.97, 0.82 ], [ 284337.68, 4159578.46, 0.2 ], [ 284337.68, 4159578.46, 0.81 ], [ 284340.91, 4159578.28, 1.81 ], [ 284340.91, 4159578.28, 1.18 ], [ 284345.32, 4159578.02, 0.43 ], [ 284336.18, 4159531.77, 0.24 ], [ 284340.77, 4159578.28, 1.22 ], [ 284340.77, 4159578.28, 1.77 ], [ 284345.62, 4159586.66, 0.42 ] ], "f": [ [ [ 9, 0, 1, 4, 11, 7, 6 ] ], [ [ 14, 19, 8, 5, 20 ] ], [ [ 17, 20, 5, 7, 11, 10, 2, 3 ] ], [ [ 16, 12, 13, 15, 21 ] ], [ [ 18, 22, 12, 16 ] ], [ [ 5, 6, 7 ] ], [ [ 8, 9, 6, 5 ] ], [ [ 4, 10, 11 ] ], [ [ 16, 17, 3, 18 ] ], [ [ 19, 0, 9, 8 ] ], [ [ 15, 14, 20, 21 ] ], [ [ 21, 20, 17, 16 ] ] ] }, "roof_props": null, "wall_color": "sand", "type": "yes", "landmark": null, "footprint_source": "osm", "source_updated": null, "is_part": false, "parent": null, "hidden": false, "addr": null, "wikidata": null, "website": null, "zoning": "M-1", "lidar_p90": 4.98, "ground_z": 46.76 }, "geometry": { "type": "Polygon", "coordinates": [ [ [ 284343.67, 4159530.59 ], [ 284336.15, 4159530.89 ], [ 284337.95, 4159586.97 ], [ 284345.62, 4159586.66 ], [ 284343.67, 4159530.59 ] ] ] } },
{ "type": "Feature", "properties": { "id": "osm:way/755575739", "name": null, "height": 4.88, "min_height": 0.0, "levels": null, "height_source": "lidar", "roof_shape": "gable", "roof_height": 1.77, "roof_azimuth": 1.8, "roof_source": "lod2", "roof_color": "slate", "roof_color_source": "heuristic", "lod2_roof": { "v": [ [ 284359.14, 4159568.95, 0.58 ], [ 284361.95, 4159568.7, 0.0 ], [ 284361.95, 4159568.7, 1.75 ], [ 284359.34, 4159575.24, 0.58 ], [ 284362.01, 4159566.68, 0.0 ], [ 284365.64, 4159566.57, 0.0 ], [ 284362.01, 4159568.69, 0.0 ], [ 284362.01, 4159568.69, 1.77 ], [ 284365.67, 4159568.37, 0.0 ], [ 284365.67, 4159568.37, 0.3 ], [ 284365.8, 4159575.05, 0.33 ], [ 284362.22, 4159575.16, 1.77 ] ], "f": [ [ [ 8, 6, 1, 4, 5 ] ], [ [ 10, 11, 7, 9 ] ], [ [ 11, 3, 0, 2, 7 ] ], [ [ 2, 1, 6, 7 ] ], [ [ 7, 6, 8, 9 ] ] ] }, "roof_props": null, "wall_color": "sand", "type": "yes", "landmark": null, "footprint_source": "osm", "source_updated": null, "is_part": false, "parent": null, "hidden": false, "addr": "1608 Roane Street", "wikidata": null, "website": null, "zoning": "R-53", "lidar_p90": 6.22, "ground_z": 46.38 }, "geometry": { "type": "Polygon", "coordinates": [ [ [ 284359.07, 4159566.77 ], [ 284359.34, 4159575.25 ], [ 284366.58, 4159575.02 ], [ 284366.31, 4159566.55 ], [ 284359.07, 4159566.77 ] ] ] } },
{ "type": "Feature", "properties": { "id": "osm:way/755575840", "name": null, "height": 4.79, "min_height": 0.0, "levels": null, "height_source": "lidar", "roof_shape": "gable", "roof_height": 1.73, "roof_azimuth": 2.1, "roof_source": "lod2", "roof_color": "roof_flat", "roof_color_source": "ortho", "lod2_roof": { "v": [ [ 284359.89, 4159592.62, 0.55 ], [ 284359.64, 4159585.78, 0.54 ], [ 284362.63, 4159585.72, 1.73 ], [ 284366.35, 4159585.65, 0.28 ], [ 284362.86, 4159592.51, 1.73 ], [ 284366.42, 4159587.48, 0.28 ], [ 284366.54, 4159587.53, 0.0 ], [ 284366.54, 4159587.53, 0.23 ], [ 284366.46, 4159588.47, 0.0 ], [ 284366.46, 4159588.47, 0.27 ], [ 284367.64, 4159587.9, 0.0 ], [ 284367.2, 4159590.0, 0.0 ], [ 284367.44, 4159592.33, 0.0 ], [ 284366.61, 4159592.37, 0.0 ], [ 284367.36, 4159590.08, 0.0 ], [ 284366.61, 4159592.37, 0.26 ] ], "f": [ [ [ 2, 4, 0, 1 ] ], [ [ 9, 15, 4, 2, 3, 5, 7 ] ], [ [ 13, 8, 6, 10, 11, 14, 12 ] ], [ [ 7, 6, 8, 9 ] ], [ [ 9, 8, 13, 15 ] ] ] }, "roof_props": null, "wall_color": "terracotta", "type": "yes", "landmark": null, "footprint_source": "osm", "source_updated": null, "is_part": false, "parent": null, "hidden": false, "addr": "1612 Roane Street", "wikidata": null, "website": null, "zoning": "R-53", "lidar_p90": 6.15, "ground_z": 46.21 }, "geometry": { "type": "Polygon", "coordinates": [ [ [ 284367.35, 4159589.81 ], [ 284368.67, 4159589.76 ], [ 284368.53, 4159585.9 ], [ 284367.39, 4159585.94 ], [ 284367.31, 4159583.74 ], [ 284359.58, 4159584.03 ], [ 284359.89, 4159592.62 ], [ 284367.44, 4159592.34 ], [ 284367.35, 4159589.81 ] ] ] } },
{ "type": "Feature", "properties": { "id": "osm:way/755575757", "name": null, "height": 5.16, "min_height": 0.0, "levels": null, "height_source": "lidar", "roof_shape": "flat", "roof_height": 2.08, "roof_azimuth": null, "roof_source": "lod2", "roof_color": "concrete", "roof_color_source": "ortho", "lod2_roof": { "v": [ [ 284289.62, 4159591.15, 1.34 ], [ 284289.62, 4159591.15, 0.0 ], [ 284289.69, 4159592.52, 0.0 ], [ 284289.69, 4159592.52, 1.2 ], [ 284289.53, 4159589.36, 0.0 ], [ 284274.71, 4159620.81, 0.0 ], [ 284273.54, 4159592.02, 0.0 ], [ 284273.54, 4159592.02, 0.0 ], [ 284273.44, 4159589.47, 0.0 ], [ 284289.21, 4159591.17, 2.08 ], [ 284289.21, 4159591.17, 0.0 ], [ 284289.21, 4159591.17, 0.0 ], [ 284290.82, 4159614.73, 0.0 ], [ 284290.82, 4159614.73, 0.0 ], [ 284289.84, 4159613.2, 0.72 ], [ 284289.84, 4159613.2, 0.0 ], [ 284290.24, 4159613.82, 0.0 ], [ 284289.98, 4159620.35, 0.39 ], [ 284289.98, 4159620.35, 0.0 ], [ 284291.11, 4159620.31, 0.0 ], [ 284289.2, 4159592.51, 0.0 ], [ 284289.2, 4159592.51, 2.08 ] ], "f": [ [ [ 19, 17, 14, 16, 12 ] ], [ [ 21, 9, 0, 3 ] ], [ [ 7, 10, 20, 2, 13, 16, 15, 18, 5 ] ], [ [ 8, 4, 1, 11, 6 ] ], [ [ 9, 10, 11, 1, 0 ] ], [ [ 14, 15, 16 ] ], [ [ 13, 12, 16 ] ], [ [ 17, 18, 15, 14 ] ], [ [ 3, 2, 20, 21 ] ], [ [ 21, 20, 10, 9 ] ], [ [ 7, 6, 11, 10 ] ] ] }, "roof_props": null, "wall_color": "cream", "type": "yes", "landmark": null, "footprint_source": "osm", "source_updated": null, "is_part": false, "parent": null, "hidden": false, "addr": "1601 Chamberlayne Parkway", "wikidata": null, "website": null, "zoning": "M-1", "lidar_p90": 5.41, "ground_z": 47.21 }, "geometry": { "type": "Polygon", "coordinates": [ [ [ 284273.44, 4159589.47 ], [ 284274.71, 4159620.81 ], [ 284291.11, 4159620.31 ], [ 284289.53, 4159589.36 ], [ 284273.44, 4159589.47 ] ] ] } },
{ "type": "Feature", "properties": { "id": "osm:way/755575811", "name": null, "height": 4.89, "min_height": 0.0, "levels": null, "height_source": "lidar", "roof_shape": "skillion", "roof_height": 1.61, "roof_azimuth": 104.0, "roof_source": "lod2", "roof_color": "roof_flat", "roof_color_source": "ortho", "lod2_roof": { "v": [ [ 284352.48, 4159610.05, 0.78 ], [ 284352.16, 4159607.99, 1.6 ], [ 284359.89, 4159606.89, 1.61 ], [ 284359.89, 4159606.89, 0.0 ], [ 284360.06, 4159608.87, 0.0 ], [ 284360.06, 4159608.87, 0.82 ], [ 284360.63, 4159606.78, 0.0 ], [ 284360.94, 4159608.74, 0.0 ], [ 284359.57, 4159603.25, 0.23 ], [ 284351.63, 4159604.57, 0.29 ] ], "f": [ [ [ 1, 9, 8, 2 ] ], [ [ 3, 6, 7, 4 ] ], [ [ 5, 0, 1, 2 ] ], [ [ 2, 3, 4, 5 ] ] ] }, "roof_props": null, "wall_color": "sand", "type": "yes", "landmark": null, "footprint_source": "osm", "source_updated": null, "is_part": false, "parent": null, "hidden": false, "addr": "603 West Fells Street", "wikidata": null, "website": null, "zoning": "R-53", "lidar_p90": 6.17, "ground_z": 46.48 }, "geometry": { "type": "Polygon", "coordinates": [ [ [ 284361.75, 4159603.43 ], [ 284360.35, 4159603.66 ], [ 284359.96, 4159601.19 ], [ 284351.32, 4159602.54 ], [ 284352.48, 4159610.05 ], [ 284360.94, 4159608.74 ], [ 284360.58, 4159606.42 ], [ 284362.18, 4159606.17 ], [ 284361.75, 4159603.43 ] ] ] } },
{ "type": "Feature", "properties": { "id": "osm:way/755575771", "name": null, "height": 6.27, "min_height": 0.0, "levels": null, "height_source": "lidar", "roof_shape": "flat", "roof_height": 1.94, "roof_azimuth": null, "roof_source": "lod2", "roof_color": "concrete", "roof_color_source": "ortho", "lod2_roof": { "v": [ [ 284320.46, 4159619.08, 0.0 ], [ 284320.61, 4159621.68, 0.0 ], [ 284329.49, 4159619.03, 0.0 ], [ 284273.45, 4159618.76, 0.0 ], [ 284274.71, 4159618.74, 0.0 ], [ 284274.71, 4159620.81, 0.0 ], [ 284300.22, 4159624.45, 0.0 ], [ 284291.11, 4159620.31, 0.0 ], [ 284290.42, 4159606.9, 0.0 ], [ 284275.0, 4159625.51, 0.0 ], [ 284275.0, 4159625.51, 0.0 ], [ 284275.11, 4159622.8, 0.0 ], [ 284275.11, 4159622.8, 0.0 ], [ 284273.91, 4159625.56, 0.0 ], [ 284295.35, 4159623.07, 0.19 ], [ 284295.35, 4159623.07, 0.0 ], [ 284296.81, 4159622.69, 0.0 ], [ 284296.81, 4159622.69, 0.22 ], [ 284329.55, 4159605.42, 1.11 ], [ 284330.18, 4159619.02, 1.89 ], [ 284329.49, 4159619.03, 1.94 ], [ 284275.19, 4159620.79, 0.0 ], [ 284303.97, 4159606.41, 1.15 ], [ 284303.97, 4159606.41, 0.0 ], [ 284290.42, 4159606.9, 1.15 ], [ 284289.88, 4159620.35, 0.0 ], [ 284298.11, 4159624.54, 0.0 ], [ 284298.11, 4159624.54, 0.21 ], [ 284296.04, 4159624.63, 0.0 ], [ 284296.04, 4159624.63, 0.17 ], [ 284289.88, 4159620.35, 0.0 ], [ 284289.91, 4159621.98, 0.0 ], [ 284289.91, 4159621.98, 0.0 ], [ 284289.6, 4159590.75, 1.16 ], [ 284328.35, 4159591.25, 1.15 ], [ 284326.73, 4159605.54, 1.14 ], [ 284326.73, 4159605.54, 0.0 ], [ 284304.66, 4159606.23, 0.0 ], [ 284304.66, 4159606.23, 1.15 ], [ 284328.93, 4159605.45, 1.15 ], [ 284328.93, 4159605.45, 1.14 ], [ 284328.93, 4159605.45, 0.0 ], [ 284275.46, 4159622.19, 0.0 ], [ 284275.46, 4159622.19, 0.0 ], [ 284275.11, 4159622.8, 0.0 ], [ 284275.19, 4159620.79, 0.0 ] ], "f": [ [ [ 29, 14, 17, 27 ] ], [ [ 20, 39, 18, 19 ] ], [ [ 21, 11, 10, 13, 3, 4, 5 ] ], [ [ 40, 35, 38, 22, 24, 33, 34 ] ], [ [ 36, 41, 2, 0, 1, 6, 26, 16, 15, 28, 9, 12, 42, 31, 25, 7, 8, 23, 37 ] ], [ [ 44, 45, 30, 32, 43 ] ], [ [ 9, 10, 11, 12 ] ], [ [ 14, 15, 16, 17 ] ], [ [ 22, 23, 8, 24 ] ], [ [ 17, 16, 26, 27 ] ], [ [ 30, 25, 31, 32 ] ], [ [ 35, 36, 37, 38 ] ], [ [ 29, 28, 15, 14 ] ], [ [ 38, 37, 23, 22 ] ], [ [ 32, 31, 42, 43 ] ], [ [ 43, 42, 12, 44 ] ], [ [ 20, 2, 41, 40, 39 ] ], [ [ 40, 41, 36, 35 ] ], [ [ 44, 12, 11, 21, 45 ] ] ] }, "roof_props": null, "wall_color": "terracotta", "type": "yes", "landmark": null, "footprint_source": "osm", "source_updated": null, "is_part": false, "parent": null, "hidden": false, "addr": "1611 Chamberlayne Parkway", "wikidata": null, "website": null, "zoning": "M-1", "lidar_p90": 6.71, "ground_z": 46.86 }, "geometry": { "type": "Polygon", "coordinates": [ [ [ 284328.72, 4159587.82 ], [ 284289.53, 4159589.36 ], [ 284291.11, 4159620.31 ], [ 284274.71, 4159620.81 ], [ 284274.71, 4159618.74 ], [ 284273.45, 4159618.76 ], [ 284273.91, 4159625.56 ], [ 284300.22, 4159624.45 ], [ 284320.61, 4159621.68 ], [ 284320.46, 4159619.09 ], [ 284330.18, 4159619.02 ], [ 284328.72, 4159587.82 ] ] ] } },
{ "type": "Feature", "properties": { "id": "osm:way/755575724", "name": null, "height": 7.16, "min_height": 0.0, "levels": null, "height_source": "lidar", "roof_shape": "flat", "roof_height": 0.51, "roof_azimuth": null, "roof_source": "lod2", "roof_color": "roof_flat", "roof_color_source": "ortho", "lod2_roof": { "v": [ [ 284336.3, 4159618.97, 0.0 ], [ 284330.18, 4159619.02, 0.02 ], [ 284336.2, 4159617.35, 0.14 ], [ 284330.07, 4159616.84, 0.21 ], [ 284341.11, 4159616.13, 0.23 ], [ 284341.17, 4159617.21, 0.14 ], [ 284340.5, 4159605.36, 0.19 ], [ 284341.11, 4159616.13, 0.5 ], [ 284330.07, 4159616.84, 0.51 ], [ 284329.47, 4159605.17, 0.18 ] ], "f": [ [ [ 3, 4, 5, 2, 0, 1 ] ], [ [ 9, 6, 7, 8 ] ], [ [ 7, 4, 3, 8 ] ] ] }, "roof_props": null, "wall_color": "sand", "type": "yes", "landmark": null, "footprint_source": "osm", "source_updated": null, "is_part": false, "parent": null, "hidden": false, "addr": null, "wikidata": null, "website": null, "zoning": "M-1", "lidar_p90": 7.77, "ground_z": 46.83 }, "geometry": { "type": "Polygon", "coordinates": [ [ [ 284330.18, 4159619.02 ], [ 284336.3, 4159618.97 ], [ 284336.2, 4159617.36 ], [ 284341.91, 4159617.18 ], [ 284341.42, 4159603.03 ], [ 284329.39, 4159603.65 ], [ 284330.18, 4159619.02 ] ] ] } },
{ "type": "Feature", "properties": { "id": "osm:way/755575820", "name": null, "height": 5.09, "min_height": 0.0, "levels": null, "height_source": "lidar", "roof_shape": "skillion", "roof_height": 1.37, "roof_azimuth": 178.3, "roof_source": "lod2", "roof_color": "slate", "roof_color_source": "heuristic", "lod2_roof": { "v": [ [ 284495.24, 4159548.72, 0.08 ], [ 284495.13, 4159542.15, 0.1 ], [ 284498.29, 4159542.1, 1.37 ], [ 284502.66, 4159542.03, 0.0 ], [ 284502.77, 4159548.59, 0.0 ], [ 284498.37, 4159548.66, 1.34 ] ], "f": [ [ [ 5, 0, 1, 2 ] ], [ [ 2, 3, 4, 5 ] ] ] }, "roof_props": null, "wall_color": "brick", "type": "yes", "landmark": null, "footprint_source": "osm", "source_updated": null, "is_part": false, "parent": null, "hidden": false, "addr": "1614 Tyler Street", "wikidata": null, "website": null, "zoning": "R-53", "lidar_p90": 6.03, "ground_z": 46.94 }, "geometry": { "type": "Polygon", "coordinates": [ [ [ 284495.1, 4159540.09 ], [ 284495.24, 4159548.72 ], [ 284502.77, 4159548.59 ], [ 284502.63, 4159539.96 ], [ 284495.1, 4159540.09 ] ] ] } },
{ "type": "Feature", "properties": { "id": "osm:way/755575846", "name": null, "height": 4.96, "min_height": 0.0, "levels": null, "height_source": "lidar", "roof_shape": "gable", "roof_height": 1.56, "roof_azimuth": 1.9, "roof_source": "lod2", "roof_color": "slate", "roof_color_source": "ortho", "lod2_roof": { "v": [ [ 284466.03, 4159552.21, 0.33 ], [ 284465.8, 4159545.29, 0.32 ], [ 284468.84, 4159545.29, 1.56 ], [ 284473.17, 4159545.29, 0.0 ], [ 284473.39, 4159551.96, 0.0 ], [ 284469.02, 4159552.11, 1.55 ] ], "f": [ [ [ 4, 5, 2, 3 ] ], [ [ 5, 0, 1, 2 ] ] ] }, "roof_props": null, "wall_color": "brick", "type": "yes", "landmark": null, "footprint_source": "osm", "source_updated": null, "is_part": false, "parent": null, "hidden": false, "addr": "1611 Brookfield Street", "wikidata": null, "website": null, "zoning": "R-53", "lidar_p90": 6.22, "ground_z": 46.51 }, "geometry": { "type": "Polygon", "coordinates": [ [ [ 284465.75, 4159543.78 ], [ 284466.03, 4159552.21 ], [ 284473.39, 4159551.96 ], [ 284473.11, 4159543.53 ], [ 284465.75, 4159543.78 ] ] ] } },
{ "type": "Feature", "properties": { "id": "osm:way/755575839", "name": null, "height": 2.91, "min_height": 0.0, "levels": null, "height_source": "lidar", "roof_shape": "gable", "roof_height": 3.57, "roof_azimuth": 1.9, "roof_source": "lod2", "roof_color": "concrete", "roof_color_source": "ortho", "lod2_roof": { "v": [ [ 284437.23, 4159554.18, 0.0 ], [ 284436.43, 4159554.21, 0.16 ], [ 284437.2, 4159551.63, 0.0 ], [ 284429.2, 4159556.39, 2.37 ], [ 284428.98, 4159549.6, 2.32 ], [ 284436.49, 4159556.16, 1.9 ], [ 284432.14, 4159556.3, 3.57 ], [ 284436.48, 4159555.83, 1.9 ], [ 284436.48, 4159555.83, 0.17 ], [ 284436.17, 4159555.85, 2.02 ], [ 284436.17, 4159555.85, 0.3 ], [ 284432.07, 4159549.59, 3.57 ], [ 284435.96, 4159549.57, 2.08 ], [ 284436.03, 4159551.6, 0.28 ], [ 284436.03, 4159551.6, 2.06 ] ], "f": [ [ [ 14, 9, 7, 5, 6, 11, 12 ] ], [ [ 4, 11, 6, 3 ] ], [ [ 10, 13, 2, 0, 1, 8 ] ], [ [ 9, 10, 8, 7 ] ], [ [ 14, 13, 10, 9 ] ] ] }, "roof_props": null, "wall_color": "concrete", "type": "yes", "landmark": null, "footprint_source": "osm", "source_updated": null, "is_part": false, "parent": null, "hidden": false, "addr": "1604 Brookfield Street", "wikidata": null, "website": null, "zoning": "R-53", "lidar_p90": 6.15, "ground_z": 45.54 }, "geometry": { "type": "Polygon", "coordinates": [ [ [ 284436.43, 4159554.21 ], [ 284437.9, 4159554.16 ], [ 284437.74, 4159549.41 ], [ 284436.56, 4159549.45 ], [ 284436.5, 4159547.49 ], [ 284428.92, 4159547.74 ], [ 284429.2, 4159556.4 ], [ 284436.49, 4159556.16 ], [ 284436.43, 4159554.21 ] ] ] } },
{ "type": "Feature", "properties": { "id": "osm:way/755575718", "name": null, "height": 5.66, "min_height": 0.0, "levels": null, "height_source": "lidar", "roof_shape": "flat", "roof_height": 0.89, "roof_azimuth": null, "roof_source": "lod2", "roof_color": "roof_flat", "roof_color_source": "ortho", "lod2_roof": { "v": [ [ 284398.27, 4159551.99, 0.89 ], [ 284398.27, 4159551.99, 0.0 ], [ 284399.01, 4159552.06, 0.0 ], [ 284399.01, 4159552.06, 0.6 ], [ 284395.41, 4159558.68, 0.0 ], [ 284395.29, 4159551.7, 0.0 ], [ 284395.29, 4159551.7, 0.0 ], [ 284401.46, 4159558.58, 0.0 ], [ 284398.39, 4159558.63, 0.88 ], [ 284395.23, 4159548.31, 0.0 ], [ 284398.62, 4159549.12, 0.0 ], [ 284402.37, 4159552.38, 0.0 ], [ 284395.88, 4159551.76, 0.0 ], [ 284395.88, 4159551.76, 0.0 ], [ 284395.79, 4159551.62, 0.0 ], [ 284395.79, 4159551.62, 0.0 ], [ 284395.49, 4159551.72, 0.0 ], [ 284395.49, 4159551.72, 0.0 ] ], "f": [ [ [ 17, 5, 9, 10, 2, 1, 13, 15 ] ], [ [ 8, 0, 3, 11, 7 ] ], [ [ 6, 16, 14, 12, 0, 8, 4 ] ], [ [ 0, 1, 2, 3 ] ], [ [ 12, 13, 1, 0 ] ], [ [ 14, 15, 13, 12 ] ], [ [ 16, 17, 15, 14 ] ], [ [ 6, 5, 17, 16 ] ] ] }, "roof_props": null, "wall_color": "terracotta", "type": "yes", "landmark": null, "footprint_source": "osm", "source_updated": null, "is_part": false, "parent": null, "hidden": false, "addr": "1605 Roane Street", "wikidata": null, "website": null, "zoning": "R-53", "lidar_p90": 6.24, "ground_z": 45.15 }, "geometry": { "type": "Polygon", "coordinates": [ [ [ 284395.41, 4159558.68 ], [ 284402.84, 4159558.56 ], [ 284402.69, 4159549.93 ], [ 284399.54, 4159549.98 ], [ 284399.5, 4159547.26 ], [ 284395.22, 4159547.34 ], [ 284395.41, 4159558.68 ] ] ] } },
{ "type": "Feature", "properties": { "id": "osm:way/755575763", "name": null, "height": 5.89, "min_height": 0.0, "levels": null, "height_source": "lidar", "roof_shape": "flat", "roof_height": 0.57, "roof_azimuth": null, "roof_source": "lod2", "roof_color": "roof_flat", "roof_color_source": "ortho", "lod2_roof": { "v": [ [ 284465.51, 4159564.83, 0.0 ], [ 284468.75, 4159564.77, 0.57 ], [ 284465.82, 4159571.62, 0.0 ], [ 284468.9, 4159571.48, 0.55 ], [ 284472.59, 4159564.7, 0.0 ], [ 284472.65, 4159571.31, 0.0 ] ], "f": [ [ [ 1, 3, 2, 0 ] ], [ [ 5, 3, 1, 4 ] ] ] }, "roof_props": null, "wall_color": "sand", "type": "yes", "landmark": null, "footprint_source": "osm", "source_updated": null, "is_part": false, "parent": null, "hidden": false, "addr": "1615 Brookfield Street", "wikidata": null, "website": null, "zoning": "R-53", "lidar_p90": 6.23, "ground_z": 45.38 }, "geometry": { "type": "Polygon", "coordinates": [ [ [ 284472.97, 4159562.81 ], [ 284465.43, 4159563.15 ], [ 284465.82, 4159571.62 ], [ 284473.36, 4159571.28 ], [ 284472.97, 4159562.81 ] ] ] } },
{ "type": "Feature", "properties": { "id": "osm:way/755575854", "name": null, "height": 5.74, "min_height": 0.0, "levels": null, "height_source": "lidar", "roof_shape": "flat", "roof_height": 0.71, "roof_azimuth": null, "roof_source": "lod2", "roof_color": "roof_flat", "roof_color_source": "ortho", "lod2_roof": { "v": [ [ 284432.32, 4159568.88, 0.71 ], [ 284433.3, 4159568.95, 0.34 ], [ 284432.38, 4159575.9, 0.7 ], [ 284429.34, 4159575.9, 0.0 ], [ 284436.45, 4159575.9, 0.0 ], [ 284435.76, 4159568.03, 0.0 ], [ 284429.33, 4159568.69, 0.0 ] ], "f": [ [ [ 3, 6, 0, 2 ] ], [ [ 1, 5, 4, 2, 0 ] ] ] }, "roof_props": null, "wall_color": "brick", "type": "yes", "landmark": null, "footprint_source": "osm", "source_updated": null, "is_part": false, "parent": null, "hidden": false, "addr": "1608 Brookfield Street", "wikidata": null, "website": null, "zoning": "R-53", "lidar_p90": 6.22, "ground_z": 44.91 }, "geometry": { "type": "Polygon", "coordinates": [ [ [ 284429.33, 4159567.05 ], [ 284429.34, 4159575.9 ], [ 284436.86, 4159575.9 ], [ 284436.85, 4159567.05 ], [ 284429.33, 4159567.05 ] ] ] } },
{ "type": "Feature", "properties": { "id": "osm:way/755575870", "name": null, "height": 4.94, "min_height": 0.0, "levels": null, "height_source": "lidar", "roof_shape": "skillion", "roof_height": 1.42, "roof_azimuth": 18.0, "roof_source": "lod2", "roof_color": "roof_flat", "roof_color_source": "ortho", "lod2_roof": { "v": [ [ 284399.07, 4159569.36, 1.42 ], [ 284402.58, 4159568.91, 0.04 ], [ 284402.71, 4159576.16, 0.0 ], [ 284399.1, 4159576.16, 1.42 ], [ 284396.01, 4159576.16, 0.17 ], [ 284396.01, 4159569.75, 0.18 ] ], "f": [ [ [ 5, 0, 3, 4 ] ], [ [ 1, 2, 3, 0 ] ] ] }, "roof_props": null, "wall_color": "brick", "type": "yes", "landmark": null, "footprint_source": "osm", "source_updated": null, "is_part": false, "parent": null, "hidden": false, "addr": "1609 Roane Street", "wikidata": null, "website": null, "zoning": "R-53", "lidar_p90": 6.22, "ground_z": 45.17 }, "geometry": { "type": "Polygon", "coordinates": [ [ [ 284396.01, 4159567.53 ], [ 284396.01, 4159576.16 ], [ 284403.5, 4159576.16 ], [ 284403.51, 4159567.53 ], [ 284396.01, 4159567.53 ] ] ] } },
{ "type": "Feature", "properties": { "id": "osm:way/755575802", "name": null, "height": 4.91, "min_height": 0.0, "levels": null, "height_source": "lidar", "roof_shape": "skillion", "roof_height": 1.47, "roof_azimuth": 14.8, "roof_source": "lod2", "roof_color": "roof_flat", "roof_color_source": "ortho", "lod2_roof": { "v": [ [ 284465.65, 4159582.57, 0.36 ], [ 284468.54, 4159581.98, 1.47 ], [ 284466.62, 4159589.07, 0.34 ], [ 284469.49, 4159588.64, 1.43 ], [ 284468.51, 4159581.78, 1.47 ], [ 284472.09, 4159581.57, 0.05 ], [ 284473.43, 4159588.05, 0.0 ] ], "f": [ [ [ 3, 2, 0, 1 ] ], [ [ 5, 6, 3, 1, 4 ] ] ] }, "roof_props": null, "wall_color": "sand", "type": "yes", "landmark": null, "footprint_source": "osm", "source_updated": null, "is_part": false, "parent": null, "hidden": false, "addr": "1619 Brookfield Street", "wikidata": null, "website": null, "zoning": "R-53", "lidar_p90": 6.2, "ground_z": 44.98 }, "geometry": { "type": "Polygon", "coordinates": [ [ [ 284472.71, 4159579.56 ], [ 284465.36, 4159580.66 ], [ 284466.62, 4159589.07 ], [ 284473.96, 4159587.97 ], [ 284472.71, 4159579.56 ] ] ] } },
{ "type": "Feature", "properties": { "id": "osm:way/755575836", "name": null, "height": 4.89, "min_height": 0.0, "levels": null, "height_source": "lidar", "roof_shape": "skillion", "roof_height": 1.56, "roof_azimuth": 101.4, "roof_source": "lod2", "roof_color": "roof_flat", "roof_color_source": "ortho", "lod2_roof": { "v": [ [ 284484.42, 4159585.13, 0.0 ], [ 284492.72, 4159585.18, 0.39 ], [ 284492.92, 4159588.1, 1.56 ], [ 284493.09, 4159590.39, 0.71 ], [ 284485.19, 4159591.36, 0.74 ], [ 284484.92, 4159589.22, 1.55 ] ], "f": [ [ [ 5, 0, 1, 2 ] ], [ [ 2, 3, 4, 5 ] ] ] }, "roof_props": null, "wall_color": "brick", "type": "yes", "landmark": null, "footprint_source": "osm", "source_updated": null, "is_part": false, "parent": null, "hidden": false, "addr": "509 West Fells Street", "wikidata": null, "website": null, "zoning": "R-53", "lidar_p90": 6.24, "ground_z": 45.18 }, "geometry": { "type": "Polygon", "coordinates": [ [ [ 284492.97, 4159582.82 ], [ 284484.27, 4159583.89 ], [ 284485.19, 4159591.36 ], [ 284493.89, 4159590.29 ], [ 284492.97, 4159582.82 ] ] ] } },
{ "type": "Feature", "properties": { "id": "osm:way/755575742", "name": null, "height": 4.99, "min_height": 0.0, "levels": null, "height_source": "lidar", "roof_shape": "skillion", "roof_height": 1.4, "roof_azimuth": 10.3, "roof_source": "lod2", "roof_color": "concrete", "roof_color_source": "ortho", "lod2_roof": { "v": [ [ 284434.43, 4159595.55, 1.36 ], [ 284431.81, 4159595.93, 0.32 ], [ 284438.91, 4159594.9, 0.0 ], [ 284433.57, 4159588.68, 1.39 ], [ 284437.86, 4159587.63, 0.0 ], [ 284430.57, 4159587.35, 0.29 ], [ 284433.35, 4159586.95, 1.4 ] ], "f": [ [ [ 4, 2, 0, 3 ] ], [ [ 6, 3, 0, 1, 5 ] ] ] }, "roof_props": null, "wall_color": "concrete", "type": "yes", "landmark": null, "footprint_source": "osm", "source_updated": null, "is_part": false, "parent": null, "hidden": false, "addr": "1612 Brookfield Street", "wikidata": null, "website": null, "zoning": "R-53", "lidar_p90": 6.27, "ground_z": 44.38 }, "geometry": { "type": "Polygon", "coordinates": [ [ [ 284437.67, 4159586.34 ], [ 284430.57, 4159587.35 ], [ 284431.81, 4159595.93 ], [ 284438.91, 4159594.9 ], [ 284437.67, 4159586.34 ] ] ] } },
{ "type": "Feature", "properties": { "id": "osm:way/755575783", "name": null, "height": 4.94, "min_height": 0.0, "levels": null, "height_source": "lidar", "roof_shape": "skillion", "roof_height": 1.54, "roof_azimuth": 51.4, "roof_source": "lod2", "roof_color": "concrete", "roof_color_source": "ortho", "lod2_roof": { "v": [ [ 284395.1, 4159596.77, 0.87 ], [ 284396.09, 4159595.47, 1.54 ], [ 284396.52, 4159595.79, 1.54 ], [ 284402.97, 4159600.57, 1.53 ], [ 284401.93, 4159601.94, 0.81 ], [ 284405.32, 4159597.47, 0.0 ], [ 284398.63, 4159593.05, 0.19 ] ], "f": [ [ [ 2, 3, 4, 0, 1 ] ], [ [ 2, 6, 5, 3 ] ] ] }, "roof_props": null, "wall_color": "brick", "type": "yes", "landmark": null, "footprint_source": "osm", "source_updated": null, "is_part": false, "parent": null, "hidden": false, "addr": "1613 Roane Street", "wikidata": null, "website": null, "zoning": "R-53", "lidar_p90": 6.27, "ground_z": 44.91 }, "geometry": { "type": "Polygon", "coordinates": [ [ [ 284399.45, 4159591.03 ], [ 284395.1, 4159596.77 ], [ 284401.93, 4159601.94 ], [ 284406.28, 4159596.2 ], [ 284399.45, 4159591.03 ] ] ] } },
{ "type": "Feature", "properties": { "id": "osm:way/755575719", "name": null, "height": 4.98, "min_height": 0.0, "levels": null, "height_source": "lidar", "roof_shape": "skillion", "roof_height": 1.48, "roof_azimuth": 95.6, "roof_source": "lod2", "roof_color": "roof_flat", "roof_color_source": "ortho", "lod2_roof": { "v": [ [ 284419.95, 4159601.56, 0.16 ], [ 284415.53, 4159602.17, 0.18 ], [ 284415.37, 4159600.96, 0.66 ], [ 284413.73, 4159601.18, 0.67 ], [ 284413.46, 4159599.19, 1.48 ], [ 284412.97, 4159595.62, 0.0 ], [ 284420.74, 4159594.75, 0.12 ], [ 284421.02, 4159598.08, 1.48 ], [ 284419.79, 4159600.36, 0.65 ], [ 284421.19, 4159600.16, 0.65 ] ], "f": [ [ [ 6, 7, 4, 5 ] ], [ [ 7, 9, 8, 0, 1, 2, 3, 4 ] ] ] }, "roof_props": null, "wall_color": "concrete", "type": "yes", "landmark": null, "footprint_source": "osm", "source_updated": null, "is_part": false, "parent": null, "hidden": false, "addr": "517 West Fells Street", "wikidata": null, "website": null, "zoning": "R-53", "lidar_p90": 6.29, "ground_z": 44.69 }, "geometry": { "type": "Polygon", "coordinates": [ [ [ 284422.26, 4159600.02 ], [ 284421.25, 4159592.59 ], [ 284412.72, 4159593.76 ], [ 284413.73, 4159601.18 ], [ 284415.37, 4159600.96 ], [ 284415.53, 4159602.17 ], [ 284419.95, 4159601.56 ], [ 284419.79, 4159600.36 ], [ 284422.26, 4159600.02 ] ] ] } },
{ "type": "Feature", "properties": { "id": "osm:way/755575751", "name": null, "height": 2.91, "min_height": 0.0, "levels": null, "height_source": "lidar", "roof_shape": "gable", "roof_height": 3.64, "roof_azimuth": 99.1, "roof_source": "lod2", "roof_color": "roof_flat", "roof_color_source": "ortho", "lod2_roof": { "v": [ [ 284489.16, 4159621.32, 0.4 ], [ 284488.92, 4159619.82, 0.0 ], [ 284490.62, 4159619.54, 0.0 ], [ 284497.98, 4159625.7, 2.79 ], [ 284490.07, 4159626.96, 2.8 ], [ 284489.76, 4159625.0, 3.61 ], [ 284497.61, 4159623.67, 3.63 ], [ 284495.05, 4159620.38, 2.16 ], [ 284495.05, 4159620.38, 0.39 ], [ 284497.87, 4159619.92, 2.18 ], [ 284498.45, 4159623.53, 3.64 ], [ 284490.62, 4159619.79, 0.0 ], [ 284494.78, 4159619.2, 0.0 ], [ 284489.16, 4159621.32, 2.12 ] ], "f": [ [ [ 6, 3, 4, 5 ] ], [ [ 8, 0, 1, 2, 11, 12 ] ], [ [ 5, 13, 7, 9, 10, 6 ] ], [ [ 13, 0, 8, 7 ] ] ] }, "roof_props": null, "wall_color": "sand", "type": "yes", "landmark": null, "footprint_source": "osm", "source_updated": null, "is_part": false, "parent": null, "hidden": false, "addr": "508 West Fells Street", "wikidata": null, "website": null, "zoning": "R-53", "lidar_p90": 6.25, "ground_z": 44.63 }, "geometry": { "type": "Polygon", "coordinates": [ [ [ 284497.63, 4159618.42 ], [ 284495.78, 4159618.72 ], [ 284495.57, 4159617.41 ], [ 284491.1, 4159618.13 ], [ 284491.31, 4159619.43 ], [ 284488.92, 4159619.82 ], [ 284490.07, 4159626.96 ], [ 284498.78, 4159625.57 ], [ 284497.63, 4159618.42 ] ] ] } },
{ "type": "Feature", "properties": { "id": "osm:way/755575790", "name": null, "height": 4.85, "min_height": 0.0, "levels": null, "height_source": "lidar", "roof_shape": "gable", "roof_height": 1.59, "roof_azimuth": 25.8, "roof_source": "lod2", "roof_color": "concrete", "roof_color_source": "ortho", "lod2_roof": { "v": [ [ 284479.37, 4159631.08, 0.0 ], [ 284474.81, 4159631.95, 1.57 ], [ 284472.21, 4159632.44, 0.48 ], [ 284473.74, 4159625.33, 1.59 ], [ 284473.74, 4159625.33, 0.0 ], [ 284478.08, 4159624.34, 0.0 ], [ 284470.61, 4159624.08, 0.0 ], [ 284473.44, 4159623.54, 0.0 ], [ 284470.95, 4159625.84, 0.43 ], [ 284470.95, 4159625.84, 0.0 ], [ 284471.54, 4159625.84, 0.0 ], [ 284471.54, 4159625.84, 0.67 ] ], "f": [ [ [ 11, 3, 1, 2, 8 ] ], [ [ 7, 4, 10, 9, 6 ] ], [ [ 5, 0, 1, 3 ] ], [ [ 8, 9, 10, 11 ] ], [ [ 11, 10, 4, 3 ] ] ] }, "roof_props": null, "wall_color": "sand", "type": "yes", "landmark": null, "footprint_source": "osm", "source_updated": null, "is_part": false, "parent": null, "hidden": false, "addr": "512 West Fells Street", "wikidata": null, "website": null, "zoning": "R-53", "lidar_p90": 6.28, "ground_z": 44.23 }, "geometry": { "type": "Polygon", "coordinates": [ [ [ 284477.77, 4159622.72 ], [ 284470.61, 4159624.08 ], [ 284472.21, 4159632.44 ], [ 284479.37, 4159631.08 ], [ 284477.77, 4159622.72 ] ] ] } },
{ "type": "Feature", "properties": { "id": "osm:way/755575809", "name": null, "height": 3.46, "min_height": 0.0, "levels": null, "height_source": "lidar", "roof_shape": "gable", "roof_height": 2.94, "roof_azimuth": 113.5, "roof_source": "lod2", "roof_color": "roof_flat", "roof_color_source": "ortho", "lod2_roof": { "v": [ [ 284425.74, 4159635.87, 2.18 ], [ 284418.28, 4159636.99, 2.17 ], [ 284417.44, 4159631.33, 0.0 ], [ 284417.19, 4159629.62, 0.0 ], [ 284417.96, 4159634.8, 2.94 ], [ 284425.25, 4159630.28, 1.56 ], [ 284425.55, 4159633.7, 2.94 ], [ 284419.59, 4159630.24, 0.0 ], [ 284422.76, 4159629.27, 0.0 ], [ 284423.31, 4159630.54, 0.0 ], [ 284418.4, 4159629.44, 0.0 ], [ 284423.31, 4159630.54, 1.55 ], [ 284417.44, 4159631.33, 1.53 ] ], "f": [ [ [ 6, 0, 1, 4 ] ], [ [ 9, 2, 3, 10, 7, 8 ] ], [ [ 4, 12, 11, 5, 6 ] ], [ [ 12, 2, 9, 11 ] ] ] }, "roof_props": null, "wall_color": "sand", "type": "yes", "landmark": null, "footprint_source": "osm", "source_updated": null, "is_part": false, "parent": null, "hidden": false, "addr": "518 West Fells Street", "wikidata": null, "website": null, "zoning": "R-53", "lidar_p90": 6.36, "ground_z": 44.23 }, "geometry": { "type": "Polygon", "coordinates": [ [ [ 284425.94, 4159628.33 ], [ 284423.64, 4159628.66 ], [ 284423.44, 4159627.3 ], [ 284419.03, 4159627.96 ], [ 284419.22, 4159629.32 ], [ 284417.19, 4159629.62 ], [ 284418.28, 4159636.99 ], [ 284427.03, 4159635.68 ], [ 284425.94, 4159628.33 ] ] ] } },
{ "type": "Feature", "properties": { "id": "osm:way/755575799", "name": null, "height": 4.79, "min_height": 0.0, "levels": null, "height_source": "lidar", "roof_shape": "gable", "roof_height": 1.72, "roof_azimuth": 9.1, "roof_source": "lod2", "roof_color": "roof_flat", "roof_color_source": "ortho", "lod2_roof": { "v": [ [ 284444.18, 4159636.91, 0.86 ], [ 284444.18, 4159636.91, 0.0 ], [ 284436.48, 4159638.15, 0.85 ], [ 284445.13, 4159636.75, 0.0 ], [ 284443.86, 4159634.76, 1.72 ], [ 284443.86, 4159634.76, 0.0 ], [ 284436.14, 4159636.03, 1.7 ], [ 284435.56, 4159632.43, 0.0 ], [ 284435.3, 4159630.8, 0.0 ], [ 284435.56, 4159632.43, 0.24 ], [ 284443.27, 4159631.33, 0.0 ], [ 284443.27, 4159631.33, 0.32 ], [ 284442.8, 4159629.6, 0.0 ], [ 284444.19, 4159634.7, 1.72 ], [ 284444.19, 4159634.7, 0.0 ], [ 284444.78, 4159634.61, 0.0 ] ], "f": [ [ [ 6, 4, 0, 2 ] ], [ [ 12, 10, 7, 8 ] ], [ [ 11, 13, 4, 6, 9 ] ], [ [ 15, 3, 1, 5, 14 ] ], [ [ 4, 5, 1, 0 ] ], [ [ 9, 7, 10, 11 ] ], [ [ 13, 14, 5, 4 ] ] ] }, "roof_props": null, "wall_color": "brick", "type": "yes", "landmark": null, "footprint_source": "osm", "source_updated": null, "is_part": false, "parent": null, "hidden": false, "addr": "514 West Fells Street", "wikidata": null, "website": null, "zoning": "R-53", "lidar_p90": 6.26, "ground_z": 44.3 }, "geometry": { "type": "Polygon", "coordinates": [ [ [ 284443.94, 4159629.41 ], [ 284435.3, 4159630.8 ], [ 284436.48, 4159638.15 ], [ 284445.12, 4159636.76 ], [ 284443.94, 4159629.41 ] ] ] } },
{ "type": "Feature", "properties": { "id": "osm:way/755575758", "name": null, "height": 4.94, "min_height": 0.0, "levels": null, "height_source": "lidar", "roof_shape": "gable", "roof_height": 1.63, "roof_azimuth": 140.9, "roof_source": "lod2", "roof_color": "roof_flat", "roof_color_source": "ortho", "lod2_roof": { "v": [ [ 284407.7, 4159637.35, 1.63 ], [ 284410.06, 4159639.53, 0.38 ], [ 284405.95, 4159644.59, 0.37 ], [ 284403.48, 4159642.59, 1.61 ], [ 284407.54, 4159635.06, 0.0 ], [ 284406.89, 4159636.6, 0.0 ], [ 284405.39, 4159635.21, 0.39 ], [ 284405.39, 4159635.21, 0.0 ], [ 284406.89, 4159636.6, 1.2 ], [ 284406.56, 4159634.27, 0.0 ], [ 284400.8, 4159640.41, 0.24 ], [ 284404.8, 4159634.67, 0.07 ] ], "f": [ [ [ 1, 2, 3, 0 ] ], [ [ 9, 4, 5, 7 ] ], [ [ 11, 6, 8, 0, 3, 10 ] ], [ [ 6, 7, 5, 8 ] ] ] }, "roof_props": null, "wall_color": "brick", "type": "yes", "landmark": null, "footprint_source": "osm", "source_updated": null, "is_part": false, "parent": null, "hidden": false, "addr": "520 West Fells Street", "wikidata": null, "website": null, "zoning": "R-53", "lidar_p90": 6.29, "ground_z": 44.53 }, "geometry": { "type": "Polygon", "coordinates": [ [ [ 284405.32, 4159633.26 ], [ 284400.02, 4159639.78 ], [ 284405.95, 4159644.59 ], [ 284411.24, 4159638.07 ], [ 284405.32, 4159633.26 ] ] ] } },
{ "type": "Feature", "properties": { "id": "osm:way/755575793", "name": null, "height": 4.87, "min_height": 0.0, "levels": null, "height_source": "lidar", "roof_shape": "skillion", "roof_height": 1.52, "roof_azimuth": 17.6, "roof_source": "lod2", "roof_color": "concrete", "roof_color_source": "ortho", "lod2_roof": { "v": [ [ 284475.38, 4159642.35, 0.47 ], [ 284478.07, 4159641.96, 1.52 ], [ 284476.64, 4159650.86, 0.41 ], [ 284479.45, 4159650.44, 1.51 ], [ 284481.65, 4159641.43, 0.05 ], [ 284483.13, 4159649.89, 0.0 ] ], "f": [ [ [ 1, 3, 2, 0 ] ], [ [ 5, 3, 1, 4 ] ] ] }, "roof_props": null, "wall_color": "sand", "type": "yes", "landmark": null, "footprint_source": "osm", "source_updated": null, "is_part": false, "parent": null, "hidden": false, "addr": "1705 Brookfield Street", "wikidata": null, "website": null, "zoning": "R-53", "lidar_p90": 6.18, "ground_z": 44.02 }, "geometry": { "type": "Polygon", "coordinates": [ [ [ 284482.5, 4159641.3 ], [ 284475.38, 4159642.35 ], [ 284476.64, 4159650.86 ], [ 284483.77, 4159649.8 ], [ 284482.5, 4159641.3 ] ] ] } },
{ "type": "Feature", "properties": { "id": "osm:way/755575798", "name": null, "height": 4.63, "min_height": 0.0, "levels": null, "height_source": "lidar", "roof_shape": "gable", "roof_height": 1.49, "roof_azimuth": 98.9, "roof_source": "lod2", "roof_color": "roof_flat", "roof_color_source": "ortho", "lod2_roof": { "v": [ [ 284439.63, 4159647.81, 0.39 ], [ 284442.31, 4159647.4, 1.49 ], [ 284442.63, 4159649.33, 1.48 ], [ 284443.71, 4159655.9, 1.46 ], [ 284440.96, 4159656.33, 0.33 ], [ 284446.39, 4159648.57, 0.01 ], [ 284447.46, 4159655.31, 0.0 ] ], "f": [ [ [ 4, 0, 1, 2, 3 ] ], [ [ 6, 3, 2, 5 ] ] ] }, "roof_props": null, "wall_color": "cream", "type": "yes", "landmark": null, "footprint_source": "osm", "source_updated": null, "is_part": false, "parent": null, "hidden": false, "addr": "1702 Brookfield Street", "wikidata": null, "website": null, "zoning": "R-53", "lidar_p90": 6.16, "ground_z": 44.38 }, "geometry": { "type": "Polygon", "coordinates": [ [ [ 284448.53, 4159648.3 ], [ 284447.3, 4159648.5 ], [ 284447.02, 4159646.67 ], [ 284439.63, 4159647.81 ], [ 284440.96, 4159656.33 ], [ 284448.28, 4159655.18 ], [ 284447.94, 4159653.04 ], [ 284449.23, 4159652.84 ], [ 284448.53, 4159648.3 ] ] ] } },
{ "type": "Feature", "properties": { "id": "osm:way/755575730", "name": null, "height": 4.87, "min_height": 0.0, "levels": null, "height_source": "lidar", "roof_shape": "gable", "roof_height": 1.56, "roof_azimuth": 22.5, "roof_source": "lod2", "roof_color": "concrete", "roof_color_source": "ortho", "lod2_roof": { "v": [ [ 284410.55, 4159659.48, 0.59 ], [ 284409.22, 4159660.03, 0.01 ], [ 284411.29, 4159661.25, 0.59 ], [ 284407.47, 4159655.8, 0.0 ], [ 284408.85, 4159655.23, 0.6 ], [ 284408.56, 4159654.54, 0.6 ], [ 284413.5, 4159660.33, 1.56 ], [ 284410.71, 4159653.58, 1.55 ], [ 284413.98, 4159652.11, 0.13 ], [ 284416.98, 4159658.89, 0.06 ] ], "f": [ [ [ 7, 6, 2, 0, 1, 3, 4, 5 ] ], [ [ 8, 9, 6, 7 ] ] ] }, "roof_props": null, "wall_color": "brick", "type": "yes", "landmark": null, "footprint_source": "osm", "source_updated": null, "is_part": false, "parent": null, "hidden": false, "addr": "1705 Roane Street", "wikidata": null, "website": null, "zoning": "R-53", "lidar_p90": 6.25, "ground_z": 44.5 }, "geometry": { "type": "Polygon", "coordinates": [ [ [ 284418.05, 4159658.45 ], [ 284414.69, 4159650.32 ], [ 284407.97, 4159653.1 ], [ 284408.85, 4159655.23 ], [ 284407.47, 4159655.8 ], [ 284409.22, 4159660.03 ], [ 284410.55, 4159659.49 ], [ 284411.28, 4159661.25 ], [ 284418.05, 4159658.45 ] ] ] } },
{ "type": "Feature", "properties": { "id": "osm:way/755575813", "name": null, "height": 4.73, "min_height": 0.0, "levels": null, "height_source": "lidar", "roof_shape": "skillion", "roof_height": 1.53, "roof_azimuth": 4.4, "roof_source": "lod2", "roof_color": "roof_flat", "roof_color_source": "ortho", "lod2_roof": { "v": [ [ 284483.23, 4159661.69, 1.53 ], [ 284486.73, 4159661.02, 0.1 ], [ 284480.19, 4159660.91, 0.48 ], [ 284481.41, 4159660.68, 0.94 ], [ 284482.52, 4159661.83, 1.26 ], [ 284488.4, 4159668.04, 0.0 ], [ 284484.69, 4159668.74, 1.52 ], [ 284481.77, 4159669.29, 0.41 ] ], "f": [ [ [ 4, 0, 6, 7, 2, 3 ] ], [ [ 1, 5, 6, 0 ] ] ] }, "roof_props": null, "wall_color": "cream", "type": "yes", "landmark": null, "footprint_source": "osm", "source_updated": null, "is_part": false, "parent": null, "hidden": false, "addr": "1709 Brookfield Street", "wikidata": null, "website": null, "zoning": "R-53", "lidar_p90": 6.01, "ground_z": 44.09 }, "geometry": { "type": "Polygon", "coordinates": [ [ [ 284487.61, 4159659.5 ], [ 284480.19, 4159660.91 ], [ 284481.77, 4159669.29 ], [ 284489.19, 4159667.89 ], [ 284487.61, 4159659.5 ] ] ] } },
{ "type": "Feature", "properties": { "id": "osm:way/755575801", "name": null, "height": 4.88, "min_height": 0.0, "levels": null, "height_source": "lidar", "roof_shape": "skillion", "roof_height": 1.6, "roof_azimuth": 9.3, "roof_source": "lod2", "roof_color": "roof_flat", "roof_color_source": "ortho", "lod2_roof": { "v": [ [ 284446.39, 4159672.06, 1.6 ], [ 284443.22, 4159672.25, 0.3 ], [ 284442.87, 4159666.56, 0.51 ], [ 284443.01, 4159666.59, 0.57 ], [ 284445.52, 4159666.34, 1.59 ], [ 284449.47, 4159665.94, 0.04 ], [ 284450.06, 4159671.34, 0.14 ], [ 284450.45, 4159671.81, 0.02 ], [ 284450.42, 4159671.3, 0.0 ] ], "f": [ [ [ 0, 4, 5, 6, 8, 7 ] ], [ [ 4, 0, 1, 2, 3 ] ] ] }, "roof_props": null, "wall_color": "cream", "type": "yes", "landmark": null, "footprint_source": "osm", "source_updated": null, "is_part": false, "parent": null, "hidden": false, "addr": "1706 Brookfield Street", "wikidata": null, "website": null, "zoning": "R-53", "lidar_p90": 6.26, "ground_z": 44.56 }, "geometry": { "type": "Polygon", "coordinates": [ [ [ 284449.91, 4159663.2 ], [ 284442.69, 4159663.65 ], [ 284443.22, 4159672.25 ], [ 284450.45, 4159671.81 ], [ 284449.91, 4159663.2 ] ] ] } },
{ "type": "Feature", "properties": { "id": "osm:way/755575792", "name": null, "height": 4.87, "min_height": 0.0, "levels": null, "height_source": "lidar", "roof_shape": "skillion", "roof_height": 1.52, "roof_azimuth": 13.1, "roof_source": "lod2", "roof_color": "roof_flat", "roof_color_source": "ortho", "lod2_roof": { "v": [ [ 284415.94, 4159669.24, 1.52 ], [ 284419.7, 4159668.1, 0.0 ], [ 284421.38, 4159674.83, 0.15 ], [ 284418.0, 4159675.89, 1.52 ], [ 284415.68, 4159676.62, 0.55 ], [ 284413.59, 4159669.96, 0.54 ] ], "f": [ [ [ 5, 0, 3, 4 ] ], [ [ 1, 2, 3, 0 ] ] ] }, "roof_props": null, "wall_color": "brick", "type": "yes", "landmark": null, "footprint_source": "osm", "source_updated": null, "is_part": false, "parent": null, "hidden": false, "addr": "1709 Roane Street", "wikidata": null, "website": null, "zoning": "R-53", "lidar_p90": 6.24, "ground_z": 44.51 }, "geometry": { "type": "Polygon", "coordinates": [ [ [ 284420.03, 4159666.06 ], [ 284413.05, 4159668.25 ], [ 284415.68, 4159676.62 ], [ 284422.67, 4159674.43 ], [ 284420.03, 4159666.06 ] ] ] } },
{ "type": "Feature", "properties": { "id": "osm:way/755575787", "name": null, "height": 5.01, "min_height": 0.0, "levels": null, "height_source": "lidar", "roof_shape": "gable", "roof_height": 1.54, "roof_azimuth": 9.3, "roof_source": "lod2", "roof_color": "concrete", "roof_color_source": "ortho", "lod2_roof": { "v": [ [ 284481.77, 4159681.92, 0.0 ], [ 284482.95, 4159681.72, 0.47 ], [ 284491.12, 4159686.72, 0.0 ], [ 284486.6, 4159687.46, 1.54 ], [ 284483.53, 4159685.78, 0.43 ], [ 284482.43, 4159685.97, 0.0 ], [ 284483.87, 4159687.91, 0.43 ], [ 284485.53, 4159680.9, 1.54 ], [ 284489.36, 4159680.27, 0.09 ], [ 284490.23, 4159686.35, 0.14 ], [ 284491.02, 4159686.14, 0.0 ], [ 284482.65, 4159679.83, 0.47 ], [ 284484.0, 4159679.61, 1.01 ], [ 284484.47, 4159681.07, 1.11 ] ], "f": [ [ [ 3, 7, 8, 9, 10, 2 ] ], [ [ 13, 7, 3, 6, 4, 5, 0, 1, 11, 12 ] ] ] }, "roof_props": null, "wall_color": "terracotta", "type": "yes", "landmark": null, "footprint_source": "osm", "source_updated": null, "is_part": false, "parent": null, "hidden": false, "addr": "1711 Brookfield Street", "wikidata": null, "website": null, "zoning": "R-53", "lidar_p90": 6.25, "ground_z": 44.25 }, "geometry": { "type": "Polygon", "coordinates": [ [ [ 284489.8, 4159678.67 ], [ 284482.65, 4159679.83 ], [ 284482.95, 4159681.72 ], [ 284481.77, 4159681.92 ], [ 284482.43, 4159685.97 ], [ 284483.53, 4159685.78 ], [ 284483.87, 4159687.91 ], [ 284491.12, 4159686.72 ], [ 284489.8, 4159678.67 ] ] ] } },
{ "type": "Feature", "properties": { "id": "osm:way/755575764", "name": null, "height": 4.79, "min_height": 0.0, "levels": null, "height_source": "lidar", "roof_shape": "gable", "roof_height": 1.51, "roof_azimuth": 8.8, "roof_source": "lod2", "roof_color": "roof_flat", "roof_color_source": "ortho", "lod2_roof": { "v": [ [ 284366.07, 4159641.14, 1.51 ], [ 284366.3, 4159643.14, 0.67 ], [ 284358.84, 4159644.29, 0.59 ], [ 284358.51, 4159642.13, 1.51 ], [ 284365.66, 4159637.44, 0.0 ], [ 284357.95, 4159638.54, 0.03 ] ], "f": [ [ [ 1, 2, 3, 0 ] ], [ [ 5, 4, 0, 3 ] ] ] }, "roof_props": null, "wall_color": "concrete", "type": "yes", "landmark": null, "footprint_source": "osm", "source_updated": null, "is_part": false, "parent": null, "hidden": false, "addr": "602 West Fells Street", "wikidata": null, "website": null, "zoning": "R-53", "lidar_p90": 6.14, "ground_z": 45.49 }, "geometry": { "type": "Polygon", "coordinates": [ [ [ 284366.5, 4159635.45 ], [ 284357.69, 4159636.81 ], [ 284358.84, 4159644.29 ], [ 284367.66, 4159642.93 ], [ 284366.5, 4159635.45 ] ] ] } },
{ "type": "Feature", "properties": { "id": "richmond_structure:389888", "name": null, "height": 14.0, "min_height": 0.0, "levels": null, "height_source": "zoning", "roof_shape": "flat", "roof_height": 0.0, "roof_azimuth": null, "roof_source": "heuristic", "roof_color": "roof_flat", "roof_color_source": "heuristic", "lod2_roof": null, "roof_props": null, "wall_color": "cream", "type": "yes", "landmark": null, "footprint_source": "richmond_structures", "source_updated": "2026-09-08T12:07:13.637000Z", "is_part": false, "parent": null, "hidden": false, "addr": null, "wikidata": null, "website": null, "zoning": "B-6", "lidar_p90": 1.69, "ground_z": 45.82 }, "geometry": { "type": "Polygon", "coordinates": [ [ [ 284315.62, 4159645.19 ], [ 284312.15, 4159645.33 ], [ 284312.84, 4159662.42 ], [ 284316.32, 4159662.28 ], [ 284315.62, 4159645.19 ] ] ] } },
{ "type": "Feature", "properties": { "id": "osm:way/755575774", "name": null, "height": 3.21, "min_height": 0.0, "levels": null, "height_source": "lidar", "roof_shape": "gable", "roof_height": 3.34, "roof_azimuth": 110.0, "roof_source": "lod2", "roof_color": "concrete", "roof_color_source": "ortho", "lod2_roof": { "v": [ [ 284372.52, 4159659.77, 3.32 ], [ 284370.28, 4159660.59, 2.32 ], [ 284367.91, 4159654.11, 2.36 ], [ 284376.17, 4159658.43, 1.77 ], [ 284376.17, 4159658.43, 0.0 ], [ 284377.25, 4159658.04, 0.0 ], [ 284370.07, 4159653.21, 3.34 ], [ 284373.38, 4159651.83, 0.12 ], [ 284373.38, 4159651.83, 1.91 ], [ 284374.77, 4159651.26, 0.0 ] ], "f": [ [ [ 2, 6, 0, 1 ] ], [ [ 8, 3, 0, 6 ] ], [ [ 7, 9, 5, 4 ] ], [ [ 8, 7, 4, 3 ] ] ] }, "roof_props": null, "wall_color": "brick", "type": "yes", "landmark": null, "footprint_source": "osm", "source_updated": null, "is_part": false, "parent": null, "hidden": false, "addr": "1700 Roane Street", "wikidata": null, "website": null, "zoning": "R-53", "lidar_p90": 6.25, "ground_z": 45.13 }, "geometry": { "type": "Polygon", "coordinates": [ [ [ 284374.4, 4159650.23 ], [ 284367.43, 4159652.78 ], [ 284370.28, 4159660.59 ], [ 284377.25, 4159658.04 ], [ 284374.4, 4159650.23 ] ] ] } },
{ "type": "Feature", "properties": { "id": "osm:way/755575876", "name": null, "height": 3.72, "min_height": 0.0, "levels": null, "height_source": "lidar", "roof_shape": "gable", "roof_height": 2.38, "roof_azimuth": 92.4, "roof_source": "lod2", "roof_color": "roof_flat", "roof_color_source": "ortho", "lod2_roof": { "v": [ [ 284293.36, 4159671.14, 0.01 ], [ 284293.36, 4159671.14, 0.0 ], [ 284285.58, 4159671.46, 0.3 ], [ 284294.17, 4159671.1, 0.0 ], [ 284292.92, 4159666.77, 0.17 ], [ 284292.92, 4159666.77, 1.08 ], [ 284293.35, 4159671.08, 0.01 ], [ 284284.9, 4159655.27, 2.35 ], [ 284284.9, 4159655.27, 0.49 ], [ 284292.46, 4159654.65, 0.13 ], [ 284292.46, 4159654.65, 2.11 ], [ 284284.58, 4159647.54, 0.59 ], [ 284293.47, 4159654.57, 0.09 ], [ 284293.15, 4159646.94, 0.18 ], [ 284294.08, 4159669.07, 0.5 ], [ 284304.99, 4159668.61, 0.54 ], [ 284293.01, 4159664.5, 2.06 ], [ 284293.01, 4159664.5, 1.64 ], [ 284292.92, 4159666.77, 2.06 ], [ 284285.39, 4159666.85, 0.46 ], [ 284285.39, 4159666.85, 2.31 ], [ 284292.86, 4159661.52, 2.08 ], [ 284292.92, 4159662.77, 2.07 ], [ 284292.86, 4159661.52, 2.38 ], [ 284305.53, 4159662.01, 2.17 ] ], "f": [ [ [ 11, 13, 12, 9, 8 ] ], [ [ 2, 19, 4, 6, 0 ] ], [ [ 21, 22, 16, 18, 20, 7, 10 ] ], [ [ 24, 15, 14, 3, 1, 6, 5, 17, 22, 23 ] ], [ [ 4, 5, 6 ] ], [ [ 1, 0, 6 ] ], [ [ 7, 8, 9, 10 ] ], [ [ 16, 17, 5, 18 ] ], [ [ 18, 5, 4, 19, 20 ] ], [ [ 17, 16, 22 ] ], [ [ 21, 23, 22 ] ] ] }, "roof_props": null, "wall_color": "terracotta", "type": "yes", "landmark": null, "footprint_source": "osm", "source_updated": null, "is_part": false, "parent": null, "hidden": false, "addr": "1701 Chamberlayne Parkway", "wikidata": null, "website": null, "zoning": "M-1", "lidar_p90": 5.83, "ground_z": 46.83 }, "geometry": { "type": "Polygon", "coordinates": [ [ [ 284306.36, 4159658.65 ], [ 284293.67, 4159659.19 ], [ 284293.09, 4159645.37 ], [ 284284.5, 4159645.73 ], [ 284285.58, 4159671.46 ], [ 284294.17, 4159671.11 ], [ 284294.08, 4159669.08 ], [ 284306.78, 4159668.53 ], [ 284306.36, 4159658.65 ] ] ] } },
{ "type": "Feature", "properties": { "id": "osm:way/755575808", "name": null, "height": 4.73, "min_height": 0.0, "levels": null, "height_source": "lidar", "roof_shape": "skillion", "roof_height": 1.52, "roof_azimuth": 28.2, "roof_source": "lod2", "roof_color": "concrete", "roof_color_source": "ortho", "lod2_roof": { "v": [ [ 284378.67, 4159665.3, 0.0 ], [ 284381.0, 4159672.52, 0.13 ], [ 284375.39, 4159674.6, 0.62 ], [ 284373.12, 4159668.48, 0.58 ], [ 284377.71, 4159673.74, 1.52 ], [ 284374.17, 4159666.86, 1.15 ], [ 284375.23, 4159666.9, 1.51 ], [ 284376.43, 4159666.94, 1.07 ] ], "f": [ [ [ 6, 4, 2, 3, 5 ] ], [ [ 6, 7, 0, 1, 4 ] ] ] }, "roof_props": null, "wall_color": "terracotta", "type": "yes", "landmark": null, "footprint_source": "osm", "source_updated": null, "is_part": false, "parent": null, "hidden": false, "addr": "1704 Roane Street", "wikidata": null, "website": null, "zoning": "R-53", "lidar_p90": 6.22, "ground_z": 44.98 }, "geometry": { "type": "Polygon", "coordinates": [ [ [ 284379.12, 4159663.98 ], [ 284372.37, 4159666.48 ], [ 284375.39, 4159674.6 ], [ 284382.14, 4159672.09 ], [ 284379.12, 4159663.98 ] ] ] } },
{ "type": "Feature", "properties": { "id": "osm:way/755575822", "name": null, "height": 4.82, "min_height": 0.0, "levels": null, "height_source": "lidar", "roof_shape": "gable", "roof_height": 1.49, "roof_azimuth": 9.0, "roof_source": "lod2", "roof_color": "roof_flat", "roof_color_source": "ortho", "lod2_roof": { "v": [ [ 284386.29, 4159687.04, 0.03 ], [ 284382.67, 4159687.61, 1.46 ], [ 284378.95, 4159681.12, 0.32 ], [ 284381.78, 4159680.86, 1.49 ], [ 284380.04, 4159688.03, 0.37 ], [ 284385.56, 4159680.51, 0.0 ] ], "f": [ [ [ 3, 1, 4, 2 ] ], [ [ 5, 0, 1, 3 ] ] ] }, "roof_props": null, "wall_color": "cream", "type": "yes", "landmark": null, "footprint_source": "osm", "source_updated": null, "is_part": false, "parent": null, "hidden": false, "addr": "1708 Roane Street", "wikidata": null, "website": null, "zoning": "R-53", "lidar_p90": 6.09, "ground_z": 44.84 }, "geometry": { "type": "Polygon", "coordinates": [ [ [ 284385.98, 4159678.51 ], [ 284378.72, 4159679.66 ], [ 284380.04, 4159688.03 ], [ 284387.3, 4159686.88 ], [ 284385.98, 4159678.51 ] ] ] } },
{ "type": "Feature", "properties": { "id": "osm:way/755575796", "name": null, "height": 14.23, "min_height": 0.0, "levels": null, "height_source": "lidar", "roof_shape": "flat", "roof_height": 1.12, "roof_azimuth": null, "roof_source": "lod2", "roof_color": "roof_flat", "roof_color_source": "ortho", "lod2_roof": { "v": [ [ 284319.0, 4159710.71, 1.1 ], [ 284319.0, 4159710.71, 0.12 ], [ 284319.05, 4159712.32, 0.18 ], [ 284319.05, 4159712.32, 1.1 ], [ 284317.8, 4159712.27, 0.16 ], [ 284317.8, 4159712.27, 1.12 ], [ 284331.63, 4159716.23, 0.41 ], [ 284318.0, 4159716.81, 0.31 ], [ 284331.19, 4159706.1, 0.09 ], [ 284317.56, 4159706.69, 1.12 ], [ 284319.53, 4159706.6, 0.0 ], [ 284319.53, 4159706.6, 1.09 ] ], "f": [ [ [ 11, 0, 3, 5, 9 ] ], [ [ 10, 8, 6, 7, 4, 2, 1 ] ], [ [ 0, 1, 2, 3 ] ], [ [ 3, 2, 4, 5 ] ], [ [ 11, 10, 1, 0 ] ] ] }, "roof_props": null, "wall_color": "sand", "type": "yes", "landmark": null, "footprint_source": "osm", "source_updated": null, "is_part": false, "parent": null, "hidden": false, "addr": "1707 Chamberlayne Parkway", "wikidata": null, "website": null, "zoning": "B-6", "lidar_p90": 14.64, "ground_z": 45.15 }, "geometry": { "type": "Polygon", "coordinates": [ [ [ 284331.19, 4159706.1 ], [ 284317.56, 4159706.69 ], [ 284318.0, 4159716.81 ], [ 284331.63, 4159716.23 ], [ 284331.19, 4159706.1 ] ] ] } },
{ "type": "Feature", "properties": { "id": "osm:way/755575775", "name": null, "height": 4.78, "min_height": 0.0, "levels": null, "height_source": "lidar", "roof_shape": "gable", "roof_height": 1.84, "roof_azimuth": 3.5, "roof_source": "lod2", "roof_color": "roof_flat", "roof_color_source": "ortho", "lod2_roof": { "v": [ [ 284450.52, 4159689.19, 1.83 ], [ 284447.61, 4159689.37, 0.69 ], [ 284447.19, 4159682.73, 0.69 ], [ 284450.11, 4159682.65, 1.84 ], [ 284454.83, 4159688.93, 0.0 ], [ 284454.21, 4159688.96, 0.0 ], [ 284450.05, 4159681.56, 1.84 ], [ 284454.48, 4159683.22, 0.13 ], [ 284454.79, 4159688.28, 0.0 ], [ 284454.79, 4159688.28, 0.12 ], [ 284454.2, 4159688.46, 0.0 ], [ 284454.2, 4159688.46, 0.36 ], [ 284454.21, 4159688.96, 0.37 ] ], "f": [ [ [ 2, 3, 0, 1 ] ], [ [ 12, 0, 3, 6, 7, 9, 11 ] ], [ [ 8, 4, 5, 10 ] ], [ [ 9, 8, 10, 11 ] ], [ [ 11, 10, 5, 12 ] ] ] }, "roof_props": null, "wall_color": "cream", "type": "yes", "landmark": null, "footprint_source": "osm", "source_updated": null, "is_part": false, "parent": null, "hidden": false, "addr": "1710 Brookfield Street", "wikidata": null, "website": null, "zoning": "R-53", "lidar_p90": 6.29, "ground_z": 44.84 }, "geometry": { "type": "Polygon", "coordinates": [ [ [ 284454.3, 4159680.31 ], [ 284447.07, 4159680.76 ], [ 284447.61, 4159689.37 ], [ 284454.83, 4159688.93 ], [ 284454.3, 4159680.31 ] ] ] } },
{ "type": "Feature", "properties": { "id": "osm:way/755575867", "name": null, "height": 4.9, "min_height": 0.0, "levels": null, "height_source": "lidar", "roof_shape": "gable", "roof_height": 1.58, "roof_azimuth": 11.5, "roof_source": "lod2", "roof_color": "roof_flat", "roof_color_source": "ortho", "lod2_roof": { "v": [ [ 284418.1, 4159690.03, 0.44 ], [ 284417.04, 4159690.24, 0.01 ], [ 284418.54, 4159692.23, 0.44 ], [ 284416.25, 4159686.37, 0.0 ], [ 284419.98, 4159684.32, 1.58 ], [ 284420.15, 4159685.22, 1.58 ], [ 284421.33, 4159691.67, 1.56 ], [ 284423.75, 4159683.87, 0.06 ], [ 284424.81, 4159690.96, 0.13 ] ], "f": [ [ [ 8, 6, 5, 7 ] ], [ [ 3, 4, 5, 6, 2, 0, 1 ] ] ] }, "roof_props": null, "wall_color": "sand", "type": "yes", "landmark": null, "footprint_source": "osm", "source_updated": null, "is_part": false, "parent": null, "hidden": false, "addr": "1713 Roane Street", "wikidata": null, "website": null, "zoning": "R-53", "lidar_p90": 6.25, "ground_z": 44.51 }, "geometry": { "type": "Polygon", "coordinates": [ [ [ 284424.17, 4159682.12 ], [ 284416.86, 4159683.61 ], [ 284417.24, 4159685.45 ], [ 284416.11, 4159685.68 ], [ 284417.04, 4159690.24 ], [ 284418.1, 4159690.03 ], [ 284418.54, 4159692.24 ], [ 284425.93, 4159690.73 ], [ 284424.17, 4159682.12 ] ] ] } },
{ "type": "Feature", "properties": { "id": "osm:way/755575789", "name": null, "height": 4.89, "min_height": 0.0, "levels": null, "height_source": "lidar", "roof_shape": "skillion", "roof_height": 1.54, "roof_azimuth": 91.6, "roof_source": "lod2", "roof_color": "roof_flat", "roof_color_source": "ortho", "lod2_roof": { "v": [ [ 284497.96, 4159705.53, 0.76 ], [ 284497.29, 4159705.54, 0.77 ], [ 284497.93, 4159703.59, 1.54 ], [ 284497.27, 4159705.71, 0.7 ], [ 284489.67, 4159705.84, 0.79 ], [ 284497.14, 4159700.43, 0.24 ], [ 284497.22, 4159703.63, 1.54 ], [ 284489.64, 4159704.0, 1.53 ], [ 284489.59, 4159700.23, 0.0 ] ], "f": [ [ [ 6, 2, 0, 1, 3, 4, 7 ] ], [ [ 8, 5, 6, 7 ] ] ] }, "roof_props": null, "wall_color": "cream", "type": "yes", "landmark": null, "footprint_source": "osm", "source_updated": null, "is_part": false, "parent": null, "hidden": false, "addr": "1715 Brookfield Street", "wikidata": null, "website": null, "zoning": "R-53", "lidar_p90": 6.25, "ground_z": 44.46 }, "geometry": { "type": "Polygon", "coordinates": [ [ [ 284489.56, 4159698.43 ], [ 284489.67, 4159705.85 ], [ 284497.96, 4159705.72 ], [ 284497.85, 4159698.3 ], [ 284489.56, 4159698.43 ] ] ] } },
{ "type": "Feature", "properties": { "id": "osm:way/755575869", "name": null, "height": 4.87, "min_height": 0.0, "levels": null, "height_source": "lidar", "roof_shape": "skillion", "roof_height": 1.58, "roof_azimuth": 93.4, "roof_source": "lod2", "roof_color": "roof_flat", "roof_color_source": "ortho", "lod2_roof": { "v": [ [ 284452.49, 4159705.75, 1.58 ], [ 284452.58, 4159707.47, 0.86 ], [ 284444.01, 4159707.89, 0.86 ], [ 284443.93, 4159706.16, 1.58 ], [ 284452.3, 4159701.76, 0.0 ], [ 284443.77, 4159702.76, 0.2 ] ], "f": [ [ [ 1, 2, 3, 0 ] ], [ [ 5, 4, 0, 3 ] ] ] }, "roof_props": null, "wall_color": "terracotta", "type": "yes", "landmark": null, "footprint_source": "osm", "source_updated": null, "is_part": false, "parent": null, "hidden": false, "addr": "1714 Brookfield Street", "wikidata": null, "website": null, "zoning": "R-53", "lidar_p90": 6.11, "ground_z": 44.19 }, "geometry": { "type": "Polygon", "coordinates": [ [ [ 284452.23, 4159700.37 ], [ 284443.68, 4159700.78 ], [ 284444.01, 4159707.89 ], [ 284452.58, 4159707.48 ], [ 284452.23, 4159700.37 ] ] ] } },
{ "type": "Feature", "properties": { "id": "osm:way/755575819", "name": null, "height": 5.06, "min_height": 0.0, "levels": null, "height_source": "lidar", "roof_shape": "skillion", "roof_height": 1.43, "roof_azimuth": 94.5, "roof_source": "lod2", "roof_color": "roof_flat", "roof_color_source": "ortho", "lod2_roof": { "v": [ [ 284433.2, 4159708.77, 0.62 ], [ 284425.17, 4159709.03, 0.64 ], [ 284433.0, 4159706.84, 1.42 ], [ 284425.11, 4159707.19, 1.41 ], [ 284424.99, 4159703.5, 0.0 ], [ 284433.86, 4159706.8, 1.43 ], [ 284433.75, 4159703.34, 0.05 ] ], "f": [ [ [ 3, 2, 0, 1 ] ], [ [ 6, 5, 2, 3, 4 ] ] ] }, "roof_props": null, "wall_color": "sand", "type": "yes", "landmark": null, "footprint_source": "osm", "source_updated": null, "is_part": false, "parent": null, "hidden": false, "addr": "513 School Street", "wikidata": null, "website": null, "zoning": "R-53", "lidar_p90": 6.18, "ground_z": 44.06 }, "geometry": { "type": "Polygon", "coordinates": [ [ [ 284425.17, 4159709.03 ], [ 284433.92, 4159708.75 ], [ 284433.69, 4159701.44 ], [ 284424.93, 4159701.71 ], [ 284425.17, 4159709.03 ] ] ] } }
]
}
