{
"type": "FeatureCollection",
"name": "buildings",
"crs": { "type": "name", "properties": { "name": "urn:ogc:def:crs:EPSG::32618" } },
"xy_coordinate_resolution": 0.01,
"features": [
{ "type": "Feature", "properties": { "id": "osm:way/321384559", "name": null, "height": 2.96, "min_height": 0.0, "levels": null, "height_source": "lidar", "roof_shape": "gable", "roof_height": 3.05, "roof_azimuth": 128.5, "roof_source": "lod2", "roof_color": "roof_flat", "roof_color_source": "ortho", "lod2_roof": { "v": [ [ 284229.72, 4158014.43, 2.27 ], [ 284231.65, 4158016.14, 3.05 ], [ 284227.22, 4158019.65, 2.98 ], [ 284225.71, 4158017.75, 2.23 ], [ 284235.39, 4158021.14, 0.03 ], [ 284231.11, 4158024.52, 0.0 ], [ 284231.2, 4158016.49, 3.05 ], [ 284232.28, 4158018.13, 2.56 ], [ 284232.93, 4158018.76, 0.3 ], [ 284232.93, 4158018.76, 2.34 ], [ 284232.14, 4158019.42, 0.29 ], [ 284232.14, 4158019.42, 2.32 ], [ 284228.59, 4158021.36, 0.33 ], [ 284228.59, 4158021.36, 2.44 ] ], "f": [ [ [ 6, 2, 3, 0, 1 ] ], [ [ 13, 2, 6, 7, 9, 11 ] ], [ [ 8, 4, 5, 12, 10 ] ], [ [ 9, 8, 10, 11 ] ], [ [ 11, 10, 12, 13 ] ] ] }, "roof_props": null, "wall_color": "sand", "type": "yes", "landmark": null, "footprint_source": "osm", "source_updated": null, "is_part": false, "parent": null, "hidden": false, "addr": "112 North 1st Street", "wikidata": null, "website": null, "zoning": "B-4", "lidar_p90": 5.93, "ground_z": 55.17 }, "geometry": { "type": "Polygon", "coordinates": [ [ [ 284225.04, 4158016.9 ], [ 284231.1, 4158024.52 ], [ 284236.31, 4158020.41 ], [ 284230.25, 4158012.79 ], [ 284225.04, 4158016.9 ] ] ] } },
{ "type": "Feature", "properties": { "id": "osm:way/321391683", "name": null, "height": 18.98, "min_height": 0.0, "levels": null, "height_source": "lidar", "roof_shape": "flat", "roof_height": 0.0, "roof_azimuth": null, "roof_source": "heuristic", "roof_color": "roof_flat", "roof_color_source": "ortho", "lod2_roof": null, "roof_props": null, "wall_color": "terracotta", "type": "yes", "landmark": null, "footprint_source": "osm", "source_updated": null, "is_part": false, "parent": null, "hidden": false, "addr": "10 East Franklin Street", "wikidata": null, "website": null, "zoning": "RO-3", "lidar_p90": 19.59, "ground_z": 55.96 }, "geometry": { "type": "Polygon", "coordinates": [ [ [ 284171.32, 4158039.68 ], [ 284173.56, 4158037.9 ], [ 284175.16, 4158039.9 ], [ 284173.59, 4158041.15 ], [ 284178.26, 4158047.01 ], [ 284184.9, 4158041.77 ], [ 284183.69, 4158040.24 ], [ 284185.82, 4158038.55 ], [ 284187.26, 4158040.36 ], [ 284194.11, 4158034.95 ], [ 284188.93, 4158028.46 ], [ 284187.83, 4158029.34 ], [ 284175.71, 4158014.14 ], [ 284179.49, 4158011.15 ], [ 284174.43, 4158004.79 ], [ 284167.26, 4158010.47 ], [ 284170.01, 4158013.89 ], [ 284167.3, 4158016.04 ], [ 284164.63, 4158012.69 ], [ 284155.54, 4158019.89 ], [ 284171.32, 4158039.68 ] ] ] } },
{ "type": "Feature", "properties": { "id": "richmond_structure:316926", "name": null, "height": 5.24, "min_height": 0.0, "levels": null, "height_source": "lidar", "roof_shape": "gable", "roof_height": 2.7, "roof_azimuth": 130.3, "roof_source": "lod2", "roof_color": "slate", "roof_color_source": "ortho", "lod2_roof": { "v": [ [ 284202.27, 4158029.23, 1.58 ], [ 284202.27, 4158029.23, 0.0 ], [ 284196.18, 4158034.41, 1.98 ], [ 284198.54, 4158025.11, 2.04 ], [ 284198.54, 4158025.11, 0.0 ], [ 284201.08, 4158027.92, 0.32 ], [ 284201.08, 4158027.92, 1.73 ], [ 284203.15, 4158025.84, 0.37 ], [ 284204.49, 4158027.35, 0.0 ], [ 284200.67, 4158023.07, 0.04 ], [ 284198.42, 4158024.98, 0.0 ], [ 284190.47, 4158027.68, 2.7 ], [ 284194.73, 4158024.06, 2.42 ], [ 284197.48, 4158025.64, 2.12 ], [ 284197.55, 4158025.72, 2.11 ], [ 284197.71, 4158025.77, 2.1 ] ], "f": [ [ [ 1, 5, 7, 8 ] ], [ [ 4, 10, 9, 7, 5 ] ], [ [ 2, 11, 12, 13, 14, 15, 3, 6, 0 ] ], [ [ 3, 4, 5, 6 ] ], [ [ 6, 5, 1, 0 ] ] ] }, "roof_props": null, "wall_color": "terracotta", "type": "yes", "landmark": null, "footprint_source": "richmond_structures", "source_updated": "2026-09-08T12:07:13.637000Z", "is_part": false, "parent": null, "hidden": false, "addr": null, "wikidata": null, "website": null, "zoning": "RO-3", "lidar_p90": 7.73, "ground_z": 55.51 }, "geometry": { "type": "Polygon", "coordinates": [ [ [ 284201.4, 4158022.45 ], [ 284197.55, 4158025.72 ], [ 284195.55, 4158023.36 ], [ 284190.47, 4158027.68 ], [ 284196.18, 4158034.4 ], [ 284205.11, 4158026.82 ], [ 284201.4, 4158022.45 ] ] ] } },
{ "type": "Feature", "properties": { "id": "osm:way/321391682", "name": null, "height": 12.99, "min_height": 0.0, "levels": null, "height_source": "lidar", "roof_shape": "flat", "roof_height": 0.0, "roof_azimuth": null, "roof_source": "heuristic", "roof_color": "roof_flat", "roof_color_source": "ortho", "lod2_roof": null, "roof_props": null, "wall_color": "cream", "type": "yes", "landmark": null, "footprint_source": "osm", "source_updated": null, "is_part": false, "parent": null, "hidden": false, "addr": "2 East Franklin Street", "wikidata": null, "website": null, "zoning": "RO-3", "lidar_p90": 13.71, "ground_z": 55.71 }, "geometry": { "type": "Polygon", "coordinates": [ [ [ 284144.13, 4158029.71 ], [ 284145.83, 4158031.83 ], [ 284144.86, 4158032.6 ], [ 284148.95, 4158037.74 ], [ 284147.63, 4158038.79 ], [ 284160.91, 4158055.47 ], [ 284165.21, 4158052.07 ], [ 284158.63, 4158043.8 ], [ 284160.36, 4158042.44 ], [ 284156.95, 4158038.15 ], [ 284158.2, 4158037.15 ], [ 284162.94, 4158043.09 ], [ 284167.28, 4158039.66 ], [ 284161.33, 4158032.18 ], [ 284162.12, 4158031.55 ], [ 284160.51, 4158029.53 ], [ 284157.96, 4158031.54 ], [ 284151.73, 4158023.71 ], [ 284144.13, 4158029.71 ] ] ] } },
{ "type": "Feature", "properties": { "id": "osm:way/321391721", "name": null, "height": 12.3, "min_height": 0.0, "levels": null, "height_source": "lidar", "roof_shape": "flat", "roof_height": 0.0, "roof_azimuth": null, "roof_source": "heuristic", "roof_color": "roof_flat", "roof_color_source": "ortho", "lod2_roof": null, "roof_props": null, "wall_color": "cream", "type": "yes", "landmark": null, "footprint_source": "osm", "source_updated": null, "is_part": false, "parent": null, "hidden": false, "addr": "15 East Grace Street", "wikidata": null, "website": null, "zoning": "B-4", "lidar_p90": 12.78, "ground_z": 55.25 }, "geometry": { "type": "Polygon", "coordinates": [ [ [ 284252.35, 4158051.82 ], [ 284243.09, 4158039.84 ], [ 284241.79, 4158040.88 ], [ 284234.07, 4158031.2 ], [ 284230.4, 4158034.11 ], [ 284247.66, 4158055.75 ], [ 284252.35, 4158051.82 ] ] ] } },
{ "type": "Feature", "properties": { "id": "osm:way/321391724", "name": null, "height": 12.22, "min_height": 0.0, "levels": null, "height_source": "lidar", "roof_shape": "flat", "roof_height": 0.0, "roof_azimuth": null, "roof_source": "heuristic", "roof_color": "roof_flat", "roof_color_source": "ortho", "lod2_roof": null, "roof_props": null, "wall_color": "sand", "type": "yes", "landmark": null, "footprint_source": "osm", "source_updated": null, "is_part": false, "parent": null, "hidden": false, "addr": "13 East Grace Street", "wikidata": null, "website": null, "zoning": "B-4", "lidar_p90": 12.8, "ground_z": 55.29 }, "geometry": { "type": "Polygon", "coordinates": [ [ [ 284242.43, 4158060.01 ], [ 284247.66, 4158055.75 ], [ 284238.34, 4158044.05 ], [ 284237.45, 4158044.75 ], [ 284235.46, 4158042.23 ], [ 284234.49, 4158043.0 ], [ 284228.29, 4158035.15 ], [ 284225.05, 4158037.7 ], [ 284242.43, 4158060.01 ] ] ] } },
{ "type": "Feature", "properties": { "id": "osm:way/321391705", "name": null, "height": 7.75, "min_height": 0.0, "levels": null, "height_source": "lidar", "roof_shape": "flat", "roof_height": 4.8, "roof_azimuth": null, "roof_source": "lod2", "roof_color": "roof_flat", "roof_color_source": "ortho", "lod2_roof": { "v": [ [ 284243.19, 4158061.0, 4.8 ], [ 284243.19, 4158061.0, 0.25 ], [ 284242.12, 4158061.85, 0.24 ], [ 284242.12, 4158061.85, 4.72 ], [ 284240.34, 4158066.62, 1.15 ], [ 284239.8, 4158065.92, 1.96 ], [ 284220.55, 4158041.17, 0.0 ], [ 284221.26, 4158040.62, 0.0 ], [ 284225.83, 4158038.7, 0.81 ], [ 284233.33, 4158048.34, 0.79 ], [ 284233.33, 4158048.34, 4.63 ], [ 284232.13, 4158049.48, 4.54 ], [ 284232.13, 4158049.48, 0.93 ], [ 284243.81, 4158063.95, 2.9 ], [ 284243.81, 4158063.95, 1.18 ], [ 284243.24, 4158063.24, 2.01 ], [ 284244.85, 4158063.14, 2.93 ], [ 284232.13, 4158049.48, 0.0 ], [ 284238.73, 4158064.54, 0.23 ], [ 284225.68, 4158047.76, 0.0 ], [ 284225.68, 4158047.76, 0.0 ], [ 284226.55, 4158045.75, 0.0 ], [ 284226.55, 4158045.75, 0.0 ], [ 284226.84, 4158045.07, 0.0 ], [ 284228.13, 4158044.53, 0.0 ], [ 284228.13, 4158044.53, 0.95 ], [ 284224.23, 4158039.69, 0.97 ] ], "f": [ [ [ 14, 4, 5, 15 ] ], [ [ 3, 11, 10, 0 ] ], [ [ 1, 16, 13, 15, 5, 18, 2 ] ], [ [ 24, 17, 2, 18, 20, 22, 23 ] ], [ [ 26, 8, 9, 12, 25 ] ], [ [ 7, 21, 19, 6 ] ], [ [ 0, 1, 2, 3 ] ], [ [ 11, 12, 9, 10 ] ], [ [ 13, 14, 15 ] ], [ [ 3, 2, 17, 12, 11 ] ], [ [ 20, 19, 21, 22 ] ], [ [ 12, 17, 24, 25 ] ] ] }, "roof_props": null, "wall_color": "terracotta", "type": "yes", "landmark": null, "footprint_source": "osm", "source_updated": null, "is_part": false, "parent": null, "hidden": false, "addr": "11 East Grace Street", "wikidata": null, "website": null, "zoning": "B-4", "lidar_p90": 11.95, "ground_z": 55.33 }, "geometry": { "type": "Polygon", "coordinates": [ [ [ 284240.34, 4158066.62 ], [ 284244.85, 4158063.14 ], [ 284225.05, 4158037.7 ], [ 284220.55, 4158041.17 ], [ 284240.34, 4158066.62 ] ] ] } },
{ "type": "Feature", "properties": { "id": "osm:way/321391684", "name": null, "height": 11.12, "min_height": 0.0, "levels": null, "height_source": "lidar", "roof_shape": "flat", "roof_height": 0.0, "roof_azimuth": null, "roof_source": "lidar", "roof_color": "roof_flat", "roof_color_source": "ortho", "lod2_roof": null, "roof_props": null, "wall_color": "sand", "type": "yes", "landmark": null, "footprint_source": "osm", "source_updated": null, "is_part": false, "parent": null, "hidden": false, "addr": "111 N Foushee St", "wikidata": null, "website": null, "zoning": "B-4", "lidar_p90": 11.57, "ground_z": 55.32 }, "geometry": { "type": "Polygon", "coordinates": [ [ [ 284173.96, 4158070.6 ], [ 284188.1, 4158059.51 ], [ 284182.16, 4158052.0 ], [ 284168.02, 4158063.09 ], [ 284173.96, 4158070.6 ] ] ] } },
{ "type": "Feature", "properties": { "id": "osm:way/321391694", "name": null, "height": 5.85, "min_height": 0.0, "levels": null, "height_source": "lidar", "roof_shape": "flat", "roof_height": 5.9, "roof_azimuth": null, "roof_source": "lod2", "roof_color": "slate", "roof_color_source": "ortho", "lod2_roof": { "v": [ [ 284186.46, 4158073.04, 0.0 ], [ 284183.83, 4158075.11, 0.07 ], [ 284182.05, 4158065.3, 5.17 ], [ 284182.05, 4158065.3, 0.03 ], [ 284180.87, 4158066.14, 0.06 ], [ 284180.87, 4158066.14, 4.58 ], [ 284185.21, 4158069.3, 0.0 ], [ 284181.56, 4158064.68, 5.13 ], [ 284178.23, 4158068.03, 0.13 ], [ 284178.23, 4158068.03, 5.9 ], [ 284177.87, 4158067.58, 5.52 ], [ 284180.31, 4158065.67, 4.49 ], [ 284180.31, 4158065.67, 5.43 ], [ 284180.87, 4158066.14, 5.9 ] ], "f": [ [ [ 5, 11, 7, 2 ] ], [ [ 8, 4, 3, 6, 0, 1 ] ], [ [ 13, 9, 10, 12 ] ], [ [ 2, 3, 4, 5 ] ], [ [ 12, 11, 5, 13 ] ], [ [ 13, 5, 4, 8, 9 ] ] ] }, "roof_props": null, "wall_color": "cream", "type": "yes", "landmark": null, "footprint_source": "osm", "source_updated": null, "is_part": false, "parent": null, "hidden": false, "addr": null, "wikidata": null, "website": null, "zoning": "B-4", "lidar_p90": 6.41, "ground_z": 55.29 }, "geometry": { "type": "Polygon", "coordinates": [ [ [ 284183.83, 4158075.11 ], [ 284187.52, 4158072.21 ], [ 284181.56, 4158064.68 ], [ 284177.87, 4158067.58 ], [ 284183.83, 4158075.11 ] ] ] } },
{ "type": "Feature", "properties": { "id": "osm:way/321391718", "name": "Downtown YMCA", "height": 12.8, "min_height": 0.0, "levels": 4.0, "height_source": "osm_levels", "roof_shape": "flat", "roof_height": 0.0, "roof_azimuth": null, "roof_source": "heuristic", "roof_color": "roof_flat", "roof_color_source": "ortho", "lod2_roof": null, "roof_props": null, "wall_color": "concrete", "type": "yes", "landmark": null, "footprint_source": "osm", "source_updated": null, "is_part": false, "parent": null, "hidden": false, "addr": "2 West Franklin Street", "wikidata": "Q141156597", "website": "https://www.ymcarichmond.org/locations/downtown", "zoning": "RO-3", "lidar_p90": 15.7, "ground_z": 56.45 }, "geometry": { "type": "Polygon", "coordinates": [ [ [ 284095.06, 4158062.56 ], [ 284073.71, 4158079.19 ], [ 284099.66, 4158111.66 ], [ 284153.13, 4158069.63 ], [ 284123.7, 4158032.5 ], [ 284091.38, 4158057.91 ], [ 284095.06, 4158062.56 ] ] ] } },
{ "type": "Feature", "properties": { "id": "osm:way/321384679", "name": null, "height": 14.25, "min_height": 0.0, "levels": 3.0, "height_source": "lidar", "roof_shape": "gable", "roof_height": 3.66, "roof_azimuth": 38.5, "roof_source": "lidar", "roof_color": "roof_flat", "roof_color_source": "ortho", "lod2_roof": null, "roof_props": null, "wall_color": "brick", "type": "yes", "landmark": null, "footprint_source": "osm", "source_updated": null, "is_part": false, "parent": null, "hidden": false, "addr": "13 West Franklin Street", "wikidata": null, "website": null, "zoning": "RO-3", "lidar_p90": 17.74, "ground_z": 55.48 }, "geometry": { "type": "Polygon", "coordinates": [ [ [ 284040.41, 4158065.68 ], [ 284058.49, 4158051.4 ], [ 284030.73, 4158016.54 ], [ 284012.65, 4158030.82 ], [ 284040.41, 4158065.68 ] ] ] } },
{ "type": "Feature", "properties": { "id": "osm:way/321391707", "name": null, "height": 9.6, "min_height": 0.0, "levels": 3.0, "height_source": "osm_levels", "roof_shape": "gable", "roof_height": 3.22, "roof_azimuth": null, "roof_source": "heuristic", "roof_color": "slate", "roof_color_source": "ortho", "lod2_roof": null, "roof_props": null, "wall_color": "brick_dark", "type": "house", "landmark": null, "footprint_source": "osm", "source_updated": null, "is_part": false, "parent": null, "hidden": false, "addr": "18 West Franklin Street", "wikidata": null, "website": null, "zoning": "RO-3", "lidar_p90": 13.37, "ground_z": 57.1 }, "geometry": { "type": "Polygon", "coordinates": [ [ [ 284068.42, 4158083.45 ], [ 284079.03, 4158096.53 ], [ 284080.74, 4158095.17 ], [ 284087.72, 4158103.77 ], [ 284091.31, 4158100.89 ], [ 284073.71, 4158079.19 ], [ 284068.42, 4158083.45 ] ] ] } },
{ "type": "Feature", "properties": { "id": "osm:way/321391680", "name": "Chesterman Place", "height": 17.32, "min_height": 0.0, "levels": null, "height_source": "lidar", "roof_shape": "flat", "roof_height": 0.0, "roof_azimuth": null, "roof_source": "lidar", "roof_color": "roof_flat", "roof_color_source": "ortho", "lod2_roof": null, "roof_props": null, "wall_color": "cream", "type": "yes", "landmark": null, "footprint_source": "osm", "source_updated": null, "is_part": false, "parent": null, "hidden": false, "addr": "100 West Franklin Street", "wikidata": "Q141157983", "website": null, "zoning": "RO-3", "lidar_p90": 17.86, "ground_z": 57.28 }, "geometry": { "type": "Polygon", "coordinates": [ [ [ 284047.84, 4158126.96 ], [ 284061.09, 4158116.93 ], [ 284056.83, 4158111.12 ], [ 284057.11, 4158108.78 ], [ 284055.65, 4158106.82 ], [ 284053.14, 4158106.26 ], [ 284048.55, 4158100.36 ], [ 284047.59, 4158101.16 ], [ 284045.58, 4158100.87 ], [ 284043.57, 4158102.37 ], [ 284043.1, 4158105.06 ], [ 284040.66, 4158106.88 ], [ 284038.36, 4158106.55 ], [ 284035.96, 4158108.26 ], [ 284035.67, 4158110.55 ], [ 284034.96, 4158111.01 ], [ 284047.84, 4158126.96 ] ] ] } },
{ "type": "Feature", "properties": { "id": "osm:way/321384571", "name": null, "height": 10.0, "min_height": 0.0, "levels": null, "height_source": "zoning", "roof_shape": "flat", "roof_height": 0.0, "roof_azimuth": null, "roof_source": "heuristic", "roof_color": "slate", "roof_color_source": "ortho", "lod2_roof": null, "roof_props": null, "wall_color": "sand", "type": "roof", "landmark": null, "footprint_source": "osm", "source_updated": null, "is_part": false, "parent": null, "hidden": false, "addr": null, "wikidata": null, "website": null, "zoning": "RO-3", "lidar_p90": 3.49, "ground_z": 55.93 }, "geometry": { "type": "Polygon", "coordinates": [ [ [ 284025.33, 4158119.54 ], [ 284020.37, 4158113.05 ], [ 284015.02, 4158117.11 ], [ 284019.98, 4158123.6 ], [ 284025.33, 4158119.54 ] ] ] } },
{ "type": "Feature", "properties": { "id": "osm:way/321391670", "name": null, "height": 17.89, "min_height": 0.0, "levels": null, "height_source": "lidar", "roof_shape": "flat", "roof_height": 0.0, "roof_azimuth": null, "roof_source": "heuristic", "roof_color": "roof_flat", "roof_color_source": "ortho", "lod2_roof": null, "roof_props": null, "wall_color": "concrete", "type": "yes", "landmark": null, "footprint_source": "osm", "source_updated": null, "is_part": false, "parent": null, "hidden": false, "addr": null, "wikidata": null, "website": null, "zoning": "RO-3", "lidar_p90": 20.09, "ground_z": 57.17 }, "geometry": { "type": "Polygon", "coordinates": [ [ [ 284064.99, 4158149.43 ], [ 284079.76, 4158138.24 ], [ 284073.36, 4158129.86 ], [ 284069.72, 4158132.62 ], [ 284067.12, 4158129.2 ], [ 284070.87, 4158126.36 ], [ 284064.31, 4158117.77 ], [ 284062.68, 4158119.01 ], [ 284061.09, 4158116.93 ], [ 284047.84, 4158126.96 ], [ 284064.99, 4158149.43 ] ] ] } },
{ "type": "Feature", "properties": { "id": "osm:way/264518644", "name": "Trolley Square", "height": 63.47, "min_height": 0.0, "levels": 17.0, "height_source": "osm_height", "roof_shape": "flat", "roof_height": 0.0, "roof_azimuth": null, "roof_source": "heuristic", "roof_color": "roof_flat", "roof_color_source": "ortho", "lod2_roof": null, "roof_props": null, "wall_color": "slate", "type": "yes", "landmark": null, "footprint_source": "osm", "source_updated": null, "is_part": false, "parent": null, "hidden": false, "addr": "104 West Franklin Street", "wikidata": null, "website": null, "zoning": "RO-3", "lidar_p90": 51.81, "ground_z": 55.44 }, "geometry": { "type": "Polygon", "coordinates": [ [ [ 284030.41, 4158115.65 ], [ 284015.11, 4158127.49 ], [ 284043.46, 4158163.87 ], [ 284058.77, 4158152.05 ], [ 284030.41, 4158115.65 ] ] ] } },
{ "type": "Feature", "properties": { "id": "osm:way/321391675", "name": "Taylor-Mayo House", "height": 10.39, "min_height": 0.0, "levels": null, "height_source": "lidar", "roof_shape": "flat", "roof_height": 0.0, "roof_azimuth": null, "roof_source": "heuristic", "roof_color": "roof_flat", "roof_color_source": "ortho", "lod2_roof": null, "roof_props": null, "wall_color": "brick", "type": "yes", "landmark": null, "footprint_source": "osm", "source_updated": null, "is_part": false, "parent": null, "hidden": false, "addr": "116 West Franklin Street", "wikidata": "Q16901369", "website": null, "zoning": "RO-3", "lidar_p90": 11.32, "ground_z": 56.36 }, "geometry": { "type": "Polygon", "coordinates": [ [ [ 284008.35, 4158168.36 ], [ 284005.53, 4158164.75 ], [ 284008.19, 4158162.69 ], [ 284005.74, 4158159.54 ], [ 284015.83, 4158151.74 ], [ 284003.28, 4158135.61 ], [ 283999.64, 4158138.43 ], [ 283997.79, 4158136.05 ], [ 283989.73, 4158142.25 ], [ 283991.7, 4158144.78 ], [ 283986.49, 4158148.8 ], [ 284004.2, 4158171.57 ], [ 284008.35, 4158168.36 ] ] ] } },
{ "type": "Feature", "properties": { "id": "osm:way/321391725", "name": null, "height": 12.35, "min_height": 0.0, "levels": null, "height_source": "lidar", "roof_shape": "flat", "roof_height": 0.0, "roof_azimuth": null, "roof_source": "heuristic", "roof_color": "roof_flat", "roof_color_source": "ortho", "lod2_roof": null, "roof_props": null, "wall_color": "cream", "type": "yes", "landmark": null, "footprint_source": "osm", "source_updated": null, "is_part": false, "parent": null, "hidden": false, "addr": "17 East Grace Street", "wikidata": null, "website": null, "zoning": "B-4", "lidar_p90": 12.64, "ground_z": 55.07 }, "geometry": { "type": "Polygon", "coordinates": [ [ [ 284252.35, 4158051.82 ], [ 284258.08, 4158047.41 ], [ 284249.0, 4158035.68 ], [ 284247.6, 4158036.75 ], [ 284244.16, 4158032.31 ], [ 284243.27, 4158033.0 ], [ 284237.97, 4158026.15 ], [ 284234.53, 4158028.79 ], [ 284252.35, 4158051.82 ] ] ] } },
{ "type": "Feature", "properties": { "id": "osm:way/321367929", "name": null, "height": 12.37, "min_height": 0.0, "levels": null, "height_source": "lidar", "roof_shape": "flat", "roof_height": 0.0, "roof_azimuth": null, "roof_source": "heuristic", "roof_color": "roof_flat", "roof_color_source": "ortho", "lod2_roof": null, "roof_props": null, "wall_color": "sand", "type": "yes", "landmark": null, "footprint_source": "osm", "source_updated": null, "is_part": false, "parent": null, "hidden": false, "addr": "205 North Foushee Street", "wikidata": null, "website": null, "zoning": "B-4", "lidar_p90": 13.42, "ground_z": 54.47 }, "geometry": { "type": "Polygon", "coordinates": [ [ [ 284236.22, 4158149.92 ], [ 284256.35, 4158134.14 ], [ 284258.68, 4158137.1 ], [ 284263.33, 4158133.45 ], [ 284254.96, 4158122.85 ], [ 284230.18, 4158142.28 ], [ 284236.22, 4158149.92 ] ] ] } },
{ "type": "Feature", "properties": { "id": "osm:way/321367858", "name": null, "height": 4.93, "min_height": 0.0, "levels": null, "height_source": "lidar", "roof_shape": "flat", "roof_height": 0.31, "roof_azimuth": null, "roof_source": "lod2", "roof_color": "roof_flat", "roof_color_source": "ortho", "lod2_roof": { "v": [ [ 284253.18, 4158124.25, 0.31 ], [ 284248.7, 4158127.77, 0.3 ], [ 284228.35, 4158102.2, 0.0 ], [ 284227.59, 4158101.25, 0.0 ], [ 284228.35, 4158102.2, 0.28 ], [ 284232.76, 4158097.17, 0.0 ], [ 284233.56, 4158098.23, 0.0 ], [ 284233.56, 4158098.23, 0.3 ] ], "f": [ [ [ 5, 6, 2, 3 ] ], [ [ 7, 0, 1, 4 ] ], [ [ 4, 2, 6, 7 ] ] ] }, "roof_props": null, "wall_color": "cream", "type": "yes", "landmark": null, "footprint_source": "osm", "source_updated": null, "is_part": false, "parent": null, "hidden": false, "addr": "12 E Grace St", "wikidata": null, "website": null, "zoning": "B-4", "lidar_p90": 5.61, "ground_z": 54.34 }, "geometry": { "type": "Polygon", "coordinates": [ [ [ 284227.59, 4158101.25 ], [ 284248.7, 4158127.77 ], [ 284254.96, 4158122.85 ], [ 284234.03, 4158096.17 ], [ 284227.59, 4158101.25 ] ] ] } },
{ "type": "Feature", "properties": { "id": "osm:way/321367917", "name": null, "height": 5.87, "min_height": 0.0, "levels": null, "height_source": "lidar", "roof_shape": "flat", "roof_height": 4.03, "roof_azimuth": null, "roof_source": "lod2", "roof_color": "roof_flat", "roof_color_source": "ortho", "lod2_roof": { "v": [ [ 284246.02, 4158124.39, 0.0 ], [ 284234.57, 4158133.43, 0.0 ], [ 284227.59, 4158101.25, 0.0 ], [ 284228.65, 4158102.58, 0.0 ], [ 284228.65, 4158102.58, 0.0 ], [ 284234.84, 4158113.35, 2.16 ], [ 284234.84, 4158113.35, 0.0 ], [ 284224.98, 4158121.38, 0.0 ], [ 284224.98, 4158121.38, 2.15 ], [ 284222.95, 4158106.94, 3.88 ], [ 284222.95, 4158106.94, 2.63 ], [ 284217.29, 4158111.72, 2.61 ], [ 284217.29, 4158111.72, 4.03 ], [ 284227.47, 4158103.48, 2.63 ], [ 284227.47, 4158103.48, 0.0 ], [ 284227.47, 4158103.48, 0.0 ], [ 284217.02, 4158111.38, 3.73 ], [ 284217.02, 4158111.38, 0.0 ], [ 284222.95, 4158106.94, 0.0 ], [ 284223.04, 4158106.83, 2.63 ], [ 284223.04, 4158106.83, 0.0 ], [ 284224.31, 4158105.25, 0.0 ], [ 284224.31, 4158105.25, 2.65 ], [ 284227.31, 4158103.26, 2.64 ], [ 284227.31, 4158103.26, 0.0 ], [ 284226.24, 4158104.16, 2.64 ], [ 284226.24, 4158104.16, 0.0 ], [ 284216.15, 4158110.29, 0.0 ] ], "f": [ [ [ 12, 16, 9 ] ], [ [ 3, 0, 1, 7, 6, 15 ] ], [ [ 22, 25, 23, 13, 5, 8, 11, 10, 19 ] ], [ [ 17, 27, 2, 4, 14, 24, 26, 21, 20, 18 ] ], [ [ 5, 6, 7, 8 ] ], [ [ 9, 10, 11, 12 ] ], [ [ 13, 14, 15, 6, 5 ] ], [ [ 4, 3, 15, 14 ] ], [ [ 16, 17, 18, 10, 9 ] ], [ [ 19, 20, 21, 22 ] ], [ [ 23, 24, 14, 13 ] ], [ [ 25, 26, 24, 23 ] ], [ [ 10, 18, 20, 19 ] ], [ [ 22, 21, 26, 25 ] ] ] }, "roof_props": null, "wall_color": "brick", "type": "yes", "landmark": null, "footprint_source": "osm", "source_updated": null, "is_part": false, "parent": null, "hidden": false, "addr": "6 E Grace St Fl 2", "wikidata": null, "website": null, "zoning": "B-4", "lidar_p90": 8.3, "ground_z": 54.75 }, "geometry": { "type": "Polygon", "coordinates": [ [ [ 284216.15, 4158110.29 ], [ 284234.57, 4158133.43 ], [ 284246.02, 4158124.39 ], [ 284227.59, 4158101.25 ], [ 284216.15, 4158110.29 ] ] ] } },
{ "type": "Feature", "properties": { "id": "osm:way/321384583", "name": null, "height": 7.03, "min_height": 0.0, "levels": null, "height_source": "lidar", "roof_shape": "flat", "roof_height": 1.86, "roof_azimuth": null, "roof_source": "lod2", "roof_color": "roof_flat", "roof_color_source": "ortho", "lod2_roof": { "v": [ [ 284142.1, 4158130.36, 1.79 ], [ 284142.1, 4158130.36, 0.7 ], [ 284146.03, 4158128.75, 0.74 ], [ 284146.03, 4158128.75, 1.83 ], [ 284123.48, 4158113.26, 0.0 ], [ 284131.92, 4158106.61, 0.0 ], [ 284131.12, 4158122.86, 0.0 ], [ 284139.35, 4158115.94, 0.0 ], [ 284145.73, 4158130.31, 0.76 ], [ 284145.73, 4158130.31, 1.86 ], [ 284152.83, 4158135.44, 1.0 ], [ 284145.65, 4158141.12, 0.99 ], [ 284131.12, 4158122.86, 0.36 ], [ 284138.12, 4158116.98, 0.0 ], [ 284138.12, 4158116.98, 0.35 ], [ 284142.65, 4158131.85, 1.84 ], [ 284142.65, 4158131.85, 0.75 ] ], "f": [ [ [ 9, 15, 0, 3 ] ], [ [ 7, 13, 6, 4, 5 ] ], [ [ 14, 10, 11, 12 ], [ 16, 8, 2, 1 ] ], [ [ 0, 1, 2, 3 ] ], [ [ 3, 2, 8, 9 ] ], [ [ 12, 6, 13, 14 ] ], [ [ 15, 16, 1, 0 ] ], [ [ 9, 8, 16, 15 ] ] ] }, "roof_props": null, "wall_color": "cream", "type": "yes", "landmark": null, "footprint_source": "osm", "source_updated": null, "is_part": false, "parent": null, "hidden": false, "addr": "9 West Grace Street", "wikidata": null, "website": null, "zoning": "B-4", "lidar_p90": 8.39, "ground_z": 56.2 }, "geometry": { "type": "Polygon", "coordinates": [ [ [ 284122.31, 4158111.8 ], [ 284145.65, 4158141.12 ], [ 284154.09, 4158134.44 ], [ 284130.75, 4158105.14 ], [ 284122.31, 4158111.8 ] ] ] } },
{ "type": "Feature", "properties": { "id": "osm:way/321367854", "name": null, "height": 5.3, "min_height": 0.0, "levels": null, "height_source": "lidar", "roof_shape": "flat", "roof_height": 3.37, "roof_azimuth": null, "roof_source": "lod2", "roof_color": "roof_flat", "roof_color_source": "ortho", "lod2_roof": { "v": [ [ 284223.63, 4158122.83, 0.03 ], [ 284223.63, 4158122.83, 0.0 ], [ 284233.7, 4158135.21, 0.0 ], [ 284233.7, 4158135.21, 0.04 ], [ 284235.1, 4158134.1, 0.0 ], [ 284224.86, 4158121.23, 0.0 ], [ 284224.86, 4158121.23, 2.89 ], [ 284223.63, 4158122.83, 2.9 ], [ 284218.05, 4158115.97, 0.03 ], [ 284218.05, 4158115.97, 3.22 ], [ 284217.78, 4158115.02, 3.25 ], [ 284217.78, 4158115.02, 0.02 ], [ 284216.46, 4158114.02, 0.03 ], [ 284216.46, 4158114.02, 3.31 ], [ 284229.12, 4158138.82, 0.16 ], [ 284214.23, 4158114.38, 1.69 ], [ 284214.23, 4158114.38, 0.07 ], [ 284211.51, 4158116.7, 0.15 ], [ 284211.51, 4158116.7, 1.99 ], [ 284211.08, 4158116.16, 0.15 ], [ 284213.11, 4158114.5, 0.09 ], [ 284213.62, 4158113.04, 0.0 ], [ 284217.19, 4158111.61, 3.32 ], [ 284215.37, 4158112.67, 3.37 ], [ 284215.37, 4158112.67, 0.03 ], [ 284216.17, 4158112.02, 3.36 ], [ 284214.47, 4158112.7, 0.0 ], [ 284214.36, 4158113.49, 0.06 ], [ 284214.47, 4158112.7, 0.04 ], [ 284214.63, 4158112.63, 0.04 ], [ 284215.04, 4158112.94, 0.04 ] ], "f": [ [ [ 1, 5, 4, 2 ] ], [ [ 26, 27, 15, 18, 19, 20, 21 ] ], [ [ 30, 24, 12, 11, 8, 0, 3, 14, 17, 16, 27, 28, 29 ] ], [ [ 25, 22, 6, 7, 9, 10, 13, 23 ] ], [ [ 0, 1, 2, 3 ] ], [ [ 6, 5, 1, 0, 7 ] ], [ [ 7, 0, 8, 9 ] ], [ [ 10, 11, 12, 13 ] ], [ [ 9, 8, 11, 10 ] ], [ [ 15, 16, 17, 18 ] ], [ [ 13, 12, 24, 23 ] ], [ [ 16, 15, 27 ] ], [ [ 26, 28, 27 ] ] ] }, "roof_props": null, "wall_color": "cream", "type": "yes", "landmark": null, "footprint_source": "osm", "source_updated": null, "is_part": false, "parent": null, "hidden": false, "addr": "2 E Grace St", "wikidata": null, "website": null, "zoning": "B-4", "lidar_p90": 8.56, "ground_z": 54.64 }, "geometry": { "type": "Polygon", "coordinates": [ [ [ 284210.17, 4158115.01 ], [ 284229.12, 4158138.82 ], [ 284235.1, 4158134.1 ], [ 284216.15, 4158110.29 ], [ 284210.17, 4158115.01 ] ] ] } },
{ "type": "Feature", "properties": { "id": "osm:way/321384674", "name": null, "height": 4.19, "min_height": 0.0, "levels": null, "height_source": "lidar", "roof_shape": "flat", "roof_height": 3.43, "roof_azimuth": null, "roof_source": "lod2", "roof_color": "roof_flat", "roof_color_source": "ortho", "lod2_roof": { "v": [ [ 284144.17, 4158142.28, 0.44 ], [ 284138.49, 4158146.77, 0.5 ], [ 284145.65, 4158141.12, 3.42 ], [ 284144.17, 4158142.28, 3.43 ], [ 284124.97, 4158115.15, 0.07 ], [ 284130.93, 4158122.63, 0.17 ], [ 284130.93, 4158122.63, 2.75 ], [ 284131.86, 4158131.26, 2.34 ], [ 284131.86, 4158131.26, 0.29 ], [ 284130.51, 4158132.3, 0.3 ], [ 284130.51, 4158132.3, 2.34 ], [ 284132.4, 4158127.37, 2.9 ], [ 284132.4, 4158127.37, 0.23 ], [ 284129.49, 4158123.69, 0.18 ], [ 284129.49, 4158123.69, 2.77 ], [ 284132.0, 4158127.64, 2.9 ], [ 284132.0, 4158127.64, 0.24 ], [ 284112.54, 4158114.17, 0.05 ], [ 284117.0, 4158110.26, 0.0 ], [ 284129.94, 4158129.03, 2.35 ], [ 284129.94, 4158129.03, 0.26 ], [ 284128.54, 4158129.97, 0.27 ], [ 284128.54, 4158129.97, 2.35 ], [ 284133.01, 4158128.15, 2.93 ], [ 284133.01, 4158128.15, 0.25 ] ], "f": [ [ [ 24, 0, 1, 17, 18, 4, 5, 13, 12, 16 ], [ 20, 21, 9, 8 ] ], [ [ 22, 19, 7, 10 ] ], [ [ 3, 23, 15, 11, 14, 6, 2 ] ], [ [ 7, 8, 9, 10 ] ], [ [ 11, 12, 13, 14 ] ], [ [ 15, 16, 12, 11 ] ], [ [ 19, 20, 8, 7 ] ], [ [ 10, 9, 21, 22 ] ], [ [ 22, 21, 20, 19 ] ], [ [ 14, 13, 5, 6 ] ], [ [ 23, 24, 16, 15 ] ], [ [ 3, 0, 24, 23 ] ] ] }, "roof_props": null, "wall_color": "concrete", "type": "yes", "landmark": null, "footprint_source": "osm", "source_updated": null, "is_part": false, "parent": null, "hidden": false, "addr": "11 West Grace Street", "wikidata": null, "website": null, "zoning": "B-4", "lidar_p90": 7.33, "ground_z": 56.57 }, "geometry": { "type": "Polygon", "coordinates": [ [ [ 284119.09, 4158107.75 ], [ 284111.93, 4158113.4 ], [ 284138.49, 4158146.77 ], [ 284145.65, 4158141.12 ], [ 284119.09, 4158107.75 ] ] ] } },
{ "type": "Feature", "properties": { "id": "osm:way/321367758", "name": "Salvation Army of Central Virginia", "height": 8.24, "min_height": 0.0, "levels": null, "height_source": "lidar", "roof_shape": "flat", "roof_height": 1.06, "roof_azimuth": null, "roof_source": "lod2", "roof_color": "roof_flat", "roof_color_source": "ortho", "lod2_roof": { "v": [ [ 284205.95, 4158163.73, 0.71 ], [ 284195.69, 4158171.97, 1.06 ], [ 284205.75, 4158163.49, 0.71 ], [ 284176.39, 4158148.13, 1.04 ], [ 284186.82, 4158139.77, 0.68 ], [ 284202.24, 4158157.51, 0.0 ], [ 284202.29, 4158157.58, 0.0 ], [ 284213.42, 4158148.74, 0.0 ], [ 284206.54, 4158162.84, 0.68 ], [ 284202.29, 4158157.58, 0.68 ], [ 284188.01, 4158141.26, 0.0 ], [ 284188.01, 4158141.26, 0.69 ], [ 284189.02, 4158140.5, 0.0 ], [ 284201.49, 4158158.15, 0.0 ], [ 284201.49, 4158158.15, 0.71 ], [ 284204.21, 4158134.65, 0.0 ], [ 284205.18, 4158135.86, 0.0 ], [ 284204.24, 4158136.56, 0.0 ], [ 284192.13, 4158144.35, 0.0 ] ], "f": [ [ [ 14, 9, 8, 2, 0, 1, 3, 4, 11 ] ], [ [ 18, 15, 16, 17, 7, 5, 6, 13, 10, 12 ] ], [ [ 11, 10, 13, 14 ] ], [ [ 14, 13, 6, 9 ] ] ] }, "roof_props": null, "wall_color": "cream", "type": "yes", "landmark": null, "footprint_source": "osm", "source_updated": null, "is_part": false, "parent": null, "hidden": false, "addr": "2 West Grace Street", "wikidata": null, "website": null, "zoning": "B-4", "lidar_p90": 8.65, "ground_z": 55.3 }, "geometry": { "type": "Polygon", "coordinates": [ [ [ 284195.69, 4158171.97 ], [ 284206.74, 4158163.09 ], [ 284202.24, 4158157.51 ], [ 284214.71, 4158147.72 ], [ 284204.21, 4158134.65 ], [ 284192.13, 4158144.35 ], [ 284187.79, 4158138.99 ], [ 284176.39, 4158148.13 ], [ 284195.69, 4158171.97 ] ] ] } },
{ "type": "Feature", "properties": { "id": "osm:way/772252359", "name": null, "height": 4.11, "min_height": 0.0, "levels": null, "height_source": "lidar", "roof_shape": "flat", "roof_height": 0.0, "roof_azimuth": null, "roof_source": "heuristic", "roof_color": "roof_dark", "roof_color_source": "heuristic", "lod2_roof": null, "roof_props": null, "wall_color": "cream", "type": "roof", "landmark": null, "footprint_source": "osm", "source_updated": null, "is_part": false, "parent": null, "hidden": false, "addr": null, "wikidata": null, "website": null, "zoning": "B-4", "lidar_p90": 5.97, "ground_z": 55.06 }, "geometry": { "type": "Polygon", "coordinates": [ [ [ 284214.61, 4158150.11 ], [ 284219.34, 4158156.08 ], [ 284220.57, 4158155.13 ], [ 284214.71, 4158147.72 ], [ 284202.24, 4158157.51 ], [ 284203.35, 4158158.93 ], [ 284214.61, 4158150.11 ] ] ] } },
{ "type": "Feature", "properties": { "id": "osm:way/772252360", "name": null, "height": 3.84, "min_height": 0.0, "levels": null, "height_source": "lidar", "roof_shape": "flat", "roof_height": 5.44, "roof_azimuth": null, "roof_source": "lod2", "roof_color": "roof_flat", "roof_color_source": "heuristic", "lod2_roof": { "v": [ [ 284205.16, 4158164.39, 0.0 ], [ 284206.38, 4158165.93, 0.0 ], [ 284204.76, 4158164.71, 5.05 ], [ 284204.76, 4158164.71, 0.0 ], [ 284204.71, 4158166.1, 0.0 ], [ 284204.71, 4158166.1, 5.44 ], [ 284200.18, 4158170.79, 0.0 ], [ 284198.96, 4158169.25, 0.0 ], [ 284199.05, 4158169.18, 0.0 ], [ 284199.14, 4158169.25, 5.26 ], [ 284199.14, 4158169.25, 0.0 ], [ 284199.05, 4158169.18, 5.23 ] ], "f": [ [ [ 5, 9, 11, 2 ] ], [ [ 10, 4, 3, 0, 1, 6, 7, 8 ] ], [ [ 2, 3, 4, 5 ] ], [ [ 9, 10, 8, 11 ] ], [ [ 5, 4, 10, 9 ] ] ] }, "roof_props": null, "wall_color": "concrete", "type": "roof", "landmark": null, "footprint_source": "osm", "source_updated": null, "is_part": false, "parent": null, "hidden": false, "addr": null, "wikidata": null, "website": null, "zoning": "B-4", "lidar_p90": 9.01, "ground_z": 55.07 }, "geometry": { "type": "Polygon", "coordinates": [ [ [ 284200.18, 4158170.79 ], [ 284206.38, 4158165.93 ], [ 284205.16, 4158164.39 ], [ 284198.96, 4158169.25 ], [ 284200.18, 4158170.79 ] ] ] } },
{ "type": "Feature", "properties": { "id": "osm:way/321367833", "name": null, "height": 9.6, "min_height": 0.0, "levels": 3.0, "height_source": "osm_levels", "roof_shape": "flat", "roof_height": 0.0, "roof_azimuth": null, "roof_source": "heuristic", "roof_color": "roof_flat", "roof_color_source": "ortho", "lod2_roof": null, "roof_props": null, "wall_color": "terracotta", "type": "yes", "landmark": null, "footprint_source": "osm", "source_updated": null, "is_part": false, "parent": null, "hidden": false, "addr": "1 West Broad Street", "wikidata": null, "website": null, "zoning": "B-4", "lidar_p90": 12.8, "ground_z": 54.12 }, "geometry": { "type": "Polygon", "coordinates": [ [ [ 284255.39, 4158198.46 ], [ 284230.18, 4158165.98 ], [ 284223.1, 4158171.43 ], [ 284248.31, 4158203.9 ], [ 284255.39, 4158198.46 ] ] ] } },
{ "type": "Feature", "properties": { "id": "osm:way/321367767", "name": null, "height": 9.6, "min_height": 0.0, "levels": 3.0, "height_source": "osm_levels", "roof_shape": "flat", "roof_height": 0.0, "roof_azimuth": null, "roof_source": "heuristic", "roof_color": "slate", "roof_color_source": "ortho", "lod2_roof": null, "roof_props": null, "wall_color": "sand", "type": "yes", "landmark": null, "footprint_source": "osm", "source_updated": null, "is_part": false, "parent": null, "hidden": false, "addr": "5 W Broad St", "wikidata": null, "website": null, "zoning": "B-4", "lidar_p90": 10.44, "ground_z": 54.16 }, "geometry": { "type": "Polygon", "coordinates": [ [ [ 284248.31, 4158203.9 ], [ 284223.26, 4158171.62 ], [ 284217.93, 4158175.73 ], [ 284242.99, 4158208.0 ], [ 284248.31, 4158203.9 ] ] ] } },
{ "type": "Feature", "properties": { "id": "osm:way/321367862", "name": null, "height": 16.0, "min_height": 0.0, "levels": 5.0, "height_source": "osm_levels", "roof_shape": "flat", "roof_height": 0.0, "roof_azimuth": null, "roof_source": "heuristic", "roof_color": "slate", "roof_color_source": "ortho", "lod2_roof": null, "roof_props": null, "wall_color": "sand", "type": "yes", "landmark": null, "footprint_source": "osm", "source_updated": null, "is_part": false, "parent": null, "hidden": false, "addr": "7 W Broad St", "wikidata": null, "website": null, "zoning": "B-4", "lidar_p90": 20.61, "ground_z": 54.12 }, "geometry": { "type": "Polygon", "coordinates": [ [ [ 284242.99, 4158208.0 ], [ 284217.89, 4158175.68 ], [ 284210.75, 4158181.19 ], [ 284235.84, 4158213.5 ], [ 284242.99, 4158208.0 ] ] ] } },
{ "type": "Feature", "properties": { "id": "osm:way/466540777", "name": null, "height": 3.2, "min_height": 0.0, "levels": 1.0, "height_source": "osm_levels", "roof_shape": "flat", "roof_height": 0.0, "roof_azimuth": null, "roof_source": "heuristic", "roof_color": "slate", "roof_color_source": "ortho", "lod2_roof": null, "roof_props": null, "wall_color": "terracotta", "type": "yes", "landmark": null, "footprint_source": "osm", "source_updated": null, "is_part": false, "parent": null, "hidden": false, "addr": "11 West Broad Street", "wikidata": null, "website": null, "zoning": "B-4", "lidar_p90": 18.07, "ground_z": 54.03 }, "geometry": { "type": "Polygon", "coordinates": [ [ [ 284235.84, 4158213.5 ], [ 284210.75, 4158181.19 ], [ 284204.74, 4158185.65 ], [ 284230.44, 4158218.05 ], [ 284235.84, 4158213.5 ] ] ] } },
{ "type": "Feature", "properties": { "id": "osm:way/321367856", "name": null, "height": 16.0, "min_height": 0.0, "levels": 5.0, "height_source": "osm_levels", "roof_shape": "flat", "roof_height": 0.0, "roof_azimuth": null, "roof_source": "heuristic", "roof_color": "slate", "roof_color_source": "ortho", "lod2_roof": null, "roof_props": null, "wall_color": "cream", "type": "yes", "landmark": null, "footprint_source": "osm", "source_updated": null, "is_part": false, "parent": null, "hidden": false, "addr": "13 W Broad St", "wikidata": null, "website": null, "zoning": "B-4", "lidar_p90": 21.76, "ground_z": 54.06 }, "geometry": { "type": "Polygon", "coordinates": [ [ [ 284230.44, 4158218.05 ], [ 284204.74, 4158185.65 ], [ 284192.02, 4158195.65 ], [ 284217.71, 4158228.06 ], [ 284230.44, 4158218.05 ] ] ] } },
{ "type": "Feature", "properties": { "id": "osm:way/321367794", "name": "The Mezzo at City Center Lofts", "height": 16.0, "min_height": 0.0, "levels": 5.0, "height_source": "osm_levels", "roof_shape": "flat", "roof_height": 0.0, "roof_azimuth": null, "roof_source": "heuristic", "roof_color": "roof_flat", "roof_color_source": "ortho", "lod2_roof": null, "roof_props": null, "wall_color": "terracotta", "type": "yes", "landmark": null, "footprint_source": "osm", "source_updated": null, "is_part": false, "parent": null, "hidden": false, "addr": "21 W Broad St", "wikidata": null, "website": null, "zoning": "B-4", "lidar_p90": 22.13, "ground_z": 54.17 }, "geometry": { "type": "Polygon", "coordinates": [ [ [ 284217.71, 4158228.06 ], [ 284191.6, 4158195.12 ], [ 284184.27, 4158201.2 ], [ 284210.24, 4158233.94 ], [ 284217.71, 4158228.06 ] ] ] } },
{ "type": "Feature", "properties": { "id": "osm:way/321367888", "name": null, "height": 16.0, "min_height": 0.0, "levels": 5.0, "height_source": "osm_levels", "roof_shape": "flat", "roof_height": 0.0, "roof_azimuth": null, "roof_source": "heuristic", "roof_color": "roof_flat", "roof_color_source": "ortho", "lod2_roof": null, "roof_props": null, "wall_color": "cream", "type": "yes", "landmark": null, "footprint_source": "osm", "source_updated": null, "is_part": false, "parent": null, "hidden": false, "addr": "23 W Broad St", "wikidata": null, "website": null, "zoning": "B-4", "lidar_p90": 20.34, "ground_z": 54.08 }, "geometry": { "type": "Polygon", "coordinates": [ [ [ 284210.24, 4158233.94 ], [ 284184.27, 4158201.2 ], [ 284178.07, 4158205.98 ], [ 284204.07, 4158238.78 ], [ 284210.24, 4158233.94 ] ] ] } },
{ "type": "Feature", "properties": { "id": "osm:way/321367832", "name": "City Center RVA", "height": 16.0, "min_height": 0.0, "levels": 5.0, "height_source": "osm_levels", "roof_shape": "flat", "roof_height": 0.0, "roof_azimuth": null, "roof_source": "heuristic", "roof_color": "roof_flat", "roof_color_source": "ortho", "lod2_roof": null, "roof_props": null, "wall_color": "terracotta", "type": "yes", "landmark": null, "footprint_source": "osm", "source_updated": null, "is_part": false, "parent": null, "hidden": false, "addr": "23 West Broad Street", "wikidata": null, "website": null, "zoning": "B-4", "lidar_p90": 21.04, "ground_z": 54.16 }, "geometry": { "type": "Polygon", "coordinates": [ [ [ 284204.07, 4158238.78 ], [ 284178.07, 4158205.98 ], [ 284172.4, 4158210.57 ], [ 284198.35, 4158243.28 ], [ 284204.07, 4158238.78 ] ] ] } },
{ "type": "Feature", "properties": { "id": "osm:way/321367766", "name": null, "height": 16.0, "min_height": 0.0, "levels": 5.0, "height_source": "osm_levels", "roof_shape": "flat", "roof_height": 0.0, "roof_azimuth": null, "roof_source": "heuristic", "roof_color": "slate", "roof_color_source": "ortho", "lod2_roof": null, "roof_props": null, "wall_color": "cream", "type": "yes", "landmark": null, "footprint_source": "osm", "source_updated": null, "is_part": false, "parent": null, "hidden": false, "addr": "27 West Broad Street", "wikidata": null, "website": null, "zoning": "B-4", "lidar_p90": 23.08, "ground_z": 54.19 }, "geometry": { "type": "Polygon", "coordinates": [ [ [ 284187.48, 4158251.83 ], [ 284198.35, 4158243.28 ], [ 284172.4, 4158210.57 ], [ 284161.53, 4158219.11 ], [ 284187.48, 4158251.83 ] ] ] } },
{ "type": "Feature", "properties": { "id": "osm:way/751167419", "name": null, "height": 3.41, "min_height": 0.0, "levels": null, "height_source": "lidar", "roof_shape": "flat", "roof_height": 0.0, "roof_azimuth": null, "roof_source": "heuristic", "roof_color": "concrete", "roof_color_source": "heuristic", "lod2_roof": null, "roof_props": null, "wall_color": "cream", "type": "yes", "landmark": null, "footprint_source": "osm", "source_updated": null, "is_part": false, "parent": null, "hidden": false, "addr": null, "wikidata": null, "website": null, "zoning": "B-4", "lidar_p90": 3.57, "ground_z": 54.31 }, "geometry": { "type": "Polygon", "coordinates": [ [ [ 284243.0, 4158229.15 ], [ 284241.29, 4158227.02 ], [ 284227.08, 4158238.32 ], [ 284228.79, 4158240.45 ], [ 284243.0, 4158229.15 ] ] ] } },
{ "type": "Feature", "properties": { "id": "osm:way/301428812", "name": null, "height": 9.6, "min_height": 0.0, "levels": 3.0, "height_source": "osm_levels", "roof_shape": "flat", "roof_height": 0.0, "roof_azimuth": null, "roof_source": "heuristic", "roof_color": "roof_flat", "roof_color_source": "ortho", "lod2_roof": null, "roof_props": null, "wall_color": "concrete", "type": "yes", "landmark": null, "footprint_source": "osm", "source_updated": null, "is_part": false, "parent": null, "hidden": false, "addr": "115 N Jefferson St Room 31", "wikidata": null, "website": null, "zoning": "B-4", "lidar_p90": 12.14, "ground_z": 55.51 }, "geometry": { "type": "Polygon", "coordinates": [ [ [ 284043.44, 4158222.79 ], [ 284067.81, 4158204.06 ], [ 284044.62, 4158174.1 ], [ 284020.23, 4158192.83 ], [ 284043.44, 4158222.79 ] ] ] } }
]
}
