{
"type": "FeatureCollection",
"name": "landuse",
"crs": { "type": "name", "properties": { "name": "urn:ogc:def:crs:EPSG::32618" } },
"xy_coordinate_resolution": 0.01,
"features": [
{ "type": "Feature", "properties": { "id": "imagery:groundcover_lawn:2032", "name": null, "kind": "groundcover_lawn", "sport": null, "surface": null, "pitch_layout": null, "source": "vgin_vbmp+naip+lidar2025", "source_updated": null, "base_z": null, "top_z": null }, "geometry": { "type": "Polygon", "coordinates": [ [ [ 281673.74, 4158501.72 ], [ 281673.9, 4158501.69 ], [ 281674.37, 4158501.63 ], [ 281674.53, 4158501.61 ], [ 281723.02, 4158500.1 ], [ 281724.52, 4158500.0 ], [ 281641.13, 4158500.0 ], [ 281641.13, 4158500.02 ], [ 281642.47, 4158502.52 ], [ 281646.32, 4158505.09 ], [ 281649.73, 4158504.86 ], [ 281665.2, 4158503.86 ], [ 281673.74, 4158501.72 ] ] ] } },
{ "type": "Feature", "properties": { "id": "imagery:groundcover_lawn:1973", "name": null, "kind": "groundcover_lawn", "sport": null, "surface": null, "pitch_layout": null, "source": "vgin_vbmp+naip+lidar2025", "source_updated": null, "base_z": null, "top_z": null }, "geometry": { "type": "MultiPolygon", "coordinates": [ [ [ [ 281691.77, 4158560.59 ], [ 281691.86, 4158560.57 ], [ 281691.96, 4158560.55 ], [ 281692.05, 4158560.54 ], [ 281692.15, 4158560.54 ], [ 281692.25, 4158560.55 ], [ 281692.35, 4158560.56 ], [ 281692.44, 4158560.59 ], [ 281692.53, 4158560.63 ], [ 281692.62, 4158560.68 ], [ 281692.7, 4158560.73 ], [ 281692.78, 4158560.79 ], [ 281692.85, 4158560.86 ], [ 281692.91, 4158560.94 ], [ 281692.96, 4158561.02 ], [ 281693.01, 4158561.1 ], [ 281693.19, 4158561.48 ], [ 281694.62, 4158560.79 ], [ 281694.71, 4158560.75 ], [ 281694.81, 4158560.72 ], [ 281694.9, 4158560.7 ], [ 281695.0, 4158560.69 ], [ 281695.1, 4158560.69 ], [ 281695.2, 4158560.7 ], [ 281695.29, 4158560.72 ], [ 281695.39, 4158560.75 ], [ 281695.48, 4158560.79 ], [ 281695.56, 4158560.83 ], [ 281695.65, 4158560.89 ], [ 281695.72, 4158560.95 ], [ 281695.79, 4158561.02 ], [ 281695.85, 4158561.09 ], [ 281695.91, 4158561.17 ], [ 281695.96, 4158561.26 ], [ 281696.13, 4158561.63 ], [ 281699.4, 4158561.63 ], [ 281699.44, 4158561.59 ], [ 281699.52, 4158561.54 ], [ 281699.6, 4158561.49 ], [ 281702.87, 4158559.93 ], [ 281702.96, 4158559.89 ], [ 281703.05, 4158559.87 ], [ 281703.15, 4158559.85 ], [ 281703.25, 4158559.84 ], [ 281703.34, 4158559.84 ], [ 281703.44, 4158559.85 ], [ 281703.54, 4158559.86 ], [ 281703.63, 4158559.89 ], [ 281703.72, 4158559.93 ], [ 281703.81, 4158559.98 ], [ 281703.89, 4158560.03 ], [ 281703.97, 4158560.09 ], [ 281704.04, 4158560.16 ], [ 281704.06, 4158560.19 ], [ 281704.86, 4158559.8 ], [ 281704.95, 4158559.77 ], [ 281705.04, 4158559.74 ], [ 281705.14, 4158559.72 ], [ 281705.24, 4158559.71 ], [ 281705.33, 4158559.71 ], [ 281705.43, 4158559.72 ], [ 281705.53, 4158559.74 ], [ 281705.62, 4158559.76 ], [ 281705.71, 4158559.8 ], [ 281705.8, 4158559.85 ], [ 281705.88, 4158559.9 ], [ 281705.96, 4158559.96 ], [ 281706.03, 4158560.03 ], [ 281706.09, 4158560.11 ], [ 281706.15, 4158560.19 ], [ 281706.19, 4158560.28 ], [ 281706.28, 4158560.47 ], [ 281708.69, 4158559.32 ], [ 281708.78, 4158559.28 ], [ 281708.87, 4158559.26 ], [ 281708.97, 4158559.24 ], [ 281709.07, 4158559.23 ], [ 281709.16, 4158559.23 ], [ 281709.26, 4158559.23 ], [ 281709.36, 4158559.25 ], [ 281709.45, 4158559.28 ], [ 281709.54, 4158559.32 ], [ 281709.63, 4158559.36 ], [ 281709.71, 4158559.42 ], [ 281709.79, 4158559.48 ], [ 281709.86, 4158559.55 ], [ 281709.92, 4158559.63 ], [ 281709.97, 4158559.71 ], [ 281710.02, 4158559.79 ], [ 281710.85, 4158561.54 ], [ 281712.77, 4158560.75 ], [ 281713.62, 4158559.89 ], [ 281714.56, 4158559.47 ], [ 281714.82, 4158559.45 ], [ 281714.52, 4158558.41 ], [ 281714.48, 4158558.26 ], [ 281714.46, 4158558.12 ], [ 281714.45, 4158557.97 ], [ 281714.46, 4158557.83 ], [ 281714.48, 4158557.68 ], [ 281714.51, 4158557.54 ], [ 281714.56, 4158557.4 ], [ 281715.82, 4158554.19 ], [ 281715.88, 4158554.06 ], [ 281715.95, 4158553.93 ], [ 281716.03, 4158553.81 ], [ 281716.13, 4158553.7 ], [ 281716.23, 4158553.6 ], [ 281716.34, 4158553.51 ], [ 281719.55, 4158551.16 ], [ 281719.67, 4158551.08 ], [ 281719.8, 4158551.01 ], [ 281719.93, 4158550.95 ], [ 281720.07, 4158550.91 ], [ 281720.22, 4158550.88 ], [ 281720.36, 4158550.86 ], [ 281730.52, 4158550.21 ], [ 281729.02, 4158547.96 ], [ 281726.53, 4158546.63 ], [ 281714.37, 4158546.63 ], [ 281712.25, 4158547.5 ], [ 281708.41, 4158551.35 ], [ 281707.84, 4158551.7 ], [ 281706.0, 4158552.33 ], [ 281705.34, 4158552.4 ], [ 281686.5, 4158550.05 ], [ 281683.13, 4158553.02 ], [ 281683.13, 4158556.77 ], [ 281684.79, 4158559.45 ], [ 281688.5, 4158561.31 ], [ 281689.68, 4158561.59 ], [ 281691.68, 4158560.63 ], [ 281691.77, 4158560.59 ] ] ], [ [ [ 281724.66, 4158559.95 ], [ 281725.05, 4158559.79 ], [ 281725.45, 4158559.66 ], [ 281725.87, 4158559.58 ], [ 281726.29, 4158559.54 ], [ 281726.71, 4158559.54 ], [ 281727.13, 4158559.58 ], [ 281727.24, 4158559.6 ], [ 281729.11, 4158559.13 ], [ 281729.86, 4158559.14 ], [ 281730.45, 4158559.31 ], [ 281732.82, 4158558.31 ], [ 281733.13, 4158560.63 ], [ 281739.04, 4158566.54 ], [ 281739.37, 4158567.02 ], [ 281740.02, 4158568.6 ], [ 281740.13, 4158569.16 ], [ 281740.13, 4158572.08 ], [ 281744.3, 4158574.82 ], [ 281747.43, 4158573.46 ], [ 281750.0, 4158572.26 ], [ 281750.0, 4158555.63 ], [ 281736.11, 4158555.63 ], [ 281735.98, 4158555.59 ], [ 281733.67, 4158556.59 ], [ 281733.27, 4158554.19 ], [ 281733.04, 4158553.98 ], [ 281732.51, 4158553.19 ], [ 281721.01, 4158553.93 ], [ 281718.54, 4158555.74 ], [ 281717.64, 4158558.04 ], [ 281718.07, 4158559.49 ], [ 281718.41, 4158559.6 ], [ 281719.4, 4158560.37 ], [ 281721.97, 4158560.92 ], [ 281723.87, 4158560.44 ], [ 281723.94, 4158560.39 ], [ 281724.29, 4158560.15 ], [ 281724.66, 4158559.95 ] ] ] ] } },
{ "type": "Feature", "properties": { "id": "richmond_structure:409821", "name": null, "kind": "deck", "sport": null, "surface": null, "pitch_layout": null, "source": "richmond_structures", "source_updated": "2026-09-08T12:07:13.637000Z", "base_z": null, "top_z": null }, "geometry": { "type": "Polygon", "coordinates": [ [ [ 281747.52, 4158572.59 ], [ 281750.0, 4158571.48 ], [ 281750.0, 4158564.98 ], [ 281745.1, 4158567.16 ], [ 281747.52, 4158572.59 ] ] ] } },
{ "type": "Feature", "properties": { "id": "richmond_structure:409822", "name": null, "kind": "deck", "sport": null, "surface": null, "pitch_layout": null, "source": "richmond_structures", "source_updated": "2026-09-08T12:07:13.637000Z", "base_z": null, "top_z": null }, "geometry": { "type": "Polygon", "coordinates": [ [ [ 281704.26, 4158580.79 ], [ 281703.08, 4158581.33 ], [ 281703.71, 4158582.69 ], [ 281704.88, 4158582.15 ], [ 281705.16, 4158582.74 ], [ 281707.35, 4158581.73 ], [ 281705.72, 4158578.22 ], [ 281703.54, 4158579.23 ], [ 281704.26, 4158580.79 ] ] ] } },
{ "type": "Feature", "properties": { "id": "imagery:groundcover_lawn:1866", "name": null, "kind": "groundcover_lawn", "sport": null, "surface": null, "pitch_layout": null, "source": "vgin_vbmp+naip+lidar2025", "source_updated": null, "base_z": null, "top_z": null }, "geometry": { "type": "Polygon", "coordinates": [ [ [ 281670.37, 4158611.98 ], [ 281670.47, 4158611.94 ], [ 281670.56, 4158611.91 ], [ 281670.65, 4158611.89 ], [ 281670.75, 4158611.88 ], [ 281670.85, 4158611.88 ], [ 281670.95, 4158611.89 ], [ 281671.04, 4158611.91 ], [ 281671.14, 4158611.94 ], [ 281671.23, 4158611.97 ], [ 281671.31, 4158612.02 ], [ 281671.4, 4158612.07 ], [ 281671.47, 4158612.13 ], [ 281671.54, 4158612.2 ], [ 281671.61, 4158612.28 ], [ 281671.66, 4158612.36 ], [ 281671.71, 4158612.45 ], [ 281671.79, 4158612.63 ], [ 281672.22, 4158612.63 ], [ 281672.27, 4158612.56 ], [ 281672.34, 4158612.49 ], [ 281672.41, 4158612.42 ], [ 281672.49, 4158612.37 ], [ 281672.58, 4158612.32 ], [ 281676.74, 4158610.22 ], [ 281676.83, 4158610.18 ], [ 281676.92, 4158610.15 ], [ 281677.02, 4158610.13 ], [ 281677.12, 4158610.12 ], [ 281677.21, 4158610.11 ], [ 281677.31, 4158610.12 ], [ 281677.41, 4158610.14 ], [ 281677.5, 4158610.17 ], [ 281677.6, 4158610.2 ], [ 281677.68, 4158610.25 ], [ 281677.77, 4158610.3 ], [ 281677.84, 4158610.36 ], [ 281677.92, 4158610.43 ], [ 281677.98, 4158610.5 ], [ 281678.04, 4158610.58 ], [ 281678.08, 4158610.67 ], [ 281678.32, 4158611.14 ], [ 281684.18, 4158603.82 ], [ 281684.17, 4158603.79 ], [ 281684.17, 4158603.69 ], [ 281684.19, 4158603.6 ], [ 281684.21, 4158603.5 ], [ 281684.24, 4158603.41 ], [ 281684.27, 4158603.32 ], [ 281684.32, 4158603.23 ], [ 281684.38, 4158603.15 ], [ 281684.44, 4158603.07 ], [ 281684.51, 4158603.0 ], [ 281684.59, 4158602.94 ], [ 281684.67, 4158602.89 ], [ 281684.76, 4158602.84 ], [ 281685.07, 4158602.7 ], [ 281688.44, 4158598.49 ], [ 281688.75, 4158598.19 ], [ 281689.79, 4158597.47 ], [ 281690.18, 4158597.28 ], [ 281699.59, 4158594.14 ], [ 281699.38, 4158593.7 ], [ 281699.34, 4158593.61 ], [ 281699.31, 4158593.52 ], [ 281699.29, 4158593.42 ], [ 281699.28, 4158593.32 ], [ 281699.28, 4158593.23 ], [ 281699.29, 4158593.13 ], [ 281699.31, 4158593.03 ], [ 281699.34, 4158592.94 ], [ 281699.38, 4158592.85 ], [ 281699.42, 4158592.76 ], [ 281699.48, 4158592.68 ], [ 281699.54, 4158592.6 ], [ 281699.61, 4158592.53 ], [ 281699.69, 4158592.47 ], [ 281699.77, 4158592.41 ], [ 281699.85, 4158592.37 ], [ 281704.86, 4158590.0 ], [ 281704.95, 4158589.97 ], [ 281705.04, 4158589.94 ], [ 281705.14, 4158589.92 ], [ 281705.24, 4158589.91 ], [ 281705.33, 4158589.91 ], [ 281705.43, 4158589.92 ], [ 281705.53, 4158589.94 ], [ 281705.62, 4158589.97 ], [ 281705.71, 4158590.0 ], [ 281705.8, 4158590.05 ], [ 281705.88, 4158590.1 ], [ 281705.96, 4158590.17 ], [ 281706.03, 4158590.24 ], [ 281706.09, 4158590.31 ], [ 281706.14, 4158590.39 ], [ 281706.19, 4158590.48 ], [ 281706.27, 4158590.65 ], [ 281707.13, 4158589.46 ], [ 281707.13, 4158587.66 ], [ 281705.25, 4158584.87 ], [ 281696.52, 4158581.38 ], [ 281678.63, 4158590.04 ], [ 281678.68, 4158590.09 ], [ 281678.75, 4158590.16 ], [ 281678.81, 4158590.24 ], [ 281678.86, 4158590.32 ], [ 281681.71, 4158595.74 ], [ 281681.75, 4158595.83 ], [ 281681.78, 4158595.92 ], [ 281681.81, 4158596.02 ], [ 281681.82, 4158596.12 ], [ 281681.83, 4158596.21 ], [ 281681.82, 4158596.31 ], [ 281681.81, 4158596.41 ], [ 281681.78, 4158596.5 ], [ 281681.75, 4158596.6 ], [ 281681.7, 4158596.68 ], [ 281681.65, 4158596.77 ], [ 281681.59, 4158596.85 ], [ 281681.53, 4158596.92 ], [ 281681.46, 4158596.98 ], [ 281681.38, 4158597.04 ], [ 281681.29, 4158597.09 ], [ 281678.48, 4158598.57 ], [ 281678.4, 4158598.61 ], [ 281678.3, 4158598.64 ], [ 281678.21, 4158598.67 ], [ 281678.11, 4158598.68 ], [ 281678.01, 4158598.69 ], [ 281677.91, 4158598.68 ], [ 281677.82, 4158598.66 ], [ 281677.72, 4158598.64 ], [ 281677.63, 4158598.61 ], [ 281677.54, 4158598.56 ], [ 281677.46, 4158598.51 ], [ 281677.38, 4158598.45 ], [ 281677.31, 4158598.39 ], [ 281677.24, 4158598.31 ], [ 281677.18, 4158598.24 ], [ 281677.13, 4158598.15 ], [ 281674.28, 4158592.73 ], [ 281674.24, 4158592.65 ], [ 281674.21, 4158592.55 ], [ 281674.18, 4158592.46 ], [ 281674.17, 4158592.36 ], [ 281674.17, 4158592.26 ], [ 281674.17, 4158592.2 ], [ 281659.88, 4158599.12 ], [ 281661.71, 4158610.12 ], [ 281664.67, 4158612.63 ], [ 281669.03, 4158612.63 ], [ 281670.37, 4158611.98 ] ] ] } },
{ "type": "Feature", "properties": { "id": "richmond_structure:409823", "name": null, "kind": "deck", "sport": null, "surface": null, "pitch_layout": null, "source": "richmond_structures", "source_updated": "2026-09-08T12:07:13.637000Z", "base_z": null, "top_z": null }, "geometry": { "type": "Polygon", "coordinates": [ [ [ 281685.73, 4158603.16 ], [ 281688.76, 4158601.75 ], [ 281688.08, 4158600.27 ], [ 281685.04, 4158601.68 ], [ 281685.73, 4158603.16 ] ] ] } },
{ "type": "Feature", "properties": { "id": "richmond_structure:409824", "name": null, "kind": "deck", "sport": null, "surface": null, "pitch_layout": null, "source": "richmond_structures", "source_updated": "2026-09-08T12:07:13.637000Z", "base_z": null, "top_z": null }, "geometry": { "type": "Polygon", "coordinates": [ [ [ 281682.82, 4158610.94 ], [ 281685.87, 4158609.53 ], [ 281684.98, 4158607.61 ], [ 281681.94, 4158609.02 ], [ 281682.82, 4158610.94 ] ] ] } },
{ "type": "Feature", "properties": { "id": "imagery:groundcover_lawn:1805", "name": null, "kind": "groundcover_lawn", "sport": null, "surface": null, "pitch_layout": null, "source": "vgin_vbmp+naip+lidar2025", "source_updated": null, "base_z": null, "top_z": null }, "geometry": { "type": "Polygon", "coordinates": [ [ [ 281740.85, 4158656.77 ], [ 281737.61, 4158647.05 ], [ 281735.71, 4158645.15 ], [ 281731.36, 4158643.7 ], [ 281727.46, 4158645.96 ], [ 281725.45, 4158656.05 ], [ 281726.27, 4158658.76 ], [ 281729.61, 4158662.11 ], [ 281739.0, 4158657.65 ], [ 281740.85, 4158656.77 ] ] ] } },
{ "type": "Feature", "properties": { "id": "richmond_structure:262447", "name": null, "kind": "deck", "sport": null, "surface": null, "pitch_layout": null, "source": "richmond_structures", "source_updated": "2026-09-08T12:07:13.637000Z", "base_z": null, "top_z": null }, "geometry": { "type": "Polygon", "coordinates": [ [ [ 281692.22, 4158658.51 ], [ 281691.12, 4158656.18 ], [ 281687.74, 4158657.79 ], [ 281688.85, 4158660.11 ], [ 281692.22, 4158658.51 ] ] ] } },
{ "type": "Feature", "properties": { "id": "richmond_structure:261499", "name": null, "kind": "deck", "sport": null, "surface": null, "pitch_layout": null, "source": "richmond_structures", "source_updated": "2026-09-08T12:07:13.637000Z", "base_z": null, "top_z": null }, "geometry": { "type": "Polygon", "coordinates": [ [ [ 281688.03, 4158660.33 ], [ 281686.99, 4158658.15 ], [ 281682.0, 4158660.52 ], [ 281683.04, 4158662.7 ], [ 281688.03, 4158660.33 ] ] ] } },
{ "type": "Feature", "properties": { "id": "imagery:groundcover_lawn:2005", "name": null, "kind": "groundcover_lawn", "sport": null, "surface": null, "pitch_layout": null, "source": "vgin_vbmp+naip+lidar2025", "source_updated": null, "base_z": null, "top_z": null }, "geometry": { "type": "Polygon", "coordinates": [ [ [ 281536.13, 4158507.9 ], [ 281536.13, 4158504.63 ], [ 281533.13, 4158501.63 ], [ 281527.73, 4158501.63 ], [ 281526.71, 4158501.2 ], [ 281525.51, 4158500.0 ], [ 281501.76, 4158500.0 ], [ 281500.55, 4158501.2 ], [ 281500.0, 4158501.43 ], [ 281500.0, 4158514.07 ], [ 281533.42, 4158510.88 ], [ 281536.13, 4158507.9 ] ] ] } },
{ "type": "Feature", "properties": { "id": "imagery:groundcover_lawn:1954", "name": null, "kind": "groundcover_lawn", "sport": null, "surface": null, "pitch_layout": null, "source": "vgin_vbmp+naip+lidar2025", "source_updated": null, "base_z": null, "top_z": null }, "geometry": { "type": "MultiPolygon", "coordinates": [ [ [ [ 281593.13, 4158504.63 ], [ 281596.13, 4158507.63 ], [ 281607.27, 4158507.63 ], [ 281625.18, 4158506.46 ], [ 281626.65, 4158505.28 ], [ 281627.83, 4158500.0 ], [ 281592.1, 4158500.0 ], [ 281592.25, 4158500.75 ], [ 281592.71, 4158501.2 ], [ 281593.13, 4158502.22 ], [ 281593.13, 4158504.63 ] ] ], [ [ [ 281584.75, 4158505.76 ], [ 281586.3, 4158501.12 ], [ 281586.83, 4158500.4 ], [ 281587.39, 4158500.0 ], [ 281554.6, 4158500.0 ], [ 281551.73, 4158503.83 ], [ 281551.13, 4158505.63 ], [ 281551.13, 4158507.34 ], [ 281554.4, 4158510.33 ], [ 281582.18, 4158507.8 ], [ 281584.75, 4158505.76 ] ] ] ] } },
{ "type": "Feature", "properties": { "id": "imagery:groundcover_lawn:1885", "name": null, "kind": "groundcover_lawn", "sport": null, "surface": null, "pitch_layout": null, "source": "vgin_vbmp+naip+lidar2025", "source_updated": null, "base_z": null, "top_z": null }, "geometry": { "type": "Polygon", "coordinates": [ [ [ 281651.01, 4158570.99 ], [ 281654.81, 4158559.57 ], [ 281651.97, 4158555.63 ], [ 281643.59, 4158555.63 ], [ 281640.65, 4158558.04 ], [ 281638.69, 4158567.82 ], [ 281640.91, 4158571.32 ], [ 281647.44, 4158572.95 ], [ 281651.01, 4158570.99 ] ] ] } },
{ "type": "Feature", "properties": { "id": "imagery:groundcover_lawn:1884", "name": null, "kind": "groundcover_lawn", "sport": null, "surface": null, "pitch_layout": null, "source": "vgin_vbmp+naip+lidar2025", "source_updated": null, "base_z": null, "top_z": null }, "geometry": { "type": "Polygon", "coordinates": [ [ [ 281606.98, 4158570.4 ], [ 281608.55, 4158571.05 ], [ 281610.71, 4158573.2 ], [ 281611.13, 4158574.22 ], [ 281611.13, 4158574.77 ], [ 281612.79, 4158577.45 ], [ 281613.43, 4158577.77 ], [ 281617.54, 4158576.24 ], [ 281617.55, 4158576.2 ], [ 281619.71, 4158574.05 ], [ 281620.73, 4158573.63 ], [ 281623.13, 4158573.63 ], [ 281625.9, 4158571.77 ], [ 281626.55, 4158570.2 ], [ 281628.71, 4158568.05 ], [ 281630.28, 4158567.4 ], [ 281632.13, 4158564.63 ], [ 281632.13, 4158561.98 ], [ 281628.8, 4158559.0 ], [ 281607.8, 4158561.33 ], [ 281605.13, 4158564.31 ], [ 281605.13, 4158567.63 ], [ 281606.98, 4158570.4 ] ] ] } },
{ "type": "Feature", "properties": { "id": "imagery:groundcover_lawn:1882", "name": null, "kind": "groundcover_lawn", "sport": null, "surface": null, "pitch_layout": null, "source": "vgin_vbmp+naip+lidar2025", "source_updated": null, "base_z": null, "top_z": null }, "geometry": { "type": "MultiPolygon", "coordinates": [ [ [ [ 281551.32, 4158573.63 ], [ 281551.44, 4158573.63 ], [ 281562.53, 4158573.63 ], [ 281563.55, 4158574.05 ], [ 281565.71, 4158576.2 ], [ 281566.13, 4158577.22 ], [ 281566.13, 4158580.28 ], [ 281566.21, 4158580.38 ], [ 281574.18, 4158576.62 ], [ 281574.34, 4158576.55 ], [ 281574.51, 4158576.5 ], [ 281574.68, 4158576.47 ], [ 281574.86, 4158576.45 ], [ 281575.04, 4158576.45 ], [ 281575.21, 4158576.47 ], [ 281575.39, 4158576.5 ], [ 281575.55, 4158576.55 ], [ 281575.72, 4158576.62 ], [ 281575.87, 4158576.7 ], [ 281576.02, 4158576.8 ], [ 281576.16, 4158576.91 ], [ 281576.28, 4158577.04 ], [ 281576.39, 4158577.18 ], [ 281576.49, 4158577.32 ], [ 281576.57, 4158577.48 ], [ 281576.64, 4158577.63 ], [ 281584.3, 4158573.92 ], [ 281584.76, 4158573.72 ], [ 281585.24, 4158573.59 ], [ 281591.51, 4158572.19 ], [ 281591.91, 4158572.12 ], [ 281592.32, 4158572.09 ], [ 281592.73, 4158572.1 ], [ 281593.83, 4158572.17 ], [ 281597.35, 4158569.15 ], [ 281598.08, 4158565.53 ], [ 281596.96, 4158563.28 ], [ 281594.28, 4158561.63 ], [ 281584.32, 4158561.63 ], [ 281583.95, 4158561.65 ], [ 281580.98, 4158562.02 ], [ 281563.68, 4158564.6 ], [ 281563.61, 4158564.61 ], [ 281534.52, 4158568.43 ], [ 281528.48, 4158571.45 ], [ 281526.96, 4158575.06 ], [ 281530.31, 4158577.1 ], [ 281550.83, 4158573.68 ], [ 281550.95, 4158573.66 ], [ 281551.32, 4158573.63 ] ] ], [ [ [ 281511.63, 4158577.32 ], [ 281508.45, 4158574.67 ], [ 281500.0, 4158575.23 ], [ 281500.0, 4158582.15 ], [ 281509.14, 4158580.62 ], [ 281511.63, 4158577.32 ] ] ] ] } },
{ "type": "Feature", "properties": { "id": "richmond_structure:408732", "name": null, "kind": "deck", "sport": null, "surface": null, "pitch_layout": null, "source": "richmond_structures", "source_updated": "2026-09-08T12:07:13.637000Z", "base_z": null, "top_z": null }, "geometry": { "type": "Polygon", "coordinates": [ [ [ 281677.12, 4158612.94 ], [ 281679.78, 4158611.7 ], [ 281677.92, 4158607.68 ], [ 281675.26, 4158608.92 ], [ 281677.12, 4158612.94 ] ] ] } },
{ "type": "Feature", "properties": { "id": "osm:way/1021484453", "name": null, "kind": "parking", "sport": null, "surface": "asphalt", "pitch_layout": null, "source": null, "source_updated": null, "base_z": null, "top_z": null }, "geometry": { "type": "Polygon", "coordinates": [ [ [ 281614.94, 4158627.43 ], [ 281606.18, 4158631.47 ], [ 281609.3, 4158638.02 ], [ 281603.75, 4158640.65 ], [ 281614.1, 4158662.32 ], [ 281624.08, 4158657.42 ], [ 281626.01, 4158650.71 ], [ 281614.94, 4158627.43 ] ] ] } },
{ "type": "Feature", "properties": { "id": "osm:way/1021484441", "name": null, "kind": "parking", "sport": null, "surface": "asphalt", "pitch_layout": null, "source": null, "source_updated": null, "base_z": null, "top_z": null }, "geometry": { "type": "Polygon", "coordinates": [ [ [ 281557.82, 4158645.56 ], [ 281556.4, 4158642.58 ], [ 281558.8, 4158641.45 ], [ 281553.47, 4158630.28 ], [ 281520.35, 4158645.97 ], [ 281523.81, 4158653.21 ], [ 281515.35, 4158657.22 ], [ 281519.53, 4158665.96 ], [ 281550.29, 4158651.39 ], [ 281549.41, 4158649.56 ], [ 281557.82, 4158645.56 ] ] ] } },
{ "type": "Feature", "properties": { "id": "richmond_structure:409825", "name": null, "kind": "deck", "sport": null, "surface": null, "pitch_layout": null, "source": "richmond_structures", "source_updated": "2026-09-08T12:07:13.637000Z", "base_z": null, "top_z": null }, "geometry": { "type": "Polygon", "coordinates": [ [ [ 281679.0, 4158666.39 ], [ 281678.06, 4158664.41 ], [ 281674.06, 4158666.32 ], [ 281675.53, 4158669.43 ], [ 281677.51, 4158668.65 ], [ 281676.94, 4158667.21 ], [ 281679.0, 4158666.39 ] ] ] } },
{ "type": "Feature", "properties": { "id": "osm:way/1021484442", "name": null, "kind": "parking", "sport": null, "surface": "asphalt", "pitch_layout": null, "source": null, "source_updated": null, "base_z": null, "top_z": null }, "geometry": { "type": "Polygon", "coordinates": [ [ [ 281623.66, 4158670.71 ], [ 281620.94, 4158665.02 ], [ 281614.27, 4158662.76 ], [ 281543.91, 4158696.21 ], [ 281549.52, 4158698.8 ], [ 281552.28, 4158704.56 ], [ 281623.66, 4158670.71 ] ] ] } },
{ "type": "Feature", "properties": { "id": "osm:way/1021484440", "name": null, "kind": "parking", "sport": null, "surface": "asphalt", "pitch_layout": null, "source": null, "source_updated": null, "base_z": null, "top_z": null }, "geometry": { "type": "Polygon", "coordinates": [ [ [ 281506.28, 4158672.77 ], [ 281522.78, 4158706.99 ], [ 281533.37, 4158701.98 ], [ 281517.41, 4158667.91 ], [ 281506.28, 4158672.77 ] ] ] } },
{ "type": "Feature", "properties": { "id": "osm:way/1021484435", "name": null, "kind": "parking", "sport": null, "surface": "asphalt", "pitch_layout": null, "source": null, "source_updated": null, "base_z": null, "top_z": null }, "geometry": { "type": "MultiPolygon", "coordinates": [ [ [ [ 281500.0, 4158671.1 ], [ 281500.0, 4158674.59 ], [ 281501.36, 4158673.95 ], [ 281500.0, 4158671.1 ] ] ], [ [ [ 281500.0, 4158656.17 ], [ 281500.0, 4158668.76 ], [ 281504.9, 4158666.45 ], [ 281500.0, 4158656.17 ] ] ] ] } },
{ "type": "Feature", "properties": { "id": "richmond_structure:424838", "name": null, "kind": "deck", "sport": null, "surface": null, "pitch_layout": null, "source": "richmond_structures", "source_updated": "2026-09-08T12:07:13.637000Z", "base_z": null, "top_z": null }, "geometry": { "type": "Polygon", "coordinates": [ [ [ 281640.42, 4158713.43 ], [ 281639.41, 4158711.35 ], [ 281634.66, 4158713.65 ], [ 281635.67, 4158715.74 ], [ 281640.42, 4158713.43 ] ] ] } },
{ "type": "Feature", "properties": { "id": "osm:way/1021484437", "name": null, "kind": "parking", "sport": null, "surface": "asphalt", "pitch_layout": null, "source": null, "source_updated": null, "base_z": null, "top_z": null }, "geometry": { "type": "Polygon", "coordinates": [ [ [ 281517.82, 4158715.02 ], [ 281525.14, 4158711.49 ], [ 281518.48, 4158709.24 ], [ 281500.0, 4158718.06 ], [ 281500.0, 4158730.52 ], [ 281520.61, 4158720.7 ], [ 281517.82, 4158715.02 ] ] ] } },
{ "type": "Feature", "properties": { "id": "osm:way/1021484439", "name": null, "kind": "parking", "sport": null, "surface": "asphalt", "pitch_layout": null, "source": null, "source_updated": null, "base_z": null, "top_z": null }, "geometry": { "type": "Polygon", "coordinates": [ [ [ 281528.93, 4158719.68 ], [ 281539.28, 4158741.68 ], [ 281555.95, 4158733.78 ], [ 281545.61, 4158711.78 ], [ 281528.93, 4158719.68 ] ] ] } },
{ "type": "Feature", "properties": { "id": "osm:way/1021484452", "name": null, "kind": "parking", "sport": null, "surface": "asphalt", "pitch_layout": null, "source": null, "source_updated": null, "base_z": null, "top_z": null }, "geometry": { "type": "Polygon", "coordinates": [ [ [ 281615.96, 4158728.96 ], [ 281618.27, 4158733.72 ], [ 281616.07, 4158734.79 ], [ 281621.74, 4158746.46 ], [ 281657.8, 4158729.09 ], [ 281649.82, 4158712.65 ], [ 281615.96, 4158728.96 ] ] ] } },
{ "type": "Feature", "properties": { "id": "osm:way/1021484438", "name": null, "kind": "parking", "sport": null, "surface": "asphalt", "pitch_layout": null, "source": null, "source_updated": null, "base_z": null, "top_z": null }, "geometry": { "type": "Polygon", "coordinates": [ [ [ 281542.51, 4158748.57 ], [ 281543.19, 4158750.0 ], [ 281563.65, 4158750.0 ], [ 281559.2, 4158740.67 ], [ 281542.51, 4158748.57 ] ] ] } },
{ "type": "Feature", "properties": { "id": "richmond_structure:264005", "name": null, "kind": "deck", "sport": null, "surface": null, "pitch_layout": null, "source": "richmond_structures", "source_updated": "2026-09-08T12:07:13.637000Z", "base_z": null, "top_z": null }, "geometry": { "type": "Polygon", "coordinates": [ [ [ 281682.54, 4158664.79 ], [ 281680.78, 4158661.1 ], [ 281677.78, 4158662.53 ], [ 281679.53, 4158666.22 ], [ 281682.54, 4158664.79 ] ] ] } },
{ "type": "Feature", "properties": { "id": "richmond_structure:262446", "name": null, "kind": "deck", "sport": null, "surface": null, "pitch_layout": null, "source": "richmond_structures", "source_updated": "2026-09-08T12:07:13.637000Z", "base_z": null, "top_z": null }, "geometry": { "type": "Polygon", "coordinates": [ [ [ 281746.04, 4158664.93 ], [ 281747.55, 4158668.05 ], [ 281750.0, 4158666.86 ], [ 281750.0, 4158663.38 ], [ 281749.85, 4158663.08 ], [ 281746.04, 4158664.93 ] ] ] } },
{ "type": "Feature", "properties": { "id": "imagery:groundcover_lawn:1759", "name": null, "kind": "groundcover_lawn", "sport": null, "surface": null, "pitch_layout": null, "source": "vgin_vbmp+naip+lidar2025", "source_updated": null, "base_z": null, "top_z": null }, "geometry": { "type": "Polygon", "coordinates": [ [ [ 281705.08, 4158720.94 ], [ 281706.55, 4158712.12 ], [ 281703.59, 4158708.63 ], [ 281698.13, 4158708.63 ], [ 281695.13, 4158711.63 ], [ 281695.13, 4158723.63 ], [ 281696.55, 4158725.04 ], [ 281705.08, 4158720.94 ] ] ] } },
{ "type": "Feature", "properties": { "id": "richmond_structure:266992", "name": null, "kind": "deck", "sport": null, "surface": null, "pitch_layout": null, "source": "richmond_structures", "source_updated": "2026-09-08T12:07:13.637000Z", "base_z": null, "top_z": null }, "geometry": { "type": "Polygon", "coordinates": [ [ [ 281711.82, 4158738.83 ], [ 281706.85, 4158741.23 ], [ 281708.68, 4158745.01 ], [ 281713.65, 4158742.61 ], [ 281711.82, 4158738.83 ] ] ] } },
{ "type": "Feature", "properties": { "id": "richmond_structure:264017", "name": null, "kind": "deck", "sport": null, "surface": null, "pitch_layout": null, "source": "richmond_structures", "source_updated": "2026-09-08T12:07:13.637000Z", "base_z": null, "top_z": null }, "geometry": { "type": "Polygon", "coordinates": [ [ [ 281737.09, 4158750.0 ], [ 281734.52, 4158744.76 ], [ 281730.33, 4158746.81 ], [ 281731.89, 4158750.0 ], [ 281737.09, 4158750.0 ] ] ] } },
{ "type": "Feature", "properties": { "id": "imagery:groundcover_paved:2792", "name": null, "kind": "groundcover_paved", "sport": null, "surface": null, "pitch_layout": null, "source": "vgin_vbmp+naip+lidar2025", "source_updated": null, "base_z": null, "top_z": null }, "geometry": { "type": "MultiPolygon", "coordinates": [ [ [ [ 281535.75, 4158508.31 ], [ 281533.79, 4158510.47 ], [ 281532.86, 4158510.94 ], [ 281500.0, 4158514.07 ], [ 281500.0, 4158514.6 ], [ 281561.15, 4158510.63 ], [ 281556.44, 4158510.63 ], [ 281555.26, 4158509.99 ], [ 281553.34, 4158507.08 ], [ 281553.22, 4158505.75 ], [ 281555.68, 4158500.0 ], [ 281524.7, 4158500.0 ], [ 281527.13, 4158501.63 ], [ 281532.53, 4158501.63 ], [ 281533.55, 4158502.05 ], [ 281535.71, 4158504.2 ], [ 281536.13, 4158505.22 ], [ 281536.13, 4158507.34 ], [ 281535.75, 4158508.31 ] ] ], [ [ [ 281653.26, 4158520.27 ], [ 281653.22, 4158529.98 ], [ 281688.75, 4158528.05 ], [ 281729.51, 4158523.96 ], [ 281729.4, 4158522.63 ], [ 281728.73, 4158522.63 ], [ 281727.71, 4158522.2 ], [ 281725.55, 4158520.05 ], [ 281725.13, 4158519.03 ], [ 281725.13, 4158515.59 ], [ 281653.26, 4158520.27 ] ] ], [ [ [ 281647.16, 4158520.66 ], [ 281500.0, 4158530.24 ], [ 281500.0, 4158538.33 ], [ 281647.12, 4158530.31 ], [ 281647.16, 4158520.66 ] ] ], [ [ [ 281742.63, 4158538.31 ], [ 281742.44, 4158538.34 ], [ 281737.13, 4158538.87 ], [ 281737.13, 4158541.02 ], [ 281739.71, 4158543.99 ], [ 281750.0, 4158545.46 ], [ 281750.0, 4158537.2 ], [ 281742.82, 4158538.29 ], [ 281742.63, 4158538.31 ] ] ], [ [ [ 281631.53, 4158546.78 ], [ 281500.0, 4158553.95 ], [ 281500.0, 4158565.3 ], [ 281562.59, 4158557.08 ], [ 281631.53, 4158546.78 ] ] ], [ [ [ 281725.13, 4158546.63 ], [ 281728.13, 4158543.63 ], [ 281728.13, 4158539.77 ], [ 281698.25, 4158542.77 ], [ 281657.66, 4158550.56 ], [ 281657.5, 4158550.59 ], [ 281603.7, 4158558.63 ], [ 281628.53, 4158558.63 ], [ 281629.55, 4158559.05 ], [ 281631.71, 4158561.2 ], [ 281632.13, 4158562.22 ], [ 281632.13, 4158564.03 ], [ 281631.71, 4158565.05 ], [ 281629.55, 4158567.2 ], [ 281627.98, 4158567.85 ], [ 281626.36, 4158569.48 ], [ 281625.71, 4158571.05 ], [ 281623.55, 4158573.2 ], [ 281622.53, 4158573.63 ], [ 281619.47, 4158573.63 ], [ 281616.56, 4158575.9 ], [ 281614.82, 4158582.87 ], [ 281614.3, 4158583.66 ], [ 281612.18, 4158585.32 ], [ 281611.29, 4158585.63 ], [ 281610.22, 4158585.63 ], [ 281609.49, 4158585.43 ], [ 281608.96, 4158585.13 ], [ 281621.73, 4158610.89 ], [ 281625.55, 4158609.1 ], [ 281636.45, 4158603.69 ], [ 281636.48, 4158603.67 ], [ 281641.7, 4158601.15 ], [ 281641.58, 4158601.03 ], [ 281641.26, 4158600.65 ], [ 281640.99, 4158600.24 ], [ 281640.76, 4158599.81 ], [ 281635.17, 4158588.12 ], [ 281634.99, 4158587.67 ], [ 281634.84, 4158587.2 ], [ 281634.74, 4158586.72 ], [ 281634.69, 4158586.23 ], [ 281634.69, 4158585.74 ], [ 281634.74, 4158585.25 ], [ 281634.83, 4158584.77 ], [ 281634.97, 4158584.3 ], [ 281635.16, 4158583.85 ], [ 281635.39, 4158583.41 ], [ 281635.66, 4158583.0 ], [ 281635.97, 4158582.62 ], [ 281636.31, 4158582.27 ], [ 281636.69, 4158581.96 ], [ 281637.1, 4158581.69 ], [ 281637.53, 4158581.45 ], [ 281642.63, 4158579.02 ], [ 281647.31, 4158576.78 ], [ 281651.99, 4158574.55 ], [ 281656.67, 4158572.32 ], [ 281661.62, 4158569.95 ], [ 281662.07, 4158569.76 ], [ 281662.54, 4158569.62 ], [ 281663.02, 4158569.52 ], [ 281663.51, 4158569.47 ], [ 281663.89, 4158569.47 ], [ 281666.53, 4158568.21 ], [ 281671.23, 4158565.97 ], [ 281675.92, 4158563.72 ], [ 281680.6, 4158561.49 ], [ 281685.28, 4158559.26 ], [ 281686.0, 4158558.91 ], [ 281685.74, 4158558.22 ], [ 281685.71, 4158558.2 ], [ 281683.55, 4158556.05 ], [ 281683.13, 4158555.03 ], [ 281683.13, 4158553.67 ], [ 281683.61, 4158552.6 ], [ 281686.02, 4158550.47 ], [ 281687.14, 4158550.13 ], [ 281705.68, 4158552.44 ], [ 281708.17, 4158551.59 ], [ 281712.04, 4158547.71 ], [ 281712.53, 4158547.39 ], [ 281714.1, 4158546.74 ], [ 281714.67, 4158546.63 ], [ 281725.13, 4158546.63 ] ], [ [ 281643.05, 4158571.27 ], [ 281642.44, 4158570.87 ], [ 281640.99, 4158569.31 ], [ 281640.64, 4158568.66 ], [ 281639.07, 4158562.39 ], [ 281639.26, 4158561.25 ], [ 281640.99, 4158558.62 ], [ 281641.96, 4158557.99 ], [ 281650.44, 4158556.57 ], [ 281651.73, 4158557.04 ], [ 281654.04, 4158559.75 ], [ 281654.31, 4158561.1 ], [ 281651.27, 4158570.21 ], [ 281650.55, 4158571.05 ], [ 281647.82, 4158572.41 ], [ 281646.72, 4158572.49 ], [ 281643.05, 4158571.27 ] ] ], [ [ [ 281500.0, 4158572.96 ], [ 281500.0, 4158574.24 ], [ 281583.41, 4158564.71 ], [ 281584.73, 4158564.22 ], [ 281590.08, 4158560.66 ], [ 281563.68, 4158564.6 ], [ 281563.61, 4158564.61 ], [ 281500.0, 4158572.96 ] ] ], [ [ [ 281542.61, 4158576.71 ], [ 281541.65, 4158576.69 ], [ 281500.0, 4158582.64 ], [ 281500.0, 4158611.6 ], [ 281565.25, 4158580.83 ], [ 281542.61, 4158576.71 ] ] ], [ [ [ 281697.15, 4158672.91 ], [ 281697.02, 4158673.38 ], [ 281696.84, 4158673.84 ], [ 281696.62, 4158674.27 ], [ 281696.35, 4158674.69 ], [ 281696.05, 4158675.07 ], [ 281695.71, 4158675.43 ], [ 281695.34, 4158675.74 ], [ 281694.93, 4158676.03 ], [ 281694.5, 4158676.26 ], [ 281692.04, 4158677.49 ], [ 281691.59, 4158677.69 ], [ 281691.12, 4158677.84 ], [ 281690.65, 4158677.94 ], [ 281690.16, 4158678.0 ], [ 281689.67, 4158678.01 ], [ 281689.18, 4158677.97 ], [ 281688.7, 4158677.89 ], [ 281688.22, 4158677.75 ], [ 281687.77, 4158677.57 ], [ 281687.33, 4158677.35 ], [ 281686.92, 4158677.09 ], [ 281686.53, 4158676.78 ], [ 281686.18, 4158676.44 ], [ 281685.86, 4158676.07 ], [ 281685.58, 4158675.67 ], [ 281685.34, 4158675.24 ], [ 281683.62, 4158671.79 ], [ 281679.6, 4158670.45 ], [ 281676.94, 4158671.55 ], [ 281677.98, 4158673.75 ], [ 281678.17, 4158674.2 ], [ 281678.31, 4158674.67 ], [ 281678.4, 4158675.15 ], [ 281678.44, 4158675.5 ], [ 281678.7, 4158675.88 ], [ 281678.94, 4158676.31 ], [ 281682.78, 4158683.97 ], [ 281682.92, 4158684.29 ], [ 281731.91, 4158661.01 ], [ 281720.57, 4158655.34 ], [ 281717.74, 4158655.42 ], [ 281699.85, 4158665.65 ], [ 281699.15, 4158665.84 ], [ 281696.7, 4158665.91 ], [ 281696.71, 4158666.41 ], [ 281695.7, 4158667.44 ], [ 281696.76, 4158669.56 ], [ 281696.95, 4158670.01 ], [ 281697.1, 4158670.48 ], [ 281697.21, 4158670.96 ], [ 281697.27, 4158671.44 ], [ 281697.28, 4158671.93 ], [ 281697.24, 4158672.42 ], [ 281697.15, 4158672.91 ] ] ], [ [ [ 281674.96, 4158700.79 ], [ 281674.9, 4158700.49 ], [ 281674.87, 4158700.19 ], [ 281674.87, 4158699.9 ], [ 281674.9, 4158699.6 ], [ 281674.96, 4158699.3 ], [ 281675.04, 4158699.02 ], [ 281675.16, 4158698.74 ], [ 281675.3, 4158698.48 ], [ 281675.46, 4158698.23 ], [ 281675.65, 4158697.99 ], [ 281675.86, 4158697.78 ], [ 281676.09, 4158697.59 ], [ 281676.34, 4158697.42 ], [ 281676.6, 4158697.28 ], [ 281676.88, 4158697.17 ], [ 281677.16, 4158697.08 ], [ 281677.46, 4158697.02 ], [ 281677.76, 4158696.99 ], [ 281678.06, 4158696.99 ], [ 281678.35, 4158697.01 ], [ 281678.65, 4158697.07 ], [ 281678.93, 4158697.16 ], [ 281679.21, 4158697.27 ], [ 281679.48, 4158697.41 ], [ 281679.72, 4158697.58 ], [ 281679.96, 4158697.76 ], [ 281680.17, 4158697.97 ], [ 281680.36, 4158698.21 ], [ 281680.53, 4158698.45 ], [ 281680.67, 4158698.72 ], [ 281693.87, 4158726.33 ], [ 281697.02, 4158724.81 ], [ 281696.05, 4158723.69 ], [ 281695.71, 4158722.56 ], [ 281697.43, 4158710.5 ], [ 281697.35, 4158710.46 ], [ 281696.94, 4158710.19 ], [ 281696.56, 4158709.88 ], [ 281696.21, 4158709.54 ], [ 281695.89, 4158709.17 ], [ 281695.62, 4158708.76 ], [ 281695.38, 4158708.33 ], [ 281686.18, 4158689.49 ], [ 281680.7, 4158692.1 ], [ 281680.6, 4158692.2 ], [ 281680.23, 4158692.52 ], [ 281679.83, 4158692.8 ], [ 281679.4, 4158693.04 ], [ 281674.13, 4158695.65 ], [ 281674.13, 4158702.03 ], [ 281673.71, 4158703.05 ], [ 281671.55, 4158705.2 ], [ 281670.63, 4158705.58 ], [ 281674.87, 4158714.82 ], [ 281675.18, 4158714.93 ], [ 281677.3, 4158716.59 ], [ 281677.82, 4158717.38 ], [ 281679.03, 4158722.23 ], [ 281678.79, 4158723.38 ], [ 281682.61, 4158731.73 ], [ 281688.37, 4158728.97 ], [ 281675.17, 4158701.35 ], [ 281675.05, 4158701.07 ], [ 281674.96, 4158700.79 ] ] ], [ [ [ 281620.12, 4158724.92 ], [ 281620.17, 4158724.75 ], [ 281620.23, 4158724.58 ], [ 281620.31, 4158724.43 ], [ 281620.41, 4158724.28 ], [ 281620.52, 4158724.14 ], [ 281620.65, 4158724.01 ], [ 281620.78, 4158723.9 ], [ 281620.93, 4158723.8 ], [ 281621.08, 4158723.72 ], [ 281632.37, 4158718.26 ], [ 281632.06, 4158718.1 ], [ 281631.65, 4158717.83 ], [ 281631.27, 4158717.52 ], [ 281630.93, 4158717.18 ], [ 281630.61, 4158716.8 ], [ 281630.34, 4158716.39 ], [ 281630.11, 4158715.96 ], [ 281626.44, 4158708.33 ], [ 281626.25, 4158707.88 ], [ 281626.19, 4158707.68 ], [ 281595.22, 4158722.39 ], [ 281595.36, 4158722.57 ], [ 281595.63, 4158722.98 ], [ 281595.86, 4158723.41 ], [ 281602.94, 4158738.65 ], [ 281612.36, 4158734.13 ], [ 281612.81, 4158733.94 ], [ 281613.28, 4158733.79 ], [ 281613.76, 4158733.69 ], [ 281614.25, 4158733.64 ], [ 281614.74, 4158733.64 ], [ 281615.22, 4158733.68 ], [ 281615.7, 4158733.78 ], [ 281616.17, 4158733.91 ], [ 281616.63, 4158734.1 ], [ 281617.04, 4158734.31 ], [ 281618.27, 4158733.72 ], [ 281615.96, 4158728.96 ], [ 281620.67, 4158726.69 ], [ 281620.67, 4158726.68 ], [ 281620.54, 4158726.56 ], [ 281620.43, 4158726.42 ], [ 281620.33, 4158726.28 ], [ 281620.25, 4158726.12 ], [ 281620.18, 4158725.96 ], [ 281620.12, 4158725.79 ], [ 281620.09, 4158725.62 ], [ 281620.07, 4158725.44 ], [ 281620.07, 4158725.26 ], [ 281620.08, 4158725.09 ], [ 281620.12, 4158724.92 ] ] ], [ [ [ 281717.94, 4158748.04 ], [ 281717.94, 4158747.55 ], [ 281717.98, 4158747.06 ], [ 281718.08, 4158746.57 ], [ 281718.22, 4158746.1 ], [ 281718.41, 4158745.65 ], [ 281718.64, 4158745.21 ], [ 281718.91, 4158744.8 ], [ 281719.22, 4158744.42 ], [ 281719.57, 4158744.07 ], [ 281719.95, 4158743.76 ], [ 281720.36, 4158743.49 ], [ 281720.8, 4158743.25 ], [ 281727.22, 4158740.22 ], [ 281725.97, 4158737.75 ], [ 281722.88, 4158733.62 ], [ 281722.7, 4158733.29 ], [ 281715.42, 4158736.76 ], [ 281717.41, 4158740.97 ], [ 281717.6, 4158741.43 ], [ 281717.74, 4158741.9 ], [ 281717.83, 4158742.38 ], [ 281717.88, 4158742.87 ], [ 281717.88, 4158743.36 ], [ 281717.83, 4158743.85 ], [ 281717.74, 4158744.33 ], [ 281717.59, 4158744.8 ], [ 281717.4, 4158745.26 ], [ 281717.17, 4158745.69 ], [ 281716.9, 4158746.1 ], [ 281716.58, 4158746.48 ], [ 281716.23, 4158746.82 ], [ 281715.85, 4158747.14 ], [ 281715.44, 4158747.41 ], [ 281715.01, 4158747.64 ], [ 281713.29, 4158748.44 ], [ 281713.49, 4158749.41 ], [ 281713.54, 4158749.51 ], [ 281713.73, 4158749.97 ], [ 281713.74, 4158750.0 ], [ 281718.45, 4158750.0 ], [ 281718.42, 4158749.94 ], [ 281718.23, 4158749.48 ], [ 281718.09, 4158749.01 ], [ 281717.99, 4158748.53 ], [ 281717.94, 4158748.04 ] ] ], [ [ [ 281733.71, 4158520.05 ], [ 281732.4, 4158521.36 ], [ 281732.59, 4158523.65 ], [ 281740.68, 4158522.83 ], [ 281750.0, 4158521.43 ], [ 281750.0, 4158513.62 ], [ 281734.13, 4158514.9 ], [ 281734.13, 4158519.03 ], [ 281733.71, 4158520.05 ] ] ] ] } }
]
}
