{
"type": "FeatureCollection",
"name": "pois",
"crs": { "type": "name", "properties": { "name": "urn:ogc:def:crs:EPSG::32618" } },
"xy_coordinate_resolution": 0.01,
"features": [
{ "type": "Feature", "properties": { "id": "osm:node/7678774462", "name": null, "kind": "tree", "species": null, "source": null, "tree_height": null, "crown_radius": null, "height_source": null }, "geometry": { "type": "Point", "coordinates": [ 285347.15, 4158000.94 ] } },
{ "type": "Feature", "properties": { "id": "lidar-tree:285342:4158006", "name": null, "kind": "tree", "species": null, "source": "lidar2025", "tree_height": 15.6, "crown_radius": 6.0, "height_source": "lidar2025" }, "geometry": { "type": "Point", "coordinates": [ 285341.5, 4158006.5 ] } },
{ "type": "Feature", "properties": { "id": "lidar-tree:285310:4158014", "name": null, "kind": "tree", "species": null, "source": "lidar2025", "tree_height": 6.4, "crown_radius": 3.4, "height_source": "lidar2025" }, "geometry": { "type": "Point", "coordinates": [ 285309.5, 4158014.5 ] } },
{ "type": "Feature", "properties": { "id": "lidar-tree:285298:4158016", "name": null, "kind": "tree", "species": null, "source": "lidar2025", "tree_height": 7.4, "crown_radius": 3.3, "height_source": "lidar2025" }, "geometry": { "type": "Point", "coordinates": [ 285297.5, 4158016.5 ] } },
{ "type": "Feature", "properties": { "id": "lidar-tree:285326:4158018", "name": null, "kind": "tree", "species": null, "source": "lidar2025", "tree_height": 19.6, "crown_radius": 6.0, "height_source": "lidar2025" }, "geometry": { "type": "Point", "coordinates": [ 285326.5, 4158017.5 ] } },
{ "type": "Feature", "properties": { "id": "lidar-tree:285308:4158024", "name": null, "kind": "tree", "species": null, "source": "lidar2025", "tree_height": 7.6, "crown_radius": 3.8, "height_source": "lidar2025" }, "geometry": { "type": "Point", "coordinates": [ 285307.5, 4158023.5 ] } },
{ "type": "Feature", "properties": { "id": "lidar-tree:285294:4158026", "name": null, "kind": "tree", "species": null, "source": "lidar2025", "tree_height": 7.9, "crown_radius": 4.1, "height_source": "lidar2025" }, "geometry": { "type": "Point", "coordinates": [ 285293.5, 4158025.5 ] } },
{ "type": "Feature", "properties": { "id": "lidar-tree:285280:4158030", "name": null, "kind": "tree", "species": null, "source": "lidar2025", "tree_height": 6.1, "crown_radius": 2.2, "height_source": "lidar2025" }, "geometry": { "type": "Point", "coordinates": [ 285280.5, 4158029.5 ] } },
{ "type": "Feature", "properties": { "id": "lidar-tree:285290:4158032", "name": null, "kind": "tree", "species": null, "source": "lidar2025", "tree_height": 7.9, "crown_radius": 3.6, "height_source": "lidar2025" }, "geometry": { "type": "Point", "coordinates": [ 285289.5, 4158032.5 ] } },
{ "type": "Feature", "properties": { "id": "lidar-tree:285440:4158000", "name": null, "kind": "tree", "species": null, "source": "lidar2025", "tree_height": 4.5, "crown_radius": 2.5, "height_source": "lidar2025" }, "geometry": { "type": "Point", "coordinates": [ 285439.5, 4158000.5 ] } },
{ "type": "Feature", "properties": { "id": "lidar-tree:285394:4158006", "name": null, "kind": "tree", "species": null, "source": "lidar2025", "tree_height": 7.2, "crown_radius": 3.9, "height_source": "lidar2025" }, "geometry": { "type": "Point", "coordinates": [ 285394.5, 4158005.5 ] } },
{ "type": "Feature", "properties": { "id": "lidar-tree:285410:4158016", "name": null, "kind": "tree", "species": null, "source": "lidar2025", "tree_height": 8.2, "crown_radius": 4.5, "height_source": "lidar2025" }, "geometry": { "type": "Point", "coordinates": [ 285410.5, 4158015.5 ] } },
{ "type": "Feature", "properties": { "id": "lidar-tree:285402:4158020", "name": null, "kind": "tree", "species": null, "source": "lidar2025", "tree_height": 7.3, "crown_radius": 3.3, "height_source": "lidar2025" }, "geometry": { "type": "Point", "coordinates": [ 285401.5, 4158020.5 ] } },
{ "type": "Feature", "properties": { "id": "lidar-tree:285458:4158024", "name": null, "kind": "tree", "species": null, "source": "lidar2025", "tree_height": 16.2, "crown_radius": 6.0, "height_source": "lidar2025" }, "geometry": { "type": "Point", "coordinates": [ 285457.5, 4158023.5 ] } },
{ "type": "Feature", "properties": { "id": "osm:node/10289825947", "name": null, "kind": "streetlight", "species": null, "source": null, "tree_height": null, "crown_radius": null, "height_source": null }, "geometry": { "type": "Point", "coordinates": [ 285461.12, 4158024.76 ] } },
{ "type": "Feature", "properties": { "id": "rva-tree:86323", "name": "Quercus phellos", "kind": "tree", "species": "Quercus phellos", "source": "city_inventory", "tree_height": 16.5, "crown_radius": 6.0, "height_source": "lidar2025" }, "geometry": { "type": "Point", "coordinates": [ 285424.31, 4158028.83 ] } },
{ "type": "Feature", "properties": { "id": "lidar-tree:285460:4158040", "name": null, "kind": "tree", "species": null, "source": "lidar2025", "tree_height": 18.4, "crown_radius": 6.0, "height_source": "lidar2025" }, "geometry": { "type": "Point", "coordinates": [ 285460.5, 4158039.5 ] } },
{ "type": "Feature", "properties": { "id": "osm:node/14106619171", "name": null, "kind": "streetlight", "species": null, "source": null, "tree_height": null, "crown_radius": null, "height_source": null }, "geometry": { "type": "Point", "coordinates": [ 285401.79, 4158050.35 ] } },
{ "type": "Feature", "properties": { "id": "lidar-tree:285450:4158050", "name": null, "kind": "tree", "species": null, "source": "lidar2025", "tree_height": 23.0, "crown_radius": 6.0, "height_source": "lidar2025" }, "geometry": { "type": "Point", "coordinates": [ 285449.5, 4158050.5 ] } },
{ "type": "Feature", "properties": { "id": "lidar-tree:285468:4158002", "name": null, "kind": "tree", "species": null, "source": "lidar2025", "tree_height": 16.6, "crown_radius": 6.0, "height_source": "lidar2025" }, "geometry": { "type": "Point", "coordinates": [ 285468.5, 4158002.5 ] } },
{ "type": "Feature", "properties": { "id": "lidar-tree:285464:4158018", "name": null, "kind": "tree", "species": null, "source": "lidar2025", "tree_height": 18.6, "crown_radius": 6.0, "height_source": "lidar2025" }, "geometry": { "type": "Point", "coordinates": [ 285463.5, 4158017.5 ] } },
{ "type": "Feature", "properties": { "id": "lidar-tree:285444:4158062", "name": null, "kind": "tree", "species": null, "source": "lidar2025", "tree_height": 17.4, "crown_radius": 5.7, "height_source": "lidar2025" }, "geometry": { "type": "Point", "coordinates": [ 285444.5, 4158062.5 ] } },
{ "type": "Feature", "properties": { "id": "lidar-tree:285402:4158068", "name": null, "kind": "tree", "species": null, "source": "lidar2025", "tree_height": 4.5, "crown_radius": 3.6, "height_source": "lidar2025" }, "geometry": { "type": "Point", "coordinates": [ 285401.5, 4158068.5 ] } },
{ "type": "Feature", "properties": { "id": "lidar-tree:285428:4158070", "name": null, "kind": "tree", "species": null, "source": "lidar2025", "tree_height": 13.4, "crown_radius": 6.0, "height_source": "lidar2025" }, "geometry": { "type": "Point", "coordinates": [ 285428.5, 4158070.5 ] } },
{ "type": "Feature", "properties": { "id": "lidar-tree:285448:4158072", "name": null, "kind": "tree", "species": null, "source": "lidar2025", "tree_height": 8.3, "crown_radius": 4.5, "height_source": "lidar2025" }, "geometry": { "type": "Point", "coordinates": [ 285447.5, 4158071.5 ] } },
{ "type": "Feature", "properties": { "id": "osm:node/3702113527", "name": null, "kind": "tree", "species": null, "source": null, "tree_height": null, "crown_radius": null, "height_source": null }, "geometry": { "type": "Point", "coordinates": [ 285405.91, 4158076.73 ] } },
{ "type": "Feature", "properties": { "id": "lidar-tree:285436:4158082", "name": null, "kind": "tree", "species": null, "source": "lidar2025", "tree_height": 18.9, "crown_radius": 6.0, "height_source": "lidar2025" }, "geometry": { "type": "Point", "coordinates": [ 285436.5, 4158082.5 ] } },
{ "type": "Feature", "properties": { "id": "rva-tree:86317", "name": "Quercus phellos", "kind": "tree", "species": "Quercus phellos", "source": "city_inventory", "tree_height": 17.9, "crown_radius": 6.0, "height_source": "lidar2025" }, "geometry": { "type": "Point", "coordinates": [ 285402.15, 4158083.67 ] } },
{ "type": "Feature", "properties": { "id": "lidar-tree:285420:4158088", "name": null, "kind": "tree", "species": null, "source": "lidar2025", "tree_height": 17.6, "crown_radius": 6.0, "height_source": "lidar2025" }, "geometry": { "type": "Point", "coordinates": [ 285420.5, 4158087.5 ] } },
{ "type": "Feature", "properties": { "id": "lidar-tree:285388:4158094", "name": null, "kind": "tree", "species": null, "source": "lidar2025", "tree_height": 11.3, "crown_radius": 6.0, "height_source": "lidar2025" }, "geometry": { "type": "Point", "coordinates": [ 285388.5, 4158093.5 ] } },
{ "type": "Feature", "properties": { "id": "lidar-tree:285438:4158096", "name": null, "kind": "tree", "species": null, "source": "lidar2025", "tree_height": 14.0, "crown_radius": 3.2, "height_source": "lidar2025" }, "geometry": { "type": "Point", "coordinates": [ 285438.5, 4158096.5 ] } },
{ "type": "Feature", "properties": { "id": "lidar-tree:285498:4158098", "name": null, "kind": "tree", "species": null, "source": "lidar2025", "tree_height": 20.1, "crown_radius": 6.0, "height_source": "lidar2025" }, "geometry": { "type": "Point", "coordinates": [ 285498.5, 4158098.5 ] } },
{ "type": "Feature", "properties": { "id": "lidar-tree:285300:4158090", "name": null, "kind": "tree", "species": null, "source": "lidar2025", "tree_height": 9.4, "crown_radius": 6.0, "height_source": "lidar2025" }, "geometry": { "type": "Point", "coordinates": [ 285299.5, 4158089.5 ] } },
{ "type": "Feature", "properties": { "id": "osm:node/3702108229", "name": null, "kind": "tree", "species": null, "source": null, "tree_height": null, "crown_radius": null, "height_source": null }, "geometry": { "type": "Point", "coordinates": [ 285300.14, 4158095.69 ] } },
{ "type": "Feature", "properties": { "id": "osm:node/3702108246", "name": null, "kind": "tree", "species": null, "source": null, "tree_height": null, "crown_radius": null, "height_source": null }, "geometry": { "type": "Point", "coordinates": [ 285305.74, 4158106.78 ] } },
{ "type": "Feature", "properties": { "id": "lidar-tree:285286:4158110", "name": null, "kind": "tree", "species": null, "source": "lidar2025", "tree_height": 8.0, "crown_radius": 4.7, "height_source": "lidar2025" }, "geometry": { "type": "Point", "coordinates": [ 285286.5, 4158109.5 ] } },
{ "type": "Feature", "properties": { "id": "lidar-tree:285384:4158112", "name": null, "kind": "tree", "species": null, "source": "lidar2025", "tree_height": 14.9, "crown_radius": 6.0, "height_source": "lidar2025" }, "geometry": { "type": "Point", "coordinates": [ 285384.5, 4158112.5 ] } },
{ "type": "Feature", "properties": { "id": "lidar-tree:285308:4158116", "name": null, "kind": "tree", "species": null, "source": "lidar2025", "tree_height": 10.4, "crown_radius": 6.0, "height_source": "lidar2025" }, "geometry": { "type": "Point", "coordinates": [ 285307.5, 4158116.5 ] } },
{ "type": "Feature", "properties": { "id": "osm:node/3702108248", "name": null, "kind": "tree", "species": null, "source": null, "tree_height": null, "crown_radius": null, "height_source": null }, "geometry": { "type": "Point", "coordinates": [ 285315.58, 4158120.74 ] } },
{ "type": "Feature", "properties": { "id": "lidar-tree:285346:4158148", "name": null, "kind": "tree", "species": null, "source": "lidar2025", "tree_height": 7.3, "crown_radius": 3.0, "height_source": "lidar2025" }, "geometry": { "type": "Point", "coordinates": [ 285346.5, 4158147.5 ] } },
{ "type": "Feature", "properties": { "id": "lidar-tree:285384:4158158", "name": null, "kind": "tree", "species": null, "source": "lidar2025", "tree_height": 10.5, "crown_radius": 5.5, "height_source": "lidar2025" }, "geometry": { "type": "Point", "coordinates": [ 285384.5, 4158157.5 ] } },
{ "type": "Feature", "properties": { "id": "lidar-tree:285344:4158164", "name": null, "kind": "tree", "species": null, "source": "lidar2025", "tree_height": 6.9, "crown_radius": 1.4, "height_source": "lidar2025" }, "geometry": { "type": "Point", "coordinates": [ 285343.5, 4158164.5 ] } },
{ "type": "Feature", "properties": { "id": "lidar-tree:285264:4158164", "name": null, "kind": "tree", "species": null, "source": "lidar2025", "tree_height": 12.0, "crown_radius": 5.6, "height_source": "lidar2025" }, "geometry": { "type": "Point", "coordinates": [ 285263.5, 4158164.5 ] } },
{ "type": "Feature", "properties": { "id": "rva-tree:86264", "name": "Zelkova serrata", "kind": "tree", "species": "Zelkova serrata", "source": "city_inventory", "tree_height": 8.0, "crown_radius": 2.5, "height_source": "estimated" }, "geometry": { "type": "Point", "coordinates": [ 285268.76, 4158174.13 ] } },
{ "type": "Feature", "properties": { "id": "rva-tree:86265", "name": "Zelkova serrata", "kind": "tree", "species": "Zelkova serrata", "source": "city_inventory", "tree_height": 10.7, "crown_radius": 5.5, "height_source": "lidar2025" }, "geometry": { "type": "Point", "coordinates": [ 285280.72, 4158188.79 ] } },
{ "type": "Feature", "properties": { "id": "rva-tree:86294", "name": "Zelkova serrata", "kind": "tree", "species": "Zelkova serrata", "source": "city_inventory", "tree_height": 8.0, "crown_radius": 2.5, "height_source": "estimated" }, "geometry": { "type": "Point", "coordinates": [ 285288.93, 4158199.18 ] } },
{ "type": "Feature", "properties": { "id": "lidar-tree:285342:4158202", "name": null, "kind": "tree", "species": null, "source": "lidar2025", "tree_height": 12.8, "crown_radius": 4.9, "height_source": "lidar2025" }, "geometry": { "type": "Point", "coordinates": [ 285342.5, 4158202.5 ] } },
{ "type": "Feature", "properties": { "id": "lidar-tree:285362:4158204", "name": null, "kind": "tree", "species": null, "source": "lidar2025", "tree_height": 9.3, "crown_radius": 4.4, "height_source": "lidar2025" }, "geometry": { "type": "Point", "coordinates": [ 285362.5, 4158204.5 ] } },
{ "type": "Feature", "properties": { "id": "lidar-tree:285296:4158204", "name": null, "kind": "tree", "species": null, "source": "lidar2025", "tree_height": 6.2, "crown_radius": 3.1, "height_source": "lidar2025" }, "geometry": { "type": "Point", "coordinates": [ 285296.5, 4158204.5 ] } },
{ "type": "Feature", "properties": { "id": "lidar-tree:285378:4158210", "name": null, "kind": "tree", "species": null, "source": "lidar2025", "tree_height": 7.7, "crown_radius": 4.7, "height_source": "lidar2025" }, "geometry": { "type": "Point", "coordinates": [ 285377.5, 4158209.5 ] } },
{ "type": "Feature", "properties": { "id": "lidar-tree:285332:4158210", "name": null, "kind": "tree", "species": null, "source": "lidar2025", "tree_height": 16.7, "crown_radius": 5.5, "height_source": "lidar2025" }, "geometry": { "type": "Point", "coordinates": [ 285332.5, 4158210.5 ] } },
{ "type": "Feature", "properties": { "id": "osm:node/7682438036", "name": null, "kind": "tree", "species": null, "source": null, "tree_height": null, "crown_radius": null, "height_source": null }, "geometry": { "type": "Point", "coordinates": [ 285317.88, 4158212.9 ] } },
{ "type": "Feature", "properties": { "id": "lidar-tree:285298:4158214", "name": null, "kind": "tree", "species": null, "source": "lidar2025", "tree_height": 7.3, "crown_radius": 4.7, "height_source": "lidar2025" }, "geometry": { "type": "Point", "coordinates": [ 285298.5, 4158213.5 ] } },
{ "type": "Feature", "properties": { "id": "lidar-tree:285378:4158216", "name": null, "kind": "tree", "species": null, "source": "lidar2025", "tree_height": 11.1, "crown_radius": 3.4, "height_source": "lidar2025" }, "geometry": { "type": "Point", "coordinates": [ 285377.5, 4158216.5 ] } },
{ "type": "Feature", "properties": { "id": "lidar-tree:285336:4158220", "name": null, "kind": "tree", "species": null, "source": "lidar2025", "tree_height": 9.3, "crown_radius": 5.0, "height_source": "lidar2025" }, "geometry": { "type": "Point", "coordinates": [ 285335.5, 4158219.5 ] } },
{ "type": "Feature", "properties": { "id": "lidar-tree:285360:4158220", "name": null, "kind": "tree", "species": null, "source": "lidar2025", "tree_height": 14.9, "crown_radius": 5.5, "height_source": "lidar2025" }, "geometry": { "type": "Point", "coordinates": [ 285359.5, 4158220.5 ] } },
{ "type": "Feature", "properties": { "id": "rva-tree:86307", "name": "Zelkova serrata", "kind": "tree", "species": "Zelkova serrata", "source": "city_inventory", "tree_height": 8.0, "crown_radius": 2.5, "height_source": "estimated" }, "geometry": { "type": "Point", "coordinates": [ 285307.64, 4158221.15 ] } },
{ "type": "Feature", "properties": { "id": "rva-tree:71611", "name": "Ilex spp.", "kind": "tree", "species": "Ilex spp.", "source": "city_inventory", "tree_height": 8.0, "crown_radius": 2.5, "height_source": "estimated" }, "geometry": { "type": "Point", "coordinates": [ 285306.12, 4158223.81 ] } },
{ "type": "Feature", "properties": { "id": "lidar-tree:285372:4158228", "name": null, "kind": "tree", "species": null, "source": "lidar2025", "tree_height": 7.3, "crown_radius": 4.6, "height_source": "lidar2025" }, "geometry": { "type": "Point", "coordinates": [ 285371.5, 4158227.5 ] } },
{ "type": "Feature", "properties": { "id": "osm:node/10289825945", "name": null, "kind": "streetlight", "species": null, "source": null, "tree_height": null, "crown_radius": null, "height_source": null }, "geometry": { "type": "Point", "coordinates": [ 285357.07, 4158238.65 ] } },
{ "type": "Feature", "properties": { "id": "lidar-tree:285290:4158240", "name": null, "kind": "tree", "species": null, "source": "lidar2025", "tree_height": 7.2, "crown_radius": 4.0, "height_source": "lidar2025" }, "geometry": { "type": "Point", "coordinates": [ 285289.5, 4158240.5 ] } },
{ "type": "Feature", "properties": { "id": "lidar-tree:285354:4158242", "name": null, "kind": "tree", "species": null, "source": "lidar2025", "tree_height": 9.1, "crown_radius": 6.0, "height_source": "lidar2025" }, "geometry": { "type": "Point", "coordinates": [ 285353.5, 4158241.5 ] } },
{ "type": "Feature", "properties": { "id": "lidar-tree:285334:4158246", "name": null, "kind": "tree", "species": null, "source": "lidar2025", "tree_height": 8.3, "crown_radius": 6.0, "height_source": "lidar2025" }, "geometry": { "type": "Point", "coordinates": [ 285333.5, 4158246.5 ] } },
{ "type": "Feature", "properties": { "id": "rva-tree:73802", "name": "Lagerstroemia indica", "kind": "tree", "species": "Lagerstroemia indica", "source": "city_inventory", "tree_height": 7.2, "crown_radius": 4.9, "height_source": "lidar2025" }, "geometry": { "type": "Point", "coordinates": [ 285306.05, 4158248.45 ] } },
{ "type": "Feature", "properties": { "id": "lidar-tree:285276:4158248", "name": null, "kind": "tree", "species": null, "source": "lidar2025", "tree_height": 9.4, "crown_radius": 4.6, "height_source": "lidar2025" }, "geometry": { "type": "Point", "coordinates": [ 285276.5, 4158247.5 ] } },
{ "type": "Feature", "properties": { "id": "lidar-tree:285426:4158106", "name": null, "kind": "tree", "species": null, "source": "lidar2025", "tree_height": 24.9, "crown_radius": 6.0, "height_source": "lidar2025" }, "geometry": { "type": "Point", "coordinates": [ 285425.5, 4158105.5 ] } },
{ "type": "Feature", "properties": { "id": "lidar-tree:285416:4158124", "name": null, "kind": "tree", "species": null, "source": "lidar2025", "tree_height": 17.6, "crown_radius": 6.0, "height_source": "lidar2025" }, "geometry": { "type": "Point", "coordinates": [ 285416.5, 4158123.5 ] } },
{ "type": "Feature", "properties": { "id": "lidar-tree:285406:4158128", "name": null, "kind": "tree", "species": null, "source": "lidar2025", "tree_height": 15.2, "crown_radius": 6.0, "height_source": "lidar2025" }, "geometry": { "type": "Point", "coordinates": [ 285406.5, 4158128.5 ] } },
{ "type": "Feature", "properties": { "id": "lidar-tree:285418:4158132", "name": null, "kind": "tree", "species": null, "source": "lidar2025", "tree_height": 16.8, "crown_radius": 5.4, "height_source": "lidar2025" }, "geometry": { "type": "Point", "coordinates": [ 285417.5, 4158131.5 ] } },
{ "type": "Feature", "properties": { "id": "lidar-tree:285406:4158150", "name": null, "kind": "tree", "species": null, "source": "lidar2025", "tree_height": 24.0, "crown_radius": 6.0, "height_source": "lidar2025" }, "geometry": { "type": "Point", "coordinates": [ 285406.5, 4158149.5 ] } },
{ "type": "Feature", "properties": { "id": "lidar-tree:285400:4158158", "name": null, "kind": "tree", "species": null, "source": "lidar2025", "tree_height": 18.3, "crown_radius": 5.2, "height_source": "lidar2025" }, "geometry": { "type": "Point", "coordinates": [ 285399.5, 4158158.5 ] } },
{ "type": "Feature", "properties": { "id": "lidar-tree:285390:4158190", "name": null, "kind": "tree", "species": null, "source": "lidar2025", "tree_height": 9.8, "crown_radius": 3.6, "height_source": "lidar2025" }, "geometry": { "type": "Point", "coordinates": [ 285389.5, 4158189.5 ] } },
{ "type": "Feature", "properties": { "id": "lidar-tree:285386:4158196", "name": null, "kind": "tree", "species": null, "source": "lidar2025", "tree_height": 9.1, "crown_radius": 4.2, "height_source": "lidar2025" }, "geometry": { "type": "Point", "coordinates": [ 285385.5, 4158195.5 ] } },
{ "type": "Feature", "properties": { "id": "lidar-tree:285386:4158204", "name": null, "kind": "tree", "species": null, "source": "lidar2025", "tree_height": 7.9, "crown_radius": 4.6, "height_source": "lidar2025" }, "geometry": { "type": "Point", "coordinates": [ 285385.5, 4158203.5 ] } },
{ "type": "Feature", "properties": { "id": "osm:node/10289825946", "name": null, "kind": "streetlight", "species": null, "source": null, "tree_height": null, "crown_radius": null, "height_source": null }, "geometry": { "type": "Point", "coordinates": [ 285451.0, 4158205.18 ] } },
{ "type": "Feature", "properties": { "id": "lidar-tree:285482:4158152", "name": null, "kind": "tree", "species": null, "source": "lidar2025", "tree_height": 11.6, "crown_radius": 4.2, "height_source": "lidar2025" }, "geometry": { "type": "Point", "coordinates": [ 285482.5, 4158151.5 ] } },
{ "type": "Feature", "properties": { "id": "lidar-tree:285484:4158166", "name": null, "kind": "tree", "species": null, "source": "lidar2025", "tree_height": 17.7, "crown_radius": 6.0, "height_source": "lidar2025" }, "geometry": { "type": "Point", "coordinates": [ 285483.5, 4158165.5 ] } },
{ "type": "Feature", "properties": { "id": "lidar-tree:285480:4158180", "name": null, "kind": "tree", "species": null, "source": "lidar2025", "tree_height": 23.4, "crown_radius": 6.0, "height_source": "lidar2025" }, "geometry": { "type": "Point", "coordinates": [ 285479.5, 4158179.5 ] } },
{ "type": "Feature", "properties": { "id": "lidar-tree:285498:4158194", "name": null, "kind": "tree", "species": null, "source": "lidar2025", "tree_height": 19.0, "crown_radius": 6.0, "height_source": "lidar2025" }, "geometry": { "type": "Point", "coordinates": [ 285498.5, 4158194.5 ] } },
{ "type": "Feature", "properties": { "id": "lidar-tree:285476:4158202", "name": null, "kind": "tree", "species": null, "source": "lidar2025", "tree_height": 24.8, "crown_radius": 6.0, "height_source": "lidar2025" }, "geometry": { "type": "Point", "coordinates": [ 285476.5, 4158202.5 ] } },
{ "type": "Feature", "properties": { "id": "lidar-tree:285476:4158216", "name": null, "kind": "tree", "species": null, "source": "lidar2025", "tree_height": 22.8, "crown_radius": 6.0, "height_source": "lidar2025" }, "geometry": { "type": "Point", "coordinates": [ 285476.5, 4158215.5 ] } },
{ "type": "Feature", "properties": { "id": "lidar-tree:285498:4158224", "name": null, "kind": "tree", "species": null, "source": "lidar2025", "tree_height": 18.2, "crown_radius": 6.0, "height_source": "lidar2025" }, "geometry": { "type": "Point", "coordinates": [ 285498.5, 4158223.5 ] } },
{ "type": "Feature", "properties": { "id": "lidar-tree:285476:4158226", "name": null, "kind": "tree", "species": null, "source": "lidar2025", "tree_height": 21.3, "crown_radius": 6.0, "height_source": "lidar2025" }, "geometry": { "type": "Point", "coordinates": [ 285475.5, 4158225.5 ] } },
{ "type": "Feature", "properties": { "id": "lidar-tree:285488:4158234", "name": null, "kind": "tree", "species": null, "source": "lidar2025", "tree_height": 12.5, "crown_radius": 6.0, "height_source": "lidar2025" }, "geometry": { "type": "Point", "coordinates": [ 285488.5, 4158233.5 ] } },
{ "type": "Feature", "properties": { "id": "lidar-tree:285498:4158244", "name": null, "kind": "tree", "species": null, "source": "lidar2025", "tree_height": 17.7, "crown_radius": 6.0, "height_source": "lidar2025" }, "geometry": { "type": "Point", "coordinates": [ 285498.5, 4158243.5 ] } },
{ "type": "Feature", "properties": { "id": "lidar-tree:285470:4158244", "name": null, "kind": "tree", "species": null, "source": "lidar2025", "tree_height": 23.3, "crown_radius": 6.0, "height_source": "lidar2025" }, "geometry": { "type": "Point", "coordinates": [ 285470.5, 4158243.5 ] } },
{ "type": "Feature", "properties": { "id": "lidar-tree:285264:4158008", "name": null, "kind": "tree", "species": null, "source": "lidar2025", "tree_height": 6.7, "crown_radius": 2.2, "height_source": "lidar2025" }, "geometry": { "type": "Point", "coordinates": [ 285263.5, 4158008.5 ] } },
{ "type": "Feature", "properties": { "id": "lidar-tree:285270:4158016", "name": null, "kind": "tree", "species": null, "source": "lidar2025", "tree_height": 6.1, "crown_radius": 2.3, "height_source": "lidar2025" }, "geometry": { "type": "Point", "coordinates": [ 285269.5, 4158016.5 ] } },
{ "type": "Feature", "properties": { "id": "lidar-tree:285276:4158022", "name": null, "kind": "tree", "species": null, "source": "lidar2025", "tree_height": 6.8, "crown_radius": 2.1, "height_source": "lidar2025" }, "geometry": { "type": "Point", "coordinates": [ 285275.5, 4158022.5 ] } },
{ "type": "Feature", "properties": { "id": "osm:node/3702108240", "name": null, "kind": "tree", "species": null, "source": null, "tree_height": null, "crown_radius": null, "height_source": null }, "geometry": { "type": "Point", "coordinates": [ 285253.04, 4158065.58 ] } },
{ "type": "Feature", "properties": { "id": "osm:node/7682437930", "name": null, "kind": "tree", "species": null, "source": null, "tree_height": null, "crown_radius": null, "height_source": null }, "geometry": { "type": "Point", "coordinates": [ 285305.72, 4158032.88 ] } },
{ "type": "Feature", "properties": { "id": "osm:node/3702108243", "name": null, "kind": "tree", "species": null, "source": null, "tree_height": null, "crown_radius": null, "height_source": null }, "geometry": { "type": "Point", "coordinates": [ 285338.82, 4158041.32 ] } },
{ "type": "Feature", "properties": { "id": "lidar-tree:285332:4158048", "name": null, "kind": "tree", "species": null, "source": "lidar2025", "tree_height": 11.6, "crown_radius": 6.0, "height_source": "lidar2025" }, "geometry": { "type": "Point", "coordinates": [ 285331.5, 4158048.5 ] } },
{ "type": "Feature", "properties": { "id": "osm:node/7691184559", "name": "Starbucks", "kind": "restaurant", "species": null, "source": null, "tree_height": null, "crown_radius": null, "height_source": null }, "geometry": { "type": "Point", "coordinates": [ 285351.12, 4158059.24 ] } },
{ "type": "Feature", "properties": { "id": "lidar-tree:285314:4158062", "name": null, "kind": "tree", "species": null, "source": "lidar2025", "tree_height": 11.3, "crown_radius": 5.6, "height_source": "lidar2025" }, "geometry": { "type": "Point", "coordinates": [ 285313.5, 4158061.5 ] } },
{ "type": "Feature", "properties": { "id": "osm:node/3702108236", "name": null, "kind": "tree", "species": null, "source": null, "tree_height": null, "crown_radius": null, "height_source": null }, "geometry": { "type": "Point", "coordinates": [ 285285.5, 4158061.63 ] } },
{ "type": "Feature", "properties": { "id": "osm:node/3702108238", "name": null, "kind": "tree", "species": null, "source": null, "tree_height": null, "crown_radius": null, "height_source": null }, "geometry": { "type": "Point", "coordinates": [ 285305.67, 4158063.84 ] } },
{ "type": "Feature", "properties": { "id": "lidar-tree:285282:4158068", "name": null, "kind": "tree", "species": null, "source": "lidar2025", "tree_height": 6.0, "crown_radius": 4.2, "height_source": "lidar2025" }, "geometry": { "type": "Point", "coordinates": [ 285281.5, 4158068.5 ] } },
{ "type": "Feature", "properties": { "id": "lidar-tree:285284:4158076", "name": null, "kind": "tree", "species": null, "source": "lidar2025", "tree_height": 5.9, "crown_radius": 3.9, "height_source": "lidar2025" }, "geometry": { "type": "Point", "coordinates": [ 285283.5, 4158076.5 ] } },
{ "type": "Feature", "properties": { "id": "lidar-tree:285304:4158078", "name": null, "kind": "tree", "species": null, "source": "lidar2025", "tree_height": 8.2, "crown_radius": 5.6, "height_source": "lidar2025" }, "geometry": { "type": "Point", "coordinates": [ 285304.5, 4158077.5 ] } },
{ "type": "Feature", "properties": { "id": "lidar-tree:285274:4158098", "name": null, "kind": "tree", "species": null, "source": "lidar2025", "tree_height": 15.0, "crown_radius": 4.2, "height_source": "lidar2025" }, "geometry": { "type": "Point", "coordinates": [ 285274.5, 4158098.5 ] } },
{ "type": "Feature", "properties": { "id": "lidar-tree:285268:4158118", "name": null, "kind": "tree", "species": null, "source": "lidar2025", "tree_height": 14.6, "crown_radius": 4.8, "height_source": "lidar2025" }, "geometry": { "type": "Point", "coordinates": [ 285267.5, 4158118.5 ] } },
{ "type": "Feature", "properties": { "id": "lidar-tree:285346:4158248", "name": null, "kind": "tree", "species": null, "source": "lidar2025", "tree_height": 7.9, "crown_radius": 6.0, "height_source": "lidar2025" }, "geometry": { "type": "Point", "coordinates": [ 285345.5, 4158248.5 ] } }
]
}
