{
"type": "FeatureCollection",
"name": "wires",
"crs": { "type": "name", "properties": { "name": "urn:ogc:def:crs:EPSG::32618" } },
"xy_coordinate_resolution": 0.01,
"features": [
{ "type": "Feature", "properties": { "id": "wire:9579-9580", "h0": 10.0, "h1": 10.0, "z0": 51.54, "z1": 51.38 }, "geometry": { "type": "LineString", "coordinates": [ [ 284684.83, 4158260.56 ], [ 284691.75, 4158270.76 ] ] } },
{ "type": "Feature", "properties": { "id": "wire:9631-9632", "h0": 10.0, "h1": 8.84, "z0": 51.68, "z1": 51.56 }, "geometry": { "type": "LineString", "coordinates": [ [ 284671.33, 4158263.99 ], [ 284662.01, 4158271.39 ] ] } },
{ "type": "Feature", "properties": { "id": "wire:9629-9632", "h0": 10.0, "h1": 8.84, "z0": 51.57, "z1": 51.56 }, "geometry": { "type": "LineString", "coordinates": [ [ 284656.56, 4158283.01 ], [ 284662.01, 4158271.39 ] ] } },
{ "type": "Feature", "properties": { "id": "wire:9593-9620", "h0": 10.0, "h1": 10.0, "z0": 51.6, "z1": 51.75 }, "geometry": { "type": "LineString", "coordinates": [ [ 284576.8, 4158286.45 ], [ 284589.17, 4158269.19 ] ] } },
{ "type": "Feature", "properties": { "id": "wire:9580-9581", "h0": 10.0, "h1": 10.0, "z0": 51.38, "z1": 51.11 }, "geometry": { "type": "LineString", "coordinates": [ [ 284691.75, 4158270.76 ], [ 284704.31, 4158286.96 ] ] } },
{ "type": "Feature", "properties": { "id": "wire:27636-27716", "h0": 10.0, "h1": 10.0, "z0": 51.68, "z1": 51.61 }, "geometry": { "type": "LineString", "coordinates": [ [ 284538.92, 4158308.19 ], [ 284553.05, 4158280.71 ] ] } },
{ "type": "Feature", "properties": { "id": "wire:9629-9633", "h0": 10.0, "h1": 10.0, "z0": 51.57, "z1": 51.18 }, "geometry": { "type": "LineString", "coordinates": [ [ 284656.56, 4158283.01 ], [ 284667.84, 4158311.2 ] ] } },
{ "type": "Feature", "properties": { "id": "wire:9581-9582", "h0": 10.0, "h1": 10.0, "z0": 51.11, "z1": 50.66 }, "geometry": { "type": "LineString", "coordinates": [ [ 284704.31, 4158286.96 ], [ 284728.0, 4158315.99 ] ] } },
{ "type": "Feature", "properties": { "id": "wire:9633-9634", "h0": 10.0, "h1": 10.0, "z0": 51.18, "z1": 51.14 }, "geometry": { "type": "LineString", "coordinates": [ [ 284667.84, 4158311.2 ], [ 284679.67, 4158325.3 ] ] } },
{ "type": "Feature", "properties": { "id": "wire:27633-27636", "h0": 10.0, "h1": 10.0, "z0": 51.78, "z1": 51.68 }, "geometry": { "type": "LineString", "coordinates": [ [ 284510.53, 4158331.8 ], [ 284538.92, 4158308.19 ] ] } },
{ "type": "Feature", "properties": { "id": "wire:9582-9583", "h0": 10.0, "h1": 11.73, "z0": 50.66, "z1": 50.45 }, "geometry": { "type": "LineString", "coordinates": [ [ 284728.0, 4158315.99 ], [ 284737.81, 4158330.14 ] ] } },
{ "type": "Feature", "properties": { "id": "wire:9589-9591", "h0": 10.0, "h1": 10.0, "z0": 51.12, "z1": 51.24 }, "geometry": { "type": "LineString", "coordinates": [ [ 284622.13, 4158343.31 ], [ 284602.56, 4158317.13 ] ] } },
{ "type": "Feature", "properties": { "id": "wire:27633-27668", "h0": 10.0, "h1": 10.0, "z0": 51.78, "z1": 51.73 }, "geometry": { "type": "LineString", "coordinates": [ [ 284510.53, 4158331.8 ], [ 284497.42, 4158346.55 ] ] } },
{ "type": "Feature", "properties": { "id": "wire:9256-9259", "h0": 10.0, "h1": 8.84, "z0": 50.32, "z1": 50.56 }, "geometry": { "type": "LineString", "coordinates": [ [ 284737.97, 4158336.49 ], [ 284749.72, 4158347.2 ] ] } },
{ "type": "Feature", "properties": { "id": "wire:9589-9625", "h0": 10.0, "h1": 8.84, "z0": 51.12, "z1": 50.95 }, "geometry": { "type": "LineString", "coordinates": [ [ 284622.13, 4158343.31 ], [ 284645.96, 4158352.01 ] ] } },
{ "type": "Feature", "properties": { "id": "wire:27637-27638", "h0": 10.0, "h1": 13.11, "z0": 51.7, "z1": 51.54 }, "geometry": { "type": "LineString", "coordinates": [ [ 284566.45, 4158355.34 ], [ 284581.76, 4158375.81 ] ] } },
{ "type": "Feature", "properties": { "id": "wire:9249-9257", "h0": 10.0, "h1": 8.53, "z0": 50.61, "z1": 50.66 }, "geometry": { "type": "LineString", "coordinates": [ [ 284702.16, 4158366.02 ], [ 284717.95, 4158370.9 ] ] } },
{ "type": "Feature", "properties": { "id": "wire:27674-27676", "h0": 10.0, "h1": 10.0, "z0": 51.48, "z1": 51.28 }, "geometry": { "type": "LineString", "coordinates": [ [ 284513.42, 4158365.19 ], [ 284523.18, 4158377.65 ] ] } },
{ "type": "Feature", "properties": { "id": "wire:9627-27613", "h0": 10.0, "h1": 11.73, "z0": 50.9, "z1": 50.8 }, "geometry": { "type": "LineString", "coordinates": [ [ 284660.56, 4158368.57 ], [ 284648.56, 4158374.39 ] ] } },
{ "type": "Feature", "properties": { "id": "wire:27638-27639", "h0": 13.11, "h1": 13.11, "z0": 51.54, "z1": 51.28 }, "geometry": { "type": "LineString", "coordinates": [ [ 284581.76, 4158375.81 ], [ 284598.01, 4158397.4 ] ] } },
{ "type": "Feature", "properties": { "id": "wire:27676-27683", "h0": 10.0, "h1": 10.0, "z0": 51.28, "z1": 51.2 }, "geometry": { "type": "LineString", "coordinates": [ [ 284523.18, 4158377.65 ], [ 284535.82, 4158396.8 ] ] } },
{ "type": "Feature", "properties": { "id": "wire:27639-27640", "h0": 13.11, "h1": 13.11, "z0": 51.28, "z1": 51.19 }, "geometry": { "type": "LineString", "coordinates": [ [ 284598.01, 4158397.4 ], [ 284604.98, 4158405.53 ] ] } },
{ "type": "Feature", "properties": { "id": "wire:27619-27623", "h0": 14.48, "h1": 14.48, "z0": 50.71, "z1": 50.71 }, "geometry": { "type": "LineString", "coordinates": [ [ 284650.58, 4158405.41 ], [ 284641.29, 4158412.8 ] ] } },
{ "type": "Feature", "properties": { "id": "wire:27629-27687", "h0": 10.0, "h1": 10.0, "z0": 50.87, "z1": 50.9 }, "geometry": { "type": "LineString", "coordinates": [ [ 284574.9, 4158422.3 ], [ 284559.43, 4158422.88 ] ] } },
{ "type": "Feature", "properties": { "id": "wire:27687-27692", "h0": 10.0, "h1": 10.0, "z0": 50.9, "z1": 51.13 }, "geometry": { "type": "LineString", "coordinates": [ [ 284559.43, 4158422.88 ], [ 284548.23, 4158430.87 ] ] } },
{ "type": "Feature", "properties": { "id": "wire:27733-27736", "h0": 10.0, "h1": 10.0, "z0": 50.52, "z1": 49.98 }, "geometry": { "type": "LineString", "coordinates": [ [ 284681.4, 4158418.02 ], [ 284705.07, 4158446.21 ] ] } },
{ "type": "Feature", "properties": { "id": "wire:27626-27842", "h0": 10.0, "h1": 10.0, "z0": 50.71, "z1": 50.68 }, "geometry": { "type": "LineString", "coordinates": [ [ 284615.45, 4158433.34 ], [ 284636.01, 4158436.56 ] ] } },
{ "type": "Feature", "properties": { "id": "wire:27692-27693", "h0": 10.0, "h1": 10.0, "z0": 51.13, "z1": 50.89 }, "geometry": { "type": "LineString", "coordinates": [ [ 284548.23, 4158430.87 ], [ 284524.96, 4158449.17 ] ] } },
{ "type": "Feature", "properties": { "id": "wire:27689-27691", "h0": 13.11, "h1": 10.0, "z0": 50.7, "z1": 50.63 }, "geometry": { "type": "LineString", "coordinates": [ [ 284580.38, 4158450.29 ], [ 284582.15, 4158459.69 ] ] } },
{ "type": "Feature", "properties": { "id": "wire:27691-27931", "h0": 10.0, "h1": 10.0, "z0": 50.63, "z1": 50.51 }, "geometry": { "type": "LineString", "coordinates": [ [ 284582.15, 4158459.69 ], [ 284599.16, 4158472.26 ] ] } },
{ "type": "Feature", "properties": { "id": "wire:27919-28023", "h0": 10.0, "h1": 14.48, "z0": 50.29, "z1": 50.45 }, "geometry": { "type": "LineString", "coordinates": [ [ 284558.01, 4158497.89 ], [ 284558.86, 4158478.27 ] ] } }
]
}
