{
"type": "FeatureCollection",
"name": "pois",
"crs": { "type": "name", "properties": { "name": "urn:ogc:def:crs:EPSG::32618" } },
"xy_coordinate_resolution": 0.01,
"features": [
{ "type": "Feature", "properties": { "id": "lidar-tree:280408:4159004", "name": null, "kind": "tree", "species": null, "source": "lidar2025", "tree_height": 7.6, "crown_radius": 4.4, "height_source": "lidar2025" }, "geometry": { "type": "Point", "coordinates": [ 280407.5, 4159004.5 ] } },
{ "type": "Feature", "properties": { "id": "rva-tree:9609", "name": "Ulmus spp.", "kind": "tree", "species": "Ulmus spp.", "source": "city_inventory", "tree_height": 8.1, "crown_radius": 3.9, "height_source": "lidar2025" }, "geometry": { "type": "Point", "coordinates": [ 280452.48, 4159011.15 ] } },
{ "type": "Feature", "properties": { "id": "rva-tree:9610", "name": "Carpinus caroliniana", "kind": "tree", "species": "Carpinus caroliniana", "source": "city_inventory", "tree_height": 8.0, "crown_radius": 2.5, "height_source": "estimated" }, "geometry": { "type": "Point", "coordinates": [ 280437.26, 4159018.54 ] } },
{ "type": "Feature", "properties": { "id": "rva-tree:6725", "name": "Cladrastis kentukea", "kind": "tree", "species": "Cladrastis kentukea", "source": "city_inventory", "tree_height": 8.0, "crown_radius": 2.5, "height_source": "estimated" }, "geometry": { "type": "Point", "coordinates": [ 280429.34, 4159022.14 ] } },
{ "type": "Feature", "properties": { "id": "rva-tree:9626", "name": "Carpinus caroliniana", "kind": "tree", "species": "Carpinus caroliniana", "source": "city_inventory", "tree_height": 5.2, "crown_radius": 2.5, "height_source": "lidar2025" }, "geometry": { "type": "Point", "coordinates": [ 280422.23, 4159025.4 ] } },
{ "type": "Feature", "properties": { "id": "lidar-tree:280442:4159044", "name": null, "kind": "tree", "species": null, "source": "lidar2025", "tree_height": 25.1, "crown_radius": 6.0, "height_source": "lidar2025" }, "geometry": { "type": "Point", "coordinates": [ 280441.5, 4159043.5 ] } },
{ "type": "Feature", "properties": { "id": "lidar-tree:280430:4159048", "name": null, "kind": "tree", "species": null, "source": "lidar2025", "tree_height": 21.7, "crown_radius": 6.0, "height_source": "lidar2025" }, "geometry": { "type": "Point", "coordinates": [ 280429.5, 4159048.5 ] } },
{ "type": "Feature", "properties": { "id": "lidar-tree:280380:4159000", "name": null, "kind": "tree", "species": null, "source": "lidar2025", "tree_height": 7.8, "crown_radius": 6.0, "height_source": "lidar2025" }, "geometry": { "type": "Point", "coordinates": [ 280379.5, 4159000.5 ] } },
{ "type": "Feature", "properties": { "id": "lidar-tree:280388:4159004", "name": null, "kind": "tree", "species": null, "source": "lidar2025", "tree_height": 5.4, "crown_radius": 3.8, "height_source": "lidar2025" }, "geometry": { "type": "Point", "coordinates": [ 280388.5, 4159003.5 ] } },
{ "type": "Feature", "properties": { "id": "lidar-tree:280366:4159008", "name": null, "kind": "tree", "species": null, "source": "lidar2025", "tree_height": 7.7, "crown_radius": 5.2, "height_source": "lidar2025" }, "geometry": { "type": "Point", "coordinates": [ 280366.5, 4159007.5 ] } },
{ "type": "Feature", "properties": { "id": "lidar-tree:280386:4159012", "name": null, "kind": "tree", "species": null, "source": "lidar2025", "tree_height": 4.7, "crown_radius": 3.4, "height_source": "lidar2025" }, "geometry": { "type": "Point", "coordinates": [ 280386.5, 4159011.5 ] } },
{ "type": "Feature", "properties": { "id": "lidar-tree:280372:4159018", "name": null, "kind": "tree", "species": null, "source": "lidar2025", "tree_height": 5.5, "crown_radius": 2.4, "height_source": "lidar2025" }, "geometry": { "type": "Point", "coordinates": [ 280372.5, 4159018.5 ] } },
{ "type": "Feature", "properties": { "id": "lidar-tree:280366:4159026", "name": null, "kind": "tree", "species": null, "source": "lidar2025", "tree_height": 4.9, "crown_radius": 2.3, "height_source": "lidar2025" }, "geometry": { "type": "Point", "coordinates": [ 280365.5, 4159026.5 ] } },
{ "type": "Feature", "properties": { "id": "rva-tree:6726", "name": "Cladrastis kentukea", "kind": "tree", "species": "Cladrastis kentukea", "source": "city_inventory", "tree_height": 8.0, "crown_radius": 2.5, "height_source": "estimated" }, "geometry": { "type": "Point", "coordinates": [ 280399.03, 4159036.34 ] } },
{ "type": "Feature", "properties": { "id": "rva-tree:9630", "name": "Ulmus spp.", "kind": "tree", "species": "Ulmus spp.", "source": "city_inventory", "tree_height": 7.9, "crown_radius": 3.0, "height_source": "lidar2025" }, "geometry": { "type": "Point", "coordinates": [ 280390.5, 4159040.37 ] } },
{ "type": "Feature", "properties": { "id": "lidar-tree:280356:4159042", "name": null, "kind": "tree", "species": null, "source": "lidar2025", "tree_height": 4.8, "crown_radius": 3.2, "height_source": "lidar2025" }, "geometry": { "type": "Point", "coordinates": [ 280356.5, 4159042.5 ] } },
{ "type": "Feature", "properties": { "id": "rva-tree:9645", "name": "Ulmus spp.", "kind": "tree", "species": "Ulmus spp.", "source": "city_inventory", "tree_height": 7.5, "crown_radius": 2.6, "height_source": "lidar2025" }, "geometry": { "type": "Point", "coordinates": [ 280383.41, 4159044.15 ] } },
{ "type": "Feature", "properties": { "id": "lidar-tree:280314:4159036", "name": null, "kind": "tree", "species": null, "source": "lidar2025", "tree_height": 19.6, "crown_radius": 5.8, "height_source": "lidar2025" }, "geometry": { "type": "Point", "coordinates": [ 280313.5, 4159036.5 ] } },
{ "type": "Feature", "properties": { "id": "lidar-tree:280294:4159052", "name": null, "kind": "tree", "species": null, "source": "lidar2025", "tree_height": 8.1, "crown_radius": 1.6, "height_source": "lidar2025" }, "geometry": { "type": "Point", "coordinates": [ 280294.5, 4159051.5 ] } },
{ "type": "Feature", "properties": { "id": "lidar-tree:280340:4159056", "name": null, "kind": "tree", "species": null, "source": "lidar2025", "tree_height": 4.1, "crown_radius": 2.5, "height_source": "lidar2025" }, "geometry": { "type": "Point", "coordinates": [ 280340.5, 4159056.5 ] } },
{ "type": "Feature", "properties": { "id": "lidar-tree:280304:4159058", "name": null, "kind": "tree", "species": null, "source": "lidar2025", "tree_height": 5.1, "crown_radius": 3.1, "height_source": "lidar2025" }, "geometry": { "type": "Point", "coordinates": [ 280304.5, 4159057.5 ] } },
{ "type": "Feature", "properties": { "id": "lidar-tree:280296:4159060", "name": null, "kind": "tree", "species": null, "source": "lidar2025", "tree_height": 4.2, "crown_radius": 2.3, "height_source": "lidar2025" }, "geometry": { "type": "Point", "coordinates": [ 280296.5, 4159060.5 ] } },
{ "type": "Feature", "properties": { "id": "lidar-tree:280334:4159064", "name": null, "kind": "tree", "species": null, "source": "lidar2025", "tree_height": 6.9, "crown_radius": 4.2, "height_source": "lidar2025" }, "geometry": { "type": "Point", "coordinates": [ 280333.5, 4159063.5 ] } },
{ "type": "Feature", "properties": { "id": "lidar-tree:280320:4159068", "name": null, "kind": "tree", "species": null, "source": "lidar2025", "tree_height": 14.6, "crown_radius": 6.0, "height_source": "lidar2025" }, "geometry": { "type": "Point", "coordinates": [ 280319.5, 4159067.5 ] } },
{ "type": "Feature", "properties": { "id": "lidar-tree:280328:4159072", "name": null, "kind": "tree", "species": null, "source": "lidar2025", "tree_height": 8.8, "crown_radius": 5.3, "height_source": "lidar2025" }, "geometry": { "type": "Point", "coordinates": [ 280328.5, 4159071.5 ] } },
{ "type": "Feature", "properties": { "id": "lidar-tree:280316:4159076", "name": null, "kind": "tree", "species": null, "source": "lidar2025", "tree_height": 12.9, "crown_radius": 5.8, "height_source": "lidar2025" }, "geometry": { "type": "Point", "coordinates": [ 280316.5, 4159076.5 ] } },
{ "type": "Feature", "properties": { "id": "lidar-tree:280346:4159078", "name": null, "kind": "tree", "species": null, "source": "lidar2025", "tree_height": 19.0, "crown_radius": 6.0, "height_source": "lidar2025" }, "geometry": { "type": "Point", "coordinates": [ 280345.5, 4159078.5 ] } },
{ "type": "Feature", "properties": { "id": "lidar-tree:280374:4159050", "name": null, "kind": "tree", "species": null, "source": "lidar2025", "tree_height": 8.5, "crown_radius": 3.5, "height_source": "lidar2025" }, "geometry": { "type": "Point", "coordinates": [ 280373.5, 4159049.5 ] } },
{ "type": "Feature", "properties": { "id": "lidar-tree:280364:4159052", "name": null, "kind": "tree", "species": null, "source": "lidar2025", "tree_height": 4.1, "crown_radius": 2.5, "height_source": "lidar2025" }, "geometry": { "type": "Point", "coordinates": [ 280364.5, 4159051.5 ] } },
{ "type": "Feature", "properties": { "id": "lidar-tree:280394:4159054", "name": null, "kind": "tree", "species": null, "source": "lidar2025", "tree_height": 17.0, "crown_radius": 6.0, "height_source": "lidar2025" }, "geometry": { "type": "Point", "coordinates": [ 280394.5, 4159053.5 ] } },
{ "type": "Feature", "properties": { "id": "lidar-tree:280390:4159064", "name": null, "kind": "tree", "species": null, "source": "lidar2025", "tree_height": 19.4, "crown_radius": 6.0, "height_source": "lidar2025" }, "geometry": { "type": "Point", "coordinates": [ 280389.5, 4159063.5 ] } },
{ "type": "Feature", "properties": { "id": "lidar-tree:280382:4159068", "name": null, "kind": "tree", "species": null, "source": "lidar2025", "tree_height": 15.0, "crown_radius": 6.0, "height_source": "lidar2025" }, "geometry": { "type": "Point", "coordinates": [ 280381.5, 4159068.5 ] } },
{ "type": "Feature", "properties": { "id": "lidar-tree:280386:4159136", "name": null, "kind": "tree", "species": null, "source": "lidar2025", "tree_height": 8.0, "crown_radius": 2.9, "height_source": "lidar2025" }, "geometry": { "type": "Point", "coordinates": [ 280385.5, 4159136.5 ] } },
{ "type": "Feature", "properties": { "id": "rva-tree:104192", "name": "Platanus occidentalis", "kind": "tree", "species": "Platanus occidentalis", "source": "city_inventory", "tree_height": 8.0, "crown_radius": 2.5, "height_source": "estimated" }, "geometry": { "type": "Point", "coordinates": [ 280395.98, 4159142.69 ] } },
{ "type": "Feature", "properties": { "id": "lidar-tree:280360:4159146", "name": null, "kind": "tree", "species": null, "source": "lidar2025", "tree_height": 12.4, "crown_radius": 5.7, "height_source": "lidar2025" }, "geometry": { "type": "Point", "coordinates": [ 280359.5, 4159146.5 ] } },
{ "type": "Feature", "properties": { "id": "rva-tree:104191", "name": "Platanus occidentalis", "kind": "tree", "species": "Platanus occidentalis", "source": "city_inventory", "tree_height": 12.1, "crown_radius": 4.0, "height_source": "lidar2025" }, "geometry": { "type": "Point", "coordinates": [ 280385.24, 4159147.99 ] } },
{ "type": "Feature", "properties": { "id": "lidar-tree:280368:4159150", "name": null, "kind": "tree", "species": null, "source": "lidar2025", "tree_height": 17.3, "crown_radius": 6.0, "height_source": "lidar2025" }, "geometry": { "type": "Point", "coordinates": [ 280367.5, 4159149.5 ] } },
{ "type": "Feature", "properties": { "id": "lidar-tree:280420:4159050", "name": null, "kind": "tree", "species": null, "source": "lidar2025", "tree_height": 20.1, "crown_radius": 6.0, "height_source": "lidar2025" }, "geometry": { "type": "Point", "coordinates": [ 280419.5, 4159049.5 ] } },
{ "type": "Feature", "properties": { "id": "lidar-tree:280414:4159060", "name": null, "kind": "tree", "species": null, "source": "lidar2025", "tree_height": 22.5, "crown_radius": 6.0, "height_source": "lidar2025" }, "geometry": { "type": "Point", "coordinates": [ 280413.5, 4159060.5 ] } },
{ "type": "Feature", "properties": { "id": "lidar-tree:280404:4159064", "name": null, "kind": "tree", "species": null, "source": "lidar2025", "tree_height": 14.7, "crown_radius": 5.5, "height_source": "lidar2025" }, "geometry": { "type": "Point", "coordinates": [ 280403.5, 4159064.5 ] } },
{ "type": "Feature", "properties": { "id": "lidar-tree:280446:4159104", "name": null, "kind": "tree", "species": null, "source": "lidar2025", "tree_height": 26.6, "crown_radius": 6.0, "height_source": "lidar2025" }, "geometry": { "type": "Point", "coordinates": [ 280445.5, 4159104.5 ] } },
{ "type": "Feature", "properties": { "id": "lidar-tree:280454:4159110", "name": null, "kind": "tree", "species": null, "source": "lidar2025", "tree_height": 24.0, "crown_radius": 6.0, "height_source": "lidar2025" }, "geometry": { "type": "Point", "coordinates": [ 280454.5, 4159109.5 ] } },
{ "type": "Feature", "properties": { "id": "rva-tree:104067", "name": "Ulmus x", "kind": "tree", "species": "Ulmus x", "source": "city_inventory", "tree_height": 16.3, "crown_radius": 5.9, "height_source": "lidar2025" }, "geometry": { "type": "Point", "coordinates": [ 280451.65, 4159128.15 ] } },
{ "type": "Feature", "properties": { "id": "rva-tree:104069", "name": "Ulmus x", "kind": "tree", "species": "Ulmus x", "source": "city_inventory", "tree_height": 11.6, "crown_radius": 6.0, "height_source": "lidar2025" }, "geometry": { "type": "Point", "coordinates": [ 280430.48, 4159138.35 ] } },
{ "type": "Feature", "properties": { "id": "rva-tree:104087", "name": "Acer saccharum", "kind": "tree", "species": "Acer saccharum", "source": "city_inventory", "tree_height": 15.9, "crown_radius": 6.0, "height_source": "lidar2025" }, "geometry": { "type": "Point", "coordinates": [ 280430.5, 4159147.28 ] } },
{ "type": "Feature", "properties": { "id": "rva-tree:104173", "name": "Acer campestre", "kind": "tree", "species": "Acer campestre", "source": "city_inventory", "tree_height": 8.0, "crown_radius": 2.5, "height_source": "estimated" }, "geometry": { "type": "Point", "coordinates": [ 280405.26, 4159151.47 ] } },
{ "type": "Feature", "properties": { "id": "lidar-tree:280418:4159154", "name": null, "kind": "tree", "species": null, "source": "lidar2025", "tree_height": 20.1, "crown_radius": 6.0, "height_source": "lidar2025" }, "geometry": { "type": "Point", "coordinates": [ 280418.5, 4159153.5 ] } },
{ "type": "Feature", "properties": { "id": "lidar-tree:280306:4159084", "name": null, "kind": "tree", "species": null, "source": "lidar2025", "tree_height": 16.9, "crown_radius": 5.6, "height_source": "lidar2025" }, "geometry": { "type": "Point", "coordinates": [ 280305.5, 4159084.5 ] } },
{ "type": "Feature", "properties": { "id": "lidar-tree:280334:4159090", "name": null, "kind": "tree", "species": null, "source": "lidar2025", "tree_height": 16.0, "crown_radius": 6.0, "height_source": "lidar2025" }, "geometry": { "type": "Point", "coordinates": [ 280334.5, 4159089.5 ] } },
{ "type": "Feature", "properties": { "id": "lidar-tree:280326:4159090", "name": null, "kind": "tree", "species": null, "source": "lidar2025", "tree_height": 18.5, "crown_radius": 6.0, "height_source": "lidar2025" }, "geometry": { "type": "Point", "coordinates": [ 280325.5, 4159090.5 ] } },
{ "type": "Feature", "properties": { "id": "lidar-tree:280324:4159102", "name": null, "kind": "tree", "species": null, "source": "lidar2025", "tree_height": 19.9, "crown_radius": 5.6, "height_source": "lidar2025" }, "geometry": { "type": "Point", "coordinates": [ 280323.5, 4159101.5 ] } },
{ "type": "Feature", "properties": { "id": "lidar-tree:280310:4159102", "name": null, "kind": "tree", "species": null, "source": "lidar2025", "tree_height": 19.2, "crown_radius": 6.0, "height_source": "lidar2025" }, "geometry": { "type": "Point", "coordinates": [ 280309.5, 4159101.5 ] } },
{ "type": "Feature", "properties": { "id": "lidar-tree:280294:4159106", "name": null, "kind": "tree", "species": null, "source": "lidar2025", "tree_height": 17.5, "crown_radius": 5.3, "height_source": "lidar2025" }, "geometry": { "type": "Point", "coordinates": [ 280294.5, 4159106.5 ] } },
{ "type": "Feature", "properties": { "id": "lidar-tree:280294:4159116", "name": null, "kind": "tree", "species": null, "source": "lidar2025", "tree_height": 20.3, "crown_radius": 4.1, "height_source": "lidar2025" }, "geometry": { "type": "Point", "coordinates": [ 280294.5, 4159115.5 ] } },
{ "type": "Feature", "properties": { "id": "lidar-tree:280316:4159166", "name": null, "kind": "tree", "species": null, "source": "lidar2025", "tree_height": 25.1, "crown_radius": 6.0, "height_source": "lidar2025" }, "geometry": { "type": "Point", "coordinates": [ 280316.5, 4159165.5 ] } },
{ "type": "Feature", "properties": { "id": "lidar-tree:280294:4159184", "name": null, "kind": "tree", "species": null, "source": "lidar2025", "tree_height": 12.4, "crown_radius": 3.7, "height_source": "lidar2025" }, "geometry": { "type": "Point", "coordinates": [ 280294.5, 4159184.5 ] } },
{ "type": "Feature", "properties": { "id": "lidar-tree:280326:4159192", "name": null, "kind": "tree", "species": null, "source": "lidar2025", "tree_height": 17.9, "crown_radius": 6.0, "height_source": "lidar2025" }, "geometry": { "type": "Point", "coordinates": [ 280326.5, 4159191.5 ] } },
{ "type": "Feature", "properties": { "id": "lidar-tree:280346:4159160", "name": null, "kind": "tree", "species": null, "source": "lidar2025", "tree_height": 18.8, "crown_radius": 6.0, "height_source": "lidar2025" }, "geometry": { "type": "Point", "coordinates": [ 280346.5, 4159159.5 ] } },
{ "type": "Feature", "properties": { "id": "lidar-tree:280390:4159170", "name": null, "kind": "tree", "species": null, "source": "lidar2025", "tree_height": 25.9, "crown_radius": 6.0, "height_source": "lidar2025" }, "geometry": { "type": "Point", "coordinates": [ 280390.5, 4159169.5 ] } },
{ "type": "Feature", "properties": { "id": "lidar-tree:280368:4159176", "name": null, "kind": "tree", "species": null, "source": "lidar2025", "tree_height": 4.7, "crown_radius": 1.7, "height_source": "lidar2025" }, "geometry": { "type": "Point", "coordinates": [ 280367.5, 4159176.5 ] } },
{ "type": "Feature", "properties": { "id": "lidar-tree:280352:4159184", "name": null, "kind": "tree", "species": null, "source": "lidar2025", "tree_height": 8.0, "crown_radius": 5.5, "height_source": "lidar2025" }, "geometry": { "type": "Point", "coordinates": [ 280351.5, 4159184.5 ] } },
{ "type": "Feature", "properties": { "id": "lidar-tree:280382:4159190", "name": null, "kind": "tree", "species": null, "source": "lidar2025", "tree_height": 16.6, "crown_radius": 6.0, "height_source": "lidar2025" }, "geometry": { "type": "Point", "coordinates": [ 280382.5, 4159190.5 ] } },
{ "type": "Feature", "properties": { "id": "lidar-tree:280388:4159198", "name": null, "kind": "tree", "species": null, "source": "lidar2025", "tree_height": 17.6, "crown_radius": 6.0, "height_source": "lidar2025" }, "geometry": { "type": "Point", "coordinates": [ 280387.5, 4159198.5 ] } },
{ "type": "Feature", "properties": { "id": "lidar-tree:280368:4159202", "name": null, "kind": "tree", "species": null, "source": "lidar2025", "tree_height": 16.3, "crown_radius": 6.0, "height_source": "lidar2025" }, "geometry": { "type": "Point", "coordinates": [ 280368.5, 4159201.5 ] } },
{ "type": "Feature", "properties": { "id": "lidar-tree:280384:4159210", "name": null, "kind": "tree", "species": null, "source": "lidar2025", "tree_height": 19.6, "crown_radius": 6.0, "height_source": "lidar2025" }, "geometry": { "type": "Point", "coordinates": [ 280384.5, 4159210.5 ] } },
{ "type": "Feature", "properties": { "id": "lidar-tree:280354:4159212", "name": null, "kind": "tree", "species": null, "source": "lidar2025", "tree_height": 19.3, "crown_radius": 6.0, "height_source": "lidar2025" }, "geometry": { "type": "Point", "coordinates": [ 280354.5, 4159212.5 ] } },
{ "type": "Feature", "properties": { "id": "lidar-tree:280388:4159224", "name": null, "kind": "tree", "species": null, "source": "lidar2025", "tree_height": 14.1, "crown_radius": 4.7, "height_source": "lidar2025" }, "geometry": { "type": "Point", "coordinates": [ 280387.5, 4159224.5 ] } },
{ "type": "Feature", "properties": { "id": "lidar-tree:280482:4159002", "name": null, "kind": "tree", "species": null, "source": "lidar2025", "tree_height": 18.1, "crown_radius": 6.0, "height_source": "lidar2025" }, "geometry": { "type": "Point", "coordinates": [ 280481.5, 4159001.5 ] } },
{ "type": "Feature", "properties": { "id": "rva-tree:103441", "name": "Quercus palustris", "kind": "tree", "species": "Quercus palustris", "source": "city_inventory", "tree_height": 20.6, "crown_radius": 6.0, "height_source": "lidar2025" }, "geometry": { "type": "Point", "coordinates": [ 280462.54, 4159006.44 ] } },
{ "type": "Feature", "properties": { "id": "lidar-tree:280478:4159016", "name": null, "kind": "tree", "species": null, "source": "lidar2025", "tree_height": 5.0, "crown_radius": 3.8, "height_source": "lidar2025" }, "geometry": { "type": "Point", "coordinates": [ 280478.5, 4159015.5 ] } },
{ "type": "Feature", "properties": { "id": "lidar-tree:280488:4159020", "name": null, "kind": "tree", "species": null, "source": "lidar2025", "tree_height": 8.3, "crown_radius": 5.4, "height_source": "lidar2025" }, "geometry": { "type": "Point", "coordinates": [ 280488.5, 4159019.5 ] } },
{ "type": "Feature", "properties": { "id": "lidar-tree:280460:4159026", "name": null, "kind": "tree", "species": null, "source": "lidar2025", "tree_height": 4.9, "crown_radius": 2.4, "height_source": "lidar2025" }, "geometry": { "type": "Point", "coordinates": [ 280460.5, 4159025.5 ] } },
{ "type": "Feature", "properties": { "id": "lidar-tree:280492:4159082", "name": null, "kind": "tree", "species": null, "source": "lidar2025", "tree_height": 15.6, "crown_radius": 5.5, "height_source": "lidar2025" }, "geometry": { "type": "Point", "coordinates": [ 280492.5, 4159082.5 ] } },
{ "type": "Feature", "properties": { "id": "lidar-tree:280484:4159096", "name": null, "kind": "tree", "species": null, "source": "lidar2025", "tree_height": 14.3, "crown_radius": 6.0, "height_source": "lidar2025" }, "geometry": { "type": "Point", "coordinates": [ 280483.5, 4159096.5 ] } },
{ "type": "Feature", "properties": { "id": "rva-tree:104074", "name": "Ulmus alata", "kind": "tree", "species": "Ulmus alata", "source": "city_inventory", "tree_height": 8.0, "crown_radius": 2.5, "height_source": "estimated" }, "geometry": { "type": "Point", "coordinates": [ 280478.53, 4159103.65 ] } },
{ "type": "Feature", "properties": { "id": "rva-tree:104061", "name": "Magnolia stellata", "kind": "tree", "species": "Magnolia stellata", "source": "city_inventory", "tree_height": 8.0, "crown_radius": 2.5, "height_source": "estimated" }, "geometry": { "type": "Point", "coordinates": [ 280497.71, 4159106.21 ] } },
{ "type": "Feature", "properties": { "id": "rva-tree:104062", "name": "Lagerstroemia fauriei", "kind": "tree", "species": "Lagerstroemia fauriei", "source": "city_inventory", "tree_height": 8.0, "crown_radius": 2.5, "height_source": "estimated" }, "geometry": { "type": "Point", "coordinates": [ 280494.05, 4159107.67 ] } },
{ "type": "Feature", "properties": { "id": "rva-tree:104063", "name": "Lagerstroemia fauriei", "kind": "tree", "species": "Lagerstroemia fauriei", "source": "city_inventory", "tree_height": 5.1, "crown_radius": 3.1, "height_source": "lidar2025" }, "geometry": { "type": "Point", "coordinates": [ 280490.01, 4159109.55 ] } },
{ "type": "Feature", "properties": { "id": "lidar-tree:280492:4159138", "name": null, "kind": "tree", "species": null, "source": "lidar2025", "tree_height": 17.3, "crown_radius": 6.0, "height_source": "lidar2025" }, "geometry": { "type": "Point", "coordinates": [ 280492.5, 4159138.5 ] } },
{ "type": "Feature", "properties": { "id": "lidar-tree:280478:4159150", "name": null, "kind": "tree", "species": null, "source": "lidar2025", "tree_height": 18.5, "crown_radius": 5.6, "height_source": "lidar2025" }, "geometry": { "type": "Point", "coordinates": [ 280478.5, 4159150.5 ] } },
{ "type": "Feature", "properties": { "id": "lidar-tree:280500:4159158", "name": null, "kind": "tree", "species": null, "source": "lidar2025", "tree_height": 20.0, "crown_radius": 5.5, "height_source": "lidar2025" }, "geometry": { "type": "Point", "coordinates": [ 280499.5, 4159157.5 ] } },
{ "type": "Feature", "properties": { "id": "lidar-tree:280462:4159158", "name": null, "kind": "tree", "species": null, "source": "lidar2025", "tree_height": 15.1, "crown_radius": 6.0, "height_source": "lidar2025" }, "geometry": { "type": "Point", "coordinates": [ 280462.5, 4159158.5 ] } },
{ "type": "Feature", "properties": { "id": "lidar-tree:280496:4159172", "name": null, "kind": "tree", "species": null, "source": "lidar2025", "tree_height": 5.2, "crown_radius": 3.2, "height_source": "lidar2025" }, "geometry": { "type": "Point", "coordinates": [ 280496.5, 4159172.5 ] } },
{ "type": "Feature", "properties": { "id": "lidar-tree:280470:4159174", "name": null, "kind": "tree", "species": null, "source": "lidar2025", "tree_height": 11.2, "crown_radius": 5.0, "height_source": "lidar2025" }, "geometry": { "type": "Point", "coordinates": [ 280469.5, 4159173.5 ] } },
{ "type": "Feature", "properties": { "id": "lidar-tree:280456:4159182", "name": null, "kind": "tree", "species": null, "source": "lidar2025", "tree_height": 23.2, "crown_radius": 6.0, "height_source": "lidar2025" }, "geometry": { "type": "Point", "coordinates": [ 280456.5, 4159181.5 ] } },
{ "type": "Feature", "properties": { "id": "rva-tree:104091", "name": "Acer saccharum", "kind": "tree", "species": "Acer saccharum", "source": "city_inventory", "tree_height": 19.1, "crown_radius": 4.9, "height_source": "lidar2025" }, "geometry": { "type": "Point", "coordinates": [ 280494.72, 4159200.07 ] } },
{ "type": "Feature", "properties": { "id": "lidar-tree:280468:4159200", "name": null, "kind": "tree", "species": null, "source": "lidar2025", "tree_height": 23.6, "crown_radius": 6.0, "height_source": "lidar2025" }, "geometry": { "type": "Point", "coordinates": [ 280467.5, 4159200.5 ] } },
{ "type": "Feature", "properties": { "id": "rva-tree:104090", "name": "Acer saccharum", "kind": "tree", "species": "Acer saccharum", "source": "city_inventory", "tree_height": 14.0, "crown_radius": 5.3, "height_source": "lidar2025" }, "geometry": { "type": "Point", "coordinates": [ 280482.07, 4159205.85 ] } },
{ "type": "Feature", "properties": { "id": "rva-tree:104168", "name": "Acer rubrum", "kind": "tree", "species": "Acer rubrum", "source": "city_inventory", "tree_height": 11.0, "crown_radius": 5.2, "height_source": "lidar2025" }, "geometry": { "type": "Point", "coordinates": [ 280455.94, 4159218.11 ] } },
{ "type": "Feature", "properties": { "id": "rva-tree:104120", "name": "Acer campestre", "kind": "tree", "species": "Acer campestre", "source": "city_inventory", "tree_height": 7.5, "crown_radius": 4.4, "height_source": "lidar2025" }, "geometry": { "type": "Point", "coordinates": [ 280462.89, 4159227.48 ] } },
{ "type": "Feature", "properties": { "id": "lidar-tree:280456:4159234", "name": null, "kind": "tree", "species": null, "source": "lidar2025", "tree_height": 9.5, "crown_radius": 4.6, "height_source": "lidar2025" }, "geometry": { "type": "Point", "coordinates": [ 280455.5, 4159233.5 ] } },
{ "type": "Feature", "properties": { "id": "lidar-tree:280480:4159238", "name": null, "kind": "tree", "species": null, "source": "lidar2025", "tree_height": 12.8, "crown_radius": 5.2, "height_source": "lidar2025" }, "geometry": { "type": "Point", "coordinates": [ 280480.5, 4159237.5 ] } },
{ "type": "Feature", "properties": { "id": "lidar-tree:280440:4159160", "name": null, "kind": "tree", "species": null, "source": "lidar2025", "tree_height": 19.6, "crown_radius": 6.0, "height_source": "lidar2025" }, "geometry": { "type": "Point", "coordinates": [ 280439.5, 4159160.5 ] } },
{ "type": "Feature", "properties": { "id": "rva-tree:104089", "name": "Ailanthus altissima", "kind": "tree", "species": "Ailanthus altissima", "source": "city_inventory", "tree_height": 8.0, "crown_radius": 2.5, "height_source": "estimated" }, "geometry": { "type": "Point", "coordinates": [ 280447.51, 4159169.6 ] } },
{ "type": "Feature", "properties": { "id": "lidar-tree:280426:4159182", "name": null, "kind": "tree", "species": null, "source": "lidar2025", "tree_height": 23.9, "crown_radius": 6.0, "height_source": "lidar2025" }, "geometry": { "type": "Point", "coordinates": [ 280425.5, 4159181.5 ] } },
{ "type": "Feature", "properties": { "id": "rva-tree:104170", "name": "Quercus palustris", "kind": "tree", "species": "Quercus palustris", "source": "city_inventory", "tree_height": 19.4, "crown_radius": 5.8, "height_source": "lidar2025" }, "geometry": { "type": "Point", "coordinates": [ 280442.04, 4159184.92 ] } },
{ "type": "Feature", "properties": { "id": "lidar-tree:280414:4159188", "name": null, "kind": "tree", "species": null, "source": "lidar2025", "tree_height": 25.4, "crown_radius": 6.0, "height_source": "lidar2025" }, "geometry": { "type": "Point", "coordinates": [ 280413.5, 4159187.5 ] } },
{ "type": "Feature", "properties": { "id": "lidar-tree:280432:4159192", "name": null, "kind": "tree", "species": null, "source": "lidar2025", "tree_height": 19.8, "crown_radius": 6.0, "height_source": "lidar2025" }, "geometry": { "type": "Point", "coordinates": [ 280432.5, 4159192.5 ] } },
{ "type": "Feature", "properties": { "id": "lidar-tree:280420:4159200", "name": null, "kind": "tree", "species": null, "source": "lidar2025", "tree_height": 17.0, "crown_radius": 4.8, "height_source": "lidar2025" }, "geometry": { "type": "Point", "coordinates": [ 280419.5, 4159200.5 ] } },
{ "type": "Feature", "properties": { "id": "lidar-tree:280428:4159206", "name": null, "kind": "tree", "species": null, "source": "lidar2025", "tree_height": 5.0, "crown_radius": 4.2, "height_source": "lidar2025" }, "geometry": { "type": "Point", "coordinates": [ 280428.5, 4159205.5 ] } },
{ "type": "Feature", "properties": { "id": "rva-tree:104167", "name": "Acer saccharum", "kind": "tree", "species": "Acer saccharum", "source": "city_inventory", "tree_height": 9.6, "crown_radius": 4.8, "height_source": "lidar2025" }, "geometry": { "type": "Point", "coordinates": [ 280445.99, 4159222.81 ] } },
{ "type": "Feature", "properties": { "id": "rva-tree:104164", "name": "Acer campestre", "kind": "tree", "species": "Acer campestre", "source": "city_inventory", "tree_height": 7.2, "crown_radius": 3.9, "height_source": "lidar2025" }, "geometry": { "type": "Point", "coordinates": [ 280417.9, 4159236.38 ] } },
{ "type": "Feature", "properties": { "id": "lidar-tree:280338:4159194", "name": null, "kind": "tree", "species": null, "source": "lidar2025", "tree_height": 13.3, "crown_radius": 4.5, "height_source": "lidar2025" }, "geometry": { "type": "Point", "coordinates": [ 280338.5, 4159193.5 ] } },
{ "type": "Feature", "properties": { "id": "lidar-tree:280294:4159194", "name": null, "kind": "tree", "species": null, "source": "lidar2025", "tree_height": 11.3, "crown_radius": 1.9, "height_source": "lidar2025" }, "geometry": { "type": "Point", "coordinates": [ 280294.5, 4159194.5 ] } },
{ "type": "Feature", "properties": { "id": "lidar-tree:280316:4159196", "name": null, "kind": "tree", "species": null, "source": "lidar2025", "tree_height": 17.5, "crown_radius": 6.0, "height_source": "lidar2025" }, "geometry": { "type": "Point", "coordinates": [ 280316.5, 4159195.5 ] } },
{ "type": "Feature", "properties": { "id": "lidar-tree:280318:4159226", "name": null, "kind": "tree", "species": null, "source": "lidar2025", "tree_height": 17.1, "crown_radius": 5.9, "height_source": "lidar2025" }, "geometry": { "type": "Point", "coordinates": [ 280318.5, 4159225.5 ] } },
{ "type": "Feature", "properties": { "id": "lidar-tree:280336:4159226", "name": null, "kind": "tree", "species": null, "source": "lidar2025", "tree_height": 16.2, "crown_radius": 6.0, "height_source": "lidar2025" }, "geometry": { "type": "Point", "coordinates": [ 280335.5, 4159226.5 ] } },
{ "type": "Feature", "properties": { "id": "lidar-tree:280294:4159232", "name": null, "kind": "tree", "species": null, "source": "lidar2025", "tree_height": 17.8, "crown_radius": 4.7, "height_source": "lidar2025" }, "geometry": { "type": "Point", "coordinates": [ 280294.5, 4159231.5 ] } },
{ "type": "Feature", "properties": { "id": "lidar-tree:280324:4159234", "name": null, "kind": "tree", "species": null, "source": "lidar2025", "tree_height": 14.6, "crown_radius": 5.9, "height_source": "lidar2025" }, "geometry": { "type": "Point", "coordinates": [ 280323.5, 4159233.5 ] } },
{ "type": "Feature", "properties": { "id": "lidar-tree:280306:4159242", "name": null, "kind": "tree", "species": null, "source": "lidar2025", "tree_height": 16.0, "crown_radius": 6.0, "height_source": "lidar2025" }, "geometry": { "type": "Point", "coordinates": [ 280306.5, 4159242.5 ] } },
{ "type": "Feature", "properties": { "id": "lidar-tree:280294:4159244", "name": null, "kind": "tree", "species": null, "source": "lidar2025", "tree_height": 15.0, "crown_radius": 3.1, "height_source": "lidar2025" }, "geometry": { "type": "Point", "coordinates": [ 280294.5, 4159243.5 ] } },
{ "type": "Feature", "properties": { "id": "lidar-tree:280336:4159244", "name": null, "kind": "tree", "species": null, "source": "lidar2025", "tree_height": 22.7, "crown_radius": 6.0, "height_source": "lidar2025" }, "geometry": { "type": "Point", "coordinates": [ 280335.5, 4159244.5 ] } },
{ "type": "Feature", "properties": { "id": "lidar-tree:280356:4159232", "name": null, "kind": "tree", "species": null, "source": "lidar2025", "tree_height": 21.4, "crown_radius": 6.0, "height_source": "lidar2025" }, "geometry": { "type": "Point", "coordinates": [ 280355.5, 4159231.5 ] } },
{ "type": "Feature", "properties": { "id": "lidar-tree:280368:4159238", "name": null, "kind": "tree", "species": null, "source": "lidar2025", "tree_height": 9.5, "crown_radius": 3.3, "height_source": "lidar2025" }, "geometry": { "type": "Point", "coordinates": [ 280368.5, 4159237.5 ] } },
{ "type": "Feature", "properties": { "id": "rva-tree:104162", "name": "Acer campestre", "kind": "tree", "species": "Acer campestre", "source": "city_inventory", "tree_height": 8.0, "crown_radius": 2.5, "height_source": "estimated" }, "geometry": { "type": "Point", "coordinates": [ 280395.66, 4159246.67 ] } },
{ "type": "Feature", "properties": { "id": "rva-tree:104123", "name": "Ailanthus altissima", "kind": "tree", "species": "Ailanthus altissima", "source": "city_inventory", "tree_height": 11.5, "crown_radius": 3.9, "height_source": "lidar2025" }, "geometry": { "type": "Point", "coordinates": [ 280441.35, 4159237.23 ] } },
{ "type": "Feature", "properties": { "id": "rva-tree:104124", "name": "Acer campestre", "kind": "tree", "species": "Acer campestre", "source": "city_inventory", "tree_height": 8.7, "crown_radius": 4.5, "height_source": "lidar2025" }, "geometry": { "type": "Point", "coordinates": [ 280431.35, 4159241.87 ] } },
{ "type": "Feature", "properties": { "id": "rva-tree:104163", "name": "Acer campestre", "kind": "tree", "species": "Acer campestre", "source": "city_inventory", "tree_height": 8.0, "crown_radius": 2.5, "height_source": "estimated" }, "geometry": { "type": "Point", "coordinates": [ 280406.03, 4159242.02 ] } },
{ "type": "Feature", "properties": { "id": "rva-tree:104125", "name": "Zelkova serrata", "kind": "tree", "species": "Zelkova serrata", "source": "city_inventory", "tree_height": 8.0, "crown_radius": 2.5, "height_source": "estimated" }, "geometry": { "type": "Point", "coordinates": [ 280419.33, 4159247.68 ] } }
]
}
