{
"type": "FeatureCollection",
"name": "water",
"crs": { "type": "name", "properties": { "name": "urn:ogc:def:crs:EPSG::32618" } },
"xy_coordinate_resolution": 0.01,
"features": [
{ "type": "Feature", "properties": { "id": "osm:way/1215598695", "name": null, "kind": "canal", "water_z": 28.6, "source": null }, "geometry": { "type": "Polygon", "coordinates": [ [ [ 280479.21, 4157258.0 ], [ 280479.79, 4157255.23 ], [ 280476.35, 4157250.0 ], [ 280471.57, 4157250.0 ], [ 280476.45, 4157257.43 ], [ 280479.21, 4157258.0 ] ] ] } },
{ "type": "Feature", "properties": { "id": "osm:way/1212547157", "name": "Kanawha Canal", "kind": "canal", "water_z": 25.49, "source": null }, "geometry": { "type": "Polygon", "coordinates": [ [ [ 280366.98, 4157260.69 ], [ 280372.3, 4157270.59 ], [ 280376.57, 4157272.6 ], [ 280380.02, 4157270.95 ], [ 280381.3, 4157267.34 ], [ 280376.26, 4157257.85 ], [ 280373.65, 4157255.72 ], [ 280370.28, 4157255.73 ], [ 280366.98, 4157260.69 ] ] ] } },
{ "type": "Feature", "properties": { "id": "osm:way/1212547156", "name": "Kanawha Canal", "kind": "canal", "water_z": 26.41, "source": null }, "geometry": { "type": "Polygon", "coordinates": [ [ [ 280371.78, 4157265.48 ], [ 280371.46, 4157268.83 ], [ 280381.0, 4157285.02 ], [ 280386.24, 4157286.88 ], [ 280389.3, 4157284.59 ], [ 280389.85, 4157280.8 ], [ 280380.59, 4157265.02 ], [ 280377.51, 4157262.75 ], [ 280374.15, 4157263.09 ], [ 280371.78, 4157265.48 ] ] ] } },
{ "type": "Feature", "properties": { "id": "osm:way/1212547158", "name": "Kanawha Canal", "kind": "canal", "water_z": 29.39, "source": null }, "geometry": { "type": "Polygon", "coordinates": [ [ [ 280380.02, 4157282.34 ], [ 280385.8, 4157292.79 ], [ 280390.08, 4157294.75 ], [ 280393.52, 4157293.07 ], [ 280394.76, 4157289.45 ], [ 280389.26, 4157279.41 ], [ 280386.63, 4157277.3 ], [ 280383.26, 4157277.35 ], [ 280380.02, 4157282.34 ] ] ] } },
{ "type": "Feature", "properties": { "id": "osm:way/302776860", "name": null, "kind": "canal", "water_z": 25.49, "source": null }, "geometry": { "type": "Polygon", "coordinates": [ [ [ 280288.13, 4157325.94 ], [ 280323.25, 4157305.19 ], [ 280366.44, 4157274.67 ], [ 280387.12, 4157250.0 ], [ 280374.15, 4157250.0 ], [ 280359.8, 4157267.14 ], [ 280317.65, 4157296.91 ], [ 280283.24, 4157317.21 ], [ 280265.9, 4157325.42 ], [ 280250.0, 4157330.82 ], [ 280250.0, 4157341.34 ], [ 280269.37, 4157334.8 ], [ 280288.13, 4157325.94 ] ] ] } },
{ "type": "Feature", "properties": { "id": "osm:way/1198306685", "name": null, "kind": "canal", "water_z": 37.25, "source": null }, "geometry": { "type": "Polygon", "coordinates": [ [ [ 280491.98, 4157293.33 ], [ 280480.62, 4157263.1 ], [ 280480.04, 4157255.79 ], [ 280477.4, 4157254.46 ], [ 280476.13, 4157256.08 ], [ 280476.68, 4157263.87 ], [ 280488.15, 4157294.52 ], [ 280491.59, 4157310.83 ], [ 280499.69, 4157319.74 ], [ 280500.0, 4157320.38 ], [ 280500.0, 4157314.27 ], [ 280495.34, 4157309.28 ], [ 280491.98, 4157293.33 ] ] ] } },
{ "type": "Feature", "properties": { "id": "osm:way/303523717", "name": "Kanawha Canal", "kind": "canal", "water_z": 25.26, "source": null }, "geometry": { "type": "Polygon", "coordinates": [ [ [ 280373.51, 4157317.22 ], [ 280393.01, 4157302.78 ], [ 280394.65, 4157291.57 ], [ 280406.04, 4157276.07 ], [ 280409.18, 4157268.58 ], [ 280408.81, 4157250.0 ], [ 280398.93, 4157250.0 ], [ 280399.36, 4157266.21 ], [ 280385.27, 4157287.59 ], [ 280384.22, 4157297.07 ], [ 280368.41, 4157308.59 ], [ 280285.54, 4157347.39 ], [ 280250.0, 4157362.26 ], [ 280250.0, 4157373.09 ], [ 280289.69, 4157356.49 ], [ 280373.51, 4157317.22 ] ] ] } }
]
}
