{
"type": "FeatureCollection",
"name": "roads",
"crs": { "type": "name", "properties": { "name": "urn:ogc:def:crs:EPSG::32618" } },
"xy_coordinate_resolution": 0.01,
"features": [
{ "type": "Feature", "properties": { "id": "osm:way/6039933", "name": "West 30th Street", "highway": "residential", "lanes": 1.0, "width": 7.0, "oneway": true, "surface": "asphalt", "footway": null, "sidewalk_left": null, "sidewalk_right": null, "generated_sidewalk": true, "bus_lanes": null, "bus_lane_side": null, "bus_only": false, "sidewalk": false, "bridge": false, "ramp": false, "tunnel": false, "layer": 0, "deck": null }, "geometry": { "type": "LineString", "coordinates": [ [ 282195.67, 4155173.32 ], [ 282198.28, 4155167.54 ], [ 282219.1, 4155121.47 ], [ 282242.18, 4155070.61 ], [ 282250.0, 4155054.04 ] ] } },
{ "type": "Feature", "properties": { "id": "osm:way/561710147", "name": "McDonough Street", "highway": "residential", "lanes": null, "width": 7.0, "oneway": false, "surface": null, "footway": null, "sidewalk_left": null, "sidewalk_right": false, "generated_sidewalk": true, "bus_lanes": null, "bus_lane_side": null, "bus_only": false, "sidewalk": false, "bridge": false, "ramp": false, "tunnel": false, "layer": 0, "deck": null }, "geometry": { "type": "LineString", "coordinates": [ [ 282250.0, 4155074.19 ], [ 282248.88, 4155073.68 ], [ 282242.18, 4155070.61 ], [ 282235.45, 4155067.47 ], [ 282190.92, 4155046.71 ], [ 282145.71, 4155025.63 ], [ 282140.27, 4155023.1 ], [ 282133.3, 4155019.94 ], [ 282089.39, 4155000.0 ] ] } },
{ "type": "Feature", "properties": { "id": "osm:way/1201232207", "name": null, "highway": "footway", "lanes": null, "width": 2.0, "oneway": false, "surface": null, "footway": "sidewalk", "sidewalk_left": false, "sidewalk_right": false, "generated_sidewalk": false, "bus_lanes": null, "bus_lane_side": null, "bus_only": false, "sidewalk": false, "bridge": false, "ramp": false, "tunnel": false, "layer": 0, "deck": null }, "geometry": { "type": "LineString", "coordinates": [ [ 282088.52, 4155115.28 ], [ 282107.42, 4155073.59 ] ] } },
{ "type": "Feature", "properties": { "id": "osm:way/1425920062", "name": null, "highway": "footway", "lanes": null, "width": 2.0, "oneway": false, "surface": null, "footway": "sidewalk", "sidewalk_left": false, "sidewalk_right": false, "generated_sidewalk": false, "bus_lanes": null, "bus_lane_side": null, "bus_only": false, "sidewalk": false, "bridge": false, "ramp": false, "tunnel": false, "layer": 0, "deck": null }, "geometry": { "type": "LineString", "coordinates": [ [ 282233.58, 4155071.09 ], [ 282230.01, 4155077.5 ], [ 282212.21, 4155118.38 ] ] } },
{ "type": "Feature", "properties": { "id": "osm:way/1201232205", "name": null, "highway": "footway", "lanes": null, "width": 2.0, "oneway": false, "surface": null, "footway": "crossing", "sidewalk_left": false, "sidewalk_right": false, "generated_sidewalk": false, "bus_lanes": null, "bus_lane_side": null, "bus_only": false, "sidewalk": false, "bridge": false, "ramp": false, "tunnel": false, "layer": 0, "deck": null }, "geometry": { "type": "LineString", "coordinates": [ [ 282100.46, 4155122.16 ], [ 282095.54, 4155119.76 ], [ 282089.38, 4155116.73 ] ] } },
{ "type": "Feature", "properties": { "id": "osm:way/1425920078", "name": null, "highway": "footway", "lanes": null, "width": 2.0, "oneway": false, "surface": null, "footway": null, "sidewalk_left": false, "sidewalk_right": false, "generated_sidewalk": false, "bus_lanes": null, "bus_lane_side": null, "bus_only": false, "sidewalk": false, "bridge": false, "ramp": false, "tunnel": false, "layer": 0, "deck": null }, "geometry": { "type": "LineString", "coordinates": [ [ 282247.45, 4155077.47 ], [ 282247.56, 4155079.41 ], [ 282226.78, 4155125.11 ], [ 282206.5, 4155169.72 ] ] } },
{ "type": "Feature", "properties": { "id": "osm:way/1201232199", "name": null, "highway": "footway", "lanes": null, "width": 2.0, "oneway": false, "surface": null, "footway": "crossing", "sidewalk_left": false, "sidewalk_right": false, "generated_sidewalk": false, "bus_lanes": null, "bus_lane_side": null, "bus_only": false, "sidewalk": false, "bridge": false, "ramp": false, "tunnel": false, "layer": 0, "deck": null }, "geometry": { "type": "LineString", "coordinates": [ [ 282079.8, 4155137.03 ], [ 282086.42, 4155140.09 ], [ 282092.3, 4155142.8 ] ] } },
{ "type": "Feature", "properties": { "id": "osm:way/1201232203", "name": null, "highway": "footway", "lanes": null, "width": 2.0, "oneway": false, "surface": null, "footway": "sidewalk", "sidewalk_left": false, "sidewalk_right": false, "generated_sidewalk": false, "bus_lanes": null, "bus_lane_side": null, "bus_only": false, "sidewalk": false, "bridge": false, "ramp": false, "tunnel": false, "layer": 0, "deck": null }, "geometry": { "type": "LineString", "coordinates": [ [ 282192.23, 4155164.83 ], [ 282191.36, 4155162.78 ], [ 282102.72, 4155121.81 ], [ 282100.46, 4155122.16 ] ] } },
{ "type": "Feature", "properties": { "id": "osm:way/1201232182", "name": null, "highway": "footway", "lanes": null, "width": 2.0, "oneway": false, "surface": null, "footway": "sidewalk", "sidewalk_left": false, "sidewalk_right": false, "generated_sidewalk": false, "bus_lanes": null, "bus_lane_side": null, "bus_only": false, "sidewalk": false, "bridge": false, "ramp": false, "tunnel": false, "layer": 0, "deck": null }, "geometry": { "type": "LineString", "coordinates": [ [ 282077.45, 4155137.69 ], [ 282058.73, 4155178.61 ] ] } },
{ "type": "Feature", "properties": { "id": "osm:way/1201232200", "name": null, "highway": "footway", "lanes": null, "width": 2.0, "oneway": false, "surface": null, "footway": "sidewalk", "sidewalk_left": false, "sidewalk_right": false, "generated_sidewalk": false, "bus_lanes": null, "bus_lane_side": null, "bus_only": false, "sidewalk": false, "bridge": false, "ramp": false, "tunnel": false, "layer": 0, "deck": null }, "geometry": { "type": "LineString", "coordinates": [ [ 282092.3, 4155142.8 ], [ 282093.9, 4155145.03 ], [ 282180.26, 4155185.08 ], [ 282182.93, 4155184.09 ] ] } },
{ "type": "Feature", "properties": { "id": "osm:way/323697219", "name": null, "highway": "service", "lanes": null, "width": 4.5, "oneway": false, "surface": null, "footway": null, "sidewalk_left": false, "sidewalk_right": false, "generated_sidewalk": false, "bus_lanes": null, "bus_lane_side": null, "bus_only": false, "sidewalk": false, "bridge": false, "ramp": false, "tunnel": false, "layer": 0, "deck": null }, "geometry": { "type": "LineString", "coordinates": [ [ 282000.0, 4155021.1 ], [ 282005.99, 4155023.83 ], [ 282013.19, 4155027.12 ], [ 282020.88, 4155030.72 ], [ 282108.34, 4155071.66 ], [ 282115.85, 4155075.18 ], [ 282123.18, 4155078.46 ], [ 282212.21, 4155118.38 ], [ 282219.1, 4155121.47 ] ] } },
{ "type": "Feature", "properties": { "id": "osm:way/1201232206", "name": null, "highway": "footway", "lanes": null, "width": 2.0, "oneway": false, "surface": null, "footway": "sidewalk", "sidewalk_left": false, "sidewalk_right": false, "generated_sidewalk": false, "bus_lanes": null, "bus_lane_side": null, "bus_only": false, "sidewalk": false, "bridge": false, "ramp": false, "tunnel": false, "layer": 0, "deck": null }, "geometry": { "type": "LineString", "coordinates": [ [ 282000.0, 4155074.83 ], [ 282000.52, 4155074.76 ], [ 282088.52, 4155115.28 ], [ 282089.38, 4155116.73 ] ] } },
{ "type": "Feature", "properties": { "id": "osm:way/692873529", "name": "Semmes Avenue", "highway": "primary", "lanes": 2.0, "width": 11.0, "oneway": true, "surface": "asphalt", "footway": null, "sidewalk_left": null, "sidewalk_right": false, "generated_sidewalk": true, "bus_lanes": null, "bus_lane_side": null, "bus_only": false, "sidewalk": false, "bridge": false, "ramp": false, "tunnel": false, "layer": 0, "deck": null }, "geometry": { "type": "LineString", "coordinates": [ [ 282000.0, 4155083.16 ], [ 282092.72, 4155125.95 ], [ 282195.67, 4155173.32 ], [ 282250.0, 4155198.49 ] ] } },
{ "type": "Feature", "properties": { "id": "osm:way/692873530", "name": "Semmes Avenue", "highway": "primary", "lanes": 2.0, "width": 11.0, "oneway": true, "surface": "asphalt", "footway": null, "sidewalk_left": null, "sidewalk_right": false, "generated_sidewalk": true, "bus_lanes": null, "bus_lane_side": null, "bus_only": false, "sidewalk": false, "bridge": false, "ramp": false, "tunnel": false, "layer": 0, "deck": null }, "geometry": { "type": "LineString", "coordinates": [ [ 282250.0, 4155207.85 ], [ 282192.04, 4155181.09 ], [ 282089.33, 4155133.74 ], [ 282000.0, 4155092.33 ] ] } },
{ "type": "Feature", "properties": { "id": "osm:way/323697216", "name": null, "highway": "service", "lanes": null, "width": 4.5, "oneway": false, "surface": null, "footway": null, "sidewalk_left": false, "sidewalk_right": false, "generated_sidewalk": false, "bus_lanes": null, "bus_lane_side": null, "bus_only": false, "sidewalk": false, "bridge": false, "ramp": false, "tunnel": false, "layer": 0, "deck": null }, "geometry": { "type": "LineString", "coordinates": [ [ 282066.0, 4155184.52 ], [ 282057.74, 4155180.77 ], [ 282014.63, 4155161.23 ], [ 282000.0, 4155154.44 ] ] } },
{ "type": "Feature", "properties": { "id": "osm:way/1201232177", "name": null, "highway": "footway", "lanes": null, "width": 2.0, "oneway": false, "surface": null, "footway": "sidewalk", "sidewalk_left": false, "sidewalk_right": false, "generated_sidewalk": false, "bus_lanes": null, "bus_lane_side": null, "bus_only": false, "sidewalk": false, "bridge": false, "ramp": false, "tunnel": false, "layer": 0, "deck": null }, "geometry": { "type": "LineString", "coordinates": [ [ 282000.0, 4155101.71 ], [ 282077.45, 4155137.69 ], [ 282079.8, 4155137.03 ] ] } },
{ "type": "Feature", "properties": { "id": "osm:way/1201232183", "name": null, "highway": "footway", "lanes": null, "width": 2.0, "oneway": false, "surface": null, "footway": "crossing", "sidewalk_left": false, "sidewalk_right": false, "generated_sidewalk": false, "bus_lanes": null, "bus_lane_side": null, "bus_only": false, "sidewalk": false, "bridge": false, "ramp": false, "tunnel": false, "layer": 0, "deck": null }, "geometry": { "type": "LineString", "coordinates": [ [ 282058.73, 4155178.61 ], [ 282057.74, 4155180.77 ], [ 282056.99, 4155182.42 ] ] } },
{ "type": "Feature", "properties": { "id": "osm:way/1201232178", "name": null, "highway": "footway", "lanes": null, "width": 2.0, "oneway": false, "surface": null, "footway": "sidewalk", "sidewalk_left": false, "sidewalk_right": false, "generated_sidewalk": false, "bus_lanes": null, "bus_lane_side": null, "bus_only": false, "sidewalk": false, "bridge": false, "ramp": false, "tunnel": false, "layer": 0, "deck": null }, "geometry": { "type": "LineString", "coordinates": [ [ 282056.99, 4155182.42 ], [ 282035.88, 4155228.93 ] ] } },
{ "type": "Feature", "properties": { "id": "osm:way/560208489", "name": "West 31st Street", "highway": "residential", "lanes": 2.0, "width": 7.0, "oneway": false, "surface": "asphalt", "footway": null, "sidewalk_left": null, "sidewalk_right": false, "generated_sidewalk": true, "bus_lanes": null, "bus_lane_side": null, "bus_only": false, "sidewalk": false, "bridge": false, "ramp": false, "tunnel": false, "layer": 0, "deck": null }, "geometry": { "type": "LineString", "coordinates": [ [ 282035.53, 4155250.0 ], [ 282038.92, 4155242.61 ], [ 282042.0, 4155235.87 ], [ 282044.09, 4155231.41 ], [ 282066.0, 4155184.52 ], [ 282086.42, 4155140.09 ], [ 282089.33, 4155133.74 ], [ 282092.72, 4155125.95 ], [ 282095.54, 4155119.76 ], [ 282115.85, 4155075.18 ], [ 282137.63, 4155028.62 ], [ 282140.27, 4155023.1 ], [ 282142.45, 4155018.36 ], [ 282150.91, 4155000.0 ] ] } },
{ "type": "Feature", "properties": { "id": "osm:way/6033386", "name": "Springhill Avenue", "highway": "residential", "lanes": null, "width": 7.0, "oneway": false, "surface": null, "footway": null, "sidewalk_left": false, "sidewalk_right": false, "generated_sidewalk": true, "bus_lanes": null, "bus_lane_side": null, "bus_only": false, "sidewalk": false, "bridge": false, "ramp": false, "tunnel": false, "layer": 0, "deck": null }, "geometry": { "type": "LineString", "coordinates": [ [ 282072.47, 4155250.0 ], [ 282049.23, 4155239.23 ], [ 282042.0, 4155235.87 ], [ 282034.33, 4155232.53 ], [ 282000.0, 4155217.59 ] ] } },
{ "type": "Feature", "properties": { "id": "osm:way/1201232204", "name": null, "highway": "footway", "lanes": null, "width": 2.0, "oneway": false, "surface": null, "footway": "crossing", "sidewalk_left": false, "sidewalk_right": false, "generated_sidewalk": false, "bus_lanes": null, "bus_lane_side": null, "bus_only": false, "sidewalk": false, "bridge": false, "ramp": false, "tunnel": false, "layer": 0, "deck": null }, "geometry": { "type": "LineString", "coordinates": [ [ 282192.23, 4155164.83 ], [ 282198.28, 4155167.54 ], [ 282202.77, 4155169.56 ] ] } },
{ "type": "Feature", "properties": { "id": "osm:way/1201232201", "name": null, "highway": "footway", "lanes": null, "width": 2.0, "oneway": false, "surface": null, "footway": "crossing", "sidewalk_left": false, "sidewalk_right": false, "generated_sidewalk": false, "bus_lanes": null, "bus_lane_side": null, "bus_only": false, "sidewalk": false, "bridge": false, "ramp": false, "tunnel": false, "layer": 0, "deck": null }, "geometry": { "type": "LineString", "coordinates": [ [ 282182.93, 4155184.09 ], [ 282189.1, 4155187.43 ], [ 282193.21, 4155189.66 ] ] } },
{ "type": "Feature", "properties": { "id": "osm:way/1425920077", "name": null, "highway": "footway", "lanes": null, "width": 2.0, "oneway": false, "surface": null, "footway": null, "sidewalk_left": false, "sidewalk_right": false, "generated_sidewalk": false, "bus_lanes": null, "bus_lane_side": null, "bus_only": false, "sidewalk": false, "bridge": false, "ramp": false, "tunnel": false, "layer": 0, "deck": null }, "geometry": { "type": "LineString", "coordinates": [ [ 282250.0, 4155189.4 ], [ 282206.5, 4155169.72 ], [ 282205.13, 4155169.23 ], [ 282202.77, 4155169.56 ] ] } },
{ "type": "Feature", "properties": { "id": "osm:way/561894856", "name": null, "highway": "service", "lanes": null, "width": 4.5, "oneway": false, "surface": null, "footway": null, "sidewalk_left": false, "sidewalk_right": false, "generated_sidewalk": false, "bus_lanes": null, "bus_lane_side": null, "bus_only": false, "sidewalk": false, "bridge": false, "ramp": false, "tunnel": false, "layer": 0, "deck": null }, "geometry": { "type": "LineString", "coordinates": [ [ 282066.0, 4155184.52 ], [ 282092.55, 4155197.89 ], [ 282113.01, 4155207.55 ], [ 282157.02, 4155227.1 ] ] } },
{ "type": "Feature", "properties": { "id": "osm:way/1201232202", "name": null, "highway": "footway", "lanes": null, "width": 2.0, "oneway": false, "surface": null, "footway": "sidewalk", "sidewalk_left": false, "sidewalk_right": false, "generated_sidewalk": false, "bus_lanes": null, "bus_lane_side": null, "bus_only": false, "sidewalk": false, "bridge": false, "ramp": false, "tunnel": false, "layer": 0, "deck": null }, "geometry": { "type": "LineString", "coordinates": [ [ 282180.26, 4155185.08 ], [ 282150.33, 4155250.0 ] ] } },
{ "type": "Feature", "properties": { "id": "osm:way/1201232184", "name": null, "highway": "footway", "lanes": null, "width": 2.0, "oneway": false, "surface": null, "footway": "sidewalk", "sidewalk_left": false, "sidewalk_right": false, "generated_sidewalk": false, "bus_lanes": null, "bus_lane_side": null, "bus_only": false, "sidewalk": false, "bridge": false, "ramp": false, "tunnel": false, "layer": 0, "deck": null }, "geometry": { "type": "LineString", "coordinates": [ [ 282049.68, 4155233.1 ], [ 282051.8, 4155234.07 ], [ 282086.36, 4155250.0 ] ] } },
{ "type": "Feature", "properties": { "id": "osm:way/1209936553", "name": null, "highway": "footway", "lanes": null, "width": 2.0, "oneway": false, "surface": null, "footway": "sidewalk", "sidewalk_left": false, "sidewalk_right": false, "generated_sidewalk": false, "bus_lanes": null, "bus_lane_side": null, "bus_only": false, "sidewalk": false, "bridge": false, "ramp": false, "tunnel": false, "layer": 0, "deck": null }, "geometry": { "type": "LineString", "coordinates": [ [ 282250.0, 4155216.98 ], [ 282195.12, 4155191.84 ], [ 282193.21, 4155189.66 ] ] } },
{ "type": "Feature", "properties": { "id": "osm:way/323697242", "name": null, "highway": "service", "lanes": null, "width": 4.5, "oneway": false, "surface": null, "footway": null, "sidewalk_left": false, "sidewalk_right": false, "generated_sidewalk": false, "bus_lanes": null, "bus_lane_side": null, "bus_only": false, "sidewalk": false, "bridge": false, "ramp": false, "tunnel": false, "layer": 0, "deck": null }, "geometry": { "type": "LineString", "coordinates": [ [ 282219.1, 4155121.47 ], [ 282226.78, 4155125.11 ], [ 282250.0, 4155136.13 ] ] } },
{ "type": "Feature", "properties": { "id": "osm:way/1201232191", "name": null, "highway": "footway", "lanes": null, "width": 2.0, "oneway": false, "surface": null, "footway": "crossing", "sidewalk_left": false, "sidewalk_right": false, "generated_sidewalk": false, "bus_lanes": null, "bus_lane_side": null, "bus_only": false, "sidewalk": false, "bridge": false, "ramp": false, "tunnel": false, "layer": 0, "deck": null }, "geometry": { "type": "LineString", "coordinates": [ [ 282035.88, 4155228.93 ], [ 282044.09, 4155231.41 ], [ 282049.68, 4155233.1 ] ] } },
{ "type": "Feature", "properties": { "id": "osm:way/1201232194", "name": null, "highway": "footway", "lanes": null, "width": 2.0, "oneway": false, "surface": null, "footway": "crossing", "sidewalk_left": false, "sidewalk_right": false, "generated_sidewalk": false, "bus_lanes": null, "bus_lane_side": null, "bus_only": false, "sidewalk": false, "bridge": false, "ramp": false, "tunnel": false, "layer": 0, "deck": null }, "geometry": { "type": "LineString", "coordinates": [ [ 282031.58, 4155238.91 ], [ 282034.33, 4155232.53 ], [ 282035.88, 4155228.93 ] ] } },
{ "type": "Feature", "properties": { "id": "osm:way/1201232192", "name": null, "highway": "footway", "lanes": null, "width": 2.0, "oneway": false, "surface": null, "footway": "crossing", "sidewalk_left": false, "sidewalk_right": false, "generated_sidewalk": false, "bus_lanes": null, "bus_lane_side": null, "bus_only": false, "sidewalk": false, "bridge": false, "ramp": false, "tunnel": false, "layer": 0, "deck": null }, "geometry": { "type": "LineString", "coordinates": [ [ 282045.82, 4155246.08 ], [ 282049.23, 4155239.23 ], [ 282051.8, 4155234.07 ] ] } },
{ "type": "Feature", "properties": { "id": "osm:way/1201232193", "name": null, "highway": "footway", "lanes": null, "width": 2.0, "oneway": false, "surface": null, "footway": "crossing", "sidewalk_left": false, "sidewalk_right": false, "generated_sidewalk": false, "bus_lanes": null, "bus_lane_side": null, "bus_only": false, "sidewalk": false, "bridge": false, "ramp": false, "tunnel": false, "layer": 0, "deck": null }, "geometry": { "type": "LineString", "coordinates": [ [ 282045.82, 4155246.08 ], [ 282038.92, 4155242.61 ], [ 282031.58, 4155238.91 ] ] } },
{ "type": "Feature", "properties": { "id": "osm:way/1201232195", "name": null, "highway": "footway", "lanes": null, "width": 2.0, "oneway": false, "surface": null, "footway": "sidewalk", "sidewalk_left": false, "sidewalk_right": false, "generated_sidewalk": false, "bus_lanes": null, "bus_lane_side": null, "bus_only": false, "sidewalk": false, "bridge": false, "ramp": false, "tunnel": false, "layer": 0, "deck": null }, "geometry": { "type": "LineString", "coordinates": [ [ 282000.0, 4155224.59 ], [ 282031.58, 4155238.91 ], [ 282026.37, 4155250.0 ] ] } },
{ "type": "Feature", "properties": { "id": "osm:way/323697214", "name": null, "highway": "service", "lanes": null, "width": 4.5, "oneway": false, "surface": null, "footway": null, "sidewalk_left": false, "sidewalk_right": false, "generated_sidewalk": false, "bus_lanes": null, "bus_lane_side": null, "bus_only": false, "sidewalk": false, "bridge": false, "ramp": false, "tunnel": false, "layer": 0, "deck": null }, "geometry": { "type": "LineString", "coordinates": [ [ 282000.0, 4155194.0 ], [ 282014.63, 4155161.23 ] ] } },
{ "type": "Feature", "properties": { "id": "osm:way/1201232189", "name": null, "highway": "footway", "lanes": null, "width": 2.0, "oneway": false, "surface": null, "footway": "sidewalk", "sidewalk_left": false, "sidewalk_right": false, "generated_sidewalk": false, "bus_lanes": null, "bus_lane_side": null, "bus_only": false, "sidewalk": false, "bridge": false, "ramp": false, "tunnel": false, "layer": 0, "deck": null }, "geometry": { "type": "LineString", "coordinates": [ [ 282054.33, 4155250.0 ], [ 282045.82, 4155246.08 ], [ 282044.01, 4155250.0 ] ] } },
{ "type": "Feature", "properties": { "id": "osm:way/744938378", "name": "West 32nd Street", "highway": "residential", "lanes": null, "width": 7.0, "oneway": false, "surface": null, "footway": null, "sidewalk_left": null, "sidewalk_right": null, "generated_sidewalk": true, "bus_lanes": null, "bus_lane_side": null, "bus_only": false, "sidewalk": false, "bridge": false, "ramp": false, "tunnel": false, "layer": 0, "deck": null }, "geometry": { "type": "LineString", "coordinates": [ [ 282026.21, 4155000.0 ], [ 282013.19, 4155027.12 ], [ 282000.0, 4155057.39 ] ] } },
{ "type": "Feature", "properties": { "id": "osm:way/561373262", "name": "West 30th Street", "highway": "residential", "lanes": null, "width": 7.0, "oneway": false, "surface": null, "footway": null, "sidewalk_left": null, "sidewalk_right": null, "generated_sidewalk": true, "bus_lanes": null, "bus_lane_side": null, "bus_only": false, "sidewalk": false, "bridge": false, "ramp": false, "tunnel": false, "layer": 0, "deck": null }, "geometry": { "type": "LineString", "coordinates": [ [ 282160.07, 4155250.0 ], [ 282189.1, 4155187.43 ], [ 282192.04, 4155181.09 ], [ 282195.67, 4155173.32 ] ] } }
]
}
