{
"type": "FeatureCollection",
"name": "roads",
"crs": { "type": "name", "properties": { "name": "urn:ogc:def:crs:EPSG::32618" } },
"xy_coordinate_resolution": 0.01,
"features": [
{ "type": "Feature", "properties": { "id": "osm:way/196314670", "name": null, "highway": "footway", "lanes": null, "width": 2.0, "oneway": false, "surface": "gravel", "footway": null, "sidewalk_left": false, "sidewalk_right": false, "generated_sidewalk": false, "bus_lanes": null, "bus_lane_side": null, "bus_only": false, "sidewalk": false, "bridge": false, "ramp": false, "tunnel": false, "layer": 0, "deck": null }, "geometry": { "type": "LineString", "coordinates": [ [ 280750.0, 4158046.87 ], [ 280749.27, 4158045.27 ], [ 280743.94, 4158035.37 ], [ 280743.59, 4158031.1 ], [ 280744.9, 4158027.71 ], [ 280745.63, 4158025.83 ], [ 280750.0, 4158013.12 ] ] } },
{ "type": "Feature", "properties": { "id": "osm:way/563819218", "name": null, "highway": "service", "lanes": null, "width": 4.5, "oneway": false, "surface": "concrete", "footway": null, "sidewalk_left": false, "sidewalk_right": false, "generated_sidewalk": false, "bus_lanes": null, "bus_lane_side": null, "bus_only": false, "sidewalk": false, "bridge": false, "ramp": false, "tunnel": false, "layer": 0, "deck": null }, "geometry": { "type": "LineString", "coordinates": [ [ 280676.93, 4158003.91 ], [ 280675.17, 4158000.0 ] ] } },
{ "type": "Feature", "properties": { "id": "osm:way/1215598276", "name": "Park Drive", "highway": "primary", "lanes": 2.0, "width": 11.0, "oneway": false, "surface": "asphalt", "footway": null, "sidewalk_left": null, "sidewalk_right": null, "generated_sidewalk": true, "bus_lanes": null, "bus_lane_side": null, "bus_only": false, "sidewalk": false, "bridge": false, "ramp": false, "tunnel": false, "layer": 0, "deck": null }, "geometry": { "type": "LineString", "coordinates": [ [ 280680.55, 4158002.19 ], [ 280685.17, 4158000.0 ] ] } },
{ "type": "Feature", "properties": { "id": "osm:way/563827041", "name": null, "highway": "footway", "lanes": null, "width": 2.0, "oneway": false, "surface": "asphalt", "footway": "crossing", "sidewalk_left": false, "sidewalk_right": false, "generated_sidewalk": false, "bus_lanes": null, "bus_lane_side": null, "bus_only": false, "sidewalk": false, "bridge": false, "ramp": false, "tunnel": false, "layer": 0, "deck": null }, "geometry": { "type": "LineString", "coordinates": [ [ 280670.06, 4158000.0 ], [ 280672.76, 4158005.9 ], [ 280675.2, 4158011.25 ], [ 280675.81, 4158012.59 ] ] } },
{ "type": "Feature", "properties": { "id": "osm:way/563827042", "name": null, "highway": "footway", "lanes": null, "width": 2.0, "oneway": false, "surface": "asphalt", "footway": "crossing", "sidewalk_left": false, "sidewalk_right": false, "generated_sidewalk": false, "bus_lanes": null, "bus_lane_side": null, "bus_only": false, "sidewalk": false, "bridge": false, "ramp": false, "tunnel": false, "layer": 0, "deck": null }, "geometry": { "type": "LineString", "coordinates": [ [ 280703.57, 4158000.0 ], [ 280699.41, 4158001.79 ], [ 280683.54, 4158008.95 ], [ 280677.67, 4158011.7 ], [ 280675.81, 4158012.59 ] ] } },
{ "type": "Feature", "properties": { "id": "osm:way/1215887878", "name": null, "highway": "footway", "lanes": null, "width": 2.0, "oneway": false, "surface": "ground", "footway": null, "sidewalk_left": false, "sidewalk_right": false, "generated_sidewalk": false, "bus_lanes": null, "bus_lane_side": null, "bus_only": false, "sidewalk": false, "bridge": false, "ramp": false, "tunnel": false, "layer": 0, "deck": null }, "geometry": { "type": "LineString", "coordinates": [ [ 280744.9, 4158027.71 ], [ 280713.07, 4158011.84 ] ] } },
{ "type": "Feature", "properties": { "id": "osm:way/1361061361", "name": "Blanton Avenue", "highway": "primary", "lanes": 1.0, "width": 11.0, "oneway": true, "surface": "asphalt", "footway": null, "sidewalk_left": true, "sidewalk_right": false, "generated_sidewalk": true, "bus_lanes": null, "bus_lane_side": null, "bus_only": false, "sidewalk": true, "bridge": false, "ramp": false, "tunnel": false, "layer": 0, "deck": null }, "geometry": { "type": "LineString", "coordinates": [ [ 280701.53, 4158049.61 ], [ 280683.54, 4158008.95 ], [ 280680.55, 4158002.19 ] ] } },
{ "type": "Feature", "properties": { "id": "osm:way/563827035", "name": "Blanton Avenue", "highway": "footway", "lanes": null, "width": 2.0, "oneway": false, "surface": "concrete", "footway": "sidewalk", "sidewalk_left": false, "sidewalk_right": false, "generated_sidewalk": false, "bus_lanes": null, "bus_lane_side": null, "bus_only": false, "sidewalk": false, "bridge": false, "ramp": false, "tunnel": false, "layer": 0, "deck": null }, "geometry": { "type": "LineString", "coordinates": [ [ 280675.81, 4158012.59 ], [ 280699.28, 4158066.62 ], [ 280710.62, 4158092.53 ], [ 280711.4, 4158093.72 ] ] } },
{ "type": "Feature", "properties": { "id": "osm:way/1217799011", "name": null, "highway": "footway", "lanes": null, "width": 2.0, "oneway": false, "surface": "concrete", "footway": null, "sidewalk_left": false, "sidewalk_right": false, "generated_sidewalk": false, "bus_lanes": null, "bus_lane_side": null, "bus_only": false, "sidewalk": false, "bridge": false, "ramp": false, "tunnel": false, "layer": 0, "deck": null }, "geometry": { "type": "LineString", "coordinates": [ [ 280675.77, 4158066.18 ], [ 280683.39, 4158066.29 ] ] } },
{ "type": "Feature", "properties": { "id": "osm:way/561998044", "name": null, "highway": "footway", "lanes": null, "width": 2.0, "oneway": false, "surface": "paving_stones", "footway": null, "sidewalk_left": false, "sidewalk_right": false, "generated_sidewalk": false, "bus_lanes": null, "bus_lane_side": null, "bus_only": false, "sidewalk": false, "bridge": false, "ramp": false, "tunnel": false, "layer": 0, "deck": null }, "geometry": { "type": "LineString", "coordinates": [ [ 280683.39, 4158066.29 ], [ 280699.28, 4158066.62 ] ] } },
{ "type": "Feature", "properties": { "id": "osm:way/267611318", "name": "Rugby Road", "highway": "residential", "lanes": 1.0, "width": 7.0, "oneway": false, "surface": "asphalt", "footway": null, "sidewalk_left": true, "sidewalk_right": true, "generated_sidewalk": true, "bus_lanes": null, "bus_lane_side": null, "bus_only": false, "sidewalk": true, "bridge": false, "ramp": false, "tunnel": false, "layer": 0, "deck": null }, "geometry": { "type": "LineString", "coordinates": [ [ 280657.39, 4158013.73 ], [ 280654.79, 4158007.42 ], [ 280651.74, 4158000.0 ] ] } },
{ "type": "Feature", "properties": { "id": "osm:way/1219425026", "name": "Rugby Road", "highway": "footway", "lanes": null, "width": 2.0, "oneway": false, "surface": null, "footway": "sidewalk", "sidewalk_left": false, "sidewalk_right": false, "generated_sidewalk": false, "bus_lanes": null, "bus_lane_side": null, "bus_only": false, "sidewalk": false, "bridge": false, "ramp": false, "tunnel": false, "layer": 0, "deck": null }, "geometry": { "type": "LineString", "coordinates": [ [ 280648.07, 4158011.18 ], [ 280643.78, 4158001.56 ], [ 280643.06, 4158000.0 ] ] } },
{ "type": "Feature", "properties": { "id": "osm:way/6032895", "name": "Carillon Court", "highway": "residential", "lanes": 1.0, "width": 7.0, "oneway": false, "surface": "asphalt", "footway": null, "sidewalk_left": true, "sidewalk_right": false, "generated_sidewalk": true, "bus_lanes": null, "bus_lane_side": null, "bus_only": false, "sidewalk": true, "bridge": false, "ramp": false, "tunnel": false, "layer": 0, "deck": null }, "geometry": { "type": "LineString", "coordinates": [ [ 280630.3, 4158027.34 ], [ 280627.43, 4158021.02 ], [ 280626.72, 4158019.45 ], [ 280625.62, 4158017.02 ], [ 280622.96, 4158003.14 ], [ 280623.1, 4158000.0 ] ] } },
{ "type": "Feature", "properties": { "id": "osm:way/563655239", "name": "Carillon Court", "highway": "footway", "lanes": null, "width": 2.0, "oneway": false, "surface": null, "footway": "sidewalk", "sidewalk_left": false, "sidewalk_right": false, "generated_sidewalk": false, "bus_lanes": null, "bus_lane_side": null, "bus_only": false, "sidewalk": false, "bridge": false, "ramp": false, "tunnel": false, "layer": 0, "deck": null }, "geometry": { "type": "LineString", "coordinates": [ [ 280622.94, 4158023.18 ], [ 280618.72, 4158011.49 ], [ 280617.93, 4158003.95 ], [ 280617.7, 4158000.0 ] ] } },
{ "type": "Feature", "properties": { "id": "osm:way/562493671", "name": null, "highway": "service", "lanes": null, "width": 4.5, "oneway": false, "surface": null, "footway": null, "sidewalk_left": false, "sidewalk_right": false, "generated_sidewalk": false, "bus_lanes": null, "bus_lane_side": null, "bus_only": false, "sidewalk": false, "bridge": false, "ramp": false, "tunnel": false, "layer": 0, "deck": null }, "geometry": { "type": "LineString", "coordinates": [ [ 280613.0, 4158000.0 ], [ 280597.51, 4158005.43 ], [ 280594.31, 4158005.52 ], [ 280590.84, 4158004.2 ], [ 280589.23, 4158002.0 ], [ 280588.72, 4158000.0 ] ] } },
{ "type": "Feature", "properties": { "id": "osm:way/563827040", "name": null, "highway": "footway", "lanes": null, "width": 2.0, "oneway": false, "surface": "asphalt", "footway": "crossing", "sidewalk_left": false, "sidewalk_right": false, "generated_sidewalk": false, "bus_lanes": null, "bus_lane_side": null, "bus_only": false, "sidewalk": false, "bridge": false, "ramp": false, "tunnel": false, "layer": 0, "deck": null }, "geometry": { "type": "LineString", "coordinates": [ [ 280664.28, 4158000.0 ], [ 280654.79, 4158007.42 ], [ 280651.27, 4158009.39 ] ] } },
{ "type": "Feature", "properties": { "id": "osm:way/1215598275", "name": "Garrett Street", "highway": "residential", "lanes": 1.0, "width": 7.0, "oneway": false, "surface": "asphalt", "footway": null, "sidewalk_left": true, "sidewalk_right": true, "generated_sidewalk": true, "bus_lanes": null, "bus_lane_side": null, "bus_only": false, "sidewalk": true, "bridge": false, "ramp": false, "tunnel": false, "layer": 0, "deck": null }, "geometry": { "type": "LineString", "coordinates": [ [ 280680.55, 4158002.19 ], [ 280676.93, 4158003.91 ], [ 280675.53, 4158004.58 ], [ 280672.76, 4158005.9 ], [ 280657.39, 4158013.73 ] ] } },
{ "type": "Feature", "properties": { "id": "osm:way/1219425028", "name": "Garrett Street", "highway": "footway", "lanes": null, "width": 2.0, "oneway": false, "surface": "concrete", "footway": "sidewalk", "sidewalk_left": false, "sidewalk_right": false, "generated_sidewalk": false, "bus_lanes": null, "bus_lane_side": null, "bus_only": false, "sidewalk": false, "bridge": false, "ramp": false, "tunnel": false, "layer": 0, "deck": null }, "geometry": { "type": "LineString", "coordinates": [ [ 280651.27, 4158009.39 ], [ 280648.07, 4158011.18 ], [ 280630.46, 4158019.58 ] ] } },
{ "type": "Feature", "properties": { "id": "osm:way/1219425029", "name": "Garrett Street", "highway": "footway", "lanes": null, "width": 2.0, "oneway": false, "surface": "asphalt", "footway": "crossing", "sidewalk_left": false, "sidewalk_right": false, "generated_sidewalk": false, "bus_lanes": null, "bus_lane_side": null, "bus_only": false, "sidewalk": false, "bridge": false, "ramp": false, "tunnel": false, "layer": 0, "deck": null }, "geometry": { "type": "LineString", "coordinates": [ [ 280630.46, 4158019.58 ], [ 280627.43, 4158021.02 ], [ 280624.52, 4158022.42 ] ] } },
{ "type": "Feature", "properties": { "id": "osm:way/1219425030", "name": "Garrett Street", "highway": "footway", "lanes": null, "width": 2.0, "oneway": false, "surface": "concrete", "footway": "sidewalk", "sidewalk_left": false, "sidewalk_right": false, "generated_sidewalk": false, "bus_lanes": null, "bus_lane_side": null, "bus_only": false, "sidewalk": false, "bridge": false, "ramp": false, "tunnel": false, "layer": 0, "deck": null }, "geometry": { "type": "LineString", "coordinates": [ [ 280675.81, 4158012.59 ], [ 280643.86, 4158028.11 ], [ 280636.98, 4158031.3 ] ] } },
{ "type": "Feature", "properties": { "id": "osm:way/527254233", "name": "Sunset Avenue", "highway": "residential", "lanes": null, "width": 7.0, "oneway": true, "surface": "asphalt", "footway": null, "sidewalk_left": true, "sidewalk_right": false, "generated_sidewalk": true, "bus_lanes": null, "bus_lane_side": null, "bus_only": false, "sidewalk": true, "bridge": false, "ramp": false, "tunnel": false, "layer": 0, "deck": null }, "geometry": { "type": "LineString", "coordinates": [ [ 280501.41, 4158016.2 ], [ 280500.0, 4158016.22 ] ] } },
{ "type": "Feature", "properties": { "id": "osm:way/267611472", "name": null, "highway": "service", "lanes": null, "width": 4.5, "oneway": false, "surface": null, "footway": null, "sidewalk_left": false, "sidewalk_right": false, "generated_sidewalk": false, "bus_lanes": null, "bus_lane_side": null, "bus_only": false, "sidewalk": false, "bridge": false, "ramp": false, "tunnel": false, "layer": 0, "deck": null }, "geometry": { "type": "LineString", "coordinates": [ [ 280556.76, 4158000.0 ], [ 280572.51, 4158033.04 ], [ 280579.02, 4158044.7 ], [ 280583.04, 4158050.3 ] ] } },
{ "type": "Feature", "properties": { "id": "osm:way/563656839", "name": null, "highway": "footway", "lanes": null, "width": 2.0, "oneway": false, "surface": null, "footway": "residential", "sidewalk_left": false, "sidewalk_right": false, "generated_sidewalk": false, "bus_lanes": null, "bus_lane_side": null, "bus_only": false, "sidewalk": false, "bridge": false, "ramp": false, "tunnel": false, "layer": 0, "deck": null }, "geometry": { "type": "LineString", "coordinates": [ [ 280505.18, 4158004.51 ], [ 280513.57, 4158000.96 ] ] } },
{ "type": "Feature", "properties": { "id": "osm:way/563655234", "name": "Sunset Avenue", "highway": "footway", "lanes": null, "width": 2.0, "oneway": false, "surface": null, "footway": "sidewalk", "sidewalk_left": false, "sidewalk_right": false, "generated_sidewalk": false, "bus_lanes": null, "bus_lane_side": null, "bus_only": false, "sidewalk": false, "bridge": false, "ramp": false, "tunnel": false, "layer": 0, "deck": null }, "geometry": { "type": "LineString", "coordinates": [ [ 280503.21, 4158000.0 ], [ 280504.03, 4158002.13 ], [ 280505.18, 4158004.51 ], [ 280534.92, 4158064.62 ], [ 280534.63, 4158065.99 ] ] } },
{ "type": "Feature", "properties": { "id": "osm:way/6039898", "name": "Sunset Avenue", "highway": "residential", "lanes": null, "width": 7.0, "oneway": false, "surface": "asphalt", "footway": null, "sidewalk_left": false, "sidewalk_right": false, "generated_sidewalk": true, "bus_lanes": null, "bus_lane_side": null, "bus_only": false, "sidewalk": true, "bridge": false, "ramp": false, "tunnel": false, "layer": 0, "deck": null }, "geometry": { "type": "LineString", "coordinates": [ [ 280500.0, 4158010.12 ], [ 280501.41, 4158016.2 ], [ 280528.01, 4158066.86 ], [ 280528.92, 4158068.61 ], [ 280532.28, 4158074.99 ] ] } },
{ "type": "Feature", "properties": { "id": "osm:way/563932337", "name": null, "highway": "footway", "lanes": null, "width": 2.0, "oneway": false, "surface": null, "footway": "link", "sidewalk_left": false, "sidewalk_right": false, "generated_sidewalk": false, "bus_lanes": null, "bus_lane_side": null, "bus_only": false, "sidewalk": false, "bridge": false, "ramp": false, "tunnel": false, "layer": 0, "deck": null }, "geometry": { "type": "LineString", "coordinates": [ [ 280500.0, 4158019.86 ], [ 280501.41, 4158016.2 ] ] } },
{ "type": "Feature", "properties": { "id": "osm:way/1215481179", "name": "Sunset Avenue", "highway": "footway", "lanes": null, "width": 2.0, "oneway": false, "surface": null, "footway": "sidewalk", "sidewalk_left": false, "sidewalk_right": false, "generated_sidewalk": false, "bus_lanes": null, "bus_lane_side": null, "bus_only": false, "sidewalk": false, "bridge": false, "ramp": false, "tunnel": false, "layer": 0, "deck": null }, "geometry": { "type": "LineString", "coordinates": [ [ 280523.03, 4158071.31 ], [ 280500.0, 4158025.2 ] ] } },
{ "type": "Feature", "properties": { "id": "osm:way/1215878075", "name": "Garrett Street", "highway": "footway", "lanes": null, "width": 2.0, "oneway": false, "surface": "concrete", "footway": "sidewalk", "sidewalk_left": false, "sidewalk_right": false, "generated_sidewalk": false, "bus_lanes": null, "bus_lane_side": null, "bus_only": false, "sidewalk": false, "bridge": false, "ramp": false, "tunnel": false, "layer": 0, "deck": null }, "geometry": { "type": "LineString", "coordinates": [ [ 280577.48, 4158045.43 ], [ 280534.92, 4158064.62 ] ] } },
{ "type": "Feature", "properties": { "id": "osm:way/1215878076", "name": "Garrett Street", "highway": "footway", "lanes": null, "width": 2.0, "oneway": false, "surface": "concrete", "footway": "crossing", "sidewalk_left": false, "sidewalk_right": false, "generated_sidewalk": false, "bus_lanes": null, "bus_lane_side": null, "bus_only": false, "sidewalk": false, "bridge": false, "ramp": false, "tunnel": false, "layer": 0, "deck": null }, "geometry": { "type": "LineString", "coordinates": [ [ 280534.63, 4158065.99 ], [ 280528.92, 4158068.61 ], [ 280524.02, 4158070.85 ], [ 280523.03, 4158071.31 ] ] } },
{ "type": "Feature", "properties": { "id": "osm:way/1215878077", "name": null, "highway": "footway", "lanes": null, "width": 2.0, "oneway": false, "surface": null, "footway": "link", "sidewalk_left": false, "sidewalk_right": false, "generated_sidewalk": false, "bus_lanes": null, "bus_lane_side": null, "bus_only": false, "sidewalk": false, "bridge": false, "ramp": false, "tunnel": false, "layer": 0, "deck": null }, "geometry": { "type": "LineString", "coordinates": [ [ 280534.63, 4158065.99 ], [ 280537.61, 4158072.33 ] ] } },
{ "type": "Feature", "properties": { "id": "osm:way/1219425031", "name": "Garrett Street", "highway": "footway", "lanes": null, "width": 2.0, "oneway": false, "surface": "concrete", "footway": "crossing", "sidewalk_left": false, "sidewalk_right": false, "generated_sidewalk": false, "bus_lanes": null, "bus_lane_side": null, "bus_only": false, "sidewalk": false, "bridge": false, "ramp": false, "tunnel": false, "layer": 0, "deck": null }, "geometry": { "type": "LineString", "coordinates": [ [ 280636.98, 4158031.3 ], [ 280634.49, 4158032.45 ], [ 280632.14, 4158033.55 ] ] } },
{ "type": "Feature", "properties": { "id": "osm:way/1219425045", "name": "Garrett Street", "highway": "footway", "lanes": null, "width": 2.0, "oneway": false, "surface": "concrete", "footway": "sidewalk", "sidewalk_left": false, "sidewalk_right": false, "generated_sidewalk": false, "bus_lanes": null, "bus_lane_side": null, "bus_only": false, "sidewalk": false, "bridge": false, "ramp": false, "tunnel": false, "layer": 0, "deck": null }, "geometry": { "type": "LineString", "coordinates": [ [ 280624.52, 4158022.42 ], [ 280622.94, 4158023.18 ], [ 280580.95, 4158043.79 ] ] } },
{ "type": "Feature", "properties": { "id": "osm:way/1219425034", "name": "Garrett Street", "highway": "footway", "lanes": null, "width": 2.0, "oneway": false, "surface": "concrete", "footway": "sidewalk", "sidewalk_left": false, "sidewalk_right": false, "generated_sidewalk": false, "bus_lanes": null, "bus_lane_side": null, "bus_only": false, "sidewalk": false, "bridge": false, "ramp": false, "tunnel": false, "layer": 0, "deck": null }, "geometry": { "type": "LineString", "coordinates": [ [ 280632.14, 4158033.55 ], [ 280588.5, 4158055.18 ] ] } },
{ "type": "Feature", "properties": { "id": "osm:way/1219425046", "name": "Garrett Street", "highway": "footway", "lanes": null, "width": 2.0, "oneway": false, "surface": "concrete", "footway": "crossing", "sidewalk_left": false, "sidewalk_right": false, "generated_sidewalk": false, "bus_lanes": null, "bus_lane_side": null, "bus_only": false, "sidewalk": false, "bridge": false, "ramp": false, "tunnel": false, "layer": 0, "deck": null }, "geometry": { "type": "LineString", "coordinates": [ [ 280580.95, 4158043.79 ], [ 280579.02, 4158044.7 ], [ 280577.48, 4158045.43 ] ] } },
{ "type": "Feature", "properties": { "id": "osm:way/1219425035", "name": "Garrett Street", "highway": "footway", "lanes": null, "width": 2.0, "oneway": false, "surface": "asphalt", "footway": "crossing", "sidewalk_left": false, "sidewalk_right": false, "generated_sidewalk": false, "bus_lanes": null, "bus_lane_side": null, "bus_only": false, "sidewalk": false, "bridge": false, "ramp": false, "tunnel": false, "layer": 0, "deck": null }, "geometry": { "type": "LineString", "coordinates": [ [ 280588.5, 4158055.18 ], [ 280586.12, 4158056.36 ], [ 280583.18, 4158057.73 ] ] } },
{ "type": "Feature", "properties": { "id": "osm:way/563827032", "name": null, "highway": "footway", "lanes": null, "width": 2.0, "oneway": false, "surface": null, "footway": "sidewalk", "sidewalk_left": false, "sidewalk_right": false, "generated_sidewalk": false, "bus_lanes": null, "bus_lane_side": null, "bus_only": false, "sidewalk": false, "bridge": false, "ramp": false, "tunnel": false, "layer": 0, "deck": null }, "geometry": { "type": "LineString", "coordinates": [ [ 280643.86, 4158028.11 ], [ 280679.45, 4158108.07 ] ] } },
{ "type": "Feature", "properties": { "id": "osm:way/267612035", "name": null, "highway": "service", "lanes": null, "width": 4.5, "oneway": false, "surface": null, "footway": null, "sidewalk_left": false, "sidewalk_right": false, "generated_sidewalk": false, "bus_lanes": null, "bus_lane_side": null, "bus_only": false, "sidewalk": true, "bridge": false, "ramp": false, "tunnel": false, "layer": 0, "deck": null }, "geometry": { "type": "LineString", "coordinates": [ [ 280672.7, 4158117.1 ], [ 280670.5, 4158112.39 ], [ 280652.0, 4158072.71 ], [ 280634.49, 4158032.45 ], [ 280631.98, 4158026.5 ] ] } },
{ "type": "Feature", "properties": { "id": "osm:way/1219425036", "name": "Douglasdale Road", "highway": "footway", "lanes": null, "width": 2.0, "oneway": false, "surface": null, "footway": "sidewalk", "sidewalk_left": false, "sidewalk_right": false, "generated_sidewalk": false, "bus_lanes": null, "bus_lane_side": null, "bus_only": false, "sidewalk": false, "bridge": false, "ramp": false, "tunnel": false, "layer": 0, "deck": null }, "geometry": { "type": "LineString", "coordinates": [ [ 280668.34, 4158113.43 ], [ 280624.99, 4158134.3 ] ] } },
{ "type": "Feature", "properties": { "id": "osm:way/1219425038", "name": "Douglasdale Road", "highway": "footway", "lanes": null, "width": 2.0, "oneway": false, "surface": "ground", "footway": "link", "sidewalk_left": false, "sidewalk_right": false, "generated_sidewalk": false, "bus_lanes": null, "bus_lane_side": null, "bus_only": false, "sidewalk": false, "bridge": false, "ramp": false, "tunnel": false, "layer": 0, "deck": null }, "geometry": { "type": "LineString", "coordinates": [ [ 280624.99, 4158134.3 ], [ 280623.54, 4158135.0 ] ] } },
{ "type": "Feature", "properties": { "id": "osm:way/1219425037", "name": "Douglasdale Road", "highway": "footway", "lanes": null, "width": 2.0, "oneway": false, "surface": null, "footway": "crossing", "sidewalk_left": false, "sidewalk_right": false, "generated_sidewalk": false, "bus_lanes": null, "bus_lane_side": null, "bus_only": false, "sidewalk": false, "bridge": false, "ramp": false, "tunnel": false, "layer": 0, "deck": null }, "geometry": { "type": "LineString", "coordinates": [ [ 280623.54, 4158135.0 ], [ 280621.34, 4158136.02 ], [ 280618.88, 4158137.15 ] ] } },
{ "type": "Feature", "properties": { "id": "osm:way/563827038", "name": null, "highway": "footway", "lanes": null, "width": 2.0, "oneway": false, "surface": "asphalt", "footway": "crossing", "sidewalk_left": false, "sidewalk_right": false, "generated_sidewalk": false, "bus_lanes": null, "bus_lane_side": null, "bus_only": false, "sidewalk": false, "bridge": false, "ramp": false, "tunnel": false, "layer": 0, "deck": null }, "geometry": { "type": "LineString", "coordinates": [ [ 280743.09, 4158079.75 ], [ 280735.58, 4158083.82 ], [ 280727.66, 4158087.57 ], [ 280719.53, 4158090.27 ], [ 280713.02, 4158091.71 ] ] } },
{ "type": "Feature", "properties": { "id": "osm:way/895111314", "name": "Douglasdale Road", "highway": "tertiary", "lanes": null, "width": 8.0, "oneway": true, "surface": "asphalt", "footway": null, "sidewalk_left": true, "sidewalk_right": false, "generated_sidewalk": true, "bus_lanes": null, "bus_lane_side": null, "bus_only": false, "sidewalk": true, "bridge": false, "ramp": false, "tunnel": false, "layer": 0, "deck": null }, "geometry": { "type": "LineString", "coordinates": [ [ 280712.94, 4158097.54 ], [ 280721.04, 4158093.65 ], [ 280736.6, 4158086.13 ] ] } },
{ "type": "Feature", "properties": { "id": "osm:way/1219423770", "name": null, "highway": "footway", "lanes": null, "width": 2.0, "oneway": false, "surface": "asphalt", "footway": "link", "sidewalk_left": false, "sidewalk_right": false, "generated_sidewalk": false, "bus_lanes": null, "bus_lane_side": null, "bus_only": false, "sidewalk": false, "bridge": false, "ramp": false, "tunnel": false, "layer": 0, "deck": null }, "geometry": { "type": "LineString", "coordinates": [ [ 280711.94, 4158095.03 ], [ 280713.02, 4158091.71 ] ] } },
{ "type": "Feature", "properties": { "id": "osm:way/563827039", "name": "Blanton Avenue", "highway": "footway", "lanes": null, "width": 2.0, "oneway": false, "surface": "concrete", "footway": "sidewalk", "sidewalk_left": false, "sidewalk_right": false, "generated_sidewalk": false, "bus_lanes": null, "bus_lane_side": null, "bus_only": false, "sidewalk": false, "bridge": false, "ramp": false, "tunnel": false, "layer": 0, "deck": null }, "geometry": { "type": "LineString", "coordinates": [ [ 280707.84, 4158000.0 ], [ 280713.07, 4158011.84 ], [ 280743.09, 4158079.75 ], [ 280750.0, 4158095.39 ] ] } },
{ "type": "Feature", "properties": { "id": "osm:way/128385802", "name": "Blanton Avenue", "highway": "primary", "lanes": 2.0, "width": 11.0, "oneway": true, "surface": "asphalt", "footway": null, "sidewalk_left": true, "sidewalk_right": false, "generated_sidewalk": true, "bus_lanes": null, "bus_lane_side": null, "bus_only": false, "sidewalk": true, "bridge": false, "ramp": false, "tunnel": false, "layer": 0, "deck": null }, "geometry": { "type": "LineString", "coordinates": [ [ 280698.63, 4158000.0 ], [ 280699.41, 4158001.79 ], [ 280735.58, 4158083.82 ], [ 280736.6, 4158086.13 ], [ 280738.44, 4158090.26 ], [ 280739.96, 4158093.81 ], [ 280750.0, 4158117.63 ] ] } },
{ "type": "Feature", "properties": { "id": "osm:way/563827031", "name": null, "highway": "footway", "lanes": null, "width": 2.0, "oneway": false, "surface": "concrete", "footway": null, "sidewalk_left": false, "sidewalk_right": false, "generated_sidewalk": false, "bus_lanes": null, "bus_lane_side": null, "bus_only": false, "sidewalk": false, "bridge": false, "ramp": false, "tunnel": false, "layer": 0, "deck": null }, "geometry": { "type": "LineString", "coordinates": [ [ 280693.25, 4158101.44 ], [ 280689.08, 4158092.16 ] ] } },
{ "type": "Feature", "properties": { "id": "osm:way/895111313", "name": "Douglasdale Road", "highway": "tertiary", "lanes": null, "width": 8.0, "oneway": true, "surface": "asphalt", "footway": null, "sidewalk_left": true, "sidewalk_right": true, "generated_sidewalk": true, "bus_lanes": null, "bus_lane_side": null, "bus_only": false, "sidewalk": true, "bridge": false, "ramp": false, "tunnel": false, "layer": 0, "deck": null }, "geometry": { "type": "LineString", "coordinates": [ [ 280739.96, 4158093.81 ], [ 280724.41, 4158101.33 ], [ 280716.18, 4158105.56 ] ] } },
{ "type": "Feature", "properties": { "id": "osm:way/1219425041", "name": "Douglasdale Road", "highway": "footway", "lanes": null, "width": 2.0, "oneway": false, "surface": null, "footway": "sidewalk", "sidewalk_left": false, "sidewalk_right": false, "generated_sidewalk": false, "bus_lanes": null, "bus_lane_side": null, "bus_only": false, "sidewalk": false, "bridge": false, "ramp": false, "tunnel": false, "layer": 0, "deck": null }, "geometry": { "type": "LineString", "coordinates": [ [ 280713.02, 4158091.71 ], [ 280710.62, 4158092.53 ], [ 280693.25, 4158101.44 ], [ 280679.45, 4158108.07 ], [ 280672.25, 4158111.54 ] ] } },
{ "type": "Feature", "properties": { "id": "osm:way/563827037", "name": null, "highway": "footway", "lanes": null, "width": 2.0, "oneway": false, "surface": "asphalt", "footway": "crossing", "sidewalk_left": false, "sidewalk_right": false, "generated_sidewalk": false, "bus_lanes": null, "bus_lane_side": null, "bus_only": false, "sidewalk": false, "bridge": false, "ramp": false, "tunnel": false, "layer": 0, "deck": null }, "geometry": { "type": "LineString", "coordinates": [ [ 280711.4, 4158093.72 ], [ 280711.94, 4158095.03 ], [ 280712.94, 4158097.54 ], [ 280716.18, 4158105.56 ], [ 280717.83, 4158109.67 ], [ 280718.13, 4158110.41 ] ] } },
{ "type": "Feature", "properties": { "id": "osm:way/1219425042", "name": "Douglasdale Road", "highway": "footway", "lanes": null, "width": 2.0, "oneway": false, "surface": null, "footway": "crossing", "sidewalk_left": false, "sidewalk_right": false, "generated_sidewalk": false, "bus_lanes": null, "bus_lane_side": null, "bus_only": false, "sidewalk": false, "bridge": false, "ramp": false, "tunnel": false, "layer": 0, "deck": null }, "geometry": { "type": "LineString", "coordinates": [ [ 280672.25, 4158111.54 ], [ 280670.5, 4158112.39 ], [ 280668.34, 4158113.43 ] ] } },
{ "type": "Feature", "properties": { "id": "osm:way/1219425043", "name": "Douglasdale Road", "highway": "footway", "lanes": null, "width": 2.0, "oneway": false, "surface": null, "footway": "sidewalk", "sidewalk_left": false, "sidewalk_right": false, "generated_sidewalk": false, "bus_lanes": null, "bus_lane_side": null, "bus_only": false, "sidewalk": false, "bridge": false, "ramp": false, "tunnel": false, "layer": 0, "deck": null }, "geometry": { "type": "LineString", "coordinates": [ [ 280718.13, 4158110.41 ], [ 280679.08, 4158129.82 ] ] } },
{ "type": "Feature", "properties": { "id": "osm:way/306903182", "name": "Blanton Avenue", "highway": "primary", "lanes": 2.0, "width": 11.0, "oneway": true, "surface": "asphalt", "footway": null, "sidewalk_left": true, "sidewalk_right": false, "generated_sidewalk": true, "bus_lanes": null, "bus_lane_side": null, "bus_only": false, "sidewalk": true, "bridge": false, "ramp": false, "tunnel": false, "layer": 0, "deck": null }, "geometry": { "type": "LineString", "coordinates": [ [ 280750.0, 4158160.14 ], [ 280724.41, 4158101.33 ], [ 280722.8, 4158097.66 ], [ 280721.04, 4158093.65 ], [ 280719.53, 4158090.27 ], [ 280701.53, 4158049.61 ] ] } },
{ "type": "Feature", "properties": { "id": "osm:way/1219425044", "name": "Douglasdale Road", "highway": "footway", "lanes": null, "width": 2.0, "oneway": false, "surface": null, "footway": "crossing", "sidewalk_left": false, "sidewalk_right": false, "generated_sidewalk": false, "bus_lanes": null, "bus_lane_side": null, "bus_only": false, "sidewalk": false, "bridge": false, "ramp": false, "tunnel": false, "layer": 0, "deck": null }, "geometry": { "type": "LineString", "coordinates": [ [ 280679.08, 4158129.82 ], [ 280677.4, 4158130.62 ], [ 280675.36, 4158131.59 ] ] } },
{ "type": "Feature", "properties": { "id": "osm:way/563827034", "name": "Blanton Avenue", "highway": "footway", "lanes": null, "width": 2.0, "oneway": false, "surface": "concrete", "footway": "sidewalk", "sidewalk_left": false, "sidewalk_right": false, "generated_sidewalk": false, "bus_lanes": null, "bus_lane_side": null, "bus_only": false, "sidewalk": false, "bridge": false, "ramp": false, "tunnel": false, "layer": 0, "deck": null }, "geometry": { "type": "LineString", "coordinates": [ [ 280718.13, 4158110.41 ], [ 280728.36, 4158133.45 ], [ 280750.0, 4158178.29 ] ] } },
{ "type": "Feature", "properties": { "id": "osm:way/530869548", "name": null, "highway": "service", "lanes": null, "width": 4.5, "oneway": false, "surface": "gravel", "footway": null, "sidewalk_left": false, "sidewalk_right": false, "generated_sidewalk": false, "bus_lanes": null, "bus_lane_side": null, "bus_only": false, "sidewalk": false, "bridge": false, "ramp": false, "tunnel": false, "layer": 0, "deck": null }, "geometry": { "type": "LineString", "coordinates": [ [ 280720.09, 4158220.51 ], [ 280677.4, 4158130.62 ], [ 280675.17, 4158125.57 ] ] } },
{ "type": "Feature", "properties": { "id": "osm:way/1215878081", "name": "Garrett Street", "highway": "footway", "lanes": null, "width": 2.0, "oneway": false, "surface": "concrete", "footway": "sidewalk", "sidewalk_left": false, "sidewalk_right": false, "generated_sidewalk": false, "bus_lanes": null, "bus_lane_side": null, "bus_only": false, "sidewalk": false, "bridge": false, "ramp": false, "tunnel": false, "layer": 0, "deck": null }, "geometry": { "type": "LineString", "coordinates": [ [ 280583.18, 4158057.73 ], [ 280500.0, 4158096.5 ] ] } },
{ "type": "Feature", "properties": { "id": "osm:way/1215878078", "name": "Garrett Street", "highway": "footway", "lanes": null, "width": 2.0, "oneway": false, "surface": "concrete", "footway": "sidewalk", "sidewalk_left": false, "sidewalk_right": false, "generated_sidewalk": false, "bus_lanes": null, "bus_lane_side": null, "bus_only": false, "sidewalk": false, "bridge": false, "ramp": false, "tunnel": false, "layer": 0, "deck": null }, "geometry": { "type": "LineString", "coordinates": [ [ 280523.03, 4158071.31 ], [ 280500.0, 4158082.74 ] ] } },
{ "type": "Feature", "properties": { "id": "osm:way/6036609", "name": "Garrett Street", "highway": "residential", "lanes": 1.0, "width": 7.0, "oneway": false, "surface": "asphalt", "footway": null, "sidewalk_left": false, "sidewalk_right": false, "generated_sidewalk": true, "bus_lanes": null, "bus_lane_side": null, "bus_only": false, "sidewalk": true, "bridge": false, "ramp": false, "tunnel": false, "layer": 0, "deck": null }, "geometry": { "type": "LineString", "coordinates": [ [ 280657.39, 4158013.73 ], [ 280631.98, 4158026.5 ], [ 280630.3, 4158027.34 ], [ 280583.04, 4158050.3 ], [ 280537.61, 4158072.33 ], [ 280532.28, 4158074.99 ], [ 280500.0, 4158090.59 ] ] } },
{ "type": "Feature", "properties": { "id": "osm:way/6040672", "name": "Huxley Street", "highway": "residential", "lanes": null, "width": 7.0, "oneway": false, "surface": "asphalt", "footway": null, "sidewalk_left": null, "sidewalk_right": null, "generated_sidewalk": true, "bus_lanes": null, "bus_lane_side": null, "bus_only": false, "sidewalk": false, "bridge": false, "ramp": false, "tunnel": false, "layer": 0, "deck": null }, "geometry": { "type": "LineString", "coordinates": [ [ 280550.79, 4158242.58 ], [ 280534.22, 4158201.52 ], [ 280533.28, 4158199.44 ], [ 280531.2, 4158194.83 ], [ 280527.72, 4158187.11 ], [ 280525.52, 4158182.19 ], [ 280524.33, 4158179.51 ], [ 280507.56, 4158143.41 ], [ 280500.0, 4158125.96 ] ] } },
{ "type": "Feature", "properties": { "id": "osm:way/267611477", "name": null, "highway": "service", "lanes": null, "width": 4.5, "oneway": false, "surface": null, "footway": null, "sidewalk_left": false, "sidewalk_right": false, "generated_sidewalk": false, "bus_lanes": null, "bus_lane_side": null, "bus_only": false, "sidewalk": false, "bridge": false, "ramp": false, "tunnel": false, "layer": 0, "deck": null }, "geometry": { "type": "LineString", "coordinates": [ [ 280500.0, 4158149.03 ], [ 280503.22, 4158147.51 ], [ 280507.56, 4158143.41 ], [ 280511.33, 4158139.7 ], [ 280604.75, 4158095.59 ], [ 280652.0, 4158072.71 ] ] } },
{ "type": "Feature", "properties": { "id": "osm:way/1215878085", "name": "Douglasdale Road", "highway": "footway", "lanes": null, "width": 2.0, "oneway": false, "surface": "grass", "footway": "link", "sidewalk_left": false, "sidewalk_right": false, "generated_sidewalk": false, "bus_lanes": null, "bus_lane_side": null, "bus_only": false, "sidewalk": false, "bridge": false, "ramp": false, "tunnel": false, "layer": 0, "deck": null }, "geometry": { "type": "LineString", "coordinates": [ [ 280531.61, 4158179.22 ], [ 280529.47, 4158180.27 ] ] } },
{ "type": "Feature", "properties": { "id": "osm:way/1215878084", "name": "Douglasdale Road", "highway": "footway", "lanes": null, "width": 2.0, "oneway": false, "surface": "asphalt", "footway": "crossing", "sidewalk_left": false, "sidewalk_right": false, "generated_sidewalk": false, "bus_lanes": null, "bus_lane_side": null, "bus_only": false, "sidewalk": false, "bridge": false, "ramp": false, "tunnel": false, "layer": 0, "deck": null }, "geometry": { "type": "LineString", "coordinates": [ [ 280529.47, 4158180.27 ], [ 280525.52, 4158182.19 ], [ 280519.8, 4158184.89 ] ] } },
{ "type": "Feature", "properties": { "id": "osm:way/1215878086", "name": "Douglasdale Road", "highway": "footway", "lanes": null, "width": 2.0, "oneway": false, "surface": "grass", "footway": "link", "sidewalk_left": false, "sidewalk_right": false, "generated_sidewalk": false, "bus_lanes": null, "bus_lane_side": null, "bus_only": false, "sidewalk": false, "bridge": false, "ramp": false, "tunnel": false, "layer": 0, "deck": null }, "geometry": { "type": "LineString", "coordinates": [ [ 280519.8, 4158184.89 ], [ 280516.87, 4158186.26 ] ] } },
{ "type": "Feature", "properties": { "id": "osm:way/563934507", "name": null, "highway": "footway", "lanes": null, "width": 2.0, "oneway": false, "surface": null, "footway": "residential", "sidewalk_left": false, "sidewalk_right": false, "generated_sidewalk": false, "bus_lanes": null, "bus_lane_side": null, "bus_only": false, "sidewalk": false, "bridge": false, "ramp": false, "tunnel": false, "layer": 0, "deck": null }, "geometry": { "type": "LineString", "coordinates": [ [ 280507.58, 4158190.83 ], [ 280506.52, 4158188.18 ], [ 280504.8, 4158186.64 ], [ 280502.74, 4158185.03 ], [ 280501.21, 4158182.3 ] ] } },
{ "type": "Feature", "properties": { "id": "osm:way/1215878090", "name": "Douglasdale Road", "highway": "footway", "lanes": null, "width": 2.0, "oneway": false, "surface": "grass", "footway": "link", "sidewalk_left": false, "sidewalk_right": false, "generated_sidewalk": false, "bus_lanes": null, "bus_lane_side": null, "bus_only": false, "sidewalk": false, "bridge": false, "ramp": false, "tunnel": false, "layer": 0, "deck": null }, "geometry": { "type": "LineString", "coordinates": [ [ 280539.3, 4158196.53 ], [ 280535.59, 4158198.33 ] ] } },
{ "type": "Feature", "properties": { "id": "osm:way/563827030", "name": "Douglasdale Road", "highway": "footway", "lanes": null, "width": 2.0, "oneway": false, "surface": null, "footway": "sidewalk", "sidewalk_left": false, "sidewalk_right": false, "generated_sidewalk": false, "bus_lanes": null, "bus_lane_side": null, "bus_only": false, "sidewalk": false, "bridge": false, "ramp": false, "tunnel": false, "layer": 0, "deck": null }, "geometry": { "type": "LineString", "coordinates": [ [ 280675.36, 4158131.59 ], [ 280630.52, 4158152.32 ] ] } },
{ "type": "Feature", "properties": { "id": "osm:way/1219425040", "name": "Douglasdale Road", "highway": "footway", "lanes": null, "width": 2.0, "oneway": false, "surface": null, "footway": "crossing", "sidewalk_left": false, "sidewalk_right": false, "generated_sidewalk": false, "bus_lanes": null, "bus_lane_side": null, "bus_only": false, "sidewalk": false, "bridge": false, "ramp": false, "tunnel": false, "layer": 0, "deck": null }, "geometry": { "type": "LineString", "coordinates": [ [ 280630.52, 4158152.32 ], [ 280628.92, 4158153.1 ], [ 280626.08, 4158154.47 ] ] } },
{ "type": "Feature", "properties": { "id": "osm:way/563827033", "name": "Douglasdale Road", "highway": "footway", "lanes": null, "width": 2.0, "oneway": false, "surface": null, "footway": "sidewalk", "sidewalk_left": false, "sidewalk_right": false, "generated_sidewalk": false, "bus_lanes": null, "bus_lane_side": null, "bus_only": false, "sidewalk": false, "bridge": false, "ramp": false, "tunnel": false, "layer": 0, "deck": null }, "geometry": { "type": "LineString", "coordinates": [ [ 280618.88, 4158137.15 ], [ 280531.61, 4158179.22 ] ] } },
{ "type": "Feature", "properties": { "id": "osm:way/531427312", "name": "Douglasdale Road", "highway": "tertiary", "lanes": null, "width": 8.0, "oneway": true, "surface": "asphalt", "footway": null, "sidewalk_left": true, "sidewalk_right": false, "generated_sidewalk": true, "bus_lanes": null, "bus_lane_side": null, "bus_only": false, "sidewalk": true, "bridge": false, "ramp": false, "tunnel": false, "layer": 0, "deck": null }, "geometry": { "type": "LineString", "coordinates": [ [ 280500.0, 4158200.51 ], [ 280527.72, 4158187.11 ], [ 280623.47, 4158140.81 ], [ 280672.7, 4158117.1 ], [ 280711.71, 4158098.16 ], [ 280712.94, 4158097.54 ] ] } },
{ "type": "Feature", "properties": { "id": "osm:way/531427313", "name": "Douglasdale Road", "highway": "tertiary", "lanes": null, "width": 8.0, "oneway": true, "surface": "asphalt", "footway": null, "sidewalk_left": true, "sidewalk_right": false, "generated_sidewalk": true, "bus_lanes": null, "bus_lane_side": null, "bus_only": false, "sidewalk": true, "bridge": false, "ramp": false, "tunnel": false, "layer": 0, "deck": null }, "geometry": { "type": "LineString", "coordinates": [ [ 280716.18, 4158105.56 ], [ 280675.17, 4158125.57 ], [ 280626.89, 4158148.53 ], [ 280531.2, 4158194.83 ], [ 280500.0, 4158209.93 ] ] } },
{ "type": "Feature", "properties": { "id": "osm:way/1219425039", "name": "Douglasdale Road", "highway": "footway", "lanes": null, "width": 2.0, "oneway": false, "surface": null, "footway": "sidewalk", "sidewalk_left": false, "sidewalk_right": false, "generated_sidewalk": false, "bus_lanes": null, "bus_lane_side": null, "bus_only": false, "sidewalk": false, "bridge": false, "ramp": false, "tunnel": false, "layer": 0, "deck": null }, "geometry": { "type": "LineString", "coordinates": [ [ 280626.08, 4158154.47 ], [ 280539.3, 4158196.53 ] ] } },
{ "type": "Feature", "properties": { "id": "osm:way/6035280", "name": "Walpole Street", "highway": "residential", "lanes": null, "width": 7.0, "oneway": false, "surface": "asphalt", "footway": null, "sidewalk_left": false, "sidewalk_right": false, "generated_sidewalk": true, "bus_lanes": null, "bus_lane_side": null, "bus_only": false, "sidewalk": false, "bridge": false, "ramp": false, "tunnel": false, "layer": 0, "deck": null }, "geometry": { "type": "LineString", "coordinates": [ [ 280672.02, 4158250.0 ], [ 280669.75, 4158244.94 ], [ 280666.48, 4158237.58 ], [ 280648.7, 4158196.09 ], [ 280630.94, 4158157.64 ], [ 280628.92, 4158153.1 ], [ 280626.89, 4158148.53 ], [ 280623.47, 4158140.81 ], [ 280621.34, 4158136.02 ], [ 280619.63, 4158132.18 ], [ 280604.75, 4158095.59 ], [ 280586.12, 4158056.36 ], [ 280583.04, 4158050.3 ] ] } },
{ "type": "Feature", "properties": { "id": "osm:way/1215878088", "name": "Douglasdale Road", "highway": "footway", "lanes": null, "width": 2.0, "oneway": false, "surface": "asphalt", "footway": "crossing", "sidewalk_left": false, "sidewalk_right": false, "generated_sidewalk": false, "bus_lanes": null, "bus_lane_side": null, "bus_only": false, "sidewalk": false, "bridge": false, "ramp": false, "tunnel": false, "layer": 0, "deck": null }, "geometry": { "type": "LineString", "coordinates": [ [ 280535.59, 4158198.33 ], [ 280533.28, 4158199.44 ], [ 280529.18, 4158201.43 ] ] } },
{ "type": "Feature", "properties": { "id": "osm:way/1215878089", "name": "Douglasdale Road", "highway": "footway", "lanes": null, "width": 2.0, "oneway": false, "surface": "grass", "footway": "link", "sidewalk_left": false, "sidewalk_right": false, "generated_sidewalk": false, "bus_lanes": null, "bus_lane_side": null, "bus_only": false, "sidewalk": false, "bridge": false, "ramp": false, "tunnel": false, "layer": 0, "deck": null }, "geometry": { "type": "LineString", "coordinates": [ [ 280529.18, 4158201.43 ], [ 280527.88, 4158202.06 ] ] } },
{ "type": "Feature", "properties": { "id": "osm:way/1215878083", "name": "Douglasdale Road", "highway": "footway", "lanes": null, "width": 2.0, "oneway": false, "surface": null, "footway": "sidewalk", "sidewalk_left": false, "sidewalk_right": false, "generated_sidewalk": false, "bus_lanes": null, "bus_lane_side": null, "bus_only": false, "sidewalk": false, "bridge": false, "ramp": false, "tunnel": false, "layer": 0, "deck": null }, "geometry": { "type": "LineString", "coordinates": [ [ 280516.87, 4158186.26 ], [ 280507.58, 4158190.83 ], [ 280500.0, 4158194.48 ] ] } },
{ "type": "Feature", "properties": { "id": "osm:way/1215878087", "name": "Douglasdale Road", "highway": "footway", "lanes": null, "width": 2.0, "oneway": false, "surface": null, "footway": "sidewalk", "sidewalk_left": false, "sidewalk_right": false, "generated_sidewalk": false, "bus_lanes": null, "bus_lane_side": null, "bus_only": false, "sidewalk": false, "bridge": false, "ramp": false, "tunnel": false, "layer": 0, "deck": null }, "geometry": { "type": "LineString", "coordinates": [ [ 280527.88, 4158202.06 ], [ 280500.0, 4158215.63 ] ] } },
{ "type": "Feature", "properties": { "id": "osm:way/425090348", "name": null, "highway": "service", "lanes": null, "width": 4.5, "oneway": false, "surface": null, "footway": null, "sidewalk_left": false, "sidewalk_right": false, "generated_sidewalk": false, "bus_lanes": null, "bus_lane_side": null, "bus_only": false, "sidewalk": false, "bridge": false, "ramp": false, "tunnel": false, "layer": 0, "deck": null }, "geometry": { "type": "LineString", "coordinates": [ [ 280534.95, 4158250.0 ], [ 280550.79, 4158242.58 ], [ 280556.33, 4158240.23 ], [ 280575.8, 4158231.8 ], [ 280648.7, 4158196.09 ] ] } },
{ "type": "Feature", "properties": { "id": "osm:way/750777302", "name": null, "highway": "footway", "lanes": null, "width": 2.0, "oneway": false, "surface": null, "footway": null, "sidewalk_left": false, "sidewalk_right": false, "generated_sidewalk": false, "bus_lanes": null, "bus_lane_side": null, "bus_only": false, "sidewalk": false, "bridge": false, "ramp": false, "tunnel": false, "layer": 0, "deck": null }, "geometry": { "type": "LineString", "coordinates": [ [ 280556.33, 4158240.23 ], [ 280560.6, 4158250.0 ] ] } },
{ "type": "Feature", "properties": { "id": "osm:way/267612031", "name": "Condie Street", "highway": "residential", "lanes": null, "width": 7.0, "oneway": true, "surface": "asphalt", "footway": null, "sidewalk_left": false, "sidewalk_right": null, "generated_sidewalk": true, "bus_lanes": null, "bus_lane_side": null, "bus_only": false, "sidewalk": false, "bridge": false, "ramp": false, "tunnel": false, "layer": 0, "deck": null }, "geometry": { "type": "LineString", "coordinates": [ [ 280659.3, 4158250.0 ], [ 280669.75, 4158244.94 ], [ 280720.09, 4158220.51 ], [ 280750.0, 4158205.89 ] ] } }
]
}
