{
"type": "FeatureCollection",
"name": "crossings",
"crs": { "type": "name", "properties": { "name": "urn:ogc:def:crs:EPSG::32618" } },
"xy_coordinate_resolution": 0.01,
"features": [
{ "type": "Feature", "properties": { "id": "osm:node/7039916167", "crossing": "traffic_signals", "crossing_markings": "lines", "road_id": "osm:way/268207606", "road_width": 11.0, "road_dx": 0.626162, "road_dy": 0.779693, "road_x": 283950.58, "road_y": 4158752.09, "foot_dx": 0.793145, "foot_dy": -0.609033, "crossing_island": false }, "geometry": { "type": "Point", "coordinates": [ 283950.58, 4158752.09 ] } },
{ "type": "Feature", "properties": { "id": "osm:node/7039916166", "crossing": "traffic_signals", "crossing_markings": "lines", "road_id": "osm:way/354923844", "road_width": 8.0, "road_dx": -0.796715, "road_dy": 0.604356, "road_x": 283963.68, "road_y": 4158753.55, "foot_dx": -0.621142, "foot_dy": -0.783698, "crossing_island": false }, "geometry": { "type": "Point", "coordinates": [ 283963.68, 4158753.55 ] } },
{ "type": "Feature", "properties": { "id": "osm:node/7039916164", "crossing": "uncontrolled", "crossing_markings": "lines", "road_id": "osm:way/751144937", "road_width": 7.0, "road_dx": 0.617468, "road_dy": 0.786596, "road_x": 283974.07, "road_y": 4158756.75, "foot_dx": 0.6873, "foot_dy": -0.726374, "crossing_island": false }, "geometry": { "type": "Point", "coordinates": [ 283974.07, 4158756.75 ] } },
{ "type": "Feature", "properties": { "id": "osm:node/11076363518", "crossing": "uncontrolled", "crossing_markings": "lines", "road_id": "osm:way/708552393", "road_width": 7.0, "road_dx": -0.623582, "road_dy": -0.781758, "road_x": 283757.23, "road_y": 4158757.96, "foot_dx": 0.754688, "foot_dy": -0.656084, "crossing_island": false }, "geometry": { "type": "Point", "coordinates": [ 283757.23, 4158757.96 ] } },
{ "type": "Feature", "properties": { "id": "osm:node/11115540541", "crossing": "uncontrolled", "crossing_markings": "lines", "road_id": "osm:way/711898051", "road_width": 8.0, "road_dx": 0.784888, "road_dy": -0.619638, "road_x": 283766.32, "road_y": 4158759.9, "foot_dx": 0.620435, "foot_dy": 0.784258, "crossing_island": false }, "geometry": { "type": "Point", "coordinates": [ 283765.59, 4158760.48 ] } },
{ "type": "Feature", "properties": { "id": "osm:node/7039916168", "crossing": "traffic_signals", "crossing_markings": "lines", "road_id": "osm:way/6039453", "road_width": 11.0, "road_dx": -0.624936, "road_dy": -0.780676, "road_x": 283936.73, "road_y": 4158762.72, "foot_dx": 0.793928, "foot_dy": -0.608011, "crossing_island": false }, "geometry": { "type": "Point", "coordinates": [ 283936.73, 4158762.72 ] } },
{ "type": "Feature", "properties": { "id": "osm:node/7039916163", "crossing": "traffic_signals", "crossing_markings": "lines", "road_id": "osm:way/708552392", "road_width": 11.0, "road_dx": 0.589588, "road_dy": 0.807705, "road_x": 283961.93, "road_y": 4158766.59, "foot_dx": 0.776826, "foot_dy": -0.629715, "crossing_island": false }, "geometry": { "type": "Point", "coordinates": [ 283961.93, 4158766.59 ] } },
{ "type": "Feature", "properties": { "id": "osm:node/7039916171", "crossing": "uncontrolled", "crossing_markings": "lines", "road_id": "osm:way/6038730", "road_width": 7.0, "road_dx": -0.624032, "road_dy": -0.781399, "road_x": 283925.76, "road_y": 4158772.79, "foot_dx": 0.81128, "foot_dy": -0.584658, "crossing_island": false }, "geometry": { "type": "Point", "coordinates": [ 283925.76, 4158772.79 ] } },
{ "type": "Feature", "properties": { "id": "osm:node/7039916169", "crossing": "traffic_signals", "crossing_markings": "lines", "road_id": "osm:way/711885373", "road_width": 8.0, "road_dx": -0.77849, "road_dy": 0.627658, "road_x": 283935.67, "road_y": 4158775.35, "foot_dx": 0.604617, "foot_dy": 0.796516, "crossing_island": false }, "geometry": { "type": "Point", "coordinates": [ 283935.67, 4158775.35 ] } },
{ "type": "Feature", "properties": { "id": "osm:node/7039916162", "crossing": "traffic_signals", "crossing_markings": "lines", "road_id": "osm:way/6039453", "road_width": 11.0, "road_dx": -0.620029, "road_dy": -0.784579, "road_x": 283948.46, "road_y": 4158777.5, "foot_dx": 0.777015, "foot_dy": -0.629482, "crossing_island": false }, "geometry": { "type": "Point", "coordinates": [ 283948.46, 4158777.5 ] } },
{ "type": "Feature", "properties": { "id": "osm:node/11076308504", "crossing": "unmarked", "crossing_markings": "no", "road_id": null, "road_width": null, "road_dx": null, "road_dy": null, "road_x": null, "road_y": null, "foot_dx": null, "foot_dy": null, "crossing_island": false }, "geometry": { "type": "Point", "coordinates": [ 283997.71, 4158780.94 ] } },
{ "type": "Feature", "properties": { "id": "osm:node/13658525011", "crossing": "uncontrolled", "crossing_markings": "lines", "road_id": "osm:way/711885373", "road_width": 8.0, "road_dx": -0.798365, "road_dy": 0.602174, "road_x": 283926.15, "road_y": 4158782.73, "foot_dx": 0.647074, "foot_dy": 0.762427, "crossing_island": false }, "geometry": { "type": "Point", "coordinates": [ 283926.88, 4158782.17 ] } },
{ "type": "Feature", "properties": { "id": "osm:node/7039916170", "crossing": "uncontrolled", "crossing_markings": "lines", "road_id": "osm:way/6038730", "road_width": 7.0, "road_dx": -0.588319, "road_dy": -0.808629, "road_x": 283936.64, "road_y": 4158786.54, "foot_dx": -0.792756, "foot_dy": 0.609539, "crossing_island": false }, "geometry": { "type": "Point", "coordinates": [ 283936.64, 4158786.54 ] } },
{ "type": "Feature", "properties": { "id": "osm:node/11115540568", "crossing": "unmarked", "crossing_markings": "no", "road_id": null, "road_width": null, "road_dx": null, "road_dy": null, "road_x": null, "road_y": null, "foot_dx": null, "foot_dy": null, "crossing_island": false }, "geometry": { "type": "Point", "coordinates": [ 283954.18, 4158815.51 ] } },
{ "type": "Feature", "properties": { "id": "osm:node/11115540575", "crossing": "unmarked", "crossing_markings": "no", "road_id": "osm:way/6040234", "road_width": 7.0, "road_dx": -0.785227, "road_dy": 0.619208, "road_x": 283976.15, "road_y": 4158846.4, "foot_dx": 0.622332, "foot_dy": 0.782753, "crossing_island": false }, "geometry": { "type": "Point", "coordinates": [ 283977.59, 4158845.27 ] } },
{ "type": "Feature", "properties": { "id": "osm:node/11115540544", "crossing": "uncontrolled", "crossing_markings": "lines", "road_id": "osm:way/711898051", "road_width": 8.0, "road_dx": 0.781182, "road_dy": -0.624303, "road_x": 283757.08, "road_y": 4158767.24, "foot_dx": 0.608936, "foot_dy": 0.793219, "crossing_island": false }, "geometry": { "type": "Point", "coordinates": [ 283757.74, 4158766.71 ] } },
{ "type": "Feature", "properties": { "id": "osm:node/13658525008", "crossing": "uncontrolled", "crossing_markings": "lines", "road_id": "osm:way/708552393", "road_width": 7.0, "road_dx": -0.621481, "road_dy": -0.783429, "road_x": 283766.41, "road_y": 4158769.51, "foot_dx": 0.747694, "foot_dy": -0.664043, "crossing_island": false }, "geometry": { "type": "Point", "coordinates": [ 283766.41, 4158769.51 ] } },
{ "type": "Feature", "properties": { "id": "osm:node/11115540557", "crossing": "unmarked", "crossing_markings": "no", "road_id": null, "road_width": null, "road_dx": null, "road_dy": null, "road_x": null, "road_y": null, "foot_dx": null, "foot_dy": null, "crossing_island": false }, "geometry": { "type": "Point", "coordinates": [ 283800.62, 4158806.37 ] } },
{ "type": "Feature", "properties": { "id": "osm:node/11115540550", "crossing": "unmarked", "crossing_markings": "no", "road_id": "osm:way/708552393", "road_width": 7.0, "road_dx": -0.621481, "road_dy": -0.783429, "road_x": 283797.55, "road_y": 4158808.76, "foot_dx": 0.140957, "foot_dy": 0.990016, "crossing_island": false }, "geometry": { "type": "Point", "coordinates": [ 283794.17, 4158811.45 ] } },
{ "type": "Feature", "properties": { "id": "osm:node/11115540554", "crossing": "marked", "crossing_markings": "yes", "road_id": "osm:way/708552393", "road_width": 7.0, "road_dx": -0.636368, "road_dy": -0.771385, "road_x": 283830.91, "road_y": 4158849.26, "foot_dx": 0.659928, "foot_dy": -0.751329, "crossing_island": false }, "geometry": { "type": "Point", "coordinates": [ 283830.91, 4158849.26 ] } },
{ "type": "Feature", "properties": { "id": "osm:node/11115540581", "crossing": "marked", "crossing_markings": "yes", "road_id": "osm:way/711885371", "road_width": 8.0, "road_dx": -0.787792, "road_dy": 0.615942, "road_x": 283840.1, "road_y": 4158851.12, "foot_dx": 0.677577, "foot_dy": 0.735452, "crossing_island": false }, "geometry": { "type": "Point", "coordinates": [ 283838.57, 4158852.31 ] } },
{ "type": "Feature", "properties": { "id": "osm:node/11135274128", "crossing": "marked", "crossing_markings": "yes", "road_id": "osm:way/711885371", "road_width": 8.0, "road_dx": -0.777641, "road_dy": 0.628709, "road_x": 283830.9, "road_y": 4158858.51, "foot_dx": 0.625078, "foot_dy": 0.780562, "crossing_island": false }, "geometry": { "type": "Point", "coordinates": [ 283831.2, 4158858.27 ] } },
{ "type": "Feature", "properties": { "id": "osm:node/11135274129", "crossing": "marked", "crossing_markings": "yes", "road_id": "osm:way/708552393", "road_width": 7.0, "road_dx": -0.594113, "road_dy": -0.804382, "road_x": 283841.36, "road_y": 4158862.75, "foot_dx": 0.827123, "foot_dy": -0.562021, "crossing_island": false }, "geometry": { "type": "Point", "coordinates": [ 283841.36, 4158862.75 ] } },
{ "type": "Feature", "properties": { "id": "osm:node/11115540570", "crossing": "unmarked", "crossing_markings": "no", "road_id": null, "road_width": null, "road_dx": null, "road_dy": null, "road_x": null, "road_y": null, "foot_dx": null, "foot_dy": null, "crossing_island": false }, "geometry": { "type": "Point", "coordinates": [ 283863.13, 4158885.38 ] } },
{ "type": "Feature", "properties": { "id": "osm:node/11135274107", "crossing": "unmarked", "crossing_markings": "no", "road_id": null, "road_width": null, "road_dx": null, "road_dy": null, "road_x": null, "road_y": null, "foot_dx": null, "foot_dy": null, "crossing_island": false }, "geometry": { "type": "Point", "coordinates": [ 283858.13, 4158892.03 ] } },
{ "type": "Feature", "properties": { "id": "osm:node/11135274113", "crossing": "unmarked", "crossing_markings": "no", "road_id": "osm:way/708552393", "road_width": 7.0, "road_dx": -0.628186, "road_dy": -0.778064, "road_x": 283881.01, "road_y": 4158914.02, "foot_dx": 0.764074, "foot_dy": -0.645128, "crossing_island": false }, "geometry": { "type": "Point", "coordinates": [ 283881.89, 4158915.11 ] } },
{ "type": "Feature", "properties": { "id": "osm:node/11135274112", "crossing": "unmarked", "crossing_markings": "no", "road_id": "osm:way/6040234", "road_width": 7.0, "road_dx": -0.785742, "road_dy": 0.618554, "road_x": 283889.1, "road_y": 4158914.93, "foot_dx": -0.603298, "foot_dy": -0.797516, "crossing_island": false }, "geometry": { "type": "Point", "coordinates": [ 283887.59, 4158916.12 ] } },
{ "type": "Feature", "properties": { "id": "osm:node/11135274111", "crossing": "unmarked", "crossing_markings": "no", "road_id": "osm:way/6040234", "road_width": 7.0, "road_dx": -0.780747, "road_dy": 0.624848, "road_x": 283880.14, "road_y": 4158922.05, "foot_dx": -0.638027, "foot_dy": -0.770014, "crossing_island": false }, "geometry": { "type": "Point", "coordinates": [ 283881.02, 4158921.34 ] } },
{ "type": "Feature", "properties": { "id": "osm:node/11135274114", "crossing": "unmarked", "crossing_markings": "no", "road_id": "osm:way/708552393", "road_width": 7.0, "road_dx": -0.62166, "road_dy": -0.783287, "road_x": 283888.17, "road_y": 4158922.95, "foot_dx": 0.748894, "foot_dy": -0.66269, "crossing_island": false }, "geometry": { "type": "Point", "coordinates": [ 283887.78, 4158922.46 ] } },
{ "type": "Feature", "properties": { "id": "osm:node/11135266875", "crossing": "marked", "crossing_markings": "yes", "road_id": "osm:way/711893778", "road_width": 7.0, "road_dx": 0.603147, "road_dy": 0.79763, "road_x": 283756.45, "road_y": 4158908.08, "foot_dx": 0.812711, "foot_dy": -0.582668, "crossing_island": false }, "geometry": { "type": "Point", "coordinates": [ 283756.45, 4158908.08 ] } },
{ "type": "Feature", "properties": { "id": "osm:node/11135266873", "crossing": "marked", "crossing_markings": "yes", "road_id": "osm:way/708552396", "road_width": 8.0, "road_dx": -0.774341, "road_dy": 0.632769, "road_x": 283765.44, "road_y": 4158910.2, "foot_dx": -0.628681, "foot_dy": -0.777663, "crossing_island": false }, "geometry": { "type": "Point", "coordinates": [ 283765.0, 4158910.56 ] } },
{ "type": "Feature", "properties": { "id": "osm:node/11135266874", "crossing": "marked", "crossing_markings": "yes", "road_id": "osm:way/708552396", "road_width": 8.0, "road_dx": -0.791845, "road_dy": 0.610722, "road_x": 283755.4, "road_y": 4158918.15, "foot_dx": -0.622245, "foot_dy": -0.782823, "crossing_island": false }, "geometry": { "type": "Point", "coordinates": [ 283755.4, 4158918.15 ] } },
{ "type": "Feature", "properties": { "id": "osm:node/11135274153", "crossing": "marked", "crossing_markings": "yes", "road_id": "osm:way/711893778", "road_width": 7.0, "road_dx": 0.615346, "road_dy": 0.788257, "road_x": 283766.61, "road_y": 4158921.28, "foot_dx": 0.772371, "foot_dy": -0.635171, "crossing_island": false }, "geometry": { "type": "Point", "coordinates": [ 283766.61, 4158921.28 ] } },
{ "type": "Feature", "properties": { "id": "osm:node/11135274149", "crossing": "unmarked", "crossing_markings": "no", "road_id": null, "road_width": null, "road_dx": null, "road_dy": null, "road_x": null, "road_y": null, "foot_dx": null, "foot_dy": null, "crossing_island": false }, "geometry": { "type": "Point", "coordinates": [ 283791.76, 4158945.44 ] } },
{ "type": "Feature", "properties": { "id": "osm:node/11135274135", "crossing": "unmarked", "crossing_markings": "no", "road_id": null, "road_width": null, "road_dx": null, "road_dy": null, "road_x": null, "road_y": null, "foot_dx": null, "foot_dy": null, "crossing_island": false }, "geometry": { "type": "Point", "coordinates": [ 283783.76, 4158951.56 ] } },
{ "type": "Feature", "properties": { "id": "osm:node/11135274150", "crossing": "unmarked", "crossing_markings": "no", "road_id": "osm:way/712527995", "road_width": 7.0, "road_dx": 0.619818, "road_dy": 0.784745, "road_x": 283808.07, "road_y": 4158972.5, "foot_dx": 0.779274, "foot_dy": -0.626683, "crossing_island": false }, "geometry": { "type": "Point", "coordinates": [ 283808.66, 4158973.24 ] } },
{ "type": "Feature", "properties": { "id": "osm:node/11135274152", "crossing": "unmarked", "crossing_markings": "no", "road_id": "osm:way/6040234", "road_width": 7.0, "road_dx": -0.780161, "road_dy": 0.625579, "road_x": 283816.1, "road_y": 4158973.4, "foot_dx": 0.5908, "foot_dy": 0.806818, "crossing_island": false }, "geometry": { "type": "Point", "coordinates": [ 283814.61, 4158974.6 ] } },
{ "type": "Feature", "properties": { "id": "osm:node/11135274126", "crossing": "unmarked", "crossing_markings": "no", "road_id": "osm:way/712527995", "road_width": 7.0, "road_dx": 0.619201, "road_dy": 0.785233, "road_x": 283815.18, "road_y": 4158981.48, "foot_dx": 0.736559, "foot_dy": -0.676373, "crossing_island": false }, "geometry": { "type": "Point", "coordinates": [ 283814.42, 4158980.52 ] } },
{ "type": "Feature", "properties": { "id": "osm:node/11135266854", "crossing": "unmarked", "crossing_markings": "no", "road_id": null, "road_width": null, "road_dx": null, "road_dy": null, "road_x": null, "road_y": null, "foot_dx": null, "foot_dy": null, "crossing_island": false }, "geometry": { "type": "Point", "coordinates": [ 283911.53, 4158946.19 ] } },
{ "type": "Feature", "properties": { "id": "osm:node/11135266893", "crossing": "unmarked", "crossing_markings": "no", "road_id": null, "road_width": null, "road_dx": null, "road_dy": null, "road_x": null, "road_y": null, "foot_dx": null, "foot_dy": null, "crossing_island": false }, "geometry": { "type": "Point", "coordinates": [ 283905.05, 4158951.34 ] } },
{ "type": "Feature", "properties": { "id": "osm:node/11135274110", "crossing": "marked", "crossing_markings": "yes", "road_id": "osm:way/60824303", "road_width": 7.0, "road_dx": 0.620078, "road_dy": 0.78454, "road_x": 283927.0, "road_y": 4158971.88, "foot_dx": 0.78738, "foot_dy": -0.616468, "crossing_island": false }, "geometry": { "type": "Point", "coordinates": [ 283927.0, 4158971.88 ] } },
{ "type": "Feature", "properties": { "id": "osm:node/11135274109", "crossing": "traffic_signals", "crossing_markings": null, "road_id": "osm:way/1377396882", "road_width": 13.2, "road_dx": -0.797965, "road_dy": 0.602703, "road_x": 283926.89, "road_y": 4158985.26, "foot_dx": 0.616636, "foot_dy": 0.787248, "crossing_island": false }, "geometry": { "type": "Point", "coordinates": [ 283926.89, 4158985.26 ] } },
{ "type": "Feature", "properties": { "id": "osm:node/10253767420", "crossing": "traffic_signals", "crossing_markings": null, "road_id": "osm:way/601102845", "road_width": 9.9, "road_dx": -0.606963, "road_dy": -0.79473, "road_x": 283939.98, "road_y": 4158988.5, "foot_dx": -0.785034, "foot_dy": 0.619452, "crossing_island": false }, "geometry": { "type": "Point", "coordinates": [ 283939.98, 4158988.5 ] } },
{ "type": "Feature", "properties": { "id": "osm:node/11135274151", "crossing": "unmarked", "crossing_markings": "no", "road_id": "osm:way/6040234", "road_width": 7.0, "road_dx": -0.787574, "road_dy": 0.61622, "road_x": 283806.88, "road_y": 4158980.7, "foot_dx": 0.595725, "foot_dy": 0.803189, "crossing_island": false }, "geometry": { "type": "Point", "coordinates": [ 283806.88, 4158980.7 ] } }
]
}
