{
"type": "FeatureCollection",
"name": "landuse",
"crs": { "type": "name", "properties": { "name": "urn:ogc:def:crs:EPSG::32618" } },
"xy_coordinate_resolution": 0.01,
"features": [
{ "type": "Feature", "properties": { "id": "imagery:groundcover_paved:2792", "name": null, "kind": "groundcover_paved", "sport": null, "surface": null, "pitch_layout": null, "source": "vgin_vbmp+naip+lidar2025", "source_updated": null, "base_z": null, "top_z": null }, "geometry": { "type": "MultiPolygon", "coordinates": [ [ [ [ 282171.55, 4160504.91 ], [ 282167.47, 4160500.0 ], [ 282157.56, 4160500.0 ], [ 282150.11, 4160505.93 ], [ 282157.33, 4160517.19 ], [ 282172.92, 4160506.05 ], [ 282172.62, 4160505.87 ], [ 282172.24, 4160505.58 ], [ 282171.88, 4160505.26 ], [ 282171.55, 4160504.91 ] ] ], [ [ [ 282196.12, 4160500.0 ], [ 282187.45, 4160500.0 ], [ 282176.48, 4160507.93 ], [ 282176.47, 4160507.94 ], [ 282159.28, 4160520.22 ], [ 282160.8, 4160522.6 ], [ 282178.76, 4160512.63 ], [ 282178.89, 4160512.05 ], [ 282179.13, 4160511.36 ], [ 282179.43, 4160510.7 ], [ 282179.79, 4160510.07 ], [ 282180.21, 4160509.48 ], [ 282180.69, 4160508.94 ], [ 282181.22, 4160508.44 ], [ 282181.8, 4160508.0 ], [ 282182.42, 4160507.62 ], [ 282185.35, 4160506.0 ], [ 282187.43, 4160504.83 ], [ 282187.46, 4160504.81 ], [ 282196.12, 4160500.0 ] ] ], [ [ [ 282135.16, 4160518.18 ], [ 282134.86, 4160518.18 ], [ 282134.56, 4160518.15 ], [ 282134.27, 4160518.08 ], [ 282133.98, 4160518.0 ], [ 282133.71, 4160517.88 ], [ 282133.44, 4160517.74 ], [ 282133.2, 4160517.57 ], [ 282132.97, 4160517.38 ], [ 282132.76, 4160517.17 ], [ 282132.57, 4160516.93 ], [ 282132.4, 4160516.68 ], [ 282132.26, 4160516.42 ], [ 282132.15, 4160516.14 ], [ 282132.06, 4160515.85 ], [ 282132.01, 4160515.56 ], [ 282131.98, 4160515.26 ], [ 282131.98, 4160514.96 ], [ 282132.01, 4160514.66 ], [ 282132.07, 4160514.37 ], [ 282132.16, 4160514.09 ], [ 282132.28, 4160513.81 ], [ 282132.42, 4160513.55 ], [ 282132.59, 4160513.3 ], [ 282132.78, 4160513.07 ], [ 282132.99, 4160512.86 ], [ 282144.02, 4160502.99 ], [ 282144.16, 4160502.87 ], [ 282147.76, 4160500.0 ], [ 282138.77, 4160500.0 ], [ 282138.31, 4160504.01 ], [ 282138.23, 4160504.49 ], [ 282138.1, 4160504.96 ], [ 282137.93, 4160505.42 ], [ 282137.72, 4160505.85 ], [ 282137.46, 4160506.27 ], [ 282137.17, 4160506.65 ], [ 282136.84, 4160507.01 ], [ 282136.48, 4160507.33 ], [ 282136.08, 4160507.62 ], [ 282135.66, 4160507.87 ], [ 282135.22, 4160508.07 ], [ 282134.76, 4160508.23 ], [ 282134.32, 4160508.34 ], [ 282132.6, 4160511.77 ], [ 282132.34, 4160512.23 ], [ 282132.03, 4160512.66 ], [ 282131.68, 4160513.05 ], [ 282131.29, 4160513.41 ], [ 282130.86, 4160513.76 ], [ 282132.1, 4160522.42 ], [ 282133.08, 4160523.63 ], [ 282137.26, 4160527.14 ], [ 282141.65, 4160527.5 ], [ 282147.56, 4160524.17 ], [ 282152.36, 4160520.74 ], [ 282145.42, 4160509.92 ], [ 282137.06, 4160517.4 ], [ 282136.83, 4160517.59 ], [ 282136.58, 4160517.76 ], [ 282136.32, 4160517.9 ], [ 282136.04, 4160518.01 ], [ 282135.75, 4160518.09 ], [ 282135.46, 4160518.15 ], [ 282135.16, 4160518.18 ] ] ], [ [ [ 282174.71, 4160566.47 ], [ 282174.43, 4160566.36 ], [ 282174.16, 4160566.22 ], [ 282173.91, 4160566.06 ], [ 282173.67, 4160565.87 ], [ 282173.45, 4160565.66 ], [ 282173.25, 4160565.43 ], [ 282173.08, 4160565.18 ], [ 282172.94, 4160564.91 ], [ 282172.82, 4160564.63 ], [ 282172.73, 4160564.34 ], [ 282172.67, 4160564.04 ], [ 282172.63, 4160563.74 ], [ 282172.63, 4160563.44 ], [ 282172.66, 4160563.14 ], [ 282172.72, 4160562.84 ], [ 282177.51, 4160543.73 ], [ 282177.59, 4160543.45 ], [ 282177.71, 4160543.17 ], [ 282177.85, 4160542.9 ], [ 282178.02, 4160542.66 ], [ 282178.21, 4160542.42 ], [ 282178.42, 4160542.21 ], [ 282178.65, 4160542.02 ], [ 282178.9, 4160541.85 ], [ 282179.17, 4160541.71 ], [ 282179.45, 4160541.6 ], [ 282179.74, 4160541.51 ], [ 282180.03, 4160541.46 ], [ 282180.33, 4160541.43 ], [ 282180.63, 4160541.43 ], [ 282180.93, 4160541.46 ], [ 282181.22, 4160541.52 ], [ 282190.12, 4160543.81 ], [ 282190.13, 4160543.81 ], [ 282197.17, 4160545.64 ], [ 282196.29, 4160533.51 ], [ 282189.65, 4160520.53 ], [ 282189.59, 4160520.56 ], [ 282188.94, 4160520.89 ], [ 282188.26, 4160521.14 ], [ 282187.56, 4160521.33 ], [ 282186.84, 4160521.44 ], [ 282186.12, 4160521.49 ], [ 282185.39, 4160521.47 ], [ 282184.67, 4160521.37 ], [ 282183.96, 4160521.21 ], [ 282183.42, 4160521.02 ], [ 282163.06, 4160532.33 ], [ 282157.41, 4160535.47 ], [ 282157.87, 4160535.71 ], [ 282159.77, 4160537.86 ], [ 282160.13, 4160538.82 ], [ 282160.13, 4160547.52 ], [ 282159.43, 4160548.73 ], [ 282156.29, 4160550.5 ], [ 282154.89, 4160550.48 ], [ 282152.5, 4160549.05 ], [ 282160.86, 4160558.89 ], [ 282162.71, 4160557.05 ], [ 282163.63, 4160556.67 ], [ 282164.35, 4160556.9 ], [ 282166.43, 4160558.4 ], [ 282166.96, 4160559.12 ], [ 282167.59, 4160560.99 ], [ 282167.39, 4160562.26 ], [ 282165.71, 4160564.6 ], [ 282178.06, 4160579.13 ], [ 282182.58, 4160575.44 ], [ 282189.34, 4160569.74 ], [ 282183.92, 4160568.57 ], [ 282183.91, 4160568.57 ], [ 282183.89, 4160568.56 ], [ 282175.01, 4160566.55 ], [ 282174.71, 4160566.47 ] ], [ [ 282181.13, 4160527.22 ], [ 282181.55, 4160526.2 ], [ 282183.71, 4160524.05 ], [ 282184.73, 4160523.63 ], [ 282186.53, 4160523.63 ], [ 282187.55, 4160524.05 ], [ 282189.71, 4160526.2 ], [ 282190.13, 4160527.22 ], [ 282190.13, 4160529.03 ], [ 282189.71, 4160530.05 ], [ 282187.55, 4160532.2 ], [ 282186.53, 4160532.63 ], [ 282184.73, 4160532.63 ], [ 282183.71, 4160532.2 ], [ 282181.55, 4160530.05 ], [ 282181.13, 4160529.03 ], [ 282181.13, 4160527.22 ] ] ], [ [ [ 282178.18, 4160593.06 ], [ 282178.31, 4160593.03 ], [ 282173.99, 4160587.64 ], [ 282173.41, 4160586.95 ], [ 282138.46, 4160545.8 ], [ 282091.47, 4160568.88 ], [ 282097.23, 4160581.03 ], [ 282097.73, 4160582.07 ], [ 282099.15, 4160581.4 ], [ 282096.64, 4160576.26 ], [ 282143.68, 4160552.84 ], [ 282166.5, 4160602.31 ], [ 282176.47, 4160593.99 ], [ 282176.86, 4160593.7 ], [ 282177.28, 4160593.44 ], [ 282177.72, 4160593.23 ], [ 282178.18, 4160593.06 ] ] ], [ [ [ 282067.82, 4160592.71 ], [ 282067.91, 4160592.43 ], [ 282068.03, 4160592.15 ], [ 282068.17, 4160591.89 ], [ 282068.28, 4160591.72 ], [ 282065.35, 4160585.34 ], [ 282085.74, 4160576.55 ], [ 282089.07, 4160581.51 ], [ 282090.41, 4160580.88 ], [ 282085.97, 4160571.51 ], [ 282082.75, 4160573.02 ], [ 282082.45, 4160573.46 ], [ 282082.09, 4160573.89 ], [ 282081.69, 4160574.29 ], [ 282081.25, 4160574.65 ], [ 282080.78, 4160574.96 ], [ 282080.28, 4160575.22 ], [ 282055.35, 4160586.88 ], [ 282050.24, 4160589.27 ], [ 282049.89, 4160589.42 ], [ 282046.46, 4160590.75 ], [ 282046.2, 4160590.85 ], [ 282043.83, 4160591.64 ], [ 282044.1, 4160592.22 ], [ 282050.87, 4160606.86 ], [ 282050.92, 4160606.61 ], [ 282051.06, 4160606.14 ], [ 282051.25, 4160605.69 ], [ 282051.49, 4160605.26 ], [ 282051.76, 4160604.85 ], [ 282052.08, 4160604.47 ], [ 282052.43, 4160604.12 ], [ 282052.81, 4160603.82 ], [ 282053.22, 4160603.54 ], [ 282053.65, 4160603.32 ], [ 282069.21, 4160596.08 ], [ 282068.96, 4160595.91 ], [ 282068.73, 4160595.72 ], [ 282068.52, 4160595.51 ], [ 282068.33, 4160595.27 ], [ 282068.16, 4160595.02 ], [ 282068.02, 4160594.76 ], [ 282067.91, 4160594.48 ], [ 282067.82, 4160594.2 ], [ 282067.76, 4160593.9 ], [ 282067.73, 4160593.6 ], [ 282067.74, 4160593.31 ], [ 282067.77, 4160593.01 ], [ 282067.82, 4160592.71 ] ] ], [ [ [ 282122.68, 4160656.48 ], [ 282123.17, 4160656.43 ], [ 282123.66, 4160656.44 ], [ 282124.15, 4160656.49 ], [ 282124.63, 4160656.59 ], [ 282125.1, 4160656.73 ], [ 282125.55, 4160656.92 ], [ 282125.98, 4160657.16 ], [ 282126.38, 4160657.43 ], [ 282126.76, 4160657.74 ], [ 282126.98, 4160657.97 ], [ 282124.62, 4160652.99 ], [ 282116.74, 4160636.38 ], [ 282108.88, 4160619.81 ], [ 282101.19, 4160603.59 ], [ 282093.54, 4160587.45 ], [ 282093.03, 4160586.39 ], [ 282092.51, 4160586.63 ], [ 282092.9, 4160587.22 ], [ 282112.23, 4160628.03 ], [ 282106.31, 4160630.94 ], [ 282118.97, 4160657.97 ], [ 282121.28, 4160656.89 ], [ 282121.73, 4160656.71 ], [ 282122.2, 4160656.57 ], [ 282122.68, 4160656.48 ] ] ], [ [ [ 282169.75, 4160642.57 ], [ 282136.74, 4160658.31 ], [ 282133.69, 4160652.07 ], [ 282131.44, 4160653.13 ], [ 282137.17, 4160665.2 ], [ 282161.49, 4160654.7 ], [ 282173.95, 4160648.65 ], [ 282168.02, 4160635.77 ], [ 282166.91, 4160636.3 ], [ 282169.75, 4160642.57 ] ] ], [ [ [ 282161.11, 4160661.51 ], [ 282139.78, 4160670.72 ], [ 282149.72, 4160691.69 ], [ 282150.09, 4160691.01 ], [ 282146.4, 4160683.32 ], [ 282154.3, 4160669.01 ], [ 282162.5, 4160664.92 ], [ 282161.11, 4160661.51 ] ] ], [ [ [ 282057.68, 4160686.81 ], [ 282057.76, 4160687.28 ], [ 282057.81, 4160687.76 ], [ 282057.8, 4160688.24 ], [ 282057.75, 4160688.71 ], [ 282057.66, 4160689.18 ], [ 282057.52, 4160689.64 ], [ 282057.34, 4160690.08 ], [ 282057.12, 4160690.5 ], [ 282056.85, 4160690.9 ], [ 282056.55, 4160691.27 ], [ 282056.22, 4160691.62 ], [ 282055.86, 4160691.92 ], [ 282055.46, 4160692.2 ], [ 282055.05, 4160692.43 ], [ 282054.61, 4160692.62 ], [ 282050.79, 4160694.1 ], [ 282050.31, 4160695.15 ], [ 282052.41, 4160701.45 ], [ 282058.84, 4160698.34 ], [ 282058.55, 4160698.05 ], [ 282058.13, 4160697.03 ], [ 282058.13, 4160695.22 ], [ 282058.55, 4160694.2 ], [ 282060.71, 4160692.05 ], [ 282061.73, 4160691.63 ], [ 282063.18, 4160691.63 ], [ 282053.07, 4160670.02 ], [ 282052.89, 4160670.24 ], [ 282052.54, 4160670.59 ], [ 282052.14, 4160670.91 ], [ 282051.73, 4160671.18 ], [ 282051.28, 4160671.41 ], [ 282049.13, 4160672.38 ], [ 282049.13, 4160673.21 ], [ 282049.16, 4160673.22 ], [ 282049.65, 4160673.31 ], [ 282050.12, 4160673.46 ], [ 282050.58, 4160673.66 ], [ 282051.02, 4160673.9 ], [ 282051.43, 4160674.18 ], [ 282051.81, 4160674.5 ], [ 282052.16, 4160674.86 ], [ 282052.47, 4160675.25 ], [ 282052.74, 4160675.67 ], [ 282052.97, 4160676.11 ], [ 282057.37, 4160685.91 ], [ 282057.55, 4160686.35 ], [ 282057.68, 4160686.81 ] ] ], [ [ [ 282225.86, 4160501.87 ], [ 282228.65, 4160506.87 ], [ 282231.89, 4160512.67 ], [ 282232.55, 4160512.12 ], [ 282234.57, 4160500.0 ], [ 282228.75, 4160500.0 ], [ 282228.14, 4160500.49 ], [ 282227.85, 4160500.71 ], [ 282227.54, 4160500.9 ], [ 282225.86, 4160501.87 ] ] ], [ [ [ 282237.93, 4160550.63 ], [ 282238.88, 4160550.98 ], [ 282225.58, 4160526.63 ], [ 282223.73, 4160526.63 ], [ 282222.71, 4160526.2 ], [ 282221.62, 4160525.11 ], [ 282217.92, 4160524.68 ], [ 282216.65, 4160528.18 ], [ 282224.75, 4160552.47 ], [ 282224.71, 4160553.22 ], [ 282225.95, 4160555.8 ], [ 282226.31, 4160556.06 ], [ 282228.07, 4160556.63 ], [ 282229.13, 4160556.63 ], [ 282231.9, 4160554.77 ], [ 282232.55, 4160553.2 ], [ 282234.71, 4160551.05 ], [ 282235.73, 4160550.63 ], [ 282237.93, 4160550.63 ] ] ], [ [ [ 282214.71, 4160522.78 ], [ 282218.07, 4160523.86 ], [ 282220.13, 4160521.01 ], [ 282220.13, 4160518.22 ], [ 282220.55, 4160517.2 ], [ 282222.71, 4160515.05 ], [ 282223.73, 4160514.63 ], [ 282225.99, 4160514.63 ], [ 282223.32, 4160509.84 ], [ 282220.25, 4160504.34 ], [ 282212.03, 4160506.53 ], [ 282211.94, 4160506.72 ], [ 282211.58, 4160507.35 ], [ 282211.16, 4160507.94 ], [ 282210.68, 4160508.48 ], [ 282210.15, 4160508.98 ], [ 282209.57, 4160509.42 ], [ 282208.96, 4160509.8 ], [ 282194.99, 4160517.56 ], [ 282202.01, 4160531.29 ], [ 282202.13, 4160531.57 ], [ 282202.23, 4160531.86 ], [ 282202.3, 4160532.15 ], [ 282202.33, 4160532.46 ], [ 282203.4, 4160547.31 ], [ 282211.83, 4160549.73 ], [ 282211.9, 4160549.75 ], [ 282211.98, 4160549.77 ], [ 282212.04, 4160549.8 ], [ 282212.11, 4160549.82 ], [ 282212.18, 4160549.85 ], [ 282212.25, 4160549.88 ], [ 282212.32, 4160549.92 ], [ 282212.39, 4160549.95 ], [ 282212.45, 4160549.98 ], [ 282212.52, 4160550.02 ], [ 282212.58, 4160550.06 ], [ 282212.64, 4160550.1 ], [ 282212.71, 4160550.14 ], [ 282212.77, 4160550.18 ], [ 282212.83, 4160550.23 ], [ 282212.89, 4160550.27 ], [ 282212.94, 4160550.32 ], [ 282213.0, 4160550.37 ], [ 282213.06, 4160550.42 ], [ 282213.11, 4160550.47 ], [ 282213.16, 4160550.52 ], [ 282213.22, 4160550.58 ], [ 282213.27, 4160550.63 ], [ 282213.32, 4160550.69 ], [ 282213.36, 4160550.75 ], [ 282213.41, 4160550.81 ], [ 282213.45, 4160550.87 ], [ 282213.5, 4160550.92 ], [ 282213.54, 4160550.99 ], [ 282213.58, 4160551.05 ], [ 282213.62, 4160551.12 ], [ 282213.66, 4160551.18 ], [ 282213.69, 4160551.25 ], [ 282213.73, 4160551.31 ], [ 282213.76, 4160551.38 ], [ 282213.79, 4160551.45 ], [ 282213.82, 4160551.52 ], [ 282213.85, 4160551.59 ], [ 282213.87, 4160551.66 ], [ 282213.89, 4160551.73 ], [ 282213.91, 4160551.8 ], [ 282213.94, 4160551.87 ], [ 282213.95, 4160551.95 ], [ 282213.97, 4160552.02 ], [ 282213.98, 4160552.09 ], [ 282214.0, 4160552.17 ], [ 282214.01, 4160552.24 ], [ 282214.02, 4160552.31 ], [ 282214.02, 4160552.39 ], [ 282214.03, 4160552.46 ], [ 282214.03, 4160552.54 ], [ 282214.04, 4160552.61 ], [ 282214.04, 4160552.69 ], [ 282214.04, 4160552.76 ], [ 282214.03, 4160552.84 ], [ 282214.03, 4160552.91 ], [ 282214.02, 4160552.99 ], [ 282214.01, 4160553.06 ], [ 282214.0, 4160553.13 ], [ 282213.99, 4160553.21 ], [ 282213.97, 4160553.28 ], [ 282213.96, 4160553.36 ], [ 282209.79, 4160571.08 ], [ 282209.76, 4160571.19 ], [ 282209.73, 4160571.31 ], [ 282209.72, 4160571.34 ], [ 282209.71, 4160571.36 ], [ 282209.66, 4160571.48 ], [ 282209.62, 4160571.59 ], [ 282209.61, 4160571.62 ], [ 282209.6, 4160571.64 ], [ 282209.54, 4160571.75 ], [ 282209.49, 4160571.86 ], [ 282209.47, 4160571.88 ], [ 282209.46, 4160571.91 ], [ 282209.4, 4160572.01 ], [ 282209.33, 4160572.11 ], [ 282209.31, 4160572.14 ], [ 282209.3, 4160572.16 ], [ 282209.22, 4160572.25 ], [ 282209.15, 4160572.35 ], [ 282209.13, 4160572.37 ], [ 282209.11, 4160572.39 ], [ 282209.03, 4160572.48 ], [ 282208.95, 4160572.57 ], [ 282208.92, 4160572.59 ], [ 282208.9, 4160572.61 ], [ 282208.81, 4160572.69 ], [ 282208.72, 4160572.77 ], [ 282208.7, 4160572.78 ], [ 282208.68, 4160572.8 ], [ 282208.58, 4160572.87 ], [ 282208.48, 4160572.94 ], [ 282208.45, 4160572.96 ], [ 282208.43, 4160572.97 ], [ 282208.32, 4160573.03 ], [ 282208.22, 4160573.09 ], [ 282208.19, 4160573.1 ], [ 282208.17, 4160573.12 ], [ 282208.06, 4160573.16 ], [ 282207.95, 4160573.21 ], [ 282207.92, 4160573.22 ], [ 282207.89, 4160573.24 ], [ 282207.78, 4160573.27 ], [ 282207.66, 4160573.31 ], [ 282207.63, 4160573.32 ], [ 282207.61, 4160573.33 ], [ 282207.49, 4160573.35 ], [ 282207.37, 4160573.38 ], [ 282207.34, 4160573.38 ], [ 282207.31, 4160573.39 ], [ 282207.19, 4160573.4 ], [ 282207.08, 4160573.42 ], [ 282207.05, 4160573.42 ], [ 282207.02, 4160573.42 ], [ 282206.9, 4160573.42 ], [ 282206.78, 4160573.43 ], [ 282206.75, 4160573.43 ], [ 282206.72, 4160573.43 ], [ 282206.6, 4160573.42 ], [ 282206.48, 4160573.41 ], [ 282206.45, 4160573.4 ], [ 282206.42, 4160573.4 ], [ 282206.3, 4160573.38 ], [ 282206.18, 4160573.36 ], [ 282196.87, 4160571.36 ], [ 282186.5, 4160580.11 ], [ 282186.46, 4160580.15 ], [ 282181.95, 4160583.82 ], [ 282182.83, 4160584.92 ], [ 282183.71, 4160584.05 ], [ 282184.63, 4160583.67 ], [ 282185.35, 4160583.9 ], [ 282187.43, 4160585.4 ], [ 282187.96, 4160586.12 ], [ 282188.59, 4160587.99 ], [ 282188.29, 4160589.95 ], [ 282192.4, 4160593.18 ], [ 282193.73, 4160592.63 ], [ 282201.42, 4160592.63 ], [ 282202.76, 4160592.31 ], [ 282205.08, 4160591.15 ], [ 282206.01, 4160591.02 ], [ 282208.12, 4160591.43 ], [ 282209.19, 4160592.64 ], [ 282209.31, 4160594.41 ], [ 282210.73, 4160593.74 ], [ 282208.78, 4160588.4 ], [ 282220.16, 4160583.09 ], [ 282220.13, 4160583.03 ], [ 282220.13, 4160557.11 ], [ 282219.36, 4160555.46 ], [ 282219.46, 4160555.41 ], [ 282205.6, 4160530.47 ], [ 282205.46, 4160530.12 ], [ 282205.18, 4160529.03 ], [ 282205.13, 4160528.66 ], [ 282205.13, 4160524.22 ], [ 282205.55, 4160523.2 ], [ 282207.71, 4160521.05 ], [ 282208.73, 4160520.63 ], [ 282211.5, 4160520.63 ], [ 282212.35, 4160520.9 ], [ 282214.43, 4160522.4 ], [ 282214.71, 4160522.78 ] ] ], [ [ [ 282230.33, 4160619.93 ], [ 282231.18, 4160621.75 ], [ 282238.26, 4160618.43 ], [ 282242.88, 4160616.25 ], [ 282250.0, 4160612.85 ], [ 282250.0, 4160608.73 ], [ 282249.35, 4160609.06 ], [ 282241.25, 4160593.85 ], [ 282240.39, 4160595.04 ], [ 282239.25, 4160595.63 ], [ 282238.73, 4160595.63 ], [ 282238.52, 4160595.54 ], [ 282235.17, 4160596.28 ], [ 282234.71, 4160599.68 ], [ 282235.13, 4160600.51 ], [ 282235.13, 4160601.03 ], [ 282234.71, 4160602.05 ], [ 282232.55, 4160604.2 ], [ 282231.53, 4160604.63 ], [ 282229.73, 4160604.63 ], [ 282229.31, 4160604.45 ], [ 282233.83, 4160613.73 ], [ 282228.65, 4160616.36 ], [ 282230.33, 4160619.93 ] ] ], [ [ [ 282196.21, 4160601.63 ], [ 282217.5, 4160628.21 ], [ 282225.67, 4160624.35 ], [ 282224.81, 4160622.52 ], [ 282223.21, 4160619.11 ], [ 282217.34, 4160622.08 ], [ 282206.75, 4160599.2 ], [ 282206.23, 4160599.98 ], [ 282205.7, 4160600.46 ], [ 282203.85, 4160601.45 ], [ 282203.16, 4160601.63 ], [ 282196.21, 4160601.63 ] ] ], [ [ [ 282231.68, 4160656.13 ], [ 282231.59, 4160657.59 ], [ 282240.78, 4160657.97 ], [ 282240.84, 4160657.98 ], [ 282243.82, 4160658.19 ], [ 282243.96, 4160658.2 ], [ 282244.1, 4160658.23 ], [ 282245.85, 4160658.64 ], [ 282246.02, 4160658.69 ], [ 282246.19, 4160658.76 ], [ 282246.35, 4160658.84 ], [ 282246.5, 4160658.94 ], [ 282246.64, 4160659.05 ], [ 282247.86, 4160660.15 ], [ 282248.0, 4160660.29 ], [ 282248.13, 4160660.45 ], [ 282248.23, 4160660.62 ], [ 282250.0, 4160663.79 ], [ 282250.0, 4160649.44 ], [ 282244.61, 4160639.52 ], [ 282249.05, 4160636.21 ], [ 282243.3, 4160625.9 ], [ 282244.18, 4160625.49 ], [ 282243.81, 4160624.79 ], [ 282242.86, 4160623.0 ], [ 282240.86, 4160623.95 ], [ 282240.85, 4160623.95 ], [ 282231.02, 4160628.56 ], [ 282219.55, 4160633.99 ], [ 282220.94, 4160636.87 ], [ 282226.82, 4160634.03 ], [ 282236.43, 4160653.88 ], [ 282231.68, 4160656.13 ] ] ], [ [ [ 282215.45, 4160639.53 ], [ 282214.03, 4160636.6 ], [ 282214.02, 4160636.59 ], [ 282179.28, 4160652.84 ], [ 282166.66, 4160658.97 ], [ 282167.97, 4160662.19 ], [ 282170.94, 4160660.71 ], [ 282177.7, 4160665.5 ], [ 282156.69, 4160704.76 ], [ 282153.34, 4160697.79 ], [ 282152.95, 4160698.5 ], [ 282162.26, 4160718.12 ], [ 282164.97, 4160713.01 ], [ 282160.13, 4160710.1 ], [ 282190.21, 4160653.75 ], [ 282195.11, 4160656.26 ], [ 282197.75, 4160651.67 ], [ 282221.76, 4160664.42 ], [ 282219.63, 4160668.59 ], [ 282221.91, 4160669.5 ], [ 282223.02, 4160667.64 ], [ 282223.53, 4160659.0 ], [ 282223.57, 4160658.26 ], [ 282218.67, 4160659.39 ], [ 282210.36, 4160641.99 ], [ 282215.45, 4160639.53 ] ], [ [ 282202.13, 4160647.22 ], [ 282202.55, 4160646.2 ], [ 282204.71, 4160644.05 ], [ 282205.73, 4160643.63 ], [ 282207.53, 4160643.63 ], [ 282208.55, 4160644.05 ], [ 282210.71, 4160646.2 ], [ 282211.13, 4160647.22 ], [ 282211.13, 4160649.03 ], [ 282210.71, 4160650.05 ], [ 282208.55, 4160652.2 ], [ 282207.53, 4160652.63 ], [ 282205.73, 4160652.63 ], [ 282204.71, 4160652.2 ], [ 282202.55, 4160650.05 ], [ 282202.13, 4160649.03 ], [ 282202.13, 4160647.22 ] ] ], [ [ [ 282250.0, 4160750.0 ], [ 282250.0, 4160747.83 ], [ 282248.8, 4160750.0 ], [ 282250.0, 4160750.0 ] ] ] ] } },
{ "type": "Feature", "properties": { "id": "imagery:groundcover_lawn:344", "name": null, "kind": "groundcover_lawn", "sport": null, "surface": null, "pitch_layout": null, "source": "vgin_vbmp+naip+lidar2025", "source_updated": null, "base_z": null, "top_z": null }, "geometry": { "type": "Polygon", "coordinates": [ [ [ 282232.14, 4160512.46 ], [ 282231.89, 4160512.67 ], [ 282234.61, 4160517.53 ], [ 282240.05, 4160514.68 ], [ 282250.0, 4160532.91 ], [ 282250.0, 4160517.36 ], [ 282246.65, 4160510.66 ], [ 282246.71, 4160509.3 ], [ 282248.28, 4160506.77 ], [ 282247.31, 4160506.17 ], [ 282247.55, 4160506.04 ], [ 282248.01, 4160506.5 ], [ 282249.25, 4160505.26 ], [ 282250.0, 4160503.46 ], [ 282250.0, 4160500.0 ], [ 282234.57, 4160500.0 ], [ 282232.64, 4160511.59 ], [ 282232.14, 4160512.46 ] ] ] } },
{ "type": "Feature", "properties": { "id": "imagery:groundcover_bare:321", "name": null, "kind": "groundcover_bare", "sport": null, "surface": null, "pitch_layout": null, "source": "vgin_vbmp+naip+lidar2025", "source_updated": null, "base_z": null, "top_z": null }, "geometry": { "type": "Polygon", "coordinates": [ [ [ 282250.0, 4160503.9 ], [ 282248.18, 4160505.32 ], [ 282247.83, 4160505.44 ], [ 282246.13, 4160509.62 ], [ 282250.0, 4160517.36 ], [ 282250.0, 4160503.9 ] ] ] } },
{ "type": "Feature", "properties": { "id": "imagery:groundcover_lawn:239", "name": null, "kind": "groundcover_lawn", "sport": null, "surface": null, "pitch_layout": null, "source": "vgin_vbmp+naip+lidar2025", "source_updated": null, "base_z": null, "top_z": null }, "geometry": { "type": "Polygon", "coordinates": [ [ [ 282221.1, 4160558.61 ], [ 282221.46, 4160558.94 ], [ 282221.56, 4160558.94 ], [ 282222.91, 4160561.12 ], [ 282223.13, 4160561.9 ], [ 282223.13, 4160571.63 ], [ 282226.13, 4160574.63 ], [ 282237.96, 4160574.63 ], [ 282237.52, 4160573.64 ], [ 282243.65, 4160570.77 ], [ 282241.86, 4160556.44 ], [ 282238.87, 4160550.97 ], [ 282238.48, 4160550.63 ], [ 282235.13, 4160550.63 ], [ 282232.36, 4160552.48 ], [ 282231.71, 4160554.05 ], [ 282229.55, 4160556.2 ], [ 282228.64, 4160556.58 ], [ 282227.91, 4160556.35 ], [ 282225.83, 4160554.85 ], [ 282225.3, 4160554.13 ], [ 282214.81, 4160522.68 ], [ 282211.97, 4160520.63 ], [ 282209.29, 4160520.63 ], [ 282206.45, 4160524.57 ], [ 282216.74, 4160555.45 ], [ 282218.24, 4160557.18 ], [ 282221.1, 4160558.61 ] ] ] } },
{ "type": "Feature", "properties": { "id": "osm:way/257214166", "name": null, "kind": "parking", "sport": null, "surface": null, "pitch_layout": null, "source": null, "source_updated": null, "base_z": null, "top_z": null }, "geometry": { "type": "MultiPolygon", "coordinates": [ [ [ [ 282240.73, 4160592.86 ], [ 282249.35, 4160609.06 ], [ 282250.0, 4160608.73 ], [ 282250.0, 4160573.95 ], [ 282249.94, 4160573.99 ], [ 282246.91, 4160569.25 ], [ 282237.52, 4160573.64 ], [ 282239.84, 4160578.82 ], [ 282229.62, 4160583.62 ], [ 282227.66, 4160579.59 ], [ 282208.78, 4160588.4 ], [ 282210.73, 4160593.74 ], [ 282205.38, 4160596.26 ], [ 282217.34, 4160622.08 ], [ 282233.83, 4160613.73 ], [ 282225.94, 4160597.55 ], [ 282240.73, 4160592.86 ] ] ], [ [ [ 282223.72, 4160523.23 ], [ 282249.92, 4160571.2 ], [ 282250.0, 4160571.16 ], [ 282250.0, 4160532.91 ], [ 282240.05, 4160514.68 ], [ 282223.72, 4160523.23 ] ] ] ] } },
{ "type": "Feature", "properties": { "id": "osm:way/257214176", "name": null, "kind": "parking", "sport": null, "surface": null, "pitch_layout": null, "source": null, "source_updated": null, "base_z": null, "top_z": null }, "geometry": { "type": "Polygon", "coordinates": [ [ [ 282154.3, 4160669.01 ], [ 282146.4, 4160683.32 ], [ 282156.69, 4160704.76 ], [ 282177.7, 4160665.5 ], [ 282170.94, 4160660.71 ], [ 282154.3, 4160669.01 ] ] ] } },
{ "type": "Feature", "properties": { "id": "osm:way/257214171", "name": null, "kind": "parking", "sport": null, "surface": null, "pitch_layout": null, "source": null, "source_updated": null, "base_z": null, "top_z": null }, "geometry": { "type": "MultiPolygon", "coordinates": [ [ [ [ 282249.05, 4160636.21 ], [ 282244.61, 4160639.52 ], [ 282250.0, 4160649.44 ], [ 282250.0, 4160622.77 ], [ 282243.3, 4160625.9 ], [ 282249.05, 4160636.21 ] ] ], [ [ [ 282250.0, 4160687.47 ], [ 282250.0, 4160672.35 ], [ 282244.58, 4160677.64 ], [ 282250.0, 4160687.47 ] ] ], [ [ [ 282237.02, 4160746.71 ], [ 282235.27, 4160750.0 ], [ 282248.8, 4160750.0 ], [ 282250.0, 4160747.83 ], [ 282250.0, 4160709.69 ], [ 282232.58, 4160743.25 ], [ 282237.02, 4160746.71 ] ] ] ] } },
{ "type": "Feature", "properties": { "id": "osm:way/257214177", "name": null, "kind": "parking", "sport": null, "surface": null, "pitch_layout": null, "source": null, "source_updated": null, "base_z": null, "top_z": null }, "geometry": { "type": "Polygon", "coordinates": [ [ [ 282221.75, 4160750.0 ], [ 282222.1, 4160749.09 ], [ 282233.09, 4160707.24 ], [ 282235.91, 4160688.05 ], [ 282236.62, 4160660.72 ], [ 282231.43, 4160660.38 ], [ 282231.68, 4160656.13 ], [ 282236.43, 4160653.88 ], [ 282226.82, 4160634.03 ], [ 282210.36, 4160641.99 ], [ 282218.67, 4160659.39 ], [ 282224.05, 4160658.15 ], [ 282223.68, 4160666.54 ], [ 282221.91, 4160669.5 ], [ 282219.63, 4160668.59 ], [ 282221.76, 4160664.42 ], [ 282197.75, 4160651.67 ], [ 282195.11, 4160656.26 ], [ 282190.21, 4160653.75 ], [ 282160.13, 4160710.1 ], [ 282164.97, 4160713.01 ], [ 282156.74, 4160728.54 ], [ 282151.42, 4160726.18 ], [ 282146.67, 4160735.23 ], [ 282151.47, 4160737.76 ], [ 282145.27, 4160750.0 ], [ 282221.75, 4160750.0 ] ] ] } },
{ "type": "Feature", "properties": { "id": "osm:way/1089787595", "name": null, "kind": "parking", "sport": null, "surface": "asphalt", "pitch_layout": null, "source": null, "source_updated": null, "base_z": null, "top_z": null }, "geometry": { "type": "Polygon", "coordinates": [ [ [ 282021.29, 4160517.61 ], [ 282058.72, 4160500.0 ], [ 282037.26, 4160500.0 ], [ 282010.55, 4160512.12 ], [ 282041.18, 4160578.93 ], [ 282076.9, 4160562.13 ], [ 282066.57, 4160540.35 ], [ 282038.36, 4160553.61 ], [ 282021.29, 4160517.61 ] ] ] } },
{ "type": "Feature", "properties": { "id": "osm:way/1089786454", "name": null, "kind": "parking", "sport": null, "surface": "asphalt", "pitch_layout": null, "source": null, "source_updated": null, "base_z": null, "top_z": null }, "geometry": { "type": "Polygon", "coordinates": [ [ [ 282000.0, 4160564.08 ], [ 282000.0, 4160576.52 ], [ 282004.64, 4160574.46 ], [ 282000.0, 4160564.08 ] ] ] } },
{ "type": "Feature", "properties": { "id": "osm:way/257214179", "name": null, "kind": "parking", "sport": null, "surface": null, "pitch_layout": null, "source": null, "source_updated": null, "base_z": null, "top_z": null }, "geometry": { "type": "Polygon", "coordinates": [ [ [ 282112.23, 4160628.03 ], [ 282092.9, 4160587.22 ], [ 282085.74, 4160576.55 ], [ 282065.35, 4160585.34 ], [ 282071.14, 4160597.94 ], [ 282087.06, 4160590.44 ], [ 282106.14, 4160631.02 ], [ 282112.23, 4160628.03 ] ] ] } },
{ "type": "Feature", "properties": { "id": "osm:way/257214161", "name": null, "kind": "parking", "sport": null, "surface": null, "pitch_layout": null, "source": null, "source_updated": null, "base_z": null, "top_z": null }, "geometry": { "type": "Polygon", "coordinates": [ [ [ 282167.56, 4160604.61 ], [ 282143.68, 4160552.84 ], [ 282096.64, 4160576.26 ], [ 282136.74, 4160658.31 ], [ 282169.75, 4160642.57 ], [ 282155.16, 4160610.37 ], [ 282167.56, 4160604.61 ] ] ] } },
{ "type": "Feature", "properties": { "id": "osm:way/1089786086", "name": null, "kind": "parking", "sport": null, "surface": "asphalt", "pitch_layout": null, "source": null, "source_updated": null, "base_z": null, "top_z": null }, "geometry": { "type": "MultiPolygon", "coordinates": [ [ [ [ 282019.87, 4160636.32 ], [ 282000.0, 4160646.58 ], [ 282000.0, 4160648.85 ], [ 282003.74, 4160657.02 ], [ 282036.48, 4160642.11 ], [ 282019.13, 4160604.3 ], [ 282000.0, 4160613.01 ], [ 282000.0, 4160619.56 ], [ 282010.07, 4160614.97 ], [ 282019.87, 4160636.32 ] ] ], [ [ [ 282000.0, 4160619.74 ], [ 282000.0, 4160627.0 ], [ 282002.75, 4160625.74 ], [ 282000.0, 4160619.74 ] ] ] ] } },
{ "type": "Feature", "properties": { "id": "osm:way/1189981146", "name": null, "kind": "parking", "sport": null, "surface": "asphalt", "pitch_layout": null, "source": null, "source_updated": null, "base_z": null, "top_z": null }, "geometry": { "type": "Polygon", "coordinates": [ [ [ 282008.68, 4160687.73 ], [ 282000.0, 4160679.71 ], [ 282000.0, 4160712.08 ], [ 282010.62, 4160721.86 ], [ 282017.15, 4160715.47 ], [ 282008.68, 4160687.73 ] ] ] } },
{ "type": "Feature", "properties": { "id": "osm:way/1300040941", "name": null, "kind": "parking", "sport": null, "surface": null, "pitch_layout": null, "source": null, "source_updated": null, "base_z": null, "top_z": null }, "geometry": { "type": "Polygon", "coordinates": [ [ [ 282071.05, 4160741.15 ], [ 282068.52, 4160735.97 ], [ 282040.74, 4160748.87 ], [ 282041.92, 4160750.0 ], [ 282077.24, 4160750.0 ], [ 282086.07, 4160746.1 ], [ 282081.64, 4160736.45 ], [ 282071.05, 4160741.15 ] ] ] } },
{ "type": "Feature", "properties": { "id": "osm:way/1189981752", "name": null, "kind": "parking", "sport": null, "surface": null, "pitch_layout": null, "source": null, "source_updated": null, "base_z": null, "top_z": null }, "geometry": { "type": "Polygon", "coordinates": [ [ [ 282080.5, 4160750.0 ], [ 282090.42, 4160750.0 ], [ 282088.67, 4160746.34 ], [ 282080.5, 4160750.0 ] ] ] } }
]
}
