{
"type": "FeatureCollection",
"name": "roads",
"crs": { "type": "name", "properties": { "name": "urn:ogc:def:crs:EPSG::32618" } },
"xy_coordinate_resolution": 0.01,
"features": [
{ "type": "Feature", "properties": { "id": "osm:way/775890891", "name": null, "highway": "service", "lanes": null, "width": 4.5, "oneway": false, "surface": null, "footway": null, "sidewalk_left": false, "sidewalk_right": false, "generated_sidewalk": false, "bus_lanes": null, "bus_lane_side": null, "bus_only": false, "sidewalk": false, "bridge": false, "ramp": false, "tunnel": false, "layer": 0, "deck": null }, "geometry": { "type": "LineString", "coordinates": [ [ 285825.26, 4160764.42 ], [ 285844.96, 4160759.15 ], [ 285878.96, 4160750.0 ] ] } },
{ "type": "Feature", "properties": { "id": "osm:way/6037223", "name": "Wellington Street", "highway": "residential", "lanes": null, "width": 7.0, "oneway": false, "surface": null, "footway": null, "sidewalk_left": null, "sidewalk_right": null, "generated_sidewalk": true, "bus_lanes": null, "bus_lane_side": null, "bus_only": false, "sidewalk": false, "bridge": false, "ramp": false, "tunnel": false, "layer": 0, "deck": null }, "geometry": { "type": "LineString", "coordinates": [ [ 285750.0, 4160950.45 ], [ 285757.9, 4160979.87 ], [ 285760.17, 4160988.32 ] ] } }
]
}
