{
"type": "FeatureCollection",
"name": "landuse",
"crs": { "type": "name", "properties": { "name": "urn:ogc:def:crs:EPSG::32618" } },
"xy_coordinate_resolution": 0.01,
"features": [
{ "type": "Feature", "properties": { "id": "imagery:groundcover_paved:3471", "name": null, "kind": "groundcover_paved", "sport": null, "surface": null, "pitch_layout": null, "source": "vgin_vbmp+naip+lidar2025", "source_updated": null, "base_z": null, "top_z": null }, "geometry": { "type": "MultiPolygon", "coordinates": [ [ [ [ 283231.81, 4155754.57 ], [ 283233.3, 4155750.12 ], [ 283233.39, 4155750.0 ], [ 283232.98, 4155750.0 ], [ 283230.41, 4155755.59 ], [ 283231.81, 4155754.57 ] ] ], [ [ [ 283203.37, 4155882.82 ], [ 283201.16, 4155888.05 ], [ 283200.95, 4155888.49 ], [ 283200.69, 4155888.91 ], [ 283200.39, 4155889.3 ], [ 283200.06, 4155889.66 ], [ 283199.7, 4155889.99 ], [ 283199.3, 4155890.28 ], [ 283198.88, 4155890.53 ], [ 283198.43, 4155890.73 ], [ 283197.97, 4155890.89 ], [ 283197.49, 4155891.01 ], [ 283197.01, 4155891.08 ], [ 283196.56, 4155891.1 ], [ 283209.46, 4155896.95 ], [ 283210.2, 4155895.42 ], [ 283221.66, 4155871.6 ], [ 283221.3, 4155871.46 ], [ 283219.46, 4155870.63 ], [ 283218.29, 4155870.63 ], [ 283215.45, 4155872.68 ], [ 283213.96, 4155877.13 ], [ 283213.43, 4155877.85 ], [ 283211.35, 4155879.35 ], [ 283210.5, 4155879.63 ], [ 283204.13, 4155879.63 ], [ 283203.7, 4155880.06 ], [ 283203.75, 4155880.42 ], [ 283203.77, 4155880.91 ], [ 283203.74, 4155881.4 ], [ 283203.67, 4155881.88 ], [ 283203.54, 4155882.36 ], [ 283203.37, 4155882.82 ] ] ], [ [ [ 283209.79, 4155964.58 ], [ 283212.16, 4155967.03 ], [ 283222.21, 4155969.04 ], [ 283223.05, 4155969.55 ], [ 283224.72, 4155971.59 ], [ 283244.05, 4155926.23 ], [ 283242.86, 4155925.82 ], [ 283242.06, 4155926.0 ], [ 283241.87, 4155926.03 ], [ 283241.68, 4155926.04 ], [ 283241.49, 4155926.03 ], [ 283241.3, 4155926.01 ], [ 283241.12, 4155925.96 ], [ 283240.94, 4155925.89 ], [ 283231.92, 4155921.94 ], [ 283231.91, 4155921.94 ], [ 283231.9, 4155921.93 ], [ 283231.83, 4155921.9 ], [ 283231.76, 4155921.86 ], [ 283231.75, 4155921.86 ], [ 283231.74, 4155921.85 ], [ 283231.68, 4155921.81 ], [ 283231.61, 4155921.77 ], [ 283231.6, 4155921.76 ], [ 283231.59, 4155921.76 ], [ 283231.53, 4155921.71 ], [ 283231.47, 4155921.66 ], [ 283231.46, 4155921.65 ], [ 283231.4, 4155921.59 ], [ 283231.34, 4155921.54 ], [ 283231.33, 4155921.53 ], [ 283231.28, 4155921.47 ], [ 283231.22, 4155921.41 ], [ 283231.22, 4155921.4 ], [ 283231.21, 4155921.39 ], [ 283231.17, 4155921.33 ], [ 283231.12, 4155921.26 ], [ 283231.12, 4155921.25 ], [ 283231.11, 4155921.25 ], [ 283231.07, 4155921.18 ], [ 283231.03, 4155921.11 ], [ 283231.03, 4155921.1 ], [ 283231.03, 4155921.09 ], [ 283230.99, 4155921.02 ], [ 283230.96, 4155920.95 ], [ 283230.96, 4155920.94 ], [ 283230.96, 4155920.93 ], [ 283230.93, 4155920.86 ], [ 283230.91, 4155920.78 ], [ 283230.9, 4155920.77 ], [ 283230.9, 4155920.76 ], [ 283230.88, 4155920.69 ], [ 283230.87, 4155920.61 ], [ 283230.86, 4155920.6 ], [ 283230.86, 4155920.59 ], [ 283230.85, 4155920.51 ], [ 283230.84, 4155920.43 ], [ 283230.84, 4155920.42 ], [ 283230.84, 4155920.34 ], [ 283230.84, 4155920.26 ], [ 283230.84, 4155920.25 ], [ 283230.84, 4155920.24 ], [ 283230.84, 4155920.16 ], [ 283230.85, 4155920.08 ], [ 283230.85, 4155920.07 ], [ 283230.85, 4155920.06 ], [ 283230.87, 4155919.98 ], [ 283230.88, 4155919.91 ], [ 283230.88, 4155919.9 ], [ 283230.88, 4155919.89 ], [ 283230.91, 4155919.81 ], [ 283230.93, 4155919.74 ], [ 283230.93, 4155919.73 ], [ 283230.93, 4155919.72 ], [ 283230.96, 4155919.64 ], [ 283230.99, 4155919.57 ], [ 283230.99, 4155919.56 ], [ 283231.0, 4155919.55 ], [ 283231.85, 4155917.66 ], [ 283232.26, 4155916.73 ], [ 283219.13, 4155910.78 ], [ 283220.79, 4155913.45 ], [ 283222.59, 4155914.35 ], [ 283222.76, 4155914.53 ], [ 283224.24, 4155914.71 ], [ 283223.8, 4155916.18 ], [ 283224.41, 4155917.46 ], [ 283224.51, 4155918.4 ], [ 283219.51, 4155940.91 ], [ 283219.24, 4155941.5 ], [ 283218.06, 4155943.0 ], [ 283217.55, 4155943.41 ], [ 283209.11, 4155947.63 ], [ 283207.5, 4155950.81 ], [ 283209.79, 4155964.58 ] ] ], [ [ [ 283228.35, 4155978.63 ], [ 283230.53, 4155978.63 ], [ 283231.55, 4155979.05 ], [ 283233.71, 4155981.2 ], [ 283234.13, 4155982.22 ], [ 283234.13, 4155985.65 ], [ 283235.95, 4155988.4 ], [ 283250.0, 4155994.43 ], [ 283250.0, 4155928.28 ], [ 283249.83, 4155928.22 ], [ 283228.35, 4155978.63 ] ] ] ] } },
{ "type": "Feature", "properties": { "id": "richmond_structure:242890", "name": null, "kind": "deck", "sport": null, "surface": null, "pitch_layout": null, "source": "richmond_structures", "source_updated": "2026-09-08T12:07:13.637000Z", "base_z": null, "top_z": null }, "geometry": { "type": "Polygon", "coordinates": [ [ [ 283248.12, 4155779.5 ], [ 283249.44, 4155778.97 ], [ 283250.0, 4155777.87 ], [ 283250.0, 4155777.55 ], [ 283249.84, 4155776.81 ], [ 283249.31, 4155776.11 ], [ 283247.8, 4155776.0 ], [ 283247.08, 4155776.7 ], [ 283244.35, 4155775.53 ], [ 283241.19, 4155782.23 ], [ 283244.17, 4155783.4 ], [ 283244.92, 4155784.54 ], [ 283246.55, 4155784.52 ], [ 283247.61, 4155783.44 ], [ 283247.53, 4155781.83 ], [ 283246.77, 4155781.31 ], [ 283245.17, 4155781.1 ], [ 283246.27, 4155778.58 ], [ 283247.25, 4155779.43 ], [ 283248.12, 4155779.5 ] ] ] } },
{ "type": "Feature", "properties": { "id": "richmond_structure:242894", "name": null, "kind": "deck", "sport": null, "surface": null, "pitch_layout": null, "source": "richmond_structures", "source_updated": "2026-09-08T12:07:13.637000Z", "base_z": null, "top_z": null }, "geometry": { "type": "Polygon", "coordinates": [ [ [ 283176.83, 4155785.12 ], [ 283180.38, 4155777.08 ], [ 283177.75, 4155775.85 ], [ 283173.94, 4155783.78 ], [ 283176.83, 4155785.12 ] ] ] } },
{ "type": "Feature", "properties": { "id": "richmond_structure:242891", "name": null, "kind": "deck", "sport": null, "surface": null, "pitch_layout": null, "source": "richmond_structures", "source_updated": "2026-09-08T12:07:13.637000Z", "base_z": null, "top_z": null }, "geometry": { "type": "Polygon", "coordinates": [ [ [ 283249.37, 4155784.52 ], [ 283248.95, 4155785.28 ], [ 283248.67, 4155786.73 ], [ 283249.16, 4155787.98 ], [ 283250.0, 4155788.05 ], [ 283250.0, 4155784.33 ], [ 283249.89, 4155784.33 ], [ 283249.37, 4155784.52 ] ] ] } },
{ "type": "Feature", "properties": { "id": "richmond_structure:243996", "name": null, "kind": "deck", "sport": null, "surface": null, "pitch_layout": null, "source": "richmond_structures", "source_updated": "2026-09-08T12:07:13.637000Z", "base_z": null, "top_z": null }, "geometry": { "type": "Polygon", "coordinates": [ [ [ 283197.28, 4155794.82 ], [ 283200.76, 4155786.54 ], [ 283194.57, 4155783.63 ], [ 283193.63, 4155785.64 ], [ 283195.21, 4155786.33 ], [ 283192.39, 4155792.74 ], [ 283197.28, 4155794.82 ] ] ] } },
{ "type": "Feature", "properties": { "id": "richmond_structure:242896", "name": null, "kind": "deck", "sport": null, "surface": null, "pitch_layout": null, "source": "richmond_structures", "source_updated": "2026-09-08T12:07:13.637000Z", "base_z": null, "top_z": null }, "geometry": { "type": "Polygon", "coordinates": [ [ [ 283166.63, 4155794.67 ], [ 283162.98, 4155802.45 ], [ 283166.75, 4155804.18 ], [ 283170.35, 4155796.37 ], [ 283166.63, 4155794.67 ] ] ] } },
{ "type": "Feature", "properties": { "id": "richmond_structure:243126", "name": null, "kind": "deck", "sport": null, "surface": null, "pitch_layout": null, "source": "richmond_structures", "source_updated": "2026-09-08T12:07:13.637000Z", "base_z": null, "top_z": null }, "geometry": { "type": "Polygon", "coordinates": [ [ [ 283249.64, 4155812.06 ], [ 283250.0, 4155811.28 ], [ 283250.0, 4155809.15 ], [ 283242.54, 4155805.76 ], [ 283241.43, 4155808.19 ], [ 283249.64, 4155812.06 ] ] ] } },
{ "type": "Feature", "properties": { "id": "richmond_structure:241940", "name": null, "kind": "deck", "sport": null, "surface": null, "pitch_layout": null, "source": "richmond_structures", "source_updated": "2026-09-08T12:07:13.637000Z", "base_z": null, "top_z": null }, "geometry": { "type": "Polygon", "coordinates": [ [ [ 283233.25, 4155814.04 ], [ 283234.36, 4155814.56 ], [ 283234.92, 4155813.37 ], [ 283230.4, 4155811.26 ], [ 283226.81, 4155818.94 ], [ 283230.22, 4155820.53 ], [ 283233.25, 4155814.04 ] ] ] } },
{ "type": "Feature", "properties": { "id": "richmond_structure:242030", "name": null, "kind": "deck", "sport": null, "surface": null, "pitch_layout": null, "source": "richmond_structures", "source_updated": "2026-09-08T12:07:13.637000Z", "base_z": null, "top_z": null }, "geometry": { "type": "Polygon", "coordinates": [ [ [ 283228.44, 4155822.66 ], [ 283224.59, 4155820.86 ], [ 283221.85, 4155826.73 ], [ 283225.71, 4155828.52 ], [ 283228.44, 4155822.66 ] ] ] } },
{ "type": "Feature", "properties": { "id": "richmond_structure:241937", "name": null, "kind": "deck", "sport": null, "surface": null, "pitch_layout": null, "source": "richmond_structures", "source_updated": "2026-09-08T12:07:13.637000Z", "base_z": null, "top_z": null }, "geometry": { "type": "Polygon", "coordinates": [ [ [ 283225.0, 4155832.05 ], [ 283222.78, 4155830.95 ], [ 283220.89, 4155834.48 ], [ 283223.19, 4155835.63 ], [ 283225.0, 4155832.05 ] ] ] } },
{ "type": "Feature", "properties": { "id": "imagery:groundcover_lawn:3468", "name": null, "kind": "groundcover_lawn", "sport": null, "surface": null, "pitch_layout": null, "source": "vgin_vbmp+naip+lidar2025", "source_updated": null, "base_z": null, "top_z": null }, "geometry": { "type": "MultiPolygon", "coordinates": [ [ [ [ 283170.17, 4155757.87 ], [ 283173.37, 4155750.0 ], [ 283153.08, 4155750.0 ], [ 283168.48, 4155757.09 ], [ 283170.17, 4155757.87 ] ] ], [ [ [ 283000.0, 4155750.0 ], [ 283000.0, 4155771.4 ], [ 283009.89, 4155750.0 ], [ 283000.0, 4155750.0 ] ] ], [ [ [ 283207.6, 4155767.19 ], [ 283205.63, 4155768.41 ], [ 283205.31, 4155768.5 ], [ 283204.69, 4155769.83 ], [ 283204.65, 4155769.92 ], [ 283204.59, 4155770.0 ], [ 283204.53, 4155770.08 ], [ 283204.46, 4155770.15 ], [ 283204.39, 4155770.21 ], [ 283204.31, 4155770.27 ], [ 283204.22, 4155770.31 ], [ 283204.13, 4155770.35 ], [ 283204.04, 4155770.38 ], [ 283203.94, 4155770.4 ], [ 283203.84, 4155770.41 ], [ 283203.74, 4155770.41 ], [ 283203.65, 4155770.4 ], [ 283203.55, 4155770.38 ], [ 283203.46, 4155770.36 ], [ 283203.41, 4155770.34 ], [ 283202.31, 4155772.04 ], [ 283203.85, 4155773.38 ], [ 283206.55, 4155774.63 ], [ 283208.89, 4155774.63 ], [ 283211.01, 4155773.75 ], [ 283213.91, 4155770.85 ], [ 283223.51, 4155750.0 ], [ 283216.44, 4155750.0 ], [ 283208.15, 4155766.59 ], [ 283207.6, 4155767.19 ] ] ], [ [ [ 283090.31, 4155751.3 ], [ 283090.6, 4155750.0 ], [ 283084.13, 4155750.0 ], [ 283084.13, 4155751.8 ], [ 283086.8, 4155754.78 ], [ 283089.69, 4155752.71 ], [ 283089.7, 4155752.68 ], [ 283089.72, 4155752.58 ], [ 283089.75, 4155752.49 ], [ 283089.78, 4155752.4 ], [ 283090.31, 4155751.3 ] ] ], [ [ [ 283018.13, 4155765.03 ], [ 283017.71, 4155766.05 ], [ 283017.48, 4155766.27 ], [ 283007.07, 4155789.25 ], [ 283007.39, 4155791.21 ], [ 283026.85, 4155750.0 ], [ 283024.86, 4155750.0 ], [ 283018.13, 4155764.85 ], [ 283018.13, 4155765.03 ] ] ], [ [ [ 283187.65, 4155761.02 ], [ 283187.65, 4155760.93 ], [ 283187.66, 4155760.83 ], [ 283187.67, 4155760.73 ], [ 283187.7, 4155760.64 ], [ 283187.74, 4155760.55 ], [ 283189.13, 4155757.54 ], [ 283189.13, 4155756.63 ], [ 283187.28, 4155753.85 ], [ 283185.71, 4155753.2 ], [ 283183.55, 4155751.05 ], [ 283183.12, 4155750.0 ], [ 283179.96, 4155750.0 ], [ 283175.72, 4155760.42 ], [ 283185.68, 4155765.01 ], [ 283188.97, 4155762.22 ], [ 283188.22, 4155761.88 ], [ 283188.14, 4155761.83 ], [ 283188.05, 4155761.78 ], [ 283187.98, 4155761.71 ], [ 283187.91, 4155761.64 ], [ 283187.85, 4155761.57 ], [ 283187.79, 4155761.49 ], [ 283187.74, 4155761.4 ], [ 283187.71, 4155761.31 ], [ 283187.68, 4155761.22 ], [ 283187.66, 4155761.12 ], [ 283187.65, 4155761.02 ] ] ], [ [ [ 283249.31, 4155790.68 ], [ 283250.0, 4155791.0 ], [ 283250.0, 4155790.3 ], [ 283249.5, 4155790.5 ], [ 283249.31, 4155790.68 ] ] ], [ [ [ 283022.06, 4155786.52 ], [ 283022.15, 4155786.48 ], [ 283022.24, 4155786.44 ], [ 283022.33, 4155786.41 ], [ 283022.43, 4155786.39 ], [ 283022.53, 4155786.38 ], [ 283022.62, 4155786.38 ], [ 283022.72, 4155786.39 ], [ 283022.82, 4155786.41 ], [ 283022.91, 4155786.44 ], [ 283023.0, 4155786.48 ], [ 283029.66, 4155789.63 ], [ 283030.54, 4155789.63 ], [ 283031.66, 4155787.1 ], [ 283031.71, 4155787.02 ], [ 283031.76, 4155786.93 ], [ 283031.82, 4155786.86 ], [ 283031.89, 4155786.79 ], [ 283031.96, 4155786.72 ], [ 283032.04, 4155786.67 ], [ 283032.13, 4155786.62 ], [ 283032.22, 4155786.58 ], [ 283032.31, 4155786.55 ], [ 283032.4, 4155786.52 ], [ 283032.5, 4155786.51 ], [ 283032.6, 4155786.51 ], [ 283032.7, 4155786.52 ], [ 283032.79, 4155786.53 ], [ 283032.89, 4155786.56 ], [ 283032.98, 4155786.6 ], [ 283037.88, 4155788.77 ], [ 283037.96, 4155788.81 ], [ 283038.05, 4155788.86 ], [ 283038.12, 4155788.92 ], [ 283038.19, 4155788.99 ], [ 283038.26, 4155789.06 ], [ 283038.32, 4155789.14 ], [ 283038.36, 4155789.23 ], [ 283038.4, 4155789.32 ], [ 283038.43, 4155789.41 ], [ 283038.46, 4155789.51 ], [ 283038.47, 4155789.61 ], [ 283038.47, 4155789.7 ], [ 283038.46, 4155789.8 ], [ 283038.45, 4155789.9 ], [ 283038.42, 4155789.99 ], [ 283038.38, 4155790.09 ], [ 283037.19, 4155792.79 ], [ 283037.34, 4155793.26 ], [ 283038.43, 4155793.78 ], [ 283038.52, 4155793.83 ], [ 283038.6, 4155793.88 ], [ 283038.68, 4155793.94 ], [ 283038.75, 4155794.01 ], [ 283038.81, 4155794.09 ], [ 283038.86, 4155794.17 ], [ 283038.91, 4155794.26 ], [ 283038.95, 4155794.35 ], [ 283038.97, 4155794.44 ], [ 283038.99, 4155794.54 ], [ 283039.0, 4155794.64 ], [ 283039.0, 4155794.74 ], [ 283038.99, 4155794.83 ], [ 283038.97, 4155794.93 ], [ 283038.94, 4155795.02 ], [ 283038.91, 4155795.11 ], [ 283038.4, 4155796.18 ], [ 283041.73, 4155798.11 ], [ 283046.67, 4155797.12 ], [ 283048.78, 4155792.24 ], [ 283048.81, 4155792.18 ], [ 283060.4, 4155766.85 ], [ 283062.1, 4155763.05 ], [ 283062.06, 4155763.05 ], [ 283061.96, 4155763.05 ], [ 283061.86, 4155763.03 ], [ 283061.77, 4155763.01 ], [ 283061.68, 4155762.97 ], [ 283057.04, 4155761.01 ], [ 283056.95, 4155760.96 ], [ 283056.87, 4155760.91 ], [ 283056.79, 4155760.85 ], [ 283056.72, 4155760.79 ], [ 283056.66, 4155760.71 ], [ 283056.6, 4155760.63 ], [ 283056.55, 4155760.55 ], [ 283056.51, 4155760.46 ], [ 283056.47, 4155760.37 ], [ 283056.45, 4155760.27 ], [ 283056.44, 4155760.18 ], [ 283056.43, 4155760.08 ], [ 283056.44, 4155759.98 ], [ 283056.45, 4155759.88 ], [ 283056.48, 4155759.79 ], [ 283056.51, 4155759.7 ], [ 283057.75, 4155756.76 ], [ 283057.8, 4155756.68 ], [ 283057.85, 4155756.59 ], [ 283057.91, 4155756.51 ], [ 283057.97, 4155756.44 ], [ 283058.05, 4155756.38 ], [ 283058.13, 4155756.32 ], [ 283058.21, 4155756.27 ], [ 283058.3, 4155756.23 ], [ 283058.39, 4155756.2 ], [ 283058.49, 4155756.17 ], [ 283058.49, 4155756.14 ], [ 283058.49, 4155756.04 ], [ 283058.49, 4155755.94 ], [ 283058.51, 4155755.85 ], [ 283058.54, 4155755.75 ], [ 283058.57, 4155755.66 ], [ 283060.19, 4155752.01 ], [ 283060.24, 4155751.92 ], [ 283060.29, 4155751.84 ], [ 283060.35, 4155751.76 ], [ 283060.42, 4155751.69 ], [ 283060.49, 4155751.63 ], [ 283060.57, 4155751.57 ], [ 283060.66, 4155751.52 ], [ 283060.75, 4155751.48 ], [ 283060.84, 4155751.45 ], [ 283060.94, 4155751.43 ], [ 283061.03, 4155751.42 ], [ 283061.13, 4155751.42 ], [ 283061.23, 4155751.42 ], [ 283061.33, 4155751.44 ], [ 283061.42, 4155751.47 ], [ 283061.51, 4155751.5 ], [ 283066.32, 4155753.64 ], [ 283067.95, 4155750.0 ], [ 283055.6, 4155750.0 ], [ 283052.05, 4155762.42 ], [ 283051.41, 4155763.26 ], [ 283048.9, 4155764.79 ], [ 283047.86, 4155764.97 ], [ 283047.85, 4155764.97 ], [ 283047.57, 4155765.61 ], [ 283047.53, 4155765.7 ], [ 283047.47, 4155765.78 ], [ 283047.41, 4155765.86 ], [ 283047.35, 4155765.93 ], [ 283047.27, 4155765.99 ], [ 283047.19, 4155766.05 ], [ 283047.11, 4155766.1 ], [ 283047.02, 4155766.14 ], [ 283046.93, 4155766.17 ], [ 283046.83, 4155766.19 ], [ 283046.73, 4155766.21 ], [ 283046.63, 4155766.21 ], [ 283046.54, 4155766.2 ], [ 283046.44, 4155766.19 ], [ 283046.35, 4155766.16 ], [ 283046.25, 4155766.12 ], [ 283040.01, 4155763.4 ], [ 283038.23, 4155763.04 ], [ 283037.54, 4155762.7 ], [ 283036.69, 4155761.95 ], [ 283032.4, 4155760.08 ], [ 283032.31, 4155760.04 ], [ 283032.22, 4155759.98 ], [ 283032.15, 4155759.92 ], [ 283032.08, 4155759.86 ], [ 283032.01, 4155759.78 ], [ 283031.95, 4155759.7 ], [ 283031.91, 4155759.62 ], [ 283031.87, 4155759.53 ], [ 283031.83, 4155759.44 ], [ 283031.81, 4155759.34 ], [ 283031.8, 4155759.24 ], [ 283031.8, 4155759.15 ], [ 283031.8, 4155759.05 ], [ 283031.82, 4155758.95 ], [ 283031.84, 4155758.86 ], [ 283031.88, 4155758.76 ], [ 283035.1, 4155751.35 ], [ 283035.14, 4155751.26 ], [ 283035.19, 4155751.18 ], [ 283035.25, 4155751.1 ], [ 283035.32, 4155751.03 ], [ 283035.4, 4155750.97 ], [ 283035.48, 4155750.91 ], [ 283035.56, 4155750.86 ], [ 283035.65, 4155750.82 ], [ 283035.74, 4155750.79 ], [ 283035.84, 4155750.77 ], [ 283035.94, 4155750.75 ], [ 283036.03, 4155750.75 ], [ 283036.13, 4155750.76 ], [ 283036.23, 4155750.77 ], [ 283036.32, 4155750.8 ], [ 283036.42, 4155750.83 ], [ 283038.71, 4155751.84 ], [ 283039.23, 4155750.0 ], [ 283030.83, 4155750.0 ], [ 283009.54, 4155795.09 ], [ 283013.34, 4155796.02 ], [ 283017.02, 4155791.11 ], [ 283017.54, 4155790.67 ], [ 283019.32, 4155789.78 ], [ 283019.98, 4155789.63 ], [ 283020.39, 4155789.63 ], [ 283021.67, 4155786.95 ], [ 283021.72, 4155786.86 ], [ 283021.77, 4155786.78 ], [ 283021.84, 4155786.71 ], [ 283021.9, 4155786.64 ], [ 283021.98, 4155786.58 ], [ 283022.06, 4155786.52 ] ], [ [ 283040.87, 4155774.88 ], [ 283040.9, 4155774.98 ], [ 283040.91, 4155775.07 ], [ 283040.92, 4155775.17 ], [ 283040.92, 4155775.27 ], [ 283040.9, 4155775.37 ], [ 283040.88, 4155775.46 ], [ 283040.85, 4155775.55 ], [ 283040.81, 4155775.64 ], [ 283038.04, 4155781.1 ], [ 283037.99, 4155781.19 ], [ 283037.94, 4155781.27 ], [ 283037.87, 4155781.34 ], [ 283037.8, 4155781.41 ], [ 283037.72, 4155781.47 ], [ 283037.64, 4155781.52 ], [ 283037.55, 4155781.56 ], [ 283037.46, 4155781.6 ], [ 283037.36, 4155781.63 ], [ 283037.26, 4155781.64 ], [ 283037.17, 4155781.65 ], [ 283037.07, 4155781.64 ], [ 283036.97, 4155781.63 ], [ 283036.87, 4155781.61 ], [ 283036.78, 4155781.58 ], [ 283034.4, 4155780.63 ], [ 283027.73, 4155780.63 ], [ 283026.71, 4155780.2 ], [ 283024.55, 4155778.05 ], [ 283024.13, 4155777.03 ], [ 283024.13, 4155776.52 ], [ 283023.84, 4155776.41 ], [ 283023.75, 4155776.36 ], [ 283023.66, 4155776.31 ], [ 283023.58, 4155776.25 ], [ 283023.5, 4155776.19 ], [ 283023.43, 4155776.11 ], [ 283023.38, 4155776.03 ], [ 283023.32, 4155775.94 ], [ 283023.28, 4155775.85 ], [ 283023.25, 4155775.75 ], [ 283023.23, 4155775.66 ], [ 283023.21, 4155775.56 ], [ 283023.21, 4155775.45 ], [ 283023.22, 4155775.35 ], [ 283023.23, 4155775.25 ], [ 283023.26, 4155775.16 ], [ 283023.3, 4155775.06 ], [ 283025.84, 4155769.48 ], [ 283025.89, 4155769.39 ], [ 283025.94, 4155769.31 ], [ 283026.0, 4155769.24 ], [ 283026.06, 4155769.17 ], [ 283026.13, 4155769.11 ], [ 283026.21, 4155769.05 ], [ 283026.29, 4155769.0 ], [ 283026.38, 4155768.96 ], [ 283026.47, 4155768.93 ], [ 283026.56, 4155768.91 ], [ 283026.66, 4155768.9 ], [ 283026.75, 4155768.89 ], [ 283026.85, 4155768.9 ], [ 283026.94, 4155768.91 ], [ 283027.04, 4155768.93 ], [ 283027.13, 4155768.96 ], [ 283033.74, 4155771.63 ], [ 283035.53, 4155771.63 ], [ 283036.55, 4155772.05 ], [ 283037.74, 4155773.24 ], [ 283040.29, 4155774.26 ], [ 283040.38, 4155774.3 ], [ 283040.46, 4155774.35 ], [ 283040.54, 4155774.41 ], [ 283040.62, 4155774.47 ], [ 283040.68, 4155774.54 ], [ 283040.74, 4155774.62 ], [ 283040.79, 4155774.71 ], [ 283040.84, 4155774.79 ], [ 283040.87, 4155774.88 ] ] ], [ [ [ 283108.88, 4155750.97 ], [ 283108.78, 4155750.99 ], [ 283108.68, 4155751.0 ], [ 283108.59, 4155751.0 ], [ 283108.49, 4155750.99 ], [ 283108.39, 4155750.97 ], [ 283108.3, 4155750.94 ], [ 283108.21, 4155750.91 ], [ 283106.42, 4155750.08 ], [ 283105.44, 4155751.44 ], [ 283106.89, 4155752.13 ], [ 283106.97, 4155752.17 ], [ 283107.06, 4155752.23 ], [ 283107.13, 4155752.29 ], [ 283107.2, 4155752.36 ], [ 283107.27, 4155752.44 ], [ 283107.32, 4155752.52 ], [ 283107.37, 4155752.61 ], [ 283107.4, 4155752.7 ], [ 283107.43, 4155752.8 ], [ 283107.45, 4155752.9 ], [ 283107.46, 4155753.0 ], [ 283107.46, 4155753.1 ], [ 283107.45, 4155753.19 ], [ 283107.42, 4155753.29 ], [ 283107.39, 4155753.39 ], [ 283107.35, 4155753.48 ], [ 283104.55, 4155759.09 ], [ 283104.5, 4155759.18 ], [ 283104.45, 4155759.25 ], [ 283104.38, 4155759.33 ], [ 283104.32, 4155759.39 ], [ 283104.24, 4155759.45 ], [ 283104.16, 4155759.51 ], [ 283104.08, 4155759.55 ], [ 283103.99, 4155759.59 ], [ 283103.9, 4155759.61 ], [ 283103.85, 4155759.63 ], [ 283103.6, 4155761.35 ], [ 283103.62, 4155761.37 ], [ 283103.69, 4155761.44 ], [ 283103.75, 4155761.52 ], [ 283103.8, 4155761.6 ], [ 283103.84, 4155761.69 ], [ 283103.88, 4155761.78 ], [ 283103.9, 4155761.88 ], [ 283103.92, 4155761.97 ], [ 283103.93, 4155762.07 ], [ 283103.93, 4155762.17 ], [ 283103.91, 4155762.27 ], [ 283103.89, 4155762.36 ], [ 283103.86, 4155762.46 ], [ 283103.82, 4155762.55 ], [ 283103.27, 4155763.64 ], [ 283102.67, 4155767.87 ], [ 283102.07, 4155768.84 ], [ 283099.86, 4155770.41 ], [ 283099.81, 4155770.51 ], [ 283099.76, 4155770.6 ], [ 283099.71, 4155770.68 ], [ 283099.64, 4155770.75 ], [ 283099.57, 4155770.82 ], [ 283099.49, 4155770.88 ], [ 283099.41, 4155770.93 ], [ 283099.32, 4155770.98 ], [ 283099.23, 4155771.01 ], [ 283099.14, 4155771.04 ], [ 283099.04, 4155771.05 ], [ 283098.94, 4155771.06 ], [ 283098.84, 4155771.06 ], [ 283098.75, 4155771.05 ], [ 283098.65, 4155771.03 ], [ 283098.56, 4155771.0 ], [ 283098.47, 4155770.96 ], [ 283098.26, 4155770.85 ], [ 283090.72, 4155769.34 ], [ 283087.13, 4155772.29 ], [ 283087.13, 4155776.07 ], [ 283090.19, 4155777.49 ], [ 283090.28, 4155777.53 ], [ 283090.36, 4155777.59 ], [ 283090.43, 4155777.65 ], [ 283090.5, 4155777.72 ], [ 283090.57, 4155777.79 ], [ 283090.62, 4155777.88 ], [ 283090.67, 4155777.96 ], [ 283090.71, 4155778.05 ], [ 283090.74, 4155778.15 ], [ 283090.76, 4155778.24 ], [ 283090.77, 4155778.34 ], [ 283090.77, 4155778.44 ], [ 283090.76, 4155778.54 ], [ 283090.74, 4155778.63 ], [ 283090.71, 4155778.73 ], [ 283090.68, 4155778.82 ], [ 283090.63, 4155778.92 ], [ 283092.97, 4155780.0 ], [ 283093.06, 4155780.05 ], [ 283093.14, 4155780.1 ], [ 283093.22, 4155780.16 ], [ 283093.29, 4155780.23 ], [ 283093.35, 4155780.31 ], [ 283093.4, 4155780.39 ], [ 283093.45, 4155780.48 ], [ 283093.49, 4155780.57 ], [ 283093.52, 4155780.66 ], [ 283093.54, 4155780.76 ], [ 283093.55, 4155780.85 ], [ 283093.55, 4155780.95 ], [ 283093.55, 4155780.99 ], [ 283094.7, 4155781.52 ], [ 283094.78, 4155781.57 ], [ 283094.87, 4155781.62 ], [ 283094.94, 4155781.68 ], [ 283095.01, 4155781.75 ], [ 283095.08, 4155781.83 ], [ 283095.13, 4155781.91 ], [ 283095.18, 4155782.0 ], [ 283095.22, 4155782.09 ], [ 283095.25, 4155782.18 ], [ 283095.27, 4155782.28 ], [ 283095.28, 4155782.37 ], [ 283095.28, 4155782.47 ], [ 283095.27, 4155782.57 ], [ 283095.25, 4155782.67 ], [ 283095.22, 4155782.76 ], [ 283095.19, 4155782.85 ], [ 283094.83, 4155783.63 ], [ 283096.13, 4155783.63 ], [ 283098.9, 4155781.77 ], [ 283099.55, 4155780.2 ], [ 283100.03, 4155779.72 ], [ 283113.53, 4155750.0 ], [ 283109.73, 4155750.0 ], [ 283109.54, 4155750.42 ], [ 283109.49, 4155750.5 ], [ 283109.44, 4155750.59 ], [ 283109.37, 4155750.66 ], [ 283109.31, 4155750.73 ], [ 283109.23, 4155750.8 ], [ 283109.15, 4155750.85 ], [ 283109.06, 4155750.9 ], [ 283108.97, 4155750.94 ], [ 283108.88, 4155750.97 ] ] ], [ [ [ 283136.77, 4155767.24 ], [ 283137.97, 4155765.57 ], [ 283138.17, 4155765.32 ], [ 283138.4, 4155765.09 ], [ 283138.64, 4155764.89 ], [ 283138.91, 4155764.71 ], [ 283139.88, 4155764.15 ], [ 283140.69, 4155759.26 ], [ 283141.11, 4155758.46 ], [ 283142.96, 4155756.65 ], [ 283143.78, 4155756.25 ], [ 283145.54, 4155756.0 ], [ 283133.33, 4155750.38 ], [ 283132.88, 4155751.33 ], [ 283133.46, 4155752.33 ], [ 283133.48, 4155752.38 ], [ 283133.51, 4155752.44 ], [ 283133.52, 4155752.46 ], [ 283133.54, 4155752.49 ], [ 283133.56, 4155752.54 ], [ 283133.58, 4155752.6 ], [ 283133.59, 4155752.63 ], [ 283133.6, 4155752.65 ], [ 283133.62, 4155752.71 ], [ 283133.63, 4155752.77 ], [ 283133.64, 4155752.8 ], [ 283133.65, 4155752.82 ], [ 283133.66, 4155752.88 ], [ 283133.67, 4155752.94 ], [ 283133.67, 4155752.97 ], [ 283133.68, 4155752.99 ], [ 283133.68, 4155753.06 ], [ 283133.69, 4155753.12 ], [ 283133.69, 4155753.14 ], [ 283133.69, 4155753.17 ], [ 283133.69, 4155753.23 ], [ 283133.69, 4155753.29 ], [ 283133.69, 4155753.32 ], [ 283133.69, 4155753.35 ], [ 283133.68, 4155753.41 ], [ 283133.68, 4155753.47 ], [ 283133.67, 4155753.5 ], [ 283133.67, 4155753.52 ], [ 283133.65, 4155753.58 ], [ 283133.64, 4155753.64 ], [ 283133.63, 4155753.67 ], [ 283133.63, 4155753.7 ], [ 283133.61, 4155753.75 ], [ 283133.59, 4155753.81 ], [ 283133.58, 4155753.84 ], [ 283133.57, 4155753.86 ], [ 283133.55, 4155753.92 ], [ 283133.53, 4155753.98 ], [ 283117.91, 4155787.77 ], [ 283119.25, 4155787.5 ], [ 283119.71, 4155787.05 ], [ 283120.73, 4155786.63 ], [ 283120.79, 4155786.63 ], [ 283123.7, 4155784.35 ], [ 283125.44, 4155777.38 ], [ 283125.96, 4155776.59 ], [ 283128.08, 4155774.93 ], [ 283128.98, 4155774.63 ], [ 283133.23, 4155774.63 ], [ 283136.49, 4155767.72 ], [ 283136.62, 4155767.47 ], [ 283136.77, 4155767.24 ] ] ], [ [ [ 283240.42, 4155785.38 ], [ 283240.33, 4155785.43 ], [ 283240.24, 4155785.47 ], [ 283240.15, 4155785.5 ], [ 283240.05, 4155785.52 ], [ 283239.95, 4155785.53 ], [ 283239.86, 4155785.53 ], [ 283239.76, 4155785.52 ], [ 283239.66, 4155785.5 ], [ 283239.57, 4155785.47 ], [ 283239.48, 4155785.43 ], [ 283235.64, 4155783.63 ], [ 283235.17, 4155783.63 ], [ 283234.1, 4155783.14 ], [ 283233.74, 4155782.73 ], [ 283230.05, 4155780.99 ], [ 283229.96, 4155780.95 ], [ 283229.88, 4155780.89 ], [ 283229.8, 4155780.83 ], [ 283229.73, 4155780.76 ], [ 283229.67, 4155780.68 ], [ 283229.62, 4155780.6 ], [ 283229.57, 4155780.52 ], [ 283229.53, 4155780.43 ], [ 283229.5, 4155780.33 ], [ 283229.49, 4155780.24 ], [ 283229.48, 4155780.14 ], [ 283229.48, 4155780.04 ], [ 283229.48, 4155779.94 ], [ 283229.5, 4155779.85 ], [ 283229.53, 4155779.75 ], [ 283229.57, 4155779.66 ], [ 283232.37, 4155773.72 ], [ 283234.01, 4155760.61 ], [ 283234.11, 4155760.24 ], [ 283234.38, 4155759.55 ], [ 283233.45, 4155756.07 ], [ 283230.22, 4155756.0 ], [ 283224.63, 4155768.13 ], [ 283224.71, 4155768.2 ], [ 283225.13, 4155769.22 ], [ 283225.13, 4155779.48 ], [ 283243.13, 4155787.82 ], [ 283243.13, 4155786.63 ], [ 283241.02, 4155784.51 ], [ 283240.81, 4155784.95 ], [ 283240.76, 4155785.04 ], [ 283240.71, 4155785.12 ], [ 283240.65, 4155785.2 ], [ 283240.58, 4155785.27 ], [ 283240.5, 4155785.33 ], [ 283240.42, 4155785.38 ] ] ], [ [ [ 283053.57, 4155811.34 ], [ 283059.11, 4155813.63 ], [ 283059.51, 4155813.63 ], [ 283059.55, 4155813.58 ], [ 283059.63, 4155813.51 ], [ 283059.7, 4155813.45 ], [ 283059.79, 4155813.4 ], [ 283059.88, 4155813.36 ], [ 283059.97, 4155813.32 ], [ 283060.07, 4155813.3 ], [ 283060.16, 4155813.28 ], [ 283060.26, 4155813.28 ], [ 283060.35, 4155813.28 ], [ 283060.38, 4155813.2 ], [ 283063.05, 4155807.45 ], [ 283063.1, 4155807.37 ], [ 283063.13, 4155807.32 ], [ 283063.13, 4155797.9 ], [ 283063.35, 4155797.12 ], [ 283064.57, 4155795.15 ], [ 283065.16, 4155794.61 ], [ 283071.41, 4155791.49 ], [ 283072.19, 4155786.68 ], [ 283070.44, 4155784.94 ], [ 283067.37, 4155784.21 ], [ 283066.27, 4155784.58 ], [ 283065.17, 4155787.34 ], [ 283065.13, 4155787.43 ], [ 283065.08, 4155787.51 ], [ 283065.02, 4155787.59 ], [ 283064.95, 4155787.67 ], [ 283064.88, 4155787.73 ], [ 283064.8, 4155787.79 ], [ 283064.72, 4155787.84 ], [ 283064.63, 4155787.89 ], [ 283064.54, 4155787.92 ], [ 283064.45, 4155787.95 ], [ 283064.35, 4155787.96 ], [ 283064.25, 4155787.97 ], [ 283064.15, 4155787.97 ], [ 283064.06, 4155787.95 ], [ 283063.96, 4155787.93 ], [ 283063.87, 4155787.9 ], [ 283058.56, 4155785.78 ], [ 283058.47, 4155785.74 ], [ 283054.37, 4155794.69 ], [ 283052.49, 4155799.02 ], [ 283052.89, 4155799.4 ], [ 283053.3, 4155800.64 ], [ 283051.71, 4155810.13 ], [ 283052.76, 4155811.36 ], [ 283052.8, 4155811.34 ], [ 283052.9, 4155811.31 ], [ 283052.99, 4155811.28 ], [ 283053.09, 4155811.27 ], [ 283053.19, 4155811.27 ], [ 283053.29, 4155811.27 ], [ 283053.38, 4155811.28 ], [ 283053.48, 4155811.31 ], [ 283053.57, 4155811.34 ] ] ], [ [ [ 283209.17, 4155821.22 ], [ 283209.12, 4155821.13 ], [ 283209.08, 4155821.04 ], [ 283209.05, 4155820.95 ], [ 283209.03, 4155820.85 ], [ 283209.02, 4155820.75 ], [ 283209.02, 4155820.65 ], [ 283209.02, 4155820.55 ], [ 283209.04, 4155820.45 ], [ 283209.07, 4155820.36 ], [ 283209.11, 4155820.26 ], [ 283211.99, 4155814.07 ], [ 283212.04, 4155813.98 ], [ 283212.09, 4155813.9 ], [ 283212.15, 4155813.83 ], [ 283212.22, 4155813.76 ], [ 283212.3, 4155813.69 ], [ 283212.38, 4155813.64 ], [ 283212.46, 4155813.59 ], [ 283212.55, 4155813.55 ], [ 283212.65, 4155813.52 ], [ 283212.74, 4155813.5 ], [ 283212.84, 4155813.49 ], [ 283212.94, 4155813.49 ], [ 283213.04, 4155813.5 ], [ 283213.13, 4155813.52 ], [ 283213.13, 4155811.22 ], [ 283213.55, 4155810.2 ], [ 283215.71, 4155808.05 ], [ 283216.47, 4155807.73 ], [ 283217.18, 4155806.22 ], [ 283217.23, 4155806.13 ], [ 283217.28, 4155806.05 ], [ 283217.34, 4155805.97 ], [ 283217.41, 4155805.9 ], [ 283217.49, 4155805.84 ], [ 283217.57, 4155805.78 ], [ 283217.65, 4155805.74 ], [ 283217.74, 4155805.7 ], [ 283217.84, 4155805.67 ], [ 283217.93, 4155805.65 ], [ 283218.03, 4155805.64 ], [ 283218.13, 4155805.64 ], [ 283218.23, 4155805.65 ], [ 283218.32, 4155805.67 ], [ 283218.42, 4155805.7 ], [ 283218.51, 4155805.73 ], [ 283222.56, 4155807.63 ], [ 283224.25, 4155807.63 ], [ 283224.59, 4155807.67 ], [ 283225.6, 4155807.9 ], [ 283225.92, 4155808.02 ], [ 283229.1, 4155809.61 ], [ 283229.69, 4155810.15 ], [ 283230.42, 4155811.32 ], [ 283230.47, 4155811.36 ], [ 283230.54, 4155811.43 ], [ 283230.6, 4155811.51 ], [ 283230.65, 4155811.59 ], [ 283230.7, 4155811.68 ], [ 283230.74, 4155811.77 ], [ 283230.77, 4155811.86 ], [ 283230.77, 4155811.9 ], [ 283230.91, 4155812.12 ], [ 283231.13, 4155812.9 ], [ 283231.13, 4155820.35 ], [ 283230.91, 4155821.13 ], [ 283229.69, 4155823.1 ], [ 283229.1, 4155823.64 ], [ 283226.79, 4155824.8 ], [ 283225.13, 4155827.48 ], [ 283225.13, 4155836.09 ], [ 283225.02, 4155836.66 ], [ 283224.37, 4155838.23 ], [ 283224.04, 4155838.71 ], [ 283220.01, 4155842.75 ], [ 283219.13, 4155844.87 ], [ 283219.13, 4155847.77 ], [ 283220.79, 4155850.45 ], [ 283222.04, 4155851.08 ], [ 283226.22, 4155849.34 ], [ 283227.41, 4155845.78 ], [ 283227.87, 4155845.12 ], [ 283229.65, 4155843.63 ], [ 283230.38, 4155843.3 ], [ 283234.76, 4155842.68 ], [ 283240.93, 4155828.96 ], [ 283240.94, 4155828.95 ], [ 283250.0, 4155809.01 ], [ 283250.0, 4155804.65 ], [ 283219.68, 4155790.26 ], [ 283217.47, 4155791.74 ], [ 283216.13, 4155794.23 ], [ 283216.13, 4155796.35 ], [ 283215.91, 4155797.13 ], [ 283214.69, 4155799.1 ], [ 283214.1, 4155799.64 ], [ 283208.95, 4155802.22 ], [ 283204.13, 4155812.7 ], [ 283204.13, 4155819.32 ], [ 283206.14, 4155822.15 ], [ 283209.21, 4155821.27 ], [ 283209.17, 4155821.22 ] ], [ [ 283236.53, 4155805.14 ], [ 283236.47, 4155805.1 ], [ 283236.39, 4155805.04 ], [ 283236.32, 4155804.97 ], [ 283236.25, 4155804.9 ], [ 283236.2, 4155804.81 ], [ 283236.15, 4155804.73 ], [ 283236.11, 4155804.64 ], [ 283236.08, 4155804.54 ], [ 283236.06, 4155804.44 ], [ 283236.05, 4155804.34 ], [ 283236.05, 4155804.24 ], [ 283236.06, 4155804.14 ], [ 283236.08, 4155804.05 ], [ 283236.11, 4155803.95 ], [ 283236.15, 4155803.86 ], [ 283237.14, 4155801.79 ], [ 283237.18, 4155801.7 ], [ 283237.24, 4155801.62 ], [ 283237.3, 4155801.55 ], [ 283237.36, 4155801.48 ], [ 283237.44, 4155801.42 ], [ 283237.52, 4155801.37 ], [ 283237.6, 4155801.32 ], [ 283237.69, 4155801.28 ], [ 283237.78, 4155801.25 ], [ 283237.88, 4155801.23 ], [ 283237.97, 4155801.22 ], [ 283238.07, 4155801.22 ], [ 283238.16, 4155801.23 ], [ 283238.26, 4155801.25 ], [ 283238.35, 4155801.27 ], [ 283238.44, 4155801.31 ], [ 283243.37, 4155803.48 ], [ 283243.46, 4155803.52 ], [ 283243.54, 4155803.57 ], [ 283243.62, 4155803.63 ], [ 283243.69, 4155803.7 ], [ 283243.76, 4155803.78 ], [ 283243.81, 4155803.86 ], [ 283243.86, 4155803.94 ], [ 283243.9, 4155804.04 ], [ 283243.93, 4155804.13 ], [ 283243.95, 4155804.23 ], [ 283243.97, 4155804.32 ], [ 283243.97, 4155804.42 ], [ 283243.96, 4155804.52 ], [ 283243.94, 4155804.62 ], [ 283243.91, 4155804.71 ], [ 283243.88, 4155804.81 ], [ 283242.52, 4155807.77 ], [ 283242.48, 4155807.86 ], [ 283242.43, 4155807.94 ], [ 283242.37, 4155808.01 ], [ 283242.3, 4155808.08 ], [ 283242.23, 4155808.15 ], [ 283242.15, 4155808.2 ], [ 283242.07, 4155808.25 ], [ 283241.98, 4155808.29 ], [ 283241.89, 4155808.32 ], [ 283241.8, 4155808.34 ], [ 283241.7, 4155808.35 ], [ 283241.61, 4155808.36 ], [ 283241.51, 4155808.35 ], [ 283241.42, 4155808.34 ], [ 283241.32, 4155808.32 ], [ 283236.93, 4155806.99 ], [ 283236.84, 4155806.95 ], [ 283236.75, 4155806.91 ], [ 283236.67, 4155806.87 ], [ 283236.59, 4155806.81 ], [ 283236.52, 4155806.75 ], [ 283236.46, 4155806.68 ], [ 283236.4, 4155806.6 ], [ 283236.35, 4155806.52 ], [ 283236.3, 4155806.43 ], [ 283236.27, 4155806.34 ], [ 283236.24, 4155806.25 ], [ 283236.23, 4155806.16 ], [ 283236.22, 4155806.06 ], [ 283236.22, 4155805.97 ], [ 283236.23, 4155805.87 ], [ 283236.25, 4155805.78 ], [ 283236.28, 4155805.69 ], [ 283236.32, 4155805.6 ], [ 283236.53, 4155805.14 ] ] ], [ [ [ 283019.43, 4155906.63 ], [ 283036.47, 4155916.21 ], [ 283039.83, 4155908.82 ], [ 283039.91, 4155908.66 ], [ 283038.81, 4155908.1 ], [ 283035.52, 4155906.63 ], [ 283030.38, 4155906.63 ], [ 283030.34, 4155906.65 ], [ 283030.25, 4155906.69 ], [ 283030.15, 4155906.72 ], [ 283030.06, 4155906.74 ], [ 283029.96, 4155906.75 ], [ 283029.86, 4155906.75 ], [ 283029.76, 4155906.74 ], [ 283029.67, 4155906.73 ], [ 283029.57, 4155906.7 ], [ 283029.48, 4155906.66 ], [ 283029.4, 4155906.63 ], [ 283019.43, 4155906.63 ] ] ], [ [ [ 283064.82, 4155902.31 ], [ 283058.41, 4155916.95 ], [ 283057.95, 4155919.71 ], [ 283061.86, 4155923.05 ], [ 283064.08, 4155922.31 ], [ 283066.13, 4155919.46 ], [ 283066.13, 4155903.63 ], [ 283064.82, 4155902.31 ] ] ] ] } },
{ "type": "Feature", "properties": { "id": "richmond_structure:241907", "name": null, "kind": "deck", "sport": null, "surface": null, "pitch_layout": null, "source": "richmond_structures", "source_updated": "2026-09-08T12:07:13.637000Z", "base_z": null, "top_z": null }, "geometry": { "type": "Polygon", "coordinates": [ [ [ 283060.42, 4155750.0 ], [ 283059.57, 4155750.0 ], [ 283060.26, 4155750.33 ], [ 283060.42, 4155750.0 ] ] ] } },
{ "type": "Feature", "properties": { "id": "richmond_structure:242051", "name": null, "kind": "deck", "sport": null, "surface": null, "pitch_layout": null, "source": "richmond_structures", "source_updated": "2026-09-08T12:07:13.637000Z", "base_z": null, "top_z": null }, "geometry": { "type": "Polygon", "coordinates": [ [ [ 283091.58, 4155751.43 ], [ 283092.27, 4155750.0 ], [ 283089.04, 4155750.0 ], [ 283088.98, 4155750.1 ], [ 283091.58, 4155751.43 ] ] ] } },
{ "type": "Feature", "properties": { "id": "richmond_structure:242050", "name": null, "kind": "deck", "sport": null, "surface": null, "pitch_layout": null, "source": "richmond_structures", "source_updated": "2026-09-08T12:07:13.637000Z", "base_z": null, "top_z": null }, "geometry": { "type": "Polygon", "coordinates": [ [ [ 283074.98, 4155753.75 ], [ 283076.31, 4155750.92 ], [ 283074.97, 4155750.57 ], [ 283073.38, 4155752.88 ], [ 283074.98, 4155753.75 ] ] ] } },
{ "type": "Feature", "properties": { "id": "richmond_structure:242040", "name": null, "kind": "deck", "sport": null, "surface": null, "pitch_layout": null, "source": "richmond_structures", "source_updated": "2026-09-08T12:07:13.637000Z", "base_z": null, "top_z": null }, "geometry": { "type": "Polygon", "coordinates": [ [ [ 283052.32, 4155757.98 ], [ 283050.23, 4155757.26 ], [ 283047.79, 4155763.02 ], [ 283050.25, 4155764.35 ], [ 283052.32, 4155757.98 ] ] ] } },
{ "type": "Feature", "properties": { "id": "imagery:groundcover_paved:2999", "name": null, "kind": "groundcover_paved", "sport": null, "surface": null, "pitch_layout": null, "source": "vgin_vbmp+naip+lidar2025", "source_updated": null, "base_z": null, "top_z": null }, "geometry": { "type": "Polygon", "coordinates": [ [ [ 283086.09, 4155769.09 ], [ 283085.72, 4155768.77 ], [ 283085.38, 4155768.42 ], [ 283085.08, 4155768.03 ], [ 283085.03, 4155767.95 ], [ 283084.87, 4155767.86 ], [ 283084.47, 4155767.58 ], [ 283084.09, 4155767.26 ], [ 283083.75, 4155766.9 ], [ 283083.45, 4155766.51 ], [ 283083.19, 4155766.1 ], [ 283082.97, 4155765.66 ], [ 283082.9, 4155765.48 ], [ 283082.63, 4155765.41 ], [ 283080.66, 4155764.19 ], [ 283080.12, 4155763.59 ], [ 283079.95, 4155763.26 ], [ 283079.84, 4155763.26 ], [ 283079.35, 4155763.21 ], [ 283078.87, 4155763.12 ], [ 283078.4, 4155762.98 ], [ 283077.94, 4155762.79 ], [ 283074.39, 4155761.12 ], [ 283068.62, 4155763.43 ], [ 283065.96, 4155769.36 ], [ 283065.95, 4155769.38 ], [ 283065.95, 4155769.39 ], [ 283072.33, 4155772.1 ], [ 283072.77, 4155772.32 ], [ 283073.19, 4155772.57 ], [ 283073.58, 4155772.87 ], [ 283073.94, 4155773.2 ], [ 283073.96, 4155773.22 ], [ 283074.04, 4155773.05 ], [ 283074.26, 4155772.62 ], [ 283074.53, 4155772.21 ], [ 283074.84, 4155771.82 ], [ 283075.18, 4155771.48 ], [ 283075.56, 4155771.16 ], [ 283075.96, 4155770.88 ], [ 283076.39, 4155770.65 ], [ 283076.84, 4155770.46 ], [ 283077.31, 4155770.31 ], [ 283077.79, 4155770.21 ], [ 283078.27, 4155770.16 ], [ 283078.76, 4155770.15 ], [ 283079.25, 4155770.19 ], [ 283079.56, 4155770.25 ], [ 283079.75, 4155770.23 ], [ 283080.25, 4155770.22 ], [ 283080.74, 4155770.26 ], [ 283081.23, 4155770.36 ], [ 283081.7, 4155770.49 ], [ 283082.16, 4155770.68 ], [ 283083.39, 4155771.25 ], [ 283083.48, 4155771.22 ], [ 283083.96, 4155771.12 ], [ 283084.45, 4155771.07 ], [ 283084.94, 4155771.07 ], [ 283085.42, 4155771.11 ], [ 283085.91, 4155771.2 ], [ 283086.38, 4155771.34 ], [ 283086.83, 4155771.53 ], [ 283087.13, 4155771.66 ], [ 283087.13, 4155769.73 ], [ 283086.92, 4155769.62 ], [ 283086.49, 4155769.38 ], [ 283086.09, 4155769.09 ] ] ] } },
{ "type": "Feature", "properties": { "id": "richmond_structure:242039", "name": null, "kind": "deck", "sport": null, "surface": null, "pitch_layout": null, "source": "richmond_structures", "source_updated": "2026-09-08T12:07:13.637000Z", "base_z": null, "top_z": null }, "geometry": { "type": "Polygon", "coordinates": [ [ [ 283043.06, 4155777.45 ], [ 283039.66, 4155776.16 ], [ 283036.97, 4155781.49 ], [ 283039.92, 4155782.98 ], [ 283043.06, 4155777.45 ] ] ] } },
{ "type": "Feature", "properties": { "id": "richmond_structure:243998", "name": null, "kind": "deck", "sport": null, "surface": null, "pitch_layout": null, "source": "richmond_structures", "source_updated": "2026-09-08T12:07:13.637000Z", "base_z": null, "top_z": null }, "geometry": { "type": "Polygon", "coordinates": [ [ [ 283061.74, 4155793.19 ], [ 283063.98, 4155787.78 ], [ 283060.37, 4155786.34 ], [ 283057.81, 4155792.3 ], [ 283061.74, 4155793.19 ] ] ] } },
{ "type": "Feature", "properties": { "id": "richmond_structure:242898", "name": null, "kind": "deck", "sport": null, "surface": null, "pitch_layout": null, "source": "richmond_structures", "source_updated": "2026-09-08T12:07:13.637000Z", "base_z": null, "top_z": null }, "geometry": { "type": "Polygon", "coordinates": [ [ [ 283070.66, 4155793.64 ], [ 283069.7, 4155793.2 ], [ 283068.45, 4155795.95 ], [ 283070.52, 4155796.9 ], [ 283072.34, 4155792.93 ], [ 283071.22, 4155792.42 ], [ 283070.66, 4155793.64 ] ] ] } },
{ "type": "Feature", "properties": { "id": "imagery:groundcover_paved:3002", "name": null, "kind": "groundcover_paved", "sport": null, "surface": null, "pitch_layout": null, "source": "vgin_vbmp+naip+lidar2025", "source_updated": null, "base_z": null, "top_z": null }, "geometry": { "type": "MultiPolygon", "coordinates": [ [ [ [ 283141.25, 4155763.5 ], [ 283141.55, 4155763.45 ], [ 283141.86, 4155763.42 ], [ 283143.93, 4155763.37 ], [ 283144.25, 4155763.38 ], [ 283144.57, 4155763.42 ], [ 283144.88, 4155763.5 ], [ 283159.4, 4155767.84 ], [ 283161.81, 4155763.49 ], [ 283145.54, 4155756.0 ], [ 283143.31, 4155756.32 ], [ 283140.77, 4155758.79 ], [ 283139.88, 4155764.15 ], [ 283140.4, 4155763.84 ], [ 283140.67, 4155763.7 ], [ 283140.96, 4155763.59 ], [ 283141.25, 4155763.5 ] ] ], [ [ [ 283143.6, 4155793.33 ], [ 283144.69, 4155793.54 ], [ 283146.44, 4155794.72 ], [ 283156.59, 4155773.37 ], [ 283143.6, 4155769.48 ], [ 283142.8, 4155769.5 ], [ 283142.55, 4155769.65 ], [ 283141.89, 4155770.57 ], [ 283127.38, 4155801.3 ], [ 283127.24, 4155801.56 ], [ 283127.07, 4155801.81 ], [ 283126.88, 4155802.04 ], [ 283126.67, 4155802.25 ], [ 283126.44, 4155802.44 ], [ 283126.19, 4155802.61 ], [ 283125.93, 4155802.75 ], [ 283125.65, 4155802.87 ], [ 283125.37, 4155802.95 ], [ 283125.07, 4155803.01 ], [ 283124.77, 4155803.04 ], [ 283124.48, 4155803.04 ], [ 283124.18, 4155803.01 ], [ 283123.88, 4155802.95 ], [ 283123.6, 4155802.87 ], [ 283123.32, 4155802.75 ], [ 283123.06, 4155802.61 ], [ 283122.81, 4155802.45 ], [ 283122.58, 4155802.26 ], [ 283122.36, 4155802.04 ], [ 283122.17, 4155801.81 ], [ 283122.01, 4155801.56 ], [ 283121.87, 4155801.3 ], [ 283121.75, 4155801.02 ], [ 283121.66, 4155800.74 ], [ 283121.61, 4155800.44 ], [ 283121.58, 4155800.15 ], [ 283121.58, 4155799.85 ], [ 283121.61, 4155799.55 ], [ 283121.66, 4155799.26 ], [ 283121.75, 4155798.97 ], [ 283121.86, 4155798.69 ], [ 283132.57, 4155776.02 ], [ 283127.73, 4155777.23 ], [ 283125.61, 4155779.19 ], [ 283123.96, 4155784.13 ], [ 283123.43, 4155784.85 ], [ 283121.35, 4155786.35 ], [ 283120.5, 4155786.63 ], [ 283119.78, 4155786.63 ], [ 283117.52, 4155788.62 ], [ 283116.65, 4155790.51 ], [ 283115.67, 4155798.32 ], [ 283119.19, 4155800.16 ], [ 283119.61, 4155800.41 ], [ 283120.0, 4155800.69 ], [ 283120.36, 4155801.01 ], [ 283120.7, 4155801.36 ], [ 283120.99, 4155801.75 ], [ 283121.25, 4155802.16 ], [ 283121.46, 4155802.59 ], [ 283121.63, 4155803.04 ], [ 283121.76, 4155803.51 ], [ 283121.84, 4155803.99 ], [ 283121.88, 4155804.47 ], [ 283121.87, 4155804.95 ], [ 283121.81, 4155805.43 ], [ 283121.71, 4155805.91 ], [ 283121.63, 4155806.14 ], [ 283121.73, 4155806.13 ], [ 283122.22, 4155806.13 ], [ 283122.71, 4155806.17 ], [ 283123.19, 4155806.26 ], [ 283123.66, 4155806.4 ], [ 283124.11, 4155806.59 ], [ 283130.08, 4155809.35 ], [ 283130.52, 4155809.58 ], [ 283130.93, 4155809.85 ], [ 283131.31, 4155810.15 ], [ 283131.66, 4155810.5 ], [ 283131.97, 4155810.87 ], [ 283132.25, 4155811.28 ], [ 283132.27, 4155811.32 ], [ 283133.94, 4155808.27 ], [ 283132.61, 4155799.0 ], [ 283132.86, 4155797.97 ], [ 283134.58, 4155795.54 ], [ 283135.48, 4155794.96 ], [ 283143.6, 4155793.33 ] ] ], [ [ [ 283187.83, 4155813.09 ], [ 283187.53, 4155813.47 ], [ 283187.4, 4155813.59 ], [ 283187.4, 4155813.67 ], [ 283187.31, 4155814.15 ], [ 283187.17, 4155814.62 ], [ 283186.99, 4155815.08 ], [ 283183.92, 4155821.85 ], [ 283183.69, 4155822.29 ], [ 283183.43, 4155822.7 ], [ 283183.24, 4155822.93 ], [ 283183.23, 4155823.12 ], [ 283183.13, 4155823.6 ], [ 283183.13, 4155823.61 ], [ 283183.13, 4155837.82 ], [ 283207.59, 4155784.58 ], [ 283196.84, 4155779.62 ], [ 283197.1, 4155779.79 ], [ 283197.49, 4155780.09 ], [ 283197.85, 4155780.43 ], [ 283198.17, 4155780.8 ], [ 283198.45, 4155781.2 ], [ 283198.69, 4155781.63 ], [ 283198.77, 4155781.82 ], [ 283199.02, 4155782.05 ], [ 283199.34, 4155782.42 ], [ 283199.62, 4155782.82 ], [ 283199.86, 4155783.25 ], [ 283200.06, 4155783.7 ], [ 283200.21, 4155784.16 ], [ 283200.32, 4155784.64 ], [ 283200.38, 4155785.13 ], [ 283200.4, 4155785.62 ], [ 283200.36, 4155786.1 ], [ 283200.28, 4155786.59 ], [ 283200.15, 4155787.06 ], [ 283199.97, 4155787.52 ], [ 283197.15, 4155793.92 ], [ 283196.93, 4155794.36 ], [ 283196.67, 4155794.77 ], [ 283196.37, 4155795.16 ], [ 283196.21, 4155795.33 ], [ 283195.13, 4155797.7 ], [ 283195.13, 4155801.99 ], [ 283194.47, 4155803.18 ], [ 283191.71, 4155804.89 ], [ 283188.33, 4155812.24 ], [ 283188.1, 4155812.68 ], [ 283187.83, 4155813.09 ] ] ], [ [ [ 283138.27, 4155816.63 ], [ 283137.32, 4155816.27 ], [ 283136.14, 4155815.25 ], [ 283133.71, 4155816.15 ], [ 283133.77, 4155816.33 ], [ 283133.87, 4155816.81 ], [ 283133.92, 4155817.29 ], [ 283133.93, 4155817.78 ], [ 283133.88, 4155818.27 ], [ 283133.79, 4155818.76 ], [ 283133.65, 4155819.23 ], [ 283133.47, 4155819.68 ], [ 283130.1, 4155826.97 ], [ 283143.57, 4155833.19 ], [ 283144.01, 4155833.42 ], [ 283144.42, 4155833.69 ], [ 283144.8, 4155834.0 ], [ 283145.15, 4155834.34 ], [ 283145.46, 4155834.72 ], [ 283145.74, 4155835.12 ], [ 283145.98, 4155835.56 ], [ 283146.17, 4155836.01 ], [ 283146.21, 4155836.15 ], [ 283146.91, 4155835.52 ], [ 283146.92, 4155835.47 ], [ 283146.85, 4155833.8 ], [ 283141.81, 4155818.68 ], [ 283138.97, 4155816.63 ], [ 283138.27, 4155816.63 ] ] ] ] } },
{ "type": "Feature", "properties": { "id": "richmond_structure:242902", "name": null, "kind": "deck", "sport": null, "surface": null, "pitch_layout": null, "source": "richmond_structures", "source_updated": "2026-09-08T12:07:13.637000Z", "base_z": null, "top_z": null }, "geometry": { "type": "Polygon", "coordinates": [ [ [ 283230.93, 4155836.16 ], [ 283224.81, 4155849.06 ], [ 283230.7, 4155851.85 ], [ 283238.65, 4155835.07 ], [ 283231.1, 4155831.49 ], [ 283229.26, 4155835.37 ], [ 283230.93, 4155836.16 ] ] ] } },
{ "type": "Feature", "properties": { "id": "richmond_structure:241938", "name": null, "kind": "deck", "sport": null, "surface": null, "pitch_layout": null, "source": "richmond_structures", "source_updated": "2026-09-08T12:07:13.637000Z", "base_z": null, "top_z": null }, "geometry": { "type": "Polygon", "coordinates": [ [ [ 283221.08, 4155840.35 ], [ 283218.5, 4155838.97 ], [ 283216.51, 4155843.17 ], [ 283219.14, 4155844.48 ], [ 283221.08, 4155840.35 ] ] ] } },
{ "type": "Feature", "properties": { "id": "richmond_structure:242904", "name": null, "kind": "deck", "sport": null, "surface": null, "pitch_layout": null, "source": "richmond_structures", "source_updated": "2026-09-08T12:07:13.637000Z", "base_z": null, "top_z": null }, "geometry": { "type": "Polygon", "coordinates": [ [ [ 283217.94, 4155856.45 ], [ 283220.42, 4155851.14 ], [ 283218.89, 4155850.43 ], [ 283219.55, 4155849.01 ], [ 283216.49, 4155847.73 ], [ 283213.44, 4155854.36 ], [ 283217.94, 4155856.45 ] ] ] } },
{ "type": "Feature", "properties": { "id": "richmond_structure:242903", "name": null, "kind": "deck", "sport": null, "surface": null, "pitch_layout": null, "source": "richmond_structures", "source_updated": "2026-09-08T12:07:13.637000Z", "base_z": null, "top_z": null }, "geometry": { "type": "Polygon", "coordinates": [ [ [ 283223.74, 4155855.01 ], [ 283224.04, 4155856.08 ], [ 283225.34, 4155856.83 ], [ 283229.04, 4155857.32 ], [ 283230.43, 4155854.23 ], [ 283228.53, 4155852.24 ], [ 283226.95, 4155851.31 ], [ 283225.37, 4155851.53 ], [ 283223.99, 4155853.17 ], [ 283223.74, 4155855.01 ] ] ] } },
{ "type": "Feature", "properties": { "id": "richmond_structure:244073", "name": null, "kind": "deck", "sport": null, "surface": null, "pitch_layout": null, "source": "richmond_structures", "source_updated": "2026-09-08T12:07:13.637000Z", "base_z": null, "top_z": null }, "geometry": { "type": "Polygon", "coordinates": [ [ [ 283214.28, 4155860.31 ], [ 283210.39, 4155858.41 ], [ 283209.36, 4155860.53 ], [ 283210.81, 4155861.24 ], [ 283211.28, 4155860.28 ], [ 283213.75, 4155861.49 ], [ 283212.46, 4155864.4 ], [ 283223.64, 4155869.41 ], [ 283227.37, 4155861.04 ], [ 283216.26, 4155855.87 ], [ 283214.28, 4155860.31 ] ], [ [ 283223.17, 4155867.74 ], [ 283215.48, 4155864.26 ], [ 283218.06, 4155858.56 ], [ 283225.75, 4155862.04 ], [ 283223.17, 4155867.74 ] ] ] } },
{ "type": "Feature", "properties": { "id": "richmond_structure:242901", "name": null, "kind": "deck", "sport": null, "surface": null, "pitch_layout": null, "source": "richmond_structures", "source_updated": "2026-09-08T12:07:13.637000Z", "base_z": null, "top_z": null }, "geometry": { "type": "Polygon", "coordinates": [ [ [ 283203.51, 4155865.0 ], [ 283201.78, 4155868.94 ], [ 283204.9, 4155870.31 ], [ 283206.63, 4155866.37 ], [ 283203.51, 4155865.0 ] ] ] } },
{ "type": "Feature", "properties": { "id": "richmond_structure:243997", "name": null, "kind": "deck", "sport": null, "surface": null, "pitch_layout": null, "source": "richmond_structures", "source_updated": "2026-09-08T12:07:13.637000Z", "base_z": null, "top_z": null }, "geometry": { "type": "Polygon", "coordinates": [ [ [ 283189.12, 4155875.37 ], [ 283188.64, 4155876.5 ], [ 283194.87, 4155879.14 ], [ 283195.35, 4155878.01 ], [ 283189.12, 4155875.37 ] ] ] } },
{ "type": "Feature", "properties": { "id": "richmond_structure:242858", "name": null, "kind": "deck", "sport": null, "surface": null, "pitch_layout": null, "source": "richmond_structures", "source_updated": "2026-09-08T12:07:13.637000Z", "base_z": null, "top_z": null }, "geometry": { "type": "Polygon", "coordinates": [ [ [ 283198.2, 4155882.61 ], [ 283197.01, 4155885.43 ], [ 283200.07, 4155886.73 ], [ 283201.27, 4155883.91 ], [ 283198.2, 4155882.61 ] ] ] } },
{ "type": "Feature", "properties": { "id": "imagery:groundcover_lawn:2950", "name": null, "kind": "groundcover_lawn", "sport": null, "surface": null, "pitch_layout": null, "source": "vgin_vbmp+naip+lidar2025", "source_updated": null, "base_z": null, "top_z": null }, "geometry": { "type": "Polygon", "coordinates": [ [ [ 283249.14, 4155904.08 ], [ 283246.7, 4155905.86 ], [ 283245.65, 4155906.13 ], [ 283244.19, 4155905.92 ], [ 283244.16, 4155905.96 ], [ 283244.09, 4155906.03 ], [ 283244.01, 4155906.09 ], [ 283243.93, 4155906.15 ], [ 283243.84, 4155906.2 ], [ 283243.75, 4155906.24 ], [ 283243.66, 4155906.26 ], [ 283243.56, 4155906.28 ], [ 283243.47, 4155906.3 ], [ 283243.37, 4155906.3 ], [ 283243.27, 4155906.29 ], [ 283243.17, 4155906.27 ], [ 283243.08, 4155906.24 ], [ 283242.99, 4155906.21 ], [ 283241.55, 4155905.54 ], [ 283234.21, 4155904.49 ], [ 283248.17, 4155911.01 ], [ 283250.0, 4155911.75 ], [ 283250.0, 4155901.41 ], [ 283249.71, 4155903.15 ], [ 283249.14, 4155904.08 ] ] ] } },
{ "type": "Feature", "properties": { "id": "imagery:groundcover_lawn:2981", "name": null, "kind": "groundcover_lawn", "sport": null, "surface": null, "pitch_layout": null, "source": "vgin_vbmp+naip+lidar2025", "source_updated": null, "base_z": null, "top_z": null }, "geometry": { "type": "MultiPolygon", "coordinates": [ [ [ [ 283179.21, 4155822.08 ], [ 283179.24, 4155822.17 ], [ 283179.26, 4155822.27 ], [ 283179.27, 4155822.37 ], [ 283179.27, 4155822.47 ], [ 283179.26, 4155822.56 ], [ 283179.25, 4155822.66 ], [ 283179.22, 4155822.75 ], [ 283179.18, 4155822.84 ], [ 283176.28, 4155829.13 ], [ 283176.23, 4155829.21 ], [ 283176.18, 4155829.3 ], [ 283176.12, 4155829.37 ], [ 283176.05, 4155829.44 ], [ 283175.97, 4155829.51 ], [ 283175.89, 4155829.56 ], [ 283175.8, 4155829.61 ], [ 283175.71, 4155829.65 ], [ 283175.62, 4155829.68 ], [ 283175.52, 4155829.7 ], [ 283175.43, 4155829.71 ], [ 283175.33, 4155829.71 ], [ 283175.23, 4155829.7 ], [ 283175.13, 4155829.68 ], [ 283175.04, 4155829.65 ], [ 283174.95, 4155829.62 ], [ 283174.82, 4155829.56 ], [ 283174.47, 4155830.61 ], [ 283174.73, 4155830.74 ], [ 283174.82, 4155830.78 ], [ 283174.9, 4155830.84 ], [ 283174.98, 4155830.9 ], [ 283175.05, 4155830.97 ], [ 283175.11, 4155831.04 ], [ 283175.17, 4155831.12 ], [ 283175.21, 4155831.21 ], [ 283175.25, 4155831.3 ], [ 283175.28, 4155831.4 ], [ 283175.3, 4155831.49 ], [ 283175.31, 4155831.59 ], [ 283175.31, 4155831.69 ], [ 283175.3, 4155831.79 ], [ 283175.29, 4155831.88 ], [ 283175.26, 4155831.98 ], [ 283175.22, 4155832.07 ], [ 283172.36, 4155838.2 ], [ 283172.32, 4155838.29 ], [ 283172.27, 4155838.37 ], [ 283172.2, 4155838.45 ], [ 283172.13, 4155838.52 ], [ 283172.06, 4155838.58 ], [ 283171.98, 4155838.64 ], [ 283171.89, 4155838.68 ], [ 283171.8, 4155838.72 ], [ 283171.71, 4155838.75 ], [ 283171.61, 4155838.77 ], [ 283171.51, 4155838.78 ], [ 283171.42, 4155838.78 ], [ 283171.32, 4155838.77 ], [ 283171.22, 4155838.75 ], [ 283171.13, 4155838.73 ], [ 283171.04, 4155838.69 ], [ 283170.87, 4155838.61 ], [ 283168.93, 4155839.68 ], [ 283167.89, 4155839.81 ], [ 283162.47, 4155838.46 ], [ 283161.6, 4155837.83 ], [ 283160.0, 4155835.31 ], [ 283159.81, 4155834.25 ], [ 283159.85, 4155834.02 ], [ 283158.27, 4155833.28 ], [ 283158.19, 4155833.24 ], [ 283158.11, 4155833.18 ], [ 283158.03, 4155833.12 ], [ 283157.96, 4155833.05 ], [ 283157.9, 4155832.98 ], [ 283157.84, 4155832.9 ], [ 283157.8, 4155832.81 ], [ 283157.76, 4155832.72 ], [ 283157.73, 4155832.63 ], [ 283157.71, 4155832.53 ], [ 283157.7, 4155832.43 ], [ 283157.7, 4155832.33 ], [ 283157.7, 4155832.27 ], [ 283157.17, 4155832.02 ], [ 283157.09, 4155831.98 ], [ 283157.0, 4155831.92 ], [ 283156.93, 4155831.86 ], [ 283156.86, 4155831.79 ], [ 283156.79, 4155831.72 ], [ 283156.74, 4155831.64 ], [ 283156.69, 4155831.55 ], [ 283156.65, 4155831.46 ], [ 283156.62, 4155831.37 ], [ 283156.6, 4155831.27 ], [ 283156.59, 4155831.17 ], [ 283156.59, 4155831.07 ], [ 283156.6, 4155830.98 ], [ 283156.62, 4155830.88 ], [ 283156.65, 4155830.78 ], [ 283156.69, 4155830.69 ], [ 283159.32, 4155825.03 ], [ 283159.37, 4155824.94 ], [ 283159.42, 4155824.86 ], [ 283159.49, 4155824.78 ], [ 283159.55, 4155824.71 ], [ 283159.63, 4155824.65 ], [ 283159.71, 4155824.6 ], [ 283159.8, 4155824.55 ], [ 283159.89, 4155824.51 ], [ 283159.98, 4155824.48 ], [ 283160.08, 4155824.46 ], [ 283160.17, 4155824.45 ], [ 283160.27, 4155824.45 ], [ 283160.37, 4155824.46 ], [ 283160.46, 4155824.48 ], [ 283160.56, 4155824.51 ], [ 283160.65, 4155824.54 ], [ 283160.96, 4155824.69 ], [ 283161.01, 4155824.61 ], [ 283161.07, 4155824.54 ], [ 283161.14, 4155824.47 ], [ 283161.22, 4155824.41 ], [ 283161.3, 4155824.35 ], [ 283161.39, 4155824.31 ], [ 283161.48, 4155824.27 ], [ 283161.57, 4155824.24 ], [ 283161.67, 4155824.22 ], [ 283161.76, 4155824.21 ], [ 283161.81, 4155824.21 ], [ 283161.87, 4155823.91 ], [ 283161.87, 4155823.9 ], [ 283161.85, 4155823.8 ], [ 283161.84, 4155823.71 ], [ 283161.84, 4155823.61 ], [ 283161.85, 4155823.51 ], [ 283161.87, 4155823.41 ], [ 283161.89, 4155823.32 ], [ 283161.93, 4155823.23 ], [ 283162.07, 4155822.93 ], [ 283162.24, 4155822.07 ], [ 283162.05, 4155821.98 ], [ 283161.97, 4155821.93 ], [ 283161.89, 4155821.88 ], [ 283161.81, 4155821.82 ], [ 283161.74, 4155821.75 ], [ 283161.68, 4155821.67 ], [ 283161.62, 4155821.59 ], [ 283161.58, 4155821.51 ], [ 283161.54, 4155821.41 ], [ 283161.51, 4155821.32 ], [ 283161.49, 4155821.23 ], [ 283161.48, 4155821.13 ], [ 283161.48, 4155821.03 ], [ 283161.49, 4155820.93 ], [ 283161.51, 4155820.84 ], [ 283161.53, 4155820.74 ], [ 283161.57, 4155820.65 ], [ 283163.07, 4155817.4 ], [ 283163.11, 4155817.32 ], [ 283163.17, 4155817.23 ], [ 283163.22, 4155817.17 ], [ 283164.25, 4155812.04 ], [ 283160.72, 4155808.51 ], [ 283154.38, 4155809.78 ], [ 283153.2, 4155809.48 ], [ 283150.65, 4155807.39 ], [ 283150.13, 4155806.29 ], [ 283150.13, 4155801.16 ], [ 283146.38, 4155809.05 ], [ 283146.24, 4155809.31 ], [ 283146.07, 4155809.56 ], [ 283145.88, 4155809.79 ], [ 283145.67, 4155810.0 ], [ 283145.44, 4155810.19 ], [ 283145.19, 4155810.36 ], [ 283144.93, 4155810.5 ], [ 283144.65, 4155810.61 ], [ 283144.36, 4155810.7 ], [ 283144.07, 4155810.76 ], [ 283143.77, 4155810.79 ], [ 283143.47, 4155810.78 ], [ 283143.17, 4155810.75 ], [ 283142.88, 4155810.7 ], [ 283142.59, 4155810.61 ], [ 283142.32, 4155810.49 ], [ 283142.05, 4155810.35 ], [ 283141.81, 4155810.18 ], [ 283141.58, 4155809.99 ], [ 283141.36, 4155809.78 ], [ 283141.17, 4155809.55 ], [ 283141.01, 4155809.3 ], [ 283140.87, 4155809.04 ], [ 283140.75, 4155808.76 ], [ 283140.67, 4155808.47 ], [ 283140.61, 4155808.18 ], [ 283140.58, 4155807.88 ], [ 283140.58, 4155807.58 ], [ 283140.61, 4155807.28 ], [ 283140.67, 4155806.99 ], [ 283140.76, 4155806.71 ], [ 283140.87, 4155806.43 ], [ 283146.37, 4155794.87 ], [ 283138.72, 4155793.34 ], [ 283135.13, 4155796.29 ], [ 283135.13, 4155813.63 ], [ 283138.13, 4155816.63 ], [ 283138.5, 4155816.63 ], [ 283139.35, 4155816.9 ], [ 283141.43, 4155818.4 ], [ 283141.96, 4155819.12 ], [ 283146.74, 4155833.45 ], [ 283146.81, 4155833.92 ], [ 283146.81, 4155835.33 ], [ 283146.74, 4155835.8 ], [ 283141.77, 4155850.7 ], [ 283141.37, 4155851.32 ], [ 283139.81, 4155852.77 ], [ 283139.17, 4155853.12 ], [ 283131.16, 4155855.12 ], [ 283130.4, 4155855.11 ], [ 283128.3, 4155854.53 ], [ 283127.66, 4155854.15 ], [ 283123.72, 4155850.21 ], [ 283122.33, 4155849.42 ], [ 283109.52, 4155846.22 ], [ 283163.18, 4155870.22 ], [ 283163.33, 4155870.3 ], [ 283163.47, 4155870.39 ], [ 283163.61, 4155870.5 ], [ 283163.74, 4155870.61 ], [ 283163.85, 4155870.74 ], [ 283163.95, 4155870.88 ], [ 283164.04, 4155871.03 ], [ 283165.21, 4155873.26 ], [ 283165.24, 4155873.32 ], [ 283165.26, 4155873.38 ], [ 283165.76, 4155874.52 ], [ 283166.31, 4155874.43 ], [ 283183.13, 4155837.82 ], [ 283183.13, 4155824.48 ], [ 283179.2, 4155822.05 ], [ 283179.21, 4155822.08 ] ], [ [ 283159.55, 4155856.05 ], [ 283161.71, 4155858.2 ], [ 283162.05, 4155859.02 ], [ 283161.82, 4155859.68 ], [ 283160.17, 4155861.8 ], [ 283159.37, 4155862.32 ], [ 283154.53, 4155863.53 ], [ 283153.31, 4155863.27 ], [ 283150.68, 4155861.21 ], [ 283150.13, 4155860.09 ], [ 283150.13, 4155859.22 ], [ 283150.55, 4155858.2 ], [ 283152.71, 4155856.05 ], [ 283153.73, 4155855.63 ], [ 283158.53, 4155855.63 ], [ 283159.55, 4155856.05 ] ] ], [ [ [ 283185.51, 4155874.05 ], [ 283185.57, 4155873.98 ], [ 283185.64, 4155873.9 ], [ 283185.71, 4155873.84 ], [ 283185.79, 4155873.78 ], [ 283185.88, 4155873.73 ], [ 283185.96, 4155873.69 ], [ 283186.06, 4155873.66 ], [ 283186.15, 4155873.63 ], [ 283186.25, 4155873.62 ], [ 283186.35, 4155873.62 ], [ 283186.45, 4155873.62 ], [ 283186.54, 4155873.64 ], [ 283186.64, 4155873.66 ], [ 283186.73, 4155873.7 ], [ 283188.68, 4155874.52 ], [ 283190.04, 4155874.84 ], [ 283190.74, 4155875.23 ], [ 283191.01, 4155875.51 ], [ 283196.33, 4155877.75 ], [ 283196.41, 4155877.8 ], [ 283196.5, 4155877.85 ], [ 283196.58, 4155877.91 ], [ 283196.65, 4155877.97 ], [ 283196.72, 4155878.05 ], [ 283196.77, 4155878.13 ], [ 283196.82, 4155878.21 ], [ 283196.86, 4155878.3 ], [ 283196.9, 4155878.4 ], [ 283196.92, 4155878.49 ], [ 283196.93, 4155878.59 ], [ 283196.94, 4155878.69 ], [ 283196.93, 4155878.79 ], [ 283196.91, 4155878.88 ], [ 283196.89, 4155878.98 ], [ 283198.41, 4155879.63 ], [ 283211.28, 4155879.63 ], [ 283213.96, 4155877.97 ], [ 283217.28, 4155871.33 ], [ 283215.74, 4155867.22 ], [ 283215.71, 4155867.2 ], [ 283213.55, 4155865.05 ], [ 283213.54, 4155865.01 ], [ 283209.43, 4155863.48 ], [ 283208.79, 4155863.8 ], [ 283207.51, 4155865.87 ], [ 283207.41, 4155865.82 ], [ 283206.63, 4155867.51 ], [ 283204.14, 4155869.62 ], [ 283202.99, 4155869.93 ], [ 283193.24, 4155868.31 ], [ 283192.25, 4155867.64 ], [ 283190.58, 4155864.86 ], [ 283190.58, 4155864.83 ], [ 283189.45, 4155864.34 ], [ 283189.36, 4155864.29 ], [ 283189.28, 4155864.24 ], [ 283189.2, 4155864.18 ], [ 283189.13, 4155864.11 ], [ 283189.06, 4155864.04 ], [ 283189.01, 4155863.96 ], [ 283188.96, 4155863.87 ], [ 283188.92, 4155863.78 ], [ 283188.89, 4155863.69 ], [ 283188.87, 4155863.59 ], [ 283188.85, 4155863.5 ], [ 283188.85, 4155863.4 ], [ 283188.86, 4155863.3 ], [ 283188.87, 4155863.2 ], [ 283188.9, 4155863.11 ], [ 283188.94, 4155863.02 ], [ 283191.98, 4155856.1 ], [ 283192.03, 4155856.01 ], [ 283192.08, 4155855.93 ], [ 283192.14, 4155855.85 ], [ 283192.21, 4155855.78 ], [ 283192.28, 4155855.71 ], [ 283192.36, 4155855.66 ], [ 283192.45, 4155855.61 ], [ 283192.54, 4155855.57 ], [ 283192.63, 4155855.54 ], [ 283192.73, 4155855.52 ], [ 283192.82, 4155855.5 ], [ 283192.92, 4155855.5 ], [ 283193.02, 4155855.51 ], [ 283193.12, 4155855.52 ], [ 283193.16, 4155855.54 ], [ 283193.81, 4155853.57 ], [ 283190.97, 4155849.63 ], [ 283187.17, 4155849.63 ], [ 283178.5, 4155868.49 ], [ 283179.46, 4155873.29 ], [ 283183.36, 4155875.55 ], [ 283185.11, 4155874.97 ], [ 283185.42, 4155874.23 ], [ 283185.46, 4155874.14 ], [ 283185.51, 4155874.05 ] ] ], [ [ [ 283117.28, 4155950.02 ], [ 283117.65, 4155950.69 ], [ 283118.79, 4155955.25 ], [ 283209.5, 4155995.42 ], [ 283214.31, 4155996.29 ], [ 283214.93, 4155996.57 ], [ 283216.52, 4155997.76 ], [ 283216.96, 4155998.28 ], [ 283217.25, 4155998.87 ], [ 283219.74, 4156000.0 ], [ 283250.0, 4156000.0 ], [ 283250.0, 4155994.43 ], [ 283236.35, 4155988.58 ], [ 283235.71, 4155988.04 ], [ 283234.37, 4155986.02 ], [ 283234.13, 4155985.21 ], [ 283234.13, 4155981.63 ], [ 283231.13, 4155978.63 ], [ 283228.73, 4155978.63 ], [ 283228.41, 4155978.49 ], [ 283227.71, 4155980.14 ], [ 283227.57, 4155980.41 ], [ 283227.42, 4155980.67 ], [ 283227.24, 4155980.91 ], [ 283227.03, 4155981.13 ], [ 283226.81, 4155981.33 ], [ 283226.57, 4155981.5 ], [ 283226.31, 4155981.65 ], [ 283226.04, 4155981.78 ], [ 283225.76, 4155981.88 ], [ 283225.46, 4155981.95 ], [ 283225.17, 4155981.99 ], [ 283224.87, 4155982.0 ], [ 283224.57, 4155981.98 ], [ 283224.27, 4155981.93 ], [ 283223.98, 4155981.86 ], [ 283223.7, 4155981.75 ], [ 283223.43, 4155981.62 ], [ 283223.18, 4155981.47 ], [ 283222.94, 4155981.29 ], [ 283222.72, 4155981.08 ], [ 283222.52, 4155980.86 ], [ 283222.35, 4155980.62 ], [ 283222.2, 4155980.36 ], [ 283222.07, 4155980.09 ], [ 283221.97, 4155979.8 ], [ 283221.9, 4155979.51 ], [ 283221.86, 4155979.22 ], [ 283221.85, 4155978.92 ], [ 283221.87, 4155978.62 ], [ 283221.91, 4155978.32 ], [ 283221.99, 4155978.03 ], [ 283222.09, 4155977.75 ], [ 283224.08, 4155973.1 ], [ 283223.25, 4155971.87 ], [ 283211.44, 4155967.15 ], [ 283210.99, 4155966.86 ], [ 283209.82, 4155965.79 ], [ 283209.5, 4155965.36 ], [ 283207.53, 4155961.41 ], [ 283207.41, 4155961.09 ], [ 283207.17, 4155960.09 ], [ 283207.13, 4155959.74 ], [ 283207.13, 4155950.9 ], [ 283207.35, 4155950.12 ], [ 283208.57, 4155948.15 ], [ 283209.16, 4155947.61 ], [ 283218.02, 4155943.18 ], [ 283219.52, 4155941.45 ], [ 283224.81, 4155925.57 ], [ 283224.81, 4155923.68 ], [ 283220.76, 4155911.52 ], [ 283209.98, 4155906.63 ], [ 283209.4, 4155906.63 ], [ 283208.63, 4155906.41 ], [ 283206.66, 4155905.19 ], [ 283206.55, 4155905.07 ], [ 283196.75, 4155900.63 ], [ 283193.17, 4155900.63 ], [ 283192.77, 4155900.57 ], [ 283191.61, 4155900.25 ], [ 283191.24, 4155900.09 ], [ 283177.84, 4155892.05 ], [ 283176.3, 4155891.63 ], [ 283168.84, 4155891.63 ], [ 283167.75, 4155891.88 ], [ 283139.37, 4155953.6 ], [ 283139.18, 4155953.97 ], [ 283138.95, 4155954.32 ], [ 283138.68, 4155954.65 ], [ 283138.39, 4155954.95 ], [ 283138.07, 4155955.23 ], [ 283137.72, 4155955.46 ], [ 283137.35, 4155955.67 ], [ 283136.96, 4155955.83 ], [ 283136.56, 4155955.96 ], [ 283136.14, 4155956.05 ], [ 283135.72, 4155956.09 ], [ 283135.3, 4155956.1 ], [ 283134.88, 4155956.06 ], [ 283134.47, 4155955.98 ], [ 283134.06, 4155955.86 ], [ 283133.67, 4155955.71 ], [ 283133.3, 4155955.51 ], [ 283132.94, 4155955.28 ], [ 283132.61, 4155955.02 ], [ 283132.31, 4155954.72 ], [ 283132.04, 4155954.4 ], [ 283131.8, 4155954.05 ], [ 283131.6, 4155953.68 ], [ 283131.43, 4155953.29 ], [ 283131.31, 4155952.89 ], [ 283131.22, 4155952.48 ], [ 283131.17, 4155952.06 ], [ 283131.17, 4155951.63 ], [ 283131.21, 4155951.21 ], [ 283131.28, 4155950.8 ], [ 283131.4, 4155950.39 ], [ 283131.56, 4155950.0 ], [ 283155.73, 4155897.44 ], [ 283153.68, 4155881.04 ], [ 283118.28, 4155864.83 ], [ 283118.39, 4155864.99 ], [ 283118.45, 4155865.38 ], [ 283122.93, 4155867.53 ], [ 283123.08, 4155867.61 ], [ 283123.23, 4155867.71 ], [ 283123.36, 4155867.83 ], [ 283123.49, 4155867.95 ], [ 283123.6, 4155868.09 ], [ 283123.7, 4155868.24 ], [ 283123.78, 4155868.39 ], [ 283123.85, 4155868.56 ], [ 283123.9, 4155868.73 ], [ 283123.93, 4155868.9 ], [ 283123.95, 4155869.07 ], [ 283123.94, 4155869.25 ], [ 283123.93, 4155869.43 ], [ 283123.89, 4155869.6 ], [ 283123.84, 4155869.77 ], [ 283123.77, 4155869.93 ], [ 283123.69, 4155870.09 ], [ 283123.59, 4155870.23 ], [ 283123.47, 4155870.37 ], [ 283123.35, 4155870.49 ], [ 283123.21, 4155870.6 ], [ 283123.06, 4155870.7 ], [ 283122.91, 4155870.78 ], [ 283122.74, 4155870.85 ], [ 283122.57, 4155870.9 ], [ 283122.4, 4155870.93 ], [ 283122.22, 4155870.95 ], [ 283122.05, 4155870.95 ], [ 283121.87, 4155870.93 ], [ 283121.7, 4155870.9 ], [ 283121.53, 4155870.84 ], [ 283121.37, 4155870.77 ], [ 283117.67, 4155869.0 ], [ 283106.27, 4155903.22 ], [ 283106.36, 4155903.36 ], [ 283106.37, 4155903.34 ], [ 283117.69, 4155908.42 ], [ 283123.57, 4155909.26 ], [ 283124.37, 4155909.65 ], [ 283126.21, 4155911.39 ], [ 283126.64, 4155912.16 ], [ 283126.7, 4155912.46 ], [ 283131.45, 4155914.59 ], [ 283122.67, 4155933.99 ], [ 283107.39, 4155927.13 ], [ 283099.78, 4155925.44 ], [ 283096.13, 4155928.37 ], [ 283096.13, 4155940.36 ], [ 283098.31, 4155943.25 ], [ 283115.09, 4155948.04 ], [ 283115.74, 4155948.43 ], [ 283117.28, 4155950.02 ] ] ] ] } },
{ "type": "Feature", "properties": { "id": "richmond_structure:242900", "name": null, "kind": "deck", "sport": null, "surface": null, "pitch_layout": null, "source": "richmond_structures", "source_updated": "2026-09-08T12:07:13.637000Z", "base_z": null, "top_z": null }, "geometry": { "type": "Polygon", "coordinates": [ [ [ 283047.08, 4155799.57 ], [ 283035.57, 4155794.73 ], [ 283032.76, 4155801.37 ], [ 283043.92, 4155806.52 ], [ 283047.08, 4155799.57 ] ] ] } },
{ "type": "Feature", "properties": { "id": "richmond_structure:243999", "name": null, "kind": "deck", "sport": null, "surface": null, "pitch_layout": null, "source": "richmond_structures", "source_updated": "2026-09-08T12:07:13.637000Z", "base_z": null, "top_z": null }, "geometry": { "type": "Polygon", "coordinates": [ [ [ 283032.12, 4155810.34 ], [ 283027.6, 4155808.2 ], [ 283026.6, 4155810.3 ], [ 283030.86, 4155812.4 ], [ 283032.12, 4155810.34 ] ] ] } },
{ "type": "Feature", "properties": { "id": "imagery:groundcover_lawn:2974", "name": null, "kind": "groundcover_lawn", "sport": null, "surface": null, "pitch_layout": null, "source": "vgin_vbmp+naip+lidar2025", "source_updated": null, "base_z": null, "top_z": null }, "geometry": { "type": "MultiPolygon", "coordinates": [ [ [ [ 283035.65, 4155814.65 ], [ 283035.61, 4155814.56 ], [ 283035.58, 4155814.46 ], [ 283035.56, 4155814.37 ], [ 283035.55, 4155814.27 ], [ 283035.55, 4155814.17 ], [ 283035.56, 4155814.07 ], [ 283035.58, 4155813.98 ], [ 283035.61, 4155813.88 ], [ 283035.64, 4155813.79 ], [ 283036.13, 4155812.73 ], [ 283036.13, 4155807.63 ], [ 283033.13, 4155804.63 ], [ 283031.99, 4155804.63 ], [ 283029.44, 4155806.2 ], [ 283027.69, 4155809.89 ], [ 283027.64, 4155809.97 ], [ 283027.59, 4155810.05 ], [ 283027.53, 4155810.13 ], [ 283027.46, 4155810.2 ], [ 283027.38, 4155810.26 ], [ 283027.3, 4155810.31 ], [ 283027.21, 4155810.36 ], [ 283027.12, 4155810.4 ], [ 283027.03, 4155810.43 ], [ 283026.93, 4155810.45 ], [ 283026.84, 4155810.46 ], [ 283026.74, 4155810.46 ], [ 283026.64, 4155810.45 ], [ 283026.55, 4155810.43 ], [ 283026.45, 4155810.4 ], [ 283026.36, 4155810.36 ], [ 283024.75, 4155809.61 ], [ 283024.15, 4155809.63 ], [ 283011.3, 4155805.35 ], [ 283010.7, 4155805.56 ], [ 283016.82, 4155808.33 ], [ 283034.71, 4155816.44 ], [ 283035.82, 4155814.89 ], [ 283035.75, 4155814.82 ], [ 283035.7, 4155814.73 ], [ 283035.65, 4155814.65 ] ] ], [ [ [ 283008.8, 4155818.8 ], [ 283008.59, 4155818.7 ], [ 283008.58, 4155818.7 ], [ 283001.84, 4155815.57 ], [ 283000.0, 4155818.32 ], [ 283000.0, 4155831.49 ], [ 283000.13, 4155831.63 ], [ 283003.07, 4155831.63 ], [ 283004.47, 4155828.55 ], [ 283008.8, 4155818.8 ] ] ], [ [ [ 283017.95, 4155831.63 ], [ 283024.13, 4155831.63 ], [ 283027.13, 4155828.63 ], [ 283027.13, 4155827.26 ], [ 283014.34, 4155821.35 ], [ 283011.23, 4155828.35 ], [ 283017.95, 4155831.63 ] ] ] ] } },
{ "type": "Feature", "properties": { "id": "richmond_structure:242905", "name": null, "kind": "deck", "sport": null, "surface": null, "pitch_layout": null, "source": "richmond_structures", "source_updated": "2026-09-08T12:07:13.637000Z", "base_z": null, "top_z": null }, "geometry": { "type": "Polygon", "coordinates": [ [ [ 283159.9, 4155820.81 ], [ 283162.29, 4155821.91 ], [ 283163.92, 4155818.4 ], [ 283161.53, 4155817.29 ], [ 283159.9, 4155820.81 ] ] ] } },
{ "type": "Feature", "properties": { "id": "richmond_structure:243128", "name": null, "kind": "deck", "sport": null, "surface": null, "pitch_layout": null, "source": "richmond_structures", "source_updated": "2026-09-08T12:07:13.637000Z", "base_z": null, "top_z": null }, "geometry": { "type": "Polygon", "coordinates": [ [ [ 283158.63, 4155829.31 ], [ 283160.05, 4155826.28 ], [ 283157.62, 4155825.15 ], [ 283156.2, 4155828.18 ], [ 283158.63, 4155829.31 ] ] ] } },
{ "type": "Feature", "properties": { "id": "imagery:groundcover_lawn:2976", "name": null, "kind": "groundcover_lawn", "sport": null, "surface": null, "pitch_layout": null, "source": "vgin_vbmp+naip+lidar2025", "source_updated": null, "base_z": null, "top_z": null }, "geometry": { "type": "MultiPolygon", "coordinates": [ [ [ [ 283075.72, 4155832.85 ], [ 283075.66, 4155832.69 ], [ 283075.61, 4155832.52 ], [ 283075.58, 4155832.35 ], [ 283075.57, 4155832.18 ], [ 283075.57, 4155832.01 ], [ 283075.59, 4155831.84 ], [ 283075.62, 4155831.67 ], [ 283075.68, 4155831.5 ], [ 283075.74, 4155831.34 ], [ 283081.92, 4155818.47 ], [ 283081.91, 4155818.48 ], [ 283081.07, 4155819.84 ], [ 283079.39, 4155821.03 ], [ 283079.01, 4155821.85 ], [ 283078.97, 4155821.94 ], [ 283078.91, 4155822.02 ], [ 283078.85, 4155822.1 ], [ 283078.78, 4155822.17 ], [ 283078.7, 4155822.23 ], [ 283078.62, 4155822.29 ], [ 283078.54, 4155822.33 ], [ 283078.45, 4155822.37 ], [ 283078.35, 4155822.4 ], [ 283078.26, 4155822.42 ], [ 283078.16, 4155822.43 ], [ 283078.06, 4155822.43 ], [ 283077.96, 4155822.42 ], [ 283077.87, 4155822.4 ], [ 283077.77, 4155822.37 ], [ 283077.68, 4155822.34 ], [ 283076.16, 4155821.63 ], [ 283068.1, 4155820.02 ], [ 283065.02, 4155821.3 ], [ 283060.64, 4155827.87 ], [ 283060.55, 4155828.15 ], [ 283075.62, 4155834.97 ], [ 283076.19, 4155833.69 ], [ 283075.8, 4155833.01 ], [ 283075.72, 4155832.85 ] ] ], [ [ [ 283090.13, 4155856.4 ], [ 283086.82, 4155854.94 ], [ 283077.1, 4155875.75 ], [ 283082.02, 4155876.36 ], [ 283085.08, 4155874.73 ], [ 283089.81, 4155865.26 ], [ 283090.13, 4155863.92 ], [ 283090.13, 4155856.4 ] ] ] ] } },
{ "type": "Feature", "properties": { "id": "richmond_structure:244074", "name": null, "kind": "deck", "sport": null, "surface": null, "pitch_layout": null, "source": "richmond_structures", "source_updated": "2026-09-08T12:07:13.637000Z", "base_z": null, "top_z": null }, "geometry": { "type": "Polygon", "coordinates": [ [ [ 283014.71, 4155890.16 ], [ 283019.78, 4155878.93 ], [ 283000.0, 4155869.58 ], [ 283000.0, 4155871.06 ], [ 283006.95, 4155874.2 ], [ 283002.43, 4155884.24 ], [ 283000.0, 4155883.15 ], [ 283000.0, 4155886.48 ], [ 283005.48, 4155887.33 ], [ 283014.71, 4155890.16 ] ] ] } },
{ "type": "Feature", "properties": { "id": "imagery:groundcover_paved:2986", "name": null, "kind": "groundcover_paved", "sport": null, "surface": null, "pitch_layout": null, "source": "vgin_vbmp+naip+lidar2025", "source_updated": null, "base_z": null, "top_z": null }, "geometry": { "type": "MultiPolygon", "coordinates": [ [ [ [ 283057.93, 4155851.12 ], [ 283064.43, 4155854.65 ], [ 283065.46, 4155852.36 ], [ 283065.48, 4155852.34 ], [ 283065.48, 4155852.32 ], [ 283068.37, 4155846.33 ], [ 283027.13, 4155827.26 ], [ 283027.13, 4155828.03 ], [ 283026.71, 4155829.05 ], [ 283024.55, 4155831.2 ], [ 283023.53, 4155831.63 ], [ 283017.95, 4155831.63 ], [ 283025.38, 4155835.25 ], [ 283057.81, 4155851.06 ], [ 283057.93, 4155851.12 ] ] ], [ [ [ 283000.0, 4155857.49 ], [ 283009.7, 4155861.81 ], [ 283020.03, 4155839.42 ], [ 283008.73, 4155833.92 ], [ 283000.0, 4155853.19 ], [ 283000.0, 4155857.49 ] ] ], [ [ [ 283000.77, 4155887.77 ], [ 283006.26, 4155888.67 ], [ 283006.39, 4155888.69 ], [ 283009.4, 4155889.32 ], [ 283029.81, 4155844.19 ], [ 283025.51, 4155842.1 ], [ 283013.98, 4155867.1 ], [ 283013.84, 4155867.36 ], [ 283013.68, 4155867.61 ], [ 283013.49, 4155867.84 ], [ 283013.28, 4155868.05 ], [ 283013.06, 4155868.24 ], [ 283012.81, 4155868.41 ], [ 283012.55, 4155868.56 ], [ 283012.28, 4155868.67 ], [ 283012.0, 4155868.76 ], [ 283011.71, 4155868.83 ], [ 283011.41, 4155868.86 ], [ 283011.12, 4155868.87 ], [ 283010.82, 4155868.85 ], [ 283010.53, 4155868.79 ], [ 283010.24, 4155868.71 ], [ 283009.97, 4155868.61 ], [ 283000.0, 4155864.17 ], [ 283000.0, 4155887.66 ], [ 283000.71, 4155887.76 ], [ 283000.77, 4155887.77 ] ] ], [ [ [ 283001.81, 4155831.63 ], [ 283000.68, 4155831.06 ], [ 283000.0, 4155830.16 ], [ 283000.0, 4155838.41 ], [ 283003.07, 4155831.63 ], [ 283001.81, 4155831.63 ] ] ], [ [ [ 283000.83, 4155815.1 ], [ 283000.0, 4155816.92 ], [ 283000.0, 4155821.58 ], [ 283001.73, 4155815.52 ], [ 283000.83, 4155815.1 ] ] ], [ [ [ 283081.56, 4155876.3 ], [ 283077.1, 4155875.75 ], [ 283067.47, 4155896.36 ], [ 283076.33, 4155900.08 ], [ 283094.67, 4155858.41 ], [ 283090.13, 4155856.4 ], [ 283090.13, 4155863.74 ], [ 283090.09, 4155864.09 ], [ 283089.85, 4155865.09 ], [ 283089.74, 4155865.41 ], [ 283085.29, 4155874.31 ], [ 283084.67, 4155874.95 ], [ 283082.44, 4155876.14 ], [ 283081.56, 4155876.3 ] ] ], [ [ [ 283091.11, 4155905.83 ], [ 283109.93, 4155865.39 ], [ 283100.19, 4155861.03 ], [ 283082.0, 4155902.35 ], [ 283091.11, 4155905.83 ] ] ], [ [ [ 283116.71, 4155871.05 ], [ 283118.28, 4155870.4 ], [ 283118.84, 4155869.56 ], [ 283115.47, 4155867.94 ], [ 283096.82, 4155908.02 ], [ 283101.79, 4155909.92 ], [ 283101.95, 4155909.99 ], [ 283102.1, 4155910.07 ], [ 283102.25, 4155910.18 ], [ 283102.38, 4155910.29 ], [ 283102.5, 4155910.42 ], [ 283102.61, 4155910.56 ], [ 283102.71, 4155910.71 ], [ 283102.79, 4155910.86 ], [ 283102.85, 4155911.03 ], [ 283102.87, 4155911.08 ], [ 283106.37, 4155903.34 ], [ 283106.53, 4155903.41 ], [ 283106.04, 4155902.44 ], [ 283105.88, 4155901.72 ], [ 283105.96, 4155899.59 ], [ 283106.17, 4155898.89 ], [ 283113.7, 4155886.34 ], [ 283114.13, 4155884.79 ], [ 283114.13, 4155874.22 ], [ 283114.55, 4155873.2 ], [ 283116.71, 4155871.05 ] ] ], [ [ [ 283081.86, 4155926.86 ], [ 283089.63, 4155909.12 ], [ 283080.55, 4155905.65 ], [ 283072.96, 4155922.99 ], [ 283081.86, 4155926.86 ] ] ], [ [ [ 283056.89, 4155921.78 ], [ 283056.51, 4155921.29 ], [ 283055.7, 4155923.15 ], [ 283055.69, 4155924.52 ], [ 283055.99, 4155925.26 ], [ 283056.71, 4155926.12 ], [ 283059.64, 4155927.27 ], [ 283059.8, 4155927.34 ], [ 283059.96, 4155927.43 ], [ 283060.1, 4155927.53 ], [ 283060.23, 4155927.65 ], [ 283060.35, 4155927.77 ], [ 283060.46, 4155927.91 ], [ 283060.56, 4155928.06 ], [ 283060.64, 4155928.22 ], [ 283060.7, 4155928.39 ], [ 283060.74, 4155928.56 ], [ 283060.77, 4155928.73 ], [ 283060.79, 4155928.91 ], [ 283060.78, 4155929.08 ], [ 283060.76, 4155929.26 ], [ 283060.72, 4155929.43 ], [ 283060.66, 4155929.6 ], [ 283060.59, 4155929.76 ], [ 283060.5, 4155929.91 ], [ 283060.4, 4155930.06 ], [ 283060.29, 4155930.19 ], [ 283060.16, 4155930.31 ], [ 283060.02, 4155930.42 ], [ 283059.87, 4155930.51 ], [ 283059.71, 4155930.59 ], [ 283059.54, 4155930.66 ], [ 283059.37, 4155930.7 ], [ 283059.2, 4155930.73 ], [ 283059.02, 4155930.74 ], [ 283058.85, 4155930.74 ], [ 283058.67, 4155930.72 ], [ 283058.5, 4155930.68 ], [ 283058.33, 4155930.62 ], [ 283054.97, 4155929.31 ], [ 283054.81, 4155929.24 ], [ 283054.65, 4155929.15 ], [ 283054.5, 4155929.04 ], [ 283054.37, 4155928.92 ], [ 283054.24, 4155928.79 ], [ 283053.05, 4155927.35 ], [ 283052.94, 4155927.21 ], [ 283052.84, 4155927.05 ], [ 283052.77, 4155926.88 ], [ 283052.75, 4155926.85 ], [ 283051.5, 4155927.02 ], [ 283051.33, 4155927.04 ], [ 283051.15, 4155927.04 ], [ 283050.98, 4155927.02 ], [ 283050.81, 4155926.98 ], [ 283050.65, 4155926.94 ], [ 283050.49, 4155926.87 ], [ 283048.07, 4155925.75 ], [ 283047.28, 4155927.45 ], [ 283074.22, 4155935.55 ], [ 283074.67, 4155935.72 ], [ 283118.79, 4155955.25 ], [ 283117.83, 4155951.42 ], [ 283116.17, 4155949.42 ], [ 283115.95, 4155949.32 ], [ 283114.83, 4155949.05 ], [ 283114.81, 4155949.04 ], [ 283111.79, 4155947.18 ], [ 283111.66, 4155946.95 ], [ 283110.98, 4155946.82 ], [ 283111.13, 4155946.7 ], [ 283110.76, 4155946.24 ], [ 283109.03, 4155945.2 ], [ 283099.05, 4155943.21 ], [ 283098.21, 4155942.71 ], [ 283096.46, 4155940.57 ], [ 283096.13, 4155939.65 ], [ 283096.13, 4155928.22 ], [ 283096.55, 4155927.2 ], [ 283098.71, 4155925.05 ], [ 283099.73, 4155924.63 ], [ 283101.81, 4155924.63 ], [ 283097.59, 4155922.73 ], [ 283101.88, 4155913.24 ], [ 283101.72, 4155913.31 ], [ 283101.54, 4155913.35 ], [ 283101.37, 4155913.38 ], [ 283101.19, 4155913.4 ], [ 283101.02, 4155913.39 ], [ 283100.84, 4155913.37 ], [ 283100.67, 4155913.33 ], [ 283100.5, 4155913.28 ], [ 283095.33, 4155911.3 ], [ 283086.22, 4155932.1 ], [ 283086.09, 4155932.36 ], [ 283085.93, 4155932.62 ], [ 283085.75, 4155932.85 ], [ 283085.54, 4155933.07 ], [ 283085.32, 4155933.27 ], [ 283085.07, 4155933.44 ], [ 283084.82, 4155933.59 ], [ 283084.54, 4155933.71 ], [ 283084.26, 4155933.81 ], [ 283083.97, 4155933.87 ], [ 283083.67, 4155933.91 ], [ 283083.37, 4155933.92 ], [ 283083.08, 4155933.9 ], [ 283082.78, 4155933.85 ], [ 283082.49, 4155933.77 ], [ 283082.21, 4155933.67 ], [ 283067.72, 4155927.36 ], [ 283067.45, 4155927.23 ], [ 283067.2, 4155927.07 ], [ 283066.96, 4155926.89 ], [ 283066.74, 4155926.68 ], [ 283066.54, 4155926.46 ], [ 283066.37, 4155926.21 ], [ 283066.22, 4155925.95 ], [ 283066.1, 4155925.68 ], [ 283066.0, 4155925.39 ], [ 283065.93, 4155925.1 ], [ 283065.9, 4155924.81 ], [ 283065.89, 4155924.51 ], [ 283065.91, 4155924.21 ], [ 283065.96, 4155923.91 ], [ 283066.04, 4155923.62 ], [ 283066.14, 4155923.34 ], [ 283074.88, 4155903.38 ], [ 283065.99, 4155899.64 ], [ 283064.82, 4155902.31 ], [ 283065.71, 4155903.2 ], [ 283066.13, 4155904.22 ], [ 283066.13, 4155918.99 ], [ 283065.86, 4155919.85 ], [ 283064.36, 4155921.93 ], [ 283063.63, 4155922.46 ], [ 283060.8, 4155923.4 ], [ 283059.66, 4155923.3 ], [ 283056.89, 4155921.78 ] ] ] ] } },
{ "type": "Feature", "properties": { "id": "osm:way/1132020634", "name": null, "kind": "park", "sport": null, "surface": null, "pitch_layout": null, "source": null, "source_updated": null, "base_z": null, "top_z": null }, "geometry": { "type": "Polygon", "coordinates": [ [ [ 283131.45, 4155914.59 ], [ 283106.37, 4155903.34 ], [ 283097.59, 4155922.73 ], [ 283122.67, 4155933.99 ], [ 283131.45, 4155914.59 ] ] ] } },
{ "type": "Feature", "properties": { "id": "osm:way/76314458", "name": "James River Park System Main Area", "kind": "park", "sport": null, "surface": null, "pitch_layout": null, "source": null, "source_updated": null, "base_z": null, "top_z": null }, "geometry": { "type": "Polygon", "coordinates": [ [ [ 283021.58, 4155999.9 ], [ 283021.74, 4156000.0 ], [ 283192.16, 4156000.0 ], [ 283070.29, 4155944.45 ], [ 283000.0, 4155907.68 ], [ 283000.0, 4155986.72 ], [ 283018.39, 4155995.52 ], [ 283021.58, 4155999.9 ] ] ] } }
]
}
