{
"type": "FeatureCollection",
"name": "roads",
"crs": { "type": "name", "properties": { "name": "urn:ogc:def:crs:EPSG::32618" } },
"xy_coordinate_resolution": 0.01,
"features": [
{ "type": "Feature", "properties": { "id": "osm:way/165564077", "name": null, "highway": "footway", "lanes": null, "width": 2.0, "oneway": false, "surface": "concrete", "footway": null, "sidewalk_left": false, "sidewalk_right": false, "generated_sidewalk": false, "bus_lanes": null, "bus_lane_side": null, "bus_only": false, "sidewalk": false, "bridge": false, "ramp": false, "tunnel": false, "layer": 0, "deck": null }, "geometry": { "type": "LineString", "coordinates": [ [ 281352.18, 4157750.0 ], [ 281372.32, 4157768.57 ] ] } },
{ "type": "Feature", "properties": { "id": "osm:way/165564090", "name": null, "highway": "footway", "lanes": null, "width": 2.0, "oneway": false, "surface": "concrete", "footway": null, "sidewalk_left": false, "sidewalk_right": false, "generated_sidewalk": false, "bus_lanes": null, "bus_lane_side": null, "bus_only": false, "sidewalk": false, "bridge": false, "ramp": false, "tunnel": false, "layer": 0, "deck": null }, "geometry": { "type": "LineString", "coordinates": [ [ 281372.32, 4157768.57 ], [ 281364.09, 4157766.73 ], [ 281354.56, 4157765.52 ], [ 281348.07, 4157764.94 ], [ 281333.76, 4157763.76 ], [ 281316.64, 4157761.67 ], [ 281264.78, 4157750.0 ] ] } },
{ "type": "Feature", "properties": { "id": "osm:way/1062367803", "name": null, "highway": "footway", "lanes": null, "width": 2.0, "oneway": false, "surface": "concrete", "footway": "sidewalk", "sidewalk_left": false, "sidewalk_right": false, "generated_sidewalk": false, "bus_lanes": null, "bus_lane_side": null, "bus_only": false, "sidewalk": false, "bridge": false, "ramp": false, "tunnel": false, "layer": 0, "deck": null }, "geometry": { "type": "LineString", "coordinates": [ [ 281302.82, 4157895.56 ], [ 281297.67, 4157902.02 ], [ 281295.78, 4157904.53 ], [ 281293.15, 4157906.66 ], [ 281278.09, 4157915.07 ], [ 281263.3, 4157921.83 ], [ 281253.46, 4157924.77 ], [ 281250.0, 4157925.37 ] ] } },
{ "type": "Feature", "properties": { "id": "osm:way/530868285", "name": null, "highway": "service", "lanes": null, "width": 4.5, "oneway": false, "surface": null, "footway": null, "sidewalk_left": false, "sidewalk_right": false, "generated_sidewalk": false, "bus_lanes": null, "bus_lane_side": null, "bus_only": false, "sidewalk": false, "bridge": false, "ramp": false, "tunnel": false, "layer": 0, "deck": null }, "geometry": { "type": "LineString", "coordinates": [ [ 281307.23, 4157820.57 ], [ 281301.37, 4157827.81 ], [ 281294.75, 4157831.77 ], [ 281268.68, 4157843.22 ] ] } },
{ "type": "Feature", "properties": { "id": "osm:way/367743018", "name": null, "highway": "service", "lanes": null, "width": 4.5, "oneway": false, "surface": "asphalt", "footway": null, "sidewalk_left": false, "sidewalk_right": false, "generated_sidewalk": false, "bus_lanes": null, "bus_lane_side": null, "bus_only": false, "sidewalk": false, "bridge": false, "ramp": false, "tunnel": false, "layer": 0, "deck": null }, "geometry": { "type": "LineString", "coordinates": [ [ 281311.9, 4157894.96 ], [ 281306.61, 4157889.71 ], [ 281304.61, 4157884.57 ], [ 281303.8, 4157879.41 ], [ 281303.44, 4157864.08 ], [ 281302.28, 4157846.43 ], [ 281294.75, 4157831.77 ] ] } },
{ "type": "Feature", "properties": { "id": "osm:way/1196695477", "name": null, "highway": "footway", "lanes": null, "width": 2.0, "oneway": false, "surface": "concrete", "footway": "crossing", "sidewalk_left": false, "sidewalk_right": false, "generated_sidewalk": false, "bus_lanes": null, "bus_lane_side": null, "bus_only": false, "sidewalk": false, "bridge": false, "ramp": false, "tunnel": false, "layer": 0, "deck": null }, "geometry": { "type": "LineString", "coordinates": [ [ 281308.62, 4157886.62 ], [ 281306.61, 4157889.71 ], [ 281302.82, 4157895.56 ] ] } },
{ "type": "Feature", "properties": { "id": "osm:way/204686785", "name": "Shields Lake Drive", "highway": "unclassified", "lanes": null, "width": 6.5, "oneway": true, "surface": "asphalt", "footway": null, "sidewalk_left": null, "sidewalk_right": null, "generated_sidewalk": true, "bus_lanes": null, "bus_lane_side": null, "bus_only": false, "sidewalk": false, "bridge": false, "ramp": false, "tunnel": false, "layer": 0, "deck": null }, "geometry": { "type": "LineString", "coordinates": [ [ 281250.0, 4157933.38 ], [ 281259.35, 4157931.5 ], [ 281273.02, 4157926.81 ], [ 281283.9, 4157922.7 ], [ 281290.36, 4157921.43 ], [ 281296.04, 4157921.11 ], [ 281301.47, 4157922.74 ] ] } },
{ "type": "Feature", "properties": { "id": "osm:way/267611311", "name": "Shields Lake Drive", "highway": "unclassified", "lanes": null, "width": 6.5, "oneway": true, "surface": "asphalt", "footway": null, "sidewalk_left": null, "sidewalk_right": null, "generated_sidewalk": true, "bus_lanes": null, "bus_lane_side": null, "bus_only": false, "sidewalk": false, "bridge": false, "ramp": false, "tunnel": false, "layer": 0, "deck": null }, "geometry": { "type": "LineString", "coordinates": [ [ 281266.67, 4157964.75 ], [ 281263.42, 4157959.88 ], [ 281261.01, 4157954.79 ], [ 281261.29, 4157942.5 ], [ 281266.78, 4157931.59 ], [ 281273.02, 4157926.81 ] ] } },
{ "type": "Feature", "properties": { "id": "osm:way/204686789", "name": "Swan Lake Drive", "highway": "unclassified", "lanes": null, "width": 6.5, "oneway": true, "surface": "asphalt", "footway": null, "sidewalk_left": null, "sidewalk_right": null, "generated_sidewalk": true, "bus_lanes": null, "bus_lane_side": null, "bus_only": false, "sidewalk": false, "bridge": false, "ramp": false, "tunnel": false, "layer": 0, "deck": null }, "geometry": { "type": "LineString", "coordinates": [ [ 281307.48, 4157951.59 ], [ 281302.29, 4157962.02 ], [ 281298.09, 4157967.8 ], [ 281289.06, 4157972.23 ], [ 281281.87, 4157972.42 ], [ 281274.47, 4157970.51 ], [ 281266.67, 4157964.75 ] ] } },
{ "type": "Feature", "properties": { "id": "osm:way/165564082", "name": "Swan Lake Drive", "highway": "unclassified", "lanes": null, "width": 6.5, "oneway": true, "surface": "asphalt", "footway": null, "sidewalk_left": null, "sidewalk_right": null, "generated_sidewalk": true, "bus_lanes": null, "bus_lane_side": null, "bus_only": false, "sidewalk": false, "bridge": false, "ramp": false, "tunnel": false, "layer": 0, "deck": null }, "geometry": { "type": "LineString", "coordinates": [ [ 281301.47, 4157922.74 ], [ 281304.95, 4157927.31 ], [ 281307.07, 4157939.39 ], [ 281307.48, 4157951.59 ], [ 281308.15, 4157971.25 ], [ 281310.73, 4158000.0 ] ] } },
{ "type": "Feature", "properties": { "id": "osm:way/1062367804", "name": null, "highway": "footway", "lanes": null, "width": 2.0, "oneway": false, "surface": "concrete", "footway": "sidewalk", "sidewalk_left": false, "sidewalk_right": false, "generated_sidewalk": false, "bus_lanes": null, "bus_lane_side": null, "bus_only": false, "sidewalk": false, "bridge": false, "ramp": false, "tunnel": false, "layer": 0, "deck": null }, "geometry": { "type": "LineString", "coordinates": [ [ 281402.98, 4157750.0 ], [ 281379.76, 4157775.21 ] ] } },
{ "type": "Feature", "properties": { "id": "osm:way/1062367802", "name": null, "highway": "footway", "lanes": null, "width": 2.0, "oneway": false, "surface": "concrete", "footway": "sidewalk", "sidewalk_left": false, "sidewalk_right": false, "generated_sidewalk": false, "bus_lanes": null, "bus_lane_side": null, "bus_only": false, "sidewalk": false, "bridge": false, "ramp": false, "tunnel": false, "layer": 0, "deck": null }, "geometry": { "type": "LineString", "coordinates": [ [ 281412.48, 4157750.0 ], [ 281407.95, 4157754.91 ], [ 281365.83, 4157800.42 ] ] } },
{ "type": "Feature", "properties": { "id": "osm:way/165564078", "name": null, "highway": "steps", "lanes": null, "width": 2.0, "oneway": false, "surface": "paved", "footway": null, "sidewalk_left": false, "sidewalk_right": false, "generated_sidewalk": false, "bus_lanes": null, "bus_lane_side": null, "bus_only": false, "sidewalk": false, "bridge": false, "ramp": false, "tunnel": false, "layer": 0, "deck": null }, "geometry": { "type": "LineString", "coordinates": [ [ 281372.32, 4157768.57 ], [ 281379.76, 4157775.21 ] ] } },
{ "type": "Feature", "properties": { "id": "osm:way/165564223", "name": null, "highway": "steps", "lanes": null, "width": 2.0, "oneway": false, "surface": "paved", "footway": null, "sidewalk_left": false, "sidewalk_right": false, "generated_sidewalk": false, "bus_lanes": null, "bus_lane_side": null, "bus_only": false, "sidewalk": false, "bridge": false, "ramp": false, "tunnel": false, "layer": 0, "deck": null }, "geometry": { "type": "LineString", "coordinates": [ [ 281365.83, 4157800.42 ], [ 281370.34, 4157804.71 ] ] } },
{ "type": "Feature", "properties": { "id": "osm:way/1196695476", "name": null, "highway": "footway", "lanes": null, "width": 2.0, "oneway": false, "surface": "concrete", "footway": "sidewalk", "sidewalk_left": false, "sidewalk_right": false, "generated_sidewalk": false, "bus_lanes": null, "bus_lane_side": null, "bus_only": false, "sidewalk": false, "bridge": false, "ramp": false, "tunnel": false, "layer": 0, "deck": null }, "geometry": { "type": "LineString", "coordinates": [ [ 281379.76, 4157775.21 ], [ 281356.52, 4157800.44 ], [ 281342.61, 4157817.15 ], [ 281334.44, 4157828.37 ], [ 281322.42, 4157850.06 ], [ 281316.41, 4157864.82 ], [ 281310.59, 4157882.97 ], [ 281308.62, 4157886.62 ] ] } },
{ "type": "Feature", "properties": { "id": "osm:way/266863484", "name": "Amelia Street", "highway": "unclassified", "lanes": null, "width": 6.5, "oneway": false, "surface": "asphalt", "footway": null, "sidewalk_left": false, "sidewalk_right": false, "generated_sidewalk": true, "bus_lanes": null, "bus_lane_side": null, "bus_only": false, "sidewalk": false, "bridge": false, "ramp": false, "tunnel": false, "layer": 0, "deck": null }, "geometry": { "type": "LineString", "coordinates": [ [ 281301.47, 4157922.74 ], [ 281311.9, 4157894.96 ], [ 281318.08, 4157871.09 ], [ 281326.99, 4157849.12 ], [ 281334.13, 4157836.29 ], [ 281340.64, 4157825.93 ], [ 281349.8, 4157814.07 ], [ 281363.39, 4157798.39 ], [ 281382.56, 4157777.65 ], [ 281407.56, 4157750.0 ] ] } },
{ "type": "Feature", "properties": { "id": "osm:way/165564092", "name": null, "highway": "footway", "lanes": null, "width": 2.0, "oneway": false, "surface": "concrete", "footway": "sidewalk", "sidewalk_left": false, "sidewalk_right": false, "generated_sidewalk": false, "bus_lanes": null, "bus_lane_side": null, "bus_only": false, "sidewalk": false, "bridge": false, "ramp": false, "tunnel": false, "layer": 0, "deck": null }, "geometry": { "type": "MultiLineString", "coordinates": [ [ [ 281488.96, 4157750.0 ], [ 281500.0, 4157763.33 ] ], [ [ 281319.61, 4158000.0 ], [ 281317.89, 4157982.53 ], [ 281317.22, 4157967.3 ], [ 281317.0, 4157935.79 ], [ 281317.47, 4157905.74 ], [ 281318.22, 4157893.91 ], [ 281319.72, 4157881.08 ], [ 281321.72, 4157871.96 ], [ 281326.58, 4157858.37 ], [ 281332.35, 4157846.16 ], [ 281339.26, 4157834.36 ], [ 281342.6, 4157829.25 ], [ 281344.72, 4157826.0 ], [ 281348.78, 4157820.73 ], [ 281365.83, 4157800.42 ] ] ] } },
{ "type": "Feature", "properties": { "id": "osm:way/1062367821", "name": null, "highway": "footway", "lanes": null, "width": 2.0, "oneway": false, "surface": null, "footway": null, "sidewalk_left": false, "sidewalk_right": false, "generated_sidewalk": false, "bus_lanes": null, "bus_lane_side": null, "bus_only": false, "sidewalk": false, "bridge": false, "ramp": false, "tunnel": false, "layer": 0, "deck": null }, "geometry": { "type": "LineString", "coordinates": [ [ 281386.55, 4157973.25 ], [ 281395.22, 4157977.81 ], [ 281396.97, 4157982.2 ], [ 281394.47, 4157989.15 ], [ 281392.42, 4157995.93 ], [ 281393.99, 4158000.0 ] ] } },
{ "type": "Feature", "properties": { "id": "osm:way/266860013", "name": "Swan Lake Drive", "highway": "unclassified", "lanes": null, "width": 6.5, "oneway": true, "surface": "asphalt", "footway": null, "sidewalk_left": null, "sidewalk_right": null, "generated_sidewalk": true, "bus_lanes": null, "bus_lane_side": null, "bus_only": false, "sidewalk": false, "bridge": false, "ramp": false, "tunnel": false, "layer": 0, "deck": null }, "geometry": { "type": "LineString", "coordinates": [ [ 281293.22, 4158000.0 ], [ 281289.84, 4157995.79 ], [ 281266.67, 4157964.75 ], [ 281250.0, 4157954.93 ] ] } }
]
}
