{
"type": "FeatureCollection",
"name": "pois",
"crs": { "type": "name", "properties": { "name": "urn:ogc:def:crs:EPSG::32618" } },
"xy_coordinate_resolution": 0.01,
"features": [
{ "type": "Feature", "properties": { "id": "rva-tree:15720", "name": "Lagerstroemia indica", "kind": "tree", "species": "Lagerstroemia indica", "source": "city_inventory", "tree_height": 8.0, "crown_radius": 2.5, "height_source": "estimated" }, "geometry": { "type": "Point", "coordinates": [ 282485.86, 4157312.68 ] } },
{ "type": "Feature", "properties": { "id": "rva-tree:15718", "name": "Prunus persica", "kind": "tree", "species": "Prunus persica", "source": "city_inventory", "tree_height": 8.0, "crown_radius": 2.5, "height_source": "estimated" }, "geometry": { "type": "Point", "coordinates": [ 282419.1, 4157274.1 ] } },
{ "type": "Feature", "properties": { "id": "rva-tree:15719", "name": "Celtis occidentalis", "kind": "tree", "species": "Celtis occidentalis", "source": "city_inventory", "tree_height": 12.7, "crown_radius": 6.0, "height_source": "lidar2025" }, "geometry": { "type": "Point", "coordinates": [ 282415.44, 4157285.32 ] } },
{ "type": "Feature", "properties": { "id": "rva-tree:15481", "name": "Nyssa sylvatica", "kind": "tree", "species": "Nyssa sylvatica", "source": "city_inventory", "tree_height": 6.4, "crown_radius": 3.3, "height_source": "lidar2025" }, "geometry": { "type": "Point", "coordinates": [ 282403.49, 4157331.61 ] } },
{ "type": "Feature", "properties": { "id": "rva-tree:15482", "name": "Nyssa sylvatica", "kind": "tree", "species": "Nyssa sylvatica", "source": "city_inventory", "tree_height": 6.1, "crown_radius": 3.0, "height_source": "lidar2025" }, "geometry": { "type": "Point", "coordinates": [ 282411.5, 4157332.6 ] } },
{ "type": "Feature", "properties": { "id": "rva-tree:15483", "name": "Nyssa sylvatica", "kind": "tree", "species": "Nyssa sylvatica", "source": "city_inventory", "tree_height": 8.0, "crown_radius": 3.2, "height_source": "lidar2025" }, "geometry": { "type": "Point", "coordinates": [ 282421.76, 4157334.49 ] } },
{ "type": "Feature", "properties": { "id": "rva-tree:15484", "name": "Acer rubrum", "kind": "tree", "species": "Acer rubrum", "source": "city_inventory", "tree_height": 8.0, "crown_radius": 3.2, "height_source": "lidar2025" }, "geometry": { "type": "Point", "coordinates": [ 282426.86, 4157335.41 ] } },
{ "type": "Feature", "properties": { "id": "rva-tree:15485", "name": "Nyssa sylvatica", "kind": "tree", "species": "Nyssa sylvatica", "source": "city_inventory", "tree_height": 8.0, "crown_radius": 3.2, "height_source": "lidar2025" }, "geometry": { "type": "Point", "coordinates": [ 282429.47, 4157335.9 ] } },
{ "type": "Feature", "properties": { "id": "rva-tree:15721", "name": "Ulmus alata", "kind": "tree", "species": "Ulmus alata", "source": "city_inventory", "tree_height": 8.0, "crown_radius": 2.5, "height_source": "estimated" }, "geometry": { "type": "Point", "coordinates": [ 282496.29, 4157325.4 ] } },
{ "type": "Feature", "properties": { "id": "rva-tree:63238", "name": "Acer rubrum", "kind": "tree", "species": "Acer rubrum", "source": "city_inventory", "tree_height": 8.5, "crown_radius": 4.3, "height_source": "lidar2025" }, "geometry": { "type": "Point", "coordinates": [ 282463.67, 4157345.3 ] } },
{ "type": "Feature", "properties": { "id": "rva-tree:63239", "name": "Nyssa sylvatica", "kind": "tree", "species": "Nyssa sylvatica", "source": "city_inventory", "tree_height": 8.5, "crown_radius": 4.3, "height_source": "lidar2025" }, "geometry": { "type": "Point", "coordinates": [ 282468.5, 4157347.01 ] } },
{ "type": "Feature", "properties": { "id": "rva-tree:63244", "name": "Nyssa sylvatica", "kind": "tree", "species": "Nyssa sylvatica", "source": "city_inventory", "tree_height": 5.3, "crown_radius": 2.3, "height_source": "lidar2025" }, "geometry": { "type": "Point", "coordinates": [ 282476.9, 4157350.48 ] } },
{ "type": "Feature", "properties": { "id": "rva-tree:63241", "name": "Nyssa sylvatica", "kind": "tree", "species": "Nyssa sylvatica", "source": "city_inventory", "tree_height": 8.0, "crown_radius": 2.5, "height_source": "estimated" }, "geometry": { "type": "Point", "coordinates": [ 282486.76, 4157354.57 ] } },
{ "type": "Feature", "properties": { "id": "rva-tree:15499", "name": "Nyssa sylvatica", "kind": "tree", "species": "Nyssa sylvatica", "source": "city_inventory", "tree_height": 5.8, "crown_radius": 2.5, "height_source": "lidar2025" }, "geometry": { "type": "Point", "coordinates": [ 282496.59, 4157358.97 ] } },
{ "type": "Feature", "properties": { "id": "rva-tree:63278", "name": "Nyssa sylvatica", "kind": "tree", "species": "Nyssa sylvatica", "source": "city_inventory", "tree_height": 8.0, "crown_radius": 2.5, "height_source": "estimated" }, "geometry": { "type": "Point", "coordinates": [ 282466.86, 4157360.89 ] } },
{ "type": "Feature", "properties": { "id": "rva-tree:63277", "name": "Nyssa sylvatica", "kind": "tree", "species": "Nyssa sylvatica", "source": "city_inventory", "tree_height": 8.3, "crown_radius": 4.3, "height_source": "lidar2025" }, "geometry": { "type": "Point", "coordinates": [ 282478.42, 4157365.99 ] } },
{ "type": "Feature", "properties": { "id": "rva-tree:63276", "name": "Acer rubrum", "kind": "tree", "species": "Acer rubrum", "source": "city_inventory", "tree_height": 9.0, "crown_radius": 4.3, "height_source": "lidar2025" }, "geometry": { "type": "Point", "coordinates": [ 282485.46, 4157369.42 ] } },
{ "type": "Feature", "properties": { "id": "rva-tree:15486", "name": "Nyssa sylvatica", "kind": "tree", "species": "Nyssa sylvatica", "source": "city_inventory", "tree_height": 6.7, "crown_radius": 3.1, "height_source": "lidar2025" }, "geometry": { "type": "Point", "coordinates": [ 282438.37, 4157337.77 ] } },
{ "type": "Feature", "properties": { "id": "rva-tree:63236", "name": "Nyssa sylvatica", "kind": "tree", "species": "Nyssa sylvatica", "source": "city_inventory", "tree_height": 8.5, "crown_radius": 4.3, "height_source": "lidar2025" }, "geometry": { "type": "Point", "coordinates": [ 282459.55, 4157343.91 ] } },
{ "type": "Feature", "properties": { "id": "rva-tree:8137", "name": "Nyssa sylvatica", "kind": "tree", "species": "Nyssa sylvatica", "source": "city_inventory", "tree_height": 8.0, "crown_radius": 2.5, "height_source": "estimated" }, "geometry": { "type": "Point", "coordinates": [ 282407.62, 4157346.04 ] } },
{ "type": "Feature", "properties": { "id": "lidar-tree:282412:4157352", "name": null, "kind": "tree", "species": null, "source": "lidar2025", "tree_height": 22.3, "crown_radius": 6.0, "height_source": "lidar2025" }, "geometry": { "type": "Point", "coordinates": [ 282412.5, 4157351.5 ] } },
{ "type": "Feature", "properties": { "id": "rva-tree:63279", "name": "Nyssa sylvatica", "kind": "tree", "species": "Nyssa sylvatica", "source": "city_inventory", "tree_height": 8.0, "crown_radius": 2.5, "height_source": "estimated" }, "geometry": { "type": "Point", "coordinates": [ 282451.16, 4157355.94 ] } },
{ "type": "Feature", "properties": { "id": "lidar-tree:282440:4157360", "name": null, "kind": "tree", "species": null, "source": "lidar2025", "tree_height": 24.4, "crown_radius": 6.0, "height_source": "lidar2025" }, "geometry": { "type": "Point", "coordinates": [ 282439.5, 4157360.5 ] } },
{ "type": "Feature", "properties": { "id": "lidar-tree:282408:4157362", "name": null, "kind": "tree", "species": null, "source": "lidar2025", "tree_height": 26.4, "crown_radius": 6.0, "height_source": "lidar2025" }, "geometry": { "type": "Point", "coordinates": [ 282408.5, 4157361.5 ] } },
{ "type": "Feature", "properties": { "id": "lidar-tree:282430:4157364", "name": null, "kind": "tree", "species": null, "source": "lidar2025", "tree_height": 22.0, "crown_radius": 6.0, "height_source": "lidar2025" }, "geometry": { "type": "Point", "coordinates": [ 282430.5, 4157363.5 ] } },
{ "type": "Feature", "properties": { "id": "lidar-tree:282460:4157364", "name": null, "kind": "tree", "species": null, "source": "lidar2025", "tree_height": 14.4, "crown_radius": 6.0, "height_source": "lidar2025" }, "geometry": { "type": "Point", "coordinates": [ 282459.5, 4157364.5 ] } },
{ "type": "Feature", "properties": { "id": "lidar-tree:282450:4157378", "name": null, "kind": "tree", "species": null, "source": "lidar2025", "tree_height": 22.3, "crown_radius": 6.0, "height_source": "lidar2025" }, "geometry": { "type": "Point", "coordinates": [ 282450.5, 4157378.5 ] } },
{ "type": "Feature", "properties": { "id": "lidar-tree:282464:4157376", "name": null, "kind": "tree", "species": null, "source": "lidar2025", "tree_height": 16.5, "crown_radius": 6.0, "height_source": "lidar2025" }, "geometry": { "type": "Point", "coordinates": [ 282464.5, 4157376.5 ] } },
{ "type": "Feature", "properties": { "id": "lidar-tree:282476:4157398", "name": null, "kind": "tree", "species": null, "source": "lidar2025", "tree_height": 9.4, "crown_radius": 5.1, "height_source": "lidar2025" }, "geometry": { "type": "Point", "coordinates": [ 282476.5, 4157398.5 ] } },
{ "type": "Feature", "properties": { "id": "lidar-tree:282486:4157406", "name": null, "kind": "tree", "species": null, "source": "lidar2025", "tree_height": 7.3, "crown_radius": 6.0, "height_source": "lidar2025" }, "geometry": { "type": "Point", "coordinates": [ 282486.5, 4157405.5 ] } },
{ "type": "Feature", "properties": { "id": "lidar-tree:282500:4157466", "name": null, "kind": "tree", "species": null, "source": "lidar2025", "tree_height": 10.9, "crown_radius": 6.0, "height_source": "lidar2025" }, "geometry": { "type": "Point", "coordinates": [ 282499.5, 4157466.5 ] } },
{ "type": "Feature", "properties": { "id": "lidar-tree:282418:4157378", "name": null, "kind": "tree", "species": null, "source": "lidar2025", "tree_height": 25.4, "crown_radius": 6.0, "height_source": "lidar2025" }, "geometry": { "type": "Point", "coordinates": [ 282417.5, 4157378.5 ] } },
{ "type": "Feature", "properties": { "id": "lidar-tree:282404:4157390", "name": null, "kind": "tree", "species": null, "source": "lidar2025", "tree_height": 11.3, "crown_radius": 6.0, "height_source": "lidar2025" }, "geometry": { "type": "Point", "coordinates": [ 282404.5, 4157390.5 ] } },
{ "type": "Feature", "properties": { "id": "lidar-tree:282452:4157404", "name": null, "kind": "tree", "species": null, "source": "lidar2025", "tree_height": 17.2, "crown_radius": 6.0, "height_source": "lidar2025" }, "geometry": { "type": "Point", "coordinates": [ 282451.5, 4157404.5 ] } },
{ "type": "Feature", "properties": { "id": "lidar-tree:282444:4157426", "name": null, "kind": "tree", "species": null, "source": "lidar2025", "tree_height": 5.8, "crown_radius": 3.3, "height_source": "lidar2025" }, "geometry": { "type": "Point", "coordinates": [ 282443.5, 4157425.5 ] } },
{ "type": "Feature", "properties": { "id": "lidar-tree:282408:4157434", "name": null, "kind": "tree", "species": null, "source": "lidar2025", "tree_height": 9.0, "crown_radius": 4.1, "height_source": "lidar2025" }, "geometry": { "type": "Point", "coordinates": [ 282408.5, 4157433.5 ] } },
{ "type": "Feature", "properties": { "id": "lidar-tree:282424:4157444", "name": null, "kind": "tree", "species": null, "source": "lidar2025", "tree_height": 11.4, "crown_radius": 5.5, "height_source": "lidar2025" }, "geometry": { "type": "Point", "coordinates": [ 282423.5, 4157443.5 ] } },
{ "type": "Feature", "properties": { "id": "rva-tree:8151", "name": "Ligustrum japonicum", "kind": "tree", "species": "Ligustrum japonicum", "source": "city_inventory", "tree_height": 8.0, "crown_radius": 2.5, "height_source": "estimated" }, "geometry": { "type": "Point", "coordinates": [ 282448.61, 4157450.44 ] } },
{ "type": "Feature", "properties": { "id": "lidar-tree:282418:4157468", "name": null, "kind": "tree", "species": null, "source": "lidar2025", "tree_height": 8.4, "crown_radius": 5.4, "height_source": "lidar2025" }, "geometry": { "type": "Point", "coordinates": [ 282417.5, 4157467.5 ] } },
{ "type": "Feature", "properties": { "id": "lidar-tree:282404:4157478", "name": null, "kind": "tree", "species": null, "source": "lidar2025", "tree_height": 15.2, "crown_radius": 6.0, "height_source": "lidar2025" }, "geometry": { "type": "Point", "coordinates": [ 282404.5, 4157478.5 ] } },
{ "type": "Feature", "properties": { "id": "lidar-tree:282432:4157480", "name": null, "kind": "tree", "species": null, "source": "lidar2025", "tree_height": 17.1, "crown_radius": 6.0, "height_source": "lidar2025" }, "geometry": { "type": "Point", "coordinates": [ 282432.5, 4157479.5 ] } },
{ "type": "Feature", "properties": { "id": "lidar-tree:282358:4157450", "name": null, "kind": "tree", "species": null, "source": "lidar2025", "tree_height": 14.7, "crown_radius": 6.0, "height_source": "lidar2025" }, "geometry": { "type": "Point", "coordinates": [ 282358.5, 4157450.5 ] } },
{ "type": "Feature", "properties": { "id": "lidar-tree:282384:4157460", "name": null, "kind": "tree", "species": null, "source": "lidar2025", "tree_height": 12.4, "crown_radius": 6.0, "height_source": "lidar2025" }, "geometry": { "type": "Point", "coordinates": [ 282384.5, 4157460.5 ] } },
{ "type": "Feature", "properties": { "id": "lidar-tree:282358:4157462", "name": null, "kind": "tree", "species": null, "source": "lidar2025", "tree_height": 15.0, "crown_radius": 6.0, "height_source": "lidar2025" }, "geometry": { "type": "Point", "coordinates": [ 282357.5, 4157461.5 ] } },
{ "type": "Feature", "properties": { "id": "lidar-tree:282374:4157464", "name": null, "kind": "tree", "species": null, "source": "lidar2025", "tree_height": 11.7, "crown_radius": 6.0, "height_source": "lidar2025" }, "geometry": { "type": "Point", "coordinates": [ 282373.5, 4157464.5 ] } },
{ "type": "Feature", "properties": { "id": "lidar-tree:282384:4157480", "name": null, "kind": "tree", "species": null, "source": "lidar2025", "tree_height": 10.9, "crown_radius": 4.5, "height_source": "lidar2025" }, "geometry": { "type": "Point", "coordinates": [ 282383.5, 4157480.5 ] } },
{ "type": "Feature", "properties": { "id": "lidar-tree:282396:4157494", "name": null, "kind": "tree", "species": null, "source": "lidar2025", "tree_height": 18.8, "crown_radius": 6.0, "height_source": "lidar2025" }, "geometry": { "type": "Point", "coordinates": [ 282396.5, 4157493.5 ] } },
{ "type": "Feature", "properties": { "id": "lidar-tree:282368:4157494", "name": null, "kind": "tree", "species": null, "source": "lidar2025", "tree_height": 7.4, "crown_radius": 4.9, "height_source": "lidar2025" }, "geometry": { "type": "Point", "coordinates": [ 282368.5, 4157494.5 ] } },
{ "type": "Feature", "properties": { "id": "lidar-tree:282320:4157268", "name": null, "kind": "tree", "species": null, "source": "lidar2025", "tree_height": 5.3, "crown_radius": 3.2, "height_source": "lidar2025" }, "geometry": { "type": "Point", "coordinates": [ 282319.5, 4157267.5 ] } },
{ "type": "Feature", "properties": { "id": "lidar-tree:282312:4157286", "name": null, "kind": "tree", "species": null, "source": "lidar2025", "tree_height": 20.8, "crown_radius": 6.0, "height_source": "lidar2025" }, "geometry": { "type": "Point", "coordinates": [ 282311.5, 4157285.5 ] } },
{ "type": "Feature", "properties": { "id": "lidar-tree:282288:4157320", "name": null, "kind": "tree", "species": null, "source": "lidar2025", "tree_height": 8.6, "crown_radius": 6.0, "height_source": "lidar2025" }, "geometry": { "type": "Point", "coordinates": [ 282287.5, 4157319.5 ] } },
{ "type": "Feature", "properties": { "id": "rva-tree:15477", "name": "Ginkgo biloba", "kind": "tree", "species": "Ginkgo biloba", "source": "city_inventory", "tree_height": 12.8, "crown_radius": 5.9, "height_source": "lidar2025" }, "geometry": { "type": "Point", "coordinates": [ 282331.99, 4157330.44 ] } },
{ "type": "Feature", "properties": { "id": "rva-tree:15476", "name": "Ginkgo biloba", "kind": "tree", "species": "Ginkgo biloba", "source": "city_inventory", "tree_height": 12.1, "crown_radius": 5.8, "height_source": "lidar2025" }, "geometry": { "type": "Point", "coordinates": [ 282323.35, 4157330.76 ] } },
{ "type": "Feature", "properties": { "id": "rva-tree:63230", "name": "Ginkgo biloba", "kind": "tree", "species": "Ginkgo biloba", "source": "city_inventory", "tree_height": 12.1, "crown_radius": 5.8, "height_source": "lidar2025" }, "geometry": { "type": "Point", "coordinates": [ 282314.71, 4157331.02 ] } },
{ "type": "Feature", "properties": { "id": "rva-tree:63227", "name": "Ginkgo biloba", "kind": "tree", "species": "Ginkgo biloba", "source": "city_inventory", "tree_height": 8.0, "crown_radius": 2.5, "height_source": "estimated" }, "geometry": { "type": "Point", "coordinates": [ 282305.3, 4157331.21 ] } },
{ "type": "Feature", "properties": { "id": "rva-tree:63231", "name": "Ginkgo biloba", "kind": "tree", "species": "Ginkgo biloba", "source": "city_inventory", "tree_height": 10.6, "crown_radius": 5.6, "height_source": "lidar2025" }, "geometry": { "type": "Point", "coordinates": [ 282288.03, 4157331.74 ] } },
{ "type": "Feature", "properties": { "id": "rva-tree:63228", "name": "Ginkgo biloba", "kind": "tree", "species": "Ginkgo biloba", "source": "city_inventory", "tree_height": 10.4, "crown_radius": 5.6, "height_source": "lidar2025" }, "geometry": { "type": "Point", "coordinates": [ 282277.52, 4157332.31 ] } },
{ "type": "Feature", "properties": { "id": "lidar-tree:282336:4157350", "name": null, "kind": "tree", "species": null, "source": "lidar2025", "tree_height": 19.6, "crown_radius": 6.0, "height_source": "lidar2025" }, "geometry": { "type": "Point", "coordinates": [ 282336.5, 4157349.5 ] } },
{ "type": "Feature", "properties": { "id": "rva-tree:15430", "name": "Pyrus calleryana", "kind": "tree", "species": "Pyrus calleryana", "source": "city_inventory", "tree_height": 7.5, "crown_radius": 3.9, "height_source": "lidar2025" }, "geometry": { "type": "Point", "coordinates": [ 282355.42, 4157277.74 ] } },
{ "type": "Feature", "properties": { "id": "rva-tree:15429", "name": "Pyrus calleryana", "kind": "tree", "species": "Pyrus calleryana", "source": "city_inventory", "tree_height": 12.0, "crown_radius": 5.8, "height_source": "lidar2025" }, "geometry": { "type": "Point", "coordinates": [ 282360.15, 4157287.92 ] } },
{ "type": "Feature", "properties": { "id": "rva-tree:15428", "name": "Pyrus calleryana", "kind": "tree", "species": "Pyrus calleryana", "source": "city_inventory", "tree_height": 8.0, "crown_radius": 2.5, "height_source": "estimated" }, "geometry": { "type": "Point", "coordinates": [ 282365.63, 4157299.68 ] } },
{ "type": "Feature", "properties": { "id": "rva-tree:15427", "name": "Pyrus calleryana", "kind": "tree", "species": "Pyrus calleryana", "source": "city_inventory", "tree_height": 11.8, "crown_radius": 6.0, "height_source": "lidar2025" }, "geometry": { "type": "Point", "coordinates": [ 282371.94, 4157313.02 ] } },
{ "type": "Feature", "properties": { "id": "rva-tree:15480", "name": "Ginkgo biloba", "kind": "tree", "species": "Ginkgo biloba", "source": "city_inventory", "tree_height": 15.3, "crown_radius": 5.9, "height_source": "lidar2025" }, "geometry": { "type": "Point", "coordinates": [ 282370.4, 4157329.28 ] } },
{ "type": "Feature", "properties": { "id": "rva-tree:15479", "name": "Ginkgo biloba", "kind": "tree", "species": "Ginkgo biloba", "source": "city_inventory", "tree_height": 12.6, "crown_radius": 6.0, "height_source": "lidar2025" }, "geometry": { "type": "Point", "coordinates": [ 282356.36, 4157329.67 ] } },
{ "type": "Feature", "properties": { "id": "rva-tree:15478", "name": "Ginkgo biloba", "kind": "tree", "species": "Ginkgo biloba", "source": "city_inventory", "tree_height": 13.0, "crown_radius": 6.0, "height_source": "lidar2025" }, "geometry": { "type": "Point", "coordinates": [ 282345.01, 4157330.03 ] } },
{ "type": "Feature", "properties": { "id": "lidar-tree:282354:4157346", "name": null, "kind": "tree", "species": null, "source": "lidar2025", "tree_height": 4.1, "crown_radius": 3.0, "height_source": "lidar2025" }, "geometry": { "type": "Point", "coordinates": [ 282353.5, 4157345.5 ] } },
{ "type": "Feature", "properties": { "id": "lidar-tree:282360:4157360", "name": null, "kind": "tree", "species": null, "source": "lidar2025", "tree_height": 18.3, "crown_radius": 6.0, "height_source": "lidar2025" }, "geometry": { "type": "Point", "coordinates": [ 282360.5, 4157360.5 ] } },
{ "type": "Feature", "properties": { "id": "lidar-tree:282394:4157372", "name": null, "kind": "tree", "species": null, "source": "lidar2025", "tree_height": 17.6, "crown_radius": 5.5, "height_source": "lidar2025" }, "geometry": { "type": "Point", "coordinates": [ 282394.5, 4157372.5 ] } },
{ "type": "Feature", "properties": { "id": "lidar-tree:282250:4157292", "name": null, "kind": "tree", "species": null, "source": "lidar2025", "tree_height": 17.0, "crown_radius": 4.7, "height_source": "lidar2025" }, "geometry": { "type": "Point", "coordinates": [ 282250.5, 4157291.5 ] } },
{ "type": "Feature", "properties": { "id": "lidar-tree:282278:4157304", "name": null, "kind": "tree", "species": null, "source": "lidar2025", "tree_height": 12.0, "crown_radius": 6.0, "height_source": "lidar2025" }, "geometry": { "type": "Point", "coordinates": [ 282277.5, 4157304.5 ] } },
{ "type": "Feature", "properties": { "id": "lidar-tree:282266:4157316", "name": null, "kind": "tree", "species": null, "source": "lidar2025", "tree_height": 11.9, "crown_radius": 4.4, "height_source": "lidar2025" }, "geometry": { "type": "Point", "coordinates": [ 282266.5, 4157315.5 ] } },
{ "type": "Feature", "properties": { "id": "rva-tree:63229", "name": "Ginkgo biloba", "kind": "tree", "species": "Ginkgo biloba", "source": "city_inventory", "tree_height": 10.4, "crown_radius": 5.6, "height_source": "lidar2025" }, "geometry": { "type": "Point", "coordinates": [ 282267.18, 4157332.69 ] } },
{ "type": "Feature", "properties": { "id": "lidar-tree:282250:4157358", "name": null, "kind": "tree", "species": null, "source": "lidar2025", "tree_height": 11.5, "crown_radius": 6.0, "height_source": "lidar2025" }, "geometry": { "type": "Point", "coordinates": [ 282250.5, 4157358.5 ] } },
{ "type": "Feature", "properties": { "id": "lidar-tree:282324:4157350", "name": null, "kind": "tree", "species": null, "source": "lidar2025", "tree_height": 20.0, "crown_radius": 6.0, "height_source": "lidar2025" }, "geometry": { "type": "Point", "coordinates": [ 282323.5, 4157349.5 ] } },
{ "type": "Feature", "properties": { "id": "lidar-tree:282296:4157366", "name": null, "kind": "tree", "species": null, "source": "lidar2025", "tree_height": 6.4, "crown_radius": 2.1, "height_source": "lidar2025" }, "geometry": { "type": "Point", "coordinates": [ 282295.5, 4157366.5 ] } },
{ "type": "Feature", "properties": { "id": "lidar-tree:282306:4157382", "name": null, "kind": "tree", "species": null, "source": "lidar2025", "tree_height": 16.7, "crown_radius": 6.0, "height_source": "lidar2025" }, "geometry": { "type": "Point", "coordinates": [ 282305.5, 4157381.5 ] } },
{ "type": "Feature", "properties": { "id": "lidar-tree:282324:4157392", "name": null, "kind": "tree", "species": null, "source": "lidar2025", "tree_height": 25.9, "crown_radius": 6.0, "height_source": "lidar2025" }, "geometry": { "type": "Point", "coordinates": [ 282324.5, 4157391.5 ] } },
{ "type": "Feature", "properties": { "id": "lidar-tree:282290:4157394", "name": null, "kind": "tree", "species": null, "source": "lidar2025", "tree_height": 18.4, "crown_radius": 6.0, "height_source": "lidar2025" }, "geometry": { "type": "Point", "coordinates": [ 282290.5, 4157394.5 ] } },
{ "type": "Feature", "properties": { "id": "lidar-tree:282330:4157404", "name": null, "kind": "tree", "species": null, "source": "lidar2025", "tree_height": 26.9, "crown_radius": 6.0, "height_source": "lidar2025" }, "geometry": { "type": "Point", "coordinates": [ 282330.5, 4157403.5 ] } },
{ "type": "Feature", "properties": { "id": "lidar-tree:282282:4157406", "name": null, "kind": "tree", "species": null, "source": "lidar2025", "tree_height": 20.8, "crown_radius": 6.0, "height_source": "lidar2025" }, "geometry": { "type": "Point", "coordinates": [ 282281.5, 4157405.5 ] } },
{ "type": "Feature", "properties": { "id": "rva-tree:8342", "name": "Ligustrum spp.", "kind": "tree", "species": "Ligustrum spp.", "source": "city_inventory", "tree_height": 8.0, "crown_radius": 2.5, "height_source": "estimated" }, "geometry": { "type": "Point", "coordinates": [ 282321.12, 4157411.94 ] } },
{ "type": "Feature", "properties": { "id": "lidar-tree:282290:4157416", "name": null, "kind": "tree", "species": null, "source": "lidar2025", "tree_height": 20.0, "crown_radius": 6.0, "height_source": "lidar2025" }, "geometry": { "type": "Point", "coordinates": [ 282290.5, 4157415.5 ] } },
{ "type": "Feature", "properties": { "id": "lidar-tree:282284:4157430", "name": null, "kind": "tree", "species": null, "source": "lidar2025", "tree_height": 16.1, "crown_radius": 6.0, "height_source": "lidar2025" }, "geometry": { "type": "Point", "coordinates": [ 282284.5, 4157430.5 ] } },
{ "type": "Feature", "properties": { "id": "lidar-tree:282256:4157374", "name": null, "kind": "tree", "species": null, "source": "lidar2025", "tree_height": 10.5, "crown_radius": 4.3, "height_source": "lidar2025" }, "geometry": { "type": "Point", "coordinates": [ 282256.5, 4157373.5 ] } },
{ "type": "Feature", "properties": { "id": "lidar-tree:282274:4157388", "name": null, "kind": "tree", "species": null, "source": "lidar2025", "tree_height": 13.2, "crown_radius": 6.0, "height_source": "lidar2025" }, "geometry": { "type": "Point", "coordinates": [ 282273.5, 4157388.5 ] } },
{ "type": "Feature", "properties": { "id": "lidar-tree:282274:4157414", "name": null, "kind": "tree", "species": null, "source": "lidar2025", "tree_height": 19.6, "crown_radius": 6.0, "height_source": "lidar2025" }, "geometry": { "type": "Point", "coordinates": [ 282274.5, 4157414.5 ] } },
{ "type": "Feature", "properties": { "id": "lidar-tree:282274:4157436", "name": null, "kind": "tree", "species": null, "source": "lidar2025", "tree_height": 14.2, "crown_radius": 6.0, "height_source": "lidar2025" }, "geometry": { "type": "Point", "coordinates": [ 282274.5, 4157435.5 ] } },
{ "type": "Feature", "properties": { "id": "lidar-tree:282254:4157442", "name": null, "kind": "tree", "species": null, "source": "lidar2025", "tree_height": 23.4, "crown_radius": 6.0, "height_source": "lidar2025" }, "geometry": { "type": "Point", "coordinates": [ 282253.5, 4157441.5 ] } },
{ "type": "Feature", "properties": { "id": "lidar-tree:282348:4157378", "name": null, "kind": "tree", "species": null, "source": "lidar2025", "tree_height": 23.4, "crown_radius": 6.0, "height_source": "lidar2025" }, "geometry": { "type": "Point", "coordinates": [ 282348.5, 4157378.5 ] } },
{ "type": "Feature", "properties": { "id": "lidar-tree:282386:4157380", "name": null, "kind": "tree", "species": null, "source": "lidar2025", "tree_height": 9.0, "crown_radius": 5.2, "height_source": "lidar2025" }, "geometry": { "type": "Point", "coordinates": [ 282386.5, 4157380.5 ] } },
{ "type": "Feature", "properties": { "id": "lidar-tree:282352:4157392", "name": null, "kind": "tree", "species": null, "source": "lidar2025", "tree_height": 26.8, "crown_radius": 6.0, "height_source": "lidar2025" }, "geometry": { "type": "Point", "coordinates": [ 282351.5, 4157392.5 ] } },
{ "type": "Feature", "properties": { "id": "lidar-tree:282374:4157398", "name": null, "kind": "tree", "species": null, "source": "lidar2025", "tree_height": 7.6, "crown_radius": 5.2, "height_source": "lidar2025" }, "geometry": { "type": "Point", "coordinates": [ 282373.5, 4157397.5 ] } },
{ "type": "Feature", "properties": { "id": "lidar-tree:282386:4157402", "name": null, "kind": "tree", "species": null, "source": "lidar2025", "tree_height": 6.1, "crown_radius": 3.7, "height_source": "lidar2025" }, "geometry": { "type": "Point", "coordinates": [ 282385.5, 4157401.5 ] } },
{ "type": "Feature", "properties": { "id": "lidar-tree:282358:4157402", "name": null, "kind": "tree", "species": null, "source": "lidar2025", "tree_height": 26.3, "crown_radius": 6.0, "height_source": "lidar2025" }, "geometry": { "type": "Point", "coordinates": [ 282358.5, 4157402.5 ] } },
{ "type": "Feature", "properties": { "id": "lidar-tree:282342:4157420", "name": null, "kind": "tree", "species": null, "source": "lidar2025", "tree_height": 24.9, "crown_radius": 6.0, "height_source": "lidar2025" }, "geometry": { "type": "Point", "coordinates": [ 282342.5, 4157419.5 ] } },
{ "type": "Feature", "properties": { "id": "lidar-tree:282400:4157436", "name": null, "kind": "tree", "species": null, "source": "lidar2025", "tree_height": 5.7, "crown_radius": 3.3, "height_source": "lidar2025" }, "geometry": { "type": "Point", "coordinates": [ 282399.5, 4157436.5 ] } },
{ "type": "Feature", "properties": { "id": "lidar-tree:282394:4157440", "name": null, "kind": "tree", "species": null, "source": "lidar2025", "tree_height": 7.1, "crown_radius": 4.2, "height_source": "lidar2025" }, "geometry": { "type": "Point", "coordinates": [ 282393.5, 4157440.5 ] } },
{ "type": "Feature", "properties": { "id": "lidar-tree:282396:4157450", "name": null, "kind": "tree", "species": null, "source": "lidar2025", "tree_height": 13.4, "crown_radius": 6.0, "height_source": "lidar2025" }, "geometry": { "type": "Point", "coordinates": [ 282396.5, 4157449.5 ] } },
{ "type": "Feature", "properties": { "id": "lidar-tree:282262:4157458", "name": null, "kind": "tree", "species": null, "source": "lidar2025", "tree_height": 19.6, "crown_radius": 6.0, "height_source": "lidar2025" }, "geometry": { "type": "Point", "coordinates": [ 282261.5, 4157458.5 ] } },
{ "type": "Feature", "properties": { "id": "lidar-tree:282278:4157492", "name": null, "kind": "tree", "species": null, "source": "lidar2025", "tree_height": 21.5, "crown_radius": 6.0, "height_source": "lidar2025" }, "geometry": { "type": "Point", "coordinates": [ 282277.5, 4157491.5 ] } },
{ "type": "Feature", "properties": { "id": "lidar-tree:282304:4157432", "name": null, "kind": "tree", "species": null, "source": "lidar2025", "tree_height": 19.3, "crown_radius": 6.0, "height_source": "lidar2025" }, "geometry": { "type": "Point", "coordinates": [ 282304.5, 4157432.5 ] } },
{ "type": "Feature", "properties": { "id": "lidar-tree:282292:4157442", "name": null, "kind": "tree", "species": null, "source": "lidar2025", "tree_height": 19.6, "crown_radius": 6.0, "height_source": "lidar2025" }, "geometry": { "type": "Point", "coordinates": [ 282291.5, 4157442.5 ] } },
{ "type": "Feature", "properties": { "id": "lidar-tree:282316:4157458", "name": null, "kind": "tree", "species": null, "source": "lidar2025", "tree_height": 21.9, "crown_radius": 6.0, "height_source": "lidar2025" }, "geometry": { "type": "Point", "coordinates": [ 282315.5, 4157457.5 ] } },
{ "type": "Feature", "properties": { "id": "lidar-tree:282288:4157458", "name": null, "kind": "tree", "species": null, "source": "lidar2025", "tree_height": 16.9, "crown_radius": 6.0, "height_source": "lidar2025" }, "geometry": { "type": "Point", "coordinates": [ 282287.5, 4157457.5 ] } },
{ "type": "Feature", "properties": { "id": "lidar-tree:282308:4157460", "name": null, "kind": "tree", "species": null, "source": "lidar2025", "tree_height": 17.8, "crown_radius": 6.0, "height_source": "lidar2025" }, "geometry": { "type": "Point", "coordinates": [ 282307.5, 4157460.5 ] } },
{ "type": "Feature", "properties": { "id": "lidar-tree:282300:4157474", "name": null, "kind": "tree", "species": null, "source": "lidar2025", "tree_height": 21.9, "crown_radius": 6.0, "height_source": "lidar2025" }, "geometry": { "type": "Point", "coordinates": [ 282299.5, 4157473.5 ] } },
{ "type": "Feature", "properties": { "id": "lidar-tree:282302:4157498", "name": null, "kind": "tree", "species": null, "source": "lidar2025", "tree_height": 4.4, "crown_radius": 2.6, "height_source": "lidar2025" }, "geometry": { "type": "Point", "coordinates": [ 282301.5, 4157498.5 ] } },
{ "type": "Feature", "properties": { "id": "lidar-tree:282482:4157480", "name": null, "kind": "tree", "species": null, "source": "lidar2025", "tree_height": 6.3, "crown_radius": 3.7, "height_source": "lidar2025" }, "geometry": { "type": "Point", "coordinates": [ 282481.5, 4157479.5 ] } },
{ "type": "Feature", "properties": { "id": "lidar-tree:282474:4157482", "name": null, "kind": "tree", "species": null, "source": "lidar2025", "tree_height": 7.4, "crown_radius": 4.4, "height_source": "lidar2025" }, "geometry": { "type": "Point", "coordinates": [ 282474.5, 4157481.5 ] } },
{ "type": "Feature", "properties": { "id": "rva-tree:8152", "name": "Zelkova serrata", "kind": "tree", "species": "Zelkova serrata", "source": "city_inventory", "tree_height": 7.9, "crown_radius": 5.7, "height_source": "lidar2025" }, "geometry": { "type": "Point", "coordinates": [ 282466.94, 4157489.09 ] } },
{ "type": "Feature", "properties": { "id": "rva-tree:8153", "name": "Prunus serotina", "kind": "tree", "species": "Prunus serotina", "source": "city_inventory", "tree_height": 10.5, "crown_radius": 6.0, "height_source": "lidar2025" }, "geometry": { "type": "Point", "coordinates": [ 282472.11, 4157499.96 ] } },
{ "type": "Feature", "properties": { "id": "lidar-tree:282420:4157480", "name": null, "kind": "tree", "species": null, "source": "lidar2025", "tree_height": 16.3, "crown_radius": 5.9, "height_source": "lidar2025" }, "geometry": { "type": "Point", "coordinates": [ 282420.5, 4157479.5 ] } },
{ "type": "Feature", "properties": { "id": "lidar-tree:282430:4157492", "name": null, "kind": "tree", "species": null, "source": "lidar2025", "tree_height": 12.9, "crown_radius": 6.0, "height_source": "lidar2025" }, "geometry": { "type": "Point", "coordinates": [ 282430.5, 4157491.5 ] } },
{ "type": "Feature", "properties": { "id": "lidar-tree:282412:4157496", "name": null, "kind": "tree", "species": null, "source": "lidar2025", "tree_height": 8.9, "crown_radius": 5.8, "height_source": "lidar2025" }, "geometry": { "type": "Point", "coordinates": [ 282411.5, 4157495.5 ] } },
{ "type": "Feature", "properties": { "id": "lidar-tree:282438:4157498", "name": null, "kind": "tree", "species": null, "source": "lidar2025", "tree_height": 11.7, "crown_radius": 6.0, "height_source": "lidar2025" }, "geometry": { "type": "Point", "coordinates": [ 282437.5, 4157498.5 ] } },
{ "type": "Feature", "properties": { "id": "rva-tree:15432", "name": "Pyrus calleryana", "kind": "tree", "species": "Pyrus calleryana", "source": "city_inventory", "tree_height": 7.7, "crown_radius": 3.0, "height_source": "lidar2025" }, "geometry": { "type": "Point", "coordinates": [ 282345.84, 4157257.77 ] } },
{ "type": "Feature", "properties": { "id": "rva-tree:15717", "name": "Lagerstroemia indica", "kind": "tree", "species": "Lagerstroemia indica", "source": "city_inventory", "tree_height": 4.4, "crown_radius": 2.3, "height_source": "lidar2025" }, "geometry": { "type": "Point", "coordinates": [ 282381.36, 4157257.91 ] } },
{ "type": "Feature", "properties": { "id": "rva-tree:15431", "name": "Pyrus calleryana", "kind": "tree", "species": "Pyrus calleryana", "source": "city_inventory", "tree_height": 8.4, "crown_radius": 2.9, "height_source": "lidar2025" }, "geometry": { "type": "Point", "coordinates": [ 282351.11, 4157268.45 ] } },
{ "type": "Feature", "properties": { "id": "lidar-tree:282336:4157254", "name": null, "kind": "tree", "species": null, "source": "lidar2025", "tree_height": 5.9, "crown_radius": 4.6, "height_source": "lidar2025" }, "geometry": { "type": "Point", "coordinates": [ 282336.5, 4157254.5 ] } },
{ "type": "Feature", "properties": { "id": "lidar-tree:282300:4157260", "name": null, "kind": "tree", "species": null, "source": "lidar2025", "tree_height": 18.0, "crown_radius": 5.3, "height_source": "lidar2025" }, "geometry": { "type": "Point", "coordinates": [ 282300.5, 4157259.5 ] } },
{ "type": "Feature", "properties": { "id": "lidar-tree:282284:4157262", "name": null, "kind": "tree", "species": null, "source": "lidar2025", "tree_height": 21.9, "crown_radius": 6.0, "height_source": "lidar2025" }, "geometry": { "type": "Point", "coordinates": [ 282284.5, 4157261.5 ] } },
{ "type": "Feature", "properties": { "id": "lidar-tree:282270:4157256", "name": null, "kind": "tree", "species": null, "source": "lidar2025", "tree_height": 12.7, "crown_radius": 5.5, "height_source": "lidar2025" }, "geometry": { "type": "Point", "coordinates": [ 282270.5, 4157255.5 ] } },
{ "type": "Feature", "properties": { "id": "lidar-tree:282272:4157268", "name": null, "kind": "tree", "species": null, "source": "lidar2025", "tree_height": 16.4, "crown_radius": 6.0, "height_source": "lidar2025" }, "geometry": { "type": "Point", "coordinates": [ 282271.5, 4157267.5 ] } },
{ "type": "Feature", "properties": { "id": "lidar-tree:282272:4157290", "name": null, "kind": "tree", "species": null, "source": "lidar2025", "tree_height": 12.1, "crown_radius": 5.3, "height_source": "lidar2025" }, "geometry": { "type": "Point", "coordinates": [ 282272.5, 4157290.5 ] } }
]
}
