{
"type": "FeatureCollection",
"name": "landuse",
"crs": { "type": "name", "properties": { "name": "urn:ogc:def:crs:EPSG::32618" } },
"xy_coordinate_resolution": 0.01,
"features": [
{ "type": "Feature", "properties": { "id": "richmond_structure:352793", "name": null, "kind": "deck", "sport": null, "surface": null, "pitch_layout": null, "source": "richmond_structures", "source_updated": "2026-09-08T12:07:13.637000Z", "base_z": null, "top_z": null }, "geometry": { "type": "Polygon", "coordinates": [ [ [ 281712.64, 4155327.4 ], [ 281714.84, 4155323.25 ], [ 281712.85, 4155322.43 ], [ 281710.8, 4155326.64 ], [ 281712.64, 4155327.4 ] ] ] } },
{ "type": "Feature", "properties": { "id": "richmond_structure:353862", "name": null, "kind": "deck", "sport": null, "surface": null, "pitch_layout": null, "source": "richmond_structures", "source_updated": "2026-09-08T12:07:13.637000Z", "base_z": null, "top_z": null }, "geometry": { "type": "Polygon", "coordinates": [ [ [ 281705.6, 4155331.2 ], [ 281703.44, 4155334.95 ], [ 281704.64, 4155335.5 ], [ 281707.99, 4155328.94 ], [ 281706.4, 4155328.14 ], [ 281704.88, 4155330.35 ], [ 281705.6, 4155331.2 ] ] ] } },
{ "type": "Feature", "properties": { "id": "richmond_structure:426194", "name": null, "kind": "deck", "sport": null, "surface": null, "pitch_layout": null, "source": "richmond_structures", "source_updated": "2026-09-08T12:07:13.637000Z", "base_z": null, "top_z": null }, "geometry": { "type": "Polygon", "coordinates": [ [ [ 281695.68, 4155340.28 ], [ 281696.84, 4155338.08 ], [ 281692.77, 4155335.93 ], [ 281691.61, 4155338.12 ], [ 281695.68, 4155340.28 ] ] ] } },
{ "type": "Feature", "properties": { "id": "richmond_structure:414678", "name": null, "kind": "deck", "sport": null, "surface": null, "pitch_layout": null, "source": "richmond_structures", "source_updated": "2026-09-08T12:07:13.637000Z", "base_z": null, "top_z": null }, "geometry": { "type": "Polygon", "coordinates": [ [ [ 281681.4, 4155351.69 ], [ 281682.14, 4155350.23 ], [ 281676.65, 4155347.4 ], [ 281675.84, 4155349.2 ], [ 281681.4, 4155351.69 ] ] ] } },
{ "type": "Feature", "properties": { "id": "osm:way/45031115", "name": "Forest Hill Park", "kind": "park", "sport": null, "surface": null, "pitch_layout": null, "source": null, "source_updated": null, "base_z": null, "top_z": null }, "geometry": { "type": "Polygon", "coordinates": [ [ [ 281727.51, 4155413.48 ], [ 281690.59, 4155415.7 ], [ 281680.56, 4155413.65 ], [ 281676.21, 4155409.67 ], [ 281671.8, 4155401.95 ], [ 281667.76, 4155386.12 ], [ 281667.28, 4155378.78 ], [ 281670.83, 4155354.2 ], [ 281670.58, 4155326.73 ], [ 281673.8, 4155320.25 ], [ 281696.85, 4155304.38 ], [ 281710.69, 4155280.67 ], [ 281704.61, 4155250.0 ], [ 281516.66, 4155250.0 ], [ 281517.9, 4155250.42 ], [ 281521.25, 4155251.53 ], [ 281532.36, 4155256.18 ], [ 281544.87, 4155262.26 ], [ 281548.54, 4155266.67 ], [ 281550.3, 4155268.84 ], [ 281551.4, 4155272.87 ], [ 281552.95, 4155280.23 ], [ 281554.54, 4155288.62 ], [ 281553.53, 4155297.84 ], [ 281552.63, 4155308.08 ], [ 281553.98, 4155314.33 ], [ 281557.94, 4155324.24 ], [ 281561.28, 4155332.41 ], [ 281562.22, 4155345.94 ], [ 281562.2, 4155348.11 ], [ 281562.25, 4155349.03 ], [ 281561.61, 4155355.02 ], [ 281561.07, 4155356.88 ], [ 281560.73, 4155357.04 ], [ 281560.3, 4155357.59 ], [ 281559.55, 4155358.9 ], [ 281559.37, 4155362.62 ], [ 281559.72, 4155366.79 ], [ 281559.99, 4155368.62 ], [ 281560.87, 4155370.9 ], [ 281564.03, 4155376.36 ], [ 281571.34, 4155386.22 ], [ 281574.97, 4155391.67 ], [ 281576.09, 4155397.13 ], [ 281576.84, 4155404.41 ], [ 281577.29, 4155407.9 ], [ 281577.84, 4155409.97 ], [ 281579.36, 4155414.92 ], [ 281580.65, 4155427.0 ], [ 281580.63, 4155433.94 ], [ 281579.39, 4155439.17 ], [ 281579.32, 4155439.31 ], [ 281578.64, 4155439.83 ], [ 281576.63, 4155440.54 ], [ 281570.52, 4155443.67 ], [ 281566.7, 4155445.73 ], [ 281563.74, 4155446.8 ], [ 281562.91, 4155446.57 ], [ 281559.81, 4155444.69 ], [ 281556.61, 4155442.24 ], [ 281555.83, 4155441.64 ], [ 281550.48, 4155436.34 ], [ 281544.3, 4155425.6 ], [ 281536.3, 4155414.33 ], [ 281528.71, 4155403.28 ], [ 281522.88, 4155398.87 ], [ 281516.92, 4155395.07 ], [ 281511.06, 4155391.93 ], [ 281509.02, 4155389.74 ], [ 281505.87, 4155385.35 ], [ 281505.04, 4155382.31 ], [ 281502.26, 4155376.39 ], [ 281500.0, 4155372.96 ], [ 281500.0, 4155500.0 ], [ 281750.0, 4155500.0 ], [ 281750.0, 4155391.96 ], [ 281737.89, 4155405.93 ], [ 281727.51, 4155413.48 ] ] ] } },
{ "type": "Feature", "properties": { "id": "richmond_structure:352792", "name": null, "kind": "deck", "sport": null, "surface": null, "pitch_layout": null, "source": "richmond_structures", "source_updated": "2026-09-08T12:07:13.637000Z", "base_z": null, "top_z": null }, "geometry": { "type": "Polygon", "coordinates": [ [ [ 281685.24, 4155369.89 ], [ 281685.45, 4155369.58 ], [ 281684.02, 4155368.79 ], [ 281683.49, 4155369.51 ], [ 281682.81, 4155368.77 ], [ 281680.36, 4155371.83 ], [ 281680.14, 4155373.3 ], [ 281684.73, 4155376.37 ], [ 281684.0, 4155375.87 ], [ 281687.18, 4155371.2 ], [ 281685.24, 4155369.89 ] ] ] } },
{ "type": "Feature", "properties": { "id": "richmond_structure:353959", "name": null, "kind": "deck", "sport": null, "surface": null, "pitch_layout": null, "source": "richmond_structures", "source_updated": "2026-09-08T12:07:13.637000Z", "base_z": null, "top_z": null }, "geometry": { "type": "Polygon", "coordinates": [ [ [ 281693.91, 4155382.9 ], [ 281695.29, 4155381.17 ], [ 281691.62, 4155378.67 ], [ 281690.51, 4155380.3 ], [ 281693.91, 4155382.9 ] ] ] } },
{ "type": "Feature", "properties": { "id": "richmond_structure:413830", "name": null, "kind": "deck", "sport": null, "surface": null, "pitch_layout": null, "source": "richmond_structures", "source_updated": "2026-09-08T12:07:13.637000Z", "base_z": null, "top_z": null }, "geometry": { "type": "Polygon", "coordinates": [ [ [ 281726.15, 4155391.8 ], [ 281725.94, 4155389.92 ], [ 281727.53, 4155389.48 ], [ 281727.02, 4155388.07 ], [ 281725.27, 4155387.75 ], [ 281723.67, 4155388.86 ], [ 281723.61, 4155390.08 ], [ 281720.15, 4155390.53 ], [ 281720.94, 4155395.48 ], [ 281716.57, 4155396.18 ], [ 281716.94, 4155398.13 ], [ 281724.57, 4155397.01 ], [ 281724.31, 4155391.97 ], [ 281726.15, 4155391.8 ] ] ] } },
{ "type": "Feature", "properties": { "id": "richmond_structure:426247", "name": null, "kind": "deck", "sport": null, "surface": null, "pitch_layout": null, "source": "richmond_structures", "source_updated": "2026-09-08T12:07:13.637000Z", "base_z": null, "top_z": null }, "geometry": { "type": "Polygon", "coordinates": [ [ [ 281710.58, 4155395.27 ], [ 281715.49, 4155394.83 ], [ 281715.13, 4155391.04 ], [ 281710.21, 4155391.52 ], [ 281710.58, 4155395.27 ] ] ] } },
{ "type": "Feature", "properties": { "id": "richmond_structure:413831", "name": null, "kind": "deck", "sport": null, "surface": null, "pitch_layout": null, "source": "richmond_structures", "source_updated": "2026-09-08T12:07:13.637000Z", "base_z": null, "top_z": null }, "geometry": { "type": "Polygon", "coordinates": [ [ [ 281714.56, 4155401.23 ], [ 281713.46, 4155398.99 ], [ 281711.82, 4155397.85 ], [ 281711.72, 4155396.28 ], [ 281709.75, 4155396.49 ], [ 281710.81, 4155403.61 ], [ 281711.38, 4155404.37 ], [ 281713.03, 4155403.91 ], [ 281714.71, 4155404.19 ], [ 281715.9, 4155402.96 ], [ 281714.56, 4155401.23 ] ] ] } },
{ "type": "Feature", "properties": { "id": "richmond_structure:353717", "name": null, "kind": "deck", "sport": null, "surface": null, "pitch_layout": null, "source": "richmond_structures", "source_updated": "2026-09-08T12:07:13.637000Z", "base_z": null, "top_z": null }, "geometry": { "type": "Polygon", "coordinates": [ [ [ 281744.46, 4155271.12 ], [ 281744.48, 4155272.08 ], [ 281744.96, 4155273.15 ], [ 281746.11, 4155274.02 ], [ 281747.8, 4155270.45 ], [ 281744.86, 4155268.89 ], [ 281743.72, 4155270.76 ], [ 281744.46, 4155271.12 ] ] ] } },
{ "type": "Feature", "properties": { "id": "richmond_structure:352830", "name": null, "kind": "deck", "sport": null, "surface": null, "pitch_layout": null, "source": "richmond_structures", "source_updated": "2026-09-08T12:07:13.637000Z", "base_z": null, "top_z": null }, "geometry": { "type": "Polygon", "coordinates": [ [ [ 281744.61, 4155272.6 ], [ 281744.46, 4155271.12 ], [ 281743.72, 4155270.76 ], [ 281744.86, 4155268.89 ], [ 281747.8, 4155270.45 ], [ 281748.14, 4155269.74 ], [ 281744.1, 4155267.98 ], [ 281740.78, 4155274.46 ], [ 281746.85, 4155277.86 ], [ 281747.13, 4155277.28 ], [ 281745.51, 4155276.74 ], [ 281746.36, 4155274.53 ], [ 281744.61, 4155272.6 ] ] ] } },
{ "type": "Feature", "properties": { "id": "richmond_structure:353716", "name": null, "kind": "deck", "sport": null, "surface": null, "pitch_layout": null, "source": "richmond_structures", "source_updated": "2026-09-08T12:07:13.637000Z", "base_z": null, "top_z": null }, "geometry": { "type": "Polygon", "coordinates": [ [ [ 281748.05, 4155275.33 ], [ 281746.36, 4155274.53 ], [ 281745.51, 4155276.74 ], [ 281747.13, 4155277.28 ], [ 281748.05, 4155275.33 ] ] ] } },
{ "type": "Feature", "properties": { "id": "richmond_structure:353719", "name": null, "kind": "deck", "sport": null, "surface": null, "pitch_layout": null, "source": "richmond_structures", "source_updated": "2026-09-08T12:07:13.637000Z", "base_z": null, "top_z": null }, "geometry": { "type": "Polygon", "coordinates": [ [ [ 281738.89, 4155287.38 ], [ 281742.79, 4155279.89 ], [ 281738.95, 4155277.99 ], [ 281735.46, 4155285.76 ], [ 281738.89, 4155287.38 ] ] ] } },
{ "type": "Feature", "properties": { "id": "richmond_structure:413829", "name": null, "kind": "deck", "sport": null, "surface": null, "pitch_layout": null, "source": "richmond_structures", "source_updated": "2026-09-08T12:07:13.637000Z", "base_z": null, "top_z": null }, "geometry": { "type": "Polygon", "coordinates": [ [ [ 281725.56, 4155290.68 ], [ 281726.0, 4155291.9 ], [ 281725.4, 4155294.81 ], [ 281726.15, 4155295.96 ], [ 281729.09, 4155298.07 ], [ 281731.75, 4155292.66 ], [ 281730.86, 4155290.65 ], [ 281730.76, 4155288.52 ], [ 281729.9, 4155287.67 ], [ 281728.55, 4155287.23 ], [ 281726.78, 4155287.61 ], [ 281725.98, 4155288.85 ], [ 281725.56, 4155290.68 ] ] ] } },
{ "type": "Feature", "properties": { "id": "richmond_structure:353864", "name": null, "kind": "deck", "sport": null, "surface": null, "pitch_layout": null, "source": "richmond_structures", "source_updated": "2026-09-08T12:07:13.637000Z", "base_z": null, "top_z": null }, "geometry": { "type": "Polygon", "coordinates": [ [ [ 281724.66, 4155306.94 ], [ 281728.98, 4155300.13 ], [ 281726.63, 4155298.45 ], [ 281722.26, 4155305.31 ], [ 281724.66, 4155306.94 ] ] ] } },
{ "type": "Feature", "properties": { "id": "richmond_structure:353998", "name": null, "kind": "deck", "sport": null, "surface": null, "pitch_layout": null, "source": "richmond_structures", "source_updated": "2026-09-08T12:07:13.637000Z", "base_z": null, "top_z": null }, "geometry": { "type": "Polygon", "coordinates": [ [ [ 281737.58, 4155365.15 ], [ 281737.29, 4155365.33 ], [ 281738.76, 4155366.39 ], [ 281741.32, 4155362.64 ], [ 281742.38, 4155363.4 ], [ 281741.58, 4155364.26 ], [ 281743.45, 4155365.2 ], [ 281745.07, 4155370.27 ], [ 281745.94, 4155371.39 ], [ 281747.72, 4155372.26 ], [ 281749.76, 4155372.65 ], [ 281750.0, 4155372.64 ], [ 281750.0, 4155371.22 ], [ 281749.96, 4155371.23 ], [ 281747.33, 4155370.82 ], [ 281745.77, 4155369.17 ], [ 281745.69, 4155366.93 ], [ 281744.67, 4155365.3 ], [ 281745.57, 4155363.67 ], [ 281746.23, 4155364.29 ], [ 281747.96, 4155363.94 ], [ 281750.0, 4155364.31 ], [ 281750.0, 4155363.47 ], [ 281748.49, 4155363.33 ], [ 281746.52, 4155363.56 ], [ 281744.83, 4155363.15 ], [ 281746.43, 4155361.18 ], [ 281744.8, 4155360.21 ], [ 281744.87, 4155359.89 ], [ 281741.94, 4155357.51 ], [ 281740.88, 4155358.88 ], [ 281742.02, 4155359.7 ], [ 281737.92, 4155365.39 ], [ 281737.58, 4155365.15 ] ] ] } },
{ "type": "Feature", "properties": { "id": "richmond_structure:351474", "name": null, "kind": "deck", "sport": null, "surface": null, "pitch_layout": null, "source": "richmond_structures", "source_updated": "2026-09-08T12:07:13.637000Z", "base_z": null, "top_z": null }, "geometry": { "type": "Polygon", "coordinates": [ [ [ 281733.51, 4155375.91 ], [ 281734.77, 4155376.85 ], [ 281733.09, 4155379.1 ], [ 281733.59, 4155379.48 ], [ 281735.19, 4155377.46 ], [ 281736.29, 4155378.31 ], [ 281737.17, 4155377.92 ], [ 281737.49, 4155376.95 ], [ 281739.25, 4155376.17 ], [ 281738.99, 4155374.1 ], [ 281737.55, 4155373.16 ], [ 281737.27, 4155373.53 ], [ 281735.99, 4155372.58 ], [ 281733.51, 4155375.91 ] ] ] } },
{ "type": "Feature", "properties": { "id": "richmond_structure:426228", "name": null, "kind": "deck", "sport": null, "surface": null, "pitch_layout": null, "source": "richmond_structures", "source_updated": "2026-09-08T12:07:13.637000Z", "base_z": null, "top_z": null }, "geometry": { "type": "Polygon", "coordinates": [ [ [ 281718.09, 4155411.94 ], [ 281726.81, 4155410.88 ], [ 281725.79, 4155404.04 ], [ 281717.95, 4155405.06 ], [ 281718.09, 4155411.94 ] ] ] } },
{ "type": "Feature", "properties": { "id": "imagery:groundcover_lawn:3468", "name": null, "kind": "groundcover_lawn", "sport": null, "surface": null, "pitch_layout": null, "source": "vgin_vbmp+naip+lidar2025", "source_updated": null, "base_z": null, "top_z": null }, "geometry": { "type": "MultiPolygon", "coordinates": [ [ [ [ 281710.9, 4155270.4 ], [ 281710.97, 4155270.25 ], [ 281715.0, 4155262.31 ], [ 281715.02, 4155262.27 ], [ 281715.59, 4155261.19 ], [ 281707.74, 4155257.61 ], [ 281707.65, 4155257.56 ], [ 281707.57, 4155257.51 ], [ 281707.49, 4155257.45 ], [ 281707.42, 4155257.38 ], [ 281707.36, 4155257.3 ], [ 281707.3, 4155257.22 ], [ 281707.25, 4155257.13 ], [ 281707.21, 4155257.04 ], [ 281707.18, 4155256.94 ], [ 281707.17, 4155256.85 ], [ 281707.16, 4155256.75 ], [ 281707.16, 4155256.65 ], [ 281707.17, 4155256.55 ], [ 281707.19, 4155256.45 ], [ 281707.22, 4155256.36 ], [ 281707.25, 4155256.26 ], [ 281709.83, 4155250.93 ], [ 281709.87, 4155250.85 ], [ 281709.93, 4155250.77 ], [ 281709.99, 4155250.7 ], [ 281710.06, 4155250.63 ], [ 281710.13, 4155250.57 ], [ 281710.21, 4155250.51 ], [ 281710.29, 4155250.47 ], [ 281710.38, 4155250.43 ], [ 281710.47, 4155250.4 ], [ 281710.56, 4155250.38 ], [ 281710.66, 4155250.37 ], [ 281710.76, 4155250.37 ], [ 281710.85, 4155250.37 ], [ 281710.94, 4155250.39 ], [ 281711.04, 4155250.42 ], [ 281711.13, 4155250.45 ], [ 281719.36, 4155254.01 ], [ 281721.47, 4155250.0 ], [ 281704.61, 4155250.0 ], [ 281709.34, 4155273.9 ], [ 281710.9, 4155270.4 ] ] ], [ [ [ 281681.36, 4155354.39 ], [ 281681.32, 4155354.3 ], [ 281681.3, 4155354.2 ], [ 281681.28, 4155354.11 ], [ 281681.27, 4155354.01 ], [ 281681.28, 4155353.91 ], [ 281681.29, 4155353.81 ], [ 281681.31, 4155353.72 ], [ 281681.34, 4155353.62 ], [ 281681.38, 4155353.54 ], [ 281681.62, 4155353.07 ], [ 281681.48, 4155352.35 ], [ 281680.95, 4155352.08 ], [ 281680.86, 4155352.03 ], [ 281680.78, 4155351.98 ], [ 281680.71, 4155351.91 ], [ 281680.64, 4155351.84 ], [ 281680.58, 4155351.76 ], [ 281680.53, 4155351.68 ], [ 281680.49, 4155351.59 ], [ 281680.45, 4155351.5 ], [ 281680.43, 4155351.4 ], [ 281680.41, 4155351.31 ], [ 281680.4, 4155351.21 ], [ 281680.41, 4155351.11 ], [ 281680.42, 4155351.01 ], [ 281680.44, 4155350.92 ], [ 281680.47, 4155350.83 ], [ 281680.51, 4155350.74 ], [ 281681.01, 4155349.77 ], [ 281681.02, 4155349.73 ], [ 281676.39, 4155347.47 ], [ 281676.31, 4155347.42 ], [ 281676.23, 4155347.36 ], [ 281676.15, 4155347.3 ], [ 281676.08, 4155347.23 ], [ 281676.02, 4155347.15 ], [ 281675.97, 4155347.07 ], [ 281675.92, 4155346.98 ], [ 281675.89, 4155346.89 ], [ 281675.86, 4155346.8 ], [ 281675.84, 4155346.7 ], [ 281675.83, 4155346.6 ], [ 281675.84, 4155346.51 ], [ 281675.85, 4155346.41 ], [ 281675.87, 4155346.31 ], [ 281675.9, 4155346.22 ], [ 281675.94, 4155346.13 ], [ 281677.24, 4155343.48 ], [ 281677.29, 4155343.4 ], [ 281677.34, 4155343.32 ], [ 281677.4, 4155343.24 ], [ 281677.48, 4155343.17 ], [ 281677.55, 4155343.11 ], [ 281677.63, 4155343.06 ], [ 281677.72, 4155343.02 ], [ 281677.81, 4155342.98 ], [ 281677.91, 4155342.95 ], [ 281678.0, 4155342.93 ], [ 281678.1, 4155342.93 ], [ 281678.2, 4155342.93 ], [ 281678.3, 4155342.94 ], [ 281678.39, 4155342.96 ], [ 281678.49, 4155342.99 ], [ 281678.58, 4155343.03 ], [ 281683.32, 4155345.35 ], [ 281683.38, 4155345.3 ], [ 281683.46, 4155345.24 ], [ 281683.54, 4155345.19 ], [ 281683.63, 4155345.14 ], [ 281683.72, 4155345.11 ], [ 281683.81, 4155345.08 ], [ 281683.91, 4155345.07 ], [ 281684.01, 4155345.06 ], [ 281684.11, 4155345.06 ], [ 281684.2, 4155345.07 ], [ 281684.3, 4155345.1 ], [ 281684.39, 4155345.13 ], [ 281684.48, 4155345.17 ], [ 281685.39, 4155345.63 ], [ 281685.89, 4155345.63 ], [ 281685.93, 4155345.6 ], [ 281686.02, 4155345.57 ], [ 281686.12, 4155345.54 ], [ 281686.21, 4155345.53 ], [ 281686.31, 4155345.52 ], [ 281686.41, 4155345.52 ], [ 281686.51, 4155345.54 ], [ 281686.6, 4155345.56 ], [ 281686.7, 4155345.59 ], [ 281686.78, 4155345.63 ], [ 281689.13, 4155345.63 ], [ 281692.13, 4155342.63 ], [ 281692.13, 4155342.26 ], [ 281692.41, 4155341.4 ], [ 281693.91, 4155339.32 ], [ 281694.63, 4155338.79 ], [ 281695.18, 4155338.61 ], [ 281697.21, 4155334.77 ], [ 281697.26, 4155334.69 ], [ 281697.32, 4155334.61 ], [ 281697.38, 4155334.54 ], [ 281697.45, 4155334.47 ], [ 281697.53, 4155334.41 ], [ 281697.62, 4155334.36 ], [ 281697.7, 4155334.32 ], [ 281697.8, 4155334.28 ], [ 281697.89, 4155334.26 ], [ 281697.99, 4155334.24 ], [ 281698.09, 4155334.24 ], [ 281698.18, 4155334.24 ], [ 281698.28, 4155334.26 ], [ 281698.38, 4155334.28 ], [ 281698.47, 4155334.31 ], [ 281698.56, 4155334.36 ], [ 281701.73, 4155336.03 ], [ 281704.33, 4155333.42 ], [ 281707.52, 4155327.21 ], [ 281707.57, 4155327.12 ], [ 281707.63, 4155327.04 ], [ 281707.69, 4155326.97 ], [ 281707.76, 4155326.9 ], [ 281707.84, 4155326.84 ], [ 281707.92, 4155326.79 ], [ 281708.01, 4155326.74 ], [ 281708.1, 4155326.71 ], [ 281708.2, 4155326.68 ], [ 281708.29, 4155326.67 ], [ 281708.39, 4155326.66 ], [ 281708.49, 4155326.66 ], [ 281708.59, 4155326.68 ], [ 281708.68, 4155326.7 ], [ 281708.78, 4155326.73 ], [ 281708.87, 4155326.77 ], [ 281709.78, 4155327.24 ], [ 281710.13, 4155326.38 ], [ 281710.13, 4155325.22 ], [ 281710.55, 4155324.2 ], [ 281712.71, 4155322.05 ], [ 281713.73, 4155321.63 ], [ 281714.31, 4155321.63 ], [ 281715.54, 4155319.3 ], [ 281715.59, 4155319.21 ], [ 281715.65, 4155319.14 ], [ 281715.72, 4155319.06 ], [ 281715.79, 4155319.0 ], [ 281715.87, 4155318.94 ], [ 281715.95, 4155318.89 ], [ 281716.04, 4155318.84 ], [ 281716.13, 4155318.81 ], [ 281716.23, 4155318.79 ], [ 281716.33, 4155318.77 ], [ 281716.42, 4155318.77 ], [ 281716.52, 4155318.77 ], [ 281716.62, 4155318.78 ], [ 281716.71, 4155318.81 ], [ 281716.81, 4155318.84 ], [ 281716.89, 4155318.88 ], [ 281727.25, 4155324.36 ], [ 281727.34, 4155324.41 ], [ 281727.42, 4155324.47 ], [ 281727.49, 4155324.54 ], [ 281727.56, 4155324.61 ], [ 281727.62, 4155324.69 ], [ 281727.67, 4155324.77 ], [ 281727.71, 4155324.86 ], [ 281727.74, 4155324.95 ], [ 281727.77, 4155325.05 ], [ 281727.78, 4155325.14 ], [ 281727.79, 4155325.24 ], [ 281727.78, 4155325.34 ], [ 281727.77, 4155325.44 ], [ 281727.75, 4155325.53 ], [ 281727.71, 4155325.63 ], [ 281727.67, 4155325.71 ], [ 281725.13, 4155330.52 ], [ 281725.13, 4155331.35 ], [ 281724.91, 4155332.13 ], [ 281723.69, 4155334.1 ], [ 281723.1, 4155334.64 ], [ 281720.79, 4155335.8 ], [ 281719.13, 4155338.48 ], [ 281719.13, 4155339.03 ], [ 281718.71, 4155340.05 ], [ 281717.14, 4155341.62 ], [ 281716.8, 4155343.89 ], [ 281736.62, 4155319.72 ], [ 281736.79, 4155318.39 ], [ 281734.4, 4155315.08 ], [ 281725.05, 4155313.21 ], [ 281724.21, 4155312.71 ], [ 281722.46, 4155310.57 ], [ 281722.13, 4155309.65 ], [ 281722.13, 4155302.6 ], [ 281722.31, 4155301.9 ], [ 281723.29, 4155300.06 ], [ 281723.78, 4155299.53 ], [ 281729.59, 4155295.65 ], [ 281729.58, 4155295.63 ], [ 281729.53, 4155295.54 ], [ 281729.49, 4155295.45 ], [ 281729.46, 4155295.36 ], [ 281729.44, 4155295.26 ], [ 281729.43, 4155295.16 ], [ 281729.43, 4155295.06 ], [ 281729.44, 4155294.97 ], [ 281729.45, 4155294.87 ], [ 281729.48, 4155294.77 ], [ 281729.52, 4155294.68 ], [ 281732.67, 4155287.83 ], [ 281732.72, 4155287.74 ], [ 281732.77, 4155287.66 ], [ 281732.83, 4155287.58 ], [ 281732.9, 4155287.51 ], [ 281732.91, 4155287.5 ], [ 281733.6, 4155284.77 ], [ 281733.98, 4155284.08 ], [ 281735.59, 4155282.48 ], [ 281736.27, 4155282.09 ], [ 281740.86, 4155280.94 ], [ 281742.3, 4155278.18 ], [ 281742.34, 4155278.1 ], [ 281742.4, 4155278.02 ], [ 281742.47, 4155277.94 ], [ 281742.54, 4155277.88 ], [ 281742.62, 4155277.82 ], [ 281742.7, 4155277.77 ], [ 281742.79, 4155277.72 ], [ 281742.88, 4155277.69 ], [ 281742.98, 4155277.66 ], [ 281743.07, 4155277.65 ], [ 281743.17, 4155277.64 ], [ 281743.27, 4155277.65 ], [ 281743.37, 4155277.66 ], [ 281743.46, 4155277.68 ], [ 281743.56, 4155277.71 ], [ 281743.64, 4155277.76 ], [ 281745.15, 4155278.54 ], [ 281745.84, 4155277.66 ], [ 281745.84, 4155277.64 ], [ 281745.82, 4155277.54 ], [ 281745.82, 4155277.44 ], [ 281745.83, 4155277.34 ], [ 281745.85, 4155277.24 ], [ 281745.88, 4155277.15 ], [ 281745.92, 4155277.05 ], [ 281746.13, 4155276.6 ], [ 281746.13, 4155274.6 ], [ 281745.72, 4155274.41 ], [ 281745.63, 4155274.36 ], [ 281745.55, 4155274.3 ], [ 281745.47, 4155274.24 ], [ 281745.4, 4155274.17 ], [ 281745.34, 4155274.1 ], [ 281745.29, 4155274.02 ], [ 281745.24, 4155273.93 ], [ 281745.2, 4155273.84 ], [ 281745.17, 4155273.74 ], [ 281745.15, 4155273.65 ], [ 281745.14, 4155273.55 ], [ 281745.14, 4155273.45 ], [ 281745.15, 4155273.35 ], [ 281745.17, 4155273.26 ], [ 281745.2, 4155273.16 ], [ 281745.24, 4155273.07 ], [ 281747.42, 4155268.47 ], [ 281747.46, 4155268.39 ], [ 281747.52, 4155268.31 ], [ 281747.58, 4155268.23 ], [ 281747.65, 4155268.16 ], [ 281747.73, 4155268.1 ], [ 281747.81, 4155268.04 ], [ 281747.9, 4155268.0 ], [ 281747.99, 4155267.96 ], [ 281748.08, 4155267.93 ], [ 281748.18, 4155267.91 ], [ 281748.28, 4155267.9 ], [ 281748.37, 4155267.9 ], [ 281748.47, 4155267.91 ], [ 281748.51, 4155267.92 ], [ 281748.51, 4155267.0 ], [ 281747.22, 4155265.71 ], [ 281746.9, 4155265.23 ], [ 281746.24, 4155263.66 ], [ 281746.13, 4155263.09 ], [ 281746.13, 4155253.75 ], [ 281746.2, 4155253.32 ], [ 281746.57, 4155252.08 ], [ 281746.76, 4155251.69 ], [ 281747.88, 4155250.0 ], [ 281728.29, 4155250.0 ], [ 281727.92, 4155250.83 ], [ 281727.84, 4155251.0 ], [ 281720.43, 4155265.09 ], [ 281716.44, 4155272.94 ], [ 281711.38, 4155284.36 ], [ 281711.38, 4155284.37 ], [ 281708.04, 4155291.85 ], [ 281707.96, 4155292.01 ], [ 281704.93, 4155297.89 ], [ 281704.82, 4155298.09 ], [ 281704.7, 4155298.28 ], [ 281701.8, 4155302.32 ], [ 281701.62, 4155302.54 ], [ 281697.85, 4155306.87 ], [ 281697.57, 4155307.15 ], [ 281696.17, 4155308.4 ], [ 281699.01, 4155310.06 ], [ 281699.09, 4155310.11 ], [ 281699.17, 4155310.17 ], [ 281699.24, 4155310.24 ], [ 281699.3, 4155310.32 ], [ 281699.36, 4155310.4 ], [ 281699.4, 4155310.48 ], [ 281699.44, 4155310.57 ], [ 281699.47, 4155310.67 ], [ 281699.49, 4155310.76 ], [ 281699.5, 4155310.86 ], [ 281699.5, 4155310.96 ], [ 281699.5, 4155311.05 ], [ 281699.48, 4155311.15 ], [ 281699.45, 4155311.25 ], [ 281699.41, 4155311.34 ], [ 281699.37, 4155311.42 ], [ 281697.8, 4155314.13 ], [ 281697.74, 4155314.21 ], [ 281697.68, 4155314.29 ], [ 281697.61, 4155314.36 ], [ 281697.54, 4155314.42 ], [ 281697.46, 4155314.48 ], [ 281697.37, 4155314.52 ], [ 281697.28, 4155314.56 ], [ 281697.19, 4155314.59 ], [ 281697.09, 4155314.61 ], [ 281696.99, 4155314.62 ], [ 281696.94, 4155314.63 ], [ 281697.02, 4155314.68 ], [ 281697.1, 4155314.74 ], [ 281697.17, 4155314.81 ], [ 281697.24, 4155314.88 ], [ 281697.3, 4155314.96 ], [ 281697.35, 4155315.04 ], [ 281697.39, 4155315.13 ], [ 281697.42, 4155315.23 ], [ 281697.44, 4155315.32 ], [ 281697.45, 4155315.42 ], [ 281697.46, 4155315.52 ], [ 281697.45, 4155315.61 ], [ 281697.44, 4155315.71 ], [ 281697.41, 4155315.81 ], [ 281697.38, 4155315.9 ], [ 281697.33, 4155315.99 ], [ 281695.53, 4155319.28 ], [ 281695.48, 4155319.36 ], [ 281695.42, 4155319.44 ], [ 281695.35, 4155319.51 ], [ 281695.28, 4155319.58 ], [ 281695.2, 4155319.63 ], [ 281695.11, 4155319.68 ], [ 281695.02, 4155319.72 ], [ 281694.93, 4155319.76 ], [ 281694.84, 4155319.78 ], [ 281694.74, 4155319.79 ], [ 281694.64, 4155319.79 ], [ 281694.54, 4155319.79 ], [ 281694.45, 4155319.77 ], [ 281694.35, 4155319.75 ], [ 281694.26, 4155319.71 ], [ 281694.17, 4155319.67 ], [ 281688.88, 4155316.77 ], [ 281688.8, 4155316.72 ], [ 281688.72, 4155316.66 ], [ 281688.65, 4155316.59 ], [ 281688.59, 4155316.52 ], [ 281688.53, 4155316.44 ], [ 281688.48, 4155316.35 ], [ 281688.44, 4155316.26 ], [ 281688.41, 4155316.17 ], [ 281688.38, 4155316.08 ], [ 281688.37, 4155315.98 ], [ 281688.37, 4155315.88 ], [ 281688.37, 4155315.78 ], [ 281688.39, 4155315.69 ], [ 281688.41, 4155315.59 ], [ 281688.45, 4155315.5 ], [ 281688.49, 4155315.41 ], [ 281689.8, 4155313.03 ], [ 281686.64, 4155314.96 ], [ 281686.49, 4155315.05 ], [ 281681.18, 4155317.91 ], [ 281677.18, 4155320.82 ], [ 281674.26, 4155324.57 ], [ 281673.09, 4155328.09 ], [ 281672.96, 4155332.04 ], [ 281673.13, 4155333.73 ], [ 281673.2, 4155333.72 ], [ 281673.3, 4155333.71 ], [ 281673.4, 4155333.72 ], [ 281673.5, 4155333.74 ], [ 281673.59, 4155333.76 ], [ 281673.68, 4155333.8 ], [ 281678.38, 4155335.89 ], [ 281678.47, 4155335.93 ], [ 281678.55, 4155335.98 ], [ 281678.63, 4155336.04 ], [ 281678.7, 4155336.11 ], [ 281678.76, 4155336.19 ], [ 281678.82, 4155336.27 ], [ 281678.87, 4155336.35 ], [ 281678.91, 4155336.44 ], [ 281678.94, 4155336.53 ], [ 281678.96, 4155336.63 ], [ 281678.97, 4155336.73 ], [ 281678.97, 4155336.83 ], [ 281678.97, 4155336.92 ], [ 281678.95, 4155337.02 ], [ 281678.92, 4155337.11 ], [ 281678.89, 4155337.21 ], [ 281677.54, 4155340.24 ], [ 281677.5, 4155340.33 ], [ 281677.45, 4155340.41 ], [ 281677.39, 4155340.49 ], [ 281677.32, 4155340.56 ], [ 281677.25, 4155340.62 ], [ 281677.17, 4155340.68 ], [ 281677.08, 4155340.73 ], [ 281676.99, 4155340.77 ], [ 281676.9, 4155340.8 ], [ 281676.8, 4155340.82 ], [ 281676.7, 4155340.83 ], [ 281676.61, 4155340.83 ], [ 281676.51, 4155340.83 ], [ 281676.41, 4155340.81 ], [ 281676.32, 4155340.78 ], [ 281676.22, 4155340.75 ], [ 281673.72, 4155339.64 ], [ 281674.8, 4155348.81 ], [ 281674.82, 4155349.06 ], [ 281675.13, 4155357.68 ], [ 281675.13, 4155357.93 ], [ 281675.11, 4155358.17 ], [ 281674.67, 4155361.62 ], [ 281674.59, 4155362.04 ], [ 281673.05, 4155367.63 ], [ 281673.03, 4155367.72 ], [ 281670.93, 4155374.53 ], [ 281670.94, 4155381.59 ], [ 281671.35, 4155388.23 ], [ 281672.38, 4155394.14 ], [ 281674.31, 4155399.83 ], [ 281676.34, 4155404.21 ], [ 281679.39, 4155409.6 ], [ 281680.68, 4155410.99 ], [ 281682.11, 4155412.02 ], [ 281683.69, 4155412.53 ], [ 281685.97, 4155412.72 ], [ 281690.54, 4155412.84 ], [ 281696.11, 4155412.9 ], [ 281700.49, 4155412.49 ], [ 281698.65, 4155403.29 ], [ 281698.62, 4155403.08 ], [ 281697.62, 4155395.21 ], [ 281697.6, 4155395.03 ], [ 281697.27, 4155390.0 ], [ 281697.27, 4155389.57 ], [ 281697.58, 4155385.43 ], [ 281697.6, 4155385.2 ], [ 281697.65, 4155384.97 ], [ 281698.58, 4155380.94 ], [ 281698.71, 4155380.51 ], [ 281699.03, 4155379.69 ], [ 281698.06, 4155380.48 ], [ 281696.88, 4155380.78 ], [ 281696.44, 4155380.69 ], [ 281696.31, 4155380.89 ], [ 281696.25, 4155380.97 ], [ 281696.18, 4155381.04 ], [ 281696.11, 4155381.1 ], [ 281696.03, 4155381.16 ], [ 281695.95, 4155381.21 ], [ 281695.86, 4155381.25 ], [ 281695.77, 4155381.29 ], [ 281695.67, 4155381.31 ], [ 281695.57, 4155381.32 ], [ 281695.47, 4155381.33 ], [ 281695.38, 4155381.32 ], [ 281695.28, 4155381.31 ], [ 281695.18, 4155381.28 ], [ 281695.09, 4155381.25 ], [ 281695.0, 4155381.2 ], [ 281694.92, 4155381.15 ], [ 281693.31, 4155380.06 ], [ 281691.72, 4155379.74 ], [ 281691.53, 4155380.03 ], [ 281691.47, 4155380.1 ], [ 281691.4, 4155380.18 ], [ 281691.33, 4155380.24 ], [ 281691.25, 4155380.3 ], [ 281691.16, 4155380.35 ], [ 281691.08, 4155380.39 ], [ 281690.98, 4155380.42 ], [ 281690.89, 4155380.45 ], [ 281690.79, 4155380.46 ], [ 281690.69, 4155380.46 ], [ 281690.59, 4155380.46 ], [ 281690.5, 4155380.44 ], [ 281690.4, 4155380.42 ], [ 281690.31, 4155380.38 ], [ 281690.22, 4155380.34 ], [ 281690.14, 4155380.29 ], [ 281688.19, 4155378.97 ], [ 281687.68, 4155378.7 ], [ 281687.39, 4155378.42 ], [ 281683.63, 4155375.86 ], [ 281683.55, 4155375.81 ], [ 281683.48, 4155375.74 ], [ 281683.41, 4155375.67 ], [ 281683.35, 4155375.59 ], [ 281683.3, 4155375.5 ], [ 281683.26, 4155375.41 ], [ 281683.23, 4155375.32 ], [ 281683.21, 4155375.22 ], [ 281683.19, 4155375.13 ], [ 281683.19, 4155375.03 ], [ 281683.19, 4155374.93 ], [ 281683.21, 4155374.83 ], [ 281683.23, 4155374.74 ], [ 281683.27, 4155374.65 ], [ 281683.31, 4155374.56 ], [ 281683.36, 4155374.47 ], [ 281684.63, 4155372.61 ], [ 281684.0, 4155370.11 ], [ 281684.17, 4155369.02 ], [ 281685.73, 4155366.41 ], [ 281686.3, 4155365.99 ], [ 281686.58, 4155365.58 ], [ 281685.83, 4155360.53 ], [ 281685.19, 4155360.3 ], [ 281683.05, 4155358.54 ], [ 281682.55, 4155357.7 ], [ 281682.0, 4155354.97 ], [ 281681.82, 4155354.88 ], [ 281681.73, 4155354.83 ], [ 281681.65, 4155354.77 ], [ 281681.58, 4155354.71 ], [ 281681.51, 4155354.64 ], [ 281681.45, 4155354.56 ], [ 281681.4, 4155354.48 ], [ 281681.36, 4155354.39 ] ], [ [ 281685.28, 4155326.7 ], [ 281685.22, 4155326.78 ], [ 281685.15, 4155326.85 ], [ 281685.08, 4155326.91 ], [ 281685.0, 4155326.96 ], [ 281684.91, 4155327.01 ], [ 281684.82, 4155327.05 ], [ 281684.73, 4155327.08 ], [ 281684.63, 4155327.1 ], [ 281684.53, 4155327.11 ], [ 281684.43, 4155327.11 ], [ 281684.34, 4155327.11 ], [ 281684.24, 4155327.09 ], [ 281684.15, 4155327.06 ], [ 281684.06, 4155327.02 ], [ 281683.97, 4155326.98 ], [ 281679.18, 4155324.21 ], [ 281679.1, 4155324.15 ], [ 281679.02, 4155324.09 ], [ 281678.95, 4155324.02 ], [ 281678.89, 4155323.95 ], [ 281678.83, 4155323.87 ], [ 281678.78, 4155323.78 ], [ 281678.75, 4155323.69 ], [ 281678.72, 4155323.6 ], [ 281678.7, 4155323.5 ], [ 281678.68, 4155323.41 ], [ 281678.68, 4155323.31 ], [ 281678.69, 4155323.21 ], [ 281678.71, 4155323.11 ], [ 281678.74, 4155323.02 ], [ 281678.77, 4155322.93 ], [ 281678.82, 4155322.84 ], [ 281680.67, 4155319.64 ], [ 281680.72, 4155319.56 ], [ 281680.78, 4155319.48 ], [ 281680.85, 4155319.41 ], [ 281680.93, 4155319.34 ], [ 281681.01, 4155319.29 ], [ 281681.09, 4155319.24 ], [ 281681.18, 4155319.2 ], [ 281681.28, 4155319.17 ], [ 281681.37, 4155319.15 ], [ 281681.47, 4155319.14 ], [ 281681.57, 4155319.14 ], [ 281681.67, 4155319.15 ], [ 281681.76, 4155319.17 ], [ 281681.86, 4155319.19 ], [ 281681.95, 4155319.23 ], [ 281682.04, 4155319.27 ], [ 281686.82, 4155322.06 ], [ 281686.91, 4155322.11 ], [ 281686.98, 4155322.17 ], [ 281687.05, 4155322.24 ], [ 281687.12, 4155322.32 ], [ 281687.17, 4155322.4 ], [ 281687.22, 4155322.48 ], [ 281687.26, 4155322.57 ], [ 281687.29, 4155322.67 ], [ 281687.31, 4155322.76 ], [ 281687.32, 4155322.86 ], [ 281687.32, 4155322.96 ], [ 281687.31, 4155323.06 ], [ 281687.3, 4155323.15 ], [ 281687.27, 4155323.25 ], [ 281687.23, 4155323.34 ], [ 281687.19, 4155323.42 ], [ 281685.33, 4155326.62 ], [ 281685.28, 4155326.7 ] ], [ [ 281726.76, 4155269.08 ], [ 281726.7, 4155269.16 ], [ 281726.64, 4155269.24 ], [ 281726.57, 4155269.31 ], [ 281726.49, 4155269.37 ], [ 281726.41, 4155269.42 ], [ 281726.32, 4155269.46 ], [ 281726.23, 4155269.5 ], [ 281726.13, 4155269.52 ], [ 281726.04, 4155269.54 ], [ 281725.94, 4155269.55 ], [ 281725.84, 4155269.54 ], [ 281725.74, 4155269.53 ], [ 281725.65, 4155269.51 ], [ 281725.56, 4155269.48 ], [ 281725.47, 4155269.44 ], [ 281720.77, 4155267.06 ], [ 281720.68, 4155267.02 ], [ 281720.6, 4155266.96 ], [ 281720.53, 4155266.89 ], [ 281720.46, 4155266.82 ], [ 281720.4, 4155266.75 ], [ 281720.35, 4155266.66 ], [ 281720.3, 4155266.57 ], [ 281720.27, 4155266.48 ], [ 281720.24, 4155266.39 ], [ 281720.23, 4155266.29 ], [ 281720.22, 4155266.19 ], [ 281720.22, 4155266.1 ], [ 281720.23, 4155266.0 ], [ 281720.26, 4155265.9 ], [ 281720.29, 4155265.81 ], [ 281720.33, 4155265.72 ], [ 281722.95, 4155260.54 ], [ 281723.0, 4155260.46 ], [ 281723.06, 4155260.38 ], [ 281723.12, 4155260.3 ], [ 281723.19, 4155260.24 ], [ 281723.27, 4155260.18 ], [ 281723.35, 4155260.12 ], [ 281723.44, 4155260.08 ], [ 281723.53, 4155260.04 ], [ 281723.63, 4155260.02 ], [ 281723.72, 4155260.0 ], [ 281723.82, 4155259.99 ], [ 281723.92, 4155260.0 ], [ 281724.02, 4155260.01 ], [ 281724.11, 4155260.03 ], [ 281724.21, 4155260.06 ], [ 281724.3, 4155260.1 ], [ 281728.99, 4155262.49 ], [ 281729.07, 4155262.54 ], [ 281729.15, 4155262.6 ], [ 281729.22, 4155262.66 ], [ 281729.29, 4155262.73 ], [ 281729.35, 4155262.81 ], [ 281729.4, 4155262.89 ], [ 281729.45, 4155262.98 ], [ 281729.48, 4155263.07 ], [ 281729.51, 4155263.17 ], [ 281729.52, 4155263.26 ], [ 281729.53, 4155263.36 ], [ 281729.53, 4155263.46 ], [ 281729.52, 4155263.55 ], [ 281729.5, 4155263.65 ], [ 281729.46, 4155263.74 ], [ 281729.42, 4155263.83 ], [ 281726.81, 4155269.0 ], [ 281726.76, 4155269.08 ] ] ], [ [ [ 281703.65, 4155352.88 ], [ 281703.55, 4155352.89 ], [ 281703.45, 4155352.9 ], [ 281703.35, 4155352.9 ], [ 281703.26, 4155352.88 ], [ 281703.16, 4155352.86 ], [ 281703.07, 4155352.83 ], [ 281702.98, 4155352.78 ], [ 281700.79, 4155351.63 ], [ 281697.29, 4155351.63 ], [ 281694.45, 4155353.68 ], [ 281692.96, 4155358.13 ], [ 281692.15, 4155359.23 ], [ 281692.77, 4155359.68 ], [ 281693.3, 4155362.66 ], [ 281699.38, 4155366.8 ], [ 281699.36, 4155366.75 ], [ 281699.31, 4155366.58 ], [ 281699.27, 4155366.41 ], [ 281699.25, 4155366.24 ], [ 281699.24, 4155366.06 ], [ 281699.26, 4155365.88 ], [ 281699.29, 4155365.71 ], [ 281699.34, 4155365.54 ], [ 281700.12, 4155363.18 ], [ 281700.92, 4155360.62 ], [ 281700.99, 4155360.43 ], [ 281701.08, 4155360.24 ], [ 281701.2, 4155360.07 ], [ 281703.55, 4155356.93 ], [ 281703.56, 4155356.92 ], [ 281705.15, 4155354.84 ], [ 281705.26, 4155354.71 ], [ 281705.39, 4155354.58 ], [ 281705.53, 4155354.47 ], [ 281705.68, 4155354.38 ], [ 281707.94, 4155353.08 ], [ 281706.67, 4155351.63 ], [ 281704.72, 4155351.63 ], [ 281704.33, 4155352.37 ], [ 281704.28, 4155352.45 ], [ 281704.22, 4155352.53 ], [ 281704.16, 4155352.6 ], [ 281704.09, 4155352.67 ], [ 281704.01, 4155352.73 ], [ 281703.92, 4155352.78 ], [ 281703.83, 4155352.82 ], [ 281703.74, 4155352.86 ], [ 281703.65, 4155352.88 ] ] ], [ [ [ 281750.0, 4155294.69 ], [ 281750.0, 4155293.77 ], [ 281749.68, 4155294.54 ], [ 281750.0, 4155294.69 ] ] ], [ [ [ 281750.0, 4155301.49 ], [ 281750.0, 4155299.62 ], [ 281749.41, 4155300.91 ], [ 281750.0, 4155301.49 ] ] ], [ [ [ 281745.94, 4155349.19 ], [ 281744.13, 4155351.47 ], [ 281744.13, 4155351.54 ], [ 281744.13, 4155351.64 ], [ 281744.13, 4155351.73 ], [ 281744.11, 4155351.83 ], [ 281744.08, 4155351.93 ], [ 281744.05, 4155352.02 ], [ 281744.0, 4155352.1 ], [ 281743.95, 4155352.19 ], [ 281743.06, 4155353.42 ], [ 281743.74, 4155353.91 ], [ 281743.82, 4155353.98 ], [ 281743.89, 4155354.05 ], [ 281743.96, 4155354.12 ], [ 281744.01, 4155354.21 ], [ 281744.06, 4155354.29 ], [ 281744.1, 4155354.39 ], [ 281744.13, 4155354.48 ], [ 281744.15, 4155354.58 ], [ 281744.15, 4155354.68 ], [ 281744.15, 4155354.78 ], [ 281744.14, 4155354.88 ], [ 281744.12, 4155354.98 ], [ 281744.09, 4155355.07 ], [ 281744.05, 4155355.17 ], [ 281744.0, 4155355.25 ], [ 281742.41, 4155357.79 ], [ 281742.79, 4155358.05 ], [ 281742.86, 4155358.11 ], [ 281742.93, 4155358.18 ], [ 281743.0, 4155358.26 ], [ 281743.05, 4155358.34 ], [ 281743.1, 4155358.42 ], [ 281743.14, 4155358.51 ], [ 281743.17, 4155358.61 ], [ 281743.19, 4155358.7 ], [ 281743.2, 4155358.8 ], [ 281743.2, 4155358.9 ], [ 281743.19, 4155359.0 ], [ 281743.18, 4155359.09 ], [ 281743.15, 4155359.19 ], [ 281743.11, 4155359.28 ], [ 281743.07, 4155359.37 ], [ 281743.01, 4155359.45 ], [ 281741.73, 4155361.24 ], [ 281740.94, 4155368.34 ], [ 281741.0, 4155368.42 ], [ 281741.06, 4155368.5 ], [ 281741.1, 4155368.59 ], [ 281741.14, 4155368.68 ], [ 281741.17, 4155368.77 ], [ 281741.19, 4155368.87 ], [ 281741.2, 4155368.97 ], [ 281741.19, 4155369.06 ], [ 281741.18, 4155369.16 ], [ 281741.17, 4155369.26 ], [ 281741.14, 4155369.35 ], [ 281741.1, 4155369.44 ], [ 281741.05, 4155369.53 ], [ 281741.0, 4155369.61 ], [ 281740.76, 4155369.92 ], [ 281740.43, 4155372.97 ], [ 281740.05, 4155373.8 ], [ 281738.3, 4155375.7 ], [ 281737.51, 4155376.15 ], [ 281735.84, 4155376.48 ], [ 281735.81, 4155376.53 ], [ 281735.76, 4155376.61 ], [ 281733.68, 4155379.41 ], [ 281733.61, 4155379.48 ], [ 281733.54, 4155379.55 ], [ 281733.47, 4155379.62 ], [ 281733.39, 4155379.67 ], [ 281733.3, 4155379.72 ], [ 281733.21, 4155379.75 ], [ 281733.11, 4155379.78 ], [ 281733.02, 4155379.8 ], [ 281732.92, 4155379.81 ], [ 281732.82, 4155379.81 ], [ 281732.72, 4155379.8 ], [ 281732.63, 4155379.78 ], [ 281732.53, 4155379.75 ], [ 281732.44, 4155379.71 ], [ 281732.36, 4155379.67 ], [ 281732.28, 4155379.61 ], [ 281729.51, 4155377.55 ], [ 281728.68, 4155377.32 ], [ 281726.6, 4155375.38 ], [ 281724.97, 4155374.16 ], [ 281724.89, 4155374.1 ], [ 281724.82, 4155374.03 ], [ 281724.76, 4155373.95 ], [ 281724.71, 4155373.87 ], [ 281724.66, 4155373.78 ], [ 281724.62, 4155373.69 ], [ 281724.59, 4155373.6 ], [ 281724.58, 4155373.5 ], [ 281724.57, 4155373.4 ], [ 281724.57, 4155373.3 ], [ 281724.58, 4155373.21 ], [ 281724.6, 4155373.11 ], [ 281724.63, 4155373.02 ], [ 281724.67, 4155372.92 ], [ 281724.71, 4155372.84 ], [ 281726.15, 4155370.51 ], [ 281726.49, 4155367.78 ], [ 281726.49, 4155367.77 ], [ 281726.48, 4155367.67 ], [ 281726.48, 4155367.58 ], [ 281726.49, 4155367.48 ], [ 281726.51, 4155367.38 ], [ 281726.53, 4155367.29 ], [ 281726.55, 4155367.24 ], [ 281727.64, 4155358.59 ], [ 281724.71, 4155356.52 ], [ 281724.23, 4155357.35 ], [ 281724.02, 4155358.39 ], [ 281724.03, 4155360.7 ], [ 281724.29, 4155363.62 ], [ 281724.3, 4155363.82 ], [ 281724.29, 4155364.01 ], [ 281723.96, 4155366.51 ], [ 281723.92, 4155366.73 ], [ 281723.2, 4155369.5 ], [ 281723.14, 4155369.67 ], [ 281723.08, 4155369.83 ], [ 281722.99, 4155369.98 ], [ 281721.87, 4155371.84 ], [ 281721.77, 4155371.99 ], [ 281721.65, 4155372.13 ], [ 281719.72, 4155374.22 ], [ 281719.55, 4155374.38 ], [ 281718.01, 4155375.66 ], [ 281717.88, 4155375.76 ], [ 281717.75, 4155375.84 ], [ 281717.61, 4155375.92 ], [ 281717.46, 4155375.98 ], [ 281716.02, 4155376.48 ], [ 281715.81, 4155376.54 ], [ 281714.5, 4155376.83 ], [ 281714.33, 4155376.86 ], [ 281712.96, 4155377.03 ], [ 281712.82, 4155377.04 ], [ 281712.69, 4155377.04 ], [ 281710.18, 4155376.97 ], [ 281710.02, 4155376.96 ], [ 281709.86, 4155376.94 ], [ 281707.95, 4155376.53 ], [ 281707.79, 4155376.49 ], [ 281707.64, 4155376.44 ], [ 281707.5, 4155376.37 ], [ 281707.4, 4155376.32 ], [ 281706.01, 4155378.6 ], [ 281704.47, 4155382.52 ], [ 281703.64, 4155386.11 ], [ 281703.37, 4155389.81 ], [ 281703.68, 4155394.53 ], [ 281704.65, 4155402.2 ], [ 281706.65, 4155412.17 ], [ 281714.5, 4155412.21 ], [ 281718.79, 4155411.63 ], [ 281710.73, 4155411.63 ], [ 281709.71, 4155411.2 ], [ 281709.51, 4155411.0 ], [ 281708.03, 4155411.25 ], [ 281707.93, 4155411.26 ], [ 281707.83, 4155411.26 ], [ 281707.73, 4155411.25 ], [ 281707.64, 4155411.24 ], [ 281707.54, 4155411.21 ], [ 281707.45, 4155411.17 ], [ 281707.37, 4155411.13 ], [ 281707.28, 4155411.07 ], [ 281707.21, 4155411.01 ], [ 281707.13, 4155410.95 ], [ 281707.07, 4155410.87 ], [ 281707.02, 4155410.79 ], [ 281706.97, 4155410.7 ], [ 281706.93, 4155410.61 ], [ 281706.9, 4155410.52 ], [ 281706.88, 4155410.43 ], [ 281706.06, 4155405.51 ], [ 281706.05, 4155405.41 ], [ 281706.04, 4155405.31 ], [ 281706.05, 4155405.21 ], [ 281706.07, 4155405.12 ], [ 281706.1, 4155405.02 ], [ 281706.13, 4155404.93 ], [ 281706.18, 4155404.84 ], [ 281706.23, 4155404.76 ], [ 281706.29, 4155404.68 ], [ 281706.36, 4155404.61 ], [ 281706.43, 4155404.55 ], [ 281706.51, 4155404.49 ], [ 281706.6, 4155404.44 ], [ 281706.64, 4155404.43 ], [ 281706.61, 4155404.43 ], [ 281706.51, 4155404.43 ], [ 281706.41, 4155404.42 ], [ 281706.32, 4155404.4 ], [ 281706.22, 4155404.37 ], [ 281706.13, 4155404.34 ], [ 281706.05, 4155404.29 ], [ 281705.97, 4155404.24 ], [ 281705.89, 4155404.17 ], [ 281705.82, 4155404.1 ], [ 281705.76, 4155404.03 ], [ 281705.7, 4155403.95 ], [ 281705.66, 4155403.86 ], [ 281705.62, 4155403.77 ], [ 281705.59, 4155403.68 ], [ 281705.57, 4155403.58 ], [ 281704.52, 4155396.46 ], [ 281704.51, 4155396.36 ], [ 281704.51, 4155396.26 ], [ 281704.52, 4155396.16 ], [ 281704.54, 4155396.07 ], [ 281704.57, 4155395.97 ], [ 281704.6, 4155395.88 ], [ 281704.65, 4155395.79 ], [ 281704.7, 4155395.71 ], [ 281704.77, 4155395.64 ], [ 281704.84, 4155395.57 ], [ 281704.91, 4155395.5 ], [ 281704.99, 4155395.45 ], [ 281705.08, 4155395.4 ], [ 281705.17, 4155395.37 ], [ 281705.27, 4155395.34 ], [ 281705.36, 4155395.32 ], [ 281709.79, 4155394.67 ], [ 281709.89, 4155394.66 ], [ 281709.99, 4155394.66 ], [ 281710.09, 4155394.67 ], [ 281710.18, 4155394.69 ], [ 281707.88, 4155391.62 ], [ 281707.65, 4155391.2 ], [ 281707.21, 4155389.86 ], [ 281707.13, 4155389.38 ], [ 281707.13, 4155385.22 ], [ 281707.55, 4155384.2 ], [ 281708.67, 4155383.09 ], [ 281708.6, 4155382.39 ], [ 281708.6, 4155382.3 ], [ 281708.6, 4155382.2 ], [ 281708.62, 4155382.1 ], [ 281708.64, 4155382.01 ], [ 281708.67, 4155381.91 ], [ 281708.72, 4155381.83 ], [ 281708.77, 4155381.74 ], [ 281708.82, 4155381.66 ], [ 281708.89, 4155381.59 ], [ 281708.96, 4155381.52 ], [ 281709.04, 4155381.47 ], [ 281709.13, 4155381.42 ], [ 281709.22, 4155381.37 ], [ 281709.31, 4155381.34 ], [ 281709.4, 4155381.32 ], [ 281709.5, 4155381.3 ], [ 281711.64, 4155381.1 ], [ 281711.61, 4155380.8 ], [ 281711.61, 4155380.71 ], [ 281711.61, 4155380.61 ], [ 281711.63, 4155380.51 ], [ 281711.65, 4155380.42 ], [ 281711.68, 4155380.32 ], [ 281711.73, 4155380.24 ], [ 281711.78, 4155380.15 ], [ 281711.84, 4155380.07 ], [ 281711.9, 4155380.0 ], [ 281711.97, 4155379.93 ], [ 281712.05, 4155379.88 ], [ 281712.14, 4155379.83 ], [ 281712.23, 4155379.78 ], [ 281712.32, 4155379.75 ], [ 281712.41, 4155379.73 ], [ 281712.51, 4155379.71 ], [ 281715.86, 4155379.39 ], [ 281715.96, 4155379.39 ], [ 281716.06, 4155379.39 ], [ 281716.16, 4155379.41 ], [ 281716.25, 4155379.43 ], [ 281716.34, 4155379.46 ], [ 281716.43, 4155379.51 ], [ 281716.51, 4155379.56 ], [ 281716.59, 4155379.61 ], [ 281716.67, 4155379.68 ], [ 281716.73, 4155379.75 ], [ 281716.79, 4155379.83 ], [ 281716.84, 4155379.91 ], [ 281716.88, 4155380.0 ], [ 281716.92, 4155380.09 ], [ 281716.92, 4155380.11 ], [ 281722.16, 4155379.59 ], [ 281722.26, 4155379.59 ], [ 281722.36, 4155379.59 ], [ 281722.46, 4155379.61 ], [ 281722.55, 4155379.63 ], [ 281722.65, 4155379.67 ], [ 281722.73, 4155379.71 ], [ 281722.82, 4155379.76 ], [ 281722.9, 4155379.82 ], [ 281722.97, 4155379.88 ], [ 281723.04, 4155379.96 ], [ 281723.09, 4155380.03 ], [ 281723.14, 4155380.12 ], [ 281723.19, 4155380.21 ], [ 281723.22, 4155380.3 ], [ 281723.24, 4155380.4 ], [ 281723.26, 4155380.49 ], [ 281723.5, 4155382.99 ], [ 281724.71, 4155384.2 ], [ 281725.13, 4155385.22 ], [ 281725.13, 4155394.35 ], [ 281724.91, 4155395.13 ], [ 281723.69, 4155397.1 ], [ 281723.1, 4155397.64 ], [ 281721.81, 4155398.28 ], [ 281720.47, 4155402.31 ], [ 281722.61, 4155406.59 ], [ 281722.55, 4155407.95 ], [ 281720.69, 4155410.96 ], [ 281719.72, 4155411.5 ], [ 281725.28, 4155410.75 ], [ 281727.57, 4155410.25 ], [ 281729.15, 4155409.74 ], [ 281730.21, 4155409.24 ], [ 281731.73, 4155407.93 ], [ 281735.39, 4155404.16 ], [ 281743.88, 4155394.37 ], [ 281743.9, 4155394.36 ], [ 281750.0, 4155387.41 ], [ 281750.0, 4155350.3 ], [ 281749.42, 4155349.88 ], [ 281745.94, 4155349.19 ] ] ] ] } }
]
}
