{
"type": "FeatureCollection",
"name": "roads",
"crs": { "type": "name", "properties": { "name": "urn:ogc:def:crs:EPSG::32618" } },
"xy_coordinate_resolution": 0.01,
"features": [
{ "type": "Feature", "properties": { "id": "osm:way/6040301", "name": "South 2nd Street", "highway": "tertiary", "lanes": 2.0, "width": 8.0, "oneway": false, "surface": "asphalt", "footway": null, "sidewalk_left": null, "sidewalk_right": null, "generated_sidewalk": true, "bus_lanes": null, "bus_lane_side": null, "bus_only": false, "sidewalk": false, "bridge": false, "ramp": false, "tunnel": false, "layer": 0, "deck": null }, "geometry": { "type": "LineString", "coordinates": [ [ 283763.32, 4157250.0 ], [ 283770.69, 4157259.35 ], [ 283805.11, 4157303.2 ], [ 283851.7, 4157362.06 ] ] } },
{ "type": "Feature", "properties": { "id": "osm:way/1125543255", "name": null, "highway": "footway", "lanes": null, "width": 2.0, "oneway": false, "surface": "concrete", "footway": "sidewalk", "sidewalk_left": false, "sidewalk_right": false, "generated_sidewalk": false, "bus_lanes": null, "bus_lane_side": null, "bus_only": false, "sidewalk": false, "bridge": false, "ramp": false, "tunnel": false, "layer": 0, "deck": null }, "geometry": { "type": "LineString", "coordinates": [ [ 283752.7, 4157250.0 ], [ 283790.91, 4157298.02 ], [ 283790.83, 4157302.12 ], [ 283799.07, 4157311.58 ], [ 283801.85, 4157314.85 ], [ 283804.82, 4157319.6 ], [ 283806.94, 4157325.5 ], [ 283808.85, 4157328.17 ], [ 283833.56, 4157359.41 ] ] } },
{ "type": "Feature", "properties": { "id": "osm:way/6038520", "name": "Rowe Street", "highway": "residential", "lanes": null, "width": 7.0, "oneway": false, "surface": null, "footway": null, "sidewalk_left": null, "sidewalk_right": null, "generated_sidewalk": true, "bus_lanes": null, "bus_lane_side": null, "bus_only": false, "sidewalk": false, "bridge": false, "ramp": false, "tunnel": false, "layer": 0, "deck": null }, "geometry": { "type": "LineString", "coordinates": [ [ 283761.07, 4157296.61 ], [ 283750.0, 4157297.12 ] ] } },
{ "type": "Feature", "properties": { "id": "osm:way/822396323", "name": null, "highway": "service", "lanes": null, "width": 4.5, "oneway": false, "surface": null, "footway": null, "sidewalk_left": false, "sidewalk_right": false, "generated_sidewalk": false, "bus_lanes": null, "bus_lane_side": null, "bus_only": false, "sidewalk": false, "bridge": false, "ramp": false, "tunnel": false, "layer": 0, "deck": null }, "geometry": { "type": "LineString", "coordinates": [ [ 283761.73, 4157322.15 ], [ 283778.01, 4157321.39 ], [ 283777.58, 4157298.41 ], [ 283766.95, 4157284.93 ], [ 283750.0, 4157285.3 ] ] } },
{ "type": "Feature", "properties": { "id": "osm:way/822396325", "name": null, "highway": "service", "lanes": null, "width": 4.5, "oneway": false, "surface": "asphalt", "footway": null, "sidewalk_left": false, "sidewalk_right": false, "generated_sidewalk": false, "bus_lanes": null, "bus_lane_side": null, "bus_only": false, "sidewalk": false, "bridge": false, "ramp": false, "tunnel": false, "layer": 0, "deck": null }, "geometry": { "type": "LineString", "coordinates": [ [ 283805.11, 4157303.2 ], [ 283799.07, 4157311.58 ], [ 283793.74, 4157318.96 ], [ 283786.34, 4157320.65 ] ] } },
{ "type": "Feature", "properties": { "id": "osm:way/1193884329", "name": null, "highway": "footway", "lanes": null, "width": 2.0, "oneway": false, "surface": "asphalt", "footway": "crossing", "sidewalk_left": false, "sidewalk_right": false, "generated_sidewalk": false, "bus_lanes": null, "bus_lane_side": null, "bus_only": false, "sidewalk": false, "bridge": false, "ramp": false, "tunnel": false, "layer": 0, "deck": null }, "geometry": { "type": "LineString", "coordinates": [ [ 283848.47, 4157377.11 ], [ 283847.52, 4157374.57 ], [ 283842.89, 4157368.65 ], [ 283838.57, 4157363.13 ], [ 283835.79, 4157362.23 ] ] } },
{ "type": "Feature", "properties": { "id": "osm:way/6037192", "name": "South 1st Street", "highway": "residential", "lanes": null, "width": 7.0, "oneway": false, "surface": null, "footway": null, "sidewalk_left": null, "sidewalk_right": null, "generated_sidewalk": true, "bus_lanes": null, "bus_lane_side": null, "bus_only": false, "sidewalk": false, "bridge": false, "ramp": false, "tunnel": false, "layer": 0, "deck": null }, "geometry": { "type": "LineString", "coordinates": [ [ 283790.09, 4157446.36 ], [ 283784.53, 4157439.17 ], [ 283767.1, 4157417.14 ], [ 283762.49, 4157367.02 ], [ 283762.08, 4157335.28 ], [ 283761.73, 4157322.15 ], [ 283761.07, 4157296.61 ] ] } },
{ "type": "Feature", "properties": { "id": "osm:way/1193874646", "name": null, "highway": "footway", "lanes": null, "width": 2.0, "oneway": false, "surface": "paving_stones", "footway": "sidewalk", "sidewalk_left": false, "sidewalk_right": false, "generated_sidewalk": false, "bus_lanes": null, "bus_lane_side": null, "bus_only": false, "sidewalk": false, "bridge": false, "ramp": false, "tunnel": false, "layer": 0, "deck": null }, "geometry": { "type": "LineString", "coordinates": [ [ 283833.56, 4157359.41 ], [ 283835.79, 4157362.23 ], [ 283824.94, 4157372.48 ], [ 283815.42, 4157383.51 ], [ 283809.26, 4157392.17 ], [ 283806.14, 4157397.16 ], [ 283798.36, 4157411.89 ], [ 283787.08, 4157435.21 ] ] } },
{ "type": "Feature", "properties": { "id": "osm:way/6034929", "name": "Abingdon Street", "highway": "service", "lanes": null, "width": 4.5, "oneway": false, "surface": null, "footway": null, "sidewalk_left": false, "sidewalk_right": false, "generated_sidewalk": false, "bus_lanes": null, "bus_lane_side": null, "bus_only": false, "sidewalk": false, "bridge": false, "ramp": false, "tunnel": false, "layer": 0, "deck": null }, "geometry": { "type": "LineString", "coordinates": [ [ 283767.1, 4157417.14 ], [ 283750.0, 4157417.59 ] ] } },
{ "type": "Feature", "properties": { "id": "osm:way/265141472", "name": "Spring Street", "highway": "residential", "lanes": 2.0, "width": 7.0, "oneway": false, "surface": "asphalt", "footway": null, "sidewalk_left": null, "sidewalk_right": null, "generated_sidewalk": true, "bus_lanes": null, "bus_lane_side": null, "bus_only": false, "sidewalk": false, "bridge": false, "ramp": false, "tunnel": false, "layer": 0, "deck": null }, "geometry": { "type": "LineString", "coordinates": [ [ 283750.0, 4157484.05 ], [ 283758.23, 4157479.22 ], [ 283764.76, 4157474.58 ], [ 283778.84, 4157460.63 ], [ 283790.09, 4157446.36 ], [ 283813.68, 4157399.56 ], [ 283825.43, 4157384.34 ], [ 283840.06, 4157370.76 ], [ 283842.89, 4157368.65 ], [ 283851.7, 4157362.06 ] ] } },
{ "type": "Feature", "properties": { "id": "osm:way/266754420", "name": null, "highway": "service", "lanes": null, "width": 4.5, "oneway": false, "surface": null, "footway": null, "sidewalk_left": false, "sidewalk_right": false, "generated_sidewalk": false, "bus_lanes": null, "bus_lane_side": null, "bus_only": false, "sidewalk": false, "bridge": false, "ramp": false, "tunnel": false, "layer": 0, "deck": null }, "geometry": { "type": "LineString", "coordinates": [ [ 283949.41, 4157283.54 ], [ 283948.8, 4157280.62 ], [ 283948.29, 4157271.14 ], [ 283947.2, 4157261.13 ], [ 283945.65, 4157253.85 ], [ 283944.31, 4157250.0 ] ] } },
{ "type": "Feature", "properties": { "id": "osm:way/266754419", "name": null, "highway": "service", "lanes": null, "width": 4.5, "oneway": false, "surface": null, "footway": null, "sidewalk_left": false, "sidewalk_right": false, "generated_sidewalk": false, "bus_lanes": null, "bus_lane_side": null, "bus_only": false, "sidewalk": false, "bridge": false, "ramp": false, "tunnel": false, "layer": 0, "deck": null }, "geometry": { "type": "MultiLineString", "coordinates": [ [ [ 283933.2, 4157327.14 ], [ 283933.8, 4157321.71 ], [ 283940.27, 4157308.79 ], [ 283945.92, 4157295.35 ], [ 283948.66, 4157285.51 ], [ 283949.41, 4157283.54 ], [ 283952.31, 4157277.69 ], [ 283961.53, 4157267.27 ], [ 283971.16, 4157257.05 ], [ 283977.07, 4157252.41 ], [ 283981.6, 4157250.24 ], [ 283983.27, 4157250.0 ] ], [ [ 283984.59, 4157250.0 ], [ 283986.17, 4157250.62 ], [ 283988.07, 4157252.94 ] ] ] } },
{ "type": "Feature", "properties": { "id": "osm:way/76167341", "name": null, "highway": "footway", "lanes": null, "width": 2.0, "oneway": false, "surface": "pebblestone", "footway": null, "sidewalk_left": false, "sidewalk_right": false, "generated_sidewalk": false, "bus_lanes": null, "bus_lane_side": null, "bus_only": false, "sidewalk": false, "bridge": false, "ramp": false, "tunnel": false, "layer": 0, "deck": null }, "geometry": { "type": "LineString", "coordinates": [ [ 283899.4, 4157405.51 ], [ 283900.75, 4157404.38 ], [ 283901.57, 4157396.73 ], [ 283897.69, 4157384.11 ], [ 283895.68, 4157368.22 ], [ 283895.41, 4157358.84 ], [ 283897.84, 4157340.82 ], [ 283907.78, 4157300.09 ], [ 283914.08, 4157280.6 ], [ 283917.13, 4157262.63 ], [ 283918.39, 4157250.0 ] ] } },
{ "type": "Feature", "properties": { "id": "osm:way/266754414", "name": null, "highway": "service", "lanes": null, "width": 4.5, "oneway": false, "surface": null, "footway": null, "sidewalk_left": false, "sidewalk_right": false, "generated_sidewalk": false, "bus_lanes": null, "bus_lane_side": null, "bus_only": false, "sidewalk": false, "bridge": false, "ramp": false, "tunnel": false, "layer": 0, "deck": null }, "geometry": { "type": "LineString", "coordinates": [ [ 283937.64, 4157250.0 ], [ 283936.62, 4157257.61 ], [ 283929.87, 4157284.1 ], [ 283923.15, 4157303.6 ], [ 283916.88, 4157318.14 ], [ 283912.58, 4157331.12 ], [ 283908.73, 4157352.5 ], [ 283906.1, 4157371.27 ], [ 283904.25, 4157384.51 ], [ 283901.57, 4157396.73 ], [ 283905.48, 4157407.98 ], [ 283910.66, 4157414.3 ] ] } },
{ "type": "Feature", "properties": { "id": "osm:way/266754410", "name": null, "highway": "service", "lanes": null, "width": 4.5, "oneway": false, "surface": null, "footway": null, "sidewalk_left": false, "sidewalk_right": false, "generated_sidewalk": false, "bus_lanes": null, "bus_lane_side": null, "bus_only": false, "sidewalk": false, "bridge": false, "ramp": false, "tunnel": false, "layer": 0, "deck": null }, "geometry": { "type": "LineString", "coordinates": [ [ 283987.61, 4157368.54 ], [ 283984.02, 4157365.54 ], [ 283981.68, 4157363.14 ], [ 283979.43, 4157359.41 ], [ 283978.01, 4157357.07 ], [ 283973.55, 4157351.83 ], [ 283968.91, 4157348.47 ], [ 283964.74, 4157346.72 ], [ 283960.39, 4157346.01 ], [ 283956.3, 4157347.56 ], [ 283953.91, 4157350.91 ], [ 283951.97, 4157355.89 ], [ 283949.13, 4157365.84 ], [ 283947.77, 4157377.18 ], [ 283947.12, 4157383.78 ], [ 283946.07, 4157390.79 ], [ 283944.71, 4157394.33 ], [ 283942.89, 4157395.82 ], [ 283940.84, 4157396.28 ], [ 283939.16, 4157395.29 ], [ 283936.37, 4157391.26 ], [ 283935.25, 4157387.59 ], [ 283934.86, 4157372.58 ], [ 283936.33, 4157341.91 ], [ 283937.81, 4157335.3 ], [ 283940.27, 4157326.59 ], [ 283942.22, 4157322.43 ], [ 283945.82, 4157317.81 ], [ 283953.44, 4157309.18 ], [ 283962.9, 4157299.9 ], [ 283967.26, 4157292.58 ], [ 283970.31, 4157283.05 ], [ 283975.35, 4157270.37 ], [ 283979.88, 4157261.82 ], [ 283985.27, 4157255.11 ], [ 283988.07, 4157252.94 ], [ 283991.88, 4157250.0 ] ] } },
{ "type": "Feature", "properties": { "id": "osm:way/1125543253", "name": null, "highway": "footway", "lanes": null, "width": 2.0, "oneway": false, "surface": "concrete", "footway": "sidewalk", "sidewalk_left": false, "sidewalk_right": false, "generated_sidewalk": false, "bus_lanes": null, "bus_lane_side": null, "bus_only": false, "sidewalk": false, "bridge": false, "ramp": false, "tunnel": false, "layer": 0, "deck": null }, "geometry": { "type": "MultiLineString", "coordinates": [ [ [ 284000.0, 4157494.95 ], [ 283993.57, 4157500.0 ] ], [ [ 283972.48, 4157500.0 ], [ 283914.8, 4157427.27 ], [ 283908.68, 4157419.58 ], [ 283906.78, 4157417.2 ], [ 283905.38, 4157412.97 ], [ 283899.4, 4157405.51 ], [ 283796.65, 4157278.17 ], [ 283794.39, 4157277.24 ], [ 283793.13, 4157276.3 ], [ 283772.97, 4157250.0 ] ] ] } },
{ "type": "Feature", "properties": { "id": "osm:way/1442275032", "name": "South 2nd Street", "highway": "tertiary", "lanes": 3.0, "width": 9.9, "oneway": false, "surface": "asphalt", "footway": null, "sidewalk_left": false, "sidewalk_right": null, "generated_sidewalk": true, "bus_lanes": null, "bus_lane_side": null, "bus_only": false, "sidewalk": false, "bridge": false, "ramp": false, "tunnel": false, "layer": 0, "deck": null }, "geometry": { "type": "LineString", "coordinates": [ [ 283851.7, 4157362.06 ], [ 283867.67, 4157381.92 ] ] } },
{ "type": "Feature", "properties": { "id": "osm:way/266754416", "name": null, "highway": "service", "lanes": null, "width": 4.5, "oneway": false, "surface": null, "footway": null, "sidewalk_left": false, "sidewalk_right": false, "generated_sidewalk": false, "bus_lanes": null, "bus_lane_side": null, "bus_only": false, "sidewalk": false, "bridge": false, "ramp": false, "tunnel": false, "layer": 0, "deck": null }, "geometry": { "type": "LineString", "coordinates": [ [ 283902.11, 4157424.76 ], [ 283908.68, 4157419.58 ], [ 283910.66, 4157414.3 ], [ 283912.67, 4157408.94 ], [ 283914.46, 4157403.15 ], [ 283916.35, 4157393.75 ], [ 283927.37, 4157339.05 ], [ 283929.24, 4157331.4 ], [ 283932.85, 4157327.2 ], [ 283933.2, 4157327.14 ], [ 283937.17, 4157326.46 ], [ 283940.27, 4157326.59 ] ] } },
{ "type": "Feature", "properties": { "id": "osm:way/266754403", "name": null, "highway": "service", "lanes": null, "width": 4.5, "oneway": true, "surface": "asphalt", "footway": null, "sidewalk_left": false, "sidewalk_right": false, "generated_sidewalk": false, "bus_lanes": null, "bus_lane_side": null, "bus_only": false, "sidewalk": false, "bridge": false, "ramp": false, "tunnel": false, "layer": 0, "deck": null }, "geometry": { "type": "LineString", "coordinates": [ [ 284000.0, 4157387.78 ], [ 283992.84, 4157378.88 ], [ 283987.28, 4157371.83 ], [ 283987.61, 4157368.54 ], [ 283989.39, 4157365.82 ], [ 284000.0, 4157357.33 ] ] } },
{ "type": "Feature", "properties": { "id": "osm:way/1023481487", "name": null, "highway": "footway", "lanes": null, "width": 2.0, "oneway": false, "surface": null, "footway": null, "sidewalk_left": false, "sidewalk_right": false, "generated_sidewalk": false, "bus_lanes": null, "bus_lane_side": null, "bus_only": false, "sidewalk": false, "bridge": false, "ramp": false, "tunnel": false, "layer": 0, "deck": null }, "geometry": { "type": "LineString", "coordinates": [ [ 283914.8, 4157427.27 ], [ 283930.8, 4157425.72 ], [ 283944.87, 4157414.81 ], [ 283943.57, 4157413.23 ], [ 283942.42, 4157410.21 ], [ 283941.11, 4157404.7 ], [ 283940.84, 4157396.28 ] ] } },
{ "type": "Feature", "properties": { "id": "osm:way/266754409", "name": null, "highway": "service", "lanes": null, "width": 4.5, "oneway": true, "surface": null, "footway": null, "sidewalk_left": false, "sidewalk_right": false, "generated_sidewalk": false, "bus_lanes": null, "bus_lane_side": null, "bus_only": false, "sidewalk": false, "bridge": false, "ramp": false, "tunnel": false, "layer": 0, "deck": null }, "geometry": { "type": "LineString", "coordinates": [ [ 284000.0, 4157436.12 ], [ 283992.05, 4157426.26 ], [ 284000.0, 4157420.49 ] ] } },
{ "type": "Feature", "properties": { "id": "osm:way/1193874647", "name": null, "highway": "footway", "lanes": null, "width": 2.0, "oneway": false, "surface": "concrete", "footway": "sidewalk", "sidewalk_left": false, "sidewalk_right": false, "generated_sidewalk": false, "bus_lanes": null, "bus_lane_side": null, "bus_only": false, "sidewalk": false, "bridge": false, "ramp": false, "tunnel": false, "layer": 0, "deck": null }, "geometry": { "type": "LineString", "coordinates": [ [ 283951.21, 4157500.0 ], [ 283853.97, 4157377.29 ] ] } },
{ "type": "Feature", "properties": { "id": "osm:way/374729209", "name": "South 2nd Street", "highway": "tertiary", "lanes": 2.0, "width": 8.0, "oneway": false, "surface": "asphalt", "footway": null, "sidewalk_left": null, "sidewalk_right": null, "generated_sidewalk": true, "bus_lanes": null, "bus_lane_side": null, "bus_only": false, "sidewalk": false, "bridge": false, "ramp": false, "tunnel": false, "layer": 0, "deck": null }, "geometry": { "type": "LineString", "coordinates": [ [ 283867.67, 4157381.92 ], [ 283899.28, 4157421.25 ], [ 283902.11, 4157424.76 ], [ 283907.24, 4157431.12 ], [ 283962.18, 4157500.0 ] ] } },
{ "type": "Feature", "properties": { "id": "osm:way/1125543256", "name": null, "highway": "footway", "lanes": null, "width": 2.0, "oneway": false, "surface": "asphalt", "footway": "crossing", "sidewalk_left": false, "sidewalk_right": false, "generated_sidewalk": false, "bus_lanes": null, "bus_lane_side": null, "bus_only": false, "sidewalk": false, "bridge": false, "ramp": false, "tunnel": false, "layer": 0, "deck": null }, "geometry": { "type": "LineString", "coordinates": [ [ 283781.31, 4157444.19 ], [ 283784.53, 4157439.17 ], [ 283787.08, 4157435.21 ] ] } },
{ "type": "Feature", "properties": { "id": "osm:way/268210779", "name": null, "highway": "service", "lanes": null, "width": 4.5, "oneway": false, "surface": "asphalt", "footway": null, "sidewalk_left": false, "sidewalk_right": false, "generated_sidewalk": false, "bus_lanes": null, "bus_lane_side": null, "bus_only": false, "sidewalk": false, "bridge": false, "ramp": false, "tunnel": false, "layer": 0, "deck": null }, "geometry": { "type": "LineString", "coordinates": [ [ 283750.0, 4157455.95 ], [ 283758.52, 4157467.05 ], [ 283764.76, 4157474.58 ] ] } },
{ "type": "Feature", "properties": { "id": "osm:way/775649161", "name": null, "highway": "footway", "lanes": null, "width": 2.0, "oneway": false, "surface": null, "footway": "sidewalk", "sidewalk_left": false, "sidewalk_right": false, "generated_sidewalk": false, "bus_lanes": null, "bus_lane_side": null, "bus_only": false, "sidewalk": false, "bridge": false, "ramp": false, "tunnel": false, "layer": 0, "deck": null }, "geometry": { "type": "LineString", "coordinates": [ [ 283750.0, 4157473.8 ], [ 283752.54, 4157471.97 ], [ 283758.52, 4157467.05 ], [ 283769.39, 4157458.01 ], [ 283773.15, 4157454.41 ], [ 283781.31, 4157444.19 ] ] } },
{ "type": "Feature", "properties": { "id": "osm:way/823675206", "name": null, "highway": "footway", "lanes": null, "width": 2.0, "oneway": false, "surface": null, "footway": "sidewalk", "sidewalk_left": false, "sidewalk_right": false, "generated_sidewalk": false, "bus_lanes": null, "bus_lane_side": null, "bus_only": false, "sidewalk": false, "bridge": false, "ramp": false, "tunnel": false, "layer": 0, "deck": null }, "geometry": { "type": "LineString", "coordinates": [ [ 283853.97, 4157377.29 ], [ 283851.65, 4157376.63 ], [ 283849.69, 4157376.56 ], [ 283848.47, 4157377.11 ], [ 283847.41, 4157377.58 ], [ 283841.7, 4157382.83 ], [ 283839.08, 4157385.19 ], [ 283832.24, 4157393.74 ], [ 283824.12, 4157404.63 ], [ 283816.31, 4157418.04 ], [ 283805.76, 4157438.7 ], [ 283798.55, 4157451.74 ], [ 283794.92, 4157457.29 ], [ 283789.5, 4157464.23 ], [ 283782.89, 4157472.28 ], [ 283772.66, 4157481.52 ], [ 283761.79, 4157489.69 ], [ 283750.74, 4157495.67 ], [ 283750.0, 4157499.0 ] ] } }
]
}
