{
"type": "FeatureCollection",
"name": "water",
"crs": { "type": "name", "properties": { "name": "urn:ogc:def:crs:EPSG::32618" } },
"xy_coordinate_resolution": 0.01,
"features": [
{ "type": "Feature", "properties": { "id": "osm:way/164267051", "name": "James River and Kanawha Canal", "kind": "canal", "water_z": 0.27, "source": null }, "geometry": { "type": "Polygon", "coordinates": [ [ [ 286100.5, 4155837.02 ], [ 286098.61, 4155842.12 ], [ 286073.13, 4155904.74 ], [ 286072.98, 4155908.11 ], [ 286075.43, 4155911.05 ], [ 286079.24, 4155911.4 ], [ 286082.18, 4155908.95 ], [ 286107.9, 4155845.81 ], [ 286114.57, 4155827.83 ], [ 286102.04, 4155835.96 ], [ 286100.5, 4155837.02 ] ] ] } },
{ "type": "Feature", "properties": { "id": "noaa:Rivers:4", "name": "James River", "kind": "river", "water_z": null, "source": "noaa2025" }, "geometry": { "type": "Polygon", "coordinates": [ [ [ 286026.49, 4155890.34 ], [ 286033.61, 4155884.35 ], [ 286044.92, 4155875.53 ], [ 286051.79, 4155870.04 ], [ 286053.44, 4155866.3 ], [ 286053.55, 4155865.97 ], [ 286054.89, 4155863.79 ], [ 286056.57, 4155861.42 ], [ 286057.59, 4155860.41 ], [ 286060.23, 4155858.41 ], [ 286066.28, 4155857.54 ], [ 286067.09, 4155857.57 ], [ 286067.52, 4155857.47 ], [ 286067.73, 4155857.4 ], [ 286068.94, 4155856.88 ], [ 286070.45, 4155856.1 ], [ 286071.07, 4155855.82 ], [ 286073.73, 4155854.39 ], [ 286075.19, 4155853.59 ], [ 286078.89, 4155852.19 ], [ 286079.65, 4155851.85 ], [ 286080.29, 4155851.55 ], [ 286082.37, 4155850.76 ], [ 286084.21, 4155849.92 ], [ 286085.31, 4155849.33 ], [ 286085.69, 4155849.15 ], [ 286086.1, 4155848.9 ], [ 286086.17, 4155848.83 ], [ 286090.78, 4155843.68 ], [ 286102.04, 4155835.96 ], [ 286115.92, 4155826.95 ], [ 286128.65, 4155819.0 ], [ 286132.61, 4155816.36 ], [ 286135.75, 4155813.84 ], [ 286136.98, 4155812.22 ], [ 286145.61, 4155797.14 ], [ 286152.43, 4155785.7 ], [ 286152.78, 4155785.27 ], [ 286153.5, 4155785.13 ], [ 286154.06, 4155785.26 ], [ 286156.06, 4155786.22 ], [ 286156.72, 4155786.41 ], [ 286157.21, 4155786.17 ], [ 286160.73, 4155783.4 ], [ 286160.93, 4155782.89 ], [ 286162.98, 4155779.26 ], [ 286163.12, 4155779.03 ], [ 286164.39, 4155777.19 ], [ 286165.39, 4155776.33 ], [ 286165.51, 4155775.99 ], [ 286165.94, 4155774.65 ], [ 286166.58, 4155773.3 ], [ 286167.46, 4155772.84 ], [ 286168.6, 4155771.92 ], [ 286169.17, 4155771.77 ], [ 286169.98, 4155771.55 ], [ 286170.86, 4155769.16 ], [ 286170.96, 4155768.97 ], [ 286171.53, 4155768.2 ], [ 286175.17, 4155763.44 ], [ 286175.42, 4155761.85 ], [ 286176.13, 4155761.03 ], [ 286176.36, 4155760.04 ], [ 286176.54, 4155759.26 ], [ 286177.21, 4155758.02 ], [ 286177.64, 4155757.53 ], [ 286178.35, 4155756.95 ], [ 286179.55, 4155756.03 ], [ 286181.01, 4155755.19 ], [ 286185.03, 4155750.5 ], [ 286185.41, 4155750.0 ], [ 286000.0, 4155750.0 ], [ 286000.0, 4155904.53 ], [ 286009.39, 4155898.64 ], [ 286026.49, 4155890.34 ] ] ] } },
{ "type": "Feature", "properties": { "id": "osm:way/113029214", "name": "James River and Kanawha Canal", "kind": "canal", "water_z": 5.56, "source": null }, "geometry": { "type": "Polygon", "coordinates": [ [ [ 286076.53, 4155901.78 ], [ 286073.46, 4155904.07 ], [ 286050.11, 4155953.82 ], [ 286052.52, 4155957.23 ], [ 286053.88, 4155957.81 ], [ 286058.99, 4155957.43 ], [ 286058.0, 4155959.08 ], [ 286057.15, 4155960.44 ], [ 286058.45, 4155959.47 ], [ 286082.28, 4155908.75 ], [ 286082.6, 4155905.4 ], [ 286080.31, 4155902.33 ], [ 286076.53, 4155901.78 ] ] ] } },
{ "type": "Feature", "properties": { "id": "osm:way/307765825", "name": "James River and Kanawha Canal", "kind": "canal", "water_z": 5.25, "source": null }, "geometry": { "type": "MultiPolygon", "coordinates": [ [ [ [ 286058.0, 4155959.08 ], [ 286056.96, 4155960.75 ], [ 286056.75, 4155961.16 ], [ 286056.44, 4155962.04 ], [ 286056.2, 4155963.01 ], [ 286056.03, 4155964.01 ], [ 286056.08, 4155964.37 ], [ 286058.66, 4155959.1 ], [ 286058.53, 4155958.19 ], [ 286058.0, 4155959.08 ] ] ], [ [ [ 286050.29, 4155954.07 ], [ 286052.52, 4155957.23 ], [ 286053.88, 4155957.81 ], [ 286058.43, 4155957.47 ], [ 286057.89, 4155953.59 ], [ 286053.96, 4155951.92 ], [ 286050.29, 4155954.07 ] ] ] ] } },
{ "type": "Feature", "properties": { "id": "osm:way/1025252915", "name": null, "kind": "canal", "water_z": 4.17, "source": null }, "geometry": { "type": "Polygon", "coordinates": [ [ [ 286018.73, 4155985.88 ], [ 286017.96, 4155983.16 ], [ 286000.0, 4155975.35 ], [ 286000.0, 4155979.7 ], [ 286016.37, 4155986.81 ], [ 286018.73, 4155985.88 ] ] ] } },
{ "type": "Feature", "properties": { "id": "osm:way/1025252916", "name": null, "kind": "canal", "water_z": 4.52, "source": null }, "geometry": { "type": "Polygon", "coordinates": [ [ [ 286023.48, 4155988.27 ], [ 286023.54, 4155988.16 ], [ 286023.48, 4155985.45 ], [ 286017.71, 4155983.05 ], [ 286015.29, 4155983.84 ], [ 286015.6, 4155986.35 ], [ 286023.48, 4155988.27 ] ] ] } },
{ "type": "Feature", "properties": { "id": "osm:relation/13728921", "name": "James River and Kanawha Canal", "kind": "canal", "water_z": 5.25, "source": null }, "geometry": { "type": "MultiPolygon", "coordinates": [ [ [ [ 286060.7, 4155978.88 ], [ 286060.58, 4155979.46 ], [ 286060.17, 4155980.59 ], [ 286057.82, 4155984.78 ], [ 286056.44, 4155987.52 ], [ 286051.32, 4155998.48 ], [ 286060.83, 4155979.9 ], [ 286060.71, 4155978.78 ], [ 286060.7, 4155978.88 ] ] ], [ [ [ 286050.46, 4156000.0 ], [ 286050.54, 4156000.0 ], [ 286051.32, 4155998.48 ], [ 286050.46, 4156000.0 ] ] ], [ [ [ 286056.61, 4155962.04 ], [ 286058.99, 4155957.43 ], [ 286058.0, 4155959.08 ], [ 286056.96, 4155960.75 ], [ 286056.75, 4155961.16 ], [ 286056.44, 4155962.04 ], [ 286056.2, 4155963.01 ], [ 286056.03, 4155964.01 ], [ 286056.1, 4155964.49 ], [ 286057.09, 4155966.82 ], [ 286058.25, 4155969.8 ], [ 286059.5, 4155973.47 ], [ 286060.43, 4155976.31 ], [ 286059.3, 4155966.35 ], [ 286056.32, 4155964.87 ], [ 286056.61, 4155962.04 ] ] ], [ [ [ 286089.01, 4155899.57 ], [ 286103.83, 4155880.76 ], [ 286112.92, 4155859.73 ], [ 286074.88, 4155870.83 ], [ 286078.69, 4155892.07 ], [ 286047.57, 4155956.72 ], [ 286045.72, 4155958.65 ], [ 286042.97, 4155958.74 ], [ 286032.76, 4155967.51 ], [ 286015.1, 4155999.97 ], [ 286015.03, 4156000.0 ], [ 286015.34, 4156000.0 ], [ 286015.69, 4155999.49 ], [ 286016.95, 4155997.11 ], [ 286017.01, 4155997.01 ], [ 286020.47, 4155993.55 ], [ 286026.57, 4155982.84 ], [ 286031.02, 4155971.52 ], [ 286031.17, 4155971.23 ], [ 286032.09, 4155969.68 ], [ 286032.6, 4155968.95 ], [ 286033.45, 4155967.89 ], [ 286034.46, 4155966.85 ], [ 286036.67, 4155965.01 ], [ 286038.65, 4155963.51 ], [ 286039.68, 4155962.83 ], [ 286041.29, 4155961.93 ], [ 286041.4, 4155961.89 ], [ 286044.2, 4155960.9 ], [ 286046.04, 4155959.97 ], [ 286046.82, 4155959.31 ], [ 286047.62, 4155958.2 ], [ 286049.03, 4155954.09 ], [ 286049.56, 4155953.04 ], [ 286052.52, 4155957.23 ], [ 286053.88, 4155957.81 ], [ 286058.99, 4155957.43 ], [ 286089.01, 4155899.57 ] ] ] ] } },
{ "type": "Feature", "properties": { "id": "noaa:Rivers:5", "name": "James River", "kind": "river", "water_z": null, "source": "noaa2025" }, "geometry": { "type": "Polygon", "coordinates": [ [ [ 286056.44, 4155987.52 ], [ 286057.82, 4155984.78 ], [ 286060.17, 4155980.59 ], [ 286060.58, 4155979.46 ], [ 286060.7, 4155978.88 ], [ 286060.76, 4155977.99 ], [ 286060.66, 4155977.12 ], [ 286060.55, 4155976.7 ], [ 286059.5, 4155973.47 ], [ 286058.25, 4155969.8 ], [ 286057.09, 4155966.82 ], [ 286056.1, 4155964.49 ], [ 286056.03, 4155964.01 ], [ 286056.2, 4155963.01 ], [ 286056.44, 4155962.04 ], [ 286056.75, 4155961.16 ], [ 286056.96, 4155960.75 ], [ 286058.0, 4155959.08 ], [ 286058.99, 4155957.43 ], [ 286053.88, 4155957.81 ], [ 286052.52, 4155957.23 ], [ 286049.56, 4155953.04 ], [ 286049.03, 4155954.09 ], [ 286047.62, 4155958.2 ], [ 286046.82, 4155959.31 ], [ 286046.04, 4155959.97 ], [ 286044.2, 4155960.9 ], [ 286041.4, 4155961.89 ], [ 286041.29, 4155961.93 ], [ 286039.68, 4155962.83 ], [ 286038.65, 4155963.51 ], [ 286036.67, 4155965.01 ], [ 286034.46, 4155966.85 ], [ 286033.45, 4155967.89 ], [ 286032.6, 4155968.95 ], [ 286032.09, 4155969.68 ], [ 286031.17, 4155971.23 ], [ 286031.02, 4155971.52 ], [ 286026.57, 4155982.84 ], [ 286020.47, 4155993.55 ], [ 286017.01, 4155997.01 ], [ 286016.95, 4155997.11 ], [ 286015.69, 4155999.49 ], [ 286015.34, 4156000.0 ], [ 286050.46, 4156000.0 ], [ 286051.32, 4155998.48 ], [ 286056.44, 4155987.52 ] ] ] } }
]
}
