{
"type": "FeatureCollection",
"name": "landuse",
"crs": { "type": "name", "properties": { "name": "urn:ogc:def:crs:EPSG::32618" } },
"xy_coordinate_resolution": 0.01,
"features": [
{ "type": "Feature", "properties": { "id": "richmond_structure:402166", "name": null, "kind": "deck", "sport": null, "surface": null, "pitch_layout": null, "source": "richmond_structures", "source_updated": "2026-09-08T12:07:13.637000Z", "base_z": null, "top_z": null }, "geometry": { "type": "Polygon", "coordinates": [ [ [ 286415.05, 4158044.53 ], [ 286410.02, 4158047.35 ], [ 286411.37, 4158049.76 ], [ 286414.33, 4158048.1 ], [ 286413.64, 4158046.87 ], [ 286415.71, 4158045.7 ], [ 286415.05, 4158044.53 ] ] ] } },
{ "type": "Feature", "properties": { "id": "richmond_structure:402167", "name": null, "kind": "deck", "sport": null, "surface": null, "pitch_layout": null, "source": "richmond_structures", "source_updated": "2026-09-08T12:07:13.637000Z", "base_z": null, "top_z": null }, "geometry": { "type": "Polygon", "coordinates": [ [ [ 286416.85, 4158058.31 ], [ 286419.84, 4158056.66 ], [ 286416.53, 4158050.65 ], [ 286413.54, 4158052.29 ], [ 286416.85, 4158058.31 ] ] ] } },
{ "type": "Feature", "properties": { "id": "imagery:groundcover_lawn:2206", "name": null, "kind": "groundcover_lawn", "sport": null, "surface": null, "pitch_layout": null, "source": "vgin_vbmp+naip+lidar2025", "source_updated": null, "base_z": null, "top_z": null }, "geometry": { "type": "Polygon", "coordinates": [ [ [ 286413.72, 4158051.3 ], [ 286413.82, 4158051.33 ], [ 286413.91, 4158051.36 ], [ 286414.0, 4158051.4 ], [ 286414.09, 4158051.45 ], [ 286414.17, 4158051.51 ], [ 286414.24, 4158051.57 ], [ 286414.31, 4158051.64 ], [ 286414.37, 4158051.72 ], [ 286414.42, 4158051.81 ], [ 286417.73, 4158057.82 ], [ 286417.77, 4158057.91 ], [ 286417.8, 4158058.0 ], [ 286417.83, 4158058.1 ], [ 286417.84, 4158058.2 ], [ 286417.85, 4158058.29 ], [ 286417.85, 4158058.34 ], [ 286418.24, 4158058.74 ], [ 286419.04, 4158058.29 ], [ 286419.13, 4158058.24 ], [ 286419.22, 4158058.21 ], [ 286419.32, 4158058.18 ], [ 286419.42, 4158058.16 ], [ 286419.51, 4158058.16 ], [ 286419.61, 4158058.16 ], [ 286419.71, 4158058.17 ], [ 286419.81, 4158058.2 ], [ 286419.9, 4158058.23 ], [ 286419.99, 4158058.27 ], [ 286420.08, 4158058.32 ], [ 286420.16, 4158058.38 ], [ 286420.23, 4158058.44 ], [ 286420.3, 4158058.51 ], [ 286420.36, 4158058.59 ], [ 286420.41, 4158058.68 ], [ 286421.04, 4158059.84 ], [ 286421.89, 4158060.04 ], [ 286427.42, 4158058.2 ], [ 286429.43, 4158055.84 ], [ 286431.77, 4158041.81 ], [ 286432.1, 4158041.1 ], [ 286433.58, 4158039.37 ], [ 286434.23, 4158038.93 ], [ 286436.5, 4158038.17 ], [ 286437.77, 4158038.36 ], [ 286440.54, 4158040.37 ], [ 286441.13, 4158041.51 ], [ 286441.13, 4158069.03 ], [ 286440.71, 4158070.05 ], [ 286438.55, 4158072.2 ], [ 286436.98, 4158072.85 ], [ 286437.09, 4158073.12 ], [ 286434.71, 4158075.13 ], [ 286432.71, 4158087.13 ], [ 286435.67, 4158090.63 ], [ 286447.13, 4158090.63 ], [ 286450.13, 4158087.63 ], [ 286450.13, 4158023.06 ], [ 286446.02, 4158020.27 ], [ 286436.42, 4158024.11 ], [ 286434.69, 4158025.95 ], [ 286432.85, 4158031.47 ], [ 286432.4, 4158032.13 ], [ 286430.62, 4158033.62 ], [ 286429.88, 4158033.95 ], [ 286414.17, 4158036.19 ], [ 286411.64, 4158039.65 ], [ 286413.58, 4158051.29 ], [ 286413.63, 4158051.29 ], [ 286413.72, 4158051.3 ] ] ] } },
{ "type": "Feature", "properties": { "id": "imagery:groundcover_paved:2194", "name": null, "kind": "groundcover_paved", "sport": null, "surface": null, "pitch_layout": null, "source": "vgin_vbmp+naip+lidar2025", "source_updated": null, "base_z": null, "top_z": null }, "geometry": { "type": "Polygon", "coordinates": [ [ [ 286436.57, 4158069.15 ], [ 286437.16, 4158068.61 ], [ 286439.47, 4158067.45 ], [ 286441.13, 4158064.77 ], [ 286441.13, 4158040.79 ], [ 286437.18, 4158037.94 ], [ 286433.84, 4158039.05 ], [ 286431.83, 4158041.41 ], [ 286429.64, 4158054.59 ], [ 286429.14, 4158055.46 ], [ 286427.0, 4158057.28 ], [ 286425.74, 4158057.74 ], [ 286425.09, 4158058.91 ], [ 286426.1, 4158060.76 ], [ 286428.3, 4158064.81 ], [ 286428.52, 4158065.25 ], [ 286428.69, 4158065.72 ], [ 286428.81, 4158066.2 ], [ 286428.87, 4158066.62 ], [ 286428.97, 4158066.79 ], [ 286431.33, 4158071.08 ], [ 286431.54, 4158071.53 ], [ 286431.72, 4158072.0 ], [ 286431.84, 4158072.48 ], [ 286431.91, 4158072.98 ], [ 286431.94, 4158073.48 ], [ 286431.92, 4158073.98 ], [ 286431.84, 4158074.47 ], [ 286431.72, 4158074.95 ], [ 286431.6, 4158075.28 ], [ 286431.86, 4158075.74 ], [ 286435.13, 4158074.38 ], [ 286435.13, 4158071.9 ], [ 286435.35, 4158071.12 ], [ 286436.57, 4158069.15 ] ] ] } },
{ "type": "Feature", "properties": { "id": "richmond_structure:402168", "name": null, "kind": "deck", "sport": null, "surface": null, "pitch_layout": null, "source": "richmond_structures", "source_updated": "2026-09-08T12:07:13.637000Z", "base_z": null, "top_z": null }, "geometry": { "type": "Polygon", "coordinates": [ [ [ 286380.6, 4158074.43 ], [ 286381.88, 4158073.61 ], [ 286377.7, 4158067.06 ], [ 286376.42, 4158067.88 ], [ 286380.6, 4158074.43 ] ] ] } },
{ "type": "Feature", "properties": { "id": "richmond_structure:403494", "name": null, "kind": "deck", "sport": null, "surface": null, "pitch_layout": null, "source": "richmond_structures", "source_updated": "2026-09-08T12:07:13.637000Z", "base_z": null, "top_z": null }, "geometry": { "type": "Polygon", "coordinates": [ [ [ 286376.69, 4158099.56 ], [ 286379.94, 4158097.69 ], [ 286381.37, 4158100.18 ], [ 286381.74, 4158099.97 ], [ 286378.56, 4158094.45 ], [ 286374.95, 4158096.53 ], [ 286376.69, 4158099.56 ] ] ] } },
{ "type": "Feature", "properties": { "id": "richmond_structure:403482", "name": null, "kind": "deck", "sport": null, "surface": null, "pitch_layout": null, "source": "richmond_structures", "source_updated": "2026-09-08T12:07:13.637000Z", "base_z": null, "top_z": null }, "geometry": { "type": "Polygon", "coordinates": [ [ [ 286375.68, 4158136.49 ], [ 286370.9, 4158139.53 ], [ 286372.31, 4158141.75 ], [ 286377.09, 4158138.72 ], [ 286375.68, 4158136.49 ] ] ] } },
{ "type": "Feature", "properties": { "id": "richmond_structure:404470", "name": null, "kind": "deck", "sport": null, "surface": null, "pitch_layout": null, "source": "richmond_structures", "source_updated": "2026-09-08T12:07:13.637000Z", "base_z": null, "top_z": null }, "geometry": { "type": "Polygon", "coordinates": [ [ [ 286399.17, 4158140.74 ], [ 286397.67, 4158141.51 ], [ 286398.48, 4158143.07 ], [ 286399.97, 4158142.3 ], [ 286399.17, 4158140.74 ] ] ] } },
{ "type": "Feature", "properties": { "id": "richmond_structure:402173", "name": null, "kind": "deck", "sport": null, "surface": null, "pitch_layout": null, "source": "richmond_structures", "source_updated": "2026-09-08T12:07:13.637000Z", "base_z": null, "top_z": null }, "geometry": { "type": "Polygon", "coordinates": [ [ [ 286407.91, 4158147.91 ], [ 286411.11, 4158146.07 ], [ 286407.89, 4158140.88 ], [ 286404.86, 4158142.63 ], [ 286407.91, 4158147.91 ] ] ] } },
{ "type": "Feature", "properties": { "id": "imagery:groundcover_lawn:2136", "name": null, "kind": "groundcover_lawn", "sport": null, "surface": null, "pitch_layout": null, "source": "vgin_vbmp+naip+lidar2025", "source_updated": null, "base_z": null, "top_z": null }, "geometry": { "type": "Polygon", "coordinates": [ [ [ 286430.98, 4158177.4 ], [ 286432.55, 4158178.05 ], [ 286433.58, 4158179.07 ], [ 286438.66, 4158177.45 ], [ 286440.38, 4158167.14 ], [ 286436.69, 4158163.74 ], [ 286431.4, 4158165.06 ], [ 286429.13, 4158167.97 ], [ 286429.13, 4158174.63 ], [ 286430.98, 4158177.4 ] ] ] } },
{ "type": "Feature", "properties": { "id": "imagery:groundcover_bare:2221", "name": null, "kind": "groundcover_bare", "sport": null, "surface": null, "pitch_layout": null, "source": "vgin_vbmp+naip+lidar2025", "source_updated": null, "base_z": null, "top_z": null }, "geometry": { "type": "Polygon", "coordinates": [ [ [ 286254.24, 4158000.0 ], [ 286250.0, 4158000.0 ], [ 286250.0, 4158011.39 ], [ 286252.64, 4158009.57 ], [ 286254.24, 4158000.0 ] ] ] } },
{ "type": "Feature", "properties": { "id": "imagery:groundcover_paved:2195", "name": null, "kind": "groundcover_paved", "sport": null, "surface": null, "pitch_layout": null, "source": "vgin_vbmp+naip+lidar2025", "source_updated": null, "base_z": null, "top_z": null }, "geometry": { "type": "Polygon", "coordinates": [ [ [ 286256.37, 4158067.21 ], [ 286256.5, 4158067.48 ], [ 286256.6, 4158067.77 ], [ 286256.67, 4158068.06 ], [ 286256.71, 4158068.35 ], [ 286256.72, 4158068.65 ], [ 286256.7, 4158068.95 ], [ 286256.66, 4158069.25 ], [ 286256.58, 4158069.54 ], [ 286256.48, 4158069.82 ], [ 286256.35, 4158070.09 ], [ 286256.19, 4158070.35 ], [ 286256.01, 4158070.59 ], [ 286255.8, 4158070.81 ], [ 286255.58, 4158071.01 ], [ 286255.34, 4158071.18 ], [ 286250.0, 4158074.65 ], [ 286250.0, 4158076.42 ], [ 286251.71, 4158079.02 ], [ 286252.21, 4158078.68 ], [ 286252.23, 4158078.66 ], [ 286252.25, 4158078.65 ], [ 286264.51, 4158070.74 ], [ 286250.0, 4158048.99 ], [ 286250.0, 4158057.48 ], [ 286256.22, 4158066.95 ], [ 286256.37, 4158067.21 ] ] ] } },
{ "type": "Feature", "properties": { "id": "imagery:groundcover_paved:2222", "name": null, "kind": "groundcover_paved", "sport": null, "surface": null, "pitch_layout": null, "source": "vgin_vbmp+naip+lidar2025", "source_updated": null, "base_z": null, "top_z": null }, "geometry": { "type": "MultiPolygon", "coordinates": [ [ [ [ 286411.43, 4158006.35 ], [ 286410.74, 4158006.73 ], [ 286410.5, 4158006.84 ], [ 286394.55, 4158012.15 ], [ 286392.66, 4158014.05 ], [ 286387.96, 4158028.13 ], [ 286387.43, 4158028.85 ], [ 286385.35, 4158030.35 ], [ 286384.5, 4158030.63 ], [ 286379.74, 4158030.63 ], [ 286377.24, 4158031.96 ], [ 286373.23, 4158037.98 ], [ 286372.7, 4158038.46 ], [ 286370.85, 4158039.45 ], [ 286370.16, 4158039.63 ], [ 286363.13, 4158039.63 ], [ 286360.13, 4158042.63 ], [ 286360.13, 4158042.78 ], [ 286359.82, 4158043.68 ], [ 286358.17, 4158045.8 ], [ 286357.37, 4158046.32 ], [ 286349.16, 4158048.37 ], [ 286347.49, 4158049.48 ], [ 286340.24, 4158059.15 ], [ 286339.72, 4158059.58 ], [ 286337.94, 4158060.47 ], [ 286337.28, 4158060.63 ], [ 286336.13, 4158060.63 ], [ 286333.36, 4158062.48 ], [ 286332.71, 4158064.05 ], [ 286332.05, 4158064.7 ], [ 286446.69, 4158000.0 ], [ 286419.41, 4158000.0 ], [ 286411.65, 4158006.21 ], [ 286411.43, 4158006.35 ] ] ], [ [ [ 286450.13, 4158003.01 ], [ 286450.13, 4158002.19 ], [ 286309.13, 4158081.77 ], [ 286309.13, 4158083.9 ], [ 286336.91, 4158068.14 ], [ 286376.41, 4158044.74 ], [ 286376.48, 4158044.7 ], [ 286424.38, 4158017.58 ], [ 286450.13, 4158003.01 ] ] ], [ [ [ 286434.59, 4158026.26 ], [ 286434.92, 4158025.71 ], [ 286436.2, 4158024.35 ], [ 286436.73, 4158023.99 ], [ 286448.25, 4158019.38 ], [ 286450.13, 4158016.59 ], [ 286450.13, 4158012.89 ], [ 286428.62, 4158025.07 ], [ 286384.67, 4158049.95 ], [ 286385.41, 4158051.11 ], [ 286386.11, 4158050.68 ], [ 286386.26, 4158050.6 ], [ 286386.43, 4158050.53 ], [ 286386.59, 4158050.48 ], [ 286386.77, 4158050.44 ], [ 286386.94, 4158050.43 ], [ 286387.12, 4158050.42 ], [ 286387.3, 4158050.44 ], [ 286387.47, 4158050.47 ], [ 286387.64, 4158050.52 ], [ 286387.8, 4158050.59 ], [ 286387.96, 4158050.67 ], [ 286388.11, 4158050.77 ], [ 286388.24, 4158050.88 ], [ 286388.37, 4158051.01 ], [ 286388.48, 4158051.14 ], [ 286388.58, 4158051.29 ], [ 286388.66, 4158051.44 ], [ 286388.73, 4158051.61 ], [ 286388.79, 4158051.78 ], [ 286388.82, 4158051.95 ], [ 286388.84, 4158052.12 ], [ 286388.84, 4158052.3 ], [ 286388.82, 4158052.48 ], [ 286388.79, 4158052.65 ], [ 286388.74, 4158052.82 ], [ 286388.67, 4158052.98 ], [ 286388.59, 4158053.14 ], [ 286388.49, 4158053.29 ], [ 286388.38, 4158053.42 ], [ 286388.26, 4158053.55 ], [ 286388.12, 4158053.66 ], [ 286387.98, 4158053.76 ], [ 286387.35, 4158054.14 ], [ 286414.13, 4158095.9 ], [ 286414.13, 4158090.71 ], [ 286412.02, 4158087.02 ], [ 286411.8, 4158086.58 ], [ 286411.62, 4158086.12 ], [ 286411.49, 4158085.65 ], [ 286411.43, 4158085.33 ], [ 286411.12, 4158085.22 ], [ 286410.69, 4158085.02 ], [ 286410.27, 4158084.77 ], [ 286409.89, 4158084.48 ], [ 286409.53, 4158084.16 ], [ 286409.2, 4158083.8 ], [ 286408.91, 4158083.42 ], [ 286408.66, 4158083.01 ], [ 286407.26, 4158080.46 ], [ 286406.94, 4158080.41 ], [ 286406.47, 4158080.29 ], [ 286406.01, 4158080.13 ], [ 286405.57, 4158079.92 ], [ 286405.16, 4158079.67 ], [ 286404.77, 4158079.38 ], [ 286404.41, 4158079.06 ], [ 286404.08, 4158078.7 ], [ 286403.79, 4158078.31 ], [ 286403.54, 4158077.9 ], [ 286401.66, 4158074.45 ], [ 286401.45, 4158074.02 ], [ 286401.44, 4158073.98 ], [ 286401.37, 4158073.86 ], [ 286399.49, 4158070.42 ], [ 286399.28, 4158069.98 ], [ 286399.11, 4158069.53 ], [ 286399.03, 4158069.2 ], [ 286398.74, 4158068.82 ], [ 286398.48, 4158068.4 ], [ 286395.22, 4158062.47 ], [ 286394.97, 4158062.29 ], [ 286394.6, 4158061.97 ], [ 286394.27, 4158061.62 ], [ 286393.97, 4158061.23 ], [ 286393.71, 4158060.81 ], [ 286390.38, 4158054.88 ], [ 286390.16, 4158054.44 ], [ 286389.99, 4158053.98 ], [ 286389.86, 4158053.51 ], [ 286389.78, 4158053.03 ], [ 286389.74, 4158052.54 ], [ 286389.76, 4158052.05 ], [ 286389.82, 4158051.56 ], [ 286389.93, 4158051.08 ], [ 286390.08, 4158050.62 ], [ 286390.28, 4158050.17 ], [ 286390.53, 4158049.74 ], [ 286390.81, 4158049.34 ], [ 286391.13, 4158048.97 ], [ 286391.49, 4158048.64 ], [ 286391.88, 4158048.34 ], [ 286392.3, 4158048.07 ], [ 286406.09, 4158040.34 ], [ 286406.53, 4158040.12 ], [ 286406.99, 4158039.95 ], [ 286407.46, 4158039.82 ], [ 286407.95, 4158039.73 ], [ 286408.44, 4158039.7 ], [ 286408.93, 4158039.71 ], [ 286409.41, 4158039.78 ], [ 286409.89, 4158039.89 ], [ 286410.36, 4158040.04 ], [ 286410.8, 4158040.24 ], [ 286411.13, 4158040.43 ], [ 286411.13, 4158039.77 ], [ 286411.49, 4158038.82 ], [ 286413.35, 4158036.67 ], [ 286414.24, 4158036.18 ], [ 286430.3, 4158033.89 ], [ 286432.72, 4158031.87 ], [ 286434.59, 4158026.26 ] ] ], [ [ [ 286301.89, 4158039.63 ], [ 286297.13, 4158039.63 ], [ 286294.13, 4158042.63 ], [ 286294.13, 4158059.38 ], [ 286295.01, 4158061.5 ], [ 286308.04, 4158074.54 ], [ 286308.37, 4158075.02 ], [ 286309.02, 4158076.6 ], [ 286309.13, 4158077.16 ], [ 286309.13, 4158077.64 ], [ 286328.65, 4158066.63 ], [ 286315.27, 4158066.63 ], [ 286314.32, 4158066.27 ], [ 286312.17, 4158064.4 ], [ 286311.69, 4158063.51 ], [ 286309.27, 4158046.62 ], [ 286308.42, 4158044.92 ], [ 286304.01, 4158040.5 ], [ 286301.89, 4158039.63 ] ] ], [ [ [ 286356.12, 4158071.36 ], [ 286356.49, 4158071.04 ], [ 286356.89, 4158070.76 ], [ 286361.68, 4158067.7 ], [ 286362.1, 4158067.46 ], [ 286362.46, 4158067.3 ], [ 286368.04, 4158061.71 ], [ 286368.53, 4158061.39 ], [ 286370.1, 4158060.74 ], [ 286370.67, 4158060.63 ], [ 286375.06, 4158060.63 ], [ 286376.0, 4158060.97 ], [ 286377.32, 4158062.1 ], [ 286377.68, 4158062.16 ], [ 286378.15, 4158062.28 ], [ 286378.61, 4158062.46 ], [ 286379.05, 4158062.68 ], [ 286379.47, 4158062.94 ], [ 286379.85, 4158063.24 ], [ 286380.21, 4158063.58 ], [ 286380.53, 4158063.95 ], [ 286380.82, 4158064.35 ], [ 286385.0, 4158070.9 ], [ 286385.24, 4158071.33 ], [ 286385.44, 4158071.78 ], [ 286385.6, 4158072.24 ], [ 286385.71, 4158072.72 ], [ 286385.77, 4158073.21 ], [ 286385.78, 4158073.7 ], [ 286385.75, 4158074.19 ], [ 286385.67, 4158074.67 ], [ 286385.54, 4158075.15 ], [ 286385.36, 4158075.6 ], [ 286385.14, 4158076.04 ], [ 286384.88, 4158076.46 ], [ 286384.58, 4158076.85 ], [ 286384.24, 4158077.2 ], [ 286383.87, 4158077.53 ], [ 286383.47, 4158077.81 ], [ 286383.04, 4158078.09 ], [ 286383.67, 4158078.63 ], [ 286386.53, 4158078.63 ], [ 286387.55, 4158079.05 ], [ 286389.71, 4158081.2 ], [ 286390.13, 4158082.22 ], [ 286390.13, 4158082.52 ], [ 286390.36, 4158082.53 ], [ 286390.85, 4158082.61 ], [ 286391.32, 4158082.73 ], [ 286391.78, 4158082.89 ], [ 286392.23, 4158083.11 ], [ 286392.64, 4158083.36 ], [ 286393.04, 4158083.65 ], [ 286393.4, 4158083.98 ], [ 286393.73, 4158084.35 ], [ 286394.02, 4158084.75 ], [ 286394.27, 4158085.17 ], [ 286397.75, 4158091.75 ], [ 286397.96, 4158092.2 ], [ 286398.13, 4158092.66 ], [ 286398.24, 4158093.13 ], [ 286398.31, 4158093.62 ], [ 286398.34, 4158094.11 ], [ 286398.31, 4158094.6 ], [ 286398.24, 4158095.08 ], [ 286398.11, 4158095.56 ], [ 286397.95, 4158096.02 ], [ 286397.74, 4158096.46 ], [ 286397.48, 4158096.88 ], [ 286397.28, 4158097.16 ], [ 286398.23, 4158098.43 ], [ 286400.63, 4158099.63 ], [ 286402.15, 4158099.63 ], [ 286403.07, 4158099.96 ], [ 286405.21, 4158101.71 ], [ 286405.72, 4158102.55 ], [ 286406.43, 4158106.14 ], [ 286406.65, 4158106.18 ], [ 286407.12, 4158106.3 ], [ 286407.58, 4158106.47 ], [ 286408.02, 4158106.69 ], [ 286408.44, 4158106.94 ], [ 286408.83, 4158107.24 ], [ 286409.19, 4158107.57 ], [ 286409.52, 4158107.94 ], [ 286409.81, 4158108.34 ], [ 286413.1, 4158113.38 ], [ 286413.35, 4158113.81 ], [ 286413.55, 4158114.25 ], [ 286413.71, 4158114.72 ], [ 286413.82, 4158115.19 ], [ 286413.89, 4158115.68 ], [ 286413.91, 4158116.17 ], [ 286413.9, 4158116.3 ], [ 286416.81, 4158120.85 ], [ 286417.01, 4158120.83 ], [ 286417.5, 4158120.82 ], [ 286417.99, 4158120.86 ], [ 286418.47, 4158120.96 ], [ 286418.94, 4158121.09 ], [ 286419.4, 4158121.28 ], [ 286419.83, 4158121.5 ], [ 286420.24, 4158121.77 ], [ 286420.63, 4158122.08 ], [ 286420.83, 4158122.28 ], [ 286379.09, 4158057.17 ], [ 286377.22, 4158054.26 ], [ 286343.86, 4158074.02 ], [ 286345.32, 4158076.53 ], [ 286346.45, 4158075.48 ], [ 286347.1, 4158075.13 ], [ 286354.92, 4158073.18 ], [ 286355.0, 4158072.96 ], [ 286355.22, 4158072.52 ], [ 286355.48, 4158072.11 ], [ 286355.78, 4158071.72 ], [ 286356.12, 4158071.36 ] ] ], [ [ [ 286327.07, 4158091.5 ], [ 286327.46, 4158091.8 ], [ 286327.82, 4158092.13 ], [ 286328.15, 4158092.5 ], [ 286328.43, 4158092.9 ], [ 286330.86, 4158096.65 ], [ 286331.24, 4158096.75 ], [ 286331.7, 4158096.92 ], [ 286332.14, 4158097.14 ], [ 286332.56, 4158097.4 ], [ 286332.95, 4158097.7 ], [ 286333.31, 4158098.03 ], [ 286333.63, 4158098.4 ], [ 286333.92, 4158098.8 ], [ 286335.41, 4158101.11 ], [ 286336.94, 4158100.19 ], [ 286342.51, 4158083.5 ], [ 286341.63, 4158082.15 ], [ 286326.12, 4158090.99 ], [ 286326.21, 4158091.02 ], [ 286326.65, 4158091.24 ], [ 286327.07, 4158091.5 ] ] ], [ [ [ 286316.0, 4158127.59 ], [ 286298.0, 4158100.06 ], [ 286279.4, 4158110.34 ], [ 286279.86, 4158110.69 ], [ 286297.45, 4158106.3 ], [ 286298.38, 4158106.37 ], [ 286300.81, 4158107.41 ], [ 286301.5, 4158108.02 ], [ 286311.5, 4158125.51 ], [ 286313.37, 4158126.94 ], [ 286316.0, 4158127.59 ] ] ], [ [ [ 286415.18, 4158171.8 ], [ 286415.35, 4158171.75 ], [ 286415.52, 4158171.72 ], [ 286415.7, 4158171.71 ], [ 286415.88, 4158171.71 ], [ 286416.05, 4158171.74 ], [ 286416.22, 4158171.77 ], [ 286416.39, 4158171.83 ], [ 286416.55, 4158171.9 ], [ 286416.71, 4158171.99 ], [ 286416.85, 4158172.09 ], [ 286416.98, 4158172.21 ], [ 286417.11, 4158172.33 ], [ 286417.21, 4158172.47 ], [ 286417.31, 4158172.62 ], [ 286417.39, 4158172.78 ], [ 286417.45, 4158172.95 ], [ 286417.5, 4158173.12 ], [ 286417.53, 4158173.29 ], [ 286417.54, 4158173.47 ], [ 286417.54, 4158173.64 ], [ 286417.51, 4158173.82 ], [ 286417.48, 4158173.99 ], [ 286417.42, 4158174.16 ], [ 286417.35, 4158174.32 ], [ 286417.26, 4158174.47 ], [ 286417.16, 4158174.62 ], [ 286417.04, 4158174.75 ], [ 286416.92, 4158174.87 ], [ 286416.78, 4158174.98 ], [ 286416.63, 4158175.08 ], [ 286414.81, 4158176.1 ], [ 286410.12, 4158178.73 ], [ 286410.85, 4158178.37 ], [ 286411.29, 4158178.19 ], [ 286411.75, 4158178.05 ], [ 286412.22, 4158177.95 ], [ 286412.69, 4158177.9 ], [ 286413.17, 4158177.89 ], [ 286413.65, 4158177.93 ], [ 286413.89, 4158177.97 ], [ 286414.73, 4158177.63 ], [ 286416.02, 4158177.63 ], [ 286417.1, 4158178.12 ], [ 286419.21, 4158180.56 ], [ 286419.55, 4158181.7 ], [ 286419.22, 4158183.98 ], [ 286419.73, 4158184.95 ], [ 286419.94, 4158185.38 ], [ 286420.1, 4158185.83 ], [ 286420.21, 4158186.29 ], [ 286420.28, 4158186.77 ], [ 286420.31, 4158187.24 ], [ 286420.29, 4158187.72 ], [ 286420.24, 4158188.05 ], [ 286421.9, 4158191.3 ], [ 286422.1, 4158191.75 ], [ 286422.26, 4158192.21 ], [ 286422.37, 4158192.69 ], [ 286422.43, 4158193.18 ], [ 286422.45, 4158193.67 ], [ 286422.42, 4158194.13 ], [ 286422.52, 4158194.35 ], [ 286422.67, 4158194.82 ], [ 286422.78, 4158195.29 ], [ 286422.8, 4158195.47 ], [ 286422.92, 4158195.42 ], [ 286423.13, 4158195.63 ], [ 286425.71, 4158193.05 ], [ 286426.73, 4158192.63 ], [ 286429.15, 4158192.63 ], [ 286430.07, 4158192.96 ], [ 286432.21, 4158194.71 ], [ 286432.72, 4158195.55 ], [ 286435.63, 4158210.14 ], [ 286435.88, 4158210.37 ], [ 286436.2, 4158210.73 ], [ 286436.49, 4158211.13 ], [ 286436.74, 4158211.55 ], [ 286440.31, 4158218.35 ], [ 286440.52, 4158218.79 ], [ 286440.68, 4158219.26 ], [ 286440.79, 4158219.73 ], [ 286440.86, 4158220.22 ], [ 286440.88, 4158220.71 ], [ 286440.85, 4158221.2 ], [ 286440.78, 4158221.69 ], [ 286440.65, 4158222.16 ], [ 286440.49, 4158222.62 ], [ 286440.27, 4158223.06 ], [ 286440.02, 4158223.48 ], [ 286439.72, 4158223.87 ], [ 286439.39, 4158224.23 ], [ 286439.02, 4158224.56 ], [ 286438.63, 4158224.85 ], [ 286438.58, 4158224.88 ], [ 286440.89, 4158236.41 ], [ 286442.17, 4158238.31 ], [ 286445.47, 4158240.52 ], [ 286450.13, 4158238.02 ], [ 286450.13, 4158197.32 ], [ 286448.67, 4158194.75 ], [ 286436.92, 4158187.7 ], [ 286436.4, 4158187.16 ], [ 286435.32, 4158185.27 ], [ 286435.13, 4158184.54 ], [ 286435.13, 4158180.63 ], [ 286432.13, 4158177.63 ], [ 286430.67, 4158177.63 ], [ 286429.55, 4158177.08 ], [ 286427.49, 4158174.44 ], [ 286427.23, 4158173.23 ], [ 286428.44, 4158168.38 ], [ 286428.96, 4158167.59 ], [ 286431.08, 4158165.93 ], [ 286431.98, 4158165.63 ], [ 286447.13, 4158165.63 ], [ 286450.13, 4158162.63 ], [ 286450.13, 4158150.54 ], [ 286445.39, 4158153.31 ], [ 286419.3, 4158168.51 ], [ 286419.27, 4158168.52 ], [ 286407.61, 4158175.19 ], [ 286393.13, 4158183.55 ], [ 286393.13, 4158183.63 ], [ 286393.46, 4158183.95 ], [ 286395.76, 4158182.62 ], [ 286395.78, 4158182.61 ], [ 286413.05, 4158172.96 ], [ 286414.86, 4158171.94 ], [ 286415.01, 4158171.86 ], [ 286415.18, 4158171.8 ] ] ] ] } },
{ "type": "Feature", "properties": { "id": "richmond_structure:312183", "name": null, "kind": "deck", "sport": null, "surface": null, "pitch_layout": null, "source": "richmond_structures", "source_updated": "2026-09-08T12:07:13.637000Z", "base_z": null, "top_z": null }, "geometry": { "type": "Polygon", "coordinates": [ [ [ 286350.6, 4158130.69 ], [ 286347.88, 4158132.22 ], [ 286349.46, 4158135.01 ], [ 286352.18, 4158133.48 ], [ 286350.6, 4158130.69 ] ] ] } },
{ "type": "Feature", "properties": { "id": "richmond_structure:311631", "name": null, "kind": "deck", "sport": null, "surface": null, "pitch_layout": null, "source": "richmond_structures", "source_updated": "2026-09-08T12:07:13.637000Z", "base_z": null, "top_z": null }, "geometry": { "type": "Polygon", "coordinates": [ [ [ 286268.93, 4158147.78 ], [ 286270.5, 4158150.02 ], [ 286273.11, 4158148.33 ], [ 286273.27, 4158148.58 ], [ 286274.33, 4158147.86 ], [ 286272.32, 4158145.43 ], [ 286268.93, 4158147.78 ] ] ] } },
{ "type": "Feature", "properties": { "id": "richmond_structure:316302", "name": null, "kind": "deck", "sport": null, "surface": null, "pitch_layout": null, "source": "richmond_structures", "source_updated": "2026-09-08T12:07:13.637000Z", "base_z": null, "top_z": null }, "geometry": { "type": "Polygon", "coordinates": [ [ [ 286281.09, 4158171.12 ], [ 286283.76, 4158169.44 ], [ 286281.48, 4158165.85 ], [ 286278.81, 4158167.56 ], [ 286281.09, 4158171.12 ] ] ] } },
{ "type": "Feature", "properties": { "id": "richmond_structure:309000", "name": null, "kind": "deck", "sport": null, "surface": null, "pitch_layout": null, "source": "richmond_structures", "source_updated": "2026-09-08T12:07:13.637000Z", "base_z": null, "top_z": null }, "geometry": { "type": "Polygon", "coordinates": [ [ [ 286334.65, 4158194.32 ], [ 286333.26, 4158192.27 ], [ 286330.06, 4158193.98 ], [ 286331.35, 4158196.19 ], [ 286334.65, 4158194.32 ] ] ] } },
{ "type": "Feature", "properties": { "id": "imagery:groundcover_paved:2240", "name": null, "kind": "groundcover_paved", "sport": null, "surface": null, "pitch_layout": null, "source": "vgin_vbmp+naip+lidar2025", "source_updated": null, "base_z": null, "top_z": null }, "geometry": { "type": "MultiPolygon", "coordinates": [ [ [ [ 286255.59, 4158203.18 ], [ 286250.0, 4158194.39 ], [ 286250.0, 4158199.83 ], [ 286250.06, 4158199.99 ], [ 286250.11, 4158200.17 ], [ 286250.41, 4158201.66 ], [ 286250.44, 4158201.82 ], [ 286250.45, 4158201.99 ], [ 286250.44, 4158202.15 ], [ 286250.32, 4158203.8 ], [ 286250.29, 4158203.99 ], [ 286250.25, 4158204.18 ], [ 286250.18, 4158204.36 ], [ 286250.1, 4158204.53 ], [ 286250.0, 4158204.71 ], [ 286250.0, 4158208.94 ], [ 286250.02, 4158208.92 ], [ 286255.59, 4158203.18 ] ] ], [ [ [ 286253.72, 4158220.19 ], [ 286253.83, 4158220.11 ], [ 286255.5, 4158219.0 ], [ 286255.64, 4158218.92 ], [ 286255.78, 4158218.85 ], [ 286255.93, 4158218.8 ], [ 286256.08, 4158218.75 ], [ 286257.39, 4158218.44 ], [ 286257.56, 4158218.41 ], [ 286257.73, 4158218.39 ], [ 286259.19, 4158218.33 ], [ 286259.39, 4158218.34 ], [ 286259.59, 4158218.36 ], [ 286261.18, 4158218.65 ], [ 286261.39, 4158218.7 ], [ 286261.59, 4158218.78 ], [ 286262.75, 4158219.29 ], [ 286262.92, 4158219.38 ], [ 286263.07, 4158219.48 ], [ 286263.22, 4158219.59 ], [ 286263.35, 4158219.72 ], [ 286263.42, 4158219.81 ], [ 286264.1, 4158220.12 ], [ 286266.21, 4158222.56 ], [ 286266.55, 4158223.7 ], [ 286266.46, 4158224.3 ], [ 286266.48, 4158224.33 ], [ 286274.05, 4158236.66 ], [ 286274.11, 4158236.78 ], [ 286276.81, 4158242.0 ], [ 286276.9, 4158242.19 ], [ 286278.99, 4158247.69 ], [ 286279.0, 4158247.72 ], [ 286279.82, 4158250.0 ], [ 286283.0, 4158250.0 ], [ 286280.94, 4158241.86 ], [ 286260.39, 4158210.58 ], [ 286256.1, 4158215.0 ], [ 286255.91, 4158215.19 ], [ 286250.0, 4158220.56 ], [ 286250.0, 4158223.57 ], [ 286253.62, 4158220.28 ], [ 286253.72, 4158220.19 ] ] ], [ [ [ 286250.0, 4158134.88 ], [ 286252.36, 4158133.38 ], [ 286252.79, 4158133.14 ], [ 286253.24, 4158132.94 ], [ 286253.7, 4158132.79 ], [ 286254.18, 4158132.68 ], [ 286254.67, 4158132.62 ], [ 286255.16, 4158132.6 ], [ 286255.65, 4158132.64 ], [ 286256.13, 4158132.72 ], [ 286256.6, 4158132.85 ], [ 286257.06, 4158133.03 ], [ 286257.5, 4158133.25 ], [ 286257.92, 4158133.51 ], [ 286258.3, 4158133.81 ], [ 286258.66, 4158134.15 ], [ 286258.98, 4158134.52 ], [ 286259.26, 4158134.92 ], [ 286263.9, 4158142.22 ], [ 286264.14, 4158142.65 ], [ 286264.34, 4158143.1 ], [ 286264.49, 4158143.56 ], [ 286264.6, 4158144.04 ], [ 286264.66, 4158144.53 ], [ 286264.68, 4158145.02 ], [ 286264.67, 4158145.16 ], [ 286265.86, 4158146.36 ], [ 286270.57, 4158143.3 ], [ 286270.99, 4158143.05 ], [ 286271.44, 4158142.85 ], [ 286271.81, 4158142.72 ], [ 286261.86, 4158126.91 ], [ 286250.0, 4158133.59 ], [ 286250.0, 4158134.88 ] ] ], [ [ [ 286361.04, 4158161.21 ], [ 286361.39, 4158160.87 ], [ 286361.77, 4158160.56 ], [ 286362.18, 4158160.3 ], [ 286375.62, 4158152.48 ], [ 286376.05, 4158152.25 ], [ 286376.51, 4158152.07 ], [ 286376.98, 4158151.93 ], [ 286377.46, 4158151.84 ], [ 286377.95, 4158151.8 ], [ 286378.44, 4158151.81 ], [ 286378.93, 4158151.86 ], [ 286379.41, 4158151.96 ], [ 286379.88, 4158152.11 ], [ 286380.33, 4158152.31 ], [ 286380.76, 4158152.54 ], [ 286381.16, 4158152.82 ], [ 286381.54, 4158153.14 ], [ 286381.88, 4158153.49 ], [ 286382.19, 4158153.87 ], [ 286382.45, 4158154.28 ], [ 286383.63, 4158156.3 ], [ 286388.9, 4158153.31 ], [ 286384.87, 4158147.61 ], [ 286383.94, 4158147.3 ], [ 286381.6, 4158145.16 ], [ 286381.13, 4158144.11 ], [ 286381.13, 4158142.32 ], [ 286376.72, 4158136.07 ], [ 286376.65, 4158135.97 ], [ 286375.66, 4158134.45 ], [ 286374.18, 4158134.94 ], [ 286372.13, 4158137.79 ], [ 286372.13, 4158141.03 ], [ 286371.71, 4158142.05 ], [ 286369.55, 4158144.2 ], [ 286367.98, 4158144.85 ], [ 286368.0, 4158144.88 ], [ 286366.5, 4158145.5 ], [ 286366.33, 4158145.67 ], [ 286365.78, 4158146.42 ], [ 286365.54, 4158146.89 ], [ 286362.77, 4158148.89 ], [ 286361.5, 4158149.08 ], [ 286360.2, 4158148.65 ], [ 286356.35, 4158150.77 ], [ 286354.82, 4158156.87 ], [ 286354.3, 4158157.66 ], [ 286352.18, 4158159.32 ], [ 286351.29, 4158159.63 ], [ 286350.76, 4158159.63 ], [ 286355.14, 4158166.11 ], [ 286357.13, 4158168.89 ], [ 286357.13, 4158167.16 ], [ 286357.24, 4158166.6 ], [ 286357.9, 4158165.02 ], [ 286358.22, 4158164.54 ], [ 286360.11, 4158162.64 ], [ 286360.21, 4158162.42 ], [ 286360.44, 4158161.99 ], [ 286360.72, 4158161.59 ], [ 286361.04, 4158161.21 ] ] ], [ [ [ 286346.81, 4158197.67 ], [ 286336.63, 4158195.4 ], [ 286332.37, 4158197.67 ], [ 286331.93, 4158197.88 ], [ 286331.46, 4158198.05 ], [ 286330.99, 4158198.16 ], [ 286330.5, 4158198.24 ], [ 286330.1, 4158198.26 ], [ 286331.48, 4158200.39 ], [ 286331.73, 4158200.81 ], [ 286331.93, 4158201.26 ], [ 286332.09, 4158201.72 ], [ 286332.2, 4158202.2 ], [ 286332.27, 4158202.69 ], [ 286332.28, 4158203.18 ], [ 286332.25, 4158203.67 ], [ 286332.17, 4158204.15 ], [ 286332.05, 4158204.63 ], [ 286331.87, 4158205.09 ], [ 286331.66, 4158205.53 ], [ 286331.4, 4158205.94 ], [ 286331.1, 4158206.33 ], [ 286330.76, 4158206.69 ], [ 286330.39, 4158207.02 ], [ 286329.99, 4158207.3 ], [ 286325.55, 4158210.17 ], [ 286325.13, 4158210.42 ], [ 286324.68, 4158210.62 ], [ 286324.22, 4158210.78 ], [ 286323.74, 4158210.89 ], [ 286323.25, 4158210.95 ], [ 286322.76, 4158210.97 ], [ 286322.27, 4158210.94 ], [ 286322.18, 4158210.92 ], [ 286322.17, 4158210.99 ], [ 286322.08, 4158211.47 ], [ 286321.94, 4158211.94 ], [ 286321.76, 4158212.4 ], [ 286321.53, 4158212.83 ], [ 286321.26, 4158213.24 ], [ 286320.95, 4158213.63 ], [ 286320.61, 4158213.98 ], [ 286320.23, 4158214.29 ], [ 286319.83, 4158214.57 ], [ 286316.66, 4158216.5 ], [ 286316.48, 4158217.21 ], [ 286358.78, 4158193.03 ], [ 286358.2, 4158192.15 ], [ 286342.13, 4158167.57 ], [ 286342.13, 4158172.71 ], [ 286342.49, 4158172.8 ], [ 286342.96, 4158172.97 ], [ 286343.4, 4158173.18 ], [ 286343.82, 4158173.43 ], [ 286344.21, 4158173.72 ], [ 286344.58, 4158174.05 ], [ 286344.91, 4158174.42 ], [ 286345.2, 4158174.81 ], [ 286345.45, 4158175.23 ], [ 286349.52, 4158182.87 ], [ 286349.73, 4158183.31 ], [ 286349.89, 4158183.77 ], [ 286350.01, 4158184.25 ], [ 286350.08, 4158184.74 ], [ 286350.11, 4158185.23 ], [ 286350.08, 4158185.72 ], [ 286350.01, 4158186.2 ], [ 286349.89, 4158186.68 ], [ 286349.72, 4158187.14 ], [ 286349.51, 4158187.58 ], [ 286349.35, 4158187.85 ], [ 286350.04, 4158188.54 ], [ 286350.37, 4158189.02 ], [ 286351.02, 4158190.6 ], [ 286351.13, 4158191.16 ], [ 286351.13, 4158194.2 ], [ 286350.6, 4158195.31 ], [ 286348.01, 4158197.39 ], [ 286346.81, 4158197.67 ] ] ], [ [ [ 286277.08, 4158210.02 ], [ 286277.41, 4158209.65 ], [ 286277.77, 4158209.32 ], [ 286278.17, 4158209.03 ], [ 286278.59, 4158208.77 ], [ 286284.22, 4158205.74 ], [ 286284.66, 4158205.53 ], [ 286285.13, 4158205.36 ], [ 286285.6, 4158205.24 ], [ 286286.04, 4158205.18 ], [ 286289.33, 4158185.46 ], [ 286289.14, 4158185.64 ], [ 286282.99, 4158191.4 ], [ 286282.79, 4158191.57 ], [ 286282.57, 4158191.73 ], [ 286268.71, 4158200.77 ], [ 286267.45, 4158201.6 ], [ 286265.85, 4158203.22 ], [ 286275.63, 4158218.11 ], [ 286274.68, 4158215.26 ], [ 286274.87, 4158213.99 ], [ 286276.03, 4158212.38 ], [ 286276.05, 4158212.21 ], [ 286276.17, 4158211.74 ], [ 286276.33, 4158211.28 ], [ 286276.54, 4158210.83 ], [ 286276.79, 4158210.41 ], [ 286277.08, 4158210.02 ] ] ], [ [ [ 286299.62, 4158249.63 ], [ 286298.71, 4158250.0 ], [ 286307.88, 4158250.0 ], [ 286307.28, 4158249.63 ], [ 286299.62, 4158249.63 ] ] ] ] } },
{ "type": "Feature", "properties": { "id": "richmond_structure:425538", "name": null, "kind": "deck", "sport": null, "surface": null, "pitch_layout": null, "source": "richmond_structures", "source_updated": "2026-09-08T12:07:13.637000Z", "base_z": null, "top_z": null }, "geometry": { "type": "Polygon", "coordinates": [ [ [ 286308.25, 4158213.24 ], [ 286309.5, 4158212.56 ], [ 286308.32, 4158210.64 ], [ 286306.94, 4158211.43 ], [ 286308.25, 4158213.24 ] ] ] } },
{ "type": "Feature", "properties": { "id": "richmond_structure:402179", "name": null, "kind": "deck", "sport": null, "surface": null, "pitch_layout": null, "source": "richmond_structures", "source_updated": "2026-09-08T12:07:13.637000Z", "base_z": null, "top_z": null }, "geometry": { "type": "Polygon", "coordinates": [ [ [ 286365.08, 4158226.98 ], [ 286367.43, 4158226.43 ], [ 286366.44, 4158222.16 ], [ 286364.09, 4158222.7 ], [ 286365.08, 4158226.98 ] ] ] } },
{ "type": "Feature", "properties": { "id": "richmond_structure:402178", "name": null, "kind": "deck", "sport": null, "surface": null, "pitch_layout": null, "source": "richmond_structures", "source_updated": "2026-09-08T12:07:13.637000Z", "base_z": null, "top_z": null }, "geometry": { "type": "Polygon", "coordinates": [ [ [ 286372.52, 4158220.17 ], [ 286374.73, 4158219.02 ], [ 286372.7, 4158215.14 ], [ 286370.49, 4158216.3 ], [ 286372.52, 4158220.17 ] ] ] } },
{ "type": "Feature", "properties": { "id": "richmond_structure:402180", "name": null, "kind": "deck", "sport": null, "surface": null, "pitch_layout": null, "source": "richmond_structures", "source_updated": "2026-09-08T12:07:13.637000Z", "base_z": null, "top_z": null }, "geometry": { "type": "Polygon", "coordinates": [ [ [ 286379.95, 4158233.76 ], [ 286381.91, 4158232.74 ], [ 286379.82, 4158228.75 ], [ 286377.86, 4158229.78 ], [ 286379.95, 4158233.76 ] ] ] } },
{ "type": "Feature", "properties": { "id": "richmond_structure:402983", "name": null, "kind": "deck", "sport": null, "surface": null, "pitch_layout": null, "source": "richmond_structures", "source_updated": "2026-09-08T12:07:13.637000Z", "base_z": null, "top_z": null }, "geometry": { "type": "Polygon", "coordinates": [ [ [ 286386.18, 4158215.31 ], [ 286381.58, 4158205.67 ], [ 286381.01, 4158204.75 ], [ 286377.8, 4158206.28 ], [ 286400.66, 4158250.0 ], [ 286404.35, 4158250.0 ], [ 286398.12, 4158237.49 ], [ 286386.18, 4158215.31 ] ] ] } },
{ "type": "Feature", "properties": { "id": "richmond_structure:402182", "name": null, "kind": "deck", "sport": null, "surface": null, "pitch_layout": null, "source": "richmond_structures", "source_updated": "2026-09-08T12:07:13.637000Z", "base_z": null, "top_z": null }, "geometry": { "type": "Polygon", "coordinates": [ [ [ 286387.05, 4158247.35 ], [ 286389.01, 4158246.33 ], [ 286386.98, 4158242.43 ], [ 286385.02, 4158243.46 ], [ 286387.05, 4158247.35 ] ] ] } },
{ "type": "Feature", "properties": { "id": "imagery:groundcover_paved:2095", "name": null, "kind": "groundcover_paved", "sport": null, "surface": null, "pitch_layout": null, "source": "vgin_vbmp+naip+lidar2025", "source_updated": null, "base_z": null, "top_z": null }, "geometry": { "type": "Polygon", "coordinates": [ [ [ 286375.35, 4158247.63 ], [ 286375.89, 4158250.0 ], [ 286378.24, 4158250.0 ], [ 286376.92, 4158246.5 ], [ 286375.35, 4158247.63 ] ] ] } },
{ "type": "Feature", "properties": { "id": "imagery:groundcover_lawn:2122", "name": null, "kind": "groundcover_lawn", "sport": null, "surface": null, "pitch_layout": null, "source": "vgin_vbmp+naip+lidar2025", "source_updated": null, "base_z": null, "top_z": null }, "geometry": { "type": "MultiPolygon", "coordinates": [ [ [ [ 286429.13, 4158248.74 ], [ 286429.13, 4158240.47 ], [ 286429.44, 4158239.57 ], [ 286431.09, 4158237.45 ], [ 286431.89, 4158236.94 ], [ 286438.86, 4158235.19 ], [ 286441.13, 4158232.28 ], [ 286441.13, 4158224.48 ], [ 286439.47, 4158221.8 ], [ 286437.81, 4158220.97 ], [ 286436.59, 4158221.37 ], [ 286436.58, 4158221.38 ], [ 286436.51, 4158221.45 ], [ 286436.43, 4158221.51 ], [ 286436.35, 4158221.56 ], [ 286433.91, 4158222.84 ], [ 286433.94, 4158222.91 ], [ 286433.99, 4158223.0 ], [ 286434.02, 4158223.09 ], [ 286434.04, 4158223.18 ], [ 286434.05, 4158223.28 ], [ 286434.06, 4158223.38 ], [ 286434.05, 4158223.48 ], [ 286434.04, 4158223.57 ], [ 286434.01, 4158223.67 ], [ 286433.98, 4158223.76 ], [ 286433.94, 4158223.85 ], [ 286433.89, 4158223.93 ], [ 286433.83, 4158224.01 ], [ 286433.76, 4158224.08 ], [ 286433.69, 4158224.15 ], [ 286433.61, 4158224.21 ], [ 286433.52, 4158224.26 ], [ 286422.44, 4158230.07 ], [ 286422.35, 4158230.11 ], [ 286422.26, 4158230.15 ], [ 286422.16, 4158230.17 ], [ 286422.07, 4158230.18 ], [ 286421.97, 4158230.19 ], [ 286421.87, 4158230.18 ], [ 286421.77, 4158230.17 ], [ 286421.68, 4158230.14 ], [ 286421.59, 4158230.11 ], [ 286421.5, 4158230.07 ], [ 286421.41, 4158230.02 ], [ 286421.33, 4158229.96 ], [ 286421.26, 4158229.89 ], [ 286421.2, 4158229.82 ], [ 286421.14, 4158229.74 ], [ 286421.09, 4158229.65 ], [ 286418.9, 4158225.48 ], [ 286418.63, 4158225.41 ], [ 286416.66, 4158224.19 ], [ 286416.12, 4158223.59 ], [ 286414.64, 4158220.65 ], [ 286414.55, 4158220.7 ], [ 286414.47, 4158220.74 ], [ 286414.37, 4158220.77 ], [ 286414.28, 4158220.8 ], [ 286414.18, 4158220.82 ], [ 286414.08, 4158220.82 ], [ 286413.99, 4158220.82 ], [ 286413.89, 4158220.81 ], [ 286413.79, 4158220.79 ], [ 286413.7, 4158220.76 ], [ 286413.61, 4158220.72 ], [ 286413.53, 4158220.67 ], [ 286413.45, 4158220.61 ], [ 286413.37, 4158220.55 ], [ 286413.3, 4158220.47 ], [ 286413.24, 4158220.4 ], [ 286413.19, 4158220.31 ], [ 286410.53, 4158215.57 ], [ 286410.48, 4158215.49 ], [ 286410.45, 4158215.4 ], [ 286410.42, 4158215.3 ], [ 286410.4, 4158215.2 ], [ 286410.4, 4158215.11 ], [ 286410.4, 4158215.01 ], [ 286410.41, 4158214.91 ], [ 286410.43, 4158214.81 ], [ 286410.47, 4158214.72 ], [ 286410.51, 4158214.63 ], [ 286410.55, 4158214.55 ], [ 286410.61, 4158214.47 ], [ 286410.68, 4158214.39 ], [ 286410.75, 4158214.33 ], [ 286410.82, 4158214.27 ], [ 286410.91, 4158214.21 ], [ 286420.55, 4158208.79 ], [ 286420.64, 4158208.75 ], [ 286420.73, 4158208.71 ], [ 286420.82, 4158208.69 ], [ 286420.92, 4158208.67 ], [ 286421.02, 4158208.66 ], [ 286421.11, 4158208.67 ], [ 286421.21, 4158208.68 ], [ 286421.31, 4158208.7 ], [ 286421.4, 4158208.73 ], [ 286421.49, 4158208.77 ], [ 286421.58, 4158208.82 ], [ 286421.66, 4158208.88 ], [ 286421.73, 4158208.94 ], [ 286421.8, 4158209.01 ], [ 286421.86, 4158209.09 ], [ 286421.91, 4158209.17 ], [ 286423.48, 4158211.96 ], [ 286430.91, 4158213.02 ], [ 286430.95, 4158213.01 ], [ 286431.05, 4158213.0 ], [ 286431.15, 4158212.99 ], [ 286431.23, 4158213.0 ], [ 286434.57, 4158209.67 ], [ 286432.5, 4158195.2 ], [ 286429.53, 4158192.63 ], [ 286426.13, 4158192.63 ], [ 286423.36, 4158194.48 ], [ 286422.71, 4158196.05 ], [ 286420.55, 4158198.2 ], [ 286419.53, 4158198.63 ], [ 286415.37, 4158198.63 ], [ 286414.72, 4158198.9 ], [ 286412.97, 4158199.79 ], [ 286405.93, 4158206.83 ], [ 286405.58, 4158207.09 ], [ 286404.44, 4158207.7 ], [ 286404.02, 4158207.85 ], [ 286391.57, 4158210.34 ], [ 286390.14, 4158211.43 ], [ 286392.78, 4158216.63 ], [ 286395.09, 4158216.63 ], [ 286396.16, 4158217.11 ], [ 286398.28, 4158219.51 ], [ 286398.63, 4158220.64 ], [ 286397.88, 4158226.67 ], [ 286409.72, 4158250.0 ], [ 286429.39, 4158250.0 ], [ 286429.17, 4158249.09 ], [ 286429.13, 4158248.74 ] ] ], [ [ [ 286357.97, 4158250.0 ], [ 286355.22, 4158238.97 ], [ 286352.9, 4158238.43 ], [ 286352.97, 4158238.74 ], [ 286352.98, 4158238.84 ], [ 286352.99, 4158238.94 ], [ 286352.99, 4158239.04 ], [ 286352.97, 4158239.14 ], [ 286352.95, 4158239.24 ], [ 286352.91, 4158239.33 ], [ 286352.87, 4158239.43 ], [ 286352.82, 4158239.51 ], [ 286352.76, 4158239.59 ], [ 286352.69, 4158239.67 ], [ 286352.62, 4158239.73 ], [ 286352.54, 4158239.79 ], [ 286352.45, 4158239.84 ], [ 286352.36, 4158239.88 ], [ 286352.26, 4158239.92 ], [ 286352.16, 4158239.94 ], [ 286344.01, 4158241.38 ], [ 286343.92, 4158241.39 ], [ 286343.82, 4158241.4 ], [ 286343.73, 4158241.39 ], [ 286343.63, 4158241.38 ], [ 286343.54, 4158241.35 ], [ 286343.45, 4158241.32 ], [ 286343.36, 4158241.28 ], [ 286343.28, 4158241.23 ], [ 286343.21, 4158241.17 ], [ 286343.13, 4158241.11 ], [ 286343.07, 4158241.03 ], [ 286343.01, 4158240.96 ], [ 286342.96, 4158240.88 ], [ 286342.92, 4158240.79 ], [ 286342.89, 4158240.7 ], [ 286342.86, 4158240.61 ], [ 286342.46, 4158238.75 ], [ 286342.12, 4158238.46 ], [ 286341.63, 4158237.59 ], [ 286339.82, 4158226.77 ], [ 286339.85, 4158226.68 ], [ 286339.09, 4158223.17 ], [ 286339.07, 4158223.07 ], [ 286339.07, 4158222.97 ], [ 286339.07, 4158222.87 ], [ 286339.08, 4158222.77 ], [ 286339.11, 4158222.67 ], [ 286339.14, 4158222.58 ], [ 286339.18, 4158222.49 ], [ 286339.24, 4158222.4 ], [ 286339.3, 4158222.32 ], [ 286339.36, 4158222.25 ], [ 286339.44, 4158222.18 ], [ 286339.52, 4158222.12 ], [ 286339.61, 4158222.07 ], [ 286339.7, 4158222.03 ], [ 286339.79, 4158222.0 ], [ 286339.84, 4158221.99 ], [ 286338.8, 4158219.76 ], [ 286322.24, 4158229.15 ], [ 286309.81, 4158240.03 ], [ 286309.52, 4158240.23 ], [ 286308.59, 4158240.72 ], [ 286308.26, 4158240.84 ], [ 286299.4, 4158243.06 ], [ 286297.13, 4158245.97 ], [ 286297.13, 4158246.63 ], [ 286300.13, 4158249.63 ], [ 286306.86, 4158249.63 ], [ 286307.63, 4158249.85 ], [ 286307.88, 4158250.0 ], [ 286357.97, 4158250.0 ] ] ] ] } },
{ "type": "Feature", "properties": { "id": "imagery:groundcover_lawn:2106", "name": null, "kind": "groundcover_lawn", "sport": null, "surface": null, "pitch_layout": null, "source": "vgin_vbmp+naip+lidar2025", "source_updated": null, "base_z": null, "top_z": null }, "geometry": { "type": "Polygon", "coordinates": [ [ [ 286251.45, 4158235.94 ], [ 286251.43, 4158235.84 ], [ 286251.41, 4158235.75 ], [ 286251.41, 4158235.65 ], [ 286251.42, 4158235.55 ], [ 286251.44, 4158235.45 ], [ 286251.47, 4158235.35 ], [ 286251.51, 4158235.26 ], [ 286251.56, 4158235.17 ], [ 286251.61, 4158235.09 ], [ 286251.67, 4158235.01 ], [ 286251.74, 4158234.94 ], [ 286251.82, 4158234.88 ], [ 286251.9, 4158234.83 ], [ 286251.99, 4158234.78 ], [ 286252.08, 4158234.74 ], [ 286261.01, 4158231.64 ], [ 286261.11, 4158231.61 ], [ 286261.2, 4158231.59 ], [ 286261.3, 4158231.58 ], [ 286261.4, 4158231.58 ], [ 286261.49, 4158231.59 ], [ 286261.59, 4158231.61 ], [ 286261.68, 4158231.64 ], [ 286261.77, 4158231.68 ], [ 286261.85, 4158231.72 ], [ 286261.93, 4158231.78 ], [ 286262.01, 4158231.84 ], [ 286262.08, 4158231.91 ], [ 286262.14, 4158231.98 ], [ 286262.2, 4158232.06 ], [ 286262.24, 4158232.15 ], [ 286262.28, 4158232.23 ], [ 286262.4, 4158232.57 ], [ 286264.72, 4158232.11 ], [ 286266.04, 4158230.5 ], [ 286263.42, 4158226.23 ], [ 286261.6, 4158223.39 ], [ 286260.86, 4158222.39 ], [ 286260.33, 4158222.16 ], [ 286259.14, 4158221.94 ], [ 286258.05, 4158221.98 ], [ 286257.22, 4158222.18 ], [ 286255.94, 4158223.04 ], [ 286255.74, 4158223.22 ], [ 286253.23, 4158226.98 ], [ 286252.7, 4158227.46 ], [ 286250.85, 4158228.45 ], [ 286250.16, 4158228.63 ], [ 286250.0, 4158228.63 ], [ 286250.0, 4158245.28 ], [ 286251.65, 4158237.02 ], [ 286251.76, 4158236.81 ], [ 286251.48, 4158236.04 ], [ 286251.45, 4158235.94 ] ] ] } },
{ "type": "Feature", "properties": { "id": "richmond_structure:402181", "name": null, "kind": "deck", "sport": null, "surface": null, "pitch_layout": null, "source": "richmond_structures", "source_updated": "2026-09-08T12:07:13.637000Z", "base_z": null, "top_z": null }, "geometry": { "type": "Polygon", "coordinates": [ [ [ 286368.56, 4158242.09 ], [ 286370.6, 4158241.62 ], [ 286369.58, 4158237.2 ], [ 286367.54, 4158237.67 ], [ 286368.56, 4158242.09 ] ] ] } },
{ "type": "Feature", "properties": { "id": "richmond_structure:305496", "name": null, "kind": "deck", "sport": null, "surface": null, "pitch_layout": null, "source": "richmond_structures", "source_updated": "2026-09-08T12:07:13.637000Z", "base_z": null, "top_z": null }, "geometry": { "type": "Polygon", "coordinates": [ [ [ 286250.0, 4158242.99 ], [ 286254.03, 4158241.36 ], [ 286253.18, 4158239.06 ], [ 286250.0, 4158240.32 ], [ 286250.0, 4158242.99 ] ] ] } },
{ "type": "Feature", "properties": { "id": "richmond_structure:309110", "name": null, "kind": "deck", "sport": null, "surface": null, "pitch_layout": null, "source": "richmond_structures", "source_updated": "2026-09-08T12:07:13.637000Z", "base_z": null, "top_z": null }, "geometry": { "type": "Polygon", "coordinates": [ [ [ 286250.0, 4158250.0 ], [ 286253.78, 4158250.0 ], [ 286256.81, 4158248.84 ], [ 286256.16, 4158247.09 ], [ 286250.0, 4158249.1 ], [ 286250.0, 4158250.0 ] ] ] } },
{ "type": "Feature", "properties": { "id": "richmond_structure:402982", "name": null, "kind": "deck", "sport": null, "surface": null, "pitch_layout": null, "source": "richmond_structures", "source_updated": "2026-09-08T12:07:13.637000Z", "base_z": null, "top_z": null }, "geometry": { "type": "Polygon", "coordinates": [ [ [ 286357.72, 4158250.0 ], [ 286361.31, 4158250.0 ], [ 286354.26, 4158219.43 ], [ 286350.86, 4158220.22 ], [ 286357.72, 4158250.0 ] ] ] } },
{ "type": "Feature", "properties": { "id": "imagery:groundcover_lawn:2388", "name": null, "kind": "groundcover_lawn", "sport": null, "surface": null, "pitch_layout": null, "source": "vgin_vbmp+naip+lidar2025", "source_updated": null, "base_z": null, "top_z": null }, "geometry": { "type": "MultiPolygon", "coordinates": [ [ [ [ 286252.13, 4158025.22 ], [ 286252.13, 4158025.78 ], [ 286251.97, 4158026.44 ], [ 286251.09, 4158028.21 ], [ 286250.65, 4158028.74 ], [ 286250.0, 4158029.22 ], [ 286250.0, 4158038.95 ], [ 286251.11, 4158038.44 ], [ 286251.14, 4158038.39 ], [ 286251.21, 4158038.32 ], [ 286251.28, 4158038.25 ], [ 286251.36, 4158038.2 ], [ 286253.57, 4158036.76 ], [ 286254.12, 4158035.66 ], [ 286254.66, 4158035.06 ], [ 286256.63, 4158033.85 ], [ 286257.4, 4158033.63 ], [ 286258.35, 4158033.63 ], [ 286261.7, 4158031.43 ], [ 286261.79, 4158031.38 ], [ 286261.88, 4158031.34 ], [ 286261.97, 4158031.31 ], [ 286262.06, 4158031.29 ], [ 286262.16, 4158031.27 ], [ 286262.26, 4158031.27 ], [ 286262.36, 4158031.28 ], [ 286262.45, 4158031.29 ], [ 286262.55, 4158031.32 ], [ 286262.64, 4158031.35 ], [ 286262.73, 4158031.39 ], [ 286262.81, 4158031.44 ], [ 286262.89, 4158031.5 ], [ 286262.96, 4158031.57 ], [ 286263.03, 4158031.64 ], [ 286263.09, 4158031.72 ], [ 286266.55, 4158037.01 ], [ 286278.44, 4158053.65 ], [ 286278.64, 4158054.07 ], [ 286279.06, 4158055.37 ], [ 286279.13, 4158055.82 ], [ 286279.13, 4158056.23 ], [ 286279.21, 4158056.35 ], [ 286279.26, 4158056.43 ], [ 286279.3, 4158056.52 ], [ 286279.33, 4158056.61 ], [ 286279.36, 4158056.71 ], [ 286279.37, 4158056.81 ], [ 286279.37, 4158056.91 ], [ 286279.37, 4158057.0 ], [ 286279.35, 4158057.1 ], [ 286279.33, 4158057.2 ], [ 286279.29, 4158057.29 ], [ 286279.25, 4158057.38 ], [ 286279.2, 4158057.46 ], [ 286279.14, 4158057.54 ], [ 286279.13, 4158057.55 ], [ 286279.13, 4158058.65 ], [ 286278.96, 4158059.35 ], [ 286277.97, 4158061.19 ], [ 286277.59, 4158061.61 ], [ 286279.73, 4158066.45 ], [ 286283.47, 4158063.97 ], [ 286283.56, 4158063.92 ], [ 286283.65, 4158063.88 ], [ 286283.74, 4158063.84 ], [ 286283.83, 4158063.82 ], [ 286283.93, 4158063.81 ], [ 286284.03, 4158063.8 ], [ 286284.13, 4158063.81 ], [ 286284.22, 4158063.82 ], [ 286284.32, 4158063.85 ], [ 286284.41, 4158063.88 ], [ 286284.5, 4158063.92 ], [ 286284.58, 4158063.97 ], [ 286284.66, 4158064.03 ], [ 286284.73, 4158064.1 ], [ 286284.8, 4158064.17 ], [ 286284.86, 4158064.25 ], [ 286291.72, 4158074.61 ], [ 286291.77, 4158074.69 ], [ 286291.81, 4158074.78 ], [ 286291.85, 4158074.88 ], [ 286291.87, 4158074.97 ], [ 286291.88, 4158075.07 ], [ 286291.89, 4158075.17 ], [ 286291.88, 4158075.26 ], [ 286291.87, 4158075.36 ], [ 286291.84, 4158075.46 ], [ 286291.81, 4158075.55 ], [ 286291.77, 4158075.64 ], [ 286291.72, 4158075.72 ], [ 286291.66, 4158075.8 ], [ 286291.59, 4158075.87 ], [ 286291.52, 4158075.94 ], [ 286291.44, 4158076.0 ], [ 286290.96, 4158076.32 ], [ 286290.0, 4158079.01 ], [ 286289.02, 4158079.9 ], [ 286283.47, 4158081.29 ], [ 286281.51, 4158082.86 ], [ 286281.3, 4158083.28 ], [ 286283.99, 4158087.63 ], [ 286291.44, 4158087.63 ], [ 286299.25, 4158083.22 ], [ 286309.13, 4158077.64 ], [ 286309.13, 4158076.87 ], [ 286308.25, 4158074.75 ], [ 286295.22, 4158061.71 ], [ 286294.9, 4158061.23 ], [ 286294.24, 4158059.66 ], [ 286294.13, 4158059.09 ], [ 286294.13, 4158043.22 ], [ 286294.55, 4158042.2 ], [ 286296.71, 4158040.05 ], [ 286297.73, 4158039.63 ], [ 286301.59, 4158039.63 ], [ 286302.16, 4158039.74 ], [ 286303.74, 4158040.39 ], [ 286304.22, 4158040.71 ], [ 286308.25, 4158044.75 ], [ 286308.53, 4158045.13 ], [ 286309.16, 4158046.4 ], [ 286309.31, 4158046.85 ], [ 286311.76, 4158064.05 ], [ 286314.73, 4158066.63 ], [ 286326.42, 4158066.63 ], [ 286327.76, 4158066.31 ], [ 286338.5, 4158060.94 ], [ 286339.56, 4158060.06 ], [ 286347.02, 4158050.11 ], [ 286347.54, 4158049.67 ], [ 286349.32, 4158048.78 ], [ 286349.98, 4158048.63 ], [ 286354.97, 4158048.63 ], [ 286357.81, 4158046.57 ], [ 286359.42, 4158041.76 ], [ 286359.23, 4158041.21 ], [ 286360.02, 4158041.26 ], [ 286361.91, 4158039.9 ], [ 286362.77, 4158039.63 ], [ 286370.53, 4158039.63 ], [ 286373.02, 4158038.29 ], [ 286377.04, 4158032.27 ], [ 286377.57, 4158031.79 ], [ 286379.41, 4158030.8 ], [ 286380.11, 4158030.63 ], [ 286385.28, 4158030.63 ], [ 286387.96, 4158028.97 ], [ 286392.58, 4158019.74 ], [ 286392.74, 4158017.45 ], [ 286388.35, 4158004.29 ], [ 286388.46, 4158003.15 ], [ 286389.97, 4158000.39 ], [ 286390.48, 4158000.0 ], [ 286255.13, 4158000.0 ], [ 286255.13, 4158003.02 ], [ 286255.11, 4158003.26 ], [ 286255.0, 4158003.97 ], [ 286254.94, 4158004.2 ], [ 286253.14, 4158009.59 ], [ 286252.49, 4158010.39 ], [ 286250.01, 4158011.83 ], [ 286250.0, 4158011.83 ], [ 286250.0, 4158022.49 ], [ 286251.71, 4158024.2 ], [ 286252.13, 4158025.22 ] ], [ [ 286331.29, 4158048.01 ], [ 286330.37, 4158047.7 ], [ 286328.38, 4158048.85 ], [ 286328.29, 4158048.89 ], [ 286328.2, 4158048.93 ], [ 286328.11, 4158048.96 ], [ 286328.01, 4158048.97 ], [ 286327.91, 4158048.98 ], [ 286327.81, 4158048.98 ], [ 286327.72, 4158048.97 ], [ 286327.62, 4158048.95 ], [ 286327.53, 4158048.92 ], [ 286327.44, 4158048.88 ], [ 286327.35, 4158048.83 ], [ 286327.27, 4158048.77 ], [ 286327.2, 4158048.71 ], [ 286327.13, 4158048.64 ], [ 286327.07, 4158048.56 ], [ 286327.01, 4158048.48 ], [ 286325.6, 4158046.04 ], [ 286325.31, 4158045.85 ], [ 286323.9, 4158044.45 ], [ 286323.55, 4158043.87 ], [ 286322.43, 4158040.54 ], [ 286320.96, 4158037.98 ], [ 286320.92, 4158037.89 ], [ 286320.88, 4158037.8 ], [ 286320.85, 4158037.7 ], [ 286320.84, 4158037.61 ], [ 286320.83, 4158037.51 ], [ 286320.83, 4158037.41 ], [ 286320.84, 4158037.31 ], [ 286320.86, 4158037.22 ], [ 286320.89, 4158037.12 ], [ 286320.93, 4158037.03 ], [ 286320.98, 4158036.95 ], [ 286321.03, 4158036.87 ], [ 286321.1, 4158036.79 ], [ 286321.17, 4158036.73 ], [ 286321.24, 4158036.66 ], [ 286321.33, 4158036.61 ], [ 286332.39, 4158030.24 ], [ 286335.33, 4158025.82 ], [ 286335.71, 4158025.43 ], [ 286337.03, 4158024.5 ], [ 286337.53, 4158024.28 ], [ 286346.72, 4158021.98 ], [ 286349.22, 4158020.54 ], [ 286355.27, 4158014.49 ], [ 286356.07, 4158014.08 ], [ 286358.6, 4158013.67 ], [ 286359.49, 4158013.8 ], [ 286360.25, 4158014.18 ], [ 286362.03, 4158013.16 ], [ 286362.12, 4158013.11 ], [ 286362.21, 4158013.07 ], [ 286362.3, 4158013.05 ], [ 286362.4, 4158013.03 ], [ 286362.5, 4158013.02 ], [ 286362.6, 4158013.02 ], [ 286362.69, 4158013.04 ], [ 286362.79, 4158013.06 ], [ 286362.88, 4158013.09 ], [ 286362.97, 4158013.13 ], [ 286363.06, 4158013.17 ], [ 286363.14, 4158013.23 ], [ 286363.22, 4158013.29 ], [ 286363.28, 4158013.36 ], [ 286363.34, 4158013.44 ], [ 286363.4, 4158013.52 ], [ 286365.21, 4158016.66 ], [ 286367.1, 4158017.61 ], [ 286367.69, 4158018.15 ], [ 286368.91, 4158020.12 ], [ 286369.13, 4158020.9 ], [ 286369.13, 4158023.47 ], [ 286369.46, 4158024.04 ], [ 286369.5, 4158024.12 ], [ 286369.54, 4158024.22 ], [ 286369.57, 4158024.31 ], [ 286369.58, 4158024.41 ], [ 286369.59, 4158024.5 ], [ 286369.59, 4158024.6 ], [ 286369.58, 4158024.7 ], [ 286369.56, 4158024.8 ], [ 286369.53, 4158024.89 ], [ 286369.49, 4158024.98 ], [ 286369.44, 4158025.07 ], [ 286369.39, 4158025.15 ], [ 286369.32, 4158025.22 ], [ 286369.25, 4158025.29 ], [ 286369.17, 4158025.35 ], [ 286369.09, 4158025.4 ], [ 286368.98, 4158025.47 ], [ 286368.86, 4158025.85 ], [ 286367.36, 4158027.93 ], [ 286366.63, 4158028.46 ], [ 286361.11, 4158030.3 ], [ 286359.56, 4158031.48 ], [ 286355.77, 4158037.17 ], [ 286355.91, 4158038.48 ], [ 286355.16, 4158038.54 ], [ 286355.02, 4158038.29 ], [ 286352.85, 4158039.45 ], [ 286352.16, 4158039.63 ], [ 286346.13, 4158039.63 ], [ 286344.33, 4158040.23 ], [ 286334.68, 4158047.46 ], [ 286334.03, 4158047.74 ], [ 286332.0, 4158048.07 ], [ 286331.29, 4158048.01 ] ], [ [ 286303.55, 4158018.2 ], [ 286302.53, 4158018.63 ], [ 286297.73, 4158018.63 ], [ 286296.71, 4158018.2 ], [ 286294.55, 4158016.05 ], [ 286294.21, 4158015.23 ], [ 286294.44, 4158014.57 ], [ 286296.09, 4158012.45 ], [ 286296.89, 4158011.94 ], [ 286301.73, 4158010.73 ], [ 286302.95, 4158010.98 ], [ 286305.59, 4158013.04 ], [ 286306.13, 4158014.16 ], [ 286306.13, 4158015.03 ], [ 286305.71, 4158016.05 ], [ 286303.55, 4158018.2 ] ] ], [ [ [ 286266.14, 4158092.56 ], [ 286266.04, 4158092.55 ], [ 286265.95, 4158092.54 ], [ 286265.85, 4158092.51 ], [ 286265.76, 4158092.48 ], [ 286265.67, 4158092.44 ], [ 286265.59, 4158092.39 ], [ 286265.51, 4158092.33 ], [ 286265.44, 4158092.26 ], [ 286265.39, 4158092.21 ], [ 286261.29, 4158093.57 ], [ 286266.61, 4158101.65 ], [ 286267.42, 4158101.18 ], [ 286267.43, 4158101.18 ], [ 286267.44, 4158101.17 ], [ 286280.38, 4158093.87 ], [ 286279.85, 4158091.21 ], [ 286278.98, 4158091.39 ], [ 286276.03, 4158088.66 ], [ 286268.58, 4158091.14 ], [ 286266.7, 4158092.39 ], [ 286266.61, 4158092.44 ], [ 286266.53, 4158092.48 ], [ 286266.43, 4158092.51 ], [ 286266.34, 4158092.54 ], [ 286266.24, 4158092.55 ], [ 286266.14, 4158092.56 ] ] ], [ [ [ 286253.38, 4158099.91 ], [ 286252.13, 4158100.73 ], [ 286252.13, 4158100.85 ], [ 286251.98, 4158101.49 ], [ 286251.15, 4158103.22 ], [ 286250.74, 4158103.74 ], [ 286250.0, 4158104.33 ], [ 286250.0, 4158111.02 ], [ 286258.36, 4158106.33 ], [ 286253.77, 4158099.4 ], [ 286253.75, 4158099.46 ], [ 286253.71, 4158099.55 ], [ 286253.66, 4158099.63 ], [ 286253.6, 4158099.71 ], [ 286253.53, 4158099.79 ], [ 286253.46, 4158099.85 ], [ 286253.38, 4158099.91 ] ] ], [ [ [ 286294.36, 4158171.43 ], [ 286294.41, 4158171.75 ], [ 286294.73, 4158175.99 ], [ 286294.73, 4158176.3 ], [ 286294.71, 4158176.6 ], [ 286294.66, 4158176.9 ], [ 286294.58, 4158177.19 ], [ 286293.52, 4158180.36 ], [ 286293.41, 4158180.65 ], [ 286293.27, 4158180.92 ], [ 286293.1, 4158181.18 ], [ 286292.91, 4158181.42 ], [ 286289.34, 4158185.44 ], [ 286289.33, 4158185.46 ], [ 286285.71, 4158207.13 ], [ 286288.67, 4158210.63 ], [ 286290.65, 4158210.63 ], [ 286290.65, 4158210.61 ], [ 286290.65, 4158210.51 ], [ 286290.66, 4158210.41 ], [ 286290.68, 4158210.31 ], [ 286290.7, 4158210.22 ], [ 286290.74, 4158210.13 ], [ 286290.79, 4158210.04 ], [ 286290.84, 4158209.96 ], [ 286290.9, 4158209.88 ], [ 286290.97, 4158209.81 ], [ 286291.05, 4158209.75 ], [ 286291.13, 4158209.7 ], [ 286295.27, 4158207.16 ], [ 286295.36, 4158207.11 ], [ 286295.45, 4158207.07 ], [ 286295.54, 4158207.04 ], [ 286295.64, 4158207.02 ], [ 286295.73, 4158207.01 ], [ 286295.83, 4158207.01 ], [ 286295.93, 4158207.02 ], [ 286296.03, 4158207.04 ], [ 286296.12, 4158207.07 ], [ 286296.21, 4158207.1 ], [ 286296.3, 4158207.15 ], [ 286296.38, 4158207.2 ], [ 286296.46, 4158207.26 ], [ 286296.53, 4158207.33 ], [ 286296.59, 4158207.41 ], [ 286296.65, 4158207.49 ], [ 286302.39, 4158216.88 ], [ 286302.43, 4158216.97 ], [ 286302.47, 4158217.06 ], [ 286302.5, 4158217.15 ], [ 286302.52, 4158217.24 ], [ 286302.53, 4158217.34 ], [ 286302.53, 4158217.44 ], [ 286302.52, 4158217.54 ], [ 286302.51, 4158217.63 ], [ 286302.48, 4158217.73 ], [ 286302.44, 4158217.82 ], [ 286302.4, 4158217.91 ], [ 286302.34, 4158217.99 ], [ 286302.28, 4158218.06 ], [ 286302.21, 4158218.13 ], [ 286302.14, 4158218.2 ], [ 286302.06, 4158218.25 ], [ 286301.81, 4158218.4 ], [ 286302.34, 4158219.27 ], [ 286302.39, 4158219.35 ], [ 286302.43, 4158219.44 ], [ 286302.46, 4158219.54 ], [ 286302.48, 4158219.63 ], [ 286302.49, 4158219.73 ], [ 286302.49, 4158219.83 ], [ 286302.48, 4158219.93 ], [ 286302.46, 4158220.02 ], [ 286302.43, 4158220.12 ], [ 286304.08, 4158221.31 ], [ 286308.47, 4158219.85 ], [ 286309.15, 4158214.49 ], [ 286308.09, 4158213.8 ], [ 286306.44, 4158211.68 ], [ 286306.13, 4158210.78 ], [ 286306.13, 4158207.82 ], [ 286304.75, 4158205.56 ], [ 286304.7, 4158205.47 ], [ 286304.66, 4158205.38 ], [ 286304.63, 4158205.29 ], [ 286304.61, 4158205.19 ], [ 286304.6, 4158205.09 ], [ 286304.6, 4158205.0 ], [ 286304.61, 4158204.9 ], [ 286304.63, 4158204.8 ], [ 286304.66, 4158204.71 ], [ 286304.69, 4158204.62 ], [ 286304.74, 4158204.53 ], [ 286304.79, 4158204.45 ], [ 286304.85, 4158204.37 ], [ 286304.92, 4158204.3 ], [ 286305.0, 4158204.24 ], [ 286305.08, 4158204.18 ], [ 286307.3, 4158202.83 ], [ 286306.53, 4158201.57 ], [ 286306.48, 4158201.48 ], [ 286306.44, 4158201.39 ], [ 286306.41, 4158201.3 ], [ 286306.39, 4158201.2 ], [ 286306.38, 4158201.11 ], [ 286306.38, 4158201.01 ], [ 286306.39, 4158200.91 ], [ 286306.41, 4158200.81 ], [ 286306.44, 4158200.72 ], [ 286306.47, 4158200.63 ], [ 286306.52, 4158200.54 ], [ 286306.57, 4158200.46 ], [ 286306.64, 4158200.38 ], [ 286306.7, 4158200.31 ], [ 286306.78, 4158200.25 ], [ 286306.86, 4158200.2 ], [ 286311.0, 4158197.67 ], [ 286311.09, 4158197.62 ], [ 286311.18, 4158197.58 ], [ 286311.27, 4158197.55 ], [ 286311.37, 4158197.53 ], [ 286311.47, 4158197.52 ], [ 286311.57, 4158197.52 ], [ 286311.66, 4158197.53 ], [ 286311.76, 4158197.55 ], [ 286311.85, 4158197.58 ], [ 286311.94, 4158197.61 ], [ 286312.03, 4158197.66 ], [ 286312.11, 4158197.71 ], [ 286312.19, 4158197.77 ], [ 286312.26, 4158197.84 ], [ 286312.32, 4158197.92 ], [ 286312.38, 4158198.0 ], [ 286313.66, 4158200.1 ], [ 286315.13, 4158198.63 ], [ 286315.13, 4158197.51 ], [ 286315.68, 4158196.45 ], [ 286315.0, 4158195.45 ], [ 286314.95, 4158195.37 ], [ 286314.91, 4158195.28 ], [ 286314.87, 4158195.19 ], [ 286314.85, 4158195.1 ], [ 286314.83, 4158195.0 ], [ 286314.83, 4158194.9 ], [ 286314.83, 4158194.8 ], [ 286314.84, 4158194.71 ], [ 286314.87, 4158194.61 ], [ 286314.9, 4158194.52 ], [ 286314.94, 4158194.43 ], [ 286314.99, 4158194.34 ], [ 286315.05, 4158194.26 ], [ 286315.11, 4158194.19 ], [ 286315.18, 4158194.12 ], [ 286315.26, 4158194.06 ], [ 286318.68, 4158191.73 ], [ 286318.76, 4158191.68 ], [ 286318.85, 4158191.64 ], [ 286318.94, 4158191.61 ], [ 286319.04, 4158191.58 ], [ 286319.13, 4158191.57 ], [ 286319.23, 4158191.56 ], [ 286319.33, 4158191.56 ], [ 286319.43, 4158191.58 ], [ 286319.52, 4158191.6 ], [ 286319.61, 4158191.63 ], [ 286319.7, 4158191.67 ], [ 286319.79, 4158191.72 ], [ 286319.87, 4158191.78 ], [ 286319.94, 4158191.85 ], [ 286320.01, 4158191.92 ], [ 286320.07, 4158192.0 ], [ 286321.63, 4158194.29 ], [ 286324.92, 4158192.48 ], [ 286326.05, 4158187.94 ], [ 286325.08, 4158186.11 ], [ 286325.03, 4158186.02 ], [ 286325.0, 4158185.92 ], [ 286324.98, 4158185.83 ], [ 286324.96, 4158185.73 ], [ 286324.96, 4158185.63 ], [ 286324.96, 4158185.54 ], [ 286324.98, 4158185.44 ], [ 286325.0, 4158185.34 ], [ 286325.04, 4158185.25 ], [ 286325.08, 4158185.16 ], [ 286325.13, 4158185.08 ], [ 286325.19, 4158185.0 ], [ 286325.25, 4158184.93 ], [ 286325.32, 4158184.86 ], [ 286325.4, 4158184.8 ], [ 286325.49, 4158184.75 ], [ 286327.29, 4158183.79 ], [ 286327.62, 4158183.21 ], [ 286327.86, 4158182.89 ], [ 286332.04, 4158178.71 ], [ 286332.53, 4158178.39 ], [ 286334.1, 4158177.74 ], [ 286334.67, 4158177.63 ], [ 286338.84, 4158177.63 ], [ 286339.47, 4158177.29 ], [ 286342.13, 4158174.63 ], [ 286342.13, 4158167.57 ], [ 286317.33, 4158129.63 ], [ 286317.18, 4158129.63 ], [ 286316.46, 4158129.44 ], [ 286314.58, 4158128.4 ], [ 286314.05, 4158127.89 ], [ 286301.29, 4158107.47 ], [ 286298.02, 4158106.15 ], [ 286280.53, 4158110.53 ], [ 286279.47, 4158110.3 ], [ 286271.25, 4158114.84 ], [ 286271.21, 4158114.86 ], [ 286263.95, 4158118.78 ], [ 286266.14, 4158122.26 ], [ 286274.82, 4158136.05 ], [ 286279.2, 4158137.14 ], [ 286280.21, 4158138.12 ], [ 286281.17, 4158141.59 ], [ 286280.81, 4158142.95 ], [ 286280.17, 4158143.59 ], [ 286279.89, 4158144.4 ], [ 286288.69, 4158160.65 ], [ 286294.05, 4158170.53 ], [ 286294.18, 4158170.82 ], [ 286294.29, 4158171.12 ], [ 286294.36, 4158171.43 ] ] ], [ [ [ 286364.48, 4158070.92 ], [ 286364.58, 4158070.94 ], [ 286364.68, 4158070.97 ], [ 286364.77, 4158071.0 ], [ 286364.86, 4158071.04 ], [ 286364.94, 4158071.1 ], [ 286365.02, 4158071.16 ], [ 286365.09, 4158071.22 ], [ 286365.15, 4158071.3 ], [ 286365.21, 4158071.38 ], [ 286365.41, 4158071.7 ], [ 286366.8, 4158072.04 ], [ 286367.14, 4158071.89 ], [ 286370.61, 4158069.67 ], [ 286371.12, 4158068.66 ], [ 286371.66, 4158068.06 ], [ 286373.63, 4158066.85 ], [ 286374.81, 4158066.51 ], [ 286376.96, 4158063.21 ], [ 286373.99, 4158060.63 ], [ 286370.13, 4158060.63 ], [ 286368.33, 4158061.23 ], [ 286362.17, 4158065.84 ], [ 286363.25, 4158071.15 ], [ 286363.57, 4158071.24 ], [ 286363.83, 4158071.07 ], [ 286363.91, 4158071.02 ], [ 286364.0, 4158070.98 ], [ 286364.1, 4158070.95 ], [ 286364.19, 4158070.93 ], [ 286364.29, 4158070.92 ], [ 286364.39, 4158070.92 ], [ 286364.48, 4158070.92 ] ] ], [ [ [ 286405.66, 4158145.51 ], [ 286405.5, 4158145.14 ], [ 286405.19, 4158143.99 ], [ 286405.13, 4158143.59 ], [ 286405.13, 4158138.28 ], [ 286403.87, 4158136.22 ], [ 286403.82, 4158136.13 ], [ 286403.78, 4158136.04 ], [ 286403.75, 4158135.95 ], [ 286403.73, 4158135.85 ], [ 286403.72, 4158135.75 ], [ 286403.72, 4158135.65 ], [ 286403.73, 4158135.56 ], [ 286403.33, 4158135.28 ], [ 286402.87, 4158135.04 ], [ 286402.23, 4158134.15 ], [ 286399.09, 4158136.16 ], [ 286399.01, 4158136.21 ], [ 286398.92, 4158136.25 ], [ 286398.83, 4158136.28 ], [ 286398.73, 4158136.3 ], [ 286398.63, 4158136.31 ], [ 286398.53, 4158136.32 ], [ 286398.44, 4158136.31 ], [ 286398.34, 4158136.29 ], [ 286398.25, 4158136.27 ], [ 286398.15, 4158136.23 ], [ 286398.07, 4158136.19 ], [ 286397.98, 4158136.14 ], [ 286397.9, 4158136.08 ], [ 286397.83, 4158136.01 ], [ 286397.77, 4158135.93 ], [ 286397.71, 4158135.85 ], [ 286393.46, 4158129.21 ], [ 286393.42, 4158129.13 ], [ 286393.38, 4158129.04 ], [ 286393.34, 4158128.94 ], [ 286393.32, 4158128.85 ], [ 286393.31, 4158128.75 ], [ 286393.31, 4158128.65 ], [ 286393.31, 4158128.55 ], [ 286393.33, 4158128.46 ], [ 286393.36, 4158128.36 ], [ 286393.39, 4158128.27 ], [ 286393.43, 4158128.18 ], [ 286393.49, 4158128.1 ], [ 286393.55, 4158128.02 ], [ 286393.61, 4158127.95 ], [ 286393.69, 4158127.89 ], [ 286393.77, 4158127.83 ], [ 286396.08, 4158126.36 ], [ 286395.71, 4158126.2 ], [ 286393.55, 4158124.05 ], [ 286393.13, 4158123.03 ], [ 286393.13, 4158121.3 ], [ 286391.68, 4158119.07 ], [ 286391.63, 4158118.98 ], [ 286391.59, 4158118.89 ], [ 286391.55, 4158118.8 ], [ 286391.53, 4158118.7 ], [ 286391.52, 4158118.61 ], [ 286391.51, 4158118.51 ], [ 286391.52, 4158118.41 ], [ 286391.53, 4158118.31 ], [ 286391.56, 4158118.22 ], [ 286391.59, 4158118.13 ], [ 286391.64, 4158118.04 ], [ 286391.69, 4158117.96 ], [ 286391.75, 4158117.88 ], [ 286391.81, 4158117.81 ], [ 286391.89, 4158117.74 ], [ 286391.97, 4158117.68 ], [ 286393.13, 4158116.92 ], [ 286393.13, 4158114.61 ], [ 286393.46, 4158113.68 ], [ 286395.21, 4158111.55 ], [ 286396.05, 4158111.04 ], [ 286404.8, 4158109.29 ], [ 286407.06, 4158105.4 ], [ 286405.81, 4158101.68 ], [ 286402.97, 4158099.63 ], [ 286385.02, 4158099.63 ], [ 286382.46, 4158100.98 ], [ 286382.37, 4158101.03 ], [ 286382.27, 4158101.06 ], [ 286382.18, 4158101.08 ], [ 286382.08, 4158101.1 ], [ 286381.98, 4158101.1 ], [ 286381.89, 4158101.1 ], [ 286381.79, 4158101.08 ], [ 286381.69, 4158101.06 ], [ 286381.6, 4158101.02 ], [ 286381.51, 4158100.98 ], [ 286381.43, 4158100.93 ], [ 286381.35, 4158100.87 ], [ 286381.28, 4158100.81 ], [ 286381.21, 4158100.73 ], [ 286381.15, 4158100.65 ], [ 286381.1, 4158100.57 ], [ 286377.62, 4158093.98 ], [ 286377.58, 4158093.9 ], [ 286377.54, 4158093.8 ], [ 286377.52, 4158093.71 ], [ 286377.51, 4158093.61 ], [ 286377.5, 4158093.51 ], [ 286377.51, 4158093.41 ], [ 286377.52, 4158093.32 ], [ 286377.55, 4158093.22 ], [ 286377.58, 4158093.13 ], [ 286377.62, 4158093.04 ], [ 286377.67, 4158092.96 ], [ 286377.73, 4158092.88 ], [ 286377.8, 4158092.81 ], [ 286377.87, 4158092.74 ], [ 286377.95, 4158092.68 ], [ 286378.03, 4158092.63 ], [ 286379.93, 4158091.63 ], [ 286376.84, 4158088.1 ], [ 286357.05, 4158090.3 ], [ 286356.82, 4158090.25 ], [ 286356.8, 4158090.25 ], [ 286356.71, 4158090.28 ], [ 286356.61, 4158090.31 ], [ 286356.52, 4158090.32 ], [ 286356.42, 4158090.32 ], [ 286356.32, 4158090.31 ], [ 286356.22, 4158090.3 ], [ 286356.13, 4158090.27 ], [ 286356.04, 4158090.24 ], [ 286355.95, 4158090.19 ], [ 286355.87, 4158090.14 ], [ 286355.79, 4158090.08 ], [ 286355.72, 4158090.01 ], [ 286355.65, 4158089.94 ], [ 286355.6, 4158089.86 ], [ 286355.48, 4158089.68 ], [ 286353.8, 4158088.6 ], [ 286353.2, 4158087.84 ], [ 286352.13, 4158084.61 ], [ 286352.13, 4158084.42 ], [ 286351.75, 4158083.82 ], [ 286351.7, 4158083.73 ], [ 286351.66, 4158083.64 ], [ 286351.63, 4158083.55 ], [ 286351.6, 4158083.45 ], [ 286351.59, 4158083.36 ], [ 286351.59, 4158083.26 ], [ 286351.6, 4158083.16 ], [ 286351.61, 4158083.06 ], [ 286351.64, 4158082.97 ], [ 286351.67, 4158082.88 ], [ 286351.72, 4158082.79 ], [ 286351.77, 4158082.71 ], [ 286351.83, 4158082.63 ], [ 286351.9, 4158082.56 ], [ 286351.97, 4158082.49 ], [ 286352.05, 4158082.44 ], [ 286352.85, 4158081.93 ], [ 286353.25, 4158080.96 ], [ 286353.94, 4158080.22 ], [ 286355.47, 4158079.45 ], [ 286357.13, 4158076.77 ], [ 286357.13, 4158075.63 ], [ 286354.13, 4158072.63 ], [ 286349.99, 4158072.63 ], [ 286347.3, 4158074.28 ], [ 286345.78, 4158077.33 ], [ 286345.89, 4158077.52 ], [ 286353.51, 4158089.22 ], [ 286381.73, 4158132.59 ], [ 286394.47, 4158150.63 ], [ 286396.15, 4158150.63 ], [ 286397.07, 4158150.96 ], [ 286399.21, 4158152.71 ], [ 286399.72, 4158153.55 ], [ 286400.75, 4158158.72 ], [ 286405.27, 4158160.69 ], [ 286406.63, 4158159.85 ], [ 286407.4, 4158159.63 ], [ 286408.83, 4158159.63 ], [ 286411.41, 4158155.08 ], [ 286405.66, 4158145.51 ] ] ], [ [ [ 286363.13, 4158150.63 ], [ 286365.9, 4158148.77 ], [ 286366.55, 4158147.2 ], [ 286368.71, 4158145.05 ], [ 286370.28, 4158144.4 ], [ 286372.13, 4158141.63 ], [ 286372.13, 4158138.26 ], [ 286372.41, 4158137.4 ], [ 286373.91, 4158135.32 ], [ 286374.63, 4158134.79 ], [ 286375.66, 4158134.45 ], [ 286348.4, 4158092.55 ], [ 286342.61, 4158083.66 ], [ 286333.45, 4158101.99 ], [ 286333.13, 4158103.33 ], [ 286333.13, 4158108.74 ], [ 286333.16, 4158108.76 ], [ 286333.24, 4158108.81 ], [ 286333.32, 4158108.88 ], [ 286333.38, 4158108.95 ], [ 286333.44, 4158109.03 ], [ 286336.71, 4158113.72 ], [ 286337.55, 4158113.13 ], [ 286337.63, 4158113.08 ], [ 286337.72, 4158113.04 ], [ 286337.81, 4158113.0 ], [ 286337.9, 4158112.98 ], [ 286338.0, 4158112.96 ], [ 286338.1, 4158112.96 ], [ 286338.2, 4158112.96 ], [ 286338.29, 4158112.97 ], [ 286338.39, 4158112.99 ], [ 286338.48, 4158113.02 ], [ 286338.57, 4158113.06 ], [ 286338.66, 4158113.11 ], [ 286338.74, 4158113.17 ], [ 286338.81, 4158113.23 ], [ 286338.88, 4158113.31 ], [ 286338.94, 4158113.38 ], [ 286341.48, 4158117.03 ], [ 286341.53, 4158117.11 ], [ 286341.58, 4158117.2 ], [ 286341.61, 4158117.29 ], [ 286341.64, 4158117.38 ], [ 286341.65, 4158117.48 ], [ 286341.66, 4158117.58 ], [ 286341.66, 4158117.68 ], [ 286341.65, 4158117.77 ], [ 286341.62, 4158117.87 ], [ 286341.59, 4158117.96 ], [ 286341.55, 4158118.05 ], [ 286341.5, 4158118.14 ], [ 286341.45, 4158118.22 ], [ 286341.38, 4158118.29 ], [ 286341.31, 4158118.36 ], [ 286341.23, 4158118.42 ], [ 286332.95, 4158124.2 ], [ 286332.86, 4158124.25 ], [ 286332.78, 4158124.29 ], [ 286332.68, 4158124.33 ], [ 286332.59, 4158124.35 ], [ 286332.49, 4158124.37 ], [ 286332.39, 4158124.38 ], [ 286332.3, 4158124.37 ], [ 286332.2, 4158124.36 ], [ 286332.1, 4158124.34 ], [ 286332.01, 4158124.31 ], [ 286331.92, 4158124.27 ], [ 286331.84, 4158124.22 ], [ 286331.76, 4158124.16 ], [ 286331.68, 4158124.1 ], [ 286331.61, 4158124.02 ], [ 286331.55, 4158123.95 ], [ 286330.58, 4158122.55 ], [ 286328.18, 4158122.95 ], [ 286331.08, 4158127.29 ], [ 286331.17, 4158127.44 ], [ 286331.25, 4158127.61 ], [ 286334.47, 4158135.51 ], [ 286343.75, 4158149.24 ], [ 286344.71, 4158150.2 ], [ 286345.13, 4158151.22 ], [ 286345.13, 4158151.29 ], [ 286350.76, 4158159.63 ], [ 286351.13, 4158159.63 ], [ 286354.13, 4158156.63 ], [ 286354.13, 4158154.22 ], [ 286354.55, 4158153.2 ], [ 286356.71, 4158151.05 ], [ 286357.73, 4158150.63 ], [ 286363.13, 4158150.63 ] ] ] ] } }
]
}
