{
"type": "FeatureCollection",
"name": "roads",
"crs": { "type": "name", "properties": { "name": "urn:ogc:def:crs:EPSG::32618" } },
"xy_coordinate_resolution": 0.01,
"features": [
{ "type": "Feature", "properties": { "id": "osm:way/908615176", "name": null, "highway": "service", "lanes": null, "width": 4.5, "oneway": false, "surface": null, "footway": null, "sidewalk_left": false, "sidewalk_right": false, "generated_sidewalk": false, "bus_lanes": null, "bus_lane_side": null, "bus_only": false, "sidewalk": false, "bridge": false, "ramp": false, "tunnel": false, "layer": 0, "deck": null }, "geometry": { "type": "LineString", "coordinates": [ [ 285792.46, 4158263.06 ], [ 285790.75, 4158250.0 ] ] } },
{ "type": "Feature", "properties": { "id": "osm:way/657445968", "name": "Oliver Hill Way", "highway": "primary", "lanes": 2.0, "width": 11.0, "oneway": true, "surface": "paved", "footway": null, "sidewalk_left": null, "sidewalk_right": false, "generated_sidewalk": true, "bus_lanes": null, "bus_lane_side": null, "bus_only": false, "sidewalk": false, "bridge": false, "ramp": false, "tunnel": false, "layer": 0, "deck": null }, "geometry": { "type": "LineString", "coordinates": [ [ 285841.52, 4158343.52 ], [ 285834.71, 4158276.7 ], [ 285831.93, 4158250.0 ] ] } },
{ "type": "Feature", "properties": { "id": "osm:way/908615177", "name": null, "highway": "service", "lanes": null, "width": 4.5, "oneway": false, "surface": null, "footway": null, "sidewalk_left": false, "sidewalk_right": false, "generated_sidewalk": false, "bus_lanes": null, "bus_lane_side": null, "bus_only": false, "sidewalk": false, "bridge": false, "ramp": false, "tunnel": true, "layer": 0, "deck": null }, "geometry": { "type": "LineString", "coordinates": [ [ 285792.85, 4158267.62 ], [ 285792.46, 4158263.06 ] ] } },
{ "type": "Feature", "properties": { "id": "osm:way/908615175", "name": null, "highway": "service", "lanes": null, "width": 4.5, "oneway": false, "surface": null, "footway": null, "sidewalk_left": false, "sidewalk_right": false, "generated_sidewalk": false, "bus_lanes": null, "bus_lane_side": null, "bus_only": false, "sidewalk": false, "bridge": false, "ramp": false, "tunnel": false, "layer": 0, "deck": null }, "geometry": { "type": "LineString", "coordinates": [ [ 285834.71, 4158276.7 ], [ 285827.87, 4158277.31 ], [ 285798.99, 4158279.88 ], [ 285795.38, 4158278.13 ], [ 285793.21, 4158273.69 ], [ 285792.85, 4158267.62 ] ] } },
{ "type": "Feature", "properties": { "id": "osm:way/1212923649", "name": null, "highway": "footway", "lanes": null, "width": 2.0, "oneway": false, "surface": null, "footway": "crossing", "sidewalk_left": false, "sidewalk_right": false, "generated_sidewalk": false, "bus_lanes": null, "bus_lane_side": null, "bus_only": false, "sidewalk": false, "bridge": false, "ramp": false, "tunnel": false, "layer": 0, "deck": null }, "geometry": { "type": "LineString", "coordinates": [ [ 285828.33, 4158280.34 ], [ 285827.87, 4158277.31 ], [ 285826.91, 4158270.96 ] ] } },
{ "type": "Feature", "properties": { "id": "osm:way/1212923648", "name": null, "highway": "footway", "lanes": null, "width": 2.0, "oneway": false, "surface": null, "footway": "sidewalk", "sidewalk_left": false, "sidewalk_right": false, "generated_sidewalk": false, "bus_lanes": null, "bus_lane_side": null, "bus_only": false, "sidewalk": false, "bridge": false, "ramp": false, "tunnel": false, "layer": 0, "deck": null }, "geometry": { "type": "LineString", "coordinates": [ [ 285834.35, 4158339.93 ], [ 285828.33, 4158280.34 ] ] } },
{ "type": "Feature", "properties": { "id": "osm:way/1046182288", "name": "Oliver Hill Way", "highway": "primary", "lanes": 3.0, "width": 11.0, "oneway": true, "surface": "paved", "footway": null, "sidewalk_left": null, "sidewalk_right": false, "generated_sidewalk": true, "bus_lanes": null, "bus_lane_side": null, "bus_only": false, "sidewalk": false, "bridge": false, "ramp": false, "tunnel": false, "layer": 0, "deck": null }, "geometry": { "type": "LineString", "coordinates": [ [ 285855.46, 4158319.39 ], [ 285858.2, 4158345.41 ] ] } },
{ "type": "Feature", "properties": { "id": "osm:way/1212923647", "name": null, "highway": "footway", "lanes": null, "width": 2.0, "oneway": false, "surface": null, "footway": "crossing", "sidewalk_left": false, "sidewalk_right": false, "generated_sidewalk": false, "bus_lanes": null, "bus_lane_side": null, "bus_only": false, "sidewalk": false, "bridge": false, "ramp": false, "tunnel": false, "layer": 0, "deck": null }, "geometry": { "type": "LineString", "coordinates": [ [ 285835.02, 4158348.02 ], [ 285834.7, 4158344.16 ], [ 285834.35, 4158339.93 ] ] } },
{ "type": "Feature", "properties": { "id": "osm:way/768423254", "name": null, "highway": "service", "lanes": null, "width": 4.5, "oneway": false, "surface": null, "footway": null, "sidewalk_left": false, "sidewalk_right": false, "generated_sidewalk": false, "bus_lanes": null, "bus_lane_side": null, "bus_only": false, "sidewalk": false, "bridge": false, "ramp": false, "tunnel": false, "layer": 0, "deck": null }, "geometry": { "type": "LineString", "coordinates": [ [ 285821.41, 4158345.4 ], [ 285827.96, 4158413.35 ] ] } },
{ "type": "Feature", "properties": { "id": "osm:way/768423255", "name": null, "highway": "service", "lanes": null, "width": 4.5, "oneway": false, "surface": null, "footway": null, "sidewalk_left": false, "sidewalk_right": false, "generated_sidewalk": false, "bus_lanes": null, "bus_lane_side": null, "bus_only": false, "sidewalk": false, "bridge": false, "ramp": false, "tunnel": false, "layer": 0, "deck": null }, "geometry": { "type": "LineString", "coordinates": [ [ 285808.11, 4158415.37 ], [ 285801.86, 4158347.24 ] ] } },
{ "type": "Feature", "properties": { "id": "osm:way/275869783", "name": "Oliver Hill Way", "highway": "primary", "lanes": 2.0, "width": 11.0, "oneway": true, "surface": "paved", "footway": null, "sidewalk_left": null, "sidewalk_right": false, "generated_sidewalk": true, "bus_lanes": null, "bus_lane_side": null, "bus_only": false, "sidewalk": false, "bridge": false, "ramp": false, "tunnel": false, "layer": 0, "deck": null }, "geometry": { "type": "LineString", "coordinates": [ [ 285848.15, 4158250.0 ], [ 285855.46, 4158319.39 ] ] } },
{ "type": "Feature", "properties": { "id": "osm:way/1452999389", "name": null, "highway": "footway", "lanes": null, "width": 2.0, "oneway": false, "surface": null, "footway": "sidewalk", "sidewalk_left": false, "sidewalk_right": false, "generated_sidewalk": false, "bus_lanes": null, "bus_lane_side": null, "bus_only": false, "sidewalk": false, "bridge": false, "ramp": false, "tunnel": false, "layer": 0, "deck": null }, "geometry": { "type": "LineString", "coordinates": [ [ 285900.47, 4158278.32 ], [ 285918.07, 4158276.53 ] ] } },
{ "type": "Feature", "properties": { "id": "osm:way/1452999390", "name": null, "highway": "footway", "lanes": null, "width": 2.0, "oneway": false, "surface": null, "footway": null, "sidewalk_left": false, "sidewalk_right": false, "generated_sidewalk": false, "bus_lanes": null, "bus_lane_side": null, "bus_only": false, "sidewalk": false, "bridge": false, "ramp": false, "tunnel": false, "layer": 0, "deck": null }, "geometry": { "type": "LineString", "coordinates": [ [ 285938.41, 4158303.14 ], [ 285937.57, 4158294.89 ], [ 285936.88, 4158288.23 ], [ 285933.61, 4158257.89 ], [ 285916.34, 4158259.88 ], [ 285918.07, 4158276.53 ] ] } },
{ "type": "Feature", "properties": { "id": "osm:way/1452999387", "name": null, "highway": "footway", "lanes": null, "width": 2.0, "oneway": false, "surface": null, "footway": null, "sidewalk_left": false, "sidewalk_right": false, "generated_sidewalk": false, "bus_lanes": null, "bus_lane_side": null, "bus_only": false, "sidewalk": false, "bridge": false, "ramp": false, "tunnel": false, "layer": 0, "deck": null }, "geometry": { "type": "LineString", "coordinates": [ [ 285919.52, 4158290.09 ], [ 285936.88, 4158288.23 ], [ 285945.92, 4158287.25 ], [ 285947.3, 4158302.24 ] ] } },
{ "type": "Feature", "properties": { "id": "osm:way/1452999388", "name": null, "highway": "footway", "lanes": null, "width": 2.0, "oneway": false, "surface": null, "footway": null, "sidewalk_left": false, "sidewalk_right": false, "generated_sidewalk": false, "bus_lanes": null, "bus_lane_side": null, "bus_only": false, "sidewalk": false, "bridge": false, "ramp": false, "tunnel": false, "layer": 0, "deck": null }, "geometry": { "type": "LineString", "coordinates": [ [ 285920.28, 4158296.8 ], [ 285937.57, 4158294.89 ] ] } },
{ "type": "Feature", "properties": { "id": "osm:way/1452999371", "name": null, "highway": "footway", "lanes": null, "width": 2.0, "oneway": false, "surface": null, "footway": "sidewalk", "sidewalk_left": false, "sidewalk_right": false, "generated_sidewalk": false, "bus_lanes": null, "bus_lane_side": null, "bus_only": false, "sidewalk": false, "bridge": false, "ramp": false, "tunnel": false, "layer": 0, "deck": null }, "geometry": { "type": "LineString", "coordinates": [ [ 285918.07, 4158276.53 ], [ 285919.52, 4158290.09 ], [ 285920.28, 4158296.8 ], [ 285921.93, 4158312.56 ], [ 285930.0, 4158311.72 ], [ 285930.77, 4158310.86 ], [ 285931.01, 4158309.32 ], [ 285931.55, 4158307.65 ], [ 285932.5, 4158306.3 ], [ 285933.77, 4158305.07 ], [ 285935.15, 4158304.09 ], [ 285936.61, 4158303.42 ], [ 285938.41, 4158303.14 ], [ 285947.3, 4158302.24 ], [ 285955.66, 4158301.4 ], [ 285957.27, 4158301.39 ], [ 285958.81, 4158301.53 ], [ 285960.39, 4158301.88 ], [ 285961.89, 4158302.46 ], [ 285963.36, 4158303.1 ], [ 285964.81, 4158303.96 ], [ 285966.07, 4158304.86 ], [ 285967.12, 4158305.89 ], [ 285967.94, 4158306.85 ], [ 285968.49, 4158307.73 ], [ 285968.72, 4158308.67 ], [ 285969.14, 4158312.71 ], [ 285969.91, 4158320.09 ], [ 285970.06, 4158321.53 ] ] } },
{ "type": "Feature", "properties": { "id": "osm:way/1426094232", "name": null, "highway": "footway", "lanes": null, "width": 2.0, "oneway": false, "surface": "concrete", "footway": "sidewalk", "sidewalk_left": false, "sidewalk_right": false, "generated_sidewalk": false, "bus_lanes": null, "bus_lane_side": null, "bus_only": false, "sidewalk": false, "bridge": false, "ramp": false, "tunnel": false, "layer": 0, "deck": null }, "geometry": { "type": "LineString", "coordinates": [ [ 285914.77, 4158438.71 ], [ 285888.51, 4158441.36 ], [ 285884.03, 4158440.85 ], [ 285882.11, 4158439.98 ], [ 285877.98, 4158436.48 ], [ 285875.46, 4158433.22 ], [ 285873.97, 4158429.42 ], [ 285866.65, 4158360.25 ], [ 285855.28, 4158250.0 ] ] } },
{ "type": "Feature", "properties": { "id": "osm:way/857076183", "name": null, "highway": "service", "lanes": null, "width": 4.5, "oneway": false, "surface": null, "footway": null, "sidewalk_left": false, "sidewalk_right": false, "generated_sidewalk": false, "bus_lanes": null, "bus_lane_side": null, "bus_only": false, "sidewalk": false, "bridge": false, "ramp": false, "tunnel": false, "layer": 0, "deck": null }, "geometry": { "type": "MultiLineString", "coordinates": [ [ [ 285964.91, 4158364.89 ], [ 285953.85, 4158366.31 ], [ 285941.18, 4158367.69 ], [ 285928.91, 4158368.84 ], [ 285917.79, 4158369.81 ] ], [ [ 285917.79, 4158369.81 ], [ 285897.09, 4158372.0 ] ], [ [ 285897.09, 4158372.0 ], [ 285900.51, 4158407.54 ], [ 285901.93, 4158411.76 ], [ 285904.76, 4158414.9 ], [ 285908.48, 4158415.87 ], [ 285916.1, 4158415.79 ], [ 285920.57, 4158413.42 ], [ 285921.89, 4158408.88 ], [ 285917.79, 4158369.81 ] ], [ [ 285917.79, 4158369.81 ], [ 285910.68, 4158293.28 ], [ 285909.4, 4158289.74 ], [ 285905.51, 4158287.24 ], [ 285899.09, 4158287.76 ], [ 285891.6, 4158288.66 ], [ 285889.29, 4158291.81 ], [ 285888.92, 4158295.98 ], [ 285897.09, 4158372.0 ] ] ] } },
{ "type": "Feature", "properties": { "id": "osm:way/1046182287", "name": "Oliver Hill Way", "highway": "primary", "lanes": 3.0, "width": 11.0, "oneway": true, "surface": "paved", "footway": null, "sidewalk_left": null, "sidewalk_right": false, "generated_sidewalk": true, "bus_lanes": null, "bus_lane_side": null, "bus_only": false, "sidewalk": false, "bridge": false, "ramp": false, "tunnel": false, "layer": 0, "deck": null }, "geometry": { "type": "LineString", "coordinates": [ [ 285858.2, 4158345.41 ], [ 285867.32, 4158432.04 ], [ 285868.29, 4158440.65 ], [ 285869.18, 4158448.62 ] ] } },
{ "type": "Feature", "properties": { "id": "osm:way/1452999383", "name": null, "highway": "footway", "lanes": null, "width": 2.0, "oneway": false, "surface": null, "footway": "sidewalk", "sidewalk_left": false, "sidewalk_right": false, "generated_sidewalk": false, "bus_lanes": null, "bus_lane_side": null, "bus_only": false, "sidewalk": false, "bridge": false, "ramp": false, "tunnel": false, "layer": 0, "deck": null }, "geometry": { "type": "LineString", "coordinates": [ [ 285941.13, 4158435.76 ], [ 285914.77, 4158438.71 ] ] } },
{ "type": "Feature", "properties": { "id": "osm:way/1452999378", "name": null, "highway": "footway", "lanes": null, "width": 2.0, "oneway": false, "surface": null, "footway": "sidewalk", "sidewalk_left": false, "sidewalk_right": false, "generated_sidewalk": false, "bus_lanes": null, "bus_lane_side": null, "bus_only": false, "sidewalk": false, "bridge": false, "ramp": false, "tunnel": false, "layer": 0, "deck": null }, "geometry": { "type": "LineString", "coordinates": [ [ 285947.38, 4158303.1 ], [ 285947.3, 4158302.24 ] ] } },
{ "type": "Feature", "properties": { "id": "osm:way/1452999372", "name": null, "highway": "footway", "lanes": null, "width": 2.0, "oneway": false, "surface": null, "footway": "crossing", "sidewalk_left": false, "sidewalk_right": false, "generated_sidewalk": false, "bus_lanes": null, "bus_lane_side": null, "bus_only": false, "sidewalk": false, "bridge": false, "ramp": false, "tunnel": false, "layer": 0, "deck": null }, "geometry": { "type": "LineString", "coordinates": [ [ 285947.38, 4158303.1 ], [ 285947.76, 4158307.19 ], [ 285948.06, 4158310.43 ] ] } },
{ "type": "Feature", "properties": { "id": "osm:way/1452999381", "name": null, "highway": "footway", "lanes": null, "width": 2.0, "oneway": false, "surface": null, "footway": "access_aisle", "sidewalk_left": false, "sidewalk_right": false, "generated_sidewalk": false, "bus_lanes": null, "bus_lane_side": null, "bus_only": false, "sidewalk": false, "bridge": false, "ramp": false, "tunnel": false, "layer": 0, "deck": null }, "geometry": { "type": "LineString", "coordinates": [ [ 285969.14, 4158312.71 ], [ 285963.36, 4158313.32 ] ] } },
{ "type": "Feature", "properties": { "id": "osm:way/1452999382", "name": null, "highway": "footway", "lanes": null, "width": 2.0, "oneway": false, "surface": null, "footway": "link", "sidewalk_left": false, "sidewalk_right": false, "generated_sidewalk": false, "bus_lanes": null, "bus_lane_side": null, "bus_only": false, "sidewalk": false, "bridge": false, "ramp": false, "tunnel": false, "layer": 0, "deck": null }, "geometry": { "type": "LineString", "coordinates": [ [ 285963.36, 4158313.32 ], [ 285959.55, 4158313.72 ] ] } },
{ "type": "Feature", "properties": { "id": "osm:way/1452999379", "name": null, "highway": "footway", "lanes": null, "width": 2.0, "oneway": false, "surface": null, "footway": "access_aisle", "sidewalk_left": false, "sidewalk_right": false, "generated_sidewalk": false, "bus_lanes": null, "bus_lane_side": null, "bus_only": false, "sidewalk": false, "bridge": false, "ramp": false, "tunnel": false, "layer": 0, "deck": null }, "geometry": { "type": "LineString", "coordinates": [ [ 285969.91, 4158320.09 ], [ 285964.15, 4158320.69 ] ] } },
{ "type": "Feature", "properties": { "id": "osm:way/1452999380", "name": null, "highway": "footway", "lanes": null, "width": 2.0, "oneway": false, "surface": null, "footway": "link", "sidewalk_left": false, "sidewalk_right": false, "generated_sidewalk": false, "bus_lanes": null, "bus_lane_side": null, "bus_only": false, "sidewalk": false, "bridge": false, "ramp": false, "tunnel": false, "layer": 0, "deck": null }, "geometry": { "type": "LineString", "coordinates": [ [ 285964.15, 4158320.69 ], [ 285960.28, 4158321.03 ] ] } },
{ "type": "Feature", "properties": { "id": "osm:way/1452999373", "name": null, "highway": "footway", "lanes": null, "width": 2.0, "oneway": false, "surface": null, "footway": null, "sidewalk_left": false, "sidewalk_right": false, "generated_sidewalk": false, "bus_lanes": null, "bus_lane_side": null, "bus_only": false, "sidewalk": false, "bridge": false, "ramp": false, "tunnel": false, "layer": 0, "deck": null }, "geometry": { "type": "LineString", "coordinates": [ [ 285948.06, 4158310.43 ], [ 285953.51, 4158362.37 ] ] } },
{ "type": "Feature", "properties": { "id": "osm:way/903196007", "name": null, "highway": "service", "lanes": null, "width": 4.5, "oneway": false, "surface": null, "footway": null, "sidewalk_left": false, "sidewalk_right": false, "generated_sidewalk": false, "bus_lanes": null, "bus_lane_side": null, "bus_only": false, "sidewalk": false, "bridge": false, "ramp": false, "tunnel": false, "layer": 0, "deck": null }, "geometry": { "type": "LineString", "coordinates": [ [ 285987.44, 4158440.19 ], [ 285986.82, 4158435.06 ], [ 285974.02, 4158319.29 ], [ 285974.02, 4158314.4 ], [ 285974.59, 4158308.77 ], [ 285976.04, 4158304.56 ], [ 285979.25, 4158298.75 ], [ 285990.41, 4158285.46 ], [ 285991.28, 4158282.45 ], [ 285990.99, 4158276.01 ] ] } },
{ "type": "Feature", "properties": { "id": "osm:way/1452999374", "name": null, "highway": "footway", "lanes": null, "width": 2.0, "oneway": false, "surface": null, "footway": "crossing", "sidewalk_left": false, "sidewalk_right": false, "generated_sidewalk": false, "bus_lanes": null, "bus_lane_side": null, "bus_only": false, "sidewalk": false, "bridge": false, "ramp": false, "tunnel": false, "layer": 0, "deck": null }, "geometry": { "type": "LineString", "coordinates": [ [ 285953.51, 4158362.37 ], [ 285953.85, 4158366.31 ], [ 285954.17, 4158369.84 ] ] } },
{ "type": "Feature", "properties": { "id": "osm:way/574655879", "name": null, "highway": "service", "lanes": null, "width": 4.5, "oneway": false, "surface": null, "footway": null, "sidewalk_left": false, "sidewalk_right": false, "generated_sidewalk": false, "bus_lanes": null, "bus_lane_side": null, "bus_only": false, "sidewalk": false, "bridge": false, "ramp": false, "tunnel": false, "layer": 0, "deck": null }, "geometry": { "type": "MultiLineString", "coordinates": [ [ [ 285950.48, 4158456.42 ], [ 285948.79, 4158440.5 ], [ 285948.25, 4158435.3 ], [ 285945.72, 4158411.14 ] ], [ [ 285945.72, 4158411.14 ], [ 285941.18, 4158367.69 ], [ 285935.61, 4158314.5 ], [ 285935.76, 4158311.44 ], [ 285937.25, 4158309.13 ], [ 285939.38, 4158308.12 ], [ 285947.76, 4158307.19 ], [ 285953.37, 4158306.57 ], [ 285956.19, 4158306.95 ], [ 285958.16, 4158308.24 ], [ 285959.15, 4158310.26 ], [ 285959.55, 4158313.72 ], [ 285960.28, 4158321.03 ], [ 285964.91, 4158364.89 ], [ 285968.7, 4158408.69 ], [ 285958.16, 4158409.81 ], [ 285945.72, 4158411.14 ] ] ] } },
{ "type": "Feature", "properties": { "id": "osm:way/768423250", "name": null, "highway": "service", "lanes": null, "width": 4.5, "oneway": false, "surface": null, "footway": null, "sidewalk_left": false, "sidewalk_right": false, "generated_sidewalk": false, "bus_lanes": null, "bus_lane_side": null, "bus_only": false, "sidewalk": false, "bridge": false, "ramp": false, "tunnel": false, "layer": 0, "deck": null }, "geometry": { "type": "LineString", "coordinates": [ [ 285841.52, 4158343.52 ], [ 285834.7, 4158344.16 ], [ 285821.41, 4158345.4 ], [ 285801.86, 4158347.24 ], [ 285781.54, 4158349.15 ], [ 285789.18, 4158417.3 ], [ 285766.93, 4158419.69 ], [ 285761.79, 4158420.79 ], [ 285757.98, 4158422.61 ], [ 285754.72, 4158425.51 ], [ 285752.8, 4158428.45 ], [ 285751.68, 4158432.57 ] ] } },
{ "type": "Feature", "properties": { "id": "osm:way/1212923646", "name": null, "highway": "footway", "lanes": null, "width": 2.0, "oneway": false, "surface": null, "footway": "sidewalk", "sidewalk_left": false, "sidewalk_right": false, "generated_sidewalk": false, "bus_lanes": null, "bus_lane_side": null, "bus_only": false, "sidewalk": false, "bridge": false, "ramp": false, "tunnel": false, "layer": 0, "deck": null }, "geometry": { "type": "LineString", "coordinates": [ [ 285844.81, 4158446.98 ], [ 285844.29, 4158441.8 ], [ 285835.02, 4158348.02 ] ] } },
{ "type": "Feature", "properties": { "id": "osm:way/1249162589", "name": "Oliver Hill Way", "highway": "primary", "lanes": 3.0, "width": 11.0, "oneway": true, "surface": "paved", "footway": null, "sidewalk_left": null, "sidewalk_right": false, "generated_sidewalk": true, "bus_lanes": null, "bus_lane_side": null, "bus_only": false, "sidewalk": false, "bridge": false, "ramp": false, "tunnel": false, "layer": 0, "deck": null }, "geometry": { "type": "LineString", "coordinates": [ [ 285853.53, 4158456.55 ], [ 285851.92, 4158441.44 ], [ 285841.52, 4158343.52 ] ] } },
{ "type": "Feature", "properties": { "id": "osm:way/1271888620", "name": null, "highway": "footway", "lanes": null, "width": 2.0, "oneway": false, "surface": "asphalt", "footway": null, "sidewalk_left": false, "sidewalk_right": false, "generated_sidewalk": false, "bus_lanes": null, "bus_lane_side": null, "bus_only": false, "sidewalk": false, "bridge": false, "ramp": false, "tunnel": false, "layer": 0, "deck": null }, "geometry": { "type": "LineString", "coordinates": [ [ 285818.09, 4158419.22 ], [ 285817.95, 4158417.74 ], [ 285817.61, 4158414.4 ] ] } },
{ "type": "Feature", "properties": { "id": "osm:way/1271888617", "name": null, "highway": "footway", "lanes": null, "width": 2.0, "oneway": false, "surface": null, "footway": "link", "sidewalk_left": false, "sidewalk_right": false, "generated_sidewalk": false, "bus_lanes": null, "bus_lane_side": null, "bus_only": false, "sidewalk": false, "bridge": false, "ramp": false, "tunnel": false, "layer": 0, "deck": null }, "geometry": { "type": "LineString", "coordinates": [ [ 285767.7, 4158424.71 ], [ 285767.54, 4158423.62 ], [ 285766.93, 4158419.69 ] ] } },
{ "type": "Feature", "properties": { "id": "osm:way/1212923645", "name": null, "highway": "footway", "lanes": null, "width": 2.0, "oneway": false, "surface": null, "footway": "crossing", "sidewalk_left": false, "sidewalk_right": false, "generated_sidewalk": false, "bus_lanes": null, "bus_lane_side": null, "bus_only": false, "sidewalk": false, "bridge": false, "ramp": false, "tunnel": false, "layer": 0, "deck": null }, "geometry": { "type": "LineString", "coordinates": [ [ 285846.6, 4158466.3 ], [ 285845.77, 4158457.32 ], [ 285844.81, 4158446.98 ] ] } },
{ "type": "Feature", "properties": { "id": "osm:way/768423253", "name": null, "highway": "service", "lanes": null, "width": 4.5, "oneway": false, "surface": null, "footway": null, "sidewalk_left": false, "sidewalk_right": false, "generated_sidewalk": false, "bus_lanes": null, "bus_lane_side": null, "bus_only": false, "sidewalk": false, "bridge": false, "ramp": false, "tunnel": false, "layer": 0, "deck": null }, "geometry": { "type": "LineString", "coordinates": [ [ 285832.4, 4158458.81 ], [ 285845.77, 4158457.32 ], [ 285853.53, 4158456.55 ] ] } },
{ "type": "Feature", "properties": { "id": "osm:way/1379638696", "name": "Oliver Hill Way", "highway": "secondary", "lanes": 4.0, "width": 13.2, "oneway": true, "surface": null, "footway": null, "sidewalk_left": null, "sidewalk_right": false, "generated_sidewalk": true, "bus_lanes": null, "bus_lane_side": null, "bus_only": false, "sidewalk": false, "bridge": false, "ramp": false, "tunnel": false, "layer": 0, "deck": null }, "geometry": { "type": "LineString", "coordinates": [ [ 285857.97, 4158497.03 ], [ 285855.37, 4158473.89 ], [ 285854.98, 4158470.26 ], [ 285853.53, 4158456.55 ] ] } },
{ "type": "Feature", "properties": { "id": "osm:way/768423251", "name": null, "highway": "service", "lanes": null, "width": 4.5, "oneway": false, "surface": null, "footway": null, "sidewalk_left": false, "sidewalk_right": false, "generated_sidewalk": false, "bus_lanes": null, "bus_lane_side": null, "bus_only": false, "sidewalk": false, "bridge": false, "ramp": false, "tunnel": false, "layer": 0, "deck": null }, "geometry": { "type": "LineString", "coordinates": [ [ 285751.68, 4158432.57 ], [ 285759.48, 4158500.0 ] ] } },
{ "type": "Feature", "properties": { "id": "osm:way/1379638697", "name": "Oliver Hill Way", "highway": "secondary", "lanes": 4.0, "width": 13.2, "oneway": true, "surface": null, "footway": null, "sidewalk_left": null, "sidewalk_right": false, "generated_sidewalk": true, "bus_lanes": null, "bus_lane_side": null, "bus_only": false, "sidewalk": false, "bridge": false, "ramp": false, "tunnel": false, "layer": 0, "deck": null }, "geometry": { "type": "LineString", "coordinates": [ [ 285858.31, 4158500.0 ], [ 285857.97, 4158497.03 ] ] } },
{ "type": "Feature", "properties": { "id": "osm:way/1452999375", "name": null, "highway": "footway", "lanes": null, "width": 2.0, "oneway": false, "surface": null, "footway": null, "sidewalk_left": false, "sidewalk_right": false, "generated_sidewalk": false, "bus_lanes": null, "bus_lane_side": null, "bus_only": false, "sidewalk": false, "bridge": false, "ramp": false, "tunnel": false, "layer": 0, "deck": null }, "geometry": { "type": "LineString", "coordinates": [ [ 285954.17, 4158369.84 ], [ 285957.94, 4158406.45 ] ] } },
{ "type": "Feature", "properties": { "id": "osm:way/1452999376", "name": null, "highway": "footway", "lanes": null, "width": 2.0, "oneway": false, "surface": null, "footway": "crossing", "sidewalk_left": false, "sidewalk_right": false, "generated_sidewalk": false, "bus_lanes": null, "bus_lane_side": null, "bus_only": false, "sidewalk": false, "bridge": false, "ramp": false, "tunnel": false, "layer": 0, "deck": null }, "geometry": { "type": "LineString", "coordinates": [ [ 285957.94, 4158406.45 ], [ 285958.16, 4158409.81 ], [ 285958.41, 4158413.83 ] ] } },
{ "type": "Feature", "properties": { "id": "osm:way/1452999377", "name": null, "highway": "footway", "lanes": null, "width": 2.0, "oneway": false, "surface": null, "footway": null, "sidewalk_left": false, "sidewalk_right": false, "generated_sidewalk": false, "bus_lanes": null, "bus_lane_side": null, "bus_only": false, "sidewalk": false, "bridge": false, "ramp": false, "tunnel": false, "layer": 0, "deck": null }, "geometry": { "type": "LineString", "coordinates": [ [ 285958.41, 4158413.83 ], [ 285958.99, 4158419.76 ], [ 285959.71, 4158425.71 ], [ 285960.19, 4158427.14 ], [ 285960.78, 4158428.48 ], [ 285961.54, 4158429.85 ], [ 285962.38, 4158431.45 ], [ 285963.13, 4158433.45 ], [ 285963.18, 4158434.52 ] ] } },
{ "type": "Feature", "properties": { "id": "osm:way/1452999385", "name": null, "highway": "footway", "lanes": null, "width": 2.0, "oneway": false, "surface": null, "footway": "sidewalk", "sidewalk_left": false, "sidewalk_right": false, "generated_sidewalk": false, "bus_lanes": null, "bus_lane_side": null, "bus_only": false, "sidewalk": false, "bridge": false, "ramp": false, "tunnel": false, "layer": 0, "deck": null }, "geometry": { "type": "LineString", "coordinates": [ [ 285958.58, 4158434.63 ], [ 285963.18, 4158434.52 ], [ 285968.91, 4158434.38 ], [ 285977.04, 4158434.47 ], [ 285982.83, 4158434.89 ] ] } },
{ "type": "Feature", "properties": { "id": "osm:way/1271886180", "name": null, "highway": "footway", "lanes": null, "width": 2.0, "oneway": false, "surface": null, "footway": "crossing", "sidewalk_left": false, "sidewalk_right": false, "generated_sidewalk": false, "bus_lanes": null, "bus_lane_side": null, "bus_only": false, "sidewalk": false, "bridge": false, "ramp": false, "tunnel": false, "layer": 0, "deck": null }, "geometry": { "type": "LineString", "coordinates": [ [ 285990.36, 4158435.2 ], [ 285986.82, 4158435.06 ], [ 285982.83, 4158434.89 ] ] } },
{ "type": "Feature", "properties": { "id": "osm:way/1452999384", "name": null, "highway": "footway", "lanes": null, "width": 2.0, "oneway": false, "surface": null, "footway": "crossing", "sidewalk_left": false, "sidewalk_right": false, "generated_sidewalk": false, "bus_lanes": null, "bus_lane_side": null, "bus_only": false, "sidewalk": false, "bridge": false, "ramp": false, "tunnel": false, "layer": 0, "deck": null }, "geometry": { "type": "LineString", "coordinates": [ [ 285941.13, 4158435.76 ], [ 285948.25, 4158435.3 ], [ 285958.58, 4158434.63 ] ] } },
{ "type": "Feature", "properties": { "id": "osm:way/692873446", "name": "Fairfield Way", "highway": "primary", "lanes": 1.0, "width": 11.0, "oneway": true, "surface": "asphalt", "footway": null, "sidewalk_left": null, "sidewalk_right": false, "generated_sidewalk": true, "bus_lanes": null, "bus_lane_side": null, "bus_only": false, "sidewalk": false, "bridge": false, "ramp": false, "tunnel": false, "layer": 0, "deck": null }, "geometry": { "type": "LineString", "coordinates": [ [ 285869.18, 4158448.62 ], [ 285882.34, 4158447.24 ], [ 285937.25, 4158441.49 ], [ 285948.79, 4158440.5 ], [ 285954.77, 4158440.07 ], [ 285966.99, 4158439.52 ], [ 285976.53, 4158439.4 ], [ 285987.44, 4158440.19 ], [ 285996.67, 4158441.63 ], [ 286000.0, 4158442.37 ] ] } },
{ "type": "Feature", "properties": { "id": "osm:way/1249164401", "name": "Fairfield Way", "highway": "primary", "lanes": 3.0, "width": 11.0, "oneway": true, "surface": "asphalt", "footway": null, "sidewalk_left": null, "sidewalk_right": false, "generated_sidewalk": true, "bus_lanes": null, "bus_lane_side": null, "bus_only": false, "sidewalk": false, "bridge": false, "ramp": false, "tunnel": false, "layer": 0, "deck": null }, "geometry": { "type": "LineString", "coordinates": [ [ 286000.0, 4158459.38 ], [ 285996.34, 4158458.55 ], [ 285984.16, 4158456.55 ], [ 285973.25, 4158455.54 ], [ 285959.07, 4158455.78 ], [ 285950.48, 4158456.42 ] ] } },
{ "type": "Feature", "properties": { "id": "osm:way/1271886178", "name": null, "highway": "footway", "lanes": null, "width": 2.0, "oneway": false, "surface": "concrete", "footway": "sidewalk", "sidewalk_left": false, "sidewalk_right": false, "generated_sidewalk": false, "bus_lanes": null, "bus_lane_side": null, "bus_only": false, "sidewalk": false, "bridge": false, "ramp": false, "tunnel": false, "layer": 0, "deck": null }, "geometry": { "type": "LineString", "coordinates": [ [ 285990.36, 4158435.2 ], [ 285992.15, 4158435.51 ], [ 285995.68, 4158436.68 ], [ 286000.0, 4158437.76 ] ] } },
{ "type": "Feature", "properties": { "id": "osm:way/903428248", "name": null, "highway": "service", "lanes": null, "width": 4.5, "oneway": false, "surface": null, "footway": null, "sidewalk_left": false, "sidewalk_right": false, "generated_sidewalk": false, "bus_lanes": null, "bus_lane_side": null, "bus_only": false, "sidewalk": false, "bridge": false, "ramp": false, "tunnel": false, "layer": 0, "deck": null }, "geometry": { "type": "LineString", "coordinates": [ [ 285974.08, 4158500.0 ], [ 285981.17, 4158496.2 ], [ 285987.45, 4158492.83 ] ] } },
{ "type": "Feature", "properties": { "id": "osm:way/1494817481", "name": null, "highway": "footway", "lanes": null, "width": 2.0, "oneway": false, "surface": null, "footway": "crossing", "sidewalk_left": false, "sidewalk_right": false, "generated_sidewalk": false, "bus_lanes": null, "bus_lane_side": null, "bus_only": false, "sidewalk": false, "bridge": false, "ramp": false, "tunnel": false, "layer": 0, "deck": null }, "geometry": { "type": "LineString", "coordinates": [ [ 285882.11, 4158439.98 ], [ 285868.29, 4158440.65 ], [ 285851.92, 4158441.44 ], [ 285844.29, 4158441.8 ] ] } },
{ "type": "Feature", "properties": { "id": "osm:way/1078170116", "name": "Fairfield Way", "highway": "primary", "lanes": null, "width": 11.0, "oneway": true, "surface": "paved", "footway": null, "sidewalk_left": null, "sidewalk_right": null, "generated_sidewalk": true, "bus_lanes": null, "bus_lane_side": null, "bus_only": false, "sidewalk": false, "bridge": false, "ramp": false, "tunnel": false, "layer": 0, "deck": null }, "geometry": { "type": "LineString", "coordinates": [ [ 285853.53, 4158456.55 ], [ 285869.18, 4158448.62 ] ] } },
{ "type": "Feature", "properties": { "id": "osm:way/1494817483", "name": null, "highway": "footway", "lanes": null, "width": 2.0, "oneway": false, "surface": null, "footway": "crossing", "sidewalk_left": false, "sidewalk_right": false, "generated_sidewalk": false, "bus_lanes": null, "bus_lane_side": null, "bus_only": false, "sidewalk": false, "bridge": false, "ramp": false, "tunnel": false, "layer": 0, "deck": null }, "geometry": { "type": "LineString", "coordinates": [ [ 285882.11, 4158439.98 ], [ 285882.34, 4158447.24 ], [ 285882.47, 4158451.24 ], [ 285882.78, 4158455.42 ], [ 285881.6, 4158463.62 ], [ 285880.71, 4158469.83 ] ] } },
{ "type": "Feature", "properties": { "id": "osm:way/1078170117", "name": "Oliver Hill Way", "highway": "primary", "lanes": null, "width": 11.0, "oneway": true, "surface": "paved", "footway": null, "sidewalk_left": null, "sidewalk_right": null, "generated_sidewalk": true, "bus_lanes": null, "bus_lane_side": null, "bus_only": false, "sidewalk": false, "bridge": false, "ramp": false, "tunnel": false, "layer": 0, "deck": null }, "geometry": { "type": "LineString", "coordinates": [ [ 285869.18, 4158448.62 ], [ 285870.77, 4158464.89 ] ] } },
{ "type": "Feature", "properties": { "id": "osm:way/1249164400", "name": "Fairfield Way", "highway": "primary", "lanes": 3.0, "width": 11.0, "oneway": true, "surface": "asphalt", "footway": null, "sidewalk_left": null, "sidewalk_right": false, "generated_sidewalk": true, "bus_lanes": null, "bus_lane_side": null, "bus_only": false, "sidewalk": false, "bridge": false, "ramp": false, "tunnel": false, "layer": 0, "deck": null }, "geometry": { "type": "LineString", "coordinates": [ [ 285950.48, 4158456.42 ], [ 285938.17, 4158457.73 ], [ 285881.8, 4158463.59 ], [ 285881.6, 4158463.62 ], [ 285870.77, 4158464.89 ] ] } },
{ "type": "Feature", "properties": { "id": "osm:way/1078170118", "name": "Fairfield Way", "highway": "primary", "lanes": null, "width": 11.0, "oneway": true, "surface": "paved", "footway": null, "sidewalk_left": null, "sidewalk_right": null, "generated_sidewalk": true, "bus_lanes": null, "bus_lane_side": null, "bus_only": false, "sidewalk": false, "bridge": false, "ramp": false, "tunnel": false, "layer": 0, "deck": null }, "geometry": { "type": "LineString", "coordinates": [ [ 285870.77, 4158464.89 ], [ 285853.53, 4158456.55 ] ] } },
{ "type": "Feature", "properties": { "id": "osm:way/1452999391", "name": null, "highway": "footway", "lanes": null, "width": 2.0, "oneway": false, "surface": null, "footway": null, "sidewalk_left": false, "sidewalk_right": false, "generated_sidewalk": false, "bus_lanes": null, "bus_lane_side": null, "bus_only": false, "sidewalk": false, "bridge": false, "ramp": false, "tunnel": false, "layer": 0, "deck": null }, "geometry": { "type": "LineString", "coordinates": [ [ 285944.85, 4158463.11 ], [ 285945.51, 4158469.45 ] ] } },
{ "type": "Feature", "properties": { "id": "osm:way/1494817482", "name": null, "highway": "footway", "lanes": null, "width": 2.0, "oneway": false, "surface": null, "footway": "crossing", "sidewalk_left": false, "sidewalk_right": false, "generated_sidewalk": false, "bus_lanes": null, "bus_lane_side": null, "bus_only": false, "sidewalk": false, "bridge": false, "ramp": false, "tunnel": false, "layer": 0, "deck": null }, "geometry": { "type": "LineString", "coordinates": [ [ 285880.71, 4158469.83 ], [ 285871.31, 4158469.98 ], [ 285854.98, 4158470.26 ], [ 285847.04, 4158470.4 ] ] } },
{ "type": "Feature", "properties": { "id": "osm:way/1452999393", "name": null, "highway": "steps", "lanes": null, "width": 2.0, "oneway": false, "surface": null, "footway": null, "sidewalk_left": false, "sidewalk_right": false, "generated_sidewalk": false, "bus_lanes": null, "bus_lane_side": null, "bus_only": false, "sidewalk": false, "bridge": false, "ramp": false, "tunnel": false, "layer": 0, "deck": null }, "geometry": { "type": "LineString", "coordinates": [ [ 285945.51, 4158469.45 ], [ 285945.68, 4158471.12 ] ] } },
{ "type": "Feature", "properties": { "id": "osm:way/1494817484", "name": null, "highway": "footway", "lanes": null, "width": 2.0, "oneway": false, "surface": null, "footway": "sidewalk", "sidewalk_left": false, "sidewalk_right": false, "generated_sidewalk": false, "bus_lanes": null, "bus_lane_side": null, "bus_only": false, "sidewalk": false, "bridge": false, "ramp": false, "tunnel": false, "layer": 0, "deck": null }, "geometry": { "type": "LineString", "coordinates": [ [ 285880.71, 4158469.83 ], [ 285881.57, 4158470.82 ] ] } },
{ "type": "Feature", "properties": { "id": "osm:way/729331783", "name": null, "highway": "service", "lanes": null, "width": 4.5, "oneway": false, "surface": null, "footway": null, "sidewalk_left": false, "sidewalk_right": false, "generated_sidewalk": false, "bus_lanes": null, "bus_lane_side": null, "bus_only": false, "sidewalk": false, "bridge": false, "ramp": false, "tunnel": false, "layer": 0, "deck": null }, "geometry": { "type": "LineString", "coordinates": [ [ 285949.16, 4158500.0 ], [ 285947.77, 4158484.83 ], [ 285946.98, 4158474.84 ] ] } },
{ "type": "Feature", "properties": { "id": "osm:way/903428249", "name": null, "highway": "service", "lanes": null, "width": 4.5, "oneway": false, "surface": null, "footway": null, "sidewalk_left": false, "sidewalk_right": false, "generated_sidewalk": false, "bus_lanes": null, "bus_lane_side": null, "bus_only": false, "sidewalk": false, "bridge": false, "ramp": false, "tunnel": false, "layer": 0, "deck": null }, "geometry": { "type": "LineString", "coordinates": [ [ 285983.05, 4158500.0 ], [ 285981.17, 4158496.2 ] ] } },
{ "type": "Feature", "properties": { "id": "osm:way/768423252", "name": null, "highway": "service", "lanes": null, "width": 4.5, "oneway": false, "surface": null, "footway": null, "sidewalk_left": false, "sidewalk_right": false, "generated_sidewalk": false, "bus_lanes": null, "bus_lane_side": null, "bus_only": false, "sidewalk": false, "bridge": false, "ramp": false, "tunnel": false, "layer": 0, "deck": null }, "geometry": { "type": "LineString", "coordinates": [ [ 285789.18, 4158417.3 ], [ 285808.11, 4158415.37 ], [ 285817.61, 4158414.4 ], [ 285827.96, 4158413.35 ], [ 285832.4, 4158458.81 ], [ 285836.7, 4158500.0 ] ] } },
{ "type": "Feature", "properties": { "id": "osm:way/1271888616", "name": null, "highway": "footway", "lanes": null, "width": 2.0, "oneway": false, "surface": "concrete", "footway": "sidewalk", "sidewalk_left": false, "sidewalk_right": false, "generated_sidewalk": false, "bus_lanes": null, "bus_lane_side": null, "bus_only": false, "sidewalk": false, "bridge": false, "ramp": false, "tunnel": false, "layer": 0, "deck": null }, "geometry": { "type": "LineString", "coordinates": [ [ 285826.95, 4158500.0 ], [ 285824.4, 4158476.1 ], [ 285822.8, 4158474.23 ], [ 285819.28, 4158472.5 ], [ 285816.87, 4158470.01 ], [ 285815.5, 4158466.7 ], [ 285814.6, 4158460.32 ], [ 285814.02, 4158454.41 ], [ 285814.54, 4158450.95 ], [ 285816.81, 4158447.28 ], [ 285819.83, 4158444.02 ], [ 285820.82, 4158440.08 ], [ 285818.09, 4158419.22 ], [ 285767.7, 4158424.71 ] ] } },
{ "type": "Feature", "properties": { "id": "osm:way/1212923644", "name": null, "highway": "footway", "lanes": null, "width": 2.0, "oneway": false, "surface": null, "footway": "sidewalk", "sidewalk_left": false, "sidewalk_right": false, "generated_sidewalk": false, "bus_lanes": null, "bus_lane_side": null, "bus_only": false, "sidewalk": false, "bridge": false, "ramp": false, "tunnel": false, "layer": 0, "deck": null }, "geometry": { "type": "LineString", "coordinates": [ [ 285850.23, 4158500.0 ], [ 285847.04, 4158470.4 ], [ 285846.6, 4158466.3 ] ] } },
{ "type": "Feature", "properties": { "id": "osm:way/1452999392", "name": null, "highway": "footway", "lanes": null, "width": 2.0, "oneway": false, "surface": null, "footway": "link", "sidewalk_left": false, "sidewalk_right": false, "generated_sidewalk": false, "bus_lanes": null, "bus_lane_side": null, "bus_only": false, "sidewalk": false, "bridge": false, "ramp": false, "tunnel": false, "layer": 0, "deck": null }, "geometry": { "type": "LineString", "coordinates": [ [ 285945.68, 4158471.12 ], [ 285946.98, 4158474.84 ] ] } },
{ "type": "Feature", "properties": { "id": "osm:way/1212923650", "name": null, "highway": "footway", "lanes": null, "width": 2.0, "oneway": false, "surface": null, "footway": "sidewalk", "sidewalk_left": false, "sidewalk_right": false, "generated_sidewalk": false, "bus_lanes": null, "bus_lane_side": null, "bus_only": false, "sidewalk": false, "bridge": false, "ramp": false, "tunnel": false, "layer": 0, "deck": null }, "geometry": { "type": "LineString", "coordinates": [ [ 286000.0, 4158465.59 ], [ 285988.86, 4158463.21 ], [ 285979.75, 4158462.08 ], [ 285975.08, 4158461.68 ], [ 285962.31, 4158461.6 ], [ 285953.58, 4158462.25 ], [ 285944.85, 4158463.11 ], [ 285885.8, 4158468.9 ], [ 285882.76, 4158469.68 ], [ 285881.57, 4158470.82 ], [ 285880.53, 4158471.81 ], [ 285879.46, 4158474.3 ], [ 285882.19, 4158500.0 ] ] } },
{ "type": "Feature", "properties": { "id": "osm:way/657445966", "name": "Oliver Hill Way", "highway": "secondary", "lanes": null, "width": 9.5, "oneway": true, "surface": null, "footway": null, "sidewalk_left": null, "sidewalk_right": false, "generated_sidewalk": true, "bus_lanes": null, "bus_lane_side": null, "bus_only": false, "sidewalk": false, "bridge": false, "ramp": false, "tunnel": false, "layer": 0, "deck": null }, "geometry": { "type": "LineString", "coordinates": [ [ 285870.77, 4158464.89 ], [ 285871.31, 4158469.98 ], [ 285874.46, 4158500.0 ] ] } }
]
}
