{
"type": "FeatureCollection",
"name": "landuse",
"crs": { "type": "name", "properties": { "name": "urn:ogc:def:crs:EPSG::32618" } },
"xy_coordinate_resolution": 0.01,
"features": [
{ "type": "Feature", "properties": { "id": "imagery:groundcover_lawn:3296", "name": null, "kind": "groundcover_lawn", "sport": null, "surface": null, "pitch_layout": null, "source": "vgin_vbmp+naip+lidar2025", "source_updated": null, "base_z": null, "top_z": null }, "geometry": { "type": "Polygon", "coordinates": [ [ [ 283000.38, 4155258.82 ], [ 283000.43, 4155258.74 ], [ 283000.49, 4155258.66 ], [ 283000.56, 4155258.59 ], [ 283000.63, 4155258.53 ], [ 283000.71, 4155258.48 ], [ 283000.8, 4155258.43 ], [ 283000.89, 4155258.39 ], [ 283000.98, 4155258.36 ], [ 283001.08, 4155258.34 ], [ 283001.17, 4155258.33 ], [ 283001.27, 4155258.33 ], [ 283001.37, 4155258.34 ], [ 283001.46, 4155258.35 ], [ 283001.55, 4155258.38 ], [ 283001.64, 4155258.41 ], [ 283002.57, 4155258.83 ], [ 283003.05, 4155257.76 ], [ 283003.09, 4155257.68 ], [ 283003.14, 4155257.59 ], [ 283003.2, 4155257.52 ], [ 283003.27, 4155257.44 ], [ 283003.34, 4155257.38 ], [ 283003.42, 4155257.32 ], [ 283003.51, 4155257.28 ], [ 283003.6, 4155257.24 ], [ 283003.69, 4155257.21 ], [ 283003.79, 4155257.18 ], [ 283003.89, 4155257.17 ], [ 283003.98, 4155257.17 ], [ 283004.08, 4155257.18 ], [ 283004.18, 4155257.19 ], [ 283004.27, 4155257.22 ], [ 283004.36, 4155257.25 ], [ 283006.23, 4155258.08 ], [ 283006.32, 4155258.13 ], [ 283006.41, 4155258.18 ], [ 283006.49, 4155258.24 ], [ 283006.56, 4155258.31 ], [ 283006.62, 4155258.39 ], [ 283006.68, 4155258.47 ], [ 283006.73, 4155258.56 ], [ 283006.77, 4155258.65 ], [ 283006.8, 4155258.75 ], [ 283006.82, 4155258.85 ], [ 283006.83, 4155258.94 ], [ 283006.83, 4155259.04 ], [ 283006.82, 4155259.14 ], [ 283006.8, 4155259.24 ], [ 283006.77, 4155259.34 ], [ 283006.63, 4155259.73 ], [ 283007.83, 4155259.49 ], [ 283007.87, 4155259.46 ], [ 283007.95, 4155259.4 ], [ 283008.04, 4155259.36 ], [ 283008.13, 4155259.32 ], [ 283008.23, 4155259.3 ], [ 283008.32, 4155259.28 ], [ 283008.42, 4155259.27 ], [ 283008.52, 4155259.28 ], [ 283008.62, 4155259.29 ], [ 283008.71, 4155259.31 ], [ 283009.0, 4155259.25 ], [ 283010.01, 4155259.42 ], [ 283012.49, 4155260.86 ], [ 283012.94, 4155261.41 ], [ 283014.46, 4155262.18 ], [ 283014.55, 4155262.23 ], [ 283014.63, 4155262.28 ], [ 283014.7, 4155262.35 ], [ 283014.77, 4155262.42 ], [ 283014.83, 4155262.49 ], [ 283014.88, 4155262.58 ], [ 283014.93, 4155262.66 ], [ 283014.96, 4155262.76 ], [ 283014.99, 4155262.85 ], [ 283015.0, 4155262.95 ], [ 283015.01, 4155263.04 ], [ 283015.01, 4155263.14 ], [ 283015.0, 4155263.24 ], [ 283014.98, 4155263.34 ], [ 283014.94, 4155263.43 ], [ 283014.91, 4155263.52 ], [ 283014.22, 4155264.89 ], [ 283014.45, 4155265.57 ], [ 283017.29, 4155267.63 ], [ 283025.89, 4155267.63 ], [ 283027.47, 4155266.97 ], [ 283029.89, 4155261.51 ], [ 283029.93, 4155261.42 ], [ 283029.98, 4155261.34 ], [ 283030.04, 4155261.26 ], [ 283030.11, 4155261.19 ], [ 283030.18, 4155261.13 ], [ 283030.26, 4155261.07 ], [ 283030.35, 4155261.02 ], [ 283030.43, 4155260.98 ], [ 283030.53, 4155260.95 ], [ 283030.62, 4155260.93 ], [ 283030.72, 4155260.91 ], [ 283030.81, 4155260.91 ], [ 283030.91, 4155260.92 ], [ 283031.0, 4155260.93 ], [ 283031.1, 4155260.95 ], [ 283031.19, 4155260.99 ], [ 283032.63, 4155261.59 ], [ 283033.13, 4155260.38 ], [ 283033.13, 4155253.47 ], [ 283029.4, 4155250.56 ], [ 283024.78, 4155251.71 ], [ 283023.66, 4155251.53 ], [ 283021.24, 4155250.0 ], [ 283000.0, 4155250.0 ], [ 283000.0, 4155259.62 ], [ 283000.33, 4155258.9 ], [ 283000.38, 4155258.82 ] ] ] } },
{ "type": "Feature", "properties": { "id": "richmond_structure:242591", "name": null, "kind": "deck", "sport": null, "surface": null, "pitch_layout": null, "source": "richmond_structures", "source_updated": "2026-09-08T12:07:13.637000Z", "base_z": null, "top_z": null }, "geometry": { "type": "Polygon", "coordinates": [ [ [ 283006.81, 4155257.46 ], [ 283005.77, 4155256.8 ], [ 283004.95, 4155258.0 ], [ 283003.94, 4155257.25 ], [ 283003.23, 4155258.71 ], [ 283005.64, 4155259.83 ], [ 283006.81, 4155257.46 ] ] ] } },
{ "type": "Feature", "properties": { "id": "richmond_structure:242790", "name": null, "kind": "deck", "sport": null, "surface": null, "pitch_layout": null, "source": "richmond_structures", "source_updated": "2026-09-08T12:07:13.637000Z", "base_z": null, "top_z": null }, "geometry": { "type": "Polygon", "coordinates": [ [ [ 283002.52, 4155256.75 ], [ 283001.05, 4155260.17 ], [ 283002.9, 4155260.98 ], [ 283003.73, 4155259.11 ], [ 283003.23, 4155258.71 ], [ 283003.94, 4155257.25 ], [ 283002.52, 4155256.75 ] ] ] } },
{ "type": "Feature", "properties": { "id": "richmond_structure:242464", "name": null, "kind": "deck", "sport": null, "surface": null, "pitch_layout": null, "source": "richmond_structures", "source_updated": "2026-09-08T12:07:13.637000Z", "base_z": null, "top_z": null }, "geometry": { "type": "Polygon", "coordinates": [ [ [ 283011.3, 4155260.0 ], [ 283011.62, 4155259.16 ], [ 283010.87, 4155258.68 ], [ 283009.48, 4155261.73 ], [ 283011.79, 4155262.89 ], [ 283012.87, 4155260.57 ], [ 283011.3, 4155260.0 ] ] ] } },
{ "type": "Feature", "properties": { "id": "richmond_structure:242465", "name": null, "kind": "deck", "sport": null, "surface": null, "pitch_layout": null, "source": "richmond_structures", "source_updated": "2026-09-08T12:07:13.637000Z", "base_z": null, "top_z": null }, "geometry": { "type": "Polygon", "coordinates": [ [ [ 283036.49, 4155260.34 ], [ 283035.45, 4155262.26 ], [ 283033.12, 4155261.24 ], [ 283032.26, 4155263.43 ], [ 283035.45, 4155264.76 ], [ 283037.46, 4155260.71 ], [ 283036.49, 4155260.34 ] ] ] } },
{ "type": "Feature", "properties": { "id": "richmond_structure:242466", "name": null, "kind": "deck", "sport": null, "surface": null, "pitch_layout": null, "source": "richmond_structures", "source_updated": "2026-09-08T12:07:13.637000Z", "base_z": null, "top_z": null }, "geometry": { "type": "Polygon", "coordinates": [ [ [ 283039.81, 4155264.26 ], [ 283038.68, 4155266.79 ], [ 283041.83, 4155268.19 ], [ 283042.93, 4155265.62 ], [ 283039.81, 4155264.26 ] ] ] } },
{ "type": "Feature", "properties": { "id": "richmond_structure:242936", "name": null, "kind": "deck", "sport": null, "surface": null, "pitch_layout": null, "source": "richmond_structures", "source_updated": "2026-09-08T12:07:13.637000Z", "base_z": null, "top_z": null }, "geometry": { "type": "Polygon", "coordinates": [ [ [ 283016.45, 4155266.68 ], [ 283015.24, 4155266.12 ], [ 283013.81, 4155269.21 ], [ 283017.2, 4155270.79 ], [ 283018.64, 4155267.7 ], [ 283017.39, 4155267.12 ], [ 283018.01, 4155265.77 ], [ 283017.07, 4155265.34 ], [ 283016.45, 4155266.68 ] ] ] } },
{ "type": "Feature", "properties": { "id": "richmond_structure:242791", "name": null, "kind": "deck", "sport": null, "surface": null, "pitch_layout": null, "source": "richmond_structures", "source_updated": "2026-09-08T12:07:13.637000Z", "base_z": null, "top_z": null }, "geometry": { "type": "Polygon", "coordinates": [ [ [ 283040.67, 4155273.73 ], [ 283039.5, 4155276.71 ], [ 283043.86, 4155278.42 ], [ 283045.03, 4155275.44 ], [ 283040.67, 4155273.73 ] ] ] } },
{ "type": "Feature", "properties": { "id": "richmond_structure:243097", "name": null, "kind": "deck", "sport": null, "surface": null, "pitch_layout": null, "source": "richmond_structures", "source_updated": "2026-09-08T12:07:13.637000Z", "base_z": null, "top_z": null }, "geometry": { "type": "Polygon", "coordinates": [ [ [ 283048.7, 4155282.14 ], [ 283047.41, 4155281.56 ], [ 283046.09, 4155284.64 ], [ 283048.16, 4155285.41 ], [ 283049.91, 4155281.36 ], [ 283049.13, 4155281.01 ], [ 283048.7, 4155282.14 ] ] ] } },
{ "type": "Feature", "properties": { "id": "richmond_structure:244017", "name": null, "kind": "deck", "sport": null, "surface": null, "pitch_layout": null, "source": "richmond_structures", "source_updated": "2026-09-08T12:07:13.637000Z", "base_z": null, "top_z": null }, "geometry": { "type": "Polygon", "coordinates": [ [ [ 283029.38, 4155297.73 ], [ 283031.01, 4155293.62 ], [ 283025.69, 4155291.26 ], [ 283023.67, 4155295.24 ], [ 283029.38, 4155297.73 ] ] ] } },
{ "type": "Feature", "properties": { "id": "richmond_structure:243102", "name": null, "kind": "deck", "sport": null, "surface": null, "pitch_layout": null, "source": "richmond_structures", "source_updated": "2026-09-08T12:07:13.637000Z", "base_z": null, "top_z": null }, "geometry": { "type": "Polygon", "coordinates": [ [ [ 283169.64, 4155251.77 ], [ 283170.42, 4155250.0 ], [ 283167.69, 4155250.0 ], [ 283167.35, 4155250.77 ], [ 283169.64, 4155251.77 ] ] ] } },
{ "type": "Feature", "properties": { "id": "richmond_structure:242630", "name": null, "kind": "deck", "sport": null, "surface": null, "pitch_layout": null, "source": "richmond_structures", "source_updated": "2026-09-08T12:07:13.637000Z", "base_z": null, "top_z": null }, "geometry": { "type": "Polygon", "coordinates": [ [ [ 283069.98, 4155259.56 ], [ 283070.87, 4155257.6 ], [ 283067.63, 4155255.87 ], [ 283066.7, 4155257.76 ], [ 283069.98, 4155259.56 ] ] ] } },
{ "type": "Feature", "properties": { "id": "richmond_structure:243098", "name": null, "kind": "deck", "sport": null, "surface": null, "pitch_layout": null, "source": "richmond_structures", "source_updated": "2026-09-08T12:07:13.637000Z", "base_z": null, "top_z": null }, "geometry": { "type": "Polygon", "coordinates": [ [ [ 283063.72, 4155273.11 ], [ 283066.71, 4155266.84 ], [ 283062.53, 4155264.85 ], [ 283059.54, 4155271.12 ], [ 283063.72, 4155273.11 ] ] ] } },
{ "type": "Feature", "properties": { "id": "imagery:groundcover_lawn:3272", "name": null, "kind": "groundcover_lawn", "sport": null, "surface": null, "pitch_layout": null, "source": "vgin_vbmp+naip+lidar2025", "source_updated": null, "base_z": null, "top_z": null }, "geometry": { "type": "Polygon", "coordinates": [ [ [ 283203.75, 4155284.26 ], [ 283205.6, 4155283.0 ], [ 283206.19, 4155281.55 ], [ 283206.23, 4155281.46 ], [ 283206.28, 4155281.38 ], [ 283206.34, 4155281.3 ], [ 283206.41, 4155281.23 ], [ 283206.48, 4155281.16 ], [ 283206.56, 4155281.1 ], [ 283206.64, 4155281.05 ], [ 283206.73, 4155281.01 ], [ 283206.82, 4155280.97 ], [ 283206.92, 4155280.95 ], [ 283207.01, 4155280.93 ], [ 283207.11, 4155280.93 ], [ 283207.21, 4155280.93 ], [ 283207.31, 4155280.94 ], [ 283207.4, 4155280.97 ], [ 283207.49, 4155281.0 ], [ 283209.24, 4155281.71 ], [ 283209.76, 4155281.33 ], [ 283211.15, 4155277.9 ], [ 283211.19, 4155277.81 ], [ 283211.24, 4155277.73 ], [ 283211.3, 4155277.65 ], [ 283211.36, 4155277.58 ], [ 283211.43, 4155277.51 ], [ 283211.51, 4155277.45 ], [ 283211.6, 4155277.4 ], [ 283211.68, 4155277.36 ], [ 283211.78, 4155277.32 ], [ 283211.87, 4155277.3 ], [ 283211.91, 4155277.29 ], [ 283212.3, 4155276.12 ], [ 283212.83, 4155275.4 ], [ 283214.84, 4155273.95 ], [ 283215.51, 4155272.29 ], [ 283215.55, 4155272.2 ], [ 283215.6, 4155272.12 ], [ 283215.66, 4155272.04 ], [ 283215.73, 4155271.96 ], [ 283215.8, 4155271.9 ], [ 283215.88, 4155271.84 ], [ 283215.96, 4155271.79 ], [ 283216.05, 4155271.75 ], [ 283216.14, 4155271.71 ], [ 283216.24, 4155271.69 ], [ 283216.33, 4155271.67 ], [ 283216.43, 4155271.67 ], [ 283216.53, 4155271.67 ], [ 283216.63, 4155271.68 ], [ 283216.72, 4155271.71 ], [ 283216.81, 4155271.74 ], [ 283217.67, 4155272.09 ], [ 283218.48, 4155271.27 ], [ 283218.11, 4155271.04 ], [ 283217.93, 4155270.91 ], [ 283206.58, 4155262.81 ], [ 283203.18, 4155263.94 ], [ 283201.13, 4155266.79 ], [ 283201.13, 4155275.09 ], [ 283201.02, 4155275.66 ], [ 283200.37, 4155277.23 ], [ 283200.04, 4155277.71 ], [ 283196.27, 4155281.49 ], [ 283195.45, 4155284.2 ], [ 283196.15, 4155287.73 ], [ 283198.82, 4155290.13 ], [ 283201.88, 4155288.26 ], [ 283203.21, 4155284.93 ], [ 283203.75, 4155284.26 ] ] ] } },
{ "type": "Feature", "properties": { "id": "richmond_structure:242259", "name": null, "kind": "deck", "sport": null, "surface": null, "pitch_layout": null, "source": "richmond_structures", "source_updated": "2026-09-08T12:07:13.637000Z", "base_z": null, "top_z": null }, "geometry": { "type": "Polygon", "coordinates": [ [ [ 283195.75, 4155299.65 ], [ 283199.49, 4155301.16 ], [ 283203.8, 4155290.52 ], [ 283200.21, 4155289.0 ], [ 283195.75, 4155299.65 ] ] ] } },
{ "type": "Feature", "properties": { "id": "richmond_structure:242617", "name": null, "kind": "deck", "sport": null, "surface": null, "pitch_layout": null, "source": "richmond_structures", "source_updated": "2026-09-08T12:07:13.637000Z", "base_z": null, "top_z": null }, "geometry": { "type": "Polygon", "coordinates": [ [ [ 283074.33, 4155295.47 ], [ 283071.41, 4155294.14 ], [ 283070.75, 4155295.6 ], [ 283073.67, 4155296.93 ], [ 283074.33, 4155295.47 ] ] ] } },
{ "type": "Feature", "properties": { "id": "richmond_structure:243101", "name": null, "kind": "deck", "sport": null, "surface": null, "pitch_layout": null, "source": "richmond_structures", "source_updated": "2026-09-08T12:07:13.637000Z", "base_z": null, "top_z": null }, "geometry": { "type": "Polygon", "coordinates": [ [ [ 283063.77, 4155305.85 ], [ 283061.51, 4155311.18 ], [ 283063.83, 4155312.31 ], [ 283067.28, 4155304.52 ], [ 283066.33, 4155304.13 ], [ 283063.77, 4155305.85 ] ] ] } },
{ "type": "Feature", "properties": { "id": "imagery:groundcover_lawn:3322", "name": null, "kind": "groundcover_lawn", "sport": null, "surface": null, "pitch_layout": null, "source": "vgin_vbmp+naip+lidar2025", "source_updated": null, "base_z": null, "top_z": null }, "geometry": { "type": "MultiPolygon", "coordinates": [ [ [ [ 283065.79, 4155416.98 ], [ 283065.87, 4155417.03 ], [ 283065.95, 4155417.1 ], [ 283066.02, 4155417.16 ], [ 283066.08, 4155417.24 ], [ 283066.14, 4155417.32 ], [ 283066.19, 4155417.4 ], [ 283066.23, 4155417.49 ], [ 283066.26, 4155417.59 ], [ 283066.28, 4155417.68 ], [ 283066.29, 4155417.78 ], [ 283066.29, 4155417.88 ], [ 283066.29, 4155417.98 ], [ 283066.27, 4155418.07 ], [ 283066.24, 4155418.17 ], [ 283066.21, 4155418.26 ], [ 283062.3, 4155426.97 ], [ 283062.26, 4155427.05 ], [ 283062.21, 4155427.14 ], [ 283062.14, 4155427.21 ], [ 283062.08, 4155427.28 ], [ 283062.0, 4155427.35 ], [ 283061.92, 4155427.4 ], [ 283061.84, 4155427.45 ], [ 283061.75, 4155427.49 ], [ 283061.65, 4155427.52 ], [ 283061.56, 4155427.54 ], [ 283061.46, 4155427.56 ], [ 283061.36, 4155427.56 ], [ 283061.26, 4155427.55 ], [ 283061.17, 4155427.53 ], [ 283061.07, 4155427.51 ], [ 283060.98, 4155427.47 ], [ 283060.13, 4155427.09 ], [ 283060.13, 4155429.63 ], [ 283063.13, 4155432.63 ], [ 283077.53, 4155432.63 ], [ 283078.55, 4155433.05 ], [ 283079.2, 4155433.69 ], [ 283084.17, 4155432.52 ], [ 283086.3, 4155426.12 ], [ 283086.83, 4155425.4 ], [ 283088.91, 4155423.9 ], [ 283089.77, 4155423.63 ], [ 283090.94, 4155423.63 ], [ 283093.4, 4155418.9 ], [ 283093.13, 4155418.06 ], [ 283093.13, 4155409.51 ], [ 283093.17, 4155409.16 ], [ 283093.41, 4155408.16 ], [ 283093.53, 4155407.84 ], [ 283095.12, 4155404.66 ], [ 283095.66, 4155404.06 ], [ 283097.63, 4155402.85 ], [ 283098.4, 4155402.63 ], [ 283099.67, 4155402.63 ], [ 283102.61, 4155400.21 ], [ 283103.31, 4155396.71 ], [ 283102.29, 4155396.23 ], [ 283101.92, 4155396.03 ], [ 283101.57, 4155395.8 ], [ 283101.24, 4155395.53 ], [ 283100.94, 4155395.23 ], [ 283100.67, 4155394.91 ], [ 283100.44, 4155394.56 ], [ 283100.24, 4155394.19 ], [ 283100.07, 4155393.8 ], [ 283099.95, 4155393.39 ], [ 283099.87, 4155392.98 ], [ 283099.82, 4155392.56 ], [ 283099.82, 4155392.14 ], [ 283099.86, 4155391.72 ], [ 283099.95, 4155391.3 ], [ 283100.07, 4155390.9 ], [ 283100.23, 4155390.51 ], [ 283100.43, 4155390.14 ], [ 283100.66, 4155389.79 ], [ 283100.93, 4155389.46 ], [ 283101.22, 4155389.16 ], [ 283101.55, 4155388.89 ], [ 283101.9, 4155388.66 ], [ 283102.27, 4155388.46 ], [ 283102.66, 4155388.29 ], [ 283103.06, 4155388.17 ], [ 283103.48, 4155388.09 ], [ 283103.9, 4155388.05 ], [ 283104.32, 4155388.04 ], [ 283104.74, 4155388.08 ], [ 283105.15, 4155388.17 ], [ 283105.56, 4155388.29 ], [ 283105.95, 4155388.45 ], [ 283106.35, 4155388.64 ], [ 283107.19, 4155387.96 ], [ 283108.11, 4155387.63 ], [ 283120.13, 4155387.63 ], [ 283123.13, 4155384.63 ], [ 283123.13, 4155380.9 ], [ 283123.35, 4155380.12 ], [ 283124.57, 4155378.15 ], [ 283125.16, 4155377.61 ], [ 283133.9, 4155373.24 ], [ 283135.47, 4155371.29 ], [ 283137.44, 4155363.38 ], [ 283137.96, 4155362.59 ], [ 283140.08, 4155360.93 ], [ 283140.98, 4155360.63 ], [ 283143.53, 4155360.63 ], [ 283144.55, 4155361.05 ], [ 283146.71, 4155363.2 ], [ 283147.36, 4155364.77 ], [ 283150.13, 4155366.63 ], [ 283154.83, 4155366.63 ], [ 283155.32, 4155366.71 ], [ 283156.71, 4155367.2 ], [ 283157.15, 4155367.44 ], [ 283170.31, 4155377.97 ], [ 283172.18, 4155378.63 ], [ 283177.86, 4155378.63 ], [ 283178.63, 4155378.85 ], [ 283180.6, 4155380.06 ], [ 283181.15, 4155380.66 ], [ 283182.58, 4155383.51 ], [ 283184.31, 4155385.02 ], [ 283198.63, 4155389.79 ], [ 283199.36, 4155390.32 ], [ 283200.86, 4155392.4 ], [ 283201.13, 4155393.26 ], [ 283201.13, 4155393.63 ], [ 283204.13, 4155396.63 ], [ 283220.89, 4155396.63 ], [ 283221.36, 4155396.7 ], [ 283222.7, 4155397.15 ], [ 283223.12, 4155397.37 ], [ 283245.03, 4155413.8 ], [ 283245.39, 4155414.18 ], [ 283246.23, 4155415.49 ], [ 283246.43, 4155415.97 ], [ 283250.0, 4155432.04 ], [ 283250.0, 4155352.26 ], [ 283247.08, 4155363.1 ], [ 283246.4, 4155363.98 ], [ 283243.73, 4155365.49 ], [ 283242.62, 4155365.62 ], [ 283227.89, 4155361.41 ], [ 283224.22, 4155363.35 ], [ 283222.96, 4155367.13 ], [ 283222.43, 4155367.85 ], [ 283220.35, 4155369.35 ], [ 283219.5, 4155369.63 ], [ 283213.13, 4155369.63 ], [ 283210.13, 4155372.63 ], [ 283210.13, 4155375.03 ], [ 283209.71, 4155376.05 ], [ 283207.55, 4155378.2 ], [ 283206.53, 4155378.63 ], [ 283201.73, 4155378.63 ], [ 283200.71, 4155378.2 ], [ 283198.55, 4155376.05 ], [ 283198.13, 4155375.03 ], [ 283198.13, 4155369.11 ], [ 283197.25, 4155366.99 ], [ 283197.09, 4155366.83 ], [ 283196.33, 4155366.28 ], [ 283195.87, 4155366.04 ], [ 283193.87, 4155363.26 ], [ 283193.68, 4155361.99 ], [ 283194.74, 4155358.8 ], [ 283194.58, 4155356.51 ], [ 283191.65, 4155350.66 ], [ 283191.71, 4155349.3 ], [ 283193.58, 4155346.29 ], [ 283194.77, 4155345.63 ], [ 283201.13, 4155345.63 ], [ 283204.13, 4155342.63 ], [ 283204.13, 4155326.79 ], [ 283202.08, 4155323.94 ], [ 283188.63, 4155319.46 ], [ 283187.91, 4155318.93 ], [ 283186.41, 4155316.85 ], [ 283186.18, 4155316.14 ], [ 283186.14, 4155316.12 ], [ 283186.07, 4155316.05 ], [ 283186.0, 4155315.98 ], [ 283185.95, 4155315.9 ], [ 283185.89, 4155315.82 ], [ 283185.85, 4155315.73 ], [ 283185.82, 4155315.64 ], [ 283185.79, 4155315.54 ], [ 283185.78, 4155315.44 ], [ 283185.77, 4155315.35 ], [ 283185.78, 4155315.25 ], [ 283185.79, 4155315.15 ], [ 283185.81, 4155315.06 ], [ 283185.85, 4155314.96 ], [ 283186.13, 4155314.26 ], [ 283186.13, 4155309.62 ], [ 283186.1, 4155309.59 ], [ 283186.04, 4155309.51 ], [ 283185.99, 4155309.43 ], [ 283185.95, 4155309.34 ], [ 283185.92, 4155309.25 ], [ 283185.89, 4155309.15 ], [ 283185.88, 4155309.06 ], [ 283185.87, 4155308.96 ], [ 283185.87, 4155308.86 ], [ 283185.89, 4155308.76 ], [ 283185.91, 4155308.67 ], [ 283185.94, 4155308.57 ], [ 283186.13, 4155308.11 ], [ 283186.13, 4155303.63 ], [ 283183.13, 4155300.63 ], [ 283173.29, 4155300.63 ], [ 283170.45, 4155302.68 ], [ 283162.96, 4155325.13 ], [ 283162.43, 4155325.85 ], [ 283160.35, 4155327.35 ], [ 283159.5, 4155327.63 ], [ 283150.73, 4155327.63 ], [ 283149.71, 4155327.2 ], [ 283147.55, 4155325.05 ], [ 283147.13, 4155324.03 ], [ 283147.13, 4155324.01 ], [ 283143.18, 4155321.8 ], [ 283143.03, 4155321.29 ], [ 283141.86, 4155321.63 ], [ 283139.81, 4155321.63 ], [ 283138.68, 4155321.06 ], [ 283136.65, 4155318.37 ], [ 283136.42, 4155317.12 ], [ 283140.6, 4155302.5 ], [ 283140.95, 4155301.88 ], [ 283142.38, 4155300.39 ], [ 283142.98, 4155300.01 ], [ 283148.37, 4155298.21 ], [ 283150.39, 4155295.79 ], [ 283152.92, 4155278.11 ], [ 283152.07, 4155275.56 ], [ 283148.44, 4155271.94 ], [ 283145.37, 4155271.21 ], [ 283132.11, 4155275.63 ], [ 283131.1, 4155275.6 ], [ 283128.47, 4155274.51 ], [ 283127.73, 4155273.81 ], [ 283126.75, 4155271.86 ], [ 283124.79, 4155270.29 ], [ 283116.89, 4155268.32 ], [ 283116.09, 4155267.8 ], [ 283114.44, 4155265.68 ], [ 283114.13, 4155264.78 ], [ 283114.13, 4155262.29 ], [ 283110.54, 4155259.34 ], [ 283104.2, 4155260.61 ], [ 283099.13, 4155271.41 ], [ 283099.13, 4155272.09 ], [ 283099.02, 4155272.66 ], [ 283098.37, 4155274.23 ], [ 283098.04, 4155274.71 ], [ 283097.17, 4155275.59 ], [ 283090.08, 4155290.68 ], [ 283090.05, 4155290.86 ], [ 283089.61, 4155292.2 ], [ 283089.39, 4155292.62 ], [ 283088.82, 4155293.38 ], [ 283079.32, 4155313.61 ], [ 283075.34, 4155335.48 ], [ 283075.19, 4155335.91 ], [ 283074.57, 4155337.09 ], [ 283074.31, 4155337.45 ], [ 283064.44, 4155347.31 ], [ 283063.72, 4155350.38 ], [ 283065.32, 4155355.19 ], [ 283068.66, 4155357.2 ], [ 283079.99, 4155355.32 ], [ 283081.14, 4155355.64 ], [ 283083.63, 4155357.74 ], [ 283084.13, 4155358.83 ], [ 283084.13, 4155368.1 ], [ 283084.98, 4155368.45 ], [ 283085.07, 4155368.49 ], [ 283085.16, 4155368.54 ], [ 283085.24, 4155368.6 ], [ 283085.31, 4155368.67 ], [ 283085.38, 4155368.74 ], [ 283085.44, 4155368.82 ], [ 283085.49, 4155368.91 ], [ 283085.53, 4155369.0 ], [ 283085.56, 4155369.09 ], [ 283085.58, 4155369.19 ], [ 283085.6, 4155369.29 ], [ 283085.6, 4155369.39 ], [ 283085.59, 4155369.49 ], [ 283085.58, 4155369.59 ], [ 283085.55, 4155369.68 ], [ 283085.52, 4155369.78 ], [ 283084.13, 4155372.93 ], [ 283084.13, 4155380.74 ], [ 283084.09, 4155381.09 ], [ 283083.85, 4155382.09 ], [ 283083.74, 4155382.41 ], [ 283073.44, 4155403.02 ], [ 283072.74, 4155403.69 ], [ 283070.26, 4155404.83 ], [ 283069.3, 4155404.92 ], [ 283063.86, 4155403.56 ], [ 283060.13, 4155406.47 ], [ 283060.13, 4155414.44 ], [ 283065.7, 4155416.94 ], [ 283065.79, 4155416.98 ] ], [ [ 283107.53, 4155288.63 ], [ 283105.73, 4155288.63 ], [ 283104.71, 4155288.2 ], [ 283102.55, 4155286.05 ], [ 283102.13, 4155285.03 ], [ 283102.13, 4155283.81 ], [ 283097.68, 4155281.87 ], [ 283097.59, 4155281.83 ], [ 283097.51, 4155281.77 ], [ 283097.43, 4155281.71 ], [ 283097.36, 4155281.65 ], [ 283097.3, 4155281.57 ], [ 283097.24, 4155281.49 ], [ 283097.19, 4155281.41 ], [ 283097.15, 4155281.32 ], [ 283097.12, 4155281.23 ], [ 283097.1, 4155281.13 ], [ 283097.08, 4155281.03 ], [ 283097.08, 4155280.93 ], [ 283097.09, 4155280.84 ], [ 283097.1, 4155280.74 ], [ 283097.13, 4155280.65 ], [ 283097.16, 4155280.55 ], [ 283099.28, 4155275.68 ], [ 283099.33, 4155275.59 ], [ 283099.38, 4155275.51 ], [ 283099.44, 4155275.43 ], [ 283099.51, 4155275.36 ], [ 283099.58, 4155275.29 ], [ 283099.66, 4155275.24 ], [ 283099.74, 4155275.19 ], [ 283099.83, 4155275.15 ], [ 283099.93, 4155275.12 ], [ 283100.02, 4155275.09 ], [ 283100.12, 4155275.08 ], [ 283100.22, 4155275.08 ], [ 283100.32, 4155275.08 ], [ 283100.41, 4155275.1 ], [ 283100.51, 4155275.13 ], [ 283100.6, 4155275.16 ], [ 283111.88, 4155280.07 ], [ 283111.97, 4155280.12 ], [ 283112.05, 4155280.17 ], [ 283112.13, 4155280.23 ], [ 283112.2, 4155280.3 ], [ 283112.27, 4155280.37 ], [ 283112.32, 4155280.45 ], [ 283112.37, 4155280.54 ], [ 283112.41, 4155280.63 ], [ 283112.44, 4155280.72 ], [ 283112.47, 4155280.81 ], [ 283112.48, 4155280.91 ], [ 283112.48, 4155281.01 ], [ 283112.47, 4155281.11 ], [ 283112.46, 4155281.2 ], [ 283112.43, 4155281.3 ], [ 283112.4, 4155281.39 ], [ 283111.13, 4155284.29 ], [ 283111.13, 4155285.03 ], [ 283110.71, 4155286.05 ], [ 283108.55, 4155288.2 ], [ 283107.53, 4155288.63 ] ] ], [ [ [ 283243.74, 4155251.86 ], [ 283242.16, 4155252.51 ], [ 283241.59, 4155252.63 ], [ 283235.12, 4155252.63 ], [ 283234.74, 4155252.58 ], [ 283233.63, 4155252.28 ], [ 283233.27, 4155252.13 ], [ 283229.54, 4155250.0 ], [ 283210.79, 4155250.0 ], [ 283210.54, 4155250.98 ], [ 283211.33, 4155253.83 ], [ 283214.93, 4155257.42 ], [ 283217.78, 4155258.21 ], [ 283225.06, 4155256.39 ], [ 283226.08, 4155256.51 ], [ 283228.62, 4155257.81 ], [ 283229.31, 4155258.56 ], [ 283233.38, 4155268.74 ], [ 283236.16, 4155270.63 ], [ 283241.16, 4155270.63 ], [ 283241.85, 4155270.8 ], [ 283243.7, 4155271.79 ], [ 283244.23, 4155272.27 ], [ 283248.24, 4155278.29 ], [ 283250.0, 4155279.23 ], [ 283250.0, 4155250.0 ], [ 283245.76, 4155250.0 ], [ 283244.22, 4155251.54 ], [ 283243.74, 4155251.86 ] ] ] ] } },
{ "type": "Feature", "properties": { "id": "richmond_structure:244054", "name": null, "kind": "deck", "sport": null, "surface": null, "pitch_layout": null, "source": "richmond_structures", "source_updated": "2026-09-08T12:07:13.637000Z", "base_z": null, "top_z": null }, "geometry": { "type": "Polygon", "coordinates": [ [ [ 283190.92, 4155321.2 ], [ 283191.38, 4155320.07 ], [ 283195.34, 4155321.68 ], [ 283196.03, 4155319.99 ], [ 283187.62, 4155316.59 ], [ 283186.48, 4155319.4 ], [ 283190.92, 4155321.2 ] ] ] } },
{ "type": "Feature", "properties": { "id": "richmond_structure:243112", "name": null, "kind": "deck", "sport": null, "surface": null, "pitch_layout": null, "source": "richmond_structures", "source_updated": "2026-09-08T12:07:13.637000Z", "base_z": null, "top_z": null }, "geometry": { "type": "Polygon", "coordinates": [ [ [ 283223.96, 4155317.49 ], [ 283222.76, 4155319.75 ], [ 283226.48, 4155321.74 ], [ 283227.69, 4155319.48 ], [ 283223.96, 4155317.49 ] ] ] } },
{ "type": "Feature", "properties": { "id": "richmond_structure:242749", "name": null, "kind": "deck", "sport": null, "surface": null, "pitch_layout": null, "source": "richmond_structures", "source_updated": "2026-09-08T12:07:13.637000Z", "base_z": null, "top_z": null }, "geometry": { "type": "Polygon", "coordinates": [ [ [ 283030.88, 4155298.58 ], [ 283036.32, 4155300.89 ], [ 283038.4, 4155295.05 ], [ 283032.95, 4155292.91 ], [ 283032.21, 4155293.74 ], [ 283030.88, 4155298.58 ] ] ] } },
{ "type": "Feature", "properties": { "id": "imagery:groundcover_lawn:3287", "name": null, "kind": "groundcover_lawn", "sport": null, "surface": null, "pitch_layout": null, "source": "vgin_vbmp+naip+lidar2025", "source_updated": null, "base_z": null, "top_z": null }, "geometry": { "type": "MultiPolygon", "coordinates": [ [ [ [ 283093.22, 4155250.0 ], [ 283095.82, 4155252.31 ], [ 283098.46, 4155251.31 ], [ 283099.06, 4155251.34 ], [ 283099.68, 4155250.0 ], [ 283093.22, 4155250.0 ] ] ], [ [ [ 283066.36, 4155302.82 ], [ 283068.07, 4155298.15 ], [ 283066.45, 4155295.9 ], [ 283060.09, 4155293.18 ], [ 283060.0, 4155293.14 ], [ 283059.92, 4155293.09 ], [ 283059.85, 4155293.03 ], [ 283059.78, 4155292.97 ], [ 283059.71, 4155292.9 ], [ 283059.65, 4155292.82 ], [ 283059.6, 4155292.74 ], [ 283059.56, 4155292.65 ], [ 283059.53, 4155292.56 ], [ 283059.51, 4155292.47 ], [ 283059.49, 4155292.37 ], [ 283059.48, 4155292.28 ], [ 283059.49, 4155292.18 ], [ 283059.5, 4155292.09 ], [ 283059.52, 4155291.99 ], [ 283059.55, 4155291.9 ], [ 283060.82, 4155288.6 ], [ 283060.86, 4155288.52 ], [ 283060.9, 4155288.43 ], [ 283060.96, 4155288.35 ], [ 283061.02, 4155288.28 ], [ 283061.09, 4155288.21 ], [ 283061.17, 4155288.15 ], [ 283061.25, 4155288.1 ], [ 283061.33, 4155288.05 ], [ 283061.42, 4155288.02 ], [ 283061.52, 4155287.99 ], [ 283061.61, 4155287.97 ], [ 283061.71, 4155287.96 ], [ 283061.81, 4155287.96 ], [ 283061.9, 4155287.97 ], [ 283062.0, 4155287.99 ], [ 283062.09, 4155288.02 ], [ 283063.26, 4155288.44 ], [ 283063.48, 4155287.97 ], [ 283063.53, 4155287.89 ], [ 283063.58, 4155287.8 ], [ 283063.65, 4155287.72 ], [ 283063.72, 4155287.65 ], [ 283063.8, 4155287.59 ], [ 283063.89, 4155287.54 ], [ 283063.98, 4155287.49 ], [ 283064.07, 4155287.46 ], [ 283064.17, 4155287.43 ], [ 283064.27, 4155287.41 ], [ 283064.37, 4155287.41 ], [ 283064.47, 4155287.41 ], [ 283064.57, 4155287.42 ], [ 283064.67, 4155287.45 ], [ 283064.76, 4155287.48 ], [ 283072.71, 4155290.77 ], [ 283072.8, 4155290.82 ], [ 283072.89, 4155290.87 ], [ 283072.92, 4155290.89 ], [ 283073.37, 4155291.04 ], [ 283076.44, 4155290.31 ], [ 283083.25, 4155283.5 ], [ 283084.13, 4155281.38 ], [ 283084.13, 4155275.48 ], [ 283082.47, 4155272.8 ], [ 283074.62, 4155268.87 ], [ 283073.96, 4155268.21 ], [ 283072.8, 4155265.82 ], [ 283072.68, 4155264.89 ], [ 283073.35, 4155261.55 ], [ 283073.85, 4155260.71 ], [ 283075.35, 4155259.48 ], [ 283075.39, 4155255.24 ], [ 283074.73, 4155254.94 ], [ 283074.65, 4155254.9 ], [ 283074.56, 4155254.85 ], [ 283074.49, 4155254.79 ], [ 283074.42, 4155254.72 ], [ 283074.35, 4155254.64 ], [ 283074.3, 4155254.56 ], [ 283074.25, 4155254.48 ], [ 283074.21, 4155254.39 ], [ 283074.18, 4155254.29 ], [ 283074.17, 4155254.28 ], [ 283071.83, 4155253.86 ], [ 283053.08, 4155260.9 ], [ 283051.81, 4155262.73 ], [ 283052.67, 4155263.08 ], [ 283052.76, 4155263.12 ], [ 283052.84, 4155263.17 ], [ 283052.92, 4155263.23 ], [ 283053.0, 4155263.29 ], [ 283053.06, 4155263.36 ], [ 283053.12, 4155263.44 ], [ 283053.17, 4155263.53 ], [ 283053.22, 4155263.61 ], [ 283053.25, 4155263.71 ], [ 283053.27, 4155263.8 ], [ 283053.29, 4155263.9 ], [ 283053.29, 4155264.0 ], [ 283053.29, 4155264.09 ], [ 283053.28, 4155264.19 ], [ 283053.25, 4155264.29 ], [ 283053.22, 4155264.38 ], [ 283051.22, 4155269.3 ], [ 283051.18, 4155269.39 ], [ 283051.13, 4155269.47 ], [ 283051.13, 4155292.65 ], [ 283050.96, 4155293.35 ], [ 283049.97, 4155295.19 ], [ 283049.49, 4155295.72 ], [ 283046.45, 4155297.74 ], [ 283046.17, 4155298.52 ], [ 283046.13, 4155298.61 ], [ 283046.08, 4155298.69 ], [ 283046.03, 4155298.77 ], [ 283045.96, 4155298.85 ], [ 283045.89, 4155298.92 ], [ 283045.82, 4155298.98 ], [ 283045.73, 4155299.03 ], [ 283045.65, 4155299.08 ], [ 283045.56, 4155299.11 ], [ 283045.46, 4155299.14 ], [ 283045.36, 4155299.16 ], [ 283045.27, 4155299.17 ], [ 283045.17, 4155299.17 ], [ 283045.07, 4155299.15 ], [ 283044.97, 4155299.13 ], [ 283044.88, 4155299.1 ], [ 283044.58, 4155298.99 ], [ 283043.75, 4155299.55 ], [ 283042.45, 4155302.54 ], [ 283042.66, 4155303.79 ], [ 283061.08, 4155311.67 ], [ 283063.13, 4155309.63 ], [ 283063.13, 4155306.47 ], [ 283063.44, 4155305.57 ], [ 283065.09, 4155303.45 ], [ 283065.89, 4155302.94 ], [ 283066.36, 4155302.82 ] ] ], [ [ [ 283019.06, 4155390.49 ], [ 283036.25, 4155388.04 ], [ 283038.81, 4155384.74 ], [ 283036.33, 4155362.39 ], [ 283036.4, 4155361.74 ], [ 283037.04, 4155359.92 ], [ 283037.39, 4155359.37 ], [ 283041.25, 4155355.5 ], [ 283042.13, 4155353.38 ], [ 283042.13, 4155343.83 ], [ 283042.64, 4155342.74 ], [ 283045.12, 4155340.64 ], [ 283046.28, 4155340.32 ], [ 283057.95, 4155342.26 ], [ 283061.12, 4155340.64 ], [ 283065.81, 4155331.26 ], [ 283066.13, 4155329.92 ], [ 283066.13, 4155324.09 ], [ 283065.0, 4155322.7 ], [ 283059.27, 4155320.25 ], [ 283054.05, 4155319.21 ], [ 283053.21, 4155318.71 ], [ 283051.9, 4155317.1 ], [ 283044.34, 4155313.87 ], [ 283044.64, 4155315.68 ], [ 283044.46, 4155316.64 ], [ 283043.08, 4155319.04 ], [ 283042.33, 4155319.68 ], [ 283022.29, 4155327.19 ], [ 283021.62, 4155326.88 ], [ 283020.68, 4155327.4 ], [ 283020.78, 4155326.69 ], [ 283019.82, 4155326.56 ], [ 283018.82, 4155326.59 ], [ 283017.1, 4155326.94 ], [ 283009.75, 4155322.04 ], [ 283008.39, 4155321.55 ], [ 283000.0, 4155320.71 ], [ 283000.0, 4155335.9 ], [ 283002.54, 4155337.04 ], [ 283002.75, 4155336.89 ], [ 283003.6, 4155336.63 ], [ 283013.19, 4155336.63 ], [ 283014.95, 4155336.06 ], [ 283015.65, 4155335.55 ], [ 283016.6, 4155335.37 ], [ 283017.67, 4155334.72 ], [ 283019.33, 4155334.99 ], [ 283020.78, 4155336.71 ], [ 283021.13, 4155337.65 ], [ 283021.13, 4155351.65 ], [ 283020.8, 4155352.57 ], [ 283019.05, 4155354.71 ], [ 283018.21, 4155355.21 ], [ 283009.66, 4155356.92 ], [ 283008.58, 4155356.71 ], [ 283006.04, 4155355.01 ], [ 283005.43, 4155354.1 ], [ 283003.55, 4155344.73 ], [ 283003.11, 4155343.99 ], [ 283000.0, 4155342.59 ], [ 283000.0, 4155381.56 ], [ 283017.29, 4155390.21 ], [ 283019.06, 4155390.49 ] ] ] ] } },
{ "type": "Feature", "properties": { "id": "imagery:groundcover_paved:3237", "name": null, "kind": "groundcover_paved", "sport": null, "surface": null, "pitch_layout": null, "source": "vgin_vbmp+naip+lidar2025", "source_updated": null, "base_z": null, "top_z": null }, "geometry": { "type": "Polygon", "coordinates": [ [ [ 283003.13, 4155352.28 ], [ 283005.4, 4155355.19 ], [ 283013.84, 4155357.3 ], [ 283016.24, 4155356.89 ], [ 283022.8, 4155352.52 ], [ 283024.13, 4155350.02 ], [ 283024.13, 4155333.63 ], [ 283021.13, 4155330.63 ], [ 283017.29, 4155330.63 ], [ 283014.45, 4155332.68 ], [ 283013.14, 4155336.59 ], [ 283012.49, 4155337.39 ], [ 283010.01, 4155338.83 ], [ 283009.0, 4155339.0 ], [ 283005.18, 4155338.24 ], [ 283017.54, 4155343.81 ], [ 283017.81, 4155343.95 ], [ 283018.06, 4155344.11 ], [ 283018.3, 4155344.3 ], [ 283018.51, 4155344.51 ], [ 283018.71, 4155344.73 ], [ 283018.88, 4155344.98 ], [ 283019.02, 4155345.24 ], [ 283019.14, 4155345.52 ], [ 283019.23, 4155345.8 ], [ 283019.3, 4155346.09 ], [ 283019.33, 4155346.39 ], [ 283019.34, 4155346.69 ], [ 283019.31, 4155346.99 ], [ 283019.26, 4155347.28 ], [ 283019.18, 4155347.57 ], [ 283019.07, 4155347.85 ], [ 283018.93, 4155348.12 ], [ 283018.77, 4155348.37 ], [ 283018.59, 4155348.6 ], [ 283018.38, 4155348.82 ], [ 283018.15, 4155349.01 ], [ 283017.9, 4155349.18 ], [ 283017.64, 4155349.33 ], [ 283017.37, 4155349.45 ], [ 283017.08, 4155349.54 ], [ 283016.79, 4155349.6 ], [ 283016.49, 4155349.64 ], [ 283016.19, 4155349.64 ], [ 283015.9, 4155349.62 ], [ 283015.6, 4155349.57 ], [ 283015.31, 4155349.48 ], [ 283015.04, 4155349.37 ], [ 283000.37, 4155342.76 ], [ 283000.39, 4155342.88 ], [ 283002.71, 4155345.2 ], [ 283003.13, 4155346.22 ], [ 283003.13, 4155352.28 ] ] ] } },
{ "type": "Feature", "properties": { "id": "richmond_structure:242767", "name": null, "kind": "deck", "sport": null, "surface": null, "pitch_layout": null, "source": "richmond_structures", "source_updated": "2026-09-08T12:07:13.637000Z", "base_z": null, "top_z": null }, "geometry": { "type": "Polygon", "coordinates": [ [ [ 283022.99, 4155407.33 ], [ 283020.93, 4155405.88 ], [ 283015.38, 4155417.99 ], [ 283017.49, 4155419.0 ], [ 283022.99, 4155407.33 ] ] ] } },
{ "type": "Feature", "properties": { "id": "richmond_structure:244015", "name": null, "kind": "deck", "sport": null, "surface": null, "pitch_layout": null, "source": "richmond_structures", "source_updated": "2026-09-08T12:07:13.637000Z", "base_z": null, "top_z": null }, "geometry": { "type": "Polygon", "coordinates": [ [ [ 283000.0, 4155444.25 ], [ 283003.03, 4155445.61 ], [ 283003.57, 4155444.23 ], [ 283000.45, 4155441.98 ], [ 283000.0, 4155442.64 ], [ 283000.0, 4155444.25 ] ] ] } },
{ "type": "Feature", "properties": { "id": "imagery:groundcover_lawn:3142", "name": null, "kind": "groundcover_lawn", "sport": null, "surface": null, "pitch_layout": null, "source": "vgin_vbmp+naip+lidar2025", "source_updated": null, "base_z": null, "top_z": null }, "geometry": { "type": "Polygon", "coordinates": [ [ [ 283021.21, 4155500.0 ], [ 283023.09, 4155495.96 ], [ 283023.13, 4155495.87 ], [ 283023.19, 4155495.8 ], [ 283023.25, 4155495.72 ], [ 283023.31, 4155495.65 ], [ 283023.38, 4155495.59 ], [ 283023.46, 4155495.54 ], [ 283023.55, 4155495.49 ], [ 283023.63, 4155495.45 ], [ 283023.72, 4155495.42 ], [ 283023.82, 4155495.4 ], [ 283023.91, 4155495.39 ], [ 283024.01, 4155495.38 ], [ 283024.02, 4155495.38 ], [ 283024.13, 4155494.92 ], [ 283024.13, 4155489.63 ], [ 283021.13, 4155486.63 ], [ 283020.29, 4155486.63 ], [ 283017.45, 4155488.68 ], [ 283015.29, 4155495.16 ], [ 283015.13, 4155496.11 ], [ 283015.13, 4155498.63 ], [ 283016.51, 4155500.0 ], [ 283021.21, 4155500.0 ] ] ] } },
{ "type": "Feature", "properties": { "id": "richmond_structure:242760", "name": null, "kind": "deck", "sport": null, "surface": null, "pitch_layout": null, "source": "richmond_structures", "source_updated": "2026-09-08T12:07:13.637000Z", "base_z": null, "top_z": null }, "geometry": { "type": "Polygon", "coordinates": [ [ [ 283239.7, 4155319.72 ], [ 283239.83, 4155323.26 ], [ 283237.44, 4155327.57 ], [ 283241.42, 4155329.69 ], [ 283245.4, 4155322.09 ], [ 283239.7, 4155319.72 ] ] ] } },
{ "type": "Feature", "properties": { "id": "richmond_structure:242759", "name": null, "kind": "deck", "sport": null, "surface": null, "pitch_layout": null, "source": "richmond_structures", "source_updated": "2026-09-08T12:07:13.637000Z", "base_z": null, "top_z": null }, "geometry": { "type": "Polygon", "coordinates": [ [ [ 283195.72, 4155364.19 ], [ 283210.7, 4155345.83 ], [ 283191.42, 4155330.0 ], [ 283176.01, 4155348.6 ], [ 283195.72, 4155364.19 ] ] ] } },
{ "type": "Feature", "properties": { "id": "richmond_structure:244019", "name": null, "kind": "deck", "sport": null, "surface": null, "pitch_layout": null, "source": "richmond_structures", "source_updated": "2026-09-08T12:07:13.637000Z", "base_z": null, "top_z": null }, "geometry": { "type": "Polygon", "coordinates": [ [ [ 283140.66, 4155418.81 ], [ 283142.28, 4155414.94 ], [ 283130.68, 4155410.09 ], [ 283129.06, 4155413.95 ], [ 283140.66, 4155418.81 ] ] ] } },
{ "type": "Feature", "properties": { "id": "imagery:groundcover_lawn:3185", "name": null, "kind": "groundcover_lawn", "sport": null, "surface": null, "pitch_layout": null, "source": "vgin_vbmp+naip+lidar2025", "source_updated": null, "base_z": null, "top_z": null }, "geometry": { "type": "MultiPolygon", "coordinates": [ [ [ [ 283154.04, 4155474.63 ], [ 283159.79, 4155474.63 ], [ 283162.7, 4155472.35 ], [ 283164.64, 4155464.59 ], [ 283164.99, 4155463.95 ], [ 283166.44, 4155462.38 ], [ 283167.05, 4155461.99 ], [ 283170.24, 4155460.92 ], [ 283170.28, 4155460.9 ], [ 283170.37, 4155460.86 ], [ 283170.46, 4155460.83 ], [ 283170.56, 4155460.82 ], [ 283170.56, 4155460.81 ], [ 283171.06, 4155460.65 ], [ 283172.86, 4155456.6 ], [ 283172.03, 4155454.71 ], [ 283171.96, 4155453.73 ], [ 283176.45, 4155438.02 ], [ 283174.9, 4155434.51 ], [ 283165.76, 4155429.94 ], [ 283164.42, 4155429.63 ], [ 283161.39, 4155429.63 ], [ 283158.51, 4155431.8 ], [ 283153.89, 4155447.98 ], [ 283153.36, 4155448.74 ], [ 283151.26, 4155450.33 ], [ 283150.38, 4155450.63 ], [ 283148.99, 4155450.63 ], [ 283146.3, 4155452.28 ], [ 283144.45, 4155455.99 ], [ 283144.13, 4155457.33 ], [ 283144.13, 4155467.02 ], [ 283145.47, 4155469.52 ], [ 283152.38, 4155474.12 ], [ 283154.04, 4155474.63 ] ] ], [ [ [ 283199.61, 4155468.48 ], [ 283198.8, 4155466.82 ], [ 283198.68, 4155465.89 ], [ 283199.18, 4155463.37 ], [ 283199.15, 4155463.29 ], [ 283199.12, 4155463.19 ], [ 283199.1, 4155463.1 ], [ 283199.09, 4155463.0 ], [ 283199.09, 4155462.9 ], [ 283199.1, 4155462.8 ], [ 283199.12, 4155462.71 ], [ 283199.14, 4155462.61 ], [ 283199.18, 4155462.52 ], [ 283199.48, 4155461.89 ], [ 283199.94, 4155459.59 ], [ 283198.41, 4155456.36 ], [ 283194.87, 4155456.88 ], [ 283193.93, 4155457.83 ], [ 283193.27, 4155459.23 ], [ 283193.22, 4155459.32 ], [ 283193.17, 4155459.4 ], [ 283193.11, 4155459.47 ], [ 283193.04, 4155459.54 ], [ 283192.96, 4155459.61 ], [ 283192.88, 4155459.66 ], [ 283192.8, 4155459.71 ], [ 283192.71, 4155459.75 ], [ 283192.61, 4155459.78 ], [ 283192.52, 4155459.79 ], [ 283192.42, 4155459.8 ], [ 283192.32, 4155459.81 ], [ 283192.22, 4155459.8 ], [ 283192.13, 4155459.78 ], [ 283192.03, 4155459.75 ], [ 283191.94, 4155459.71 ], [ 283191.65, 4155459.58 ], [ 283191.53, 4155459.63 ], [ 283184.96, 4155459.63 ], [ 283182.07, 4155461.82 ], [ 283183.42, 4155465.2 ], [ 283193.83, 4155471.45 ], [ 283195.74, 4155472.33 ], [ 283198.94, 4155472.01 ], [ 283199.61, 4155468.48 ] ] ], [ [ [ 283234.13, 4155478.46 ], [ 283234.13, 4155465.63 ], [ 283231.13, 4155462.63 ], [ 283230.47, 4155462.63 ], [ 283227.56, 4155464.9 ], [ 283225.82, 4155471.87 ], [ 283225.3, 4155472.66 ], [ 283223.18, 4155474.32 ], [ 283222.29, 4155474.63 ], [ 283215.05, 4155474.63 ], [ 283212.08, 4155477.21 ], [ 283214.23, 4155480.51 ], [ 283224.24, 4155483.37 ], [ 283226.01, 4155483.33 ], [ 283232.08, 4155481.31 ], [ 283234.13, 4155478.46 ] ] ] ] } },
{ "type": "Feature", "properties": { "id": "imagery:groundcover_lawn:3162", "name": null, "kind": "groundcover_lawn", "sport": null, "surface": null, "pitch_layout": null, "source": "vgin_vbmp+naip+lidar2025", "source_updated": null, "base_z": null, "top_z": null }, "geometry": { "type": "Polygon", "coordinates": [ [ [ 283088.84, 4155486.24 ], [ 283088.92, 4155486.29 ], [ 283089.01, 4155486.34 ], [ 283089.09, 4155486.4 ], [ 283089.16, 4155486.47 ], [ 283089.22, 4155486.54 ], [ 283089.28, 4155486.62 ], [ 283089.33, 4155486.71 ], [ 283089.37, 4155486.8 ], [ 283089.4, 4155486.89 ], [ 283089.42, 4155486.99 ], [ 283089.43, 4155487.08 ], [ 283089.44, 4155487.18 ], [ 283089.43, 4155487.28 ], [ 283089.41, 4155487.38 ], [ 283089.39, 4155487.47 ], [ 283089.35, 4155487.56 ], [ 283089.06, 4155488.22 ], [ 283091.63, 4155489.63 ], [ 283091.91, 4155489.02 ], [ 283091.96, 4155488.93 ], [ 283092.01, 4155488.85 ], [ 283092.07, 4155488.77 ], [ 283092.14, 4155488.7 ], [ 283092.21, 4155488.64 ], [ 283092.29, 4155488.58 ], [ 283092.38, 4155488.53 ], [ 283092.47, 4155488.5 ], [ 283092.56, 4155488.47 ], [ 283092.66, 4155488.45 ], [ 283092.76, 4155488.43 ], [ 283092.85, 4155488.43 ], [ 283092.95, 4155488.44 ], [ 283093.05, 4155488.46 ], [ 283093.14, 4155488.49 ], [ 283093.23, 4155488.52 ], [ 283099.14, 4155491.2 ], [ 283105.06, 4155493.88 ], [ 283108.13, 4155495.27 ], [ 283107.14, 4155491.26 ], [ 283090.47, 4155480.84 ], [ 283089.75, 4155480.51 ], [ 283084.34, 4155478.89 ], [ 283080.71, 4155480.61 ], [ 283081.58, 4155483.07 ], [ 283083.16, 4155483.76 ], [ 283088.84, 4155486.24 ] ] ] } },
{ "type": "Feature", "properties": { "id": "imagery:groundcover_paved:3471", "name": null, "kind": "groundcover_paved", "sport": null, "surface": null, "pitch_layout": null, "source": "vgin_vbmp+naip+lidar2025", "source_updated": null, "base_z": null, "top_z": null }, "geometry": { "type": "MultiPolygon", "coordinates": [ [ [ [ 283032.71, 4155252.2 ], [ 283033.13, 4155253.22 ], [ 283033.13, 4155257.46 ], [ 283037.94, 4155259.47 ], [ 283038.38, 4155259.68 ], [ 283038.8, 4155259.94 ], [ 283039.2, 4155260.23 ], [ 283039.56, 4155260.57 ], [ 283039.89, 4155260.93 ], [ 283043.65, 4155262.61 ], [ 283044.39, 4155260.79 ], [ 283044.6, 4155260.34 ], [ 283044.85, 4155259.92 ], [ 283045.14, 4155259.53 ], [ 283045.47, 4155259.16 ], [ 283045.83, 4155258.83 ], [ 283046.22, 4155258.53 ], [ 283046.64, 4155258.28 ], [ 283047.08, 4155258.07 ], [ 283047.54, 4155257.9 ], [ 283048.02, 4155257.77 ], [ 283048.5, 4155257.7 ], [ 283048.99, 4155257.67 ], [ 283049.48, 4155257.69 ], [ 283049.97, 4155257.76 ], [ 283050.45, 4155257.88 ], [ 283050.91, 4155258.04 ], [ 283054.18, 4155259.37 ], [ 283054.62, 4155259.58 ], [ 283055.05, 4155259.83 ], [ 283055.44, 4155260.12 ], [ 283055.5, 4155260.17 ], [ 283067.08, 4155256.31 ], [ 283067.27, 4155256.05 ], [ 283066.83, 4155255.83 ], [ 283066.42, 4155255.57 ], [ 283066.04, 4155255.26 ], [ 283065.68, 4155254.92 ], [ 283065.36, 4155254.55 ], [ 283065.08, 4155254.15 ], [ 283064.84, 4155253.72 ], [ 283064.65, 4155253.27 ], [ 283064.49, 4155252.81 ], [ 283064.39, 4155252.33 ], [ 283064.33, 4155251.84 ], [ 283064.32, 4155251.35 ], [ 283064.36, 4155250.86 ], [ 283064.45, 4155250.38 ], [ 283064.55, 4155250.0 ], [ 283061.77, 4155250.0 ], [ 283060.71, 4155252.52 ], [ 283060.58, 4155252.79 ], [ 283060.42, 4155253.05 ], [ 283060.24, 4155253.29 ], [ 283060.04, 4155253.51 ], [ 283059.82, 4155253.71 ], [ 283059.58, 4155253.89 ], [ 283059.32, 4155254.04 ], [ 283059.05, 4155254.17 ], [ 283058.76, 4155254.26 ], [ 283058.47, 4155254.34 ], [ 283058.18, 4155254.38 ], [ 283057.88, 4155254.39 ], [ 283057.58, 4155254.38 ], [ 283057.28, 4155254.33 ], [ 283056.99, 4155254.26 ], [ 283056.71, 4155254.15 ], [ 283046.83, 4155250.0 ], [ 283030.44, 4155250.0 ], [ 283030.55, 4155250.05 ], [ 283032.71, 4155252.2 ] ] ], [ [ [ 283084.13, 4155252.63 ], [ 283087.13, 4155255.63 ], [ 283088.46, 4155255.63 ], [ 283091.4, 4155252.0 ], [ 283091.23, 4155251.23 ], [ 283091.54, 4155250.0 ], [ 283085.25, 4155250.0 ], [ 283084.13, 4155252.5 ], [ 283084.13, 4155252.63 ] ] ], [ [ [ 283222.7, 4155367.91 ], [ 283224.04, 4155363.9 ], [ 283224.74, 4155363.08 ], [ 283227.38, 4155361.69 ], [ 283228.45, 4155361.57 ], [ 283243.37, 4155365.84 ], [ 283247.04, 4155363.9 ], [ 283250.0, 4155355.02 ], [ 283250.0, 4155339.63 ], [ 283243.98, 4155350.93 ], [ 283243.73, 4155351.36 ], [ 283243.44, 4155351.75 ], [ 283243.11, 4155352.11 ], [ 283242.75, 4155352.44 ], [ 283242.35, 4155352.74 ], [ 283241.93, 4155352.99 ], [ 283241.49, 4155353.2 ], [ 283241.03, 4155353.37 ], [ 283240.55, 4155353.49 ], [ 283240.07, 4155353.56 ], [ 283239.58, 4155353.58 ], [ 283239.09, 4155353.56 ], [ 283238.6, 4155353.49 ], [ 283238.12, 4155353.37 ], [ 283237.66, 4155353.21 ], [ 283237.22, 4155353.0 ], [ 283228.79, 4155348.51 ], [ 283227.56, 4155348.1 ], [ 283227.14, 4155347.88 ], [ 283226.0, 4155347.03 ], [ 283212.78, 4155339.99 ], [ 283212.36, 4155339.74 ], [ 283211.96, 4155339.44 ], [ 283211.6, 4155339.12 ], [ 283211.27, 4155338.75 ], [ 283210.97, 4155338.36 ], [ 283210.72, 4155337.94 ], [ 283210.51, 4155337.49 ], [ 283210.34, 4155337.03 ], [ 283210.22, 4155336.56 ], [ 283210.15, 4155336.07 ], [ 283210.13, 4155335.58 ], [ 283210.15, 4155335.09 ], [ 283210.22, 4155334.61 ], [ 283210.34, 4155334.13 ], [ 283210.5, 4155333.67 ], [ 283210.71, 4155333.22 ], [ 283211.35, 4155332.02 ], [ 283211.17, 4155332.0 ], [ 283210.87, 4155331.94 ], [ 283210.59, 4155331.84 ], [ 283210.31, 4155331.73 ], [ 283210.05, 4155331.58 ], [ 283209.81, 4155331.41 ], [ 283209.58, 4155331.22 ], [ 283209.37, 4155331.0 ], [ 283209.18, 4155330.77 ], [ 283209.02, 4155330.51 ], [ 283208.89, 4155330.25 ], [ 283208.78, 4155329.97 ], [ 283208.69, 4155329.68 ], [ 283208.64, 4155329.39 ], [ 283208.62, 4155329.09 ], [ 283208.62, 4155328.79 ], [ 283208.65, 4155328.49 ], [ 283208.72, 4155328.2 ], [ 283208.81, 4155327.91 ], [ 283208.93, 4155327.64 ], [ 283209.29, 4155326.9 ], [ 283209.22, 4155326.97 ], [ 283208.83, 4155327.26 ], [ 283208.41, 4155327.52 ], [ 283207.97, 4155327.73 ], [ 283207.51, 4155327.9 ], [ 283207.03, 4155328.03 ], [ 283206.55, 4155328.1 ], [ 283206.06, 4155328.13 ], [ 283205.57, 4155328.11 ], [ 283205.08, 4155328.04 ], [ 283204.61, 4155327.93 ], [ 283204.14, 4155327.77 ], [ 283202.51, 4155327.1 ], [ 283201.45, 4155329.54 ], [ 283203.44, 4155341.48 ], [ 283203.12, 4155342.64 ], [ 283201.02, 4155345.12 ], [ 283199.93, 4155345.63 ], [ 283192.13, 4155345.63 ], [ 283189.13, 4155348.63 ], [ 283189.13, 4155350.66 ], [ 283189.69, 4155352.41 ], [ 283203.04, 4155371.1 ], [ 283205.98, 4155372.32 ], [ 283220.35, 4155369.92 ], [ 283222.7, 4155367.91 ] ] ], [ [ [ 283246.99, 4155308.75 ], [ 283246.54, 4155308.55 ], [ 283246.1, 4155308.31 ], [ 283245.69, 4155308.03 ], [ 283245.31, 4155307.71 ], [ 283244.96, 4155307.36 ], [ 283244.65, 4155306.97 ], [ 283244.38, 4155306.55 ], [ 283244.15, 4155306.11 ], [ 283243.97, 4155305.64 ], [ 283243.84, 4155305.16 ], [ 283243.75, 4155304.67 ], [ 283243.71, 4155304.18 ], [ 283243.72, 4155303.68 ], [ 283243.79, 4155303.19 ], [ 283243.9, 4155302.7 ], [ 283249.42, 4155282.98 ], [ 283249.58, 4155282.52 ], [ 283249.78, 4155282.07 ], [ 283250.0, 4155281.68 ], [ 283250.0, 4155279.23 ], [ 283248.57, 4155278.46 ], [ 283248.04, 4155277.98 ], [ 283244.02, 4155271.96 ], [ 283241.53, 4155270.63 ], [ 283236.61, 4155270.63 ], [ 283235.79, 4155270.37 ], [ 283233.75, 4155268.99 ], [ 283233.21, 4155268.32 ], [ 283229.1, 4155258.06 ], [ 283225.59, 4155256.26 ], [ 283218.16, 4155258.12 ], [ 283217.4, 4155258.11 ], [ 283215.3, 4155257.53 ], [ 283214.66, 4155257.15 ], [ 283211.22, 4155253.71 ], [ 283210.9, 4155253.23 ], [ 283210.24, 4155251.66 ], [ 283210.13, 4155251.09 ], [ 283210.13, 4155250.0 ], [ 283206.72, 4155250.0 ], [ 283211.36, 4155255.66 ], [ 283222.83, 4155263.84 ], [ 283239.2, 4155274.28 ], [ 283239.55, 4155274.53 ], [ 283239.87, 4155274.8 ], [ 283240.16, 4155275.11 ], [ 283240.42, 4155275.44 ], [ 283240.64, 4155275.8 ], [ 283240.83, 4155276.18 ], [ 283240.98, 4155276.57 ], [ 283241.09, 4155276.98 ], [ 283241.16, 4155277.39 ], [ 283241.19, 4155277.81 ], [ 283241.18, 4155278.24 ], [ 283241.13, 4155278.65 ], [ 283241.03, 4155279.07 ], [ 283240.9, 4155279.47 ], [ 283240.73, 4155279.85 ], [ 283240.52, 4155280.22 ], [ 283240.27, 4155280.56 ], [ 283240.0, 4155280.88 ], [ 283239.69, 4155281.17 ], [ 283239.36, 4155281.43 ], [ 283239.0, 4155281.65 ], [ 283238.62, 4155281.84 ], [ 283238.29, 4155281.97 ], [ 283222.83, 4155313.27 ], [ 283223.14, 4155313.38 ], [ 283223.58, 4155313.59 ], [ 283250.0, 4155327.66 ], [ 283250.0, 4155309.54 ], [ 283247.47, 4155308.89 ], [ 283246.99, 4155308.75 ] ] ], [ [ [ 283138.05, 4155251.63 ], [ 283145.23, 4155254.77 ], [ 283145.67, 4155254.99 ], [ 283146.08, 4155255.25 ], [ 283146.29, 4155255.42 ], [ 283148.87, 4155256.47 ], [ 283149.31, 4155256.68 ], [ 283149.73, 4155256.92 ], [ 283150.13, 4155257.21 ], [ 283150.49, 4155257.54 ], [ 283150.82, 4155257.9 ], [ 283151.12, 4155258.29 ], [ 283151.37, 4155258.71 ], [ 283151.58, 4155259.15 ], [ 283151.75, 4155259.61 ], [ 283151.87, 4155260.08 ], [ 283151.95, 4155260.57 ], [ 283151.98, 4155261.06 ], [ 283151.96, 4155261.54 ], [ 283151.89, 4155262.03 ], [ 283151.78, 4155262.51 ], [ 283151.62, 4155262.97 ], [ 283149.79, 4155267.5 ], [ 283149.58, 4155267.95 ], [ 283149.33, 4155268.37 ], [ 283149.05, 4155268.77 ], [ 283148.72, 4155269.13 ], [ 283148.36, 4155269.47 ], [ 283147.97, 4155269.76 ], [ 283147.55, 4155270.02 ], [ 283147.11, 4155270.23 ], [ 283146.65, 4155270.4 ], [ 283146.17, 4155270.53 ], [ 283145.69, 4155270.6 ], [ 283145.2, 4155270.63 ], [ 283144.99, 4155270.62 ], [ 283145.47, 4155271.52 ], [ 283151.2, 4155275.34 ], [ 283151.73, 4155275.96 ], [ 283152.69, 4155278.11 ], [ 283152.8, 4155278.92 ], [ 283149.16, 4155304.44 ], [ 283153.7, 4155307.42 ], [ 283154.63, 4155306.85 ], [ 283155.4, 4155306.63 ], [ 283160.59, 4155306.63 ], [ 283161.16, 4155306.74 ], [ 283162.74, 4155307.39 ], [ 283163.22, 4155307.71 ], [ 283164.38, 4155308.88 ], [ 283169.42, 4155307.49 ], [ 283170.34, 4155303.79 ], [ 283170.94, 4155302.94 ], [ 283173.35, 4155301.32 ], [ 283174.36, 4155301.09 ], [ 283184.49, 4155302.53 ], [ 283184.85, 4155302.2 ], [ 283185.25, 4155301.9 ], [ 283185.66, 4155301.65 ], [ 283186.11, 4155301.44 ], [ 283186.57, 4155301.27 ], [ 283187.04, 4155301.15 ], [ 283187.12, 4155301.13 ], [ 283189.17, 4155296.08 ], [ 283189.37, 4155295.63 ], [ 283189.62, 4155295.21 ], [ 283189.91, 4155294.81 ], [ 283190.24, 4155294.45 ], [ 283190.6, 4155294.11 ], [ 283190.99, 4155293.82 ], [ 283191.41, 4155293.56 ], [ 283191.85, 4155293.35 ], [ 283192.13, 4155293.25 ], [ 283192.13, 4155277.51 ], [ 283192.17, 4155277.16 ], [ 283192.41, 4155276.16 ], [ 283192.53, 4155275.84 ], [ 283192.86, 4155275.16 ], [ 283192.51, 4155273.71 ], [ 283184.54, 4155290.08 ], [ 283184.34, 4155290.45 ], [ 283184.1, 4155290.8 ], [ 283183.83, 4155291.12 ], [ 283183.53, 4155291.42 ], [ 283183.2, 4155291.68 ], [ 283182.85, 4155291.91 ], [ 283182.47, 4155292.11 ], [ 283182.08, 4155292.27 ], [ 283181.68, 4155292.38 ], [ 283181.26, 4155292.46 ], [ 283180.84, 4155292.5 ], [ 283180.42, 4155292.49 ], [ 283180.0, 4155292.45 ], [ 283179.59, 4155292.36 ], [ 283179.19, 4155292.23 ], [ 283178.8, 4155292.07 ], [ 283178.43, 4155291.87 ], [ 283178.08, 4155291.63 ], [ 283177.76, 4155291.36 ], [ 283177.46, 4155291.06 ], [ 283177.2, 4155290.73 ], [ 283176.97, 4155290.37 ], [ 283176.77, 4155290.0 ], [ 283176.61, 4155289.61 ], [ 283176.5, 4155289.2 ], [ 283176.42, 4155288.79 ], [ 283176.38, 4155288.37 ], [ 283176.39, 4155287.94 ], [ 283176.43, 4155287.53 ], [ 283176.52, 4155287.11 ], [ 283176.64, 4155286.71 ], [ 283176.81, 4155286.32 ], [ 283180.93, 4155277.84 ], [ 283176.83, 4155276.03 ], [ 283176.71, 4155276.13 ], [ 283174.64, 4155288.59 ], [ 283174.14, 4155289.46 ], [ 283172.0, 4155291.28 ], [ 283171.06, 4155291.63 ], [ 283165.73, 4155291.63 ], [ 283164.71, 4155291.2 ], [ 283162.55, 4155289.05 ], [ 283162.13, 4155288.03 ], [ 283162.13, 4155260.9 ], [ 283162.2, 4155260.64 ], [ 283162.13, 4155260.51 ], [ 283161.93, 4155260.06 ], [ 283161.78, 4155259.59 ], [ 283161.67, 4155259.12 ], [ 283161.61, 4155258.63 ], [ 283161.59, 4155258.14 ], [ 283161.63, 4155257.65 ], [ 283161.71, 4155257.17 ], [ 283161.84, 4155256.69 ], [ 283162.02, 4155256.23 ], [ 283164.77, 4155250.0 ], [ 283137.22, 4155250.0 ], [ 283137.91, 4155251.12 ], [ 283138.05, 4155251.63 ] ] ], [ [ [ 283194.16, 4155250.63 ], [ 283192.77, 4155250.0 ], [ 283191.82, 4155250.0 ], [ 283194.0, 4155250.96 ], [ 283194.16, 4155250.63 ] ] ], [ [ [ 283106.67, 4155255.63 ], [ 283112.0, 4155255.63 ], [ 283114.47, 4155250.0 ], [ 283109.18, 4155250.0 ], [ 283106.53, 4155255.65 ], [ 283106.67, 4155255.63 ] ] ], [ [ [ 283040.28, 4155301.66 ], [ 283037.92, 4155300.78 ], [ 283037.46, 4155300.58 ], [ 283037.03, 4155300.34 ], [ 283036.63, 4155300.06 ], [ 283036.25, 4155299.74 ], [ 283035.91, 4155299.39 ], [ 283035.6, 4155299.0 ], [ 283035.33, 4155298.59 ], [ 283035.16, 4155298.24 ], [ 283033.06, 4155297.42 ], [ 283032.99, 4155297.45 ], [ 283032.52, 4155297.6 ], [ 283032.05, 4155297.71 ], [ 283031.56, 4155297.77 ], [ 283031.07, 4155297.78 ], [ 283030.58, 4155297.74 ], [ 283030.1, 4155297.66 ], [ 283029.63, 4155297.53 ], [ 283029.17, 4155297.35 ], [ 283023.84, 4155294.99 ], [ 283023.41, 4155294.77 ], [ 283022.99, 4155294.51 ], [ 283022.6, 4155294.21 ], [ 283022.25, 4155293.87 ], [ 283021.98, 4155293.55 ], [ 283018.55, 4155292.15 ], [ 283018.09, 4155292.25 ], [ 283017.6, 4155292.31 ], [ 283017.11, 4155292.32 ], [ 283016.62, 4155292.29 ], [ 283016.14, 4155292.2 ], [ 283015.66, 4155292.07 ], [ 283015.21, 4155291.89 ], [ 283010.0, 4155289.58 ], [ 283009.56, 4155289.36 ], [ 283009.14, 4155289.09 ], [ 283008.76, 4155288.79 ], [ 283008.4, 4155288.45 ], [ 283008.23, 4155288.25 ], [ 283004.53, 4155286.53 ], [ 283004.09, 4155286.3 ], [ 283003.68, 4155286.03 ], [ 283003.65, 4155286.01 ], [ 283003.59, 4155285.99 ], [ 283003.13, 4155285.84 ], [ 283002.68, 4155285.64 ], [ 283000.0, 4155284.3 ], [ 283000.0, 4155285.54 ], [ 283040.65, 4155302.93 ], [ 283040.28, 4155301.66 ] ] ], [ [ [ 283079.27, 4155259.76 ], [ 283078.8, 4155259.91 ], [ 283078.32, 4155260.02 ], [ 283077.84, 4155260.07 ], [ 283077.35, 4155260.08 ], [ 283076.86, 4155260.05 ], [ 283076.37, 4155259.96 ], [ 283075.9, 4155259.83 ], [ 283075.44, 4155259.65 ], [ 283074.31, 4155259.14 ], [ 283072.13, 4155260.48 ], [ 283072.13, 4155265.77 ], [ 283073.79, 4155268.45 ], [ 283082.1, 4155272.61 ], [ 283082.69, 4155273.15 ], [ 283083.91, 4155275.12 ], [ 283084.13, 4155275.9 ], [ 283084.13, 4155281.74 ], [ 283084.09, 4155282.09 ], [ 283083.85, 4155283.09 ], [ 283083.74, 4155283.41 ], [ 283082.15, 4155286.59 ], [ 283081.6, 4155287.19 ], [ 283079.63, 4155288.41 ], [ 283078.86, 4155288.63 ], [ 283078.13, 4155288.63 ], [ 283076.95, 4155289.8 ], [ 283076.98, 4155289.86 ], [ 283077.14, 4155290.33 ], [ 283077.25, 4155290.82 ], [ 283077.32, 4155291.32 ], [ 283077.33, 4155291.82 ], [ 283077.29, 4155292.32 ], [ 283077.2, 4155292.81 ], [ 283077.07, 4155293.3 ], [ 283076.88, 4155293.76 ], [ 283075.13, 4155297.63 ], [ 283075.13, 4155297.78 ], [ 283074.82, 4155298.68 ], [ 283073.17, 4155300.8 ], [ 283072.37, 4155301.32 ], [ 283065.4, 4155303.06 ], [ 283063.13, 4155305.97 ], [ 283063.13, 4155309.03 ], [ 283062.71, 4155310.05 ], [ 283061.08, 4155311.67 ], [ 283069.11, 4155315.11 ], [ 283097.04, 4155255.63 ], [ 283094.37, 4155255.63 ], [ 283091.41, 4155259.08 ], [ 283091.59, 4155260.26 ], [ 283091.43, 4155260.73 ], [ 283090.62, 4155261.59 ], [ 283087.64, 4155262.83 ], [ 283086.45, 4155262.79 ], [ 283083.95, 4155261.54 ], [ 283083.7, 4155261.28 ], [ 283081.89, 4155260.39 ], [ 283081.6, 4155260.36 ], [ 283079.85, 4155259.49 ], [ 283079.72, 4155259.56 ], [ 283079.27, 4155259.76 ] ] ], [ [ [ 283000.48, 4155302.08 ], [ 283000.77, 4155302.48 ], [ 283001.01, 4155302.91 ], [ 283001.21, 4155303.36 ], [ 283001.37, 4155303.82 ], [ 283001.48, 4155304.3 ], [ 283001.54, 4155304.79 ], [ 283001.55, 4155305.28 ], [ 283001.52, 4155305.77 ], [ 283001.44, 4155306.25 ], [ 283001.31, 4155306.72 ], [ 283001.13, 4155307.18 ], [ 283000.0, 4155309.77 ], [ 283000.0, 4155313.45 ], [ 283016.26, 4155318.09 ], [ 283016.87, 4155318.44 ], [ 283018.37, 4155319.87 ], [ 283018.75, 4155320.47 ], [ 283020.15, 4155324.67 ], [ 283024.05, 4155326.53 ], [ 283042.54, 4155319.6 ], [ 283044.37, 4155315.96 ], [ 283043.69, 4155313.59 ], [ 283000.0, 4155294.9 ], [ 283000.0, 4155301.56 ], [ 283000.16, 4155301.71 ], [ 283000.48, 4155302.08 ] ] ], [ [ [ 283240.53, 4155411.63 ], [ 283238.67, 4155411.63 ], [ 283238.1, 4155411.51 ], [ 283236.53, 4155410.86 ], [ 283236.04, 4155410.54 ], [ 283223.01, 4155397.5 ], [ 283220.89, 4155396.63 ], [ 283204.73, 4155396.63 ], [ 283203.71, 4155396.2 ], [ 283201.55, 4155394.05 ], [ 283201.13, 4155393.03 ], [ 283201.13, 4155392.79 ], [ 283199.08, 4155389.94 ], [ 283184.59, 4155385.11 ], [ 283184.09, 4155384.82 ], [ 283182.8, 4155383.71 ], [ 283182.44, 4155383.25 ], [ 283180.96, 4155380.28 ], [ 283178.28, 4155378.63 ], [ 283172.44, 4155378.63 ], [ 283171.94, 4155378.54 ], [ 283170.55, 4155378.05 ], [ 283170.11, 4155377.81 ], [ 283156.95, 4155367.28 ], [ 283155.08, 4155366.63 ], [ 283150.73, 4155366.63 ], [ 283149.71, 4155366.2 ], [ 283147.55, 4155364.05 ], [ 283147.22, 4155363.24 ], [ 283143.72, 4155361.48 ], [ 283136.97, 4155363.17 ], [ 283134.76, 4155365.49 ], [ 283133.13, 4155373.63 ], [ 283136.24, 4155375.04 ], [ 283136.24, 4155375.05 ], [ 283141.8, 4155377.58 ], [ 283147.36, 4155380.11 ], [ 283147.37, 4155380.11 ], [ 283152.93, 4155382.64 ], [ 283158.48, 4155385.17 ], [ 283164.05, 4155387.7 ], [ 283164.49, 4155387.92 ], [ 283164.9, 4155388.19 ], [ 283165.28, 4155388.5 ], [ 283165.64, 4155388.84 ], [ 283165.95, 4155389.22 ], [ 283166.23, 4155389.62 ], [ 283166.47, 4155390.05 ], [ 283166.66, 4155390.51 ], [ 283166.81, 4155390.97 ], [ 283166.92, 4155391.46 ], [ 283166.97, 4155391.94 ], [ 283166.97, 4155392.23 ], [ 283167.04, 4155392.19 ], [ 283167.47, 4155391.95 ], [ 283167.92, 4155391.76 ], [ 283168.39, 4155391.61 ], [ 283168.87, 4155391.51 ], [ 283169.35, 4155391.46 ], [ 283169.84, 4155391.45 ], [ 283170.33, 4155391.49 ], [ 283170.81, 4155391.58 ], [ 283171.28, 4155391.72 ], [ 283171.74, 4155391.9 ], [ 283177.29, 4155394.44 ], [ 283182.86, 4155396.97 ], [ 283188.42, 4155399.5 ], [ 283193.97, 4155402.03 ], [ 283199.54, 4155404.56 ], [ 283205.1, 4155407.09 ], [ 283205.54, 4155407.32 ], [ 283205.95, 4155407.59 ], [ 283206.34, 4155407.89 ], [ 283206.69, 4155408.24 ], [ 283207.01, 4155408.61 ], [ 283207.28, 4155409.02 ], [ 283207.52, 4155409.45 ], [ 283207.72, 4155409.9 ], [ 283207.86, 4155410.37 ], [ 283207.97, 4155410.85 ], [ 283208.02, 4155411.34 ], [ 283208.03, 4155411.83 ], [ 283208.0, 4155412.09 ], [ 283208.18, 4155411.94 ], [ 283208.58, 4155411.66 ], [ 283209.01, 4155411.43 ], [ 283209.46, 4155411.23 ], [ 283209.93, 4155411.08 ], [ 283210.41, 4155410.98 ], [ 283210.89, 4155410.93 ], [ 283211.38, 4155410.92 ], [ 283211.87, 4155410.96 ], [ 283212.35, 4155411.05 ], [ 283212.82, 4155411.19 ], [ 283213.28, 4155411.37 ], [ 283218.84, 4155413.9 ], [ 283224.41, 4155416.44 ], [ 283229.96, 4155418.97 ], [ 283235.53, 4155421.5 ], [ 283241.09, 4155424.03 ], [ 283241.53, 4155424.26 ], [ 283241.94, 4155424.53 ], [ 283242.33, 4155424.83 ], [ 283242.68, 4155425.18 ], [ 283242.99, 4155425.55 ], [ 283243.27, 4155425.96 ], [ 283243.51, 4155426.39 ], [ 283243.7, 4155426.84 ], [ 283243.85, 4155427.31 ], [ 283243.96, 4155427.79 ], [ 283244.01, 4155428.28 ], [ 283244.02, 4155428.77 ], [ 283243.97, 4155429.26 ], [ 283243.88, 4155429.74 ], [ 283243.74, 4155430.22 ], [ 283243.56, 4155430.67 ], [ 283239.2, 4155440.16 ], [ 283239.63, 4155443.61 ], [ 283239.28, 4155444.74 ], [ 283237.16, 4155447.14 ], [ 283236.09, 4155447.62 ], [ 283235.41, 4155447.45 ], [ 283233.57, 4155446.46 ], [ 283233.04, 4155445.98 ], [ 283231.0, 4155442.93 ], [ 283226.63, 4155440.94 ], [ 283221.08, 4155438.41 ], [ 283215.51, 4155435.88 ], [ 283209.95, 4155433.35 ], [ 283204.39, 4155430.82 ], [ 283203.95, 4155430.59 ], [ 283203.54, 4155430.33 ], [ 283203.16, 4155430.02 ], [ 283202.8, 4155429.68 ], [ 283202.76, 4155429.63 ], [ 283198.73, 4155429.63 ], [ 283197.71, 4155429.2 ], [ 283195.55, 4155427.05 ], [ 283195.14, 4155426.05 ], [ 283190.65, 4155424.01 ], [ 283190.65, 4155424.0 ], [ 283185.09, 4155421.47 ], [ 283179.52, 4155418.94 ], [ 283173.96, 4155416.41 ], [ 283168.4, 4155413.88 ], [ 283163.44, 4155411.63 ], [ 283158.11, 4155411.63 ], [ 283157.41, 4155411.45 ], [ 283155.57, 4155410.46 ], [ 283155.04, 4155409.98 ], [ 283152.26, 4155405.83 ], [ 283149.6, 4155404.61 ], [ 283144.03, 4155402.08 ], [ 283138.47, 4155399.55 ], [ 283132.91, 4155397.02 ], [ 283131.82, 4155396.52 ], [ 283124.89, 4155394.21 ], [ 283124.31, 4155393.85 ], [ 283122.93, 4155392.48 ], [ 283121.78, 4155391.96 ], [ 283121.35, 4155391.73 ], [ 283120.93, 4155391.46 ], [ 283120.55, 4155391.16 ], [ 283120.2, 4155390.81 ], [ 283119.88, 4155390.44 ], [ 283119.6, 4155390.03 ], [ 283119.36, 4155389.6 ], [ 283119.17, 4155389.15 ], [ 283119.02, 4155388.68 ], [ 283118.92, 4155388.2 ], [ 283118.87, 4155387.71 ], [ 283118.86, 4155387.22 ], [ 283118.9, 4155386.73 ], [ 283118.99, 4155386.25 ], [ 283119.06, 4155386.03 ], [ 283117.53, 4155385.15 ], [ 283107.16, 4155387.22 ], [ 283105.96, 4155388.46 ], [ 283155.38, 4155411.68 ], [ 283229.67, 4155445.31 ], [ 283229.97, 4155445.46 ], [ 283230.26, 4155445.63 ], [ 283234.57, 4155448.46 ], [ 283234.87, 4155448.68 ], [ 283235.15, 4155448.93 ], [ 283238.75, 4155452.31 ], [ 283239.01, 4155452.56 ], [ 283239.24, 4155452.84 ], [ 283241.77, 4155456.18 ], [ 283241.97, 4155456.47 ], [ 283242.15, 4155456.77 ], [ 283242.37, 4155457.19 ], [ 283250.0, 4155453.79 ], [ 283250.0, 4155433.49 ], [ 283249.66, 4155433.15 ], [ 283249.78, 4155432.82 ], [ 283248.32, 4155432.27 ], [ 283246.17, 4155430.4 ], [ 283245.69, 4155429.51 ], [ 283243.5, 4155414.2 ], [ 283240.53, 4155411.63 ] ] ], [ [ [ 283101.21, 4155448.15 ], [ 283101.21, 4155448.14 ], [ 283095.59, 4155445.57 ], [ 283089.97, 4155443.01 ], [ 283086.92, 4155441.63 ], [ 283084.73, 4155441.63 ], [ 283083.71, 4155441.2 ], [ 283081.55, 4155439.05 ], [ 283081.13, 4155438.03 ], [ 283081.13, 4155435.63 ], [ 283078.13, 4155432.63 ], [ 283062.4, 4155432.63 ], [ 283061.63, 4155432.41 ], [ 283059.87, 4155431.32 ], [ 283059.8, 4155431.3 ], [ 283059.35, 4155431.12 ], [ 283038.23, 4155421.67 ], [ 283037.8, 4155421.44 ], [ 283037.38, 4155421.18 ], [ 283037.0, 4155420.88 ], [ 283036.64, 4155420.54 ], [ 283036.33, 4155420.17 ], [ 283036.04, 4155419.76 ], [ 283035.8, 4155419.34 ], [ 283035.61, 4155418.89 ], [ 283035.45, 4155418.42 ], [ 283035.35, 4155417.94 ], [ 283035.29, 4155417.45 ], [ 283035.28, 4155416.96 ], [ 283035.32, 4155416.47 ], [ 283035.4, 4155415.99 ], [ 283035.54, 4155415.52 ], [ 283035.71, 4155415.06 ], [ 283039.62, 4155406.34 ], [ 283039.84, 4155405.9 ], [ 283040.1, 4155405.49 ], [ 283040.41, 4155405.1 ], [ 283040.75, 4155404.75 ], [ 283041.12, 4155404.43 ], [ 283041.52, 4155404.15 ], [ 283041.95, 4155403.91 ], [ 283042.4, 4155403.71 ], [ 283042.87, 4155403.56 ], [ 283043.35, 4155403.45 ], [ 283043.83, 4155403.4 ], [ 283044.32, 4155403.39 ], [ 283044.81, 4155403.42 ], [ 283045.3, 4155403.51 ], [ 283045.77, 4155403.64 ], [ 283046.23, 4155403.82 ], [ 283059.6, 4155409.82 ], [ 283058.92, 4155403.76 ], [ 283054.08, 4155401.64 ], [ 283053.64, 4155401.42 ], [ 283053.23, 4155401.16 ], [ 283052.84, 4155400.86 ], [ 283052.48, 4155400.52 ], [ 283052.16, 4155400.15 ], [ 283051.88, 4155399.75 ], [ 283051.63, 4155399.32 ], [ 283051.43, 4155398.87 ], [ 283051.28, 4155398.41 ], [ 283051.17, 4155397.93 ], [ 283051.11, 4155397.44 ], [ 283051.09, 4155396.95 ], [ 283051.13, 4155396.46 ], [ 283051.21, 4155395.98 ], [ 283051.34, 4155395.51 ], [ 283051.51, 4155395.05 ], [ 283066.18, 4155361.66 ], [ 283066.4, 4155361.23 ], [ 283066.65, 4155360.82 ], [ 283066.95, 4155360.44 ], [ 283067.28, 4155360.08 ], [ 283067.64, 4155359.76 ], [ 283068.03, 4155359.48 ], [ 283068.45, 4155359.24 ], [ 283068.89, 4155359.03 ], [ 283069.35, 4155358.88 ], [ 283069.82, 4155358.76 ], [ 283070.3, 4155358.69 ], [ 283070.78, 4155358.67 ], [ 283071.26, 4155358.7 ], [ 283071.74, 4155358.77 ], [ 283072.21, 4155358.89 ], [ 283072.66, 4155359.05 ], [ 283084.03, 4155363.73 ], [ 283084.13, 4155363.63 ], [ 283084.13, 4155358.17 ], [ 283080.64, 4155355.21 ], [ 283069.19, 4155357.12 ], [ 283068.2, 4155356.93 ], [ 283065.78, 4155355.47 ], [ 283065.15, 4155354.69 ], [ 283063.85, 4155350.78 ], [ 283063.81, 4155349.98 ], [ 283064.35, 4155347.72 ], [ 283064.74, 4155347.02 ], [ 283074.47, 4155337.29 ], [ 283075.3, 4155335.7 ], [ 283079.32, 4155313.61 ], [ 283075.13, 4155322.52 ], [ 283075.07, 4155322.64 ], [ 283075.01, 4155322.77 ], [ 283074.97, 4155322.83 ], [ 283074.93, 4155322.9 ], [ 283074.86, 4155323.01 ], [ 283074.79, 4155323.13 ], [ 283074.74, 4155323.19 ], [ 283074.7, 4155323.25 ], [ 283074.61, 4155323.35 ], [ 283074.53, 4155323.46 ], [ 283074.48, 4155323.52 ], [ 283074.43, 4155323.58 ], [ 283074.34, 4155323.67 ], [ 283074.24, 4155323.77 ], [ 283074.19, 4155323.82 ], [ 283074.14, 4155323.87 ], [ 283074.03, 4155323.96 ], [ 283073.93, 4155324.05 ], [ 283073.87, 4155324.1 ], [ 283073.81, 4155324.14 ], [ 283073.7, 4155324.22 ], [ 283073.59, 4155324.3 ], [ 283073.52, 4155324.34 ], [ 283073.46, 4155324.38 ], [ 283073.34, 4155324.44 ], [ 283073.22, 4155324.51 ], [ 283073.15, 4155324.54 ], [ 283073.09, 4155324.58 ], [ 283072.96, 4155324.63 ], [ 283072.84, 4155324.69 ], [ 283072.77, 4155324.71 ], [ 283072.7, 4155324.74 ], [ 283072.57, 4155324.78 ], [ 283072.44, 4155324.83 ], [ 283072.37, 4155324.84 ], [ 283072.3, 4155324.86 ], [ 283072.16, 4155324.89 ], [ 283072.03, 4155324.92 ], [ 283071.95, 4155324.93 ], [ 283071.88, 4155324.95 ], [ 283071.75, 4155324.96 ], [ 283071.61, 4155324.98 ], [ 283071.54, 4155324.98 ], [ 283071.46, 4155324.99 ], [ 283071.33, 4155324.99 ], [ 283071.19, 4155325.0 ], [ 283071.11, 4155324.99 ], [ 283071.04, 4155324.99 ], [ 283070.9, 4155324.98 ], [ 283070.77, 4155324.97 ], [ 283070.69, 4155324.96 ], [ 283070.62, 4155324.95 ], [ 283070.49, 4155324.93 ], [ 283070.35, 4155324.9 ], [ 283070.28, 4155324.88 ], [ 283070.21, 4155324.87 ], [ 283070.08, 4155324.83 ], [ 283069.94, 4155324.8 ], [ 283069.87, 4155324.77 ], [ 283069.8, 4155324.75 ], [ 283069.68, 4155324.7 ], [ 283069.55, 4155324.65 ], [ 283065.0, 4155322.7 ], [ 283065.8, 4155323.68 ], [ 283066.13, 4155324.61 ], [ 283066.13, 4155329.74 ], [ 283066.09, 4155330.09 ], [ 283065.85, 4155331.09 ], [ 283065.74, 4155331.41 ], [ 283061.34, 4155340.21 ], [ 283060.69, 4155340.86 ], [ 283058.37, 4155342.04 ], [ 283057.47, 4155342.18 ], [ 283045.62, 4155340.21 ], [ 283042.13, 4155343.17 ], [ 283042.13, 4155353.09 ], [ 283042.02, 4155353.66 ], [ 283041.37, 4155355.23 ], [ 283041.04, 4155355.71 ], [ 283037.15, 4155359.61 ], [ 283036.29, 4155362.06 ], [ 283038.75, 4155384.15 ], [ 283038.45, 4155385.2 ], [ 283036.61, 4155387.57 ], [ 283035.67, 4155388.12 ], [ 283019.28, 4155390.46 ], [ 283018.83, 4155390.46 ], [ 283017.52, 4155390.24 ], [ 283017.09, 4155390.1 ], [ 283000.0, 4155381.56 ], [ 283000.0, 4155430.58 ], [ 283003.63, 4155431.79 ], [ 283004.36, 4155432.32 ], [ 283005.86, 4155434.4 ], [ 283006.13, 4155435.26 ], [ 283006.13, 4155436.35 ], [ 283005.91, 4155437.13 ], [ 283004.69, 4155439.1 ], [ 283004.1, 4155439.64 ], [ 283000.0, 4155441.69 ], [ 283000.0, 4155500.0 ], [ 283015.46, 4155500.0 ], [ 283017.55, 4155489.55 ], [ 283018.05, 4155488.71 ], [ 283020.19, 4155486.96 ], [ 283021.11, 4155486.63 ], [ 283021.29, 4155486.63 ], [ 283022.18, 4155486.93 ], [ 283024.3, 4155488.59 ], [ 283024.39, 4155488.72 ], [ 283024.35, 4155488.42 ], [ 283024.35, 4155488.0 ], [ 283024.39, 4155487.58 ], [ 283024.46, 4155487.16 ], [ 283024.58, 4155486.76 ], [ 283024.74, 4155486.37 ], [ 283024.94, 4155485.99 ], [ 283025.17, 4155485.64 ], [ 283025.43, 4155485.31 ], [ 283025.73, 4155485.01 ], [ 283026.05, 4155484.74 ], [ 283026.4, 4155484.5 ], [ 283026.77, 4155484.3 ], [ 283027.16, 4155484.13 ], [ 283027.56, 4155484.01 ], [ 283027.97, 4155483.92 ], [ 283028.39, 4155483.87 ], [ 283028.81, 4155483.87 ], [ 283029.23, 4155483.91 ], [ 283029.65, 4155483.98 ], [ 283030.05, 4155484.1 ], [ 283030.44, 4155484.26 ], [ 283051.78, 4155494.08 ], [ 283064.67, 4155500.0 ], [ 283074.81, 4155500.0 ], [ 283070.13, 4155497.95 ], [ 283070.12, 4155497.95 ], [ 283064.44, 4155495.45 ], [ 283064.0, 4155495.23 ], [ 283063.59, 4155494.97 ], [ 283063.2, 4155494.67 ], [ 283062.84, 4155494.33 ], [ 283062.52, 4155493.96 ], [ 283062.24, 4155493.56 ], [ 283062.0, 4155493.13 ], [ 283061.91, 4155492.94 ], [ 283061.64, 4155493.03 ], [ 283061.16, 4155493.14 ], [ 283060.98, 4155493.16 ], [ 283055.53, 4155494.53 ], [ 283054.31, 4155494.27 ], [ 283051.68, 4155492.21 ], [ 283051.13, 4155491.09 ], [ 283051.13, 4155489.65 ], [ 283046.94, 4155487.82 ], [ 283046.93, 4155487.82 ], [ 283041.25, 4155485.32 ], [ 283040.81, 4155485.1 ], [ 283040.39, 4155484.84 ], [ 283040.0, 4155484.54 ], [ 283039.65, 4155484.2 ], [ 283039.32, 4155483.83 ], [ 283039.04, 4155483.43 ], [ 283038.8, 4155483.0 ], [ 283038.6, 4155482.55 ], [ 283038.44, 4155482.09 ], [ 283038.33, 4155481.61 ], [ 283038.27, 4155481.12 ], [ 283038.26, 4155480.63 ], [ 283038.29, 4155480.14 ], [ 283038.38, 4155479.65 ], [ 283038.51, 4155479.18 ], [ 283038.69, 4155478.72 ], [ 283043.63, 4155467.54 ], [ 283043.85, 4155467.11 ], [ 283044.11, 4155466.69 ], [ 283044.41, 4155466.3 ], [ 283044.75, 4155465.95 ], [ 283045.12, 4155465.63 ], [ 283045.52, 4155465.35 ], [ 283045.95, 4155465.1 ], [ 283046.39, 4155464.9 ], [ 283046.86, 4155464.75 ], [ 283047.34, 4155464.64 ], [ 283047.64, 4155464.6 ], [ 283047.81, 4155463.91 ], [ 283048.01, 4155463.45 ], [ 283048.84, 4155462.2 ], [ 283049.19, 4155461.83 ], [ 283054.23, 4155458.05 ], [ 283057.3, 4155451.06 ], [ 283057.52, 4155450.62 ], [ 283057.78, 4155450.21 ], [ 283058.08, 4155449.82 ], [ 283058.42, 4155449.46 ], [ 283058.79, 4155449.14 ], [ 283059.19, 4155448.86 ], [ 283059.61, 4155448.62 ], [ 283060.06, 4155448.42 ], [ 283060.53, 4155448.26 ], [ 283061.01, 4155448.15 ], [ 283061.49, 4155448.09 ], [ 283061.98, 4155448.07 ], [ 283062.47, 4155448.11 ], [ 283062.95, 4155448.19 ], [ 283063.43, 4155448.32 ], [ 283063.88, 4155448.49 ], [ 283069.7, 4155451.04 ], [ 283075.51, 4155453.57 ], [ 283075.52, 4155453.57 ], [ 283081.33, 4155456.11 ], [ 283081.34, 4155456.11 ], [ 283087.15, 4155458.65 ], [ 283092.97, 4155461.19 ], [ 283098.79, 4155463.72 ], [ 283099.23, 4155463.94 ], [ 283099.64, 4155464.2 ], [ 283100.03, 4155464.5 ], [ 283100.39, 4155464.84 ], [ 283100.71, 4155465.21 ], [ 283101.0, 4155465.61 ], [ 283101.24, 4155466.04 ], [ 283101.45, 4155466.49 ], [ 283101.52, 4155466.71 ], [ 283101.9, 4155466.74 ], [ 283102.38, 4155466.83 ], [ 283102.85, 4155466.97 ], [ 283103.31, 4155467.15 ], [ 283109.22, 4155469.82 ], [ 283109.23, 4155469.82 ], [ 283115.13, 4155472.5 ], [ 283121.05, 4155475.18 ], [ 283126.96, 4155477.85 ], [ 283132.88, 4155480.53 ], [ 283133.32, 4155480.76 ], [ 283133.73, 4155481.02 ], [ 283134.12, 4155481.33 ], [ 283134.47, 4155481.67 ], [ 283134.79, 4155482.05 ], [ 283135.07, 4155482.45 ], [ 283135.31, 4155482.88 ], [ 283135.5, 4155483.33 ], [ 283135.65, 4155483.8 ], [ 283135.75, 4155484.28 ], [ 283135.81, 4155484.77 ], [ 283135.82, 4155485.26 ], [ 283135.77, 4155485.75 ], [ 283135.69, 4155486.23 ], [ 283135.55, 4155486.71 ], [ 283135.37, 4155487.16 ], [ 283130.24, 4155498.4 ], [ 283130.01, 4155498.84 ], [ 283129.75, 4155499.25 ], [ 283129.44, 4155499.63 ], [ 283129.1, 4155499.98 ], [ 283129.08, 4155500.0 ], [ 283130.29, 4155500.0 ], [ 283140.0, 4155478.92 ], [ 283126.89, 4155472.72 ], [ 283062.76, 4155444.2 ], [ 283062.38, 4155444.01 ], [ 283062.03, 4155443.78 ], [ 283061.69, 4155443.52 ], [ 283061.39, 4155443.23 ], [ 283061.11, 4155442.91 ], [ 283060.87, 4155442.56 ], [ 283060.66, 4155442.2 ], [ 283060.49, 4155441.81 ], [ 283060.36, 4155441.41 ], [ 283060.27, 4155441.0 ], [ 283060.22, 4155440.58 ], [ 283060.21, 4155440.16 ], [ 283060.24, 4155439.74 ], [ 283060.31, 4155439.32 ], [ 283060.43, 4155438.91 ], [ 283060.58, 4155438.52 ], [ 283060.77, 4155438.14 ], [ 283061.0, 4155437.79 ], [ 283061.26, 4155437.46 ], [ 283061.55, 4155437.15 ], [ 283061.87, 4155436.87 ], [ 283062.21, 4155436.63 ], [ 283062.58, 4155436.42 ], [ 283062.97, 4155436.25 ], [ 283063.37, 4155436.12 ], [ 283063.78, 4155436.03 ], [ 283064.2, 4155435.98 ], [ 283064.62, 4155435.97 ], [ 283065.04, 4155436.0 ], [ 283065.45, 4155436.07 ], [ 283065.86, 4155436.19 ], [ 283066.26, 4155436.34 ], [ 283126.57, 4155463.16 ], [ 283129.2, 4155457.53 ], [ 283128.83, 4155457.84 ], [ 283128.42, 4155458.12 ], [ 283127.99, 4155458.35 ], [ 283127.54, 4155458.55 ], [ 283127.08, 4155458.69 ], [ 283126.6, 4155458.8 ], [ 283126.11, 4155458.85 ], [ 283125.62, 4155458.86 ], [ 283125.13, 4155458.81 ], [ 283124.65, 4155458.72 ], [ 283124.18, 4155458.59 ], [ 283123.73, 4155458.41 ], [ 283119.82, 4155456.63 ], [ 283119.4, 4155456.63 ], [ 283118.63, 4155456.41 ], [ 283116.66, 4155455.19 ], [ 283116.65, 4155455.18 ], [ 283112.48, 4155453.27 ], [ 283106.85, 4155450.71 ], [ 283106.66, 4155450.63 ], [ 283106.37, 4155450.63 ], [ 283105.9, 4155450.55 ], [ 283104.56, 4155450.1 ], [ 283104.14, 4155449.88 ], [ 283102.77, 4155448.85 ], [ 283101.22, 4155448.15 ], [ 283101.21, 4155448.15 ] ], [ [ 283033.13, 4155438.03 ], [ 283033.13, 4155436.22 ], [ 283033.55, 4155435.2 ], [ 283035.71, 4155433.05 ], [ 283036.73, 4155432.63 ], [ 283042.5, 4155432.63 ], [ 283043.35, 4155432.9 ], [ 283045.43, 4155434.4 ], [ 283045.96, 4155435.12 ], [ 283046.59, 4155436.99 ], [ 283046.39, 4155438.26 ], [ 283044.39, 4155441.04 ], [ 283043.25, 4155441.63 ], [ 283036.73, 4155441.63 ], [ 283035.71, 4155441.2 ], [ 283033.55, 4155439.05 ], [ 283033.13, 4155438.03 ] ], [ [ 283013.37, 4155414.48 ], [ 283012.55, 4155414.08 ], [ 283010.49, 4155411.44 ], [ 283010.23, 4155410.23 ], [ 283011.44, 4155405.38 ], [ 283011.96, 4155404.59 ], [ 283014.08, 4155402.93 ], [ 283014.98, 4155402.63 ], [ 283015.5, 4155402.63 ], [ 283016.69, 4155403.29 ], [ 283018.55, 4155406.3 ], [ 283018.61, 4155407.66 ], [ 283016.15, 4155412.59 ], [ 283015.6, 4155413.19 ], [ 283013.63, 4155414.41 ], [ 283013.37, 4155414.48 ] ] ], [ [ [ 283134.39, 4155466.75 ], [ 283147.49, 4155472.95 ], [ 283206.85, 4155500.0 ], [ 283213.9, 4155500.0 ], [ 283213.75, 4155499.93 ], [ 283208.15, 4155497.33 ], [ 283202.56, 4155494.74 ], [ 283201.8, 4155494.38 ], [ 283193.68, 4155492.91 ], [ 283193.13, 4155492.69 ], [ 283191.68, 4155491.73 ], [ 283191.26, 4155491.31 ], [ 283189.4, 4155488.52 ], [ 283186.16, 4155487.02 ], [ 283180.56, 4155484.41 ], [ 283174.97, 4155481.82 ], [ 283169.38, 4155479.22 ], [ 283163.78, 4155476.63 ], [ 283163.34, 4155476.4 ], [ 283162.93, 4155476.13 ], [ 283162.78, 4155476.0 ], [ 283153.97, 4155474.75 ], [ 283153.65, 4155474.66 ], [ 283152.72, 4155474.31 ], [ 283152.43, 4155474.16 ], [ 283145.78, 4155469.72 ], [ 283145.29, 4155469.19 ], [ 283144.31, 4155467.35 ], [ 283144.13, 4155466.65 ], [ 283144.13, 4155457.51 ], [ 283144.17, 4155457.16 ], [ 283144.41, 4155456.16 ], [ 283144.53, 4155455.84 ], [ 283146.12, 4155452.66 ], [ 283146.66, 4155452.06 ], [ 283148.63, 4155450.85 ], [ 283149.4, 4155450.63 ], [ 283150.13, 4155450.63 ], [ 283153.13, 4155447.63 ], [ 283153.13, 4155442.22 ], [ 283153.55, 4155441.2 ], [ 283155.71, 4155439.05 ], [ 283157.28, 4155438.4 ], [ 283159.13, 4155435.63 ], [ 283159.13, 4155435.08 ], [ 283159.78, 4155433.9 ], [ 283162.74, 4155432.0 ], [ 283164.09, 4155431.91 ], [ 283176.48, 4155437.63 ], [ 283176.69, 4155437.37 ], [ 283177.03, 4155437.03 ], [ 283177.41, 4155436.72 ], [ 283177.81, 4155436.44 ], [ 283178.24, 4155436.21 ], [ 283178.7, 4155436.02 ], [ 283179.16, 4155435.87 ], [ 283179.64, 4155435.78 ], [ 283180.13, 4155435.73 ], [ 283180.62, 4155435.72 ], [ 283181.11, 4155435.77 ], [ 283181.59, 4155435.86 ], [ 283182.06, 4155436.0 ], [ 283182.51, 4155436.18 ], [ 283188.1, 4155438.78 ], [ 283193.69, 4155441.39 ], [ 283199.29, 4155443.98 ], [ 283199.72, 4155444.21 ], [ 283200.13, 4155444.48 ], [ 283200.51, 4155444.79 ], [ 283200.86, 4155445.14 ], [ 283201.18, 4155445.52 ], [ 283201.45, 4155445.92 ], [ 283201.69, 4155446.36 ], [ 283201.88, 4155446.81 ], [ 283202.03, 4155447.28 ], [ 283202.12, 4155447.76 ], [ 283202.17, 4155448.25 ], [ 283202.18, 4155448.48 ], [ 283202.31, 4155448.39 ], [ 283202.74, 4155448.15 ], [ 283203.19, 4155447.96 ], [ 283203.66, 4155447.82 ], [ 283204.14, 4155447.72 ], [ 283204.63, 4155447.67 ], [ 283205.12, 4155447.67 ], [ 283205.61, 4155447.71 ], [ 283206.09, 4155447.8 ], [ 283206.56, 4155447.94 ], [ 283207.01, 4155448.13 ], [ 283212.61, 4155450.72 ], [ 283218.2, 4155453.32 ], [ 283218.21, 4155453.32 ], [ 283223.8, 4155455.93 ], [ 283229.39, 4155458.52 ], [ 283229.83, 4155458.75 ], [ 283230.24, 4155459.02 ], [ 283230.62, 4155459.33 ], [ 283230.97, 4155459.68 ], [ 283231.29, 4155460.06 ], [ 283231.56, 4155460.46 ], [ 283231.8, 4155460.9 ], [ 283231.99, 4155461.35 ], [ 283232.13, 4155461.82 ], [ 283232.23, 4155462.3 ], [ 283232.28, 4155462.79 ], [ 283232.28, 4155462.83 ], [ 283233.8, 4155464.68 ], [ 283234.13, 4155465.61 ], [ 283234.13, 4155477.03 ], [ 283233.71, 4155478.05 ], [ 283231.55, 4155480.2 ], [ 283230.53, 4155480.63 ], [ 283228.13, 4155480.63 ], [ 283226.47, 4155482.29 ], [ 283228.37, 4155483.17 ], [ 283228.81, 4155483.4 ], [ 283229.22, 4155483.67 ], [ 283229.6, 4155483.98 ], [ 283229.95, 4155484.32 ], [ 283230.27, 4155484.7 ], [ 283230.54, 4155485.11 ], [ 283230.78, 4155485.54 ], [ 283230.97, 4155485.99 ], [ 283231.11, 4155486.46 ], [ 283231.21, 4155486.95 ], [ 283231.26, 4155487.43 ], [ 283231.26, 4155487.93 ], [ 283231.22, 4155488.42 ], [ 283231.12, 4155488.9 ], [ 283230.98, 4155489.37 ], [ 283230.8, 4155489.82 ], [ 283226.03, 4155500.0 ], [ 283227.56, 4155500.0 ], [ 283236.47, 4155480.83 ], [ 283237.29, 4155477.88 ], [ 283237.63, 4155471.21 ], [ 283237.05, 4155467.42 ], [ 283236.37, 4155464.24 ], [ 283234.71, 4155461.1 ], [ 283232.6, 4155458.33 ], [ 283229.54, 4155455.45 ], [ 283225.82, 4155453.01 ], [ 283155.67, 4155421.26 ], [ 283134.39, 4155466.75 ] ] ], [ [ [ 283142.37, 4155499.45 ], [ 283142.51, 4155498.98 ], [ 283142.7, 4155498.53 ], [ 283147.51, 4155488.24 ], [ 283147.74, 4155487.81 ], [ 283148.01, 4155487.4 ], [ 283148.32, 4155487.02 ], [ 283148.67, 4155486.67 ], [ 283149.04, 4155486.36 ], [ 283149.45, 4155486.09 ], [ 283149.88, 4155485.85 ], [ 283150.33, 4155485.66 ], [ 283150.8, 4155485.52 ], [ 283151.28, 4155485.42 ], [ 283151.77, 4155485.37 ], [ 283152.26, 4155485.37 ], [ 283152.74, 4155485.41 ], [ 283153.22, 4155485.5 ], [ 283153.69, 4155485.64 ], [ 283154.15, 4155485.83 ], [ 283159.74, 4155488.42 ], [ 283159.75, 4155488.43 ], [ 283165.33, 4155491.02 ], [ 283170.93, 4155493.62 ], [ 283176.52, 4155496.21 ], [ 283182.12, 4155498.81 ], [ 283182.55, 4155499.04 ], [ 283182.96, 4155499.31 ], [ 283183.35, 4155499.62 ], [ 283183.7, 4155499.97 ], [ 283183.72, 4155500.0 ], [ 283186.12, 4155500.0 ], [ 283147.8, 4155482.54 ], [ 283139.76, 4155500.0 ], [ 283142.27, 4155500.0 ], [ 283142.28, 4155499.94 ], [ 283142.37, 4155499.45 ] ] ], [ [ [ 283245.49, 4155465.74 ], [ 283245.54, 4155466.0 ], [ 283246.2, 4155470.35 ], [ 283246.24, 4155470.78 ], [ 283246.24, 4155471.21 ], [ 283245.86, 4155478.8 ], [ 283245.81, 4155479.27 ], [ 283245.7, 4155479.73 ], [ 283244.66, 4155483.48 ], [ 283244.55, 4155483.81 ], [ 283244.42, 4155484.14 ], [ 283237.05, 4155500.0 ], [ 283250.0, 4155500.0 ], [ 283250.0, 4155463.2 ], [ 283245.39, 4155465.26 ], [ 283245.49, 4155465.74 ] ] ] ] } }
]
}
