{
"type": "FeatureCollection",
"name": "crossings",
"crs": { "type": "name", "properties": { "name": "urn:ogc:def:crs:EPSG::32618" } },
"xy_coordinate_resolution": 0.01,
"features": [
{ "type": "Feature", "properties": { "id": "osm:node/12042926186", "crossing": "uncontrolled", "crossing_markings": "zebra", "road_id": "osm:way/6037529", "road_width": 7.0, "road_dx": -0.628645, "road_dy": -0.777693, "road_x": 285807.74, "road_y": 4156502.01, "crossing_island": false }, "geometry": { "type": "Point", "coordinates": [ 285807.74, 4156502.01 ] } },
{ "type": "Feature", "properties": { "id": "osm:node/12070998182", "crossing": "uncontrolled", "crossing_markings": "zebra", "road_id": "osm:way/47968408", "road_width": 13.2, "road_dx": -0.778109, "road_dy": 0.628129, "road_x": 285818.29, "road_y": 4156503.58, "crossing_island": false }, "geometry": { "type": "Point", "coordinates": [ 285818.29, 4156503.58 ] } },
{ "type": "Feature", "properties": { "id": "osm:node/12070998179", "crossing": "uncontrolled", "crossing_markings": "zebra", "road_id": "osm:way/47968408", "road_width": 13.2, "road_dx": -0.775554, "road_dy": 0.631281, "road_x": 285805.89, "road_y": 4156513.64, "crossing_island": false }, "geometry": { "type": "Point", "coordinates": [ 285805.89, 4156513.64 ] } },
{ "type": "Feature", "properties": { "id": "osm:node/12070998181", "crossing": "uncontrolled", "crossing_markings": "zebra", "road_id": "osm:way/6033089", "road_width": 7.0, "road_dx": 0.636685, "road_dy": 0.771124, "road_x": 285818.64, "road_y": 4156515.33, "crossing_island": false }, "geometry": { "type": "Point", "coordinates": [ 285818.64, 4156515.33 ] } },
{ "type": "Feature", "properties": { "id": "osm:node/12070974437", "crossing": "unmarked", "crossing_markings": "no", "road_id": "osm:way/47968408", "road_width": 13.2, "road_dx": -0.779116, "road_dy": 0.62688, "road_x": 285793.17, "road_y": 4156523.87, "crossing_island": false }, "geometry": { "type": "Point", "coordinates": [ 285798.46, 4156530.49 ] } },
{ "type": "Feature", "properties": { "id": "osm:node/11585333234", "crossing": "unmarked", "crossing_markings": "no", "road_id": null, "road_width": null, "road_dx": null, "road_dy": null, "road_x": null, "road_y": null, "crossing_island": false }, "geometry": { "type": "Point", "coordinates": [ 285977.89, 4156519.57 ] } },
{ "type": "Feature", "properties": { "id": "osm:node/11644512152", "crossing": "unmarked", "crossing_markings": "no", "road_id": "osm:way/692873476", "road_width": 7.0, "road_dx": 0.633377, "road_dy": 0.773843, "road_x": 285961.52, "road_y": 4156532.86, "crossing_island": false }, "geometry": { "type": "Point", "coordinates": [ 285961.52, 4156532.86 ] } },
{ "type": "Feature", "properties": { "id": "osm:node/12070974439", "crossing": "unmarked", "crossing_markings": "no", "road_id": null, "road_width": null, "road_dx": null, "road_dy": null, "road_x": null, "road_y": null, "crossing_island": false }, "geometry": { "type": "Point", "coordinates": [ 285834.17, 4156548.79 ] } },
{ "type": "Feature", "properties": { "id": "osm:node/12042926217", "crossing": "unmarked", "crossing_markings": "no", "road_id": null, "road_width": null, "road_dx": null, "road_dy": null, "road_x": null, "road_y": null, "crossing_island": false }, "geometry": { "type": "Point", "coordinates": [ 285864.63, 4156559.99 ] } },
{ "type": "Feature", "properties": { "id": "osm:node/12070974442", "crossing": "unmarked", "crossing_markings": "no", "road_id": null, "road_width": null, "road_dx": null, "road_dy": null, "road_x": null, "road_y": null, "crossing_island": false }, "geometry": { "type": "Point", "coordinates": [ 285843.61, 4156560.47 ] } },
{ "type": "Feature", "properties": { "id": "osm:node/11644512143", "crossing": "unmarked", "crossing_markings": "no", "road_id": "osm:way/6033089", "road_width": 7.0, "road_dx": 0.628943, "road_dy": 0.777451, "road_x": 285883.91, "road_y": 4156595.43, "crossing_island": false }, "geometry": { "type": "Point", "coordinates": [ 285883.91, 4156595.43 ] } },
{ "type": "Feature", "properties": { "id": "osm:node/12070974436", "crossing": "unmarked", "crossing_markings": "no", "road_id": null, "road_width": null, "road_dx": null, "road_dy": null, "road_x": null, "road_y": null, "crossing_island": false }, "geometry": { "type": "Point", "coordinates": [ 285777.53, 4156613.46 ] } },
{ "type": "Feature", "properties": { "id": "osm:node/11650897686", "crossing": "unmarked", "crossing_markings": "no", "road_id": null, "road_width": null, "road_dx": null, "road_dy": null, "road_x": null, "road_y": null, "crossing_island": false }, "geometry": { "type": "Point", "coordinates": [ 285759.02, 4156616.53 ] } },
{ "type": "Feature", "properties": { "id": "osm:node/11644512140", "crossing": "unmarked", "crossing_markings": "no", "road_id": null, "road_width": null, "road_dx": null, "road_dy": null, "road_x": null, "road_y": null, "crossing_island": false }, "geometry": { "type": "Point", "coordinates": [ 285851.21, 4156621.83 ] } },
{ "type": "Feature", "properties": { "id": "osm:node/13458895943", "crossing": "unmarked", "crossing_markings": "no", "road_id": null, "road_width": null, "road_dx": null, "road_dy": null, "road_x": null, "road_y": null, "crossing_island": false }, "geometry": { "type": "Point", "coordinates": [ 285794.02, 4156632.65 ] } },
{ "type": "Feature", "properties": { "id": "osm:node/13458895959", "crossing": "unmarked", "crossing_markings": "no", "road_id": "osm:way/6034843", "road_width": 8.0, "road_dx": 0.628773, "road_dy": 0.777589, "road_x": 285804.61, "road_y": 4156658.96, "crossing_island": false }, "geometry": { "type": "Point", "coordinates": [ 285804.61, 4156658.96 ] } },
{ "type": "Feature", "properties": { "id": "osm:node/11644575291", "crossing": "unmarked", "crossing_markings": "no", "road_id": "osm:way/6033099", "road_width": 7.0, "road_dx": 0.600249, "road_dy": 0.799813, "road_x": 285970.52, "road_y": 4156703.28, "crossing_island": false }, "geometry": { "type": "Point", "coordinates": [ 285970.52, 4156703.28 ] } },
{ "type": "Feature", "properties": { "id": "osm:node/13458895957", "crossing": "unmarked", "crossing_markings": "no", "road_id": "osm:way/207703618", "road_width": 7.0, "road_dx": 0.780238, "road_dy": -0.625483, "road_x": 285816.23, "road_y": 4156659.49, "crossing_island": false }, "geometry": { "type": "Point", "coordinates": [ 285816.23, 4156659.49 ] } },
{ "type": "Feature", "properties": { "id": "osm:node/11650897679", "crossing": "unmarked", "crossing_markings": "no", "road_id": "osm:way/207703618", "road_width": 7.0, "road_dx": 0.780062, "road_dy": -0.625703, "road_x": 285802.81, "road_y": 4156670.26, "crossing_island": false }, "geometry": { "type": "Point", "coordinates": [ 285802.81, 4156670.26 ] } },
{ "type": "Feature", "properties": { "id": "osm:node/13458895955", "crossing": "unmarked", "crossing_markings": "no", "road_id": "osm:way/6034843", "road_width": 8.0, "road_dx": 0.629246, "road_dy": 0.777207, "road_x": 285815.33, "road_y": 4156672.21, "crossing_island": false }, "geometry": { "type": "Point", "coordinates": [ 285815.33, 4156672.21 ] } },
{ "type": "Feature", "properties": { "id": "osm:node/11650897676", "crossing": "unmarked", "crossing_markings": "no", "road_id": null, "road_width": null, "road_dx": null, "road_dy": null, "road_x": null, "road_y": null, "crossing_island": false }, "geometry": { "type": "Point", "coordinates": [ 285770.14, 4156708.04 ] } },
{ "type": "Feature", "properties": { "id": "osm:node/11644575289", "crossing": "unmarked", "crossing_markings": "no", "road_id": null, "road_width": null, "road_dx": null, "road_dy": null, "road_x": null, "road_y": null, "crossing_island": false }, "geometry": { "type": "Point", "coordinates": [ 285847.41, 4156725.8 ] } },
{ "type": "Feature", "properties": { "id": "osm:node/11644575288", "crossing": "unmarked", "crossing_markings": "no", "road_id": null, "road_width": null, "road_dx": null, "road_dy": null, "road_x": null, "road_y": null, "crossing_island": false }, "geometry": { "type": "Point", "coordinates": [ 285852.82, 4156732.39 ] } }
]
}
