{
"type": "FeatureCollection",
"name": "buildings",
"crs": { "type": "name", "properties": { "name": "urn:ogc:def:crs:EPSG::32618" } },
"xy_coordinate_resolution": 0.01,
"features": [
{ "type": "Feature", "properties": { "id": "osm:way/757496428", "name": null, "height": 7.19, "min_height": 0.0, "levels": null, "height_source": "lidar", "roof_shape": "gable", "roof_height": 2.58, "roof_azimuth": 179.7, "roof_source": "lod2", "roof_color": "slate", "roof_color_source": "ortho", "lod2_roof": { "v": [ [ 285732.33, 4158031.26, 0.01 ], [ 285726.14, 4158031.23, 2.58 ], [ 285719.6, 4158031.2, 0.0 ], [ 285732.48, 4158000.32, 0.02 ], [ 285719.76, 4158000.26, 0.0 ], [ 285726.31, 4158000.29, 2.58 ] ], "f": [ [ [ 5, 3, 0, 1 ] ], [ [ 4, 5, 1, 2 ] ] ] }, "roof_props": null, "wall_color": "cream", "type": "yes", "landmark": null, "footprint_source": "osm", "source_updated": null, "is_part": false, "parent": null, "hidden": false, "addr": "1050 Oliver Hill Way", "wikidata": null, "website": null, "zoning": "M-2", "lidar_p90": 9.22, "ground_z": 15.36 }, "geometry": { "type": "Polygon", "coordinates": [ [ [ 285719.76, 4158000.26 ], [ 285719.6, 4158031.2 ], [ 285732.33, 4158031.26 ], [ 285732.48, 4158000.32 ], [ 285719.76, 4158000.26 ] ] ] } },
{ "type": "Feature", "properties": { "id": "osm:way/757496410", "name": null, "height": 6.18, "min_height": 0.0, "levels": null, "height_source": "lidar", "roof_shape": "flat", "roof_height": 0.02, "roof_azimuth": null, "roof_source": "lod2", "roof_color": "slate", "roof_color_source": "ortho", "lod2_roof": { "v": [ [ 285722.25, 4158082.94, 0.01 ], [ 285717.93, 4158039.43, 0.0 ], [ 285746.94, 4158080.49, 0.02 ], [ 285742.59, 4158036.69, 0.01 ] ], "f": [ [ [ 1, 3, 2, 0 ] ] ] }, "roof_props": null, "wall_color": "brick", "type": "yes", "landmark": null, "footprint_source": "osm", "source_updated": null, "is_part": false, "parent": null, "hidden": false, "addr": "1060 Oliver Hill Way", "wikidata": null, "website": null, "zoning": "M-2", "lidar_p90": 6.4, "ground_z": 15.46 }, "geometry": { "type": "Polygon", "coordinates": [ [ [ 285722.25, 4158082.94 ], [ 285746.94, 4158080.49 ], [ 285742.43, 4158035.09 ], [ 285717.75, 4158037.54 ], [ 285722.25, 4158082.94 ] ] ] } },
{ "type": "Feature", "properties": { "id": "osm:way/757496391", "name": null, "height": 5.96, "min_height": 0.0, "levels": null, "height_source": "lidar", "roof_shape": "flat", "roof_height": 0.04, "roof_azimuth": null, "roof_source": "lod2", "roof_color": "slate", "roof_color_source": "ortho", "lod2_roof": { "v": [ [ 285754.71, 4158156.55, 0.02 ], [ 285730.02, 4158158.97, 0.04 ], [ 285750.43, 4158112.7, 0.0 ], [ 285725.74, 4158115.07, 0.02 ] ], "f": [ [ [ 3, 2, 0, 1 ] ] ] }, "roof_props": null, "wall_color": "concrete", "type": "yes", "landmark": null, "footprint_source": "osm", "source_updated": null, "is_part": false, "parent": null, "hidden": false, "addr": "1070 Oliver Hill Way", "wikidata": null, "website": null, "zoning": "M-2", "lidar_p90": 6.2, "ground_z": 15.83 }, "geometry": { "type": "Polygon", "coordinates": [ [ [ 285750.28, 4158111.15 ], [ 285725.59, 4158113.55 ], [ 285730.02, 4158158.97 ], [ 285754.71, 4158156.55 ], [ 285750.28, 4158111.15 ] ] ] } }
]
}
