{
"type": "FeatureCollection",
"name": "pois",
"crs": { "type": "name", "properties": { "name": "urn:ogc:def:crs:EPSG::32618" } },
"xy_coordinate_resolution": 0.01,
"features": [
{ "type": "Feature", "properties": { "id": "lidar-tree:281332:4155258", "name": null, "kind": "tree", "species": null, "source": "lidar2025", "tree_height": 10.4, "crown_radius": 5.3, "height_source": "lidar2025" }, "geometry": { "type": "Point", "coordinates": [ 281331.5, 4155258.5 ] } },
{ "type": "Feature", "properties": { "id": "lidar-tree:281464:4155250", "name": null, "kind": "tree", "species": null, "source": "lidar2025", "tree_height": 21.1, "crown_radius": 5.8, "height_source": "lidar2025" }, "geometry": { "type": "Point", "coordinates": [ 281463.5, 4155250.5 ] } },
{ "type": "Feature", "properties": { "id": "rva-tree:56133", "name": "Quercus phellos", "kind": "tree", "species": "Quercus phellos", "source": "city_inventory", "tree_height": 31.6, "crown_radius": 6.0, "height_source": "lidar2025" }, "geometry": { "type": "Point", "coordinates": [ 281452.18, 4155264.66 ] } },
{ "type": "Feature", "properties": { "id": "rva-tree:56134", "name": "Pinus taeda", "kind": "tree", "species": "Pinus taeda", "source": "city_inventory", "tree_height": 38.8, "crown_radius": 6.0, "height_source": "lidar2025" }, "geometry": { "type": "Point", "coordinates": [ 281457.84, 4155269.57 ] } },
{ "type": "Feature", "properties": { "id": "rva-tree:56135", "name": "Diospyros virginiana", "kind": "tree", "species": "Diospyros virginiana", "source": "city_inventory", "tree_height": 38.8, "crown_radius": 6.0, "height_source": "lidar2025" }, "geometry": { "type": "Point", "coordinates": [ 281456.06, 4155276.08 ] } },
{ "type": "Feature", "properties": { "id": "rva-tree:56136", "name": "Platanus x acerifolia", "kind": "tree", "species": "Platanus x acerifolia", "source": "city_inventory", "tree_height": 8.0, "crown_radius": 2.5, "height_source": "estimated" }, "geometry": { "type": "Point", "coordinates": [ 281461.35, 4155283.74 ] } },
{ "type": "Feature", "properties": { "id": "rva-tree:56137", "name": "Betula nigra", "kind": "tree", "species": "Betula nigra", "source": "city_inventory", "tree_height": 8.0, "crown_radius": 2.5, "height_source": "estimated" }, "geometry": { "type": "Point", "coordinates": [ 281470.65, 4155290.19 ] } },
{ "type": "Feature", "properties": { "id": "rva-tree:56138", "name": "Ulmus alata", "kind": "tree", "species": "Ulmus alata", "source": "city_inventory", "tree_height": 8.0, "crown_radius": 2.5, "height_source": "estimated" }, "geometry": { "type": "Point", "coordinates": [ 281465.29, 4155293.61 ] } },
{ "type": "Feature", "properties": { "id": "lidar-tree:281460:4155302", "name": null, "kind": "tree", "species": null, "source": "lidar2025", "tree_height": 32.9, "crown_radius": 6.0, "height_source": "lidar2025" }, "geometry": { "type": "Point", "coordinates": [ 281459.5, 4155302.5 ] } },
{ "type": "Feature", "properties": { "id": "rva-tree:56139", "name": "Platanus occidentalis", "kind": "tree", "species": "Platanus occidentalis", "source": "city_inventory", "tree_height": 22.5, "crown_radius": 6.0, "height_source": "lidar2025" }, "geometry": { "type": "Point", "coordinates": [ 281469.07, 4155305.5 ] } },
{ "type": "Feature", "properties": { "id": "rva-tree:56140", "name": "Platanus occidentalis", "kind": "tree", "species": "Platanus occidentalis", "source": "city_inventory", "tree_height": 25.2, "crown_radius": 6.0, "height_source": "lidar2025" }, "geometry": { "type": "Point", "coordinates": [ 281477.28, 4155323.7 ] } },
{ "type": "Feature", "properties": { "id": "rva-tree:56141", "name": "Liquidambar styraciflua", "kind": "tree", "species": "Liquidambar styraciflua", "source": "city_inventory", "tree_height": 26.8, "crown_radius": 6.0, "height_source": "lidar2025" }, "geometry": { "type": "Point", "coordinates": [ 281472.01, 4155329.49 ] } },
{ "type": "Feature", "properties": { "id": "rva-tree:56142", "name": "Platanus x acerifolia", "kind": "tree", "species": "Platanus x acerifolia", "source": "city_inventory", "tree_height": 8.0, "crown_radius": 2.5, "height_source": "estimated" }, "geometry": { "type": "Point", "coordinates": [ 281480.01, 4155329.91 ] } },
{ "type": "Feature", "properties": { "id": "lidar-tree:281456:4155336", "name": null, "kind": "tree", "species": null, "source": "lidar2025", "tree_height": 27.1, "crown_radius": 6.0, "height_source": "lidar2025" }, "geometry": { "type": "Point", "coordinates": [ 281456.5, 4155335.5 ] } },
{ "type": "Feature", "properties": { "id": "lidar-tree:281352:4155250", "name": null, "kind": "tree", "species": null, "source": "lidar2025", "tree_height": 16.8, "crown_radius": 6.0, "height_source": "lidar2025" }, "geometry": { "type": "Point", "coordinates": [ 281352.5, 4155250.5 ] } },
{ "type": "Feature", "properties": { "id": "lidar-tree:281438:4155252", "name": null, "kind": "tree", "species": null, "source": "lidar2025", "tree_height": 25.3, "crown_radius": 5.2, "height_source": "lidar2025" }, "geometry": { "type": "Point", "coordinates": [ 281437.5, 4155251.5 ] } },
{ "type": "Feature", "properties": { "id": "lidar-tree:281450:4155254", "name": null, "kind": "tree", "species": null, "source": "lidar2025", "tree_height": 36.9, "crown_radius": 6.0, "height_source": "lidar2025" }, "geometry": { "type": "Point", "coordinates": [ 281450.5, 4155254.5 ] } },
{ "type": "Feature", "properties": { "id": "lidar-tree:281424:4155256", "name": null, "kind": "tree", "species": null, "source": "lidar2025", "tree_height": 24.8, "crown_radius": 6.0, "height_source": "lidar2025" }, "geometry": { "type": "Point", "coordinates": [ 281423.5, 4155256.5 ] } },
{ "type": "Feature", "properties": { "id": "lidar-tree:281412:4155264", "name": null, "kind": "tree", "species": null, "source": "lidar2025", "tree_height": 31.7, "crown_radius": 6.0, "height_source": "lidar2025" }, "geometry": { "type": "Point", "coordinates": [ 281411.5, 4155263.5 ] } },
{ "type": "Feature", "properties": { "id": "lidar-tree:281434:4155264", "name": null, "kind": "tree", "species": null, "source": "lidar2025", "tree_height": 28.5, "crown_radius": 6.0, "height_source": "lidar2025" }, "geometry": { "type": "Point", "coordinates": [ 281434.5, 4155264.5 ] } },
{ "type": "Feature", "properties": { "id": "lidar-tree:281426:4155270", "name": null, "kind": "tree", "species": null, "source": "lidar2025", "tree_height": 29.0, "crown_radius": 6.0, "height_source": "lidar2025" }, "geometry": { "type": "Point", "coordinates": [ 281426.5, 4155270.5 ] } },
{ "type": "Feature", "properties": { "id": "lidar-tree:281436:4155276", "name": null, "kind": "tree", "species": null, "source": "lidar2025", "tree_height": 30.0, "crown_radius": 6.0, "height_source": "lidar2025" }, "geometry": { "type": "Point", "coordinates": [ 281436.5, 4155275.5 ] } },
{ "type": "Feature", "properties": { "id": "lidar-tree:281452:4155290", "name": null, "kind": "tree", "species": null, "source": "lidar2025", "tree_height": 16.8, "crown_radius": 6.0, "height_source": "lidar2025" }, "geometry": { "type": "Point", "coordinates": [ 281451.5, 4155289.5 ] } },
{ "type": "Feature", "properties": { "id": "lidar-tree:281442:4155290", "name": null, "kind": "tree", "species": null, "source": "lidar2025", "tree_height": 21.3, "crown_radius": 6.0, "height_source": "lidar2025" }, "geometry": { "type": "Point", "coordinates": [ 281441.5, 4155290.5 ] } },
{ "type": "Feature", "properties": { "id": "lidar-tree:281414:4155294", "name": null, "kind": "tree", "species": null, "source": "lidar2025", "tree_height": 18.8, "crown_radius": 6.0, "height_source": "lidar2025" }, "geometry": { "type": "Point", "coordinates": [ 281414.5, 4155293.5 ] } },
{ "type": "Feature", "properties": { "id": "lidar-tree:281432:4155302", "name": null, "kind": "tree", "species": null, "source": "lidar2025", "tree_height": 15.8, "crown_radius": 6.0, "height_source": "lidar2025" }, "geometry": { "type": "Point", "coordinates": [ 281431.5, 4155301.5 ] } },
{ "type": "Feature", "properties": { "id": "lidar-tree:281442:4155304", "name": null, "kind": "tree", "species": null, "source": "lidar2025", "tree_height": 13.8, "crown_radius": 6.0, "height_source": "lidar2025" }, "geometry": { "type": "Point", "coordinates": [ 281442.5, 4155303.5 ] } },
{ "type": "Feature", "properties": { "id": "rva-tree:56368", "name": "Ulmus alata", "kind": "tree", "species": "Ulmus alata", "source": "city_inventory", "tree_height": 26.0, "crown_radius": 6.0, "height_source": "lidar2025" }, "geometry": { "type": "Point", "coordinates": [ 281402.35, 4155305.8 ] } },
{ "type": "Feature", "properties": { "id": "lidar-tree:281422:4155306", "name": null, "kind": "tree", "species": null, "source": "lidar2025", "tree_height": 15.1, "crown_radius": 6.0, "height_source": "lidar2025" }, "geometry": { "type": "Point", "coordinates": [ 281422.5, 4155306.5 ] } },
{ "type": "Feature", "properties": { "id": "lidar-tree:281408:4155308", "name": null, "kind": "tree", "species": null, "source": "lidar2025", "tree_height": 26.0, "crown_radius": 6.0, "height_source": "lidar2025" }, "geometry": { "type": "Point", "coordinates": [ 281408.5, 4155308.5 ] } },
{ "type": "Feature", "properties": { "id": "lidar-tree:281450:4155312", "name": null, "kind": "tree", "species": null, "source": "lidar2025", "tree_height": 10.4, "crown_radius": 6.0, "height_source": "lidar2025" }, "geometry": { "type": "Point", "coordinates": [ 281450.5, 4155312.5 ] } },
{ "type": "Feature", "properties": { "id": "lidar-tree:281384:4155250", "name": null, "kind": "tree", "species": null, "source": "lidar2025", "tree_height": 30.7, "crown_radius": 6.0, "height_source": "lidar2025" }, "geometry": { "type": "Point", "coordinates": [ 281384.5, 4155250.5 ] } },
{ "type": "Feature", "properties": { "id": "lidar-tree:281360:4155254", "name": null, "kind": "tree", "species": null, "source": "lidar2025", "tree_height": 15.9, "crown_radius": 6.0, "height_source": "lidar2025" }, "geometry": { "type": "Point", "coordinates": [ 281360.5, 4155254.5 ] } },
{ "type": "Feature", "properties": { "id": "lidar-tree:281344:4155256", "name": null, "kind": "tree", "species": null, "source": "lidar2025", "tree_height": 26.6, "crown_radius": 6.0, "height_source": "lidar2025" }, "geometry": { "type": "Point", "coordinates": [ 281344.5, 4155255.5 ] } },
{ "type": "Feature", "properties": { "id": "lidar-tree:281382:4155260", "name": null, "kind": "tree", "species": null, "source": "lidar2025", "tree_height": 24.2, "crown_radius": 6.0, "height_source": "lidar2025" }, "geometry": { "type": "Point", "coordinates": [ 281381.5, 4155259.5 ] } },
{ "type": "Feature", "properties": { "id": "rva-tree:56366", "name": "Tsuga canadensis", "kind": "tree", "species": "Tsuga canadensis", "source": "city_inventory", "tree_height": 20.2, "crown_radius": 6.0, "height_source": "lidar2025" }, "geometry": { "type": "Point", "coordinates": [ 281363.29, 4155272.01 ] } },
{ "type": "Feature", "properties": { "id": "lidar-tree:281396:4155272", "name": null, "kind": "tree", "species": null, "source": "lidar2025", "tree_height": 25.9, "crown_radius": 6.0, "height_source": "lidar2025" }, "geometry": { "type": "Point", "coordinates": [ 281395.5, 4155272.5 ] } },
{ "type": "Feature", "properties": { "id": "rva-tree:56367", "name": "Pinus taeda", "kind": "tree", "species": "Pinus taeda", "source": "city_inventory", "tree_height": 25.5, "crown_radius": 6.0, "height_source": "lidar2025" }, "geometry": { "type": "Point", "coordinates": [ 281396.06, 4155284.33 ] } },
{ "type": "Feature", "properties": { "id": "rva-tree:55985", "name": "Ilex cornuta", "kind": "tree", "species": "Ilex cornuta", "source": "city_inventory", "tree_height": 8.0, "crown_radius": 2.5, "height_source": "estimated" }, "geometry": { "type": "Point", "coordinates": [ 281387.19, 4155347.05 ] } },
{ "type": "Feature", "properties": { "id": "rva-tree:55983", "name": "Ilex opaca", "kind": "tree", "species": "Ilex opaca", "source": "city_inventory", "tree_height": 8.0, "crown_radius": 2.5, "height_source": "estimated" }, "geometry": { "type": "Point", "coordinates": [ 281358.21, 4155353.08 ] } },
{ "type": "Feature", "properties": { "id": "rva-tree:55984", "name": "Ilex opaca", "kind": "tree", "species": "Ilex opaca", "source": "city_inventory", "tree_height": 8.0, "crown_radius": 2.5, "height_source": "estimated" }, "geometry": { "type": "Point", "coordinates": [ 281359.08, 4155359.98 ] } },
{ "type": "Feature", "properties": { "id": "rva-tree:56374", "name": "Acer saccharinum", "kind": "tree", "species": "Acer saccharinum", "source": "city_inventory", "tree_height": 20.0, "crown_radius": 6.0, "height_source": "lidar2025" }, "geometry": { "type": "Point", "coordinates": [ 281309.2, 4155278.38 ] } },
{ "type": "Feature", "properties": { "id": "rva-tree:56373", "name": "Acer saccharinum", "kind": "tree", "species": "Acer saccharinum", "source": "city_inventory", "tree_height": 20.0, "crown_radius": 6.0, "height_source": "lidar2025" }, "geometry": { "type": "Point", "coordinates": [ 281316.06, 4155282.52 ] } },
{ "type": "Feature", "properties": { "id": "rva-tree:56375", "name": "Quercus alba", "kind": "tree", "species": "Quercus alba", "source": "city_inventory", "tree_height": 12.9, "crown_radius": 4.5, "height_source": "lidar2025" }, "geometry": { "type": "Point", "coordinates": [ 281293.22, 4155282.87 ] } },
{ "type": "Feature", "properties": { "id": "rva-tree:56376", "name": "Acer campestre", "kind": "tree", "species": "Acer campestre", "source": "city_inventory", "tree_height": 4.3, "crown_radius": 1.9, "height_source": "lidar2025" }, "geometry": { "type": "Point", "coordinates": [ 281292.25, 4155294.74 ] } },
{ "type": "Feature", "properties": { "id": "rva-tree:56372", "name": "Lagerstroemia indica", "kind": "tree", "species": "Lagerstroemia indica", "source": "city_inventory", "tree_height": 8.2, "crown_radius": 3.4, "height_source": "lidar2025" }, "geometry": { "type": "Point", "coordinates": [ 281306.66, 4155303.39 ] } },
{ "type": "Feature", "properties": { "id": "rva-tree:56371", "name": "Lagerstroemia indica", "kind": "tree", "species": "Lagerstroemia indica", "source": "city_inventory", "tree_height": 7.8, "crown_radius": 3.7, "height_source": "lidar2025" }, "geometry": { "type": "Point", "coordinates": [ 281307.32, 4155311.9 ] } },
{ "type": "Feature", "properties": { "id": "rva-tree:56370", "name": "Lagerstroemia indica", "kind": "tree", "species": "Lagerstroemia indica", "source": "city_inventory", "tree_height": 8.4, "crown_radius": 4.0, "height_source": "lidar2025" }, "geometry": { "type": "Point", "coordinates": [ 281308.43, 4155331.97 ] } },
{ "type": "Feature", "properties": { "id": "rva-tree:56369", "name": "Lagerstroemia indica", "kind": "tree", "species": "Lagerstroemia indica", "source": "city_inventory", "tree_height": 8.9, "crown_radius": 4.3, "height_source": "lidar2025" }, "geometry": { "type": "Point", "coordinates": [ 281307.8, 4155337.85 ] } },
{ "type": "Feature", "properties": { "id": "rva-tree:55981", "name": "Acer saccharum", "kind": "tree", "species": "Acer saccharum", "source": "city_inventory", "tree_height": 8.0, "crown_radius": 2.5, "height_source": "estimated" }, "geometry": { "type": "Point", "coordinates": [ 281324.25, 4155348.52 ] } },
{ "type": "Feature", "properties": { "id": "rva-tree:55980", "name": "Acer saccharum", "kind": "tree", "species": "Acer saccharum", "source": "city_inventory", "tree_height": 13.4, "crown_radius": 6.0, "height_source": "lidar2025" }, "geometry": { "type": "Point", "coordinates": [ 281313.41, 4155350.04 ] } },
{ "type": "Feature", "properties": { "id": "lidar-tree:281432:4155312", "name": null, "kind": "tree", "species": null, "source": "lidar2025", "tree_height": 15.6, "crown_radius": 6.0, "height_source": "lidar2025" }, "geometry": { "type": "Point", "coordinates": [ 281432.5, 4155312.5 ] } },
{ "type": "Feature", "properties": { "id": "lidar-tree:281442:4155316", "name": null, "kind": "tree", "species": null, "source": "lidar2025", "tree_height": 16.5, "crown_radius": 6.0, "height_source": "lidar2025" }, "geometry": { "type": "Point", "coordinates": [ 281441.5, 4155316.5 ] } },
{ "type": "Feature", "properties": { "id": "lidar-tree:281422:4155322", "name": null, "kind": "tree", "species": null, "source": "lidar2025", "tree_height": 14.2, "crown_radius": 6.0, "height_source": "lidar2025" }, "geometry": { "type": "Point", "coordinates": [ 281422.5, 4155322.5 ] } },
{ "type": "Feature", "properties": { "id": "lidar-tree:281414:4155326", "name": null, "kind": "tree", "species": null, "source": "lidar2025", "tree_height": 6.3, "crown_radius": 5.2, "height_source": "lidar2025" }, "geometry": { "type": "Point", "coordinates": [ 281413.5, 4155326.5 ] } },
{ "type": "Feature", "properties": { "id": "lidar-tree:281446:4155332", "name": null, "kind": "tree", "species": null, "source": "lidar2025", "tree_height": 27.7, "crown_radius": 6.0, "height_source": "lidar2025" }, "geometry": { "type": "Point", "coordinates": [ 281446.5, 4155331.5 ] } },
{ "type": "Feature", "properties": { "id": "lidar-tree:281438:4155334", "name": null, "kind": "tree", "species": null, "source": "lidar2025", "tree_height": 29.4, "crown_radius": 6.0, "height_source": "lidar2025" }, "geometry": { "type": "Point", "coordinates": [ 281438.5, 4155334.5 ] } },
{ "type": "Feature", "properties": { "id": "lidar-tree:281440:4155346", "name": null, "kind": "tree", "species": null, "source": "lidar2025", "tree_height": 28.7, "crown_radius": 6.0, "height_source": "lidar2025" }, "geometry": { "type": "Point", "coordinates": [ 281439.5, 4155345.5 ] } },
{ "type": "Feature", "properties": { "id": "lidar-tree:281428:4155350", "name": null, "kind": "tree", "species": null, "source": "lidar2025", "tree_height": 24.5, "crown_radius": 6.0, "height_source": "lidar2025" }, "geometry": { "type": "Point", "coordinates": [ 281428.5, 4155350.5 ] } },
{ "type": "Feature", "properties": { "id": "lidar-tree:281418:4155352", "name": null, "kind": "tree", "species": null, "source": "lidar2025", "tree_height": 25.5, "crown_radius": 6.0, "height_source": "lidar2025" }, "geometry": { "type": "Point", "coordinates": [ 281417.5, 4155351.5 ] } },
{ "type": "Feature", "properties": { "id": "lidar-tree:281442:4155360", "name": null, "kind": "tree", "species": null, "source": "lidar2025", "tree_height": 24.4, "crown_radius": 6.0, "height_source": "lidar2025" }, "geometry": { "type": "Point", "coordinates": [ 281442.5, 4155359.5 ] } },
{ "type": "Feature", "properties": { "id": "rva-tree:55978", "name": "Acer saccharum", "kind": "tree", "species": "Acer saccharum", "source": "city_inventory", "tree_height": 14.4, "crown_radius": 5.9, "height_source": "lidar2025" }, "geometry": { "type": "Point", "coordinates": [ 281304.41, 4155350.87 ] } },
{ "type": "Feature", "properties": { "id": "rva-tree:55976", "name": "Acer saccharum", "kind": "tree", "species": "Acer saccharum", "source": "city_inventory", "tree_height": 13.7, "crown_radius": 5.1, "height_source": "lidar2025" }, "geometry": { "type": "Point", "coordinates": [ 281294.15, 4155351.25 ] } },
{ "type": "Feature", "properties": { "id": "rva-tree:55982", "name": "Acer saccharum", "kind": "tree", "species": "Acer saccharum", "source": "city_inventory", "tree_height": 8.0, "crown_radius": 2.5, "height_source": "estimated" }, "geometry": { "type": "Point", "coordinates": [ 281331.09, 4155356.19 ] } },
{ "type": "Feature", "properties": { "id": "rva-tree:55979", "name": "Acer saccharum", "kind": "tree", "species": "Acer saccharum", "source": "city_inventory", "tree_height": 8.0, "crown_radius": 2.5, "height_source": "estimated" }, "geometry": { "type": "Point", "coordinates": [ 281310.19, 4155359.94 ] } },
{ "type": "Feature", "properties": { "id": "rva-tree:55975", "name": "Acer saccharum", "kind": "tree", "species": "Acer saccharum", "source": "city_inventory", "tree_height": 8.0, "crown_radius": 2.5, "height_source": "estimated" }, "geometry": { "type": "Point", "coordinates": [ 281288.29, 4155360.01 ] } },
{ "type": "Feature", "properties": { "id": "rva-tree:55977", "name": "Acer saccharum", "kind": "tree", "species": "Acer saccharum", "source": "city_inventory", "tree_height": 8.0, "crown_radius": 2.5, "height_source": "estimated" }, "geometry": { "type": "Point", "coordinates": [ 281299.32, 4155360.34 ] } },
{ "type": "Feature", "properties": { "id": "rva-tree:55989", "name": "Quercus rubra", "kind": "tree", "species": "Quercus rubra", "source": "city_inventory", "tree_height": 8.0, "crown_radius": 2.5, "height_source": "estimated" }, "geometry": { "type": "Point", "coordinates": [ 281304.34, 4155380.02 ] } },
{ "type": "Feature", "properties": { "id": "lidar-tree:281336:4155380", "name": null, "kind": "tree", "species": null, "source": "lidar2025", "tree_height": 26.6, "crown_radius": 6.0, "height_source": "lidar2025" }, "geometry": { "type": "Point", "coordinates": [ 281335.5, 4155380.5 ] } },
{ "type": "Feature", "properties": { "id": "lidar-tree:281300:4155386", "name": null, "kind": "tree", "species": null, "source": "lidar2025", "tree_height": 26.1, "crown_radius": 6.0, "height_source": "lidar2025" }, "geometry": { "type": "Point", "coordinates": [ 281299.5, 4155386.5 ] } },
{ "type": "Feature", "properties": { "id": "lidar-tree:281330:4155388", "name": null, "kind": "tree", "species": null, "source": "lidar2025", "tree_height": 31.0, "crown_radius": 6.0, "height_source": "lidar2025" }, "geometry": { "type": "Point", "coordinates": [ 281329.5, 4155388.5 ] } },
{ "type": "Feature", "properties": { "id": "lidar-tree:281422:4155362", "name": null, "kind": "tree", "species": null, "source": "lidar2025", "tree_height": 21.9, "crown_radius": 6.0, "height_source": "lidar2025" }, "geometry": { "type": "Point", "coordinates": [ 281421.5, 4155361.5 ] } },
{ "type": "Feature", "properties": { "id": "lidar-tree:281452:4155364", "name": null, "kind": "tree", "species": null, "source": "lidar2025", "tree_height": 27.1, "crown_radius": 6.0, "height_source": "lidar2025" }, "geometry": { "type": "Point", "coordinates": [ 281451.5, 4155364.5 ] } },
{ "type": "Feature", "properties": { "id": "lidar-tree:281430:4155364", "name": null, "kind": "tree", "species": null, "source": "lidar2025", "tree_height": 25.2, "crown_radius": 6.0, "height_source": "lidar2025" }, "geometry": { "type": "Point", "coordinates": [ 281429.5, 4155364.5 ] } },
{ "type": "Feature", "properties": { "id": "rva-tree:55986", "name": "Unknown tree", "kind": "tree", "species": "Unknown tree", "source": "city_inventory", "tree_height": 8.0, "crown_radius": 2.5, "height_source": "estimated" }, "geometry": { "type": "Point", "coordinates": [ 281401.91, 4155369.33 ] } },
{ "type": "Feature", "properties": { "id": "lidar-tree:281398:4155378", "name": null, "kind": "tree", "species": null, "source": "lidar2025", "tree_height": 25.9, "crown_radius": 6.0, "height_source": "lidar2025" }, "geometry": { "type": "Point", "coordinates": [ 281398.5, 4155377.5 ] } },
{ "type": "Feature", "properties": { "id": "lidar-tree:281430:4155378", "name": null, "kind": "tree", "species": null, "source": "lidar2025", "tree_height": 27.3, "crown_radius": 6.0, "height_source": "lidar2025" }, "geometry": { "type": "Point", "coordinates": [ 281429.5, 4155377.5 ] } },
{ "type": "Feature", "properties": { "id": "lidar-tree:281446:4155380", "name": null, "kind": "tree", "species": null, "source": "lidar2025", "tree_height": 27.7, "crown_radius": 6.0, "height_source": "lidar2025" }, "geometry": { "type": "Point", "coordinates": [ 281445.5, 4155379.5 ] } },
{ "type": "Feature", "properties": { "id": "lidar-tree:281412:4155388", "name": null, "kind": "tree", "species": null, "source": "lidar2025", "tree_height": 26.5, "crown_radius": 6.0, "height_source": "lidar2025" }, "geometry": { "type": "Point", "coordinates": [ 281411.5, 4155387.5 ] } },
{ "type": "Feature", "properties": { "id": "lidar-tree:281450:4155398", "name": null, "kind": "tree", "species": null, "source": "lidar2025", "tree_height": 39.1, "crown_radius": 6.0, "height_source": "lidar2025" }, "geometry": { "type": "Point", "coordinates": [ 281449.5, 4155397.5 ] } },
{ "type": "Feature", "properties": { "id": "lidar-tree:281408:4155398", "name": null, "kind": "tree", "species": null, "source": "lidar2025", "tree_height": 31.3, "crown_radius": 6.0, "height_source": "lidar2025" }, "geometry": { "type": "Point", "coordinates": [ 281408.5, 4155398.5 ] } },
{ "type": "Feature", "properties": { "id": "rva-tree:55999", "name": "Pyrus calleryana", "kind": "tree", "species": "Pyrus calleryana", "source": "city_inventory", "tree_height": 7.4, "crown_radius": 3.9, "height_source": "lidar2025" }, "geometry": { "type": "Point", "coordinates": [ 281250.75, 4155379.64 ] } },
{ "type": "Feature", "properties": { "id": "rva-tree:55992", "name": "Liriodendron tulipifera", "kind": "tree", "species": "Liriodendron tulipifera", "source": "city_inventory", "tree_height": 30.8, "crown_radius": 6.0, "height_source": "lidar2025" }, "geometry": { "type": "Point", "coordinates": [ 281277.86, 4155383.6 ] } },
{ "type": "Feature", "properties": { "id": "lidar-tree:281254:4155388", "name": null, "kind": "tree", "species": null, "source": "lidar2025", "tree_height": 5.4, "crown_radius": 3.0, "height_source": "lidar2025" }, "geometry": { "type": "Point", "coordinates": [ 281254.5, 4155388.5 ] } },
{ "type": "Feature", "properties": { "id": "lidar-tree:281282:4155390", "name": null, "kind": "tree", "species": null, "source": "lidar2025", "tree_height": 30.1, "crown_radius": 6.0, "height_source": "lidar2025" }, "geometry": { "type": "Point", "coordinates": [ 281281.5, 4155390.5 ] } },
{ "type": "Feature", "properties": { "id": "rva-tree:55995", "name": "Ulmus americana", "kind": "tree", "species": "Ulmus americana", "source": "city_inventory", "tree_height": 8.0, "crown_radius": 2.5, "height_source": "estimated" }, "geometry": { "type": "Point", "coordinates": [ 281258.34, 4155397.82 ] } },
{ "type": "Feature", "properties": { "id": "rva-tree:55993", "name": "Juniperus virginiana", "kind": "tree", "species": "Juniperus virginiana", "source": "city_inventory", "tree_height": 8.0, "crown_radius": 2.5, "height_source": "estimated" }, "geometry": { "type": "Point", "coordinates": [ 281272.61, 4155402.12 ] } },
{ "type": "Feature", "properties": { "id": "rva-tree:55987", "name": "Unknown tree", "kind": "tree", "species": "Unknown tree", "source": "city_inventory", "tree_height": 15.3, "crown_radius": 5.3, "height_source": "lidar2025" }, "geometry": { "type": "Point", "coordinates": [ 281356.61, 4155375.85 ] } },
{ "type": "Feature", "properties": { "id": "lidar-tree:281366:4155378", "name": null, "kind": "tree", "species": null, "source": "lidar2025", "tree_height": 17.9, "crown_radius": 6.0, "height_source": "lidar2025" }, "geometry": { "type": "Point", "coordinates": [ 281365.5, 4155377.5 ] } },
{ "type": "Feature", "properties": { "id": "lidar-tree:281386:4155386", "name": null, "kind": "tree", "species": null, "source": "lidar2025", "tree_height": 31.2, "crown_radius": 6.0, "height_source": "lidar2025" }, "geometry": { "type": "Point", "coordinates": [ 281385.5, 4155386.5 ] } },
{ "type": "Feature", "properties": { "id": "lidar-tree:281342:4155398", "name": null, "kind": "tree", "species": null, "source": "lidar2025", "tree_height": 32.6, "crown_radius": 6.0, "height_source": "lidar2025" }, "geometry": { "type": "Point", "coordinates": [ 281342.5, 4155398.5 ] } },
{ "type": "Feature", "properties": { "id": "lidar-tree:281368:4155400", "name": null, "kind": "tree", "species": null, "source": "lidar2025", "tree_height": 39.7, "crown_radius": 6.0, "height_source": "lidar2025" }, "geometry": { "type": "Point", "coordinates": [ 281368.5, 4155400.5 ] } },
{ "type": "Feature", "properties": { "id": "lidar-tree:281396:4155408", "name": null, "kind": "tree", "species": null, "source": "lidar2025", "tree_height": 38.7, "crown_radius": 6.0, "height_source": "lidar2025" }, "geometry": { "type": "Point", "coordinates": [ 281395.5, 4155407.5 ] } },
{ "type": "Feature", "properties": { "id": "lidar-tree:281384:4155412", "name": null, "kind": "tree", "species": null, "source": "lidar2025", "tree_height": 30.9, "crown_radius": 6.0, "height_source": "lidar2025" }, "geometry": { "type": "Point", "coordinates": [ 281383.5, 4155411.5 ] } },
{ "type": "Feature", "properties": { "id": "lidar-tree:281354:4155422", "name": null, "kind": "tree", "species": null, "source": "lidar2025", "tree_height": 38.0, "crown_radius": 6.0, "height_source": "lidar2025" }, "geometry": { "type": "Point", "coordinates": [ 281354.5, 4155421.5 ] } },
{ "type": "Feature", "properties": { "id": "lidar-tree:281382:4155432", "name": null, "kind": "tree", "species": null, "source": "lidar2025", "tree_height": 29.5, "crown_radius": 6.0, "height_source": "lidar2025" }, "geometry": { "type": "Point", "coordinates": [ 281381.5, 4155432.5 ] } },
{ "type": "Feature", "properties": { "id": "lidar-tree:281368:4155434", "name": null, "kind": "tree", "species": null, "source": "lidar2025", "tree_height": 32.7, "crown_radius": 6.0, "height_source": "lidar2025" }, "geometry": { "type": "Point", "coordinates": [ 281367.5, 4155433.5 ] } },
{ "type": "Feature", "properties": { "id": "rva-tree:56392", "name": "Quercus phellos", "kind": "tree", "species": "Quercus phellos", "source": "city_inventory", "tree_height": 14.5, "crown_radius": 5.1, "height_source": "lidar2025" }, "geometry": { "type": "Point", "coordinates": [ 281275.95, 4155259.91 ] } },
{ "type": "Feature", "properties": { "id": "rva-tree:56389", "name": "Magnolia grandiflora", "kind": "tree", "species": "Magnolia grandiflora", "source": "city_inventory", "tree_height": 13.5, "crown_radius": 5.5, "height_source": "lidar2025" }, "geometry": { "type": "Point", "coordinates": [ 281250.13, 4155264.24 ] } },
{ "type": "Feature", "properties": { "id": "rva-tree:56388", "name": "Ulmus parvifolia", "kind": "tree", "species": "Ulmus parvifolia", "source": "city_inventory", "tree_height": 8.9, "crown_radius": 4.8, "height_source": "lidar2025" }, "geometry": { "type": "Point", "coordinates": [ 281262.74, 4155267.11 ] } },
{ "type": "Feature", "properties": { "id": "rva-tree:56387", "name": "Ulmus alata", "kind": "tree", "species": "Ulmus alata", "source": "city_inventory", "tree_height": 8.0, "crown_radius": 2.5, "height_source": "estimated" }, "geometry": { "type": "Point", "coordinates": [ 281276.67, 4155277.63 ] } },
{ "type": "Feature", "properties": { "id": "rva-tree:56386", "name": "Ulmus parvifolia", "kind": "tree", "species": "Ulmus parvifolia", "source": "city_inventory", "tree_height": 9.1, "crown_radius": 5.4, "height_source": "lidar2025" }, "geometry": { "type": "Point", "coordinates": [ 281262.8, 4155282.8 ] } },
{ "type": "Feature", "properties": { "id": "rva-tree:56377", "name": "Acer campestre", "kind": "tree", "species": "Acer campestre", "source": "city_inventory", "tree_height": 5.4, "crown_radius": 2.0, "height_source": "lidar2025" }, "geometry": { "type": "Point", "coordinates": [ 281279.95, 4155295.2 ] } },
{ "type": "Feature", "properties": { "id": "rva-tree:56378", "name": "Acer campestre", "kind": "tree", "species": "Acer campestre", "source": "city_inventory", "tree_height": 8.2, "crown_radius": 2.8, "height_source": "lidar2025" }, "geometry": { "type": "Point", "coordinates": [ 281268.05, 4155296.37 ] } },
{ "type": "Feature", "properties": { "id": "rva-tree:56379", "name": "Acer campestre", "kind": "tree", "species": "Acer campestre", "source": "city_inventory", "tree_height": 8.6, "crown_radius": 3.1, "height_source": "lidar2025" }, "geometry": { "type": "Point", "coordinates": [ 281256.83, 4155296.55 ] } },
{ "type": "Feature", "properties": { "id": "rva-tree:55969", "name": "Acer saccharum", "kind": "tree", "species": "Acer saccharum", "source": "city_inventory", "tree_height": 8.0, "crown_radius": 2.5, "height_source": "estimated" }, "geometry": { "type": "Point", "coordinates": [ 281254.09, 4155347.23 ] } },
{ "type": "Feature", "properties": { "id": "rva-tree:55971", "name": "Acer saccharum", "kind": "tree", "species": "Acer saccharum", "source": "city_inventory", "tree_height": 14.1, "crown_radius": 6.0, "height_source": "lidar2025" }, "geometry": { "type": "Point", "coordinates": [ 281264.43, 4155349.2 ] } },
{ "type": "Feature", "properties": { "id": "rva-tree:55973", "name": "Acer saccharum", "kind": "tree", "species": "Acer saccharum", "source": "city_inventory", "tree_height": 14.9, "crown_radius": 6.0, "height_source": "lidar2025" }, "geometry": { "type": "Point", "coordinates": [ 281273.76, 4155350.46 ] } },
{ "type": "Feature", "properties": { "id": "rva-tree:55974", "name": "Acer saccharum", "kind": "tree", "species": "Acer saccharum", "source": "city_inventory", "tree_height": 8.0, "crown_radius": 2.5, "height_source": "estimated" }, "geometry": { "type": "Point", "coordinates": [ 281283.79, 4155350.58 ] } },
{ "type": "Feature", "properties": { "id": "rva-tree:55970", "name": "Acer saccharum", "kind": "tree", "species": "Acer saccharum", "source": "city_inventory", "tree_height": 13.3, "crown_radius": 6.0, "height_source": "lidar2025" }, "geometry": { "type": "Point", "coordinates": [ 281256.18, 4155356.93 ] } },
{ "type": "Feature", "properties": { "id": "lidar-tree:281266:4155358", "name": null, "kind": "tree", "species": null, "source": "lidar2025", "tree_height": 16.8, "crown_radius": 6.0, "height_source": "lidar2025" }, "geometry": { "type": "Point", "coordinates": [ 281266.5, 4155357.5 ] } },
{ "type": "Feature", "properties": { "id": "lidar-tree:281270:4155412", "name": null, "kind": "tree", "species": null, "source": "lidar2025", "tree_height": 22.1, "crown_radius": 6.0, "height_source": "lidar2025" }, "geometry": { "type": "Point", "coordinates": [ 281269.5, 4155412.5 ] } },
{ "type": "Feature", "properties": { "id": "lidar-tree:281252:4155418", "name": null, "kind": "tree", "species": null, "source": "lidar2025", "tree_height": 33.5, "crown_radius": 6.0, "height_source": "lidar2025" }, "geometry": { "type": "Point", "coordinates": [ 281252.5, 4155417.5 ] } },
{ "type": "Feature", "properties": { "id": "rva-tree:55994", "name": "Ulmus americana", "kind": "tree", "species": "Ulmus americana", "source": "city_inventory", "tree_height": 8.0, "crown_radius": 2.5, "height_source": "estimated" }, "geometry": { "type": "Point", "coordinates": [ 281265.01, 4155420.84 ] } },
{ "type": "Feature", "properties": { "id": "rva-tree:56025", "name": "Quercus alba", "kind": "tree", "species": "Quercus alba", "source": "city_inventory", "tree_height": 30.3, "crown_radius": 6.0, "height_source": "lidar2025" }, "geometry": { "type": "Point", "coordinates": [ 281255.18, 4155442.47 ] } },
{ "type": "Feature", "properties": { "id": "lidar-tree:281272:4155444", "name": null, "kind": "tree", "species": null, "source": "lidar2025", "tree_height": 28.7, "crown_radius": 6.0, "height_source": "lidar2025" }, "geometry": { "type": "Point", "coordinates": [ 281271.5, 4155444.5 ] } },
{ "type": "Feature", "properties": { "id": "rva-tree:56028", "name": "Quercus stellata", "kind": "tree", "species": "Quercus stellata", "source": "city_inventory", "tree_height": 8.0, "crown_radius": 2.5, "height_source": "estimated" }, "geometry": { "type": "Point", "coordinates": [ 281275.05, 4155451.2 ] } },
{ "type": "Feature", "properties": { "id": "rva-tree:56027", "name": "Unknown tree", "kind": "tree", "species": "Unknown tree", "source": "city_inventory", "tree_height": 20.5, "crown_radius": 6.0, "height_source": "lidar2025" }, "geometry": { "type": "Point", "coordinates": [ 281269.28, 4155458.33 ] } },
{ "type": "Feature", "properties": { "id": "rva-tree:56029", "name": "Pinus taeda", "kind": "tree", "species": "Pinus taeda", "source": "city_inventory", "tree_height": 8.0, "crown_radius": 2.5, "height_source": "estimated" }, "geometry": { "type": "Point", "coordinates": [ 281275.85, 4155460.11 ] } },
{ "type": "Feature", "properties": { "id": "lidar-tree:281260:4155470", "name": null, "kind": "tree", "species": null, "source": "lidar2025", "tree_height": 19.6, "crown_radius": 6.0, "height_source": "lidar2025" }, "geometry": { "type": "Point", "coordinates": [ 281260.5, 4155469.5 ] } },
{ "type": "Feature", "properties": { "id": "rva-tree:55828", "name": "Quercus phellos", "kind": "tree", "species": "Quercus phellos", "source": "city_inventory", "tree_height": 17.7, "crown_radius": 6.0, "height_source": "lidar2025" }, "geometry": { "type": "Point", "coordinates": [ 281269.42, 4155476.96 ] } },
{ "type": "Feature", "properties": { "id": "rva-tree:55829", "name": "Quercus alba", "kind": "tree", "species": "Quercus alba", "source": "city_inventory", "tree_height": 8.0, "crown_radius": 2.5, "height_source": "estimated" }, "geometry": { "type": "Point", "coordinates": [ 281280.94, 4155477.54 ] } },
{ "type": "Feature", "properties": { "id": "rva-tree:55827", "name": "Unknown tree", "kind": "tree", "species": "Unknown tree", "source": "city_inventory", "tree_height": 17.7, "crown_radius": 6.0, "height_source": "lidar2025" }, "geometry": { "type": "Point", "coordinates": [ 281267.02, 4155479.67 ] } },
{ "type": "Feature", "properties": { "id": "rva-tree:55826", "name": "Quercus phellos", "kind": "tree", "species": "Quercus phellos", "source": "city_inventory", "tree_height": 17.8, "crown_radius": 5.9, "height_source": "lidar2025" }, "geometry": { "type": "Point", "coordinates": [ 281270.86, 4155486.11 ] } },
{ "type": "Feature", "properties": { "id": "rva-tree:55825", "name": "Quercus phellos", "kind": "tree", "species": "Quercus phellos", "source": "city_inventory", "tree_height": 15.6, "crown_radius": 6.0, "height_source": "lidar2025" }, "geometry": { "type": "Point", "coordinates": [ 281254.36, 4155489.35 ] } },
{ "type": "Feature", "properties": { "id": "rva-tree:56143", "name": "Betula nigra", "kind": "tree", "species": "Betula nigra", "source": "city_inventory", "tree_height": 14.3, "crown_radius": 5.9, "height_source": "lidar2025" }, "geometry": { "type": "Point", "coordinates": [ 281483.84, 4155336.8 ] } },
{ "type": "Feature", "properties": { "id": "rva-tree:56144", "name": "Betula nigra", "kind": "tree", "species": "Betula nigra", "source": "city_inventory", "tree_height": 14.3, "crown_radius": 5.9, "height_source": "lidar2025" }, "geometry": { "type": "Point", "coordinates": [ 281484.91, 4155342.96 ] } },
{ "type": "Feature", "properties": { "id": "lidar-tree:281464:4155348", "name": null, "kind": "tree", "species": null, "source": "lidar2025", "tree_height": 29.2, "crown_radius": 6.0, "height_source": "lidar2025" }, "geometry": { "type": "Point", "coordinates": [ 281464.5, 4155347.5 ] } },
{ "type": "Feature", "properties": { "id": "rva-tree:56145", "name": "Platanus x acerifolia", "kind": "tree", "species": "Platanus x acerifolia", "source": "city_inventory", "tree_height": 8.0, "crown_radius": 2.5, "height_source": "estimated" }, "geometry": { "type": "Point", "coordinates": [ 281488.59, 4155352.81 ] } },
{ "type": "Feature", "properties": { "id": "lidar-tree:281480:4155356", "name": null, "kind": "tree", "species": null, "source": "lidar2025", "tree_height": 27.2, "crown_radius": 6.0, "height_source": "lidar2025" }, "geometry": { "type": "Point", "coordinates": [ 281480.5, 4155356.5 ] } },
{ "type": "Feature", "properties": { "id": "lidar-tree:281466:4155362", "name": null, "kind": "tree", "species": null, "source": "lidar2025", "tree_height": 28.8, "crown_radius": 6.0, "height_source": "lidar2025" }, "geometry": { "type": "Point", "coordinates": [ 281466.5, 4155362.5 ] } },
{ "type": "Feature", "properties": { "id": "rva-tree:56146", "name": "Betula nigra", "kind": "tree", "species": "Betula nigra", "source": "city_inventory", "tree_height": 15.5, "crown_radius": 5.8, "height_source": "lidar2025" }, "geometry": { "type": "Point", "coordinates": [ 281490.95, 4155368.1 ] } },
{ "type": "Feature", "properties": { "id": "lidar-tree:281458:4155370", "name": null, "kind": "tree", "species": null, "source": "lidar2025", "tree_height": 27.4, "crown_radius": 6.0, "height_source": "lidar2025" }, "geometry": { "type": "Point", "coordinates": [ 281458.5, 4155370.5 ] } },
{ "type": "Feature", "properties": { "id": "lidar-tree:281480:4155372", "name": null, "kind": "tree", "species": null, "source": "lidar2025", "tree_height": 26.3, "crown_radius": 6.0, "height_source": "lidar2025" }, "geometry": { "type": "Point", "coordinates": [ 281479.5, 4155372.5 ] } },
{ "type": "Feature", "properties": { "id": "rva-tree:56035", "name": "Quercus rubra", "kind": "tree", "species": "Quercus rubra", "source": "city_inventory", "tree_height": 26.3, "crown_radius": 6.0, "height_source": "lidar2025" }, "geometry": { "type": "Point", "coordinates": [ 281473.95, 4155375.53 ] } },
{ "type": "Feature", "properties": { "id": "rva-tree:56036", "name": "Betula nigra", "kind": "tree", "species": "Betula nigra", "source": "city_inventory", "tree_height": 14.7, "crown_radius": 5.7, "height_source": "lidar2025" }, "geometry": { "type": "Point", "coordinates": [ 281493.42, 4155376.71 ] } },
{ "type": "Feature", "properties": { "id": "lidar-tree:281466:4155384", "name": null, "kind": "tree", "species": null, "source": "lidar2025", "tree_height": 33.8, "crown_radius": 6.0, "height_source": "lidar2025" }, "geometry": { "type": "Point", "coordinates": [ 281465.5, 4155384.5 ] } },
{ "type": "Feature", "properties": { "id": "rva-tree:56037", "name": "Betula nigra", "kind": "tree", "species": "Betula nigra", "source": "city_inventory", "tree_height": 22.9, "crown_radius": 6.0, "height_source": "lidar2025" }, "geometry": { "type": "Point", "coordinates": [ 281497.21, 4155384.76 ] } },
{ "type": "Feature", "properties": { "id": "rva-tree:56034", "name": "Betula nigra", "kind": "tree", "species": "Betula nigra", "source": "city_inventory", "tree_height": 8.0, "crown_radius": 2.5, "height_source": "estimated" }, "geometry": { "type": "Point", "coordinates": [ 281475.16, 4155388.09 ] } },
{ "type": "Feature", "properties": { "id": "rva-tree:56038", "name": "Platanus occidentalis", "kind": "tree", "species": "Platanus occidentalis", "source": "city_inventory", "tree_height": 8.0, "crown_radius": 2.5, "height_source": "estimated" }, "geometry": { "type": "Point", "coordinates": [ 281492.17, 4155390.31 ] } },
{ "type": "Feature", "properties": { "id": "rva-tree:56033", "name": "Liquidambar styraciflua", "kind": "tree", "species": "Liquidambar styraciflua", "source": "city_inventory", "tree_height": 35.0, "crown_radius": 6.0, "height_source": "lidar2025" }, "geometry": { "type": "Point", "coordinates": [ 281466.42, 4155391.63 ] } },
{ "type": "Feature", "properties": { "id": "rva-tree:56040", "name": "Betula nigra", "kind": "tree", "species": "Betula nigra", "source": "city_inventory", "tree_height": 8.0, "crown_radius": 2.5, "height_source": "estimated" }, "geometry": { "type": "Point", "coordinates": [ 281490.56, 4155399.08 ] } },
{ "type": "Feature", "properties": { "id": "lidar-tree:281458:4155400", "name": null, "kind": "tree", "species": null, "source": "lidar2025", "tree_height": 35.8, "crown_radius": 6.0, "height_source": "lidar2025" }, "geometry": { "type": "Point", "coordinates": [ 281458.5, 4155400.5 ] } },
{ "type": "Feature", "properties": { "id": "lidar-tree:281484:4155406", "name": null, "kind": "tree", "species": null, "source": "lidar2025", "tree_height": 35.6, "crown_radius": 6.0, "height_source": "lidar2025" }, "geometry": { "type": "Point", "coordinates": [ 281483.5, 4155405.5 ] } },
{ "type": "Feature", "properties": { "id": "lidar-tree:281496:4155412", "name": null, "kind": "tree", "species": null, "source": "lidar2025", "tree_height": 35.9, "crown_radius": 6.0, "height_source": "lidar2025" }, "geometry": { "type": "Point", "coordinates": [ 281496.5, 4155412.5 ] } },
{ "type": "Feature", "properties": { "id": "lidar-tree:281464:4155414", "name": null, "kind": "tree", "species": null, "source": "lidar2025", "tree_height": 35.4, "crown_radius": 6.0, "height_source": "lidar2025" }, "geometry": { "type": "Point", "coordinates": [ 281463.5, 4155413.5 ] } },
{ "type": "Feature", "properties": { "id": "lidar-tree:281480:4155420", "name": null, "kind": "tree", "species": null, "source": "lidar2025", "tree_height": 37.5, "crown_radius": 6.0, "height_source": "lidar2025" }, "geometry": { "type": "Point", "coordinates": [ 281480.5, 4155419.5 ] } },
{ "type": "Feature", "properties": { "id": "lidar-tree:281466:4155424", "name": null, "kind": "tree", "species": null, "source": "lidar2025", "tree_height": 32.8, "crown_radius": 6.0, "height_source": "lidar2025" }, "geometry": { "type": "Point", "coordinates": [ 281466.5, 4155424.5 ] } },
{ "type": "Feature", "properties": { "id": "lidar-tree:281492:4155428", "name": null, "kind": "tree", "species": null, "source": "lidar2025", "tree_height": 36.0, "crown_radius": 6.0, "height_source": "lidar2025" }, "geometry": { "type": "Point", "coordinates": [ 281492.5, 4155427.5 ] } },
{ "type": "Feature", "properties": { "id": "lidar-tree:281480:4155430", "name": null, "kind": "tree", "species": null, "source": "lidar2025", "tree_height": 34.2, "crown_radius": 6.0, "height_source": "lidar2025" }, "geometry": { "type": "Point", "coordinates": [ 281479.5, 4155429.5 ] } },
{ "type": "Feature", "properties": { "id": "lidar-tree:281456:4155434", "name": null, "kind": "tree", "species": null, "source": "lidar2025", "tree_height": 34.1, "crown_radius": 6.0, "height_source": "lidar2025" }, "geometry": { "type": "Point", "coordinates": [ 281455.5, 4155433.5 ] } },
{ "type": "Feature", "properties": { "id": "lidar-tree:281466:4155434", "name": null, "kind": "tree", "species": null, "source": "lidar2025", "tree_height": 34.8, "crown_radius": 6.0, "height_source": "lidar2025" }, "geometry": { "type": "Point", "coordinates": [ 281466.5, 4155433.5 ] } },
{ "type": "Feature", "properties": { "id": "rva-tree:55990", "name": "Carya tomentosa", "kind": "tree", "species": "Carya tomentosa", "source": "city_inventory", "tree_height": 8.0, "crown_radius": 2.5, "height_source": "estimated" }, "geometry": { "type": "Point", "coordinates": [ 281292.98, 4155390.59 ] } },
{ "type": "Feature", "properties": { "id": "rva-tree:55988", "name": "Quercus prinus", "kind": "tree", "species": "Quercus prinus", "source": "city_inventory", "tree_height": 28.4, "crown_radius": 6.0, "height_source": "lidar2025" }, "geometry": { "type": "Point", "coordinates": [ 281318.18, 4155390.77 ] } },
{ "type": "Feature", "properties": { "id": "lidar-tree:281330:4155400", "name": null, "kind": "tree", "species": null, "source": "lidar2025", "tree_height": 31.9, "crown_radius": 6.0, "height_source": "lidar2025" }, "geometry": { "type": "Point", "coordinates": [ 281330.5, 4155400.5 ] } },
{ "type": "Feature", "properties": { "id": "rva-tree:55991", "name": "Cornus florida", "kind": "tree", "species": "Cornus florida", "source": "city_inventory", "tree_height": 8.0, "crown_radius": 2.5, "height_source": "estimated" }, "geometry": { "type": "Point", "coordinates": [ 281286.69, 4155401.22 ] } },
{ "type": "Feature", "properties": { "id": "lidar-tree:281340:4155410", "name": null, "kind": "tree", "species": null, "source": "lidar2025", "tree_height": 34.2, "crown_radius": 6.0, "height_source": "lidar2025" }, "geometry": { "type": "Point", "coordinates": [ 281339.5, 4155409.5 ] } },
{ "type": "Feature", "properties": { "id": "lidar-tree:281316:4155410", "name": null, "kind": "tree", "species": null, "source": "lidar2025", "tree_height": 33.3, "crown_radius": 6.0, "height_source": "lidar2025" }, "geometry": { "type": "Point", "coordinates": [ 281316.5, 4155410.5 ] } },
{ "type": "Feature", "properties": { "id": "lidar-tree:281296:4155418", "name": null, "kind": "tree", "species": null, "source": "lidar2025", "tree_height": 33.4, "crown_radius": 6.0, "height_source": "lidar2025" }, "geometry": { "type": "Point", "coordinates": [ 281296.5, 4155417.5 ] } },
{ "type": "Feature", "properties": { "id": "lidar-tree:281314:4155424", "name": null, "kind": "tree", "species": null, "source": "lidar2025", "tree_height": 38.4, "crown_radius": 6.0, "height_source": "lidar2025" }, "geometry": { "type": "Point", "coordinates": [ 281313.5, 4155424.5 ] } },
{ "type": "Feature", "properties": { "id": "lidar-tree:281300:4155430", "name": null, "kind": "tree", "species": null, "source": "lidar2025", "tree_height": 35.0, "crown_radius": 6.0, "height_source": "lidar2025" }, "geometry": { "type": "Point", "coordinates": [ 281299.5, 4155429.5 ] } },
{ "type": "Feature", "properties": { "id": "lidar-tree:281304:4155444", "name": null, "kind": "tree", "species": null, "source": "lidar2025", "tree_height": 31.9, "crown_radius": 6.0, "height_source": "lidar2025" }, "geometry": { "type": "Point", "coordinates": [ 281304.5, 4155443.5 ] } },
{ "type": "Feature", "properties": { "id": "lidar-tree:281430:4155400", "name": null, "kind": "tree", "species": null, "source": "lidar2025", "tree_height": 33.8, "crown_radius": 6.0, "height_source": "lidar2025" }, "geometry": { "type": "Point", "coordinates": [ 281430.5, 4155400.5 ] } },
{ "type": "Feature", "properties": { "id": "lidar-tree:281420:4155402", "name": null, "kind": "tree", "species": null, "source": "lidar2025", "tree_height": 32.8, "crown_radius": 6.0, "height_source": "lidar2025" }, "geometry": { "type": "Point", "coordinates": [ 281419.5, 4155401.5 ] } },
{ "type": "Feature", "properties": { "id": "lidar-tree:281444:4155410", "name": null, "kind": "tree", "species": null, "source": "lidar2025", "tree_height": 32.5, "crown_radius": 6.0, "height_source": "lidar2025" }, "geometry": { "type": "Point", "coordinates": [ 281444.5, 4155410.5 ] } },
{ "type": "Feature", "properties": { "id": "lidar-tree:281436:4155416", "name": null, "kind": "tree", "species": null, "source": "lidar2025", "tree_height": 31.1, "crown_radius": 6.0, "height_source": "lidar2025" }, "geometry": { "type": "Point", "coordinates": [ 281436.5, 4155415.5 ] } },
{ "type": "Feature", "properties": { "id": "lidar-tree:281406:4155416", "name": null, "kind": "tree", "species": null, "source": "lidar2025", "tree_height": 29.2, "crown_radius": 6.0, "height_source": "lidar2025" }, "geometry": { "type": "Point", "coordinates": [ 281406.5, 4155416.5 ] } },
{ "type": "Feature", "properties": { "id": "lidar-tree:281446:4155422", "name": null, "kind": "tree", "species": null, "source": "lidar2025", "tree_height": 27.3, "crown_radius": 6.0, "height_source": "lidar2025" }, "geometry": { "type": "Point", "coordinates": [ 281446.5, 4155422.5 ] } },
{ "type": "Feature", "properties": { "id": "lidar-tree:281414:4155426", "name": null, "kind": "tree", "species": null, "source": "lidar2025", "tree_height": 34.0, "crown_radius": 6.0, "height_source": "lidar2025" }, "geometry": { "type": "Point", "coordinates": [ 281413.5, 4155425.5 ] } },
{ "type": "Feature", "properties": { "id": "lidar-tree:281436:4155432", "name": null, "kind": "tree", "species": null, "source": "lidar2025", "tree_height": 36.3, "crown_radius": 6.0, "height_source": "lidar2025" }, "geometry": { "type": "Point", "coordinates": [ 281436.5, 4155431.5 ] } },
{ "type": "Feature", "properties": { "id": "lidar-tree:281400:4155434", "name": null, "kind": "tree", "species": null, "source": "lidar2025", "tree_height": 28.7, "crown_radius": 6.0, "height_source": "lidar2025" }, "geometry": { "type": "Point", "coordinates": [ 281400.5, 4155433.5 ] } },
{ "type": "Feature", "properties": { "id": "lidar-tree:281410:4155436", "name": null, "kind": "tree", "species": null, "source": "lidar2025", "tree_height": 31.7, "crown_radius": 6.0, "height_source": "lidar2025" }, "geometry": { "type": "Point", "coordinates": [ 281410.5, 4155436.5 ] } },
{ "type": "Feature", "properties": { "id": "lidar-tree:281376:4155440", "name": null, "kind": "tree", "species": null, "source": "lidar2025", "tree_height": 28.3, "crown_radius": 6.0, "height_source": "lidar2025" }, "geometry": { "type": "Point", "coordinates": [ 281375.5, 4155440.5 ] } },
{ "type": "Feature", "properties": { "id": "lidar-tree:281352:4155442", "name": null, "kind": "tree", "species": null, "source": "lidar2025", "tree_height": 28.4, "crown_radius": 6.0, "height_source": "lidar2025" }, "geometry": { "type": "Point", "coordinates": [ 281352.5, 4155441.5 ] } },
{ "type": "Feature", "properties": { "id": "lidar-tree:281362:4155442", "name": null, "kind": "tree", "species": null, "source": "lidar2025", "tree_height": 32.6, "crown_radius": 6.0, "height_source": "lidar2025" }, "geometry": { "type": "Point", "coordinates": [ 281361.5, 4155441.5 ] } },
{ "type": "Feature", "properties": { "id": "lidar-tree:281390:4155444", "name": null, "kind": "tree", "species": null, "source": "lidar2025", "tree_height": 30.0, "crown_radius": 6.0, "height_source": "lidar2025" }, "geometry": { "type": "Point", "coordinates": [ 281390.5, 4155444.5 ] } },
{ "type": "Feature", "properties": { "id": "lidar-tree:281344:4155448", "name": null, "kind": "tree", "species": null, "source": "lidar2025", "tree_height": 32.2, "crown_radius": 6.0, "height_source": "lidar2025" }, "geometry": { "type": "Point", "coordinates": [ 281343.5, 4155448.5 ] } },
{ "type": "Feature", "properties": { "id": "lidar-tree:281362:4155458", "name": null, "kind": "tree", "species": null, "source": "lidar2025", "tree_height": 23.3, "crown_radius": 6.0, "height_source": "lidar2025" }, "geometry": { "type": "Point", "coordinates": [ 281362.5, 4155457.5 ] } },
{ "type": "Feature", "properties": { "id": "lidar-tree:281378:4155458", "name": null, "kind": "tree", "species": null, "source": "lidar2025", "tree_height": 21.3, "crown_radius": 6.0, "height_source": "lidar2025" }, "geometry": { "type": "Point", "coordinates": [ 281377.5, 4155458.5 ] } },
{ "type": "Feature", "properties": { "id": "lidar-tree:281394:4155460", "name": null, "kind": "tree", "species": null, "source": "lidar2025", "tree_height": 23.4, "crown_radius": 6.0, "height_source": "lidar2025" }, "geometry": { "type": "Point", "coordinates": [ 281393.5, 4155460.5 ] } },
{ "type": "Feature", "properties": { "id": "lidar-tree:281384:4155466", "name": null, "kind": "tree", "species": null, "source": "lidar2025", "tree_height": 18.2, "crown_radius": 6.0, "height_source": "lidar2025" }, "geometry": { "type": "Point", "coordinates": [ 281383.5, 4155465.5 ] } },
{ "type": "Feature", "properties": { "id": "lidar-tree:281356:4155468", "name": null, "kind": "tree", "species": null, "source": "lidar2025", "tree_height": 16.7, "crown_radius": 6.0, "height_source": "lidar2025" }, "geometry": { "type": "Point", "coordinates": [ 281356.5, 4155468.5 ] } },
{ "type": "Feature", "properties": { "id": "lidar-tree:281432:4155440", "name": null, "kind": "tree", "species": null, "source": "lidar2025", "tree_height": 38.1, "crown_radius": 6.0, "height_source": "lidar2025" }, "geometry": { "type": "Point", "coordinates": [ 281432.5, 4155440.5 ] } },
{ "type": "Feature", "properties": { "id": "lidar-tree:281422:4155446", "name": null, "kind": "tree", "species": null, "source": "lidar2025", "tree_height": 24.9, "crown_radius": 6.0, "height_source": "lidar2025" }, "geometry": { "type": "Point", "coordinates": [ 281421.5, 4155445.5 ] } },
{ "type": "Feature", "properties": { "id": "lidar-tree:281442:4155450", "name": null, "kind": "tree", "species": null, "source": "lidar2025", "tree_height": 34.6, "crown_radius": 6.0, "height_source": "lidar2025" }, "geometry": { "type": "Point", "coordinates": [ 281442.5, 4155450.5 ] } },
{ "type": "Feature", "properties": { "id": "lidar-tree:281418:4155456", "name": null, "kind": "tree", "species": null, "source": "lidar2025", "tree_height": 25.7, "crown_radius": 6.0, "height_source": "lidar2025" }, "geometry": { "type": "Point", "coordinates": [ 281417.5, 4155456.5 ] } },
{ "type": "Feature", "properties": { "id": "lidar-tree:281408:4155456", "name": null, "kind": "tree", "species": null, "source": "lidar2025", "tree_height": 26.1, "crown_radius": 6.0, "height_source": "lidar2025" }, "geometry": { "type": "Point", "coordinates": [ 281407.5, 4155456.5 ] } },
{ "type": "Feature", "properties": { "id": "lidar-tree:281450:4155464", "name": null, "kind": "tree", "species": null, "source": "lidar2025", "tree_height": 29.1, "crown_radius": 6.0, "height_source": "lidar2025" }, "geometry": { "type": "Point", "coordinates": [ 281449.5, 4155463.5 ] } },
{ "type": "Feature", "properties": { "id": "lidar-tree:281426:4155466", "name": null, "kind": "tree", "species": null, "source": "lidar2025", "tree_height": 30.1, "crown_radius": 6.0, "height_source": "lidar2025" }, "geometry": { "type": "Point", "coordinates": [ 281426.5, 4155465.5 ] } },
{ "type": "Feature", "properties": { "id": "lidar-tree:281418:4155472", "name": null, "kind": "tree", "species": null, "source": "lidar2025", "tree_height": 30.8, "crown_radius": 6.0, "height_source": "lidar2025" }, "geometry": { "type": "Point", "coordinates": [ 281417.5, 4155471.5 ] } },
{ "type": "Feature", "properties": { "id": "lidar-tree:281396:4155474", "name": null, "kind": "tree", "species": null, "source": "lidar2025", "tree_height": 27.1, "crown_radius": 6.0, "height_source": "lidar2025" }, "geometry": { "type": "Point", "coordinates": [ 281396.5, 4155474.5 ] } },
{ "type": "Feature", "properties": { "id": "lidar-tree:281426:4155478", "name": null, "kind": "tree", "species": null, "source": "lidar2025", "tree_height": 32.8, "crown_radius": 6.0, "height_source": "lidar2025" }, "geometry": { "type": "Point", "coordinates": [ 281425.5, 4155478.5 ] } },
{ "type": "Feature", "properties": { "id": "lidar-tree:281298:4155450", "name": null, "kind": "tree", "species": null, "source": "lidar2025", "tree_height": 31.5, "crown_radius": 6.0, "height_source": "lidar2025" }, "geometry": { "type": "Point", "coordinates": [ 281297.5, 4155449.5 ] } },
{ "type": "Feature", "properties": { "id": "lidar-tree:281328:4155452", "name": null, "kind": "tree", "species": null, "source": "lidar2025", "tree_height": 23.7, "crown_radius": 6.0, "height_source": "lidar2025" }, "geometry": { "type": "Point", "coordinates": [ 281328.5, 4155452.5 ] } },
{ "type": "Feature", "properties": { "id": "lidar-tree:281288:4155456", "name": null, "kind": "tree", "species": null, "source": "lidar2025", "tree_height": 27.5, "crown_radius": 6.0, "height_source": "lidar2025" }, "geometry": { "type": "Point", "coordinates": [ 281288.5, 4155456.5 ] } },
{ "type": "Feature", "properties": { "id": "lidar-tree:281312:4155458", "name": null, "kind": "tree", "species": null, "source": "lidar2025", "tree_height": 28.4, "crown_radius": 6.0, "height_source": "lidar2025" }, "geometry": { "type": "Point", "coordinates": [ 281312.5, 4155457.5 ] } },
{ "type": "Feature", "properties": { "id": "lidar-tree:281296:4155466", "name": null, "kind": "tree", "species": null, "source": "lidar2025", "tree_height": 24.5, "crown_radius": 6.0, "height_source": "lidar2025" }, "geometry": { "type": "Point", "coordinates": [ 281295.5, 4155465.5 ] } },
{ "type": "Feature", "properties": { "id": "lidar-tree:281324:4155470", "name": null, "kind": "tree", "species": null, "source": "lidar2025", "tree_height": 23.3, "crown_radius": 5.7, "height_source": "lidar2025" }, "geometry": { "type": "Point", "coordinates": [ 281323.5, 4155469.5 ] } },
{ "type": "Feature", "properties": { "id": "lidar-tree:281340:4155470", "name": null, "kind": "tree", "species": null, "source": "lidar2025", "tree_height": 17.1, "crown_radius": 6.0, "height_source": "lidar2025" }, "geometry": { "type": "Point", "coordinates": [ 281340.5, 4155470.5 ] } },
{ "type": "Feature", "properties": { "id": "rva-tree:55830", "name": "Quercus phellos", "kind": "tree", "species": "Quercus phellos", "source": "city_inventory", "tree_height": 24.0, "crown_radius": 6.0, "height_source": "lidar2025" }, "geometry": { "type": "Point", "coordinates": [ 281286.18, 4155474.25 ] } },
{ "type": "Feature", "properties": { "id": "rva-tree:55833", "name": "Quercus rubra", "kind": "tree", "species": "Quercus rubra", "source": "city_inventory", "tree_height": 8.0, "crown_radius": 2.5, "height_source": "estimated" }, "geometry": { "type": "Point", "coordinates": [ 281312.38, 4155475.24 ] } },
{ "type": "Feature", "properties": { "id": "rva-tree:55832", "name": "Quercus phellos", "kind": "tree", "species": "Quercus phellos", "source": "city_inventory", "tree_height": 8.0, "crown_radius": 2.5, "height_source": "estimated" }, "geometry": { "type": "Point", "coordinates": [ 281302.61, 4155475.25 ] } },
{ "type": "Feature", "properties": { "id": "lidar-tree:281448:4155480", "name": null, "kind": "tree", "species": null, "source": "lidar2025", "tree_height": 29.5, "crown_radius": 6.0, "height_source": "lidar2025" }, "geometry": { "type": "Point", "coordinates": [ 281448.5, 4155480.5 ] } },
{ "type": "Feature", "properties": { "id": "lidar-tree:281436:4155482", "name": null, "kind": "tree", "species": null, "source": "lidar2025", "tree_height": 28.5, "crown_radius": 6.0, "height_source": "lidar2025" }, "geometry": { "type": "Point", "coordinates": [ 281436.5, 4155482.5 ] } },
{ "type": "Feature", "properties": { "id": "lidar-tree:281404:4155484", "name": null, "kind": "tree", "species": null, "source": "lidar2025", "tree_height": 28.2, "crown_radius": 6.0, "height_source": "lidar2025" }, "geometry": { "type": "Point", "coordinates": [ 281404.5, 4155483.5 ] } },
{ "type": "Feature", "properties": { "id": "lidar-tree:281412:4155492", "name": null, "kind": "tree", "species": null, "source": "lidar2025", "tree_height": 10.6, "crown_radius": 6.0, "height_source": "lidar2025" }, "geometry": { "type": "Point", "coordinates": [ 281411.5, 4155492.5 ] } },
{ "type": "Feature", "properties": { "id": "lidar-tree:281440:4155494", "name": null, "kind": "tree", "species": null, "source": "lidar2025", "tree_height": 21.1, "crown_radius": 6.0, "height_source": "lidar2025" }, "geometry": { "type": "Point", "coordinates": [ 281439.5, 4155493.5 ] } },
{ "type": "Feature", "properties": { "id": "lidar-tree:281422:4155494", "name": null, "kind": "tree", "species": null, "source": "lidar2025", "tree_height": 18.0, "crown_radius": 5.6, "height_source": "lidar2025" }, "geometry": { "type": "Point", "coordinates": [ 281421.5, 4155494.5 ] } },
{ "type": "Feature", "properties": { "id": "lidar-tree:281372:4155470", "name": null, "kind": "tree", "species": null, "source": "lidar2025", "tree_height": 31.2, "crown_radius": 6.0, "height_source": "lidar2025" }, "geometry": { "type": "Point", "coordinates": [ 281371.5, 4155469.5 ] } },
{ "type": "Feature", "properties": { "id": "lidar-tree:281378:4155480", "name": null, "kind": "tree", "species": null, "source": "lidar2025", "tree_height": 26.0, "crown_radius": 6.0, "height_source": "lidar2025" }, "geometry": { "type": "Point", "coordinates": [ 281377.5, 4155479.5 ] } },
{ "type": "Feature", "properties": { "id": "rva-tree:55917", "name": "Quercus phellos", "kind": "tree", "species": "Quercus phellos", "source": "city_inventory", "tree_height": 8.0, "crown_radius": 2.5, "height_source": "estimated" }, "geometry": { "type": "Point", "coordinates": [ 281362.84, 4155485.13 ] } },
{ "type": "Feature", "properties": { "id": "rva-tree:55916", "name": "Carya tomentosa", "kind": "tree", "species": "Carya tomentosa", "source": "city_inventory", "tree_height": 16.3, "crown_radius": 6.0, "height_source": "lidar2025" }, "geometry": { "type": "Point", "coordinates": [ 281344.66, 4155485.43 ] } },
{ "type": "Feature", "properties": { "id": "rva-tree:55918", "name": "Quercus alba", "kind": "tree", "species": "Quercus alba", "source": "city_inventory", "tree_height": 18.8, "crown_radius": 6.0, "height_source": "lidar2025" }, "geometry": { "type": "Point", "coordinates": [ 281371.6, 4155487.77 ] } },
{ "type": "Feature", "properties": { "id": "rva-tree:55919", "name": "Quercus alba", "kind": "tree", "species": "Quercus alba", "source": "city_inventory", "tree_height": 8.0, "crown_radius": 2.5, "height_source": "estimated" }, "geometry": { "type": "Point", "coordinates": [ 281386.43, 4155497.12 ] } },
{ "type": "Feature", "properties": { "id": "rva-tree:55920", "name": "Quercus alba", "kind": "tree", "species": "Quercus alba", "source": "city_inventory", "tree_height": 8.0, "crown_radius": 2.5, "height_source": "estimated" }, "geometry": { "type": "Point", "coordinates": [ 281391.2, 4155498.92 ] } },
{ "type": "Feature", "properties": { "id": "rva-tree:55915", "name": "Quercus phellos", "kind": "tree", "species": "Quercus phellos", "source": "city_inventory", "tree_height": 8.0, "crown_radius": 2.5, "height_source": "estimated" }, "geometry": { "type": "Point", "coordinates": [ 281322.06, 4155480.21 ] } },
{ "type": "Feature", "properties": { "id": "rva-tree:55834", "name": "Pinus taeda", "kind": "tree", "species": "Pinus taeda", "source": "city_inventory", "tree_height": 22.2, "crown_radius": 6.0, "height_source": "lidar2025" }, "geometry": { "type": "Point", "coordinates": [ 281312.85, 4155481.54 ] } },
{ "type": "Feature", "properties": { "id": "rva-tree:55831", "name": "Quercus phellos", "kind": "tree", "species": "Quercus phellos", "source": "city_inventory", "tree_height": 15.5, "crown_radius": 5.8, "height_source": "lidar2025" }, "geometry": { "type": "Point", "coordinates": [ 281299.52, 4155483.64 ] } },
{ "type": "Feature", "properties": { "id": "rva-tree:55913", "name": "Unknown tree", "kind": "tree", "species": "Unknown tree", "source": "city_inventory", "tree_height": 8.0, "crown_radius": 2.5, "height_source": "estimated" }, "geometry": { "type": "Point", "coordinates": [ 281319.48, 4155484.01 ] } },
{ "type": "Feature", "properties": { "id": "rva-tree:55914", "name": "Quercus alba", "kind": "tree", "species": "Quercus alba", "source": "city_inventory", "tree_height": 18.5, "crown_radius": 6.0, "height_source": "lidar2025" }, "geometry": { "type": "Point", "coordinates": [ 281322.97, 4155484.75 ] } },
{ "type": "Feature", "properties": { "id": "lidar-tree:281494:4155436", "name": null, "kind": "tree", "species": null, "source": "lidar2025", "tree_height": 35.1, "crown_radius": 6.0, "height_source": "lidar2025" }, "geometry": { "type": "Point", "coordinates": [ 281494.5, 4155436.5 ] } },
{ "type": "Feature", "properties": { "id": "lidar-tree:281482:4155442", "name": null, "kind": "tree", "species": null, "source": "lidar2025", "tree_height": 33.9, "crown_radius": 6.0, "height_source": "lidar2025" }, "geometry": { "type": "Point", "coordinates": [ 281482.5, 4155441.5 ] } },
{ "type": "Feature", "properties": { "id": "lidar-tree:281462:4155446", "name": null, "kind": "tree", "species": null, "source": "lidar2025", "tree_height": 33.6, "crown_radius": 6.0, "height_source": "lidar2025" }, "geometry": { "type": "Point", "coordinates": [ 281462.5, 4155446.5 ] } },
{ "type": "Feature", "properties": { "id": "lidar-tree:281496:4155446", "name": null, "kind": "tree", "species": null, "source": "lidar2025", "tree_height": 31.6, "crown_radius": 6.0, "height_source": "lidar2025" }, "geometry": { "type": "Point", "coordinates": [ 281495.5, 4155446.5 ] } },
{ "type": "Feature", "properties": { "id": "lidar-tree:281474:4155446", "name": null, "kind": "tree", "species": null, "source": "lidar2025", "tree_height": 32.8, "crown_radius": 6.0, "height_source": "lidar2025" }, "geometry": { "type": "Point", "coordinates": [ 281473.5, 4155446.5 ] } },
{ "type": "Feature", "properties": { "id": "lidar-tree:281452:4155450", "name": null, "kind": "tree", "species": null, "source": "lidar2025", "tree_height": 33.9, "crown_radius": 6.0, "height_source": "lidar2025" }, "geometry": { "type": "Point", "coordinates": [ 281452.5, 4155450.5 ] } },
{ "type": "Feature", "properties": { "id": "lidar-tree:281472:4155460", "name": null, "kind": "tree", "species": null, "source": "lidar2025", "tree_height": 28.7, "crown_radius": 6.0, "height_source": "lidar2025" }, "geometry": { "type": "Point", "coordinates": [ 281472.5, 4155459.5 ] } },
{ "type": "Feature", "properties": { "id": "lidar-tree:281460:4155460", "name": null, "kind": "tree", "species": null, "source": "lidar2025", "tree_height": 30.2, "crown_radius": 6.0, "height_source": "lidar2025" }, "geometry": { "type": "Point", "coordinates": [ 281460.5, 4155459.5 ] } },
{ "type": "Feature", "properties": { "id": "lidar-tree:281498:4155470", "name": null, "kind": "tree", "species": null, "source": "lidar2025", "tree_height": 30.9, "crown_radius": 6.0, "height_source": "lidar2025" }, "geometry": { "type": "Point", "coordinates": [ 281497.5, 4155469.5 ] } },
{ "type": "Feature", "properties": { "id": "lidar-tree:281482:4155472", "name": null, "kind": "tree", "species": null, "source": "lidar2025", "tree_height": 29.7, "crown_radius": 6.0, "height_source": "lidar2025" }, "geometry": { "type": "Point", "coordinates": [ 281481.5, 4155472.5 ] } },
{ "type": "Feature", "properties": { "id": "lidar-tree:281466:4155472", "name": null, "kind": "tree", "species": null, "source": "lidar2025", "tree_height": 29.3, "crown_radius": 6.0, "height_source": "lidar2025" }, "geometry": { "type": "Point", "coordinates": [ 281465.5, 4155472.5 ] } },
{ "type": "Feature", "properties": { "id": "lidar-tree:281492:4155478", "name": null, "kind": "tree", "species": null, "source": "lidar2025", "tree_height": 29.7, "crown_radius": 6.0, "height_source": "lidar2025" }, "geometry": { "type": "Point", "coordinates": [ 281491.5, 4155478.5 ] } },
{ "type": "Feature", "properties": { "id": "lidar-tree:281458:4155480", "name": null, "kind": "tree", "species": null, "source": "lidar2025", "tree_height": 28.6, "crown_radius": 6.0, "height_source": "lidar2025" }, "geometry": { "type": "Point", "coordinates": [ 281457.5, 4155479.5 ] } },
{ "type": "Feature", "properties": { "id": "lidar-tree:281498:4155490", "name": null, "kind": "tree", "species": null, "source": "lidar2025", "tree_height": 31.7, "crown_radius": 6.0, "height_source": "lidar2025" }, "geometry": { "type": "Point", "coordinates": [ 281497.5, 4155489.5 ] } },
{ "type": "Feature", "properties": { "id": "lidar-tree:281452:4155490", "name": null, "kind": "tree", "species": null, "source": "lidar2025", "tree_height": 27.6, "crown_radius": 6.0, "height_source": "lidar2025" }, "geometry": { "type": "Point", "coordinates": [ 281452.5, 4155489.5 ] } },
{ "type": "Feature", "properties": { "id": "rva-tree:55931", "name": "Quercus falcata", "kind": "tree", "species": "Quercus falcata", "source": "city_inventory", "tree_height": 24.7, "crown_radius": 6.0, "height_source": "lidar2025" }, "geometry": { "type": "Point", "coordinates": [ 281454.7, 4155499.04 ] } }
]
}
