{
"type": "FeatureCollection",
"name": "landuse",
"crs": { "type": "name", "properties": { "name": "urn:ogc:def:crs:EPSG::32618" } },
"xy_coordinate_resolution": 0.01,
"features": [
{ "type": "Feature", "properties": { "id": "imagery:groundcover_lawn:1968", "name": null, "kind": "groundcover_lawn", "sport": null, "surface": null, "pitch_layout": null, "source": "vgin_vbmp+naip+lidar2025", "source_updated": null, "base_z": null, "top_z": null }, "geometry": { "type": "Polygon", "coordinates": [ [ [ 284276.64, 4158500.0 ], [ 284276.66, 4158500.15 ], [ 284277.75, 4158501.24 ], [ 284279.33, 4158500.0 ], [ 284276.64, 4158500.0 ] ] ] } },
{ "type": "Feature", "properties": { "id": "richmond_structure:307350", "name": null, "kind": "deck", "sport": null, "surface": null, "pitch_layout": null, "source": "richmond_structures", "source_updated": "2026-09-08T12:07:13.637000Z", "base_z": null, "top_z": null }, "geometry": { "type": "Polygon", "coordinates": [ [ [ 284332.44, 4158519.09 ], [ 284330.65, 4158516.97 ], [ 284328.88, 4158518.31 ], [ 284330.6, 4158520.66 ], [ 284332.44, 4158519.09 ] ] ] } },
{ "type": "Feature", "properties": { "id": "richmond_structure:307888", "name": null, "kind": "deck", "sport": null, "surface": null, "pitch_layout": null, "source": "richmond_structures", "source_updated": "2026-09-08T12:07:13.637000Z", "base_z": null, "top_z": null }, "geometry": { "type": "Polygon", "coordinates": [ [ [ 284268.2, 4158531.49 ], [ 284268.92, 4158532.43 ], [ 284274.38, 4158528.26 ], [ 284273.66, 4158527.32 ], [ 284268.2, 4158531.49 ] ] ] } },
{ "type": "Feature", "properties": { "id": "richmond_structure:312283", "name": null, "kind": "deck", "sport": null, "surface": null, "pitch_layout": null, "source": "richmond_structures", "source_updated": "2026-09-08T12:07:13.637000Z", "base_z": null, "top_z": null }, "geometry": { "type": "Polygon", "coordinates": [ [ [ 284294.04, 4158527.0 ], [ 284290.77, 4158529.49 ], [ 284297.21, 4158537.94 ], [ 284300.48, 4158535.45 ], [ 284294.04, 4158527.0 ] ] ] } },
{ "type": "Feature", "properties": { "id": "imagery:groundcover_lawn:1914", "name": null, "kind": "groundcover_lawn", "sport": null, "surface": null, "pitch_layout": null, "source": "vgin_vbmp+naip+lidar2025", "source_updated": null, "base_z": null, "top_z": null }, "geometry": { "type": "MultiPolygon", "coordinates": [ [ [ [ 284332.59, 4158534.68 ], [ 284336.83, 4158540.04 ], [ 284337.0, 4158540.29 ], [ 284337.15, 4158540.54 ], [ 284337.27, 4158540.81 ], [ 284337.37, 4158541.09 ], [ 284337.43, 4158541.38 ], [ 284337.47, 4158541.68 ], [ 284337.48, 4158541.97 ], [ 284337.47, 4158542.27 ], [ 284337.42, 4158542.56 ], [ 284337.34, 4158542.85 ], [ 284337.24, 4158543.13 ], [ 284337.18, 4158543.26 ], [ 284345.83, 4158537.49 ], [ 284345.51, 4158532.31 ], [ 284340.16, 4158529.64 ], [ 284339.84, 4158529.35 ], [ 284332.59, 4158534.68 ] ] ], [ [ [ 284300.35, 4158538.49 ], [ 284300.39, 4158538.57 ], [ 284300.43, 4158538.67 ], [ 284300.45, 4158538.76 ], [ 284300.47, 4158538.86 ], [ 284300.47, 4158538.96 ], [ 284300.46, 4158539.06 ], [ 284300.45, 4158539.15 ], [ 284300.43, 4158539.25 ], [ 284300.39, 4158539.34 ], [ 284300.35, 4158539.43 ], [ 284300.3, 4158539.51 ], [ 284300.24, 4158539.59 ], [ 284300.17, 4158539.67 ], [ 284300.1, 4158539.73 ], [ 284299.13, 4158540.52 ], [ 284299.13, 4158540.63 ], [ 284302.13, 4158543.63 ], [ 284314.86, 4158543.63 ], [ 284315.63, 4158543.85 ], [ 284317.6, 4158545.06 ], [ 284318.15, 4158545.66 ], [ 284319.43, 4158548.22 ], [ 284329.99, 4158541.22 ], [ 284325.88, 4158536.01 ], [ 284325.45, 4158535.5 ], [ 284320.8, 4158537.36 ], [ 284320.53, 4158537.44 ], [ 284319.69, 4158537.6 ], [ 284319.41, 4158537.63 ], [ 284318.03, 4158537.63 ], [ 284316.56, 4158538.76 ], [ 284316.48, 4158538.82 ], [ 284316.39, 4158538.87 ], [ 284316.3, 4158538.9 ], [ 284316.21, 4158538.94 ], [ 284316.12, 4158538.96 ], [ 284316.02, 4158538.97 ], [ 284315.92, 4158538.97 ], [ 284315.82, 4158538.96 ], [ 284315.73, 4158538.94 ], [ 284315.63, 4158538.92 ], [ 284315.54, 4158538.88 ], [ 284315.45, 4158538.84 ], [ 284315.37, 4158538.79 ], [ 284315.29, 4158538.72 ], [ 284315.22, 4158538.66 ], [ 284315.16, 4158538.58 ], [ 284311.08, 4158533.31 ], [ 284311.03, 4158533.23 ], [ 284310.98, 4158533.15 ], [ 284310.94, 4158533.06 ], [ 284310.91, 4158532.96 ], [ 284310.89, 4158532.87 ], [ 284310.87, 4158532.77 ], [ 284310.87, 4158532.67 ], [ 284310.88, 4158532.57 ], [ 284310.9, 4158532.48 ], [ 284310.92, 4158532.38 ], [ 284310.96, 4158532.29 ], [ 284311.0, 4158532.2 ], [ 284311.06, 4158532.12 ], [ 284311.12, 4158532.04 ], [ 284311.19, 4158531.97 ], [ 284311.26, 4158531.91 ], [ 284313.07, 4158530.51 ], [ 284311.8, 4158527.46 ], [ 284309.69, 4158526.4 ], [ 284306.68, 4158526.59 ], [ 284300.47, 4158530.74 ], [ 284299.13, 4158533.23 ], [ 284299.13, 4158536.96 ], [ 284300.24, 4158538.32 ], [ 284300.3, 4158538.4 ], [ 284300.35, 4158538.49 ] ] ] ] } },
{ "type": "Feature", "properties": { "id": "richmond_structure:408370", "name": null, "kind": "deck", "sport": null, "surface": null, "pitch_layout": null, "source": "richmond_structures", "source_updated": "2026-09-08T12:07:13.637000Z", "base_z": null, "top_z": null }, "geometry": { "type": "Polygon", "coordinates": [ [ [ 284329.72, 4158540.52 ], [ 284332.07, 4158538.48 ], [ 284330.17, 4158536.3 ], [ 284327.83, 4158538.34 ], [ 284329.72, 4158540.52 ] ] ] } },
{ "type": "Feature", "properties": { "id": "richmond_structure:310216", "name": null, "kind": "deck", "sport": null, "surface": null, "pitch_layout": null, "source": "richmond_structures", "source_updated": "2026-09-08T12:07:13.637000Z", "base_z": null, "top_z": null }, "geometry": { "type": "Polygon", "coordinates": [ [ [ 284317.35, 4158538.58 ], [ 284320.96, 4158543.66 ], [ 284326.47, 4158539.76 ], [ 284323.57, 4158535.67 ], [ 284323.14, 4158536.0 ], [ 284322.38, 4158535.01 ], [ 284317.35, 4158538.58 ] ] ] } },
{ "type": "Feature", "properties": { "id": "richmond_structure:311106", "name": null, "kind": "deck", "sport": null, "surface": null, "pitch_layout": null, "source": "richmond_structures", "source_updated": "2026-09-08T12:07:13.637000Z", "base_z": null, "top_z": null }, "geometry": { "type": "Polygon", "coordinates": [ [ [ 284330.34, 4158557.61 ], [ 284335.01, 4158553.97 ], [ 284333.36, 4158551.86 ], [ 284328.69, 4158555.5 ], [ 284330.34, 4158557.61 ] ] ] } },
{ "type": "Feature", "properties": { "id": "imagery:groundcover_lawn:1891", "name": null, "kind": "groundcover_lawn", "sport": null, "surface": null, "pitch_layout": null, "source": "vgin_vbmp+naip+lidar2025", "source_updated": null, "base_z": null, "top_z": null }, "geometry": { "type": "Polygon", "coordinates": [ [ [ 284284.13, 4158565.46 ], [ 284284.13, 4158561.11 ], [ 284284.38, 4158560.28 ], [ 284285.12, 4158559.19 ], [ 284285.07, 4158556.37 ], [ 284287.7, 4158557.2 ], [ 284297.25, 4158553.38 ], [ 284299.13, 4158550.59 ], [ 284299.13, 4158549.09 ], [ 284296.72, 4158546.14 ], [ 284289.64, 4158544.73 ], [ 284286.08, 4158548.12 ], [ 284286.09, 4158548.16 ], [ 284285.68, 4158550.69 ], [ 284285.27, 4158551.49 ], [ 284284.47, 4158552.29 ], [ 284284.15, 4158555.43 ], [ 284281.77, 4158554.64 ], [ 284279.91, 4158555.2 ], [ 284279.19, 4158555.24 ], [ 284277.43, 4158554.88 ], [ 284275.89, 4158555.94 ], [ 284275.81, 4158555.99 ], [ 284275.72, 4158556.03 ], [ 284275.63, 4158556.07 ], [ 284275.53, 4158556.09 ], [ 284275.44, 4158556.11 ], [ 284275.34, 4158556.11 ], [ 284275.24, 4158556.11 ], [ 284275.14, 4158556.1 ], [ 284275.05, 4158556.07 ], [ 284274.96, 4158556.04 ], [ 284274.87, 4158556.0 ], [ 284274.78, 4158555.95 ], [ 284274.7, 4158555.9 ], [ 284274.63, 4158555.83 ], [ 284274.56, 4158555.76 ], [ 284274.5, 4158555.68 ], [ 284273.4, 4158554.08 ], [ 284268.94, 4158553.19 ], [ 284265.75, 4158555.2 ], [ 284265.74, 4158555.25 ], [ 284265.72, 4158555.35 ], [ 284265.69, 4158555.44 ], [ 284265.64, 4158555.53 ], [ 284265.59, 4158555.62 ], [ 284265.53, 4158555.69 ], [ 284265.47, 4158555.77 ], [ 284265.39, 4158555.83 ], [ 284265.31, 4158555.9 ], [ 284265.1, 4158556.73 ], [ 284265.16, 4158556.76 ], [ 284265.24, 4158556.82 ], [ 284265.31, 4158556.88 ], [ 284265.38, 4158556.95 ], [ 284269.04, 4158561.11 ], [ 284269.1, 4158561.19 ], [ 284269.15, 4158561.27 ], [ 284269.2, 4158561.36 ], [ 284269.23, 4158561.46 ], [ 284269.26, 4158561.55 ], [ 284269.28, 4158561.65 ], [ 284269.28, 4158561.75 ], [ 284269.28, 4158561.85 ], [ 284269.27, 4158561.95 ], [ 284269.24, 4158562.05 ], [ 284269.21, 4158562.15 ], [ 284269.17, 4158562.24 ], [ 284269.11, 4158562.33 ], [ 284269.05, 4158562.41 ], [ 284268.99, 4158562.48 ], [ 284268.91, 4158562.55 ], [ 284266.34, 4158564.62 ], [ 284266.26, 4158564.68 ], [ 284266.17, 4158564.73 ], [ 284266.08, 4158564.77 ], [ 284265.99, 4158564.8 ], [ 284265.9, 4158564.83 ], [ 284265.8, 4158564.84 ], [ 284265.7, 4158564.84 ], [ 284265.6, 4158564.84 ], [ 284265.51, 4158564.82 ], [ 284265.43, 4158564.8 ], [ 284266.83, 4158566.48 ], [ 284274.02, 4158570.07 ], [ 284276.31, 4158570.23 ], [ 284282.08, 4158568.31 ], [ 284284.13, 4158565.46 ] ] ] } },
{ "type": "Feature", "properties": { "id": "richmond_structure:425555", "name": null, "kind": "deck", "sport": null, "surface": null, "pitch_layout": null, "source": "richmond_structures", "source_updated": "2026-09-08T12:07:13.637000Z", "base_z": null, "top_z": null }, "geometry": { "type": "Polygon", "coordinates": [ [ [ 284288.43, 4158576.8 ], [ 284295.85, 4158570.97 ], [ 284285.41, 4158557.65 ], [ 284277.98, 4158563.48 ], [ 284288.43, 4158576.8 ] ], [ [ 284287.04, 4158570.53 ], [ 284285.58, 4158570.37 ], [ 284284.57, 4158569.47 ], [ 284284.22, 4158566.92 ], [ 284283.82, 4158566.59 ], [ 284282.32, 4158566.39 ], [ 284281.93, 4158565.25 ], [ 284280.58, 4158564.41 ], [ 284280.26, 4158563.82 ], [ 284280.37, 4158563.3 ], [ 284281.94, 4158562.05 ], [ 284283.57, 4158562.33 ], [ 284284.04, 4158562.1 ], [ 284284.69, 4158560.07 ], [ 284285.13, 4158559.41 ], [ 284285.76, 4158559.17 ], [ 284287.11, 4158561.04 ], [ 284287.77, 4158561.4 ], [ 284288.54, 4158562.78 ], [ 284288.72, 4158563.93 ], [ 284289.69, 4158564.83 ], [ 284289.76, 4158566.71 ], [ 284289.39, 4158568.26 ], [ 284288.01, 4158569.0 ], [ 284287.04, 4158570.53 ] ] ] } },
{ "type": "Feature", "properties": { "id": "richmond_structure:312275", "name": null, "kind": "deck", "sport": null, "surface": null, "pitch_layout": null, "source": "richmond_structures", "source_updated": "2026-09-08T12:07:13.637000Z", "base_z": null, "top_z": null }, "geometry": { "type": "Polygon", "coordinates": [ [ [ 284409.45, 4158500.0 ], [ 284409.41, 4158500.0 ], [ 284404.59, 4158503.81 ], [ 284407.76, 4158507.82 ], [ 284412.6, 4158504.0 ], [ 284409.45, 4158500.0 ] ] ] } },
{ "type": "Feature", "properties": { "id": "imagery:groundcover_lawn:1946", "name": null, "kind": "groundcover_lawn", "sport": null, "surface": null, "pitch_layout": null, "source": "vgin_vbmp+naip+lidar2025", "source_updated": null, "base_z": null, "top_z": null }, "geometry": { "type": "MultiPolygon", "coordinates": [ [ [ [ 284451.04, 4158500.0 ], [ 284443.8, 4158500.0 ], [ 284446.61, 4158503.49 ], [ 284451.04, 4158500.0 ] ] ], [ [ [ 284436.71, 4158507.2 ], [ 284437.13, 4158508.22 ], [ 284437.13, 4158509.02 ], [ 284437.89, 4158510.44 ], [ 284441.84, 4158507.29 ], [ 284435.97, 4158500.0 ], [ 284419.13, 4158500.0 ], [ 284419.13, 4158501.63 ], [ 284422.13, 4158504.63 ], [ 284433.53, 4158504.63 ], [ 284434.55, 4158505.05 ], [ 284436.71, 4158507.2 ] ] ], [ [ [ 284448.55, 4158528.57 ], [ 284451.9, 4158526.77 ], [ 284452.55, 4158525.2 ], [ 284453.62, 4158524.13 ], [ 284452.87, 4158523.21 ], [ 284452.81, 4158523.13 ], [ 284452.76, 4158523.05 ], [ 284452.72, 4158522.96 ], [ 284452.69, 4158522.87 ], [ 284452.66, 4158522.77 ], [ 284452.65, 4158522.67 ], [ 284452.64, 4158522.57 ], [ 284452.65, 4158522.48 ], [ 284452.66, 4158522.38 ], [ 284452.69, 4158522.28 ], [ 284452.72, 4158522.19 ], [ 284452.77, 4158522.1 ], [ 284452.82, 4158522.02 ], [ 284452.88, 4158521.94 ], [ 284452.94, 4158521.87 ], [ 284453.02, 4158521.8 ], [ 284455.74, 4158519.61 ], [ 284455.81, 4158519.55 ], [ 284455.9, 4158519.5 ], [ 284455.99, 4158519.46 ], [ 284456.08, 4158519.43 ], [ 284456.17, 4158519.41 ], [ 284456.27, 4158519.39 ], [ 284456.37, 4158519.39 ], [ 284456.47, 4158519.39 ], [ 284456.56, 4158519.41 ], [ 284456.66, 4158519.43 ], [ 284456.75, 4158519.47 ], [ 284456.84, 4158519.51 ], [ 284456.92, 4158519.56 ], [ 284457.0, 4158519.62 ], [ 284457.07, 4158519.68 ], [ 284457.14, 4158519.76 ], [ 284458.87, 4158521.88 ], [ 284461.13, 4158519.63 ], [ 284461.13, 4158518.79 ], [ 284459.08, 4158515.94 ], [ 284455.16, 4158514.64 ], [ 284454.37, 4158513.99 ], [ 284452.93, 4158511.5 ], [ 284452.76, 4158510.49 ], [ 284453.73, 4158505.65 ], [ 284448.03, 4158510.15 ], [ 284442.75, 4158514.37 ], [ 284444.49, 4158515.53 ], [ 284444.97, 4158516.06 ], [ 284445.96, 4158517.9 ], [ 284446.13, 4158518.6 ], [ 284446.13, 4158525.63 ], [ 284448.55, 4158528.57 ] ] ] ] } },
{ "type": "Feature", "properties": { "id": "richmond_structure:307347", "name": null, "kind": "deck", "sport": null, "surface": null, "pitch_layout": null, "source": "richmond_structures", "source_updated": "2026-09-08T12:07:13.637000Z", "base_z": null, "top_z": null }, "geometry": { "type": "Polygon", "coordinates": [ [ [ 284413.08, 4158508.79 ], [ 284410.94, 4158510.37 ], [ 284415.26, 4158515.95 ], [ 284416.69, 4158514.49 ], [ 284413.08, 4158508.79 ] ] ] } },
{ "type": "Feature", "properties": { "id": "richmond_structure:316052", "name": null, "kind": "deck", "sport": null, "surface": null, "pitch_layout": null, "source": "richmond_structures", "source_updated": "2026-09-08T12:07:13.637000Z", "base_z": null, "top_z": null }, "geometry": { "type": "Polygon", "coordinates": [ [ [ 284422.55, 4158522.72 ], [ 284419.41, 4158525.26 ], [ 284419.8, 4158525.74 ], [ 284430.04, 4158517.61 ], [ 284426.03, 4158513.35 ], [ 284421.78, 4158517.07 ], [ 284422.59, 4158518.06 ], [ 284420.29, 4158519.93 ], [ 284422.55, 4158522.72 ] ] ] } },
{ "type": "Feature", "properties": { "id": "osm:way/321404418", "name": null, "kind": "parking", "sport": null, "surface": null, "pitch_layout": null, "source": null, "source_updated": null, "base_z": null, "top_z": null }, "geometry": { "type": "Polygon", "coordinates": [ [ [ 284385.19, 4158522.87 ], [ 284368.5, 4158502.9 ], [ 284347.83, 4158519.69 ], [ 284364.3, 4158539.72 ], [ 284385.19, 4158522.87 ] ] ] } },
{ "type": "Feature", "properties": { "id": "richmond_structure:408371", "name": null, "kind": "deck", "sport": null, "surface": null, "pitch_layout": null, "source": "richmond_structures", "source_updated": "2026-09-08T12:07:13.637000Z", "base_z": null, "top_z": null }, "geometry": { "type": "Polygon", "coordinates": [ [ [ 284348.04, 4158536.55 ], [ 284348.35, 4158536.93 ], [ 284346.82, 4158538.16 ], [ 284345.98, 4158537.11 ], [ 284345.22, 4158537.72 ], [ 284346.7, 4158539.56 ], [ 284349.17, 4158537.58 ], [ 284351.07, 4158539.94 ], [ 284352.76, 4158538.6 ], [ 284349.91, 4158535.05 ], [ 284348.04, 4158536.55 ] ] ] } },
{ "type": "Feature", "properties": { "id": "richmond_structure:311101", "name": null, "kind": "deck", "sport": null, "surface": null, "pitch_layout": null, "source": "richmond_structures", "source_updated": "2026-09-08T12:07:13.637000Z", "base_z": null, "top_z": null }, "geometry": { "type": "Polygon", "coordinates": [ [ [ 284357.81, 4158550.12 ], [ 284356.15, 4158548.05 ], [ 284352.52, 4158550.97 ], [ 284354.18, 4158553.04 ], [ 284357.81, 4158550.12 ] ] ] } },
{ "type": "Feature", "properties": { "id": "richmond_structure:312269", "name": null, "kind": "deck", "sport": null, "surface": null, "pitch_layout": null, "source": "richmond_structures", "source_updated": "2026-09-08T12:07:13.637000Z", "base_z": null, "top_z": null }, "geometry": { "type": "Polygon", "coordinates": [ [ [ 284349.78, 4158556.58 ], [ 284348.12, 4158554.51 ], [ 284345.47, 4158556.63 ], [ 284347.15, 4158558.69 ], [ 284349.78, 4158556.58 ] ] ] } },
{ "type": "Feature", "properties": { "id": "richmond_structure:312133", "name": null, "kind": "deck", "sport": null, "surface": null, "pitch_layout": null, "source": "richmond_structures", "source_updated": "2026-09-08T12:07:13.637000Z", "base_z": null, "top_z": null }, "geometry": { "type": "Polygon", "coordinates": [ [ [ 284344.34, 4158561.0 ], [ 284347.15, 4158558.69 ], [ 284345.47, 4158556.63 ], [ 284342.65, 4158558.88 ], [ 284344.34, 4158561.0 ] ] ] } },
{ "type": "Feature", "properties": { "id": "osm:relation/18754353", "name": "Fuchsia Freedom Garden", "kind": "park", "sport": null, "surface": null, "pitch_layout": null, "source": null, "source_updated": null, "base_z": null, "top_z": null }, "geometry": { "type": "Polygon", "coordinates": [ [ [ 284411.44, 4158557.3 ], [ 284392.63, 4158534.16 ], [ 284378.9, 4158544.34 ], [ 284415.32, 4158589.95 ], [ 284424.6, 4158582.55 ], [ 284411.44, 4158557.3 ] ] ] } },
{ "type": "Feature", "properties": { "id": "richmond_structure:408357", "name": null, "kind": "deck", "sport": null, "surface": null, "pitch_layout": null, "source": "richmond_structures", "source_updated": "2026-09-08T12:07:13.637000Z", "base_z": null, "top_z": null }, "geometry": { "type": "Polygon", "coordinates": [ [ [ 284462.38, 4158500.0 ], [ 284460.96, 4158500.0 ], [ 284456.3, 4158503.6 ], [ 284459.16, 4158507.31 ], [ 284461.72, 4158505.34 ], [ 284463.49, 4158507.64 ], [ 284472.48, 4158500.83 ], [ 284471.8, 4158500.0 ], [ 284469.24, 4158500.0 ], [ 284465.15, 4158503.37 ], [ 284462.38, 4158500.0 ] ] ] } },
{ "type": "Feature", "properties": { "id": "richmond_structure:408551", "name": null, "kind": "deck", "sport": null, "surface": null, "pitch_layout": null, "source": "richmond_structures", "source_updated": "2026-09-08T12:07:13.637000Z", "base_z": null, "top_z": null }, "geometry": { "type": "Polygon", "coordinates": [ [ [ 284476.35, 4158510.63 ], [ 284472.59, 4158505.84 ], [ 284470.67, 4158507.35 ], [ 284474.35, 4158512.01 ], [ 284476.35, 4158510.63 ] ] ] } },
{ "type": "Feature", "properties": { "id": "richmond_structure:408366", "name": null, "kind": "deck", "sport": null, "surface": null, "pitch_layout": null, "source": "richmond_structures", "source_updated": "2026-09-08T12:07:13.637000Z", "base_z": null, "top_z": null }, "geometry": { "type": "Polygon", "coordinates": [ [ [ 284477.61, 4158520.85 ], [ 284479.17, 4158519.73 ], [ 284475.96, 4158515.26 ], [ 284474.39, 4158516.39 ], [ 284477.61, 4158520.85 ] ] ] } },
{ "type": "Feature", "properties": { "id": "richmond_structure:307889", "name": null, "kind": "deck", "sport": null, "surface": null, "pitch_layout": null, "source": "richmond_structures", "source_updated": "2026-09-08T12:07:13.637000Z", "base_z": null, "top_z": null }, "geometry": { "type": "Polygon", "coordinates": [ [ [ 284454.96, 4158525.68 ], [ 284457.03, 4158524.09 ], [ 284454.69, 4158521.04 ], [ 284452.62, 4158522.63 ], [ 284454.96, 4158525.68 ] ] ] } },
{ "type": "Feature", "properties": { "id": "richmond_structure:408368", "name": null, "kind": "deck", "sport": null, "surface": null, "pitch_layout": null, "source": "richmond_structures", "source_updated": "2026-09-08T12:07:13.637000Z", "base_z": null, "top_z": null }, "geometry": { "type": "Polygon", "coordinates": [ [ [ 284468.31, 4158521.95 ], [ 284471.27, 4158525.8 ], [ 284472.87, 4158524.57 ], [ 284468.3, 4158518.94 ], [ 284465.26, 4158521.28 ], [ 284463.64, 4158519.16 ], [ 284458.59, 4158523.04 ], [ 284464.67, 4158530.95 ], [ 284466.39, 4158529.63 ], [ 284463.39, 4158525.74 ], [ 284468.31, 4158521.95 ] ] ] } },
{ "type": "Feature", "properties": { "id": "richmond_structure:316374", "name": null, "kind": "deck", "sport": null, "surface": null, "pitch_layout": null, "source": "richmond_structures", "source_updated": "2026-09-08T12:07:13.637000Z", "base_z": null, "top_z": null }, "geometry": { "type": "Polygon", "coordinates": [ [ [ 284452.4, 4158529.33 ], [ 284448.68, 4158532.32 ], [ 284450.95, 4158535.23 ], [ 284452.23, 4158534.24 ], [ 284451.2, 4158532.9 ], [ 284453.67, 4158531.0 ], [ 284452.4, 4158529.33 ] ] ] } },
{ "type": "Feature", "properties": { "id": "richmond_structure:408375", "name": null, "kind": "deck", "sport": null, "surface": null, "pitch_layout": null, "source": "richmond_structures", "source_updated": "2026-09-08T12:07:13.637000Z", "base_z": null, "top_z": null }, "geometry": { "type": "Polygon", "coordinates": [ [ [ 284451.36, 4158542.78 ], [ 284453.56, 4158541.06 ], [ 284450.38, 4158536.72 ], [ 284448.05, 4158538.55 ], [ 284451.36, 4158542.78 ] ] ] } },
{ "type": "Feature", "properties": { "id": "imagery:groundcover_lawn:1864", "name": null, "kind": "groundcover_lawn", "sport": null, "surface": null, "pitch_layout": null, "source": "vgin_vbmp+naip+lidar2025", "source_updated": null, "base_z": null, "top_z": null }, "geometry": { "type": "Polygon", "coordinates": [ [ [ 284453.79, 4158601.45 ], [ 284455.45, 4158602.28 ], [ 284459.47, 4158600.94 ], [ 284459.9, 4158600.09 ], [ 284459.64, 4158599.74 ], [ 284459.58, 4158599.66 ], [ 284459.53, 4158599.57 ], [ 284459.49, 4158599.48 ], [ 284459.47, 4158599.39 ], [ 284459.44, 4158599.29 ], [ 284459.43, 4158599.19 ], [ 284459.43, 4158599.1 ], [ 284459.44, 4158599.0 ], [ 284459.46, 4158598.9 ], [ 284459.49, 4158598.81 ], [ 284459.52, 4158598.72 ], [ 284459.57, 4158598.63 ], [ 284459.62, 4158598.55 ], [ 284459.69, 4158598.47 ], [ 284459.75, 4158598.4 ], [ 284459.83, 4158598.34 ], [ 284461.01, 4158597.45 ], [ 284461.13, 4158596.92 ], [ 284461.13, 4158589.87 ], [ 284459.28, 4158587.1 ], [ 284456.01, 4158587.75 ], [ 284453.01, 4158590.75 ], [ 284452.31, 4158592.45 ], [ 284452.13, 4158593.35 ], [ 284452.13, 4158598.77 ], [ 284453.79, 4158601.45 ] ] ] } },
{ "type": "Feature", "properties": { "id": "richmond_structure:307194", "name": null, "kind": "deck", "sport": null, "surface": null, "pitch_layout": null, "source": "richmond_structures", "source_updated": "2026-09-08T12:07:13.637000Z", "base_z": null, "top_z": null }, "geometry": { "type": "Polygon", "coordinates": [ [ [ 284484.88, 4158596.69 ], [ 284483.42, 4158594.9 ], [ 284478.73, 4158598.74 ], [ 284480.2, 4158600.53 ], [ 284484.88, 4158596.69 ] ] ] } },
{ "type": "Feature", "properties": { "id": "richmond_structure:404472", "name": null, "kind": "deck", "sport": null, "surface": null, "pitch_layout": null, "source": "richmond_structures", "source_updated": "2026-09-08T12:07:13.637000Z", "base_z": null, "top_z": null }, "geometry": { "type": "Polygon", "coordinates": [ [ [ 284478.06, 4158599.88 ], [ 284475.28, 4158596.31 ], [ 284471.1, 4158599.57 ], [ 284473.88, 4158603.13 ], [ 284478.06, 4158599.88 ] ] ] } },
{ "type": "Feature", "properties": { "id": "richmond_structure:309552", "name": null, "kind": "deck", "sport": null, "surface": null, "pitch_layout": null, "source": "richmond_structures", "source_updated": "2026-09-08T12:07:13.637000Z", "base_z": null, "top_z": null }, "geometry": { "type": "Polygon", "coordinates": [ [ [ 284353.18, 4158569.49 ], [ 284346.28, 4158574.93 ], [ 284351.97, 4158582.15 ], [ 284358.87, 4158576.72 ], [ 284353.18, 4158569.49 ] ] ] } },
{ "type": "Feature", "properties": { "id": "osm:relation/18754351", "name": null, "kind": "parking", "sport": null, "surface": null, "pitch_layout": null, "source": null, "source_updated": null, "base_z": null, "top_z": null }, "geometry": { "type": "Polygon", "coordinates": [ [ [ 284414.6, 4158589.07 ], [ 284378.9, 4158544.34 ], [ 284358.83, 4158560.81 ], [ 284367.19, 4158570.8 ], [ 284357.1, 4158578.54 ], [ 284383.59, 4158612.73 ], [ 284414.6, 4158589.07 ] ] ] } },
{ "type": "Feature", "properties": { "id": "imagery:groundcover_lawn:1838", "name": null, "kind": "groundcover_lawn", "sport": null, "surface": null, "pitch_layout": null, "source": "vgin_vbmp+naip+lidar2025", "source_updated": null, "base_z": null, "top_z": null }, "geometry": { "type": "Polygon", "coordinates": [ [ [ 284417.47, 4158628.45 ], [ 284422.8, 4158625.79 ], [ 284423.25, 4158624.72 ], [ 284423.89, 4158620.9 ], [ 284422.81, 4158617.68 ], [ 284419.97, 4158615.63 ], [ 284417.99, 4158615.63 ], [ 284415.3, 4158617.28 ], [ 284413.45, 4158620.99 ], [ 284413.13, 4158622.33 ], [ 284413.13, 4158625.68 ], [ 284413.28, 4158625.86 ], [ 284417.47, 4158628.45 ] ] ] } },
{ "type": "Feature", "properties": { "id": "richmond_structure:404741", "name": null, "kind": "deck", "sport": null, "surface": null, "pitch_layout": null, "source": "richmond_structures", "source_updated": "2026-09-08T12:07:13.637000Z", "base_z": null, "top_z": null }, "geometry": { "type": "Polygon", "coordinates": [ [ [ 284387.0, 4158667.46 ], [ 284391.14, 4158673.03 ], [ 284393.34, 4158671.4 ], [ 284389.19, 4158665.83 ], [ 284387.0, 4158667.46 ] ] ] } },
{ "type": "Feature", "properties": { "id": "richmond_structure:307908", "name": null, "kind": "deck", "sport": null, "surface": null, "pitch_layout": null, "source": "richmond_structures", "source_updated": "2026-09-08T12:07:13.637000Z", "base_z": null, "top_z": null }, "geometry": { "type": "Polygon", "coordinates": [ [ [ 284352.21, 4158685.46 ], [ 284350.96, 4158683.85 ], [ 284348.92, 4158685.43 ], [ 284350.17, 4158687.05 ], [ 284352.21, 4158685.46 ] ] ] } },
{ "type": "Feature", "properties": { "id": "richmond_structure:312254", "name": null, "kind": "deck", "sport": null, "surface": null, "pitch_layout": null, "source": "richmond_structures", "source_updated": "2026-09-08T12:07:13.637000Z", "base_z": null, "top_z": null }, "geometry": { "type": "Polygon", "coordinates": [ [ [ 284365.85, 4158685.02 ], [ 284363.87, 4158682.47 ], [ 284358.66, 4158686.5 ], [ 284360.63, 4158689.06 ], [ 284365.85, 4158685.02 ] ] ] } },
{ "type": "Feature", "properties": { "id": "imagery:groundcover_lawn:1796", "name": null, "kind": "groundcover_lawn", "sport": null, "surface": null, "pitch_layout": null, "source": "vgin_vbmp+naip+lidar2025", "source_updated": null, "base_z": null, "top_z": null }, "geometry": { "type": "MultiPolygon", "coordinates": [ [ [ [ 284365.21, 4158681.67 ], [ 284365.25, 4158681.76 ], [ 284365.29, 4158681.85 ], [ 284365.31, 4158681.95 ], [ 284365.32, 4158682.04 ], [ 284365.33, 4158682.14 ], [ 284365.32, 4158682.24 ], [ 284365.31, 4158682.34 ], [ 284365.3, 4158682.37 ], [ 284367.54, 4158685.11 ], [ 284378.04, 4158687.21 ], [ 284378.72, 4158687.55 ], [ 284380.38, 4158689.01 ], [ 284380.81, 4158689.65 ], [ 284382.32, 4158694.19 ], [ 284385.66, 4158696.2 ], [ 284399.26, 4158693.94 ], [ 284399.95, 4158693.99 ], [ 284401.88, 4158694.61 ], [ 284402.48, 4158694.97 ], [ 284404.88, 4158697.38 ], [ 284405.19, 4158697.44 ], [ 284405.28, 4158697.46 ], [ 284405.38, 4158697.49 ], [ 284405.46, 4158697.53 ], [ 284405.55, 4158697.58 ], [ 284405.63, 4158697.64 ], [ 284405.7, 4158697.7 ], [ 284405.77, 4158697.77 ], [ 284405.78, 4158697.7 ], [ 284410.09, 4158672.89 ], [ 284409.82, 4158673.68 ], [ 284408.17, 4158675.8 ], [ 284407.37, 4158676.32 ], [ 284403.01, 4158677.4 ], [ 284399.23, 4158680.47 ], [ 284399.15, 4158680.53 ], [ 284399.07, 4158680.58 ], [ 284398.98, 4158680.62 ], [ 284398.89, 4158680.65 ], [ 284398.79, 4158680.68 ], [ 284398.7, 4158680.69 ], [ 284398.6, 4158680.69 ], [ 284398.5, 4158680.69 ], [ 284398.4, 4158680.67 ], [ 284398.31, 4158680.65 ], [ 284398.22, 4158680.62 ], [ 284398.13, 4158680.57 ], [ 284398.04, 4158680.52 ], [ 284397.97, 4158680.46 ], [ 284397.89, 4158680.4 ], [ 284397.83, 4158680.33 ], [ 284394.17, 4158675.85 ], [ 284394.11, 4158675.77 ], [ 284394.06, 4158675.68 ], [ 284394.02, 4158675.59 ], [ 284393.98, 4158675.5 ], [ 284393.96, 4158675.41 ], [ 284393.95, 4158675.31 ], [ 284393.94, 4158675.21 ], [ 284393.95, 4158675.11 ], [ 284393.96, 4158675.01 ], [ 284393.99, 4158674.92 ], [ 284394.02, 4158674.83 ], [ 284394.06, 4158674.74 ], [ 284394.11, 4158674.65 ], [ 284394.17, 4158674.57 ], [ 284394.24, 4158674.5 ], [ 284394.31, 4158674.44 ], [ 284399.47, 4158670.26 ], [ 284400.09, 4158669.45 ], [ 284400.89, 4158668.94 ], [ 284401.19, 4158668.86 ], [ 284405.89, 4158665.05 ], [ 284405.97, 4158664.99 ], [ 284406.05, 4158664.94 ], [ 284406.14, 4158664.9 ], [ 284406.23, 4158664.87 ], [ 284406.33, 4158664.85 ], [ 284406.42, 4158664.83 ], [ 284406.52, 4158664.83 ], [ 284406.62, 4158664.83 ], [ 284406.72, 4158664.85 ], [ 284406.81, 4158664.87 ], [ 284406.9, 4158664.91 ], [ 284406.99, 4158664.95 ], [ 284407.08, 4158665.0 ], [ 284407.15, 4158665.06 ], [ 284407.23, 4158665.12 ], [ 284407.29, 4158665.2 ], [ 284410.72, 4158669.39 ], [ 284414.69, 4158649.89 ], [ 284401.33, 4158653.71 ], [ 284399.15, 4158656.65 ], [ 284399.17, 4158657.9 ], [ 284397.79, 4158660.91 ], [ 284396.84, 4158661.7 ], [ 284393.31, 4158662.58 ], [ 284393.32, 4158662.59 ], [ 284393.34, 4158662.68 ], [ 284393.35, 4158662.78 ], [ 284393.36, 4158662.88 ], [ 284393.35, 4158662.98 ], [ 284393.34, 4158663.07 ], [ 284393.31, 4158663.17 ], [ 284393.28, 4158663.26 ], [ 284393.23, 4158663.35 ], [ 284393.18, 4158663.43 ], [ 284393.12, 4158663.51 ], [ 284393.05, 4158663.58 ], [ 284392.98, 4158663.65 ], [ 284388.25, 4158667.41 ], [ 284388.17, 4158667.47 ], [ 284388.09, 4158667.52 ], [ 284388.0, 4158667.56 ], [ 284387.9, 4158667.59 ], [ 284387.81, 4158667.61 ], [ 284387.71, 4158667.63 ], [ 284387.61, 4158667.63 ], [ 284387.52, 4158667.62 ], [ 284387.42, 4158667.61 ], [ 284387.33, 4158667.58 ], [ 284387.23, 4158667.55 ], [ 284387.15, 4158667.51 ], [ 284387.06, 4158667.46 ], [ 284386.99, 4158667.4 ], [ 284386.91, 4158667.33 ], [ 284386.85, 4158667.26 ], [ 284386.31, 4158666.59 ], [ 284384.37, 4158669.14 ], [ 284384.37, 4158669.22 ], [ 284386.12, 4158671.39 ], [ 284386.18, 4158671.47 ], [ 284386.23, 4158671.56 ], [ 284386.27, 4158671.65 ], [ 284386.3, 4158671.74 ], [ 284386.33, 4158671.83 ], [ 284386.34, 4158671.93 ], [ 284386.35, 4158672.03 ], [ 284386.34, 4158672.13 ], [ 284386.32, 4158672.23 ], [ 284386.3, 4158672.32 ], [ 284386.26, 4158672.41 ], [ 284386.22, 4158672.5 ], [ 284386.17, 4158672.59 ], [ 284386.14, 4158672.63 ], [ 284386.27, 4158672.81 ], [ 284386.48, 4158673.81 ], [ 284386.28, 4158674.17 ], [ 284384.67, 4158675.77 ], [ 284383.99, 4158676.16 ], [ 284380.77, 4158676.97 ], [ 284378.53, 4158678.76 ], [ 284378.45, 4158678.81 ], [ 284378.37, 4158678.86 ], [ 284378.28, 4158678.9 ], [ 284378.18, 4158678.94 ], [ 284378.09, 4158678.96 ], [ 284377.99, 4158678.97 ], [ 284377.9, 4158678.98 ], [ 284377.8, 4158678.97 ], [ 284377.7, 4158678.96 ], [ 284377.61, 4158678.93 ], [ 284377.51, 4158678.9 ], [ 284377.43, 4158678.85 ], [ 284377.34, 4158678.8 ], [ 284377.26, 4158678.74 ], [ 284377.19, 4158678.68 ], [ 284377.13, 4158678.61 ], [ 284376.64, 4158678.0 ], [ 284376.49, 4158678.04 ], [ 284375.65, 4158677.99 ], [ 284373.35, 4158677.18 ], [ 284372.67, 4158676.68 ], [ 284370.53, 4158673.83 ], [ 284367.18, 4158672.78 ], [ 284365.13, 4158675.63 ], [ 284365.13, 4158681.55 ], [ 284365.16, 4158681.59 ], [ 284365.21, 4158681.67 ] ] ], [ [ [ 284417.83, 4158652.5 ], [ 284414.13, 4158670.72 ], [ 284409.32, 4158698.34 ], [ 284409.32, 4158698.37 ], [ 284408.76, 4158701.26 ], [ 284409.25, 4158701.75 ], [ 284410.41, 4158702.23 ], [ 284416.55, 4158669.91 ], [ 284416.5, 4158669.67 ], [ 284418.57, 4158653.13 ], [ 284417.83, 4158652.5 ] ] ], [ [ [ 284429.39, 4158681.63 ], [ 284419.91, 4158731.46 ], [ 284419.38, 4158738.4 ], [ 284420.0, 4158739.07 ], [ 284421.0, 4158738.29 ], [ 284422.28, 4158732.4 ], [ 284431.79, 4158681.63 ], [ 284429.39, 4158681.63 ] ] ] ] } },
{ "type": "Feature", "properties": { "id": "imagery:groundcover_lawn:1771", "name": null, "kind": "groundcover_lawn", "sport": null, "surface": null, "pitch_layout": null, "source": "vgin_vbmp+naip+lidar2025", "source_updated": null, "base_z": null, "top_z": null }, "geometry": { "type": "Polygon", "coordinates": [ [ [ 284354.69, 4158705.59 ], [ 284354.73, 4158705.68 ], [ 284354.76, 4158705.78 ], [ 284354.78, 4158705.87 ], [ 284354.8, 4158705.97 ], [ 284354.8, 4158706.07 ], [ 284354.79, 4158706.17 ], [ 284354.77, 4158706.26 ], [ 284354.75, 4158706.36 ], [ 284354.71, 4158706.45 ], [ 284354.7, 4158706.48 ], [ 284355.24, 4158707.29 ], [ 284357.74, 4158708.63 ], [ 284362.13, 4158708.63 ], [ 284365.13, 4158705.63 ], [ 284365.13, 4158689.97 ], [ 284362.86, 4158687.06 ], [ 284360.46, 4158686.46 ], [ 284360.37, 4158686.48 ], [ 284360.27, 4158686.5 ], [ 284360.17, 4158686.5 ], [ 284360.08, 4158686.49 ], [ 284359.98, 4158686.48 ], [ 284359.89, 4158686.46 ], [ 284359.79, 4158686.42 ], [ 284359.7, 4158686.38 ], [ 284359.62, 4158686.33 ], [ 284359.54, 4158686.27 ], [ 284359.48, 4158686.21 ], [ 284357.98, 4158685.84 ], [ 284354.37, 4158689.45 ], [ 284354.73, 4158689.89 ], [ 284354.79, 4158689.97 ], [ 284354.84, 4158690.05 ], [ 284354.88, 4158690.14 ], [ 284354.91, 4158690.24 ], [ 284354.93, 4158690.33 ], [ 284354.95, 4158690.43 ], [ 284354.95, 4158690.53 ], [ 284354.95, 4158690.63 ], [ 284354.93, 4158690.72 ], [ 284354.91, 4158690.82 ], [ 284354.88, 4158690.91 ], [ 284354.83, 4158691.0 ], [ 284354.78, 4158691.08 ], [ 284354.76, 4158691.12 ], [ 284355.42, 4158693.79 ], [ 284355.33, 4158694.76 ], [ 284354.19, 4158697.24 ], [ 284353.52, 4158697.93 ], [ 284353.17, 4158698.11 ], [ 284352.08, 4158702.22 ], [ 284354.59, 4158705.43 ], [ 284354.64, 4158705.51 ], [ 284354.69, 4158705.59 ] ] ] } },
{ "type": "Feature", "properties": { "id": "imagery:groundcover_lawn:1755", "name": null, "kind": "groundcover_lawn", "sport": null, "surface": null, "pitch_layout": null, "source": "vgin_vbmp+naip+lidar2025", "source_updated": null, "base_z": null, "top_z": null }, "geometry": { "type": "Polygon", "coordinates": [ [ [ 284367.18, 4158722.42 ], [ 284370.78, 4158727.01 ], [ 284370.78, 4158727.02 ], [ 284372.32, 4158729.02 ], [ 284375.65, 4158731.52 ], [ 284376.09, 4158732.04 ], [ 284376.97, 4158733.81 ], [ 284377.13, 4158734.47 ], [ 284377.13, 4158734.78 ], [ 284380.86, 4158737.69 ], [ 284381.03, 4158737.65 ], [ 284383.82, 4158735.4 ], [ 284383.9, 4158735.35 ], [ 284383.98, 4158735.3 ], [ 284384.07, 4158735.26 ], [ 284384.17, 4158735.22 ], [ 284384.26, 4158735.2 ], [ 284384.36, 4158735.19 ], [ 284384.46, 4158735.18 ], [ 284384.55, 4158735.19 ], [ 284384.65, 4158735.2 ], [ 284384.74, 4158735.23 ], [ 284384.84, 4158735.26 ], [ 284384.92, 4158735.3 ], [ 284385.01, 4158735.35 ], [ 284385.09, 4158735.41 ], [ 284385.16, 4158735.48 ], [ 284385.22, 4158735.55 ], [ 284385.93, 4158736.42 ], [ 284398.86, 4158733.19 ], [ 284399.04, 4158732.96 ], [ 284399.91, 4158728.41 ], [ 284398.13, 4158726.63 ], [ 284390.67, 4158726.63 ], [ 284390.1, 4158726.51 ], [ 284388.53, 4158725.86 ], [ 284388.04, 4158725.54 ], [ 284384.22, 4158721.71 ], [ 284383.9, 4158721.23 ], [ 284383.24, 4158719.66 ], [ 284383.13, 4158719.09 ], [ 284383.13, 4158715.47 ], [ 284379.4, 4158712.56 ], [ 284375.11, 4158713.63 ], [ 284369.53, 4158717.03 ], [ 284366.71, 4158721.26 ], [ 284366.83, 4158722.0 ], [ 284367.16, 4158722.4 ], [ 284367.17, 4158722.41 ], [ 284367.18, 4158722.42 ] ] ] } },
{ "type": "Feature", "properties": { "id": "richmond_structure:425539", "name": null, "kind": "deck", "sport": null, "surface": null, "pitch_layout": null, "source": "richmond_structures", "source_updated": "2026-09-08T12:07:13.637000Z", "base_z": null, "top_z": null }, "geometry": { "type": "MultiPolygon", "coordinates": [ [ [ [ 284383.59, 4158746.79 ], [ 284379.47, 4158741.7 ], [ 284384.99, 4158737.23 ], [ 284389.18, 4158742.41 ], [ 284390.26, 4158741.54 ], [ 284390.55, 4158741.9 ], [ 284391.4, 4158741.13 ], [ 284385.64, 4158733.99 ], [ 284376.94, 4158741.43 ], [ 284379.4, 4158744.49 ], [ 284376.48, 4158746.83 ], [ 284375.36, 4158745.43 ], [ 284374.31, 4158746.28 ], [ 284376.63, 4158749.17 ], [ 284375.59, 4158750.0 ], [ 284385.01, 4158750.0 ], [ 284382.88, 4158747.37 ], [ 284383.59, 4158746.79 ] ] ], [ [ [ 284372.65, 4158741.07 ], [ 284365.06, 4158747.18 ], [ 284361.35, 4158742.55 ], [ 284360.95, 4158742.87 ], [ 284354.12, 4158734.37 ], [ 284354.54, 4158734.04 ], [ 284352.76, 4158731.82 ], [ 284350.66, 4158733.74 ], [ 284363.52, 4158750.0 ], [ 284366.27, 4158750.0 ], [ 284374.48, 4158743.4 ], [ 284372.65, 4158741.07 ] ] ] ] } },
{ "type": "Feature", "properties": { "id": "richmond_structure:425483", "name": null, "kind": "deck", "sport": null, "surface": null, "pitch_layout": null, "source": "richmond_structures", "source_updated": "2026-09-08T12:07:13.637000Z", "base_z": null, "top_z": null }, "geometry": { "type": "Polygon", "coordinates": [ [ [ 284493.39, 4158605.24 ], [ 284494.79, 4158604.08 ], [ 284493.45, 4158602.46 ], [ 284492.05, 4158603.62 ], [ 284493.39, 4158605.24 ] ] ] } },
{ "type": "Feature", "properties": { "id": "richmond_structure:311992", "name": null, "kind": "deck", "sport": null, "surface": null, "pitch_layout": null, "source": "richmond_structures", "source_updated": "2026-09-08T12:07:13.637000Z", "base_z": null, "top_z": null }, "geometry": { "type": "Polygon", "coordinates": [ [ [ 284468.64, 4158621.85 ], [ 284467.14, 4158619.85 ], [ 284472.14, 4158616.21 ], [ 284469.53, 4158612.78 ], [ 284472.33, 4158610.78 ], [ 284473.24, 4158610.62 ], [ 284474.34, 4158611.18 ], [ 284477.88, 4158615.88 ], [ 284478.94, 4158615.07 ], [ 284471.58, 4158605.55 ], [ 284466.35, 4158609.53 ], [ 284468.49, 4158612.18 ], [ 284463.3, 4158616.24 ], [ 284465.19, 4158618.53 ], [ 284460.08, 4158622.52 ], [ 284462.64, 4158625.69 ], [ 284458.83, 4158628.65 ], [ 284459.97, 4158630.03 ], [ 284464.71, 4158626.26 ], [ 284464.1, 4158625.46 ], [ 284468.64, 4158621.85 ] ] ] } },
{ "type": "Feature", "properties": { "id": "osm:relation/4714838", "name": null, "kind": "parking", "sport": null, "surface": null, "pitch_layout": null, "source": null, "source_updated": null, "base_z": null, "top_z": null }, "geometry": { "type": "Polygon", "coordinates": [ [ [ 284500.0, 4158654.61 ], [ 284499.88, 4158654.7 ], [ 284490.41, 4158642.41 ], [ 284500.0, 4158635.09 ], [ 284500.0, 4158620.06 ], [ 284477.55, 4158636.99 ], [ 284481.12, 4158641.68 ], [ 284477.28, 4158644.58 ], [ 284494.94, 4158667.8 ], [ 284498.32, 4158665.24 ], [ 284500.0, 4158667.45 ], [ 284500.0, 4158654.61 ] ] ] } },
{ "type": "Feature", "properties": { "id": "imagery:groundcover_lawn:1827", "name": null, "kind": "groundcover_lawn", "sport": null, "surface": null, "pitch_layout": null, "source": "vgin_vbmp+naip+lidar2025", "source_updated": null, "base_z": null, "top_z": null }, "geometry": { "type": "Polygon", "coordinates": [ [ [ 284457.53, 4158640.82 ], [ 284460.01, 4158635.87 ], [ 284459.13, 4158632.12 ], [ 284453.18, 4158627.67 ], [ 284448.41, 4158629.64 ], [ 284446.62, 4158642.2 ], [ 284449.59, 4158645.63 ], [ 284451.42, 4158645.63 ], [ 284451.89, 4158645.26 ], [ 284457.53, 4158640.82 ] ] ] } },
{ "type": "Feature", "properties": { "id": "osm:way/334119786", "name": null, "kind": "grass", "sport": null, "surface": null, "pitch_layout": null, "source": null, "source_updated": null, "base_z": null, "top_z": null }, "geometry": { "type": "Polygon", "coordinates": [ [ [ 284500.0, 4158635.09 ], [ 284490.41, 4158642.41 ], [ 284499.88, 4158654.7 ], [ 284500.0, 4158654.61 ], [ 284500.0, 4158635.09 ] ] ] } },
{ "type": "Feature", "properties": { "id": "richmond_structure:307909", "name": null, "kind": "deck", "sport": null, "surface": null, "pitch_layout": null, "source": "richmond_structures", "source_updated": "2026-09-08T12:07:13.637000Z", "base_z": null, "top_z": null }, "geometry": { "type": "Polygon", "coordinates": [ [ [ 284487.24, 4158678.37 ], [ 284490.86, 4158682.99 ], [ 284496.56, 4158678.53 ], [ 284493.96, 4158675.2 ], [ 284489.03, 4158679.17 ], [ 284487.95, 4158677.82 ], [ 284487.24, 4158678.37 ] ] ] } },
{ "type": "Feature", "properties": { "id": "richmond_structure:311872", "name": null, "kind": "deck", "sport": null, "surface": null, "pitch_layout": null, "source": "richmond_structures", "source_updated": "2026-09-08T12:07:13.637000Z", "base_z": null, "top_z": null }, "geometry": { "type": "Polygon", "coordinates": [ [ [ 284478.22, 4158732.25 ], [ 284476.96, 4158730.69 ], [ 284472.85, 4158734.0 ], [ 284474.11, 4158735.56 ], [ 284478.22, 4158732.25 ] ] ] } },
{ "type": "Feature", "properties": { "id": "richmond_structure:311876", "name": null, "kind": "deck", "sport": null, "surface": null, "pitch_layout": null, "source": "richmond_structures", "source_updated": "2026-09-08T12:07:13.637000Z", "base_z": null, "top_z": null }, "geometry": { "type": "Polygon", "coordinates": [ [ [ 284461.88, 4158739.96 ], [ 284463.06, 4158741.47 ], [ 284459.19, 4158744.6 ], [ 284461.61, 4158747.74 ], [ 284466.28, 4158744.02 ], [ 284462.61, 4158739.32 ], [ 284461.88, 4158739.96 ] ] ] } },
{ "type": "Feature", "properties": { "id": "imagery:groundcover_lawn:1734", "name": null, "kind": "groundcover_lawn", "sport": null, "surface": null, "pitch_layout": null, "source": "vgin_vbmp+naip+lidar2025", "source_updated": null, "base_z": null, "top_z": null }, "geometry": { "type": "Polygon", "coordinates": [ [ [ 284469.08, 4158744.1 ], [ 284471.28, 4158746.78 ], [ 284471.34, 4158746.86 ], [ 284471.39, 4158746.95 ], [ 284471.43, 4158747.04 ], [ 284471.46, 4158747.13 ], [ 284471.49, 4158747.22 ], [ 284471.5, 4158747.32 ], [ 284471.51, 4158747.42 ], [ 284471.5, 4158747.52 ], [ 284471.49, 4158747.61 ], [ 284471.46, 4158747.71 ], [ 284471.43, 4158747.8 ], [ 284471.39, 4158747.89 ], [ 284471.34, 4158747.98 ], [ 284471.28, 4158748.05 ], [ 284471.21, 4158748.13 ], [ 284471.14, 4158748.19 ], [ 284468.92, 4158750.0 ], [ 284497.13, 4158750.0 ], [ 284497.13, 4158748.53 ], [ 284493.76, 4158744.29 ], [ 284471.03, 4158742.02 ], [ 284469.08, 4158744.1 ] ] ] } },
{ "type": "Feature", "properties": { "id": "osm:way/1131769793", "name": null, "kind": "park", "sport": null, "surface": null, "pitch_layout": null, "source": null, "source_updated": null, "base_z": null, "top_z": null }, "geometry": { "type": "Polygon", "coordinates": [ [ [ 284263.87, 4158577.77 ], [ 284250.0, 4158564.23 ], [ 284250.0, 4158584.04 ], [ 284256.19, 4158583.52 ], [ 284263.87, 4158577.77 ] ] ] } },
{ "type": "Feature", "properties": { "id": "osm:way/1121057697", "name": null, "kind": "pitch", "sport": "basketball", "surface": null, "pitch_layout": { "cx": 284283.04665545985, "cy": 4158597.4372833213, "ax": 0.7803515465253423, "ay": -0.6253410780010429, "hl": 15.205205538734122, "hs": 7.592046075767788 }, "source": null, "source_updated": null, "base_z": null, "top_z": null }, "geometry": { "type": "Polygon", "coordinates": [ [ [ 284290.16, 4158582.0 ], [ 284266.43, 4158601.02 ], [ 284275.92, 4158612.73 ], [ 284299.56, 4158593.93 ], [ 284290.16, 4158582.0 ] ] ] } },
{ "type": "Feature", "properties": { "id": "osm:way/321404415", "name": null, "kind": "parking", "sport": null, "surface": "asphalt", "pitch_layout": null, "source": null, "source_updated": null, "base_z": null, "top_z": null }, "geometry": { "type": "Polygon", "coordinates": [ [ [ 284339.52, 4158647.32 ], [ 284338.36, 4158643.93 ], [ 284307.31, 4158604.23 ], [ 284285.68, 4158621.92 ], [ 284286.56, 4158624.93 ], [ 284283.4, 4158627.92 ], [ 284313.75, 4158665.81 ], [ 284319.32, 4158663.21 ], [ 284339.52, 4158647.32 ] ] ] } },
{ "type": "Feature", "properties": { "id": "osm:way/266499307", "name": "Abner Clay Park", "kind": "park", "sport": null, "surface": null, "pitch_layout": null, "source": null, "source_updated": null, "base_z": null, "top_z": null }, "geometry": { "type": "Polygon", "coordinates": [ [ [ 284292.1, 4158577.01 ], [ 284281.19, 4158585.47 ], [ 284250.71, 4158548.75 ], [ 284250.0, 4158548.74 ], [ 284250.0, 4158721.95 ], [ 284314.29, 4158669.59 ], [ 284276.17, 4158618.17 ], [ 284305.55, 4158594.73 ], [ 284292.1, 4158577.01 ] ] ] } },
{ "type": "Feature", "properties": { "id": "osm:way/885991925", "name": null, "kind": "pitch", "sport": "american_football", "surface": null, "pitch_layout": { "cx": 284252.0458268949, "cy": 4158684.229239832, "ax": 0.7821258627591323, "ay": -0.6231204817716098, "hl": 54.93049007880238, "hs": 21.36979451426408 }, "source": null, "source_updated": null, "base_z": null, "top_z": null }, "geometry": { "type": "Polygon", "coordinates": [ [ [ 284281.55, 4158633.4 ], [ 284250.0, 4158658.54 ], [ 284250.0, 4158713.18 ], [ 284308.32, 4158666.71 ], [ 284281.55, 4158633.4 ] ] ] } },
{ "type": "Feature", "properties": { "id": "richmond_structure:404473", "name": null, "kind": "deck", "sport": null, "surface": null, "pitch_layout": null, "source": "richmond_structures", "source_updated": "2026-09-08T12:07:13.637000Z", "base_z": null, "top_z": null }, "geometry": { "type": "Polygon", "coordinates": [ [ [ 284339.17, 4158717.36 ], [ 284343.21, 4158714.1 ], [ 284341.15, 4158711.46 ], [ 284337.05, 4158714.58 ], [ 284339.17, 4158717.36 ] ] ] } },
{ "type": "Feature", "properties": { "id": "richmond_structure:311868", "name": null, "kind": "deck", "sport": null, "surface": null, "pitch_layout": null, "source": "richmond_structures", "source_updated": "2026-09-08T12:07:13.637000Z", "base_z": null, "top_z": null }, "geometry": { "type": "Polygon", "coordinates": [ [ [ 284307.99, 4158738.33 ], [ 284312.83, 4158734.14 ], [ 284316.31, 4158738.47 ], [ 284316.85, 4158738.05 ], [ 284307.14, 4158725.87 ], [ 284307.74, 4158725.37 ], [ 284306.11, 4158723.29 ], [ 284303.35, 4158725.35 ], [ 284308.13, 4158731.12 ], [ 284304.48, 4158734.14 ], [ 284307.99, 4158738.33 ] ] ] } },
{ "type": "Feature", "properties": { "id": "imagery:groundcover_lawn:1748", "name": null, "kind": "groundcover_lawn", "sport": null, "surface": null, "pitch_layout": null, "source": "vgin_vbmp+naip+lidar2025", "source_updated": null, "base_z": null, "top_z": null }, "geometry": { "type": "Polygon", "coordinates": [ [ [ 284312.47, 4158730.52 ], [ 284318.49, 4158734.53 ], [ 284318.97, 4158735.06 ], [ 284319.96, 4158736.9 ], [ 284320.13, 4158737.6 ], [ 284320.13, 4158738.63 ], [ 284323.13, 4158741.63 ], [ 284326.79, 4158741.63 ], [ 284329.7, 4158739.35 ], [ 284331.2, 4158733.35 ], [ 284329.21, 4158729.77 ], [ 284327.91, 4158729.35 ], [ 284325.83, 4158727.85 ], [ 284325.3, 4158727.13 ], [ 284323.81, 4158722.68 ], [ 284320.97, 4158720.63 ], [ 284314.13, 4158720.63 ], [ 284311.13, 4158723.63 ], [ 284311.13, 4158728.02 ], [ 284312.47, 4158730.52 ] ] ] } },
{ "type": "Feature", "properties": { "id": "osm:way/321398114", "name": null, "kind": "parking", "sport": null, "surface": null, "pitch_layout": null, "source": null, "source_updated": null, "base_z": null, "top_z": null }, "geometry": { "type": "Polygon", "coordinates": [ [ [ 284324.71, 4158747.8 ], [ 284311.23, 4158730.93 ], [ 284297.6, 4158741.74 ], [ 284303.73, 4158749.42 ], [ 284307.33, 4158746.56 ], [ 284310.08, 4158750.0 ], [ 284350.05, 4158750.0 ], [ 284339.15, 4158736.36 ], [ 284324.71, 4158747.8 ] ] ] } },
{ "type": "Feature", "properties": { "id": "imagery:groundcover_paved:2792", "name": null, "kind": "groundcover_paved", "sport": null, "surface": null, "pitch_layout": null, "source": "vgin_vbmp+naip+lidar2025", "source_updated": null, "base_z": null, "top_z": null }, "geometry": { "type": "MultiPolygon", "coordinates": [ [ [ [ 284371.47, 4158504.48 ], [ 284370.46, 4158505.25 ], [ 284385.19, 4158522.87 ], [ 284364.3, 4158539.72 ], [ 284363.82, 4158539.15 ], [ 284364.3, 4158542.08 ], [ 284365.18, 4158544.88 ], [ 284365.9, 4158544.29 ], [ 284365.93, 4158544.27 ], [ 284388.34, 4158526.4 ], [ 284371.47, 4158504.48 ] ] ], [ [ [ 284319.59, 4158548.12 ], [ 284319.12, 4158547.59 ], [ 284317.96, 4158545.28 ], [ 284315.28, 4158543.63 ], [ 284301.65, 4158543.63 ], [ 284299.64, 4158545.26 ], [ 284298.33, 4158546.36 ], [ 284297.45, 4158547.57 ], [ 284298.36, 4158550.31 ], [ 284298.38, 4158551.16 ], [ 284297.75, 4158553.51 ], [ 284297.3, 4158554.23 ], [ 284276.18, 4158572.71 ], [ 284276.01, 4158572.81 ], [ 284278.33, 4158575.48 ], [ 284319.59, 4158548.12 ] ] ], [ [ [ 284298.36, 4158576.63 ], [ 284298.54, 4158576.17 ], [ 284298.76, 4158575.73 ], [ 284299.02, 4158575.32 ], [ 284299.32, 4158574.93 ], [ 284299.66, 4158574.57 ], [ 284300.03, 4158574.25 ], [ 284306.9, 4158568.86 ], [ 284307.71, 4158568.05 ], [ 284308.18, 4158567.85 ], [ 284316.2, 4158561.56 ], [ 284316.21, 4158561.55 ], [ 284316.24, 4158561.53 ], [ 284328.45, 4158551.95 ], [ 284327.02, 4158550.51 ], [ 284280.52, 4158581.34 ], [ 284280.26, 4158581.5 ], [ 284279.99, 4158581.62 ], [ 284279.71, 4158581.72 ], [ 284279.42, 4158581.79 ], [ 284279.12, 4158581.84 ], [ 284278.82, 4158581.85 ], [ 284278.53, 4158581.84 ], [ 284278.23, 4158581.79 ], [ 284278.11, 4158581.76 ], [ 284281.19, 4158585.47 ], [ 284292.1, 4158577.01 ], [ 284304.92, 4158593.9 ], [ 284307.86, 4158591.51 ], [ 284307.71, 4158591.44 ], [ 284307.3, 4158591.18 ], [ 284306.91, 4158590.88 ], [ 284306.56, 4158590.54 ], [ 284306.23, 4158590.17 ], [ 284304.09, 4158587.47 ], [ 284303.79, 4158587.28 ], [ 284300.22, 4158583.71 ], [ 284299.9, 4158583.23 ], [ 284299.24, 4158581.66 ], [ 284299.16, 4158581.24 ], [ 284298.91, 4158580.88 ], [ 284298.66, 4158580.46 ], [ 284298.46, 4158580.01 ], [ 284298.3, 4158579.54 ], [ 284298.19, 4158579.06 ], [ 284298.13, 4158578.58 ], [ 284298.12, 4158578.08 ], [ 284298.15, 4158577.59 ], [ 284298.23, 4158577.11 ], [ 284298.36, 4158576.63 ] ] ], [ [ [ 284419.37, 4158610.27 ], [ 284408.34, 4158619.86 ], [ 284418.32, 4158631.99 ], [ 284419.2, 4158632.47 ], [ 284420.87, 4158632.11 ], [ 284422.26, 4158630.55 ], [ 284423.09, 4158625.65 ], [ 284419.39, 4158627.5 ], [ 284417.93, 4158627.36 ], [ 284415.02, 4158625.13 ], [ 284414.5, 4158623.77 ], [ 284415.34, 4158619.59 ], [ 284416.02, 4158618.63 ], [ 284418.8, 4158617.02 ], [ 284419.97, 4158616.9 ], [ 284422.63, 4158617.79 ], [ 284423.36, 4158618.32 ], [ 284424.14, 4158619.42 ], [ 284425.15, 4158613.45 ], [ 284424.26, 4158611.85 ], [ 284422.77, 4158610.8 ], [ 284420.87, 4158610.11 ], [ 284419.37, 4158610.27 ] ] ], [ [ [ 284362.55, 4158708.2 ], [ 284361.53, 4158708.63 ], [ 284358.08, 4158708.63 ], [ 284357.88, 4158708.94 ], [ 284357.57, 4158709.33 ], [ 284357.23, 4158709.68 ], [ 284356.85, 4158710.0 ], [ 284351.09, 4158714.45 ], [ 284351.14, 4158714.48 ], [ 284351.34, 4158714.7 ], [ 284354.72, 4158718.57 ], [ 284359.5, 4158714.66 ], [ 284359.89, 4158714.37 ], [ 284360.31, 4158714.12 ], [ 284360.75, 4158713.91 ], [ 284361.21, 4158713.74 ], [ 284361.69, 4158713.62 ], [ 284362.17, 4158713.55 ], [ 284362.66, 4158713.53 ], [ 284363.15, 4158713.55 ], [ 284363.44, 4158713.59 ], [ 284377.25, 4158705.19 ], [ 284378.84, 4158704.21 ], [ 284369.99, 4158691.6 ], [ 284369.83, 4158691.34 ], [ 284369.69, 4158691.08 ], [ 284369.59, 4158690.8 ], [ 284369.51, 4158690.51 ], [ 284369.46, 4158690.21 ], [ 284369.44, 4158689.91 ], [ 284369.44, 4158689.61 ], [ 284369.48, 4158689.32 ], [ 284369.55, 4158689.03 ], [ 284369.64, 4158688.74 ], [ 284369.76, 4158688.47 ], [ 284369.91, 4158688.21 ], [ 284370.08, 4158687.96 ], [ 284370.28, 4158687.74 ], [ 284370.5, 4158687.53 ], [ 284370.73, 4158687.35 ], [ 284370.99, 4158687.19 ], [ 284371.25, 4158687.05 ], [ 284371.53, 4158686.95 ], [ 284371.82, 4158686.87 ], [ 284372.12, 4158686.82 ], [ 284372.41, 4158686.79 ], [ 284372.71, 4158686.8 ], [ 284373.01, 4158686.84 ], [ 284373.3, 4158686.91 ], [ 284373.59, 4158687.0 ], [ 284373.86, 4158687.12 ], [ 284374.12, 4158687.27 ], [ 284374.36, 4158687.44 ], [ 284374.59, 4158687.64 ], [ 284374.8, 4158687.86 ], [ 284374.98, 4158688.09 ], [ 284384.06, 4158701.02 ], [ 284388.94, 4158698.03 ], [ 284389.12, 4158697.07 ], [ 284388.73, 4158696.63 ], [ 284384.98, 4158696.63 ], [ 284384.32, 4158696.47 ], [ 284382.54, 4158695.58 ], [ 284382.02, 4158695.15 ], [ 284375.03, 4158685.83 ], [ 284372.63, 4158684.63 ], [ 284368.66, 4158684.63 ], [ 284368.47, 4158684.94 ], [ 284368.17, 4158685.33 ], [ 284367.84, 4158685.69 ], [ 284367.48, 4158686.02 ], [ 284365.13, 4158687.92 ], [ 284365.13, 4158705.03 ], [ 284364.71, 4158706.05 ], [ 284362.55, 4158708.2 ] ] ], [ [ [ 284299.08, 4158712.08 ], [ 284299.43, 4158712.42 ], [ 284299.75, 4158712.79 ], [ 284308.34, 4158723.88 ], [ 284311.44, 4158723.49 ], [ 284311.55, 4158723.2 ], [ 284313.71, 4158721.05 ], [ 284314.73, 4158720.63 ], [ 284319.53, 4158720.63 ], [ 284320.55, 4158721.05 ], [ 284322.71, 4158723.2 ], [ 284323.13, 4158724.22 ], [ 284323.13, 4158724.46 ], [ 284325.18, 4158727.31 ], [ 284328.96, 4158728.57 ], [ 284329.77, 4158729.24 ], [ 284331.18, 4158731.82 ], [ 284331.32, 4158732.87 ], [ 284329.82, 4158738.87 ], [ 284329.3, 4158739.66 ], [ 284327.18, 4158741.32 ], [ 284326.29, 4158741.63 ], [ 284323.73, 4158741.63 ], [ 284322.71, 4158741.2 ], [ 284320.55, 4158739.05 ], [ 284320.13, 4158738.03 ], [ 284320.13, 4158737.23 ], [ 284318.8, 4158734.74 ], [ 284312.8, 4158730.74 ], [ 284311.59, 4158731.38 ], [ 284322.81, 4158745.41 ], [ 284322.82, 4158745.4 ], [ 284336.65, 4158734.45 ], [ 284313.4, 4158705.17 ], [ 284312.93, 4158705.76 ], [ 284312.24, 4158706.26 ], [ 284309.77, 4158707.08 ], [ 284308.49, 4158706.89 ], [ 284305.72, 4158704.89 ], [ 284305.13, 4158703.74 ], [ 284305.13, 4158702.9 ], [ 284295.5, 4158710.87 ], [ 284295.95, 4158710.86 ], [ 284296.44, 4158710.9 ], [ 284296.92, 4158710.98 ], [ 284297.39, 4158711.12 ], [ 284297.85, 4158711.29 ], [ 284298.28, 4158711.52 ], [ 284298.7, 4158711.78 ], [ 284299.08, 4158712.08 ] ] ], [ [ [ 284413.73, 4158500.63 ], [ 284413.54, 4158501.09 ], [ 284413.31, 4158501.52 ], [ 284413.03, 4158501.93 ], [ 284412.71, 4158502.3 ], [ 284412.36, 4158502.65 ], [ 284411.98, 4158502.96 ], [ 284411.71, 4158503.16 ], [ 284412.52, 4158504.25 ], [ 284412.82, 4158504.16 ], [ 284413.3, 4158504.07 ], [ 284413.79, 4158504.02 ], [ 284414.28, 4158504.02 ], [ 284414.76, 4158504.07 ], [ 284415.24, 4158504.17 ], [ 284415.71, 4158504.31 ], [ 284416.16, 4158504.5 ], [ 284416.6, 4158504.73 ], [ 284417.0, 4158505.01 ], [ 284417.38, 4158505.32 ], [ 284417.73, 4158505.66 ], [ 284418.04, 4158506.04 ], [ 284422.35, 4158511.87 ], [ 284422.62, 4158512.28 ], [ 284422.69, 4158512.41 ], [ 284423.1, 4158512.61 ], [ 284423.69, 4158513.15 ], [ 284424.91, 4158515.12 ], [ 284425.13, 4158515.9 ], [ 284425.13, 4158516.82 ], [ 284426.37, 4158518.36 ], [ 284426.66, 4158518.75 ], [ 284426.91, 4158519.18 ], [ 284426.92, 4158519.2 ], [ 284437.13, 4158511.04 ], [ 284437.13, 4158507.63 ], [ 284434.13, 4158504.63 ], [ 284422.11, 4158504.63 ], [ 284421.19, 4158504.3 ], [ 284419.05, 4158502.54 ], [ 284418.55, 4158501.7 ], [ 284418.21, 4158500.0 ], [ 284413.91, 4158500.0 ], [ 284413.88, 4158500.16 ], [ 284413.73, 4158500.63 ] ] ], [ [ [ 284435.62, 4158550.01 ], [ 284435.38, 4158549.58 ], [ 284435.19, 4158549.12 ], [ 284435.05, 4158548.65 ], [ 284434.95, 4158548.17 ], [ 284434.89, 4158547.68 ], [ 284434.89, 4158547.19 ], [ 284434.93, 4158546.7 ], [ 284435.03, 4158546.22 ], [ 284435.17, 4158545.75 ], [ 284435.35, 4158545.29 ], [ 284435.54, 4158544.94 ], [ 284433.16, 4158545.62 ], [ 284427.24, 4158550.23 ], [ 284426.84, 4158550.51 ], [ 284426.41, 4158550.75 ], [ 284425.96, 4158550.95 ], [ 284425.5, 4158551.11 ], [ 284425.45, 4158551.12 ], [ 284438.66, 4158568.3 ], [ 284440.45, 4158570.12 ], [ 284441.19, 4158570.14 ], [ 284447.15, 4158565.22 ], [ 284447.01, 4158565.09 ], [ 284446.7, 4158564.71 ], [ 284435.9, 4158550.41 ], [ 284435.62, 4158550.01 ] ] ], [ [ [ 284489.86, 4158585.63 ], [ 284487.93, 4158587.21 ], [ 284487.54, 4158587.5 ], [ 284487.12, 4158587.75 ], [ 284486.67, 4158587.96 ], [ 284486.21, 4158588.12 ], [ 284485.74, 4158588.24 ], [ 284485.37, 4158588.29 ], [ 284487.61, 4158591.15 ], [ 284487.9, 4158591.55 ], [ 284488.14, 4158591.98 ], [ 284488.34, 4158592.43 ], [ 284488.5, 4158592.89 ], [ 284488.61, 4158593.37 ], [ 284488.67, 4158593.86 ], [ 284488.68, 4158594.35 ], [ 284488.64, 4158594.84 ], [ 284488.56, 4158595.33 ], [ 284488.43, 4158595.8 ], [ 284488.25, 4158596.26 ], [ 284488.03, 4158596.7 ], [ 284487.77, 4158597.12 ], [ 284487.46, 4158597.5 ], [ 284487.12, 4158597.86 ], [ 284486.75, 4158598.18 ], [ 284485.5, 4158599.15 ], [ 284485.62, 4158599.21 ], [ 284486.03, 4158599.48 ], [ 284486.41, 4158599.79 ], [ 284486.76, 4158600.13 ], [ 284487.08, 4158600.5 ], [ 284492.65, 4158607.83 ], [ 284492.93, 4158608.24 ], [ 284493.17, 4158608.67 ], [ 284493.36, 4158609.12 ], [ 284493.51, 4158609.59 ], [ 284493.61, 4158610.07 ], [ 284493.67, 4158610.56 ], [ 284493.67, 4158611.05 ], [ 284493.63, 4158611.54 ], [ 284493.54, 4158612.02 ], [ 284493.4, 4158612.5 ], [ 284493.32, 4158612.68 ], [ 284500.0, 4158607.44 ], [ 284500.0, 4158597.32 ], [ 284499.71, 4158597.2 ], [ 284497.55, 4158595.05 ], [ 284497.13, 4158594.03 ], [ 284497.13, 4158590.71 ], [ 284494.33, 4158587.22 ], [ 284491.63, 4158585.87 ], [ 284491.4, 4158585.88 ], [ 284490.91, 4158585.86 ], [ 284490.43, 4158585.78 ], [ 284489.95, 4158585.66 ], [ 284489.86, 4158585.63 ] ] ], [ [ [ 284442.63, 4158611.42 ], [ 284437.44, 4158639.11 ], [ 284434.42, 4158655.21 ], [ 284434.41, 4158655.23 ], [ 284434.27, 4158655.96 ], [ 284435.8, 4158657.91 ], [ 284436.14, 4158657.64 ], [ 284436.64, 4158654.63 ], [ 284436.65, 4158654.61 ], [ 284436.65, 4158654.59 ], [ 284449.15, 4158589.82 ], [ 284447.34, 4158587.4 ], [ 284447.24, 4158587.25 ], [ 284447.15, 4158587.09 ], [ 284447.12, 4158587.0 ], [ 284442.87, 4158590.38 ], [ 284443.32, 4158595.67 ], [ 284443.34, 4158596.61 ], [ 284442.75, 4158610.37 ], [ 284442.63, 4158611.42 ] ] ], [ [ [ 284470.74, 4158665.69 ], [ 284470.78, 4158665.96 ], [ 284470.79, 4158666.24 ], [ 284470.78, 4158666.52 ], [ 284470.74, 4158666.8 ], [ 284470.12, 4158670.13 ], [ 284470.06, 4158670.41 ], [ 284469.97, 4158670.67 ], [ 284469.86, 4158670.93 ], [ 284469.72, 4158671.18 ], [ 284469.56, 4158671.41 ], [ 284469.38, 4158671.62 ], [ 284468.47, 4158672.63 ], [ 284468.53, 4158672.63 ], [ 284470.76, 4158671.43 ], [ 284471.12, 4158671.15 ], [ 284474.0, 4158666.82 ], [ 284473.85, 4158666.48 ], [ 284473.69, 4158666.02 ], [ 284473.58, 4158665.54 ], [ 284473.51, 4158665.05 ], [ 284473.5, 4158664.56 ], [ 284473.53, 4158664.07 ], [ 284473.61, 4158663.58 ], [ 284473.74, 4158663.11 ], [ 284473.92, 4158662.65 ], [ 284474.14, 4158662.21 ], [ 284474.4, 4158661.79 ], [ 284474.7, 4158661.4 ], [ 284475.04, 4158661.04 ], [ 284475.41, 4158660.72 ], [ 284480.31, 4158656.86 ], [ 284480.71, 4158656.58 ], [ 284481.13, 4158656.33 ], [ 284481.58, 4158656.13 ], [ 284482.04, 4158655.98 ], [ 284482.52, 4158655.87 ], [ 284483.01, 4158655.81 ], [ 284483.5, 4158655.79 ], [ 284483.98, 4158655.82 ], [ 284484.47, 4158655.9 ], [ 284484.94, 4158656.03 ], [ 284485.4, 4158656.21 ], [ 284485.84, 4158656.42 ], [ 284486.25, 4158656.68 ], [ 284486.64, 4158656.98 ], [ 284486.88, 4158657.21 ], [ 284477.28, 4158644.58 ], [ 284481.12, 4158641.68 ], [ 284477.55, 4158636.99 ], [ 284500.0, 4158620.06 ], [ 284500.0, 4158615.2 ], [ 284458.23, 4158648.03 ], [ 284463.56, 4158653.89 ], [ 284463.72, 4158654.07 ], [ 284469.28, 4158661.24 ], [ 284469.45, 4158661.48 ], [ 284469.59, 4158661.73 ], [ 284469.71, 4158662.0 ], [ 284469.8, 4158662.28 ], [ 284470.68, 4158665.42 ], [ 284470.74, 4158665.69 ] ] ], [ [ [ 284453.39, 4158675.23 ], [ 284453.17, 4158675.0 ], [ 284448.91, 4158670.18 ], [ 284448.77, 4158670.01 ], [ 284445.01, 4158665.04 ], [ 284445.01, 4158665.03 ], [ 284442.06, 4158661.11 ], [ 284441.88, 4158660.89 ], [ 284439.53, 4158662.74 ], [ 284439.91, 4158663.23 ], [ 284468.01, 4158698.17 ], [ 284468.85, 4158697.48 ], [ 284468.79, 4158697.43 ], [ 284468.47, 4158697.06 ], [ 284459.95, 4158686.35 ], [ 284459.66, 4158685.95 ], [ 284459.42, 4158685.53 ], [ 284459.21, 4158685.08 ], [ 284459.06, 4158684.61 ], [ 284458.94, 4158684.13 ], [ 284458.88, 4158683.65 ], [ 284458.86, 4158683.15 ], [ 284458.9, 4158682.66 ], [ 284458.98, 4158682.18 ], [ 284459.1, 4158681.7 ], [ 284459.28, 4158681.24 ], [ 284459.5, 4158680.8 ], [ 284459.76, 4158680.39 ], [ 284460.06, 4158680.0 ], [ 284460.4, 4158679.64 ], [ 284460.77, 4158679.31 ], [ 284463.17, 4158677.42 ], [ 284463.41, 4158676.21 ], [ 284463.23, 4158675.99 ], [ 284460.55, 4158676.87 ], [ 284460.28, 4158676.94 ], [ 284460.01, 4158676.99 ], [ 284459.73, 4158677.01 ], [ 284459.46, 4158677.01 ], [ 284459.18, 4158676.99 ], [ 284458.91, 4158676.94 ], [ 284454.75, 4158675.95 ], [ 284454.45, 4158675.87 ], [ 284454.16, 4158675.75 ], [ 284453.89, 4158675.6 ], [ 284453.63, 4158675.43 ], [ 284453.39, 4158675.23 ] ] ], [ [ [ 284497.7, 4158725.28 ], [ 284497.29, 4158725.52 ], [ 284496.86, 4158725.72 ], [ 284496.41, 4158725.88 ], [ 284495.95, 4158726.0 ], [ 284495.48, 4158726.07 ], [ 284495.0, 4158726.1 ], [ 284494.53, 4158726.08 ], [ 284494.47, 4158726.07 ], [ 284493.57, 4158726.77 ], [ 284500.0, 4158734.86 ], [ 284500.0, 4158723.47 ], [ 284498.08, 4158725.0 ], [ 284497.7, 4158725.28 ] ] ], [ [ [ 284431.13, 4158744.11 ], [ 284431.22, 4158743.81 ], [ 284423.43, 4158750.0 ], [ 284426.04, 4158750.0 ], [ 284431.13, 4158745.95 ], [ 284431.13, 4158744.11 ] ] ] ] } }
]
}
