{
"type": "FeatureCollection",
"name": "roads",
"crs": { "type": "name", "properties": { "name": "urn:ogc:def:crs:EPSG::32618" } },
"xy_coordinate_resolution": 0.01,
"features": [
{ "type": "Feature", "properties": { "id": "osm:way/6037627", "name": "Woodbine Road", "highway": "residential", "lanes": null, "width": 7.0, "oneway": false, "surface": null, "footway": null, "sidewalk_left": null, "sidewalk_right": null, "generated_sidewalk": true, "bus_lanes": null, "bus_lane_side": null, "bus_only": false, "sidewalk": false, "bridge": false, "ramp": false, "tunnel": false, "layer": 0, "deck": null }, "geometry": { "type": "LineString", "coordinates": [ [ 280850.73, 4156000.0 ], [ 280853.05, 4156006.99 ], [ 280854.47, 4156016.65 ] ] } },
{ "type": "Feature", "properties": { "id": "osm:way/767120219", "name": null, "highway": "service", "lanes": null, "width": 4.5, "oneway": false, "surface": null, "footway": null, "sidewalk_left": false, "sidewalk_right": false, "generated_sidewalk": false, "bus_lanes": null, "bus_lane_side": null, "bus_only": false, "sidewalk": false, "bridge": false, "ramp": false, "tunnel": false, "layer": 0, "deck": null }, "geometry": { "type": "LineString", "coordinates": [ [ 280756.4, 4156000.0 ], [ 280770.03, 4156023.5 ], [ 280773.72, 4156031.79 ], [ 280774.26, 4156036.64 ], [ 280773.73, 4156040.6 ], [ 280772.23, 4156043.79 ], [ 280768.82, 4156046.25 ], [ 280750.0, 4156055.22 ] ] } },
{ "type": "Feature", "properties": { "id": "osm:way/854239141", "name": "Buttermilk Heights Trail", "highway": "path", "lanes": null, "width": 1.5, "oneway": false, "surface": "ground", "footway": null, "sidewalk_left": false, "sidewalk_right": false, "generated_sidewalk": false, "bus_lanes": null, "bus_lane_side": null, "bus_only": false, "sidewalk": false, "bridge": false, "ramp": false, "tunnel": false, "layer": 0, "deck": null }, "geometry": { "type": "MultiLineString", "coordinates": [ [ [ 280957.78, 4156000.0 ], [ 280959.33, 4156005.73 ], [ 280967.24, 4156023.97 ], [ 280982.39, 4156046.34 ], [ 280989.42, 4156062.75 ], [ 280991.22, 4156073.83 ], [ 280999.23, 4156083.18 ], [ 281000.0, 4156088.39 ] ], [ [ 281000.0, 4156093.76 ], [ 280991.25, 4156102.24 ], [ 280978.43, 4156105.85 ], [ 280958.09, 4156111.04 ], [ 280945.28, 4156118.59 ], [ 280939.47, 4156122.92 ], [ 280935.1, 4156127.97 ], [ 280929.73, 4156129.14 ], [ 280917.14, 4156127.99 ], [ 280898.57, 4156129.74 ], [ 280891.14, 4156133.12 ], [ 280887.38, 4156136.6 ], [ 280884.98, 4156143.49 ], [ 280882.57, 4156150.08 ], [ 280881.28, 4156154.8 ], [ 280876.31, 4156157.68 ], [ 280867.48, 4156162.79 ], [ 280845.34, 4156176.23 ], [ 280827.15, 4156188.72 ], [ 280818.08, 4156194.28 ], [ 280798.95, 4156198.96 ], [ 280787.21, 4156205.34 ], [ 280774.45, 4156210.2 ], [ 280750.0, 4156226.41 ] ] ] } },
{ "type": "Feature", "properties": { "id": "osm:way/6038161", "name": "Southcliff Road", "highway": "residential", "lanes": null, "width": 7.0, "oneway": false, "surface": null, "footway": null, "sidewalk_left": null, "sidewalk_right": false, "generated_sidewalk": true, "bus_lanes": null, "bus_lane_side": null, "bus_only": false, "sidewalk": false, "bridge": false, "ramp": false, "tunnel": false, "layer": 0, "deck": null }, "geometry": { "type": "LineString", "coordinates": [ [ 280750.0, 4156164.44 ], [ 280766.62, 4156194.57 ] ] } },
{ "type": "Feature", "properties": { "id": "osm:way/6040250", "name": "Riverside Drive", "highway": "tertiary", "lanes": null, "width": 8.0, "oneway": false, "surface": "paved", "footway": null, "sidewalk_left": null, "sidewalk_right": null, "generated_sidewalk": true, "bus_lanes": null, "bus_lane_side": null, "bus_only": false, "sidewalk": false, "bridge": false, "ramp": false, "tunnel": false, "layer": 0, "deck": null }, "geometry": { "type": "LineString", "coordinates": [ [ 280750.0, 4156208.08 ], [ 280766.62, 4156194.57 ], [ 280831.93, 4156165.94 ], [ 280854.15, 4156144.95 ], [ 280857.28, 4156119.92 ], [ 280867.71, 4156112.09 ], [ 280876.86, 4156108.79 ], [ 280887.61, 4156104.93 ], [ 280940.3, 4156105.91 ], [ 280972.65, 4156091.35 ], [ 280981.77, 4156077.41 ], [ 280979.75, 4156064.9 ], [ 280979.5, 4156063.3 ], [ 280941.72, 4156000.0 ] ] } },
{ "type": "Feature", "properties": { "id": "osm:way/688139726", "name": null, "highway": "service", "lanes": null, "width": 4.5, "oneway": false, "surface": null, "footway": null, "sidewalk_left": false, "sidewalk_right": false, "generated_sidewalk": false, "bus_lanes": null, "bus_lane_side": null, "bus_only": false, "sidewalk": false, "bridge": false, "ramp": false, "tunnel": false, "layer": 0, "deck": null }, "geometry": { "type": "LineString", "coordinates": [ [ 280854.47, 4156016.65 ], [ 280858.99, 4156025.67 ], [ 280860.81, 4156036.61 ], [ 280864.04, 4156054.37 ], [ 280869.49, 4156064.32 ], [ 280872.56, 4156075.76 ], [ 280876.86, 4156108.79 ] ] } },
{ "type": "Feature", "properties": { "id": "osm:way/339997440", "name": "JRPS Maintenance Access Trail", "highway": "service", "lanes": null, "width": 4.5, "oneway": false, "surface": "ground", "footway": null, "sidewalk_left": false, "sidewalk_right": false, "generated_sidewalk": false, "bus_lanes": null, "bus_lane_side": null, "bus_only": false, "sidewalk": false, "bridge": false, "ramp": false, "tunnel": false, "layer": 0, "deck": null }, "geometry": { "type": "LineString", "coordinates": [ [ 281000.0, 4156144.47 ], [ 280977.94, 4156150.39 ], [ 280957.07, 4156155.44 ], [ 280917.32, 4156172.54 ], [ 280903.41, 4156180.35 ], [ 280879.72, 4156195.14 ], [ 280863.87, 4156205.96 ], [ 280841.54, 4156222.61 ], [ 280822.0, 4156237.19 ], [ 280808.29, 4156247.94 ], [ 280805.7, 4156250.0 ] ] } }
]
}
