{
"type": "FeatureCollection",
"name": "roads",
"crs": { "type": "name", "properties": { "name": "urn:ogc:def:crs:EPSG::32618" } },
"xy_coordinate_resolution": 0.01,
"features": [
{ "type": "Feature", "properties": { "id": "osm:way/6035004", "name": "South Pine Street", "highway": "residential", "lanes": null, "width": 7.0, "oneway": true, "surface": "paved", "footway": null, "sidewalk_left": false, "sidewalk_right": false, "generated_sidewalk": true, "bus_lanes": null, "bus_lane_side": null, "bus_only": false, "sidewalk": false, "bridge": false, "ramp": false, "tunnel": false, "layer": 0, "deck": null }, "geometry": { "type": "LineString", "coordinates": [ [ 283509.96, 4157750.0 ], [ 283511.96, 4157795.01 ], [ 283512.51, 4157802.59 ] ] } },
{ "type": "Feature", "properties": { "id": "osm:way/823675178", "name": null, "highway": "footway", "lanes": null, "width": 2.0, "oneway": false, "surface": null, "footway": "sidewalk", "sidewalk_left": false, "sidewalk_right": false, "generated_sidewalk": false, "bus_lanes": null, "bus_lane_side": null, "bus_only": false, "sidewalk": false, "bridge": false, "ramp": false, "tunnel": false, "layer": 0, "deck": null }, "geometry": { "type": "LineString", "coordinates": [ [ 283517.06, 4157795.31 ], [ 283567.75, 4157793.36 ], [ 283594.39, 4157792.33 ], [ 283602.01, 4157792.03 ], [ 283603.76, 4157791.52 ], [ 283605.38, 4157790.78 ], [ 283606.33, 4157789.0 ], [ 283606.27, 4157786.6 ], [ 283604.7, 4157772.69 ], [ 283603.36, 4157757.08 ], [ 283603.04, 4157750.0 ] ] } },
{ "type": "Feature", "properties": { "id": "osm:way/268210777", "name": null, "highway": "service", "lanes": null, "width": 4.5, "oneway": false, "surface": null, "footway": null, "sidewalk_left": false, "sidewalk_right": false, "generated_sidewalk": false, "bus_lanes": null, "bus_lane_side": null, "bus_only": false, "sidewalk": false, "bridge": false, "ramp": false, "tunnel": false, "layer": 0, "deck": null }, "geometry": { "type": "LineString", "coordinates": [ [ 283566.13, 4157750.0 ], [ 283567.75, 4157793.36 ], [ 283567.93, 4157800.34 ] ] } },
{ "type": "Feature", "properties": { "id": "osm:way/823675177", "name": null, "highway": "footway", "lanes": null, "width": 2.0, "oneway": false, "surface": null, "footway": "sidewalk", "sidewalk_left": false, "sidewalk_right": false, "generated_sidewalk": false, "bus_lanes": null, "bus_lane_side": null, "bus_only": false, "sidewalk": false, "bridge": false, "ramp": false, "tunnel": false, "layer": 0, "deck": null }, "geometry": { "type": "LineString", "coordinates": [ [ 283515.34, 4157750.0 ], [ 283517.06, 4157795.31 ] ] } },
{ "type": "Feature", "properties": { "id": "osm:way/1193884349", "name": null, "highway": "footway", "lanes": null, "width": 2.0, "oneway": false, "surface": null, "footway": null, "sidewalk_left": false, "sidewalk_right": false, "generated_sidewalk": false, "bus_lanes": null, "bus_lane_side": null, "bus_only": false, "sidewalk": false, "bridge": false, "ramp": false, "tunnel": false, "layer": 0, "deck": null }, "geometry": { "type": "MultiLineString", "coordinates": [ [ [ 283594.39, 4157792.33 ], [ 283592.4, 4157771.09 ] ], [ [ 283592.4, 4157771.09 ], [ 283591.37, 4157761.74 ], [ 283590.68, 4157754.53 ], [ 283590.56, 4157750.0 ] ], [ [ 283572.93, 4157750.0 ], [ 283572.96, 4157753.34 ], [ 283574.0, 4157757.18 ], [ 283576.77, 4157761.26 ], [ 283579.93, 4157764.26 ], [ 283583.82, 4157767.37 ], [ 283588.71, 4157770.11 ], [ 283592.4, 4157771.09 ] ] ] } },
{ "type": "Feature", "properties": { "id": "osm:way/659449863", "name": "Idlewood Avenue", "highway": "secondary", "lanes": 3.0, "width": 9.9, "oneway": false, "surface": "asphalt", "footway": null, "sidewalk_left": null, "sidewalk_right": false, "generated_sidewalk": true, "bus_lanes": null, "bus_lane_side": null, "bus_only": false, "sidewalk": false, "bridge": false, "ramp": false, "tunnel": false, "layer": 0, "deck": null }, "geometry": { "type": "LineString", "coordinates": [ [ 283566.85, 4157800.38 ], [ 283567.93, 4157800.34 ], [ 283599.48, 4157798.97 ], [ 283607.11, 4157798.36 ], [ 283616.78, 4157797.46 ] ] } },
{ "type": "Feature", "properties": { "id": "osm:way/823675148", "name": null, "highway": "footway", "lanes": null, "width": 2.0, "oneway": false, "surface": "asphalt", "footway": "crossing", "sidewalk_left": false, "sidewalk_right": false, "generated_sidewalk": false, "bus_lanes": null, "bus_lane_side": null, "bus_only": false, "sidewalk": false, "bridge": false, "ramp": false, "tunnel": false, "layer": 0, "deck": null }, "geometry": { "type": "LineString", "coordinates": [ [ 283518.46, 4157811.51 ], [ 283517.68, 4157802.39 ], [ 283517.06, 4157795.31 ] ] } },
{ "type": "Feature", "properties": { "id": "osm:way/553163569", "name": "Idlewood Avenue", "highway": "secondary", "lanes": 2.0, "width": 9.5, "oneway": false, "surface": null, "footway": null, "sidewalk_left": null, "sidewalk_right": false, "generated_sidewalk": true, "bus_lanes": null, "bus_lane_side": null, "bus_only": false, "sidewalk": false, "bridge": false, "ramp": false, "tunnel": false, "layer": 0, "deck": null }, "geometry": { "type": "LineString", "coordinates": [ [ 283500.0, 4157803.08 ], [ 283505.5, 4157802.86 ], [ 283512.51, 4157802.59 ], [ 283517.68, 4157802.39 ], [ 283566.85, 4157800.38 ] ] } },
{ "type": "Feature", "properties": { "id": "osm:way/38335250", "name": null, "highway": "motorway_link", "lanes": null, "width": 6.0, "oneway": true, "surface": null, "footway": null, "sidewalk_left": false, "sidewalk_right": false, "generated_sidewalk": false, "bus_lanes": null, "bus_lane_side": null, "bus_only": false, "sidewalk": false, "bridge": false, "ramp": false, "tunnel": false, "layer": 0, "deck": null }, "geometry": { "type": "LineString", "coordinates": [ [ 283500.0, 4157890.93 ], [ 283526.12, 4157882.88 ], [ 283553.79, 4157872.76 ], [ 283589.78, 4157857.64 ], [ 283620.66, 4157843.09 ], [ 283652.03, 4157826.23 ], [ 283687.03, 4157803.62 ], [ 283710.76, 4157786.39 ], [ 283729.3, 4157770.79 ], [ 283746.62, 4157753.8 ], [ 283750.0, 4157750.23 ] ] } },
{ "type": "Feature", "properties": { "id": "osm:way/823675180", "name": null, "highway": "footway", "lanes": null, "width": 2.0, "oneway": false, "surface": null, "footway": "sidewalk", "sidewalk_left": false, "sidewalk_right": false, "generated_sidewalk": false, "bus_lanes": null, "bus_lane_side": null, "bus_only": false, "sidewalk": false, "bridge": false, "ramp": false, "tunnel": false, "layer": 0, "deck": null }, "geometry": { "type": "LineString", "coordinates": [ [ 283518.46, 4157811.51 ], [ 283567.26, 4157809.94 ], [ 283584.33, 4157809.71 ] ] } },
{ "type": "Feature", "properties": { "id": "osm:way/823675206", "name": null, "highway": "footway", "lanes": null, "width": 2.0, "oneway": false, "surface": null, "footway": "sidewalk", "sidewalk_left": false, "sidewalk_right": false, "generated_sidewalk": false, "bus_lanes": null, "bus_lane_side": null, "bus_only": false, "sidewalk": false, "bridge": false, "ramp": false, "tunnel": false, "layer": 0, "deck": null }, "geometry": { "type": "LineString", "coordinates": [ [ 283635.76, 4157750.0 ], [ 283635.77, 4157750.23 ], [ 283636.6, 4157756.56 ], [ 283639.49, 4157773.64 ], [ 283640.79, 4157782.5 ], [ 283642.47, 4157784.12 ], [ 283644.47, 4157785.54 ], [ 283647.06, 4157786.77 ], [ 283649.71, 4157787.33 ], [ 283652.24, 4157787.45 ], [ 283654.17, 4157786.76 ], [ 283661.38, 4157782.71 ], [ 283666.98, 4157779.47 ], [ 283677.9, 4157774.71 ], [ 283685.97, 4157770.98 ], [ 283690.61, 4157767.9 ], [ 283694.15, 4157763.88 ], [ 283696.17, 4157760.26 ], [ 283697.32, 4157756.61 ], [ 283697.94, 4157752.6 ], [ 283698.01, 4157750.0 ] ] } },
{ "type": "Feature", "properties": { "id": "osm:way/38335245", "name": "Downtown Expressway", "highway": "motorway", "lanes": 2.0, "width": 14.0, "oneway": true, "surface": "asphalt", "footway": null, "sidewalk_left": false, "sidewalk_right": false, "generated_sidewalk": false, "bus_lanes": null, "bus_lane_side": null, "bus_only": false, "sidewalk": false, "bridge": false, "ramp": false, "tunnel": false, "layer": 0, "deck": null }, "geometry": { "type": "LineString", "coordinates": [ [ 283592.26, 4157871.69 ], [ 283624.71, 4157859.5 ], [ 283653.25, 4157846.02 ], [ 283688.37, 4157827.13 ], [ 283722.41, 4157804.31 ], [ 283750.0, 4157783.84 ] ] } },
{ "type": "Feature", "properties": { "id": "osm:way/37961323", "name": "Downtown Expressway", "highway": "motorway", "lanes": 2.0, "width": 14.0, "oneway": true, "surface": "asphalt", "footway": null, "sidewalk_left": false, "sidewalk_right": false, "generated_sidewalk": false, "bus_lanes": null, "bus_lane_side": null, "bus_only": false, "sidewalk": false, "bridge": false, "ramp": false, "tunnel": false, "layer": 0, "deck": null }, "geometry": { "type": "LineString", "coordinates": [ [ 283750.0, 4157808.71 ], [ 283734.51, 4157820.44 ], [ 283700.21, 4157844.01 ], [ 283656.15, 4157866.77 ] ] } },
{ "type": "Feature", "properties": { "id": "osm:way/659449858", "name": "East Byrd Street", "highway": "secondary", "lanes": 3.0, "width": 9.9, "oneway": true, "surface": null, "footway": null, "sidewalk_left": null, "sidewalk_right": false, "generated_sidewalk": true, "bus_lanes": null, "bus_lane_side": null, "bus_only": false, "sidewalk": false, "bridge": false, "ramp": false, "tunnel": false, "layer": 0, "deck": null }, "geometry": { "type": "LineString", "coordinates": [ [ 283701.4, 4157773.18 ], [ 283715.1, 4157764.02 ], [ 283729.09, 4157753.9 ], [ 283733.89, 4157750.0 ] ] } },
{ "type": "Feature", "properties": { "id": "osm:way/321384774", "name": null, "highway": "service", "lanes": null, "width": 4.5, "oneway": true, "surface": null, "footway": null, "sidewalk_left": false, "sidewalk_right": false, "generated_sidewalk": false, "bus_lanes": null, "bus_lane_side": null, "bus_only": false, "sidewalk": false, "bridge": false, "ramp": false, "tunnel": false, "layer": 0, "deck": null }, "geometry": { "type": "LineString", "coordinates": [ [ 283714.11, 4157750.0 ], [ 283714.31, 4157750.32 ], [ 283718.83, 4157752.92 ], [ 283729.09, 4157753.9 ] ] } },
{ "type": "Feature", "properties": { "id": "osm:way/330588027", "name": null, "highway": "service", "lanes": null, "width": 4.5, "oneway": true, "surface": null, "footway": null, "sidewalk_left": false, "sidewalk_right": false, "generated_sidewalk": false, "bus_lanes": null, "bus_lane_side": null, "bus_only": false, "sidewalk": false, "bridge": false, "ramp": false, "tunnel": false, "layer": 0, "deck": null }, "geometry": { "type": "LineString", "coordinates": [ [ 283675.61, 4157750.0 ], [ 283675.88, 4157756.4 ], [ 283676.0, 4157759.48 ], [ 283650.23, 4157760.48 ], [ 283649.93, 4157750.0 ] ] } },
{ "type": "Feature", "properties": { "id": "osm:way/1194172047", "name": null, "highway": "footway", "lanes": null, "width": 2.0, "oneway": false, "surface": null, "footway": null, "sidewalk_left": false, "sidewalk_right": false, "generated_sidewalk": false, "bus_lanes": null, "bus_lane_side": null, "bus_only": false, "sidewalk": false, "bridge": false, "ramp": false, "tunnel": false, "layer": 0, "deck": null }, "geometry": { "type": "LineString", "coordinates": [ [ 283681.06, 4157750.0 ], [ 283681.07, 4157756.37 ], [ 283675.88, 4157756.4 ] ] } },
{ "type": "Feature", "properties": { "id": "osm:way/321384756", "name": null, "highway": "service", "lanes": null, "width": 4.5, "oneway": true, "surface": null, "footway": null, "sidewalk_left": false, "sidewalk_right": false, "generated_sidewalk": false, "bus_lanes": null, "bus_lane_side": null, "bus_only": false, "sidewalk": false, "bridge": false, "ramp": false, "tunnel": false, "layer": 0, "deck": null }, "geometry": { "type": "LineString", "coordinates": [ [ 283701.4, 4157773.18 ], [ 283702.48, 4157755.05 ], [ 283702.36, 4157750.0 ] ] } },
{ "type": "Feature", "properties": { "id": "osm:way/659449859", "name": "East Byrd Street", "highway": "secondary", "lanes": 4.0, "width": 13.2, "oneway": true, "surface": null, "footway": null, "sidewalk_left": null, "sidewalk_right": false, "generated_sidewalk": true, "bus_lanes": null, "bus_lane_side": null, "bus_only": false, "sidewalk": false, "bridge": false, "ramp": false, "tunnel": false, "layer": 0, "deck": null }, "geometry": { "type": "LineString", "coordinates": [ [ 283657.12, 4157793.0 ], [ 283667.65, 4157790.13 ], [ 283676.1, 4157786.92 ], [ 283681.87, 4157784.44 ], [ 283688.88, 4157780.96 ], [ 283699.16, 4157774.69 ], [ 283701.4, 4157773.18 ] ] } },
{ "type": "Feature", "properties": { "id": "osm:way/659449860", "name": "East Byrd Street", "highway": "secondary", "lanes": 3.0, "width": 9.9, "oneway": true, "surface": null, "footway": null, "sidewalk_left": null, "sidewalk_right": false, "generated_sidewalk": true, "bus_lanes": null, "bus_lane_side": null, "bus_only": false, "sidewalk": false, "bridge": false, "ramp": false, "tunnel": false, "layer": 0, "deck": null }, "geometry": { "type": "LineString", "coordinates": [ [ 283632.06, 4157796.14 ], [ 283639.39, 4157795.51 ], [ 283649.79, 4157794.62 ], [ 283657.12, 4157793.0 ] ] } },
{ "type": "Feature", "properties": { "id": "osm:way/37961358", "name": "South Belvidere Street", "highway": "primary", "lanes": 3.0, "width": 11.0, "oneway": true, "surface": "asphalt", "footway": null, "sidewalk_left": false, "sidewalk_right": false, "generated_sidewalk": true, "bus_lanes": null, "bus_lane_side": null, "bus_only": false, "sidewalk": false, "bridge": false, "ramp": false, "tunnel": false, "layer": 0, "deck": null }, "geometry": { "type": "LineString", "coordinates": [ [ 283616.78, 4157797.46 ], [ 283615.35, 4157789.11 ], [ 283613.27, 4157750.0 ] ] } },
{ "type": "Feature", "properties": { "id": "osm:way/659449861", "name": "South Belvidere Street", "highway": "primary", "lanes": 4.0, "width": 13.2, "oneway": true, "surface": "asphalt", "footway": null, "sidewalk_left": false, "sidewalk_right": false, "generated_sidewalk": true, "bus_lanes": null, "bus_lane_side": null, "bus_only": false, "sidewalk": false, "bridge": false, "ramp": false, "tunnel": false, "layer": 0, "deck": null }, "geometry": { "type": "LineString", "coordinates": [ [ 283629.23, 4157750.0 ], [ 283631.12, 4157780.98 ], [ 283631.36, 4157784.95 ], [ 283632.06, 4157796.14 ] ] } },
{ "type": "Feature", "properties": { "id": "osm:way/823675209", "name": null, "highway": "footway", "lanes": null, "width": 2.0, "oneway": false, "surface": "asphalt", "footway": "crossing", "sidewalk_left": false, "sidewalk_right": false, "generated_sidewalk": false, "bus_lanes": null, "bus_lane_side": null, "bus_only": false, "sidewalk": false, "bridge": false, "ramp": false, "tunnel": false, "layer": 0, "deck": null }, "geometry": { "type": "LineString", "coordinates": [ [ 283640.79, 4157782.5 ], [ 283631.36, 4157784.95 ], [ 283615.35, 4157789.11 ], [ 283610.61, 4157790.33 ], [ 283605.38, 4157790.78 ] ] } },
{ "type": "Feature", "properties": { "id": "osm:way/1193884363", "name": null, "highway": "footway", "lanes": null, "width": 2.0, "oneway": false, "surface": "asphalt", "footway": "crossing", "sidewalk_left": false, "sidewalk_right": false, "generated_sidewalk": false, "bus_lanes": null, "bus_lane_side": null, "bus_only": false, "sidewalk": false, "bridge": false, "ramp": false, "tunnel": false, "layer": 0, "deck": null }, "geometry": { "type": "LineString", "coordinates": [ [ 283638.57, 4157804.51 ], [ 283639.39, 4157795.51 ], [ 283640.79, 4157782.5 ] ] } },
{ "type": "Feature", "properties": { "id": "osm:way/1175027865", "name": "Idlewood Avenue", "highway": "secondary", "lanes": 3.0, "width": 9.9, "oneway": false, "surface": "asphalt", "footway": null, "sidewalk_left": null, "sidewalk_right": null, "generated_sidewalk": true, "bus_lanes": null, "bus_lane_side": null, "bus_only": false, "sidewalk": false, "bridge": false, "ramp": false, "tunnel": false, "layer": 0, "deck": null }, "geometry": { "type": "LineString", "coordinates": [ [ 283616.78, 4157797.46 ], [ 283632.06, 4157796.14 ] ] } },
{ "type": "Feature", "properties": { "id": "osm:way/1193884361", "name": null, "highway": "footway", "lanes": null, "width": 2.0, "oneway": false, "surface": "asphalt", "footway": "crossing", "sidewalk_left": false, "sidewalk_right": false, "generated_sidewalk": false, "bus_lanes": null, "bus_lane_side": null, "bus_only": false, "sidewalk": false, "bridge": false, "ramp": false, "tunnel": false, "layer": 0, "deck": null }, "geometry": { "type": "LineString", "coordinates": [ [ 283605.38, 4157790.78 ], [ 283607.11, 4157798.36 ], [ 283609.27, 4157807.82 ] ] } },
{ "type": "Feature", "properties": { "id": "osm:way/37961356", "name": "South Belvidere Street", "highway": "primary", "lanes": 3.0, "width": 11.0, "oneway": true, "surface": "asphalt", "footway": null, "sidewalk_left": null, "sidewalk_right": false, "generated_sidewalk": true, "bus_lanes": null, "bus_lane_side": null, "bus_only": false, "sidewalk": false, "bridge": false, "ramp": true, "tunnel": false, "layer": 0, "deck": [ 283632.06, 4157796.14, 49.13, 283633.46, 4157815.01, 49.06 ] }, "geometry": { "type": "LineString", "coordinates": [ [ 283632.06, 4157796.14 ], [ 283632.72, 4157805.17 ], [ 283633.46, 4157815.01 ] ] } },
{ "type": "Feature", "properties": { "id": "osm:way/1193884362", "name": null, "highway": "footway", "lanes": null, "width": 2.0, "oneway": false, "surface": "asphalt", "footway": "crossing", "sidewalk_left": false, "sidewalk_right": false, "generated_sidewalk": false, "bus_lanes": null, "bus_lane_side": null, "bus_only": false, "sidewalk": false, "bridge": false, "ramp": false, "tunnel": false, "layer": 0, "deck": null }, "geometry": { "type": "LineString", "coordinates": [ [ 283609.27, 4157807.82 ], [ 283618.47, 4157806.78 ], [ 283632.72, 4157805.17 ], [ 283638.57, 4157804.51 ] ] } },
{ "type": "Feature", "properties": { "id": "osm:way/823675213", "name": null, "highway": "footway", "lanes": null, "width": 2.0, "oneway": false, "surface": null, "footway": "sidewalk", "sidewalk_left": false, "sidewalk_right": false, "generated_sidewalk": false, "bus_lanes": null, "bus_lane_side": null, "bus_only": false, "sidewalk": false, "bridge": false, "ramp": true, "tunnel": false, "layer": 0, "deck": [ 283638.57, 4157804.51, 49.0, 283639.13, 4157812.61, 49.0 ] }, "geometry": { "type": "LineString", "coordinates": [ [ 283638.57, 4157804.51 ], [ 283638.97, 4157806.42 ], [ 283638.95, 4157810.3 ], [ 283639.13, 4157812.61 ] ] } },
{ "type": "Feature", "properties": { "id": "osm:way/553163562", "name": "South Belvidere Street", "highway": "primary", "lanes": 4.0, "width": 13.2, "oneway": true, "surface": "asphalt", "footway": null, "sidewalk_left": null, "sidewalk_right": false, "generated_sidewalk": true, "bus_lanes": null, "bus_lane_side": null, "bus_only": false, "sidewalk": false, "bridge": false, "ramp": true, "tunnel": false, "layer": 0, "deck": [ 283619.56, 4157822.1, 49.03, 283616.78, 4157797.46, 49.21 ] }, "geometry": { "type": "LineString", "coordinates": [ [ 283619.56, 4157822.1 ], [ 283618.73, 4157811.86 ], [ 283618.47, 4157806.78 ], [ 283616.78, 4157797.46 ] ] } },
{ "type": "Feature", "properties": { "id": "osm:way/6036588", "name": "West Canal Street", "highway": "secondary", "lanes": 2.0, "width": 9.5, "oneway": true, "surface": "asphalt", "footway": null, "sidewalk_left": null, "sidewalk_right": false, "generated_sidewalk": true, "bus_lanes": null, "bus_lane_side": null, "bus_only": false, "sidewalk": false, "bridge": false, "ramp": false, "tunnel": false, "layer": 0, "deck": null }, "geometry": { "type": "LineString", "coordinates": [ [ 283750.0, 4157855.77 ], [ 283745.56, 4157859.52 ], [ 283729.76, 4157872.24 ] ] } },
{ "type": "Feature", "properties": { "id": "osm:way/823675214", "name": null, "highway": "footway", "lanes": null, "width": 2.0, "oneway": false, "surface": null, "footway": "sidewalk", "sidewalk_left": false, "sidewalk_right": false, "generated_sidewalk": false, "bus_lanes": null, "bus_lane_side": null, "bus_only": false, "sidewalk": false, "bridge": true, "ramp": false, "tunnel": false, "layer": 1, "deck": [ 283639.1, 4157812.6, 49.0, 283647.5, 4157900.4, 44.44 ] }, "geometry": { "type": "LineString", "coordinates": [ [ 283639.13, 4157812.61 ], [ 283647.51, 4157900.42 ] ] } },
{ "type": "Feature", "properties": { "id": "osm:way/659449842", "name": null, "highway": "motorway_link", "lanes": 1.0, "width": 6.0, "oneway": true, "surface": null, "footway": null, "sidewalk_left": false, "sidewalk_right": false, "generated_sidewalk": false, "bus_lanes": null, "bus_lane_side": null, "bus_only": false, "sidewalk": false, "bridge": false, "ramp": false, "tunnel": false, "layer": 0, "deck": null }, "geometry": { "type": "LineString", "coordinates": [ [ 283750.0, 4157836.98 ], [ 283698.37, 4157860.41 ], [ 283652.19, 4157877.68 ], [ 283608.93, 4157893.38 ], [ 283586.59, 4157896.29 ] ] } },
{ "type": "Feature", "properties": { "id": "osm:way/967437118", "name": null, "highway": "footway", "lanes": null, "width": 2.0, "oneway": false, "surface": "asphalt", "footway": "crossing", "sidewalk_left": false, "sidewalk_right": false, "generated_sidewalk": false, "bus_lanes": null, "bus_lane_side": null, "bus_only": false, "sidewalk": false, "bridge": false, "ramp": false, "tunnel": false, "layer": 0, "deck": null }, "geometry": { "type": "LineString", "coordinates": [ [ 283744.92, 4157868.77 ], [ 283749.91, 4157865.0 ], [ 283750.0, 4157864.93 ] ] } },
{ "type": "Feature", "properties": { "id": "osm:way/659449851", "name": "West Canal Street", "highway": "secondary", "lanes": 3.0, "width": 9.9, "oneway": true, "surface": "asphalt", "footway": null, "sidewalk_left": null, "sidewalk_right": false, "generated_sidewalk": true, "bus_lanes": null, "bus_lane_side": null, "bus_only": false, "sidewalk": false, "bridge": false, "ramp": false, "tunnel": false, "layer": 0, "deck": null }, "geometry": { "type": "LineString", "coordinates": [ [ 283729.76, 4157872.24 ], [ 283707.81, 4157889.98 ] ] } },
{ "type": "Feature", "properties": { "id": "osm:way/823415253", "name": null, "highway": "footway", "lanes": null, "width": 2.0, "oneway": false, "surface": null, "footway": "sidewalk", "sidewalk_left": false, "sidewalk_right": false, "generated_sidewalk": false, "bus_lanes": null, "bus_lane_side": null, "bus_only": false, "sidewalk": false, "bridge": false, "ramp": false, "tunnel": false, "layer": 0, "deck": null }, "geometry": { "type": "LineString", "coordinates": [ [ 283750.0, 4157872.95 ], [ 283747.01, 4157869.29 ], [ 283744.92, 4157868.77 ], [ 283743.03, 4157869.31 ], [ 283740.84, 4157871.1 ], [ 283737.56, 4157873.73 ], [ 283732.69, 4157877.92 ], [ 283713.63, 4157893.51 ] ] } },
{ "type": "Feature", "properties": { "id": "osm:way/38230980", "name": "West Canal Street", "highway": "secondary", "lanes": 3.0, "width": 9.9, "oneway": true, "surface": null, "footway": null, "sidewalk_left": null, "sidewalk_right": false, "generated_sidewalk": true, "bus_lanes": null, "bus_lane_side": null, "bus_only": false, "sidewalk": false, "bridge": true, "ramp": false, "tunnel": false, "layer": 1, "deck": [ 283707.8, 4157890.0, 43.93, 283678.6, 4157914.2, 46.64 ] }, "geometry": { "type": "LineString", "coordinates": [ [ 283707.81, 4157889.98 ], [ 283678.56, 4157914.16 ] ] } },
{ "type": "Feature", "properties": { "id": "osm:way/823415254", "name": null, "highway": "footway", "lanes": null, "width": 2.0, "oneway": false, "surface": null, "footway": "sidewalk", "sidewalk_left": false, "sidewalk_right": false, "generated_sidewalk": false, "bus_lanes": null, "bus_lane_side": null, "bus_only": false, "sidewalk": false, "bridge": true, "ramp": false, "tunnel": false, "layer": 1, "deck": [ 283713.6, 4157893.5, 43.8, 283684.8, 4157917.0, 46.67 ] }, "geometry": { "type": "LineString", "coordinates": [ [ 283713.63, 4157893.51 ], [ 283684.77, 4157917.0 ] ] } },
{ "type": "Feature", "properties": { "id": "osm:way/823675215", "name": null, "highway": "footway", "lanes": null, "width": 2.0, "oneway": false, "surface": null, "footway": "sidewalk", "sidewalk_left": false, "sidewalk_right": false, "generated_sidewalk": false, "bus_lanes": null, "bus_lane_side": null, "bus_only": false, "sidewalk": false, "bridge": false, "ramp": true, "tunnel": false, "layer": 0, "deck": [ 283647.51, 4157900.42, 44.44, 283649.88, 4157922.13, 47.61 ] }, "geometry": { "type": "LineString", "coordinates": [ [ 283647.51, 4157900.42 ], [ 283649.88, 4157922.13 ] ] } },
{ "type": "Feature", "properties": { "id": "osm:way/659449844", "name": "South Belvidere Street", "highway": "primary", "lanes": 4.0, "width": 13.2, "oneway": true, "surface": "asphalt", "footway": null, "sidewalk_left": null, "sidewalk_right": false, "generated_sidewalk": true, "bus_lanes": null, "bus_lane_side": null, "bus_only": false, "sidewalk": false, "bridge": false, "ramp": true, "tunnel": false, "layer": 0, "deck": [ 283640.74, 4157902.68, 47.93, 283643.39, 4157936.89, 47.68 ] }, "geometry": { "type": "LineString", "coordinates": [ [ 283640.74, 4157902.68 ], [ 283642.15, 4157917.8 ], [ 283642.68, 4157926.0 ], [ 283643.39, 4157936.89 ] ] } },
{ "type": "Feature", "properties": { "id": "osm:way/823675210", "name": null, "highway": "footway", "lanes": null, "width": 2.0, "oneway": false, "surface": "concrete", "footway": "sidewalk", "sidewalk_left": false, "sidewalk_right": false, "generated_sidewalk": false, "bus_lanes": null, "bus_lane_side": null, "bus_only": false, "sidewalk": false, "bridge": false, "ramp": true, "tunnel": false, "layer": 0, "deck": [ 283609.27, 4157807.82, 49.09, 283611.4, 4157826.49, 49.1 ] }, "geometry": { "type": "LineString", "coordinates": [ [ 283609.27, 4157807.82 ], [ 283611.4, 4157826.49 ] ] } },
{ "type": "Feature", "properties": { "id": "osm:way/659449862", "name": "South Belvidere Street", "highway": "primary", "lanes": 4.0, "width": 13.2, "oneway": true, "surface": "paved", "footway": null, "sidewalk_left": null, "sidewalk_right": false, "generated_sidewalk": true, "bus_lanes": null, "bus_lane_side": null, "bus_only": false, "sidewalk": false, "bridge": true, "ramp": false, "tunnel": false, "layer": 1, "deck": [ 283622.0, 4157854.0, 48.54, 283619.6, 4157822.1, 49.03 ] }, "geometry": { "type": "LineString", "coordinates": [ [ 283622.0, 4157854.02 ], [ 283619.56, 4157822.1 ] ] } },
{ "type": "Feature", "properties": { "id": "osm:way/553163560", "name": "South Belvidere Street", "highway": "primary", "lanes": 3.0, "width": 11.0, "oneway": true, "surface": "concrete", "footway": null, "sidewalk_left": null, "sidewalk_right": false, "generated_sidewalk": true, "bus_lanes": null, "bus_lane_side": null, "bus_only": false, "sidewalk": false, "bridge": true, "ramp": false, "tunnel": false, "layer": 1, "deck": [ 283633.5, 4157815.0, 49.06, 283639.0, 4157879.0, 48.24 ] }, "geometry": { "type": "LineString", "coordinates": [ [ 283633.46, 4157815.01 ], [ 283639.02, 4157878.97 ] ] } },
{ "type": "Feature", "properties": { "id": "osm:way/823675212", "name": null, "highway": "footway", "lanes": null, "width": 2.0, "oneway": false, "surface": null, "footway": "sidewalk", "sidewalk_left": false, "sidewalk_right": false, "generated_sidewalk": false, "bus_lanes": null, "bus_lane_side": null, "bus_only": false, "sidewalk": false, "bridge": true, "ramp": false, "tunnel": false, "layer": 1, "deck": [ 283611.4, 4157826.5, 49.1, 283619.2, 4157907.4, 48.14 ] }, "geometry": { "type": "LineString", "coordinates": [ [ 283611.4, 4157826.49 ], [ 283619.22, 4157907.42 ] ] } },
{ "type": "Feature", "properties": { "id": "osm:way/37961359", "name": "South Belvidere Street", "highway": "primary", "lanes": 3.0, "width": 11.0, "oneway": true, "surface": "concrete", "footway": null, "sidewalk_left": null, "sidewalk_right": false, "generated_sidewalk": true, "bus_lanes": null, "bus_lane_side": null, "bus_only": false, "sidewalk": false, "bridge": true, "ramp": false, "tunnel": false, "layer": 1, "deck": [ 283627.1, 4157906.5, 47.75, 283622.0, 4157854.0, 48.54 ] }, "geometry": { "type": "LineString", "coordinates": [ [ 283627.12, 4157906.51 ], [ 283622.0, 4157854.02 ] ] } },
{ "type": "Feature", "properties": { "id": "osm:way/659449841", "name": "Downtown Expressway", "highway": "motorway", "lanes": 2.0, "width": 14.0, "oneway": true, "surface": "asphalt", "footway": null, "sidewalk_left": false, "sidewalk_right": false, "generated_sidewalk": false, "bus_lanes": null, "bus_lane_side": null, "bus_only": false, "sidewalk": false, "bridge": false, "ramp": false, "tunnel": false, "layer": 0, "deck": null }, "geometry": { "type": "LineString", "coordinates": [ [ 283656.15, 4157866.77 ], [ 283610.26, 4157886.33 ], [ 283586.59, 4157896.29 ] ] } },
{ "type": "Feature", "properties": { "id": "osm:way/659449843", "name": "South Belvidere Street", "highway": "primary", "lanes": 4.0, "width": 13.2, "oneway": true, "surface": "concrete", "footway": null, "sidewalk_left": null, "sidewalk_right": false, "generated_sidewalk": true, "bus_lanes": null, "bus_lane_side": null, "bus_only": false, "sidewalk": false, "bridge": true, "ramp": false, "tunnel": false, "layer": 1, "deck": [ 283639.0, 4157879.0, 48.24, 283640.7, 4157902.7, 47.93 ] }, "geometry": { "type": "LineString", "coordinates": [ [ 283639.02, 4157878.97 ], [ 283640.74, 4157902.68 ] ] } },
{ "type": "Feature", "properties": { "id": "osm:way/6032120", "name": null, "highway": "motorway_link", "lanes": 1.0, "width": 6.0, "oneway": true, "surface": null, "footway": null, "sidewalk_left": false, "sidewalk_right": false, "generated_sidewalk": false, "bus_lanes": null, "bus_lane_side": null, "bus_only": false, "sidewalk": false, "bridge": false, "ramp": false, "tunnel": false, "layer": 0, "deck": null }, "geometry": { "type": "LineString", "coordinates": [ [ 283730.35, 4157926.74 ], [ 283718.29, 4157912.83 ], [ 283713.41, 4157907.28 ], [ 283704.29, 4157901.12 ], [ 283692.27, 4157896.24 ], [ 283678.42, 4157892.88 ], [ 283664.81, 4157891.1 ], [ 283649.61, 4157890.99 ], [ 283612.21, 4157901.29 ], [ 283585.56, 4157908.75 ], [ 283562.83, 4157914.0 ], [ 283544.69, 4157917.17 ], [ 283523.13, 4157917.06 ] ] } },
{ "type": "Feature", "properties": { "id": "osm:way/823675211", "name": null, "highway": "footway", "lanes": null, "width": 2.0, "oneway": false, "surface": null, "footway": "sidewalk", "sidewalk_left": false, "sidewalk_right": false, "generated_sidewalk": false, "bus_lanes": null, "bus_lane_side": null, "bus_only": false, "sidewalk": false, "bridge": false, "ramp": true, "tunnel": false, "layer": 0, "deck": [ 283620.6, 4157939.01, 47.69, 283619.22, 4157907.42, 48.14 ] }, "geometry": { "type": "LineString", "coordinates": [ [ 283620.6, 4157939.01 ], [ 283621.35, 4157937.35 ], [ 283619.22, 4157907.42 ] ] } },
{ "type": "Feature", "properties": { "id": "osm:way/1194172043", "name": null, "highway": "footway", "lanes": null, "width": 2.0, "oneway": false, "surface": null, "footway": "crossing", "sidewalk_left": false, "sidewalk_right": false, "generated_sidewalk": false, "bus_lanes": null, "bus_lane_side": null, "bus_only": false, "sidewalk": false, "bridge": false, "ramp": false, "tunnel": false, "layer": 0, "deck": null }, "geometry": { "type": "LineString", "coordinates": [ [ 283621.35, 4157937.35 ], [ 283629.34, 4157933.09 ], [ 283642.68, 4157926.0 ], [ 283649.88, 4157922.13 ] ] } },
{ "type": "Feature", "properties": { "id": "osm:way/823675147", "name": null, "highway": "footway", "lanes": null, "width": 2.0, "oneway": false, "surface": "asphalt", "footway": "crossing", "sidewalk_left": false, "sidewalk_right": false, "generated_sidewalk": false, "bus_lanes": null, "bus_lane_side": null, "bus_only": false, "sidewalk": false, "bridge": false, "ramp": false, "tunnel": false, "layer": 0, "deck": null }, "geometry": { "type": "LineString", "coordinates": [ [ 283505.7, 4157812.11 ], [ 283513.26, 4157811.76 ], [ 283518.46, 4157811.51 ] ] } },
{ "type": "Feature", "properties": { "id": "osm:way/823675144", "name": null, "highway": "footway", "lanes": null, "width": 2.0, "oneway": false, "surface": null, "footway": "sidewalk", "sidewalk_left": false, "sidewalk_right": false, "generated_sidewalk": false, "bus_lanes": null, "bus_lane_side": null, "bus_only": false, "sidewalk": false, "bridge": false, "ramp": false, "tunnel": false, "layer": 0, "deck": null }, "geometry": { "type": "LineString", "coordinates": [ [ 283500.0, 4157812.25 ], [ 283505.7, 4157812.11 ] ] } },
{ "type": "Feature", "properties": { "id": "osm:way/268210778", "name": null, "highway": "service", "lanes": null, "width": 4.5, "oneway": false, "surface": null, "footway": null, "sidewalk_left": false, "sidewalk_right": false, "generated_sidewalk": false, "bus_lanes": null, "bus_lane_side": null, "bus_only": false, "sidewalk": false, "bridge": false, "ramp": false, "tunnel": false, "layer": 0, "deck": null }, "geometry": { "type": "LineString", "coordinates": [ [ 283566.85, 4157800.38 ], [ 283567.26, 4157809.94 ], [ 283569.36, 4157837.43 ] ] } },
{ "type": "Feature", "properties": { "id": "osm:way/41384066", "name": "South Pine Street", "highway": "residential", "lanes": null, "width": 7.0, "oneway": false, "surface": null, "footway": null, "sidewalk_left": null, "sidewalk_right": false, "generated_sidewalk": true, "bus_lanes": null, "bus_lane_side": null, "bus_only": false, "sidewalk": false, "bridge": false, "ramp": false, "tunnel": false, "layer": 0, "deck": null }, "geometry": { "type": "LineString", "coordinates": [ [ 283512.51, 4157802.59 ], [ 283513.26, 4157811.76 ], [ 283515.12, 4157855.37 ] ] } },
{ "type": "Feature", "properties": { "id": "osm:way/823675179", "name": null, "highway": "footway", "lanes": null, "width": 2.0, "oneway": false, "surface": null, "footway": "sidewalk", "sidewalk_left": false, "sidewalk_right": false, "generated_sidewalk": false, "bus_lanes": null, "bus_lane_side": null, "bus_only": false, "sidewalk": false, "bridge": false, "ramp": false, "tunnel": false, "layer": 0, "deck": null }, "geometry": { "type": "LineString", "coordinates": [ [ 283518.46, 4157811.51 ], [ 283519.96, 4157848.59 ] ] } },
{ "type": "Feature", "properties": { "id": "osm:way/749744519", "name": null, "highway": "service", "lanes": null, "width": 4.5, "oneway": false, "surface": null, "footway": null, "sidewalk_left": false, "sidewalk_right": false, "generated_sidewalk": false, "bus_lanes": null, "bus_lane_side": null, "bus_only": false, "sidewalk": false, "bridge": false, "ramp": false, "tunnel": false, "layer": 0, "deck": null }, "geometry": { "type": "LineString", "coordinates": [ [ 283500.0, 4157859.0 ], [ 283515.12, 4157855.37 ] ] } },
{ "type": "Feature", "properties": { "id": "osm:way/659449847", "name": "Downtown Expressway", "highway": "motorway", "lanes": 2.0, "width": 14.0, "oneway": true, "surface": "asphalt", "footway": null, "sidewalk_left": false, "sidewalk_right": false, "generated_sidewalk": false, "bus_lanes": null, "bus_lane_side": null, "bus_only": false, "sidewalk": false, "bridge": false, "ramp": false, "tunnel": false, "layer": 0, "deck": null }, "geometry": { "type": "LineString", "coordinates": [ [ 283500.0, 4157896.08 ], [ 283518.8, 4157892.27 ], [ 283551.59, 4157884.52 ], [ 283592.26, 4157871.69 ] ] } },
{ "type": "Feature", "properties": { "id": "osm:way/659449840", "name": "Downtown Expressway", "highway": "motorway", "lanes": 3.0, "width": 14.0, "oneway": true, "surface": "asphalt", "footway": null, "sidewalk_left": false, "sidewalk_right": false, "generated_sidewalk": false, "bus_lanes": null, "bus_lane_side": null, "bus_only": false, "sidewalk": false, "bridge": false, "ramp": false, "tunnel": false, "layer": 0, "deck": null }, "geometry": { "type": "LineString", "coordinates": [ [ 283586.59, 4157896.29 ], [ 283523.13, 4157917.06 ] ] } },
{ "type": "Feature", "properties": { "id": "osm:way/1342036154", "name": "Downtown Expressway", "highway": "motorway", "lanes": 4.0, "width": 14.0, "oneway": true, "surface": "asphalt", "footway": null, "sidewalk_left": false, "sidewalk_right": false, "generated_sidewalk": false, "bus_lanes": null, "bus_lane_side": null, "bus_only": false, "sidewalk": false, "bridge": false, "ramp": false, "tunnel": false, "layer": 0, "deck": null }, "geometry": { "type": "LineString", "coordinates": [ [ 283523.13, 4157917.06 ], [ 283500.0, 4157921.62 ] ] } },
{ "type": "Feature", "properties": { "id": "osm:way/6037734", "name": "Cumberland Street", "highway": "secondary", "lanes": 2.0, "width": 9.5, "oneway": true, "surface": null, "footway": null, "sidewalk_left": false, "sidewalk_right": null, "generated_sidewalk": true, "bus_lanes": null, "bus_lane_side": null, "bus_only": false, "sidewalk": false, "bridge": false, "ramp": false, "tunnel": false, "layer": 0, "deck": null }, "geometry": { "type": "LineString", "coordinates": [ [ 283629.43, 4157943.13 ], [ 283620.94, 4157946.99 ], [ 283601.78, 4157948.01 ], [ 283572.96, 4157948.83 ], [ 283517.19, 4157950.42 ], [ 283500.0, 4157951.1 ] ] } },
{ "type": "Feature", "properties": { "id": "osm:way/1065187681", "name": "South Jefferson Street", "highway": "residential", "lanes": null, "width": 7.0, "oneway": false, "surface": "asphalt", "footway": null, "sidewalk_left": false, "sidewalk_right": false, "generated_sidewalk": true, "bus_lanes": null, "bus_lane_side": null, "bus_only": false, "sidewalk": false, "bridge": false, "ramp": false, "tunnel": false, "layer": 0, "deck": null }, "geometry": { "type": "LineString", "coordinates": [ [ 283750.0, 4157865.11 ], [ 283749.91, 4157865.0 ], [ 283745.56, 4157859.52 ] ] } },
{ "type": "Feature", "properties": { "id": "osm:way/700380142", "name": null, "highway": "service", "lanes": null, "width": 4.5, "oneway": false, "surface": null, "footway": null, "sidewalk_left": false, "sidewalk_right": false, "generated_sidewalk": false, "bus_lanes": null, "bus_lane_side": null, "bus_only": false, "sidewalk": false, "bridge": false, "ramp": false, "tunnel": false, "layer": 0, "deck": null }, "geometry": { "type": "LineString", "coordinates": [ [ 283730.35, 4157926.74 ], [ 283737.72, 4157936.48 ], [ 283750.0, 4157926.31 ] ] } },
{ "type": "Feature", "properties": { "id": "osm:way/38230981", "name": "West Canal Street", "highway": "secondary", "lanes": 3.0, "width": 9.9, "oneway": true, "surface": "asphalt", "footway": null, "sidewalk_left": null, "sidewalk_right": false, "generated_sidewalk": true, "bus_lanes": null, "bus_lane_side": null, "bus_only": false, "sidewalk": false, "bridge": false, "ramp": true, "tunnel": false, "layer": 0, "deck": [ 283678.56, 4157914.16, 46.64, 283629.43, 4157943.13, 47.63 ] }, "geometry": { "type": "LineString", "coordinates": [ [ 283678.56, 4157914.16 ], [ 283655.22, 4157931.64 ], [ 283650.89, 4157933.49 ], [ 283643.39, 4157936.89 ], [ 283629.43, 4157943.13 ] ] } },
{ "type": "Feature", "properties": { "id": "osm:way/1194172044", "name": null, "highway": "footway", "lanes": null, "width": 2.0, "oneway": false, "surface": null, "footway": "crossing", "sidewalk_left": false, "sidewalk_right": false, "generated_sidewalk": false, "bus_lanes": null, "bus_lane_side": null, "bus_only": false, "sidewalk": false, "bridge": false, "ramp": false, "tunnel": false, "layer": 0, "deck": null }, "geometry": { "type": "LineString", "coordinates": [ [ 283649.88, 4157922.13 ], [ 283650.89, 4157933.49 ], [ 283651.82, 4157944.11 ] ] } },
{ "type": "Feature", "properties": { "id": "osm:way/823415252", "name": null, "highway": "footway", "lanes": null, "width": 2.0, "oneway": false, "surface": null, "footway": "sidewalk", "sidewalk_left": false, "sidewalk_right": false, "generated_sidewalk": false, "bus_lanes": null, "bus_lane_side": null, "bus_only": false, "sidewalk": false, "bridge": false, "ramp": true, "tunnel": false, "layer": 0, "deck": [ 283684.77, 4157917.0, 46.67, 283775.4, 4157905.25, 42.09 ] }, "geometry": { "type": "MultiLineString", "coordinates": [ [ [ 283684.77, 4157917.0 ], [ 283656.47, 4157939.16 ], [ 283654.35, 4157941.2 ], [ 283652.71, 4157942.64 ], [ 283651.82, 4157944.11 ], [ 283651.86, 4157948.66 ], [ 283654.21, 4158000.0 ] ], [ [ 283748.67, 4158000.0 ], [ 283750.0, 4157998.95 ] ] ] } },
{ "type": "Feature", "properties": { "id": "osm:way/37961357", "name": "South Belvidere Street", "highway": "primary", "lanes": 3.0, "width": 11.0, "oneway": true, "surface": "asphalt", "footway": null, "sidewalk_left": null, "sidewalk_right": false, "generated_sidewalk": true, "bus_lanes": null, "bus_lane_side": null, "bus_only": false, "sidewalk": false, "bridge": false, "ramp": false, "tunnel": false, "layer": 0, "deck": null }, "geometry": { "type": "LineString", "coordinates": [ [ 283643.39, 4157936.89 ], [ 283644.08, 4157947.44 ], [ 283646.32, 4158000.0 ] ] } },
{ "type": "Feature", "properties": { "id": "osm:way/1194172045", "name": null, "highway": "footway", "lanes": null, "width": 2.0, "oneway": false, "surface": null, "footway": "crossing", "sidewalk_left": false, "sidewalk_right": false, "generated_sidewalk": false, "bus_lanes": null, "bus_lane_side": null, "bus_only": false, "sidewalk": false, "bridge": false, "ramp": false, "tunnel": false, "layer": 0, "deck": null }, "geometry": { "type": "LineString", "coordinates": [ [ 283621.38, 4157957.33 ], [ 283620.94, 4157946.99 ], [ 283620.6, 4157939.01 ] ] } },
{ "type": "Feature", "properties": { "id": "osm:way/823675216", "name": null, "highway": "footway", "lanes": null, "width": 2.0, "oneway": false, "surface": null, "footway": "crossing", "sidewalk_left": false, "sidewalk_right": false, "generated_sidewalk": false, "bus_lanes": null, "bus_lane_side": null, "bus_only": false, "sidewalk": false, "bridge": false, "ramp": false, "tunnel": false, "layer": 0, "deck": null }, "geometry": { "type": "LineString", "coordinates": [ [ 283651.82, 4157944.11 ], [ 283644.08, 4157947.44 ], [ 283629.85, 4157953.65 ], [ 283621.38, 4157957.33 ] ] } },
{ "type": "Feature", "properties": { "id": "osm:way/1194172040", "name": null, "highway": "footway", "lanes": null, "width": 2.0, "oneway": false, "surface": null, "footway": "sidewalk", "sidewalk_left": false, "sidewalk_right": false, "generated_sidewalk": false, "bus_lanes": null, "bus_lane_side": null, "bus_only": false, "sidewalk": false, "bridge": false, "ramp": false, "tunnel": false, "layer": 0, "deck": null }, "geometry": { "type": "LineString", "coordinates": [ [ 283621.03, 4157960.07 ], [ 283621.48, 4157958.66 ], [ 283621.38, 4157957.33 ], [ 283618.84, 4157956.85 ], [ 283615.91, 4157956.68 ], [ 283606.79, 4157957.0 ] ] } },
{ "type": "Feature", "properties": { "id": "osm:way/1194172039", "name": null, "highway": "service", "lanes": null, "width": 4.5, "oneway": false, "surface": null, "footway": null, "sidewalk_left": false, "sidewalk_right": false, "generated_sidewalk": false, "bus_lanes": null, "bus_lane_side": null, "bus_only": false, "sidewalk": false, "bridge": false, "ramp": false, "tunnel": false, "layer": 0, "deck": null }, "geometry": { "type": "LineString", "coordinates": [ [ 283601.78, 4157948.01 ], [ 283602.49, 4157957.14 ], [ 283603.63, 4157979.07 ], [ 283622.09, 4157978.12 ], [ 283631.99, 4157977.62 ] ] } },
{ "type": "Feature", "properties": { "id": "osm:way/1194172042", "name": null, "highway": "footway", "lanes": null, "width": 2.0, "oneway": false, "surface": "paving_stones", "footway": "sidewalk", "sidewalk_left": false, "sidewalk_right": false, "generated_sidewalk": false, "bus_lanes": null, "bus_lane_side": null, "bus_only": false, "sidewalk": false, "bridge": false, "ramp": false, "tunnel": false, "layer": 0, "deck": null }, "geometry": { "type": "LineString", "coordinates": [ [ 283621.03, 4157960.07 ], [ 283621.54, 4157973.32 ] ] } },
{ "type": "Feature", "properties": { "id": "osm:way/1194172038", "name": null, "highway": "footway", "lanes": null, "width": 2.0, "oneway": false, "surface": "concrete", "footway": "crossing", "sidewalk_left": false, "sidewalk_right": false, "generated_sidewalk": false, "bus_lanes": null, "bus_lane_side": null, "bus_only": false, "sidewalk": false, "bridge": false, "ramp": false, "tunnel": false, "layer": 0, "deck": null }, "geometry": { "type": "LineString", "coordinates": [ [ 283622.68, 4157983.4 ], [ 283622.09, 4157978.12 ], [ 283621.54, 4157973.32 ] ] } },
{ "type": "Feature", "properties": { "id": "osm:way/44740519", "name": "South Belvidere Street", "highway": "primary", "lanes": 3.0, "width": 11.0, "oneway": true, "surface": "asphalt", "footway": null, "sidewalk_left": null, "sidewalk_right": false, "generated_sidewalk": true, "bus_lanes": null, "bus_lane_side": null, "bus_only": false, "sidewalk": false, "bridge": false, "ramp": true, "tunnel": false, "layer": 0, "deck": [ 283636.99, 4158094.19, 50.28, 283627.12, 4157906.51, 47.75 ] }, "geometry": { "type": "LineString", "coordinates": [ [ 283632.95, 4158000.0 ], [ 283631.99, 4157977.62 ], [ 283630.03, 4157959.72 ], [ 283629.85, 4157953.65 ], [ 283629.43, 4157943.13 ], [ 283629.34, 4157933.09 ], [ 283627.12, 4157906.51 ] ] } },
{ "type": "Feature", "properties": { "id": "osm:way/1194172036", "name": null, "highway": "footway", "lanes": null, "width": 2.0, "oneway": false, "surface": "paving_stones", "footway": "sidewalk", "sidewalk_left": false, "sidewalk_right": false, "generated_sidewalk": false, "bus_lanes": null, "bus_lane_side": null, "bus_only": false, "sidewalk": false, "bridge": false, "ramp": false, "tunnel": false, "layer": 0, "deck": null }, "geometry": { "type": "LineString", "coordinates": [ [ 283623.39, 4158000.0 ], [ 283622.68, 4157983.4 ] ] } },
{ "type": "Feature", "properties": { "id": "osm:way/1194172041", "name": null, "highway": "footway", "lanes": null, "width": 2.0, "oneway": false, "surface": null, "footway": "crossing", "sidewalk_left": false, "sidewalk_right": false, "generated_sidewalk": false, "bus_lanes": null, "bus_lane_side": null, "bus_only": false, "sidewalk": false, "bridge": false, "ramp": false, "tunnel": false, "layer": 0, "deck": null }, "geometry": { "type": "LineString", "coordinates": [ [ 283606.79, 4157957.0 ], [ 283602.49, 4157957.14 ], [ 283597.01, 4157957.32 ] ] } },
{ "type": "Feature", "properties": { "id": "osm:way/823675217", "name": null, "highway": "footway", "lanes": null, "width": 2.0, "oneway": false, "surface": "concrete", "footway": "sidewalk", "sidewalk_left": false, "sidewalk_right": false, "generated_sidewalk": false, "bus_lanes": null, "bus_lane_side": null, "bus_only": false, "sidewalk": false, "bridge": false, "ramp": false, "tunnel": false, "layer": 0, "deck": null }, "geometry": { "type": "LineString", "coordinates": [ [ 283597.01, 4157957.32 ], [ 283573.54, 4157958.12 ], [ 283524.56, 4157959.77 ] ] } },
{ "type": "Feature", "properties": { "id": "osm:way/1194172031", "name": null, "highway": "footway", "lanes": null, "width": 2.0, "oneway": false, "surface": "asphalt", "footway": "crossing", "sidewalk_left": false, "sidewalk_right": false, "generated_sidewalk": false, "bus_lanes": null, "bus_lane_side": null, "bus_only": false, "sidewalk": false, "bridge": false, "ramp": false, "tunnel": false, "layer": 0, "deck": null }, "geometry": { "type": "LineString", "coordinates": [ [ 283524.56, 4157959.77 ], [ 283517.65, 4157960.01 ], [ 283510.86, 4157960.24 ] ] } },
{ "type": "Feature", "properties": { "id": "osm:way/1194172026", "name": null, "highway": "footway", "lanes": null, "width": 2.0, "oneway": false, "surface": "concrete", "footway": "sidewalk", "sidewalk_left": false, "sidewalk_right": false, "generated_sidewalk": false, "bus_lanes": null, "bus_lane_side": null, "bus_only": false, "sidewalk": false, "bridge": false, "ramp": false, "tunnel": false, "layer": 0, "deck": null }, "geometry": { "type": "LineString", "coordinates": [ [ 283511.39, 4157961.5 ], [ 283510.86, 4157960.24 ], [ 283500.0, 4157960.61 ] ] } },
{ "type": "Feature", "properties": { "id": "osm:way/673633779", "name": null, "highway": "service", "lanes": null, "width": 4.5, "oneway": false, "surface": null, "footway": null, "sidewalk_left": false, "sidewalk_right": false, "generated_sidewalk": false, "bus_lanes": null, "bus_lane_side": null, "bus_only": false, "sidewalk": false, "bridge": false, "ramp": false, "tunnel": false, "layer": 0, "deck": null }, "geometry": { "type": "LineString", "coordinates": [ [ 283572.96, 4157948.83 ], [ 283573.54, 4157958.12 ], [ 283575.73, 4158000.0 ] ] } },
{ "type": "Feature", "properties": { "id": "osm:way/1194172027", "name": null, "highway": "footway", "lanes": null, "width": 2.0, "oneway": false, "surface": "paving_stones", "footway": "sidewalk", "sidewalk_left": false, "sidewalk_right": false, "generated_sidewalk": false, "bus_lanes": null, "bus_lane_side": null, "bus_only": false, "sidewalk": false, "bridge": false, "ramp": false, "tunnel": false, "layer": 0, "deck": null }, "geometry": { "type": "LineString", "coordinates": [ [ 283511.39, 4157961.5 ], [ 283512.98, 4158000.0 ] ] } },
{ "type": "Feature", "properties": { "id": "osm:way/823415248", "name": null, "highway": "footway", "lanes": null, "width": 2.0, "oneway": false, "surface": null, "footway": "sidewalk", "sidewalk_left": false, "sidewalk_right": false, "generated_sidewalk": false, "bus_lanes": null, "bus_lane_side": null, "bus_only": false, "sidewalk": false, "bridge": false, "ramp": false, "tunnel": false, "layer": 0, "deck": null }, "geometry": { "type": "LineString", "coordinates": [ [ 283524.56, 4157959.77 ], [ 283523.84, 4157961.25 ], [ 283525.48, 4158000.0 ] ] } },
{ "type": "Feature", "properties": { "id": "osm:way/6035006", "name": "South Pine Street", "highway": "residential", "lanes": null, "width": 7.0, "oneway": true, "surface": "asphalt", "footway": null, "sidewalk_left": false, "sidewalk_right": false, "generated_sidewalk": true, "bus_lanes": null, "bus_lane_side": null, "bus_only": false, "sidewalk": false, "bridge": false, "ramp": false, "tunnel": false, "layer": 0, "deck": null }, "geometry": { "type": "LineString", "coordinates": [ [ 283517.19, 4157950.42 ], [ 283517.65, 4157960.01 ], [ 283519.56, 4158000.0 ] ] } }
]
}
