{
"type": "FeatureCollection",
"name": "crossings",
"crs": { "type": "name", "properties": { "name": "urn:ogc:def:crs:EPSG::32618" } },
"xy_coordinate_resolution": 0.01,
"features": [
{ "type": "Feature", "properties": { "id": "osm:node/11084811304", "crossing": "unmarked", "crossing_markings": null, "road_id": null, "road_width": null, "road_dx": null, "road_dy": null, "road_x": null, "road_y": null, "crossing_island": false }, "geometry": { "type": "Point", "coordinates": [ 283514.02, 4158025.34 ] } },
{ "type": "Feature", "properties": { "id": "osm:node/11084811303", "crossing": "unmarked", "crossing_markings": null, "road_id": null, "road_width": null, "road_dx": null, "road_dy": null, "road_x": null, "road_y": null, "crossing_island": false }, "geometry": { "type": "Point", "coordinates": [ 283526.59, 4158026.15 ] } },
{ "type": "Feature", "properties": { "id": "osm:node/11084811281", "crossing": "unmarked", "crossing_markings": null, "road_id": null, "road_width": null, "road_dx": null, "road_dy": null, "road_x": null, "road_y": null, "crossing_island": false }, "geometry": { "type": "Point", "coordinates": [ 283625.28, 4158044.86 ] } },
{ "type": "Feature", "properties": { "id": "osm:node/11084857307", "crossing": "unmarked", "crossing_markings": null, "road_id": null, "road_width": null, "road_dx": null, "road_dy": null, "road_x": null, "road_y": null, "crossing_island": false }, "geometry": { "type": "Point", "coordinates": [ 283528.36, 4158067.87 ] } },
{ "type": "Feature", "properties": { "id": "osm:node/7687533345", "crossing": "traffic_signals", "crossing_markings": null, "road_id": "osm:way/680644843", "road_width": 11.0, "road_dx": 0.786891, "road_dy": -0.617092, "road_x": 283661.34, "road_y": 4158078.59, "crossing_island": false }, "geometry": { "type": "Point", "coordinates": [ 283661.34, 4158078.59 ] } },
{ "type": "Feature", "properties": { "id": "osm:node/7687533335", "crossing": "traffic_signals", "crossing_markings": null, "road_id": "osm:way/680644844", "road_width": 11.0, "road_dx": 0.061476, "road_dy": 0.998109, "road_x": 283651.22, "road_y": 4158103.48, "crossing_island": false }, "geometry": { "type": "Point", "coordinates": [ 283651.22, 4158103.48 ] } },
{ "type": "Feature", "properties": { "id": "osm:node/10200372037", "crossing": "unmarked", "crossing_markings": "no", "road_id": null, "road_width": null, "road_dx": null, "road_dy": null, "road_x": null, "road_y": null, "crossing_island": false }, "geometry": { "type": "Point", "coordinates": [ 283749.6, 4158152.69 ] } },
{ "type": "Feature", "properties": { "id": "osm:node/10200372035", "crossing": "unmarked", "crossing_markings": "no", "road_id": null, "road_width": null, "road_dx": null, "road_dy": null, "road_x": null, "road_y": null, "crossing_island": false }, "geometry": { "type": "Point", "coordinates": [ 283733.65, 4158164.85 ] } },
{ "type": "Feature", "properties": { "id": "osm:node/10200372038", "crossing": "marked", "crossing_markings": "yes", "road_id": "osm:way/6035548", "road_width": 11.0, "road_dx": -0.783525, "road_dy": 0.62136, "road_x": 283742.02, "road_y": 4158168.62, "crossing_island": false }, "geometry": { "type": "Point", "coordinates": [ 283742.02, 4158168.62 ] } },
{ "type": "Feature", "properties": { "id": "osm:node/10200372032", "crossing": "unmarked", "crossing_markings": "no", "road_id": null, "road_width": null, "road_dx": null, "road_dy": null, "road_x": null, "road_y": null, "crossing_island": false }, "geometry": { "type": "Point", "coordinates": [ 283713.26, 4158202.39 ] } },
{ "type": "Feature", "properties": { "id": "osm:node/7687401751", "crossing": "traffic_signals", "crossing_markings": "surface", "road_id": "osm:way/680644844", "road_width": 11.0, "road_dx": 0.050159, "road_dy": 0.998741, "road_x": 283657.04, "road_y": 4158223.01, "crossing_island": false }, "geometry": { "type": "Point", "coordinates": [ 283657.04, 4158223.01 ] } },
{ "type": "Feature", "properties": { "id": "osm:node/7687401750", "crossing": "traffic_signals", "crossing_markings": "surface", "road_id": "osm:way/326331537", "road_width": 13.2, "road_dx": -0.824799, "road_dy": 0.565427, "road_x": 283665.74, "road_y": 4158228.45, "crossing_island": false }, "geometry": { "type": "Point", "coordinates": [ 283665.74, 4158228.45 ] } },
{ "type": "Feature", "properties": { "id": "osm:node/10278396649", "crossing": "unmarked", "crossing_markings": "no", "road_id": "osm:way/6038997", "road_width": 7.0, "road_dx": 0.622316, "road_dy": 0.782766, "road_x": 283678.29, "road_y": 4158231.47, "crossing_island": false }, "geometry": { "type": "Point", "coordinates": [ 283678.29, 4158231.47 ] } },
{ "type": "Feature", "properties": { "id": "osm:node/6303674990", "crossing": "traffic_signals", "crossing_markings": "surface", "road_id": "osm:way/135207690", "road_width": 11.0, "road_dx": 0.051712, "road_dy": 0.998662, "road_x": 283658.09, "road_y": 4158243.24, "crossing_island": false }, "geometry": { "type": "Point", "coordinates": [ 283658.09, 4158243.24 ] } },
{ "type": "Feature", "properties": { "id": "osm:node/9002498092", "crossing": "traffic_signals", "crossing_markings": null, "road_id": "osm:way/37961357", "road_width": 11.0, "road_dx": 0.04282, "road_dy": 0.999083, "road_x": 283649.47, "road_y": 4158073.74, "crossing_island": false }, "geometry": { "type": "Point", "coordinates": [ 283649.47, 4158073.74 ] } },
{ "type": "Feature", "properties": { "id": "osm:node/7687533357", "crossing": "traffic_signals", "crossing_markings": null, "road_id": "osm:way/44740519", "road_width": 11.0, "road_dx": -0.038554, "road_dy": -0.999257, "road_x": 283636.5, "road_y": 4158081.48, "crossing_island": false }, "geometry": { "type": "Point", "coordinates": [ 283636.5, 4158081.48 ] } },
{ "type": "Feature", "properties": { "id": "osm:node/7687533338", "crossing": "marked", "crossing_markings": "yes", "road_id": "osm:way/6035006", "road_width": 7.0, "road_dx": 0.049895, "road_dy": 0.998754, "road_x": 283523.91, "road_y": 4158091.11, "crossing_island": false }, "geometry": { "type": "Point", "coordinates": [ 283523.91, 4158091.11 ] } },
{ "type": "Feature", "properties": { "id": "osm:node/9002498094", "crossing": "traffic_signals", "crossing_markings": null, "road_id": "osm:way/265141468", "road_width": 11.0, "road_dx": 0.99943, "road_dy": -0.033773, "road_x": 283627.19, "road_y": 4158095.34, "crossing_island": false }, "geometry": { "type": "Point", "coordinates": [ 283627.19, 4158095.34 ] } },
{ "type": "Feature", "properties": { "id": "osm:node/9002498097", "crossing": "marked", "crossing_markings": "yes", "road_id": "osm:way/265141468", "road_width": 11.0, "road_dx": 0.999028, "road_dy": -0.044073, "road_x": 283530.47, "road_y": 4158099.24, "crossing_island": false }, "geometry": { "type": "Point", "coordinates": [ 283530.47, 4158099.24 ] } },
{ "type": "Feature", "properties": { "id": "osm:node/9002498100", "crossing": "marked", "crossing_markings": "yes", "road_id": "osm:way/265141468", "road_width": 11.0, "road_dx": 0.999645, "road_dy": -0.026651, "road_x": 283516.64, "road_y": 4158099.85, "crossing_island": false }, "geometry": { "type": "Point", "coordinates": [ 283516.64, 4158099.85 ] } },
{ "type": "Feature", "properties": { "id": "osm:node/7687533367", "crossing": "traffic_signals", "crossing_markings": null, "road_id": "osm:way/6034962", "road_width": 11.0, "road_dx": -0.038021, "road_dy": -0.999277, "road_x": 283637.33, "road_y": 4158103.89, "crossing_island": false }, "geometry": { "type": "Point", "coordinates": [ 283637.33, 4158103.89 ] } },
{ "type": "Feature", "properties": { "id": "osm:node/7687533365", "crossing": "unmarked", "crossing_markings": "no", "road_id": null, "road_width": null, "road_dx": null, "road_dy": null, "road_x": null, "road_y": null, "crossing_island": false }, "geometry": { "type": "Point", "coordinates": [ 283576.17, 4158106.01 ] } },
{ "type": "Feature", "properties": { "id": "osm:node/7687533337", "crossing": "marked", "crossing_markings": "yes", "road_id": "osm:way/6035006", "road_width": 7.0, "road_dx": 0.046277, "road_dy": 0.998929, "road_x": 283524.69, "road_y": 4158107.8, "crossing_island": false }, "geometry": { "type": "Point", "coordinates": [ 283524.69, 4158107.8 ] } },
{ "type": "Feature", "properties": { "id": "osm:node/7687401752", "crossing": "traffic_signals", "crossing_markings": "surface", "road_id": "osm:way/6034962", "road_width": 11.0, "road_dx": -0.051292, "road_dy": -0.998684, "road_x": 283642.12, "road_y": 4158230.27, "crossing_island": false }, "geometry": { "type": "Point", "coordinates": [ 283642.12, 4158230.27 ] } },
{ "type": "Feature", "properties": { "id": "osm:node/11084954249", "crossing": "marked", "crossing_markings": "yes", "road_id": "osm:way/6035006", "road_width": 7.0, "road_dx": 0.042308, "road_dy": 0.999105, "road_x": 283530.24, "road_y": 4158238.78, "crossing_island": false }, "geometry": { "type": "Point", "coordinates": [ 283530.24, 4158238.78 ] } },
{ "type": "Feature", "properties": { "id": "osm:node/9002498062", "crossing": "traffic_signals", "crossing_markings": "surface", "road_id": "osm:way/44740520", "road_width": 11.0, "road_dx": -0.949829, "road_dy": 0.31277, "road_x": 283633.53, "road_y": 4158242.7, "crossing_island": false }, "geometry": { "type": "Point", "coordinates": [ 283633.53, 4158242.7 ] } },
{ "type": "Feature", "properties": { "id": "osm:node/9002498061", "crossing": "marked", "crossing_markings": "yes", "road_id": "osm:way/44740520", "road_width": 11.0, "road_dx": -0.999534, "road_dy": 0.030515, "road_x": 283536.38, "road_y": 4158245.66, "crossing_island": false }, "geometry": { "type": "Point", "coordinates": [ 283536.38, 4158245.66 ] } },
{ "type": "Feature", "properties": { "id": "osm:node/9002498059", "crossing": "marked", "crossing_markings": "yes", "road_id": "osm:way/44740520", "road_width": 11.0, "road_dx": -0.998544, "road_dy": 0.053948, "road_x": 283523.39, "road_y": 4158246.36, "crossing_island": false }, "geometry": { "type": "Point", "coordinates": [ 283523.39, 4158246.36 ] } },
{ "type": "Feature", "properties": { "id": "osm:node/6303674989", "crossing": "traffic_signals", "crossing_markings": "surface", "road_id": "osm:way/1083117986", "road_width": 11.0, "road_dx": -0.036021, "road_dy": -0.999351, "road_x": 283643.07, "road_y": 4158248.72, "crossing_island": false }, "geometry": { "type": "Point", "coordinates": [ 283643.07, 4158248.72 ] } }
]
}
