{
"type": "FeatureCollection",
"name": "roads",
"crs": { "type": "name", "properties": { "name": "urn:ogc:def:crs:EPSG::32618" } },
"xy_coordinate_resolution": 0.01,
"features": [
{ "type": "Feature", "properties": { "id": "osm:way/6039064", "name": "Saint James Street", "highway": "tertiary", "lanes": null, "width": 8.0, "oneway": false, "surface": "asphalt", "footway": null, "sidewalk_left": null, "sidewalk_right": null, "generated_sidewalk": true, "bus_lanes": null, "bus_lane_side": null, "bus_only": false, "sidewalk": false, "bridge": false, "ramp": false, "tunnel": false, "layer": 0, "deck": null }, "geometry": { "type": "LineString", "coordinates": [ [ 285055.89, 4159500.0 ], [ 285056.97, 4159524.34 ], [ 285058.87, 4159560.48 ], [ 285060.82, 4159597.31 ], [ 285062.87, 4159638.82 ], [ 285066.21, 4159695.82 ], [ 285067.39, 4159725.09 ] ] } },
{ "type": "Feature", "properties": { "id": "osm:way/6037444", "name": "West Fells Street", "highway": "residential", "lanes": null, "width": 7.0, "oneway": false, "surface": null, "footway": null, "sidewalk_left": null, "sidewalk_right": null, "generated_sidewalk": true, "bus_lanes": null, "bus_lane_side": null, "bus_only": false, "sidewalk": false, "bridge": false, "ramp": false, "tunnel": false, "layer": 0, "deck": null }, "geometry": { "type": "LineString", "coordinates": [ [ 285056.97, 4159524.34 ], [ 285000.0, 4159532.74 ] ] } },
{ "type": "Feature", "properties": { "id": "osm:way/323524441", "name": null, "highway": "service", "lanes": null, "width": 4.5, "oneway": false, "surface": null, "footway": null, "sidewalk_left": false, "sidewalk_right": false, "generated_sidewalk": false, "bus_lanes": null, "bus_lane_side": null, "bus_only": false, "sidewalk": false, "bridge": false, "ramp": false, "tunnel": false, "layer": 0, "deck": null }, "geometry": { "type": "LineString", "coordinates": [ [ 285000.0, 4159569.12 ], [ 285058.87, 4159560.48 ] ] } },
{ "type": "Feature", "properties": { "id": "osm:way/6039079", "name": "King Street", "highway": "residential", "lanes": null, "width": 7.0, "oneway": false, "surface": null, "footway": null, "sidewalk_left": null, "sidewalk_right": null, "generated_sidewalk": true, "bus_lanes": null, "bus_lane_side": null, "bus_only": false, "sidewalk": false, "bridge": false, "ramp": false, "tunnel": false, "layer": 0, "deck": null }, "geometry": { "type": "LineString", "coordinates": [ [ 285060.82, 4159597.31 ], [ 285000.0, 4159606.15 ] ] } },
{ "type": "Feature", "properties": { "id": "osm:way/6038685", "name": "School Street", "highway": "residential", "lanes": null, "width": 7.0, "oneway": false, "surface": null, "footway": null, "sidewalk_left": null, "sidewalk_right": null, "generated_sidewalk": true, "bus_lanes": null, "bus_lane_side": null, "bus_only": false, "sidewalk": false, "bridge": false, "ramp": false, "tunnel": false, "layer": 0, "deck": null }, "geometry": { "type": "LineString", "coordinates": [ [ 285062.87, 4159638.82 ], [ 285018.4, 4159644.66 ], [ 285000.0, 4159646.93 ] ] } },
{ "type": "Feature", "properties": { "id": "osm:way/323524435", "name": null, "highway": "service", "lanes": null, "width": 4.5, "oneway": false, "surface": null, "footway": null, "sidewalk_left": false, "sidewalk_right": false, "generated_sidewalk": false, "bus_lanes": null, "bus_lane_side": null, "bus_only": false, "sidewalk": false, "bridge": false, "ramp": false, "tunnel": false, "layer": 0, "deck": null }, "geometry": { "type": "LineString", "coordinates": [ [ 285021.85, 4159701.6 ], [ 285018.4, 4159644.66 ] ] } },
{ "type": "Feature", "properties": { "id": "osm:way/323524477", "name": null, "highway": "service", "lanes": null, "width": 4.5, "oneway": false, "surface": null, "footway": null, "sidewalk_left": false, "sidewalk_right": false, "generated_sidewalk": false, "bus_lanes": null, "bus_lane_side": null, "bus_only": false, "sidewalk": false, "bridge": false, "ramp": false, "tunnel": false, "layer": 0, "deck": null }, "geometry": { "type": "LineString", "coordinates": [ [ 285066.21, 4159695.82 ], [ 285021.85, 4159701.6 ], [ 285000.0, 4159704.45 ] ] } },
{ "type": "Feature", "properties": { "id": "osm:way/6039061", "name": "Saint James Street", "highway": "tertiary", "lanes": null, "width": 8.0, "oneway": false, "surface": "asphalt", "footway": null, "sidewalk_left": null, "sidewalk_right": null, "generated_sidewalk": true, "bus_lanes": null, "bus_lane_side": null, "bus_only": false, "sidewalk": false, "bridge": false, "ramp": false, "tunnel": false, "layer": 0, "deck": null }, "geometry": { "type": "LineString", "coordinates": [ [ 285067.39, 4159725.09 ], [ 285069.28, 4159747.65 ], [ 285069.42, 4159750.0 ] ] } },
{ "type": "Feature", "properties": { "id": "osm:way/6034191", "name": "Yancey Street", "highway": "residential", "lanes": null, "width": 7.0, "oneway": false, "surface": null, "footway": null, "sidewalk_left": null, "sidewalk_right": null, "generated_sidewalk": true, "bus_lanes": null, "bus_lane_side": null, "bus_only": false, "sidewalk": false, "bridge": false, "ramp": false, "tunnel": false, "layer": 0, "deck": null }, "geometry": { "type": "LineString", "coordinates": [ [ 285069.28, 4159747.65 ], [ 285054.02, 4159750.0 ] ] } },
{ "type": "Feature", "properties": { "id": "osm:way/866162916", "name": null, "highway": "service", "lanes": null, "width": 4.5, "oneway": false, "surface": null, "footway": null, "sidewalk_left": false, "sidewalk_right": false, "generated_sidewalk": false, "bus_lanes": null, "bus_lane_side": null, "bus_only": false, "sidewalk": false, "bridge": false, "ramp": false, "tunnel": false, "layer": 0, "deck": null }, "geometry": { "type": "LineString", "coordinates": [ [ 285230.18, 4159564.61 ], [ 285245.64, 4159567.76 ], [ 285250.0, 4159567.37 ] ] } },
{ "type": "Feature", "properties": { "id": "osm:way/6035212", "name": "Wellford Street", "highway": "residential", "lanes": null, "width": 7.0, "oneway": true, "surface": null, "footway": null, "sidewalk_left": null, "sidewalk_right": null, "generated_sidewalk": true, "bus_lanes": null, "bus_lane_side": null, "bus_only": false, "sidewalk": false, "bridge": false, "ramp": false, "tunnel": false, "layer": 0, "deck": null }, "geometry": { "type": "LineString", "coordinates": [ [ 285234.09, 4159614.81 ], [ 285250.0, 4159613.25 ] ] } },
{ "type": "Feature", "properties": { "id": "osm:way/908617602", "name": null, "highway": "service", "lanes": null, "width": 4.5, "oneway": false, "surface": null, "footway": null, "sidewalk_left": false, "sidewalk_right": false, "generated_sidewalk": false, "bus_lanes": null, "bus_lane_side": null, "bus_only": false, "sidewalk": false, "bridge": false, "ramp": false, "tunnel": false, "layer": 0, "deck": null }, "geometry": { "type": "LineString", "coordinates": [ [ 285236.51, 4159652.87 ], [ 285250.0, 4159651.6 ] ] } },
{ "type": "Feature", "properties": { "id": "osm:way/153191442", "name": "Lamb Avenue", "highway": "residential", "lanes": null, "width": 7.0, "oneway": false, "surface": null, "footway": null, "sidewalk_left": null, "sidewalk_right": null, "generated_sidewalk": true, "bus_lanes": null, "bus_lane_side": null, "bus_only": false, "sidewalk": false, "bridge": false, "ramp": false, "tunnel": false, "layer": 0, "deck": null }, "geometry": { "type": "LineString", "coordinates": [ [ 285227.4, 4159529.13 ], [ 285230.18, 4159564.61 ], [ 285234.09, 4159614.81 ], [ 285236.51, 4159652.87 ], [ 285238.95, 4159691.21 ], [ 285240.39, 4159709.43 ], [ 285241.57, 4159733.77 ], [ 285242.77, 4159750.0 ] ] } },
{ "type": "Feature", "properties": { "id": "osm:way/6038648", "name": "Minor Street", "highway": "residential", "lanes": null, "width": 7.0, "oneway": true, "surface": null, "footway": null, "sidewalk_left": null, "sidewalk_right": null, "generated_sidewalk": true, "bus_lanes": null, "bus_lane_side": null, "bus_only": false, "sidewalk": false, "bridge": false, "ramp": false, "tunnel": false, "layer": 0, "deck": null }, "geometry": { "type": "LineString", "coordinates": [ [ 285250.0, 4159689.91 ], [ 285238.95, 4159691.21 ] ] } },
{ "type": "Feature", "properties": { "id": "osm:way/6034902", "name": "Tybee Terrace", "highway": "residential", "lanes": null, "width": 7.0, "oneway": false, "surface": "asphalt", "footway": null, "sidewalk_left": null, "sidewalk_right": null, "generated_sidewalk": true, "bus_lanes": null, "bus_lane_side": null, "bus_only": false, "sidewalk": false, "bridge": false, "ramp": false, "tunnel": false, "layer": 0, "deck": null }, "geometry": { "type": "LineString", "coordinates": [ [ 285067.39, 4159725.09 ], [ 285152.67, 4159715.46 ], [ 285240.39, 4159709.43 ] ] } },
{ "type": "Feature", "properties": { "id": "osm:way/323524440", "name": null, "highway": "service", "lanes": null, "width": 4.5, "oneway": false, "surface": null, "footway": null, "sidewalk_left": false, "sidewalk_right": false, "generated_sidewalk": false, "bus_lanes": null, "bus_lane_side": null, "bus_only": false, "sidewalk": false, "bridge": false, "ramp": false, "tunnel": false, "layer": 0, "deck": null }, "geometry": { "type": "LineString", "coordinates": [ [ 285241.57, 4159733.77 ], [ 285250.0, 4159733.17 ] ] } },
{ "type": "Feature", "properties": { "id": "osm:way/866162917", "name": null, "highway": "service", "lanes": null, "width": 4.5, "oneway": false, "surface": null, "footway": null, "sidewalk_left": false, "sidewalk_right": false, "generated_sidewalk": false, "bus_lanes": null, "bus_lane_side": null, "bus_only": false, "sidewalk": false, "bridge": false, "ramp": false, "tunnel": false, "layer": 0, "deck": null }, "geometry": { "type": "LineString", "coordinates": [ [ 285152.67, 4159715.46 ], [ 285155.04, 4159750.0 ] ] } }
]
}
