{
"type": "FeatureCollection",
"name": "landuse",
"crs": { "type": "name", "properties": { "name": "urn:ogc:def:crs:EPSG::32618" } },
"xy_coordinate_resolution": 0.01,
"features": [
{ "type": "Feature", "properties": { "id": "imagery:groundcover_paved:2792", "name": null, "kind": "groundcover_paved", "sport": null, "surface": null, "pitch_layout": null, "source": "vgin_vbmp+naip+lidar2025", "source_updated": null, "base_z": null, "top_z": null }, "geometry": { "type": "MultiPolygon", "coordinates": [ [ [ [ 283060.13, 4159030.75 ], [ 283060.2, 4159030.32 ], [ 283060.57, 4159029.08 ], [ 283060.76, 4159028.69 ], [ 283062.23, 4159026.47 ], [ 283010.39, 4159069.47 ], [ 283010.21, 4159069.97 ], [ 283009.97, 4159070.48 ], [ 283009.68, 4159070.97 ], [ 283009.35, 4159071.42 ], [ 283008.97, 4159071.84 ], [ 283008.56, 4159072.22 ], [ 283000.0, 4159079.32 ], [ 283000.0, 4159081.75 ], [ 283060.13, 4159031.43 ], [ 283060.13, 4159030.75 ] ] ], [ [ [ 283031.75, 4159187.77 ], [ 283030.76, 4159188.68 ], [ 283030.47, 4159188.93 ], [ 283000.0, 4159213.53 ], [ 283000.0, 4159215.35 ], [ 283032.92, 4159189.35 ], [ 283031.75, 4159187.77 ] ] ], [ [ [ 283051.13, 4159023.21 ], [ 283079.11, 4159000.0 ], [ 283073.92, 4159000.0 ], [ 283051.13, 4159019.09 ], [ 283051.13, 4159023.21 ] ] ], [ [ [ 283074.26, 4159019.61 ], [ 283097.69, 4159000.0 ], [ 283094.15, 4159000.0 ], [ 283069.84, 4159020.16 ], [ 283074.26, 4159019.61 ] ] ], [ [ [ 283118.57, 4159119.67 ], [ 283118.13, 4159119.99 ], [ 283111.51, 4159124.36 ], [ 283112.82, 4159126.03 ], [ 283114.06, 4159125.04 ], [ 283138.03, 4159106.0 ], [ 283138.04, 4159105.99 ], [ 283226.76, 4159035.7 ], [ 283233.34, 4159030.43 ], [ 283238.41, 4159026.38 ], [ 283237.62, 4159025.39 ], [ 283235.93, 4159026.72 ], [ 283128.32, 4159111.94 ], [ 283118.57, 4159119.67 ] ] ], [ [ [ 283222.65, 4159097.76 ], [ 283222.9, 4159098.18 ], [ 283223.1, 4159098.63 ], [ 283223.26, 4159099.1 ], [ 283223.38, 4159099.57 ], [ 283223.44, 4159100.06 ], [ 283223.46, 4159100.55 ], [ 283223.43, 4159101.04 ], [ 283223.35, 4159101.53 ], [ 283223.23, 4159102.01 ], [ 283223.06, 4159102.47 ], [ 283222.84, 4159102.91 ], [ 283222.64, 4159103.22 ], [ 283223.0, 4159103.61 ], [ 283224.45, 4159102.57 ], [ 283230.73, 4159098.03 ], [ 283248.85, 4159084.31 ], [ 283249.07, 4159083.89 ], [ 283249.05, 4159083.67 ], [ 283238.1, 4159069.75 ], [ 283223.99, 4159090.84 ], [ 283223.68, 4159091.26 ], [ 283223.34, 4159091.63 ], [ 283222.95, 4159091.97 ], [ 283219.95, 4159094.37 ], [ 283222.36, 4159097.36 ], [ 283222.65, 4159097.76 ] ] ], [ [ [ 283095.27, 4159135.13 ], [ 283054.51, 4159167.4 ], [ 283049.28, 4159171.77 ], [ 283046.41, 4159174.39 ], [ 283048.46, 4159177.19 ], [ 283052.31, 4159174.18 ], [ 283092.59, 4159142.12 ], [ 283099.7, 4159136.47 ], [ 283097.45, 4159133.69 ], [ 283095.27, 4159135.13 ] ] ], [ [ [ 283075.35, 4159187.13 ], [ 283075.13, 4159186.35 ], [ 283075.13, 4159185.63 ], [ 283072.13, 4159182.63 ], [ 283066.73, 4159182.63 ], [ 283066.33, 4159182.46 ], [ 283057.49, 4159189.35 ], [ 283064.07, 4159197.72 ], [ 283076.08, 4159188.3 ], [ 283075.35, 4159187.13 ] ] ], [ [ [ 283248.79, 4159247.54 ], [ 283249.14, 4159247.88 ], [ 283249.47, 4159248.25 ], [ 283250.0, 4159248.92 ], [ 283250.0, 4159246.42 ], [ 283248.68, 4159247.46 ], [ 283248.79, 4159247.54 ] ] ], [ [ [ 283081.49, 4159250.0 ], [ 283081.66, 4159250.0 ], [ 283081.3, 4159249.54 ], [ 283081.49, 4159250.0 ] ] ] ] } },
{ "type": "Feature", "properties": { "id": "imagery:groundcover_lawn:1505", "name": null, "kind": "groundcover_lawn", "sport": null, "surface": null, "pitch_layout": null, "source": "vgin_vbmp+naip+lidar2025", "source_updated": null, "base_z": null, "top_z": null }, "geometry": { "type": "Polygon", "coordinates": [ [ [ 283048.61, 4159016.5 ], [ 283047.4, 4159015.56 ], [ 283043.53, 4159016.53 ], [ 283042.31, 4159016.27 ], [ 283039.68, 4159014.21 ], [ 283038.83, 4159012.47 ], [ 283038.58, 4159012.59 ], [ 283037.47, 4159010.8 ], [ 283035.07, 4159009.59 ], [ 283031.6, 4159010.15 ], [ 283028.22, 4159013.53 ], [ 283027.38, 4159016.15 ], [ 283028.45, 4159022.54 ], [ 283030.16, 4159024.54 ], [ 283030.22, 4159024.62 ], [ 283030.27, 4159024.71 ], [ 283030.31, 4159024.79 ], [ 283030.35, 4159024.89 ], [ 283030.37, 4159024.98 ], [ 283030.39, 4159025.08 ], [ 283030.39, 4159025.18 ], [ 283030.39, 4159025.27 ], [ 283030.38, 4159025.37 ], [ 283030.35, 4159025.47 ], [ 283030.32, 4159025.56 ], [ 283030.28, 4159025.65 ], [ 283030.23, 4159025.74 ], [ 283030.18, 4159025.82 ], [ 283030.11, 4159025.89 ], [ 283030.04, 4159025.96 ], [ 283029.15, 4159026.71 ], [ 283029.44, 4159028.48 ], [ 283029.12, 4159029.64 ], [ 283027.02, 4159032.12 ], [ 283025.33, 4159032.9 ], [ 283023.66, 4159036.27 ], [ 283024.35, 4159036.82 ], [ 283045.73, 4159018.91 ], [ 283048.61, 4159016.5 ] ] ] } },
{ "type": "Feature", "properties": { "id": "richmond_structure:277008", "name": null, "kind": "deck", "sport": null, "surface": null, "pitch_layout": null, "source": "richmond_structures", "source_updated": "2026-09-08T12:07:13.637000Z", "base_z": null, "top_z": null }, "geometry": { "type": "Polygon", "coordinates": [ [ [ 283026.5, 4159027.91 ], [ 283022.46, 4159031.25 ], [ 283023.77, 4159032.98 ], [ 283027.83, 4159029.64 ], [ 283026.5, 4159027.91 ] ] ] } },
{ "type": "Feature", "properties": { "id": "richmond_structure:408484", "name": null, "kind": "deck", "sport": null, "surface": null, "pitch_layout": null, "source": "richmond_structures", "source_updated": "2026-09-08T12:07:13.637000Z", "base_z": null, "top_z": null }, "geometry": { "type": "Polygon", "coordinates": [ [ [ 283074.36, 4159044.48 ], [ 283071.09, 4159047.31 ], [ 283076.28, 4159053.45 ], [ 283077.46, 4159052.44 ], [ 283078.2, 4159053.31 ], [ 283080.25, 4159051.54 ], [ 283074.36, 4159044.48 ] ] ] } },
{ "type": "Feature", "properties": { "id": "richmond_structure:408488", "name": null, "kind": "deck", "sport": null, "surface": null, "pitch_layout": null, "source": "richmond_structures", "source_updated": "2026-09-08T12:07:13.637000Z", "base_z": null, "top_z": null }, "geometry": { "type": "Polygon", "coordinates": [ [ [ 283051.92, 4159067.92 ], [ 283054.46, 4159070.6 ], [ 283055.97, 4159070.2 ], [ 283056.81, 4159069.26 ], [ 283054.3, 4159065.93 ], [ 283051.92, 4159067.92 ] ] ] } },
{ "type": "Feature", "properties": { "id": "richmond_structure:277377", "name": null, "kind": "deck", "sport": null, "surface": null, "pitch_layout": null, "source": "richmond_structures", "source_updated": "2026-09-08T12:07:13.637000Z", "base_z": null, "top_z": null }, "geometry": { "type": "Polygon", "coordinates": [ [ [ 283046.24, 4159072.51 ], [ 283048.83, 4159070.49 ], [ 283047.05, 4159068.58 ], [ 283044.64, 4159070.6 ], [ 283046.24, 4159072.51 ] ] ] } },
{ "type": "Feature", "properties": { "id": "imagery:groundcover_lawn:1456", "name": null, "kind": "groundcover_lawn", "sport": null, "surface": null, "pitch_layout": null, "source": "vgin_vbmp+naip+lidar2025", "source_updated": null, "base_z": null, "top_z": null }, "geometry": { "type": "Polygon", "coordinates": [ [ [ 283060.59, 4159085.16 ], [ 283061.91, 4159083.32 ], [ 283062.63, 4159082.79 ], [ 283067.08, 4159081.31 ], [ 283069.13, 4159078.46 ], [ 283069.13, 4159075.22 ], [ 283069.55, 4159074.2 ], [ 283071.19, 4159072.56 ], [ 283071.19, 4159072.55 ], [ 283071.14, 4159072.47 ], [ 283071.09, 4159072.38 ], [ 283071.06, 4159072.29 ], [ 283071.04, 4159072.19 ], [ 283071.02, 4159072.1 ], [ 283071.02, 4159072.0 ], [ 283071.02, 4159071.9 ], [ 283071.03, 4159071.8 ], [ 283071.06, 4159071.71 ], [ 283071.09, 4159071.62 ], [ 283071.13, 4159071.53 ], [ 283071.18, 4159071.44 ], [ 283071.24, 4159071.36 ], [ 283071.3, 4159071.29 ], [ 283071.38, 4159071.23 ], [ 283076.33, 4159067.12 ], [ 283076.41, 4159067.06 ], [ 283076.49, 4159067.01 ], [ 283076.58, 4159066.96 ], [ 283076.67, 4159066.93 ], [ 283076.77, 4159066.91 ], [ 283076.86, 4159066.89 ], [ 283076.96, 4159066.89 ], [ 283077.06, 4159066.89 ], [ 283077.16, 4159066.9 ], [ 283077.25, 4159066.93 ], [ 283077.34, 4159066.96 ], [ 283077.43, 4159067.0 ], [ 283077.52, 4159067.05 ], [ 283077.6, 4159067.11 ], [ 283077.67, 4159067.18 ], [ 283077.74, 4159067.25 ], [ 283080.66, 4159070.77 ], [ 283081.96, 4159069.97 ], [ 283083.16, 4159067.56 ], [ 283082.6, 4159064.1 ], [ 283074.25, 4159055.75 ], [ 283070.01, 4159055.75 ], [ 283055.22, 4159070.54 ], [ 283054.74, 4159070.86 ], [ 283053.16, 4159071.51 ], [ 283052.59, 4159071.63 ], [ 283051.13, 4159071.63 ], [ 283048.59, 4159074.17 ], [ 283048.31, 4159074.07 ], [ 283047.79, 4159075.52 ], [ 283049.46, 4159079.3 ], [ 283050.05, 4159079.55 ], [ 283056.03, 4159085.52 ], [ 283060.59, 4159085.16 ] ] ] } },
{ "type": "Feature", "properties": { "id": "richmond_structure:277413", "name": null, "kind": "deck", "sport": null, "surface": null, "pitch_layout": null, "source": "richmond_structures", "source_updated": "2026-09-08T12:07:13.637000Z", "base_z": null, "top_z": null }, "geometry": { "type": "Polygon", "coordinates": [ [ [ 283043.84, 4159082.52 ], [ 283046.51, 4159080.32 ], [ 283040.19, 4159072.72 ], [ 283037.52, 4159074.95 ], [ 283043.84, 4159082.52 ] ] ] } },
{ "type": "Feature", "properties": { "id": "imagery:groundcover_lawn:1429", "name": null, "kind": "groundcover_lawn", "sport": null, "surface": null, "pitch_layout": null, "source": "vgin_vbmp+naip+lidar2025", "source_updated": null, "base_z": null, "top_z": null }, "geometry": { "type": "Polygon", "coordinates": [ [ [ 283001.06, 4159112.52 ], [ 283001.03, 4159112.42 ], [ 283001.01, 4159112.33 ], [ 283001.0, 4159112.23 ], [ 283001.0, 4159112.13 ], [ 283001.01, 4159112.03 ], [ 283001.02, 4159111.94 ], [ 283001.05, 4159111.84 ], [ 283001.08, 4159111.75 ], [ 283001.13, 4159111.66 ], [ 283001.18, 4159111.58 ], [ 283001.24, 4159111.5 ], [ 283001.31, 4159111.43 ], [ 283001.39, 4159111.37 ], [ 283004.08, 4159109.28 ], [ 283005.29, 4159107.27 ], [ 283006.07, 4159106.65 ], [ 283007.53, 4159106.16 ], [ 283008.7, 4159101.19 ], [ 283007.61, 4159100.1 ], [ 283007.23, 4159099.45 ], [ 283006.65, 4159097.35 ], [ 283006.64, 4159096.6 ], [ 283007.56, 4159092.89 ], [ 283007.33, 4159092.59 ], [ 283007.27, 4159092.51 ], [ 283007.22, 4159092.43 ], [ 283007.18, 4159092.34 ], [ 283007.15, 4159092.24 ], [ 283007.13, 4159092.15 ], [ 283007.12, 4159092.05 ], [ 283007.12, 4159091.95 ], [ 283007.13, 4159091.85 ], [ 283007.14, 4159091.75 ], [ 283007.17, 4159091.66 ], [ 283007.2, 4159091.57 ], [ 283007.25, 4159091.48 ], [ 283007.3, 4159091.4 ], [ 283007.36, 4159091.32 ], [ 283007.43, 4159091.25 ], [ 283007.51, 4159091.19 ], [ 283008.11, 4159090.72 ], [ 283008.2, 4159090.35 ], [ 283005.29, 4159086.63 ], [ 283001.37, 4159086.63 ], [ 283000.0, 4159087.19 ], [ 283000.0, 4159114.11 ], [ 283005.4, 4159121.22 ], [ 283004.74, 4159117.3 ], [ 283001.21, 4159112.77 ], [ 283001.15, 4159112.69 ], [ 283001.1, 4159112.61 ], [ 283001.06, 4159112.52 ] ] ] } },
{ "type": "Feature", "properties": { "id": "imagery:groundcover_lawn:1284", "name": null, "kind": "groundcover_lawn", "sport": null, "surface": null, "pitch_layout": null, "source": "vgin_vbmp+naip+lidar2025", "source_updated": null, "base_z": null, "top_z": null }, "geometry": { "type": "MultiPolygon", "coordinates": [ [ [ [ 283079.37, 4159249.21 ], [ 283077.01, 4159250.0 ], [ 283081.66, 4159250.0 ], [ 283081.42, 4159249.7 ], [ 283079.37, 4159249.21 ] ] ], [ [ [ 283069.98, 4159250.0 ], [ 283072.66, 4159250.0 ], [ 283071.25, 4159249.42 ], [ 283069.98, 4159250.0 ] ] ] ] } },
{ "type": "Feature", "properties": { "id": "richmond_structure:277370", "name": null, "kind": "deck", "sport": null, "surface": null, "pitch_layout": null, "source": "richmond_structures", "source_updated": "2026-09-08T12:07:13.637000Z", "base_z": null, "top_z": null }, "geometry": { "type": "Polygon", "coordinates": [ [ [ 283107.21, 4159002.6 ], [ 283110.26, 4159000.0 ], [ 283107.31, 4159000.0 ], [ 283106.05, 4159001.05 ], [ 283107.21, 4159002.6 ] ] ] } },
{ "type": "Feature", "properties": { "id": "richmond_structure:277371", "name": null, "kind": "deck", "sport": null, "surface": null, "pitch_layout": null, "source": "richmond_structures", "source_updated": "2026-09-08T12:07:13.637000Z", "base_z": null, "top_z": null }, "geometry": { "type": "Polygon", "coordinates": [ [ [ 283097.45, 4159010.92 ], [ 283101.71, 4159007.29 ], [ 283100.23, 4159005.83 ], [ 283096.13, 4159009.3 ], [ 283097.45, 4159010.92 ] ] ] } },
{ "type": "Feature", "properties": { "id": "richmond_structure:408480", "name": null, "kind": "deck", "sport": null, "surface": null, "pitch_layout": null, "source": "richmond_structures", "source_updated": "2026-09-08T12:07:13.637000Z", "base_z": null, "top_z": null }, "geometry": { "type": "Polygon", "coordinates": [ [ [ 283082.44, 4159037.49 ], [ 283088.54, 4159044.61 ], [ 283092.4, 4159041.23 ], [ 283086.3, 4159034.11 ], [ 283082.44, 4159037.49 ] ] ] } },
{ "type": "Feature", "properties": { "id": "richmond_structure:408486", "name": null, "kind": "deck", "sport": null, "surface": null, "pitch_layout": null, "source": "richmond_structures", "source_updated": "2026-09-08T12:07:13.637000Z", "base_z": null, "top_z": null }, "geometry": { "type": "Polygon", "coordinates": [ [ [ 283074.14, 4159064.08 ], [ 283076.97, 4159067.89 ], [ 283082.99, 4159062.85 ], [ 283079.91, 4159059.26 ], [ 283074.14, 4159064.08 ] ] ] } },
{ "type": "Feature", "properties": { "id": "richmond_structure:277380", "name": null, "kind": "deck", "sport": null, "surface": null, "pitch_layout": null, "source": "richmond_structures", "source_updated": "2026-09-08T12:07:13.637000Z", "base_z": null, "top_z": null }, "geometry": { "type": "Polygon", "coordinates": [ [ [ 283243.01, 4159085.29 ], [ 283245.26, 4159083.34 ], [ 283235.89, 4159071.44 ], [ 283229.6, 4159076.34 ], [ 283230.51, 4159077.6 ], [ 283228.31, 4159079.11 ], [ 283227.37, 4159081.39 ], [ 283225.51, 4159082.95 ], [ 283224.24, 4159086.24 ], [ 283230.32, 4159094.4 ], [ 283233.65, 4159094.37 ], [ 283244.19, 4159086.74 ], [ 283243.01, 4159085.29 ] ] ] } },
{ "type": "Feature", "properties": { "id": "osm:way/334113917", "name": null, "kind": "parking", "sport": null, "surface": null, "pitch_layout": null, "source": null, "source_updated": null, "base_z": null, "top_z": null }, "geometry": { "type": "MultiPolygon", "coordinates": [ [ [ [ 283232.74, 4159058.21 ], [ 283250.0, 4159079.37 ], [ 283250.0, 4159048.96 ], [ 283248.92, 4159047.59 ], [ 283232.74, 4159058.21 ] ] ], [ [ [ 283212.9, 4159108.79 ], [ 283179.67, 4159134.54 ], [ 283183.9, 4159139.95 ], [ 283190.17, 4159135.09 ], [ 283197.31, 4159144.21 ], [ 283220.22, 4159126.44 ], [ 283216.35, 4159121.49 ], [ 283240.44, 4159102.82 ], [ 283244.05, 4159107.43 ], [ 283246.67, 4159105.41 ], [ 283250.0, 4159109.67 ], [ 283250.0, 4159089.9 ], [ 283217.3, 4159114.44 ], [ 283212.9, 4159108.79 ] ] ] ] } },
{ "type": "Feature", "properties": { "id": "osm:way/236488087", "name": "Bowe Street Parking Deck", "kind": "parking", "sport": null, "surface": null, "pitch_layout": null, "source": null, "source_updated": null, "base_z": null, "top_z": null }, "geometry": { "type": "Polygon", "coordinates": [ [ [ 283237.53, 4159119.04 ], [ 283233.67, 4159122.08 ], [ 283230.22, 4159121.4 ], [ 283227.39, 4159117.84 ], [ 283221.48, 4159122.5 ], [ 283225.12, 4159127.08 ], [ 283156.17, 4159180.79 ], [ 283179.75, 4159209.93 ], [ 283250.0, 4159153.76 ], [ 283250.0, 4159141.23 ], [ 283239.21, 4159127.66 ], [ 283242.38, 4159125.15 ], [ 283237.53, 4159119.04 ] ] ] } },
{ "type": "Feature", "properties": { "id": "osm:way/367704019", "name": null, "kind": "parking", "sport": null, "surface": null, "pitch_layout": null, "source": null, "source_updated": null, "base_z": null, "top_z": null }, "geometry": { "type": "Polygon", "coordinates": [ [ [ 283224.1, 4159201.44 ], [ 283250.0, 4159233.53 ], [ 283250.0, 4159203.14 ], [ 283239.0, 4159189.51 ], [ 283224.1, 4159201.44 ] ] ] } },
{ "type": "Feature", "properties": { "id": "osm:way/334123560", "name": null, "kind": "parking", "sport": null, "surface": null, "pitch_layout": null, "source": null, "source_updated": null, "base_z": null, "top_z": null }, "geometry": { "type": "Polygon", "coordinates": [ [ [ 283113.9, 4159248.88 ], [ 283112.46, 4159250.0 ], [ 283191.35, 4159250.0 ], [ 283112.26, 4159148.96 ], [ 283098.25, 4159159.83 ], [ 283142.4, 4159216.24 ], [ 283108.77, 4159242.32 ], [ 283113.9, 4159248.88 ] ] ] } }
]
}
