{
  "type": "FeatureCollection",
  "name": "richmond-massing",
  "crs": {
    "type": "name",
    "properties": {
      "name": "urn:ogc:def:crs:OGC:1.3:CRS84"
    }
  },
  "features": [
    {
      "type": "Feature",
      "properties": {
        "target_id": "osm:way/264523632",
        "part_id": "base",
        "name": "Delta Hotels Richmond Downtown",
        "height": 11.0,
        "min_height": 0.0,
        "threshold_m": null,
        "source": "NOAA 2025 City of Richmond classified LiDAR normalized DSM, flown 2025-02-14 through 2025-03-01",
        "source_date": "2025-03-01",
        "method": "1 m nDSM broad stable height region; morphology removes rooftop equipment and edge noise"
      },
      "geometry": {
        "type": "Polygon",
        "coordinates": [
          [
            [
              -77.4410002,
              37.538218
            ],
            [
              -77.4403898,
              37.5378505
            ],
            [
              -77.440585,
              37.53783760000001
            ],
            [
              -77.4406378,
              37.5378602
            ],
            [
              -77.4407273,
              37.5378538
            ],
            [
              -77.4407723,
              37.5378815
            ],
            [
              -77.4407964,
              37.537857
            ],
            [
              -77.441207,
              37.5380021
            ],
            [
              -77.4410002,
              37.538218
            ]
          ]
        ]
      }
    },
    {
      "type": "Feature",
      "properties": {
        "target_id": "osm:way/264523632",
        "part_id": "tier-1",
        "name": "Delta Hotels Richmond Downtown",
        "height": 48.0,
        "min_height": 11.0,
        "threshold_m": 25.0,
        "source": "NOAA 2025 City of Richmond classified LiDAR normalized DSM, flown 2025-02-14 through 2025-03-01",
        "source_date": "2025-03-01",
        "method": "1 m nDSM broad stable height region; morphology removes rooftop equipment and edge noise"
      },
      "geometry": {
        "type": "Polygon",
        "coordinates": [
          [
            [
              -77.44109561304295,
              37.53806770996806
            ],
            [
              -77.44110809697034,
              37.538103497683345
            ],
            [
              -77.44097909283114,
              37.538205292244946
            ],
            [
              -77.4404561037578,
              37.537890419457
            ],
            [
              -77.44045526431097,
              37.53786467749301
            ],
            [
              -77.4407355546629,
              37.537858881206496
            ],
            [
              -77.44109561304295,
              37.53806770996806
            ]
          ]
        ]
      }
    },
    {
      "type": "Feature",
      "properties": {
        "target_id": "osm:way/236488135",
        "part_id": "base",
        "name": "Greater Richmond Convention Center Annex",
        "height": 14.5,
        "min_height": 0.0,
        "threshold_m": null,
        "source": "NOAA 2025 City of Richmond classified LiDAR normalized DSM, flown 2025-02-14 through 2025-03-01",
        "source_date": "2025-03-01",
        "method": "1 m nDSM broad stable height region; morphology removes rooftop equipment and edge noise"
      },
      "geometry": {
        "type": "Polygon",
        "coordinates": [
          [
            [
              -77.4369019,
              37.5437933
            ],
            [
              -77.4368902,
              37.5438061
            ],
            [
              -77.4368498,
              37.5437765
            ],
            [
              -77.4369157,
              37.5437171
            ],
            [
              -77.4368793,
              37.5436919
            ],
            [
              -77.437379,
              37.5431859
            ],
            [
              -77.4373744,
              37.5431571
            ],
            [
              -77.4373994,
              37.5431337
            ],
            [
              -77.43743580000002,
              37.5431319
            ],
            [
              -77.4374653,
              37.5431517
            ],
            [
              -77.4374744,
              37.5431697
            ],
            [
              -77.4382965,
              37.5436397
            ],
            [
              -77.4379627,
              37.5440106
            ],
            [
              -77.4380376,
              37.5440467
            ],
            [
              -77.4378105,
              37.54428439999999
            ],
            [
              -77.4378741,
              37.5443186
            ],
            [
              -77.4378151,
              37.544378
            ],
            [
              -77.4375879,
              37.5442393
            ],
            [
              -77.4374497,
              37.5443879
            ],
            [
              -77.4373667,
              37.5443386
            ],
            [
              -77.4375062,
              37.5441889
            ],
            [
              -77.436977,
              37.5438756
            ],
            [
              -77.4370043,
              37.5438504
            ],
            [
              -77.4369019,
              37.5437933
            ]
          ]
        ]
      }
    },
    {
      "type": "Feature",
      "properties": {
        "target_id": "osm:way/236488135",
        "part_id": "tier-1",
        "name": "Greater Richmond Convention Center Annex",
        "height": 22.0,
        "min_height": 14.5,
        "threshold_m": 18.5,
        "source": "NOAA 2025 City of Richmond classified LiDAR normalized DSM, flown 2025-02-14 through 2025-03-01",
        "source_date": "2025-03-01",
        "method": "1 m nDSM broad stable height region; morphology removes rooftop equipment and edge noise"
      },
      "geometry": {
        "type": "Polygon",
        "coordinates": [
          [
            [
              -77.43806841910356,
              37.543798508997966
            ],
            [
              -77.43808231665584,
              37.54387768913736
            ],
            [
              -77.43778786039121,
              37.544218832940814
            ],
            [
              -77.43760396815787,
              37.54413251663941
            ],
            [
              -77.43760220781907,
              37.54407848411097
            ],
            [
              -77.43763613744237,
              37.5440777832773
            ],
            [
              -77.43761175735139,
              37.54402421797227
            ],
            [
              -77.43750012556507,
              37.54407158113139
            ],
            [
              -77.43710766987233,
              37.543836376425574
            ],
            [
              -77.43712823624917,
              37.543772871326176
            ],
            [
              -77.43753320464586,
              37.54334997932688
            ],
            [
              -77.43795958835302,
              37.54358448175821
            ],
            [
              -77.4379610554905,
              37.54362950885706
            ],
            [
              -77.43788394079229,
              37.54369418226322
            ],
            [
              -77.43788511447025,
              37.54373020394371
            ],
            [
              -77.43796604378234,
              37.54378260099024
            ],
            [
              -77.43806841910356,
              37.543798508997966
            ]
          ]
        ]
      }
    },
    {
      "type": "Feature",
      "properties": {
        "target_id": "osm:way/607736033",
        "part_id": "base",
        "name": "The Virginia Home",
        "height": 7.5,
        "min_height": 0.0,
        "threshold_m": null,
        "source": "NOAA 2025 City of Richmond classified LiDAR normalized DSM, flown 2025-02-14 through 2025-03-01",
        "source_date": "2025-03-01",
        "method": "1 m nDSM broad stable height region; morphology removes rooftop equipment and edge noise"
      },
      "geometry": {
        "type": "Polygon",
        "coordinates": [
          [
            [
              -77.4715844,
              37.5403299
            ],
            [
              -77.4715941,
              37.54031229999999
            ],
            [
              -77.471615,
              37.5403051
            ],
            [
              -77.4716191,
              37.5402977
            ],
            [
              -77.4717293,
              37.540336
            ],
            [
              -77.4717169,
              37.5403584
            ],
            [
              -77.4717701,
              37.5403769
            ],
            [
              -77.471758,
              37.5403988
            ],
            [
              -77.4717684,
              37.5404024
            ],
            [
              -77.4717639,
              37.5404105
            ],
            [
              -77.471816,
              37.5404285
            ],
            [
              -77.4717522,
              37.540544
            ],
            [
              -77.4717923,
              37.5405579
            ],
            [
              -77.4717496,
              37.5406352
            ],
            [
              -77.47177830000001,
              37.5406452
            ],
            [
              -77.4717218,
              37.5407475
            ],
            [
              -77.4716941,
              37.5407379
            ],
            [
              -77.4716487,
              37.54082
            ],
            [
              -77.4716061,
              37.5408052
            ],
            [
              -77.4715416,
              37.540922
            ],
            [
              -77.4714796,
              37.5409005
            ],
            [
              -77.4714647,
              37.54092760000001
            ],
            [
              -77.4714002,
              37.5409052
            ],
            [
              -77.4714142,
              37.5408799
            ],
            [
              -77.4713664,
              37.540863299999984
            ],
            [
              -77.4713708,
              37.5408555
            ],
            [
              -77.4711752,
              37.5407876
            ],
            [
              -77.471216,
              37.5407138
            ],
            [
              -77.4711072,
              37.540676
            ],
            [
              -77.47104250000001,
              37.5407931
            ],
            [
              -77.470751,
              37.5406919
            ],
            [
              -77.4707657,
              37.5406655
            ],
            [
              -77.4707466,
              37.5406588
            ],
            [
              -77.470814,
              37.5405369
            ],
            [
              -77.4708279,
              37.5405417
            ],
            [
              -77.4708642,
              37.5404759
            ],
            [
              -77.4708516,
              37.5404715
            ],
            [
              -77.4710552,
              37.540103
            ],
            [
              -77.4712247,
              37.5401619
            ],
            [
              -77.4712198,
              37.5401708
            ],
            [
              -77.4712984,
              37.5401981
            ],
            [
              -77.4713117,
              37.540174
            ],
            [
              -77.4714054,
              37.5402065
            ],
            [
              -77.471281,
              37.5404318
            ],
            [
              -77.4711908,
              37.5404005
            ],
            [
              -77.4711674,
              37.5404429
            ],
            [
              -77.4711805,
              37.5404474
            ],
            [
              -77.4711834,
              37.5404421
            ],
            [
              -77.4715229,
              37.54056
            ],
            [
              -77.471571,
              37.5404729
            ],
            [
              -77.4715794,
              37.5404758
            ],
            [
              -77.4716391,
              37.54036769999998
            ],
            [
              -77.47159,
              37.5403507
            ],
            [
              -77.4715844,
              37.5403299
            ]
          ]
        ]
      }
    },
    {
      "type": "Feature",
      "properties": {
        "target_id": "osm:way/607736033",
        "part_id": "tier-1",
        "name": "The Virginia Home",
        "height": 19.0,
        "min_height": 7.5,
        "threshold_m": 12.0,
        "source": "NOAA 2025 City of Richmond classified LiDAR normalized DSM, flown 2025-02-14 through 2025-03-01",
        "source_date": "2025-03-01",
        "method": "1 m nDSM broad stable height region; morphology removes rooftop equipment and edge noise"
      },
      "geometry": {
        "type": "Polygon",
        "coordinates": [
          [
            [
              -77.47176134509618,
              37.54040320844377
            ],
            [
              -77.47168783344692,
              37.540575965185795
            ],
            [
              -77.47168932070788,
              37.540620991168275
            ],
            [
              -77.47175778558785,
              37.540638052122205
            ],
            [
              -77.47173748073398,
              37.54071910818699
            ],
            [
              -77.47160241750791,
              37.54073094834462
            ],
            [
              -77.47151729866412,
              37.540894936647696
            ],
            [
              -77.47147223064368,
              37.54091390332849
            ],
            [
              -77.47142741436684,
              37.54091465119701
            ],
            [
              -77.47138039970972,
              37.54086175786792
            ],
            [
              -77.4714542097488,
              37.540698006487816
            ],
            [
              -77.47144141355501,
              37.540653217330814
            ],
            [
              -77.47121225817334,
              37.54056790176416
            ],
            [
              -77.47116731932465,
              37.540577854195355
            ],
            [
              -77.47113577122666,
              37.540650606209454
            ],
            [
              -77.4710789284838,
              37.54064278501064
            ],
            [
              -77.47106583514653,
              37.54058899060347
            ],
            [
              -77.4711744649297,
              37.54045154458762
            ],
            [
              -77.4715229,
              37.54056
            ],
            [
              -77.47164706501307,
              37.54036955621772
            ],
            [
              -77.47173753721314,
              37.54036766137896
            ],
            [
              -77.47176134509618,
              37.54040320844377
            ]
          ]
        ]
      }
    },
    {
      "type": "Feature",
      "properties": {
        "target_id": "osm:way/229722624",
        "part_id": "base",
        "name": "Trani Center for Life Sciences",
        "height": 9.0,
        "min_height": 0.0,
        "threshold_m": null,
        "source": "NOAA 2025 City of Richmond classified LiDAR normalized DSM, flown 2025-02-14 through 2025-03-01",
        "source_date": "2025-03-01",
        "method": "1 m nDSM broad stable height region; morphology removes rooftop equipment and edge noise"
      },
      "geometry": {
        "type": "Polygon",
        "coordinates": [
          [
            [
              -77.4541808,
              37.544947
            ],
            [
              -77.4544872,
              37.5449443
            ],
            [
              -77.4544827,
              37.544892
            ],
            [
              -77.4542208,
              37.5448894
            ],
            [
              -77.4541787,
              37.5448727
            ],
            [
              -77.4541773,
              37.54467219999999
            ],
            [
              -77.454218,
              37.5446722
            ],
            [
              -77.4542166,
              37.5446555
            ],
            [
              -77.4551731,
              37.5446589
            ],
            [
              -77.4551717,
              37.5446722
            ],
            [
              -77.4552405,
              37.54467109999999
            ],
            [
              -77.4552391,
              37.5448682
            ],
            [
              -77.4552138,
              37.5448682
            ],
            [
              -77.4552124,
              37.5448849
            ],
            [
              -77.4545467,
              37.5448858
            ],
            [
              -77.4545467,
              37.544947
            ],
            [
              -77.454441,
              37.5453548
            ],
            [
              -77.4541828,
              37.5453048
            ],
            [
              -77.4541808,
              37.544947
            ]
          ]
        ]
      }
    },
    {
      "type": "Feature",
      "properties": {
        "target_id": "osm:way/229722624",
        "part_id": "tier-1",
        "name": "Trani Center for Life Sciences",
        "height": 17.5,
        "min_height": 9.0,
        "threshold_m": 13.0,
        "source": "NOAA 2025 City of Richmond classified LiDAR normalized DSM, flown 2025-02-14 through 2025-03-01",
        "source_date": "2025-03-01",
        "method": "1 m nDSM broad stable height region; morphology removes rooftop equipment and edge noise"
      },
      "geometry": {
        "type": "Polygon",
        "coordinates": [
          [
            [
              -77.45523803965092,
              37.5448663564732
            ],
            [
              -77.45453682903792,
              37.544880943173304
            ],
            [
              -77.45453771534345,
              37.5449079590919
            ],
            [
              -77.45445766006598,
              37.544882589797496
            ],
            [
              -77.45422015311154,
              37.54488752935196
            ],
            [
              -77.45418563275639,
              37.544870224346454
            ],
            [
              -77.45417942954049,
              37.54468111286212
            ],
            [
              -77.45434848608826,
              37.544659574116906
            ],
            [
              -77.45523183377742,
              37.54467724513804
            ],
            [
              -77.45523803965092,
              37.5448663564732
            ]
          ]
        ]
      }
    },
    {
      "type": "Feature",
      "properties": {
        "target_id": "osm:way/224603450",
        "part_id": "base",
        "name": "BioTech 6 - Consolidated Labs",
        "height": 16.0,
        "min_height": 0.0,
        "threshold_m": null,
        "source": "NOAA 2025 City of Richmond classified LiDAR normalized DSM, flown 2025-02-14 through 2025-03-01",
        "source_date": "2025-03-01",
        "method": "1 m nDSM broad stable height region; morphology removes rooftop equipment and edge noise"
      },
      "geometry": {
        "type": "Polygon",
        "coordinates": [
          [
            [
              -77.4347718,
              37.5470679
            ],
            [
              -77.4340905,
              37.546661
            ],
            [
              -77.4342523,
              37.5464909
            ],
            [
              -77.4343049,
              37.546522
            ],
            [
              -77.4342924,
              37.5464975
            ],
            [
              -77.4343112,
              37.5464614
            ],
            [
              -77.4343487,
              37.5464401
            ],
            [
              -77.4344024,
              37.5464401
            ],
            [
              -77.4343281,
              37.5463944
            ],
            [
              -77.4346745,
              37.5460239
            ],
            [
              -77.4346963,
              37.54603669999999
            ],
            [
              -77.4347249,
              37.5460061
            ],
            [
              -77.4348874,
              37.5461016
            ],
            [
              -77.4349086,
              37.546079
            ],
            [
              -77.4350424,
              37.5461577
            ],
            [
              -77.4346537,
              37.546589199999985
            ],
            [
              -77.4350251,
              37.5468013
            ],
            [
              -77.4347718,
              37.5470679
            ]
          ]
        ]
      }
    },
    {
      "type": "Feature",
      "properties": {
        "target_id": "osm:way/224603450",
        "part_id": "tier-1",
        "name": "BioTech 6 - Consolidated Labs",
        "height": 22.0,
        "min_height": 16.0,
        "threshold_m": 19.0,
        "source": "NOAA 2025 City of Richmond classified LiDAR normalized DSM, flown 2025-02-14 through 2025-03-01",
        "source_date": "2025-03-01",
        "method": "1 m nDSM broad stable height region; morphology removes rooftop equipment and edge noise"
      },
      "geometry": {
        "type": "Polygon",
        "coordinates": [
          [
            [
              -77.4348751914213,
              37.546180387172164
            ],
            [
              -77.43495670767307,
              37.546250797116905
            ],
            [
              -77.43493375814269,
              37.54627830509018
            ],
            [
              -77.4348096747359,
              37.5462538308048
            ],
            [
              -77.43486938605366,
              37.54634976536834
            ],
            [
              -77.43482450190622,
              37.5463616626909
            ],
            [
              -77.43476677840039,
              37.54632680770719
            ],
            [
              -77.43481465705513,
              37.54640692322904
            ],
            [
              -77.43464043338551,
              37.54661778183335
            ],
            [
              -77.43464189868705,
              37.54666280902031
            ],
            [
              -77.43482608722402,
              37.54675813524399
            ],
            [
              -77.4348058112709,
              37.54683064544591
            ],
            [
              -77.43476174232181,
              37.54686760060727
            ],
            [
              -77.43469388039993,
              37.546869000701065
            ],
            [
              -77.43469300119334,
              37.54684198439092
            ],
            [
              -77.43460339783014,
              37.546870867432176
            ],
            [
              -77.43453289845215,
              37.54679121849472
            ],
            [
              -77.43438894668719,
              37.546839245526996
            ],
            [
              -77.43427187430387,
              37.54676932493178
            ],
            [
              -77.43429274472906,
              37.546715069227915
            ],
            [
              -77.43482877824809,
              37.546145298853915
            ],
            [
              -77.43487372600495,
              37.54613535998933
            ],
            [
              -77.4348751914213,
              37.546180387172164
            ]
          ]
        ]
      }
    },
    {
      "type": "Feature",
      "properties": {
        "target_id": "osm:way/263127150",
        "part_id": "base",
        "name": "Pocahontas Building",
        "height": 26.0,
        "min_height": 0.0,
        "threshold_m": null,
        "source": "NOAA 2025 City of Richmond classified LiDAR normalized DSM, flown 2025-02-14 through 2025-03-01",
        "source_date": "2025-03-01",
        "method": "1 m nDSM broad stable height region; morphology removes rooftop equipment and edge noise"
      },
      "geometry": {
        "type": "Polygon",
        "coordinates": [
          [
            [
              -77.4355097,
              37.538427
            ],
            [
              -77.4350882,
              37.5381802
            ],
            [
              -77.4354232,
              37.5378219
            ],
            [
              -77.4358434,
              37.538068799999984
            ],
            [
              -77.4355097,
              37.538427
            ]
          ]
        ]
      }
    },
    {
      "type": "Feature",
      "properties": {
        "target_id": "osm:way/263127150",
        "part_id": "tier-1",
        "name": "Pocahontas Building",
        "height": 32.0,
        "min_height": 26.0,
        "threshold_m": 29.0,
        "source": "NOAA 2025 City of Richmond classified LiDAR normalized DSM, flown 2025-02-14 through 2025-03-01",
        "source_date": "2025-03-01",
        "method": "1 m nDSM broad stable height region; morphology removes rooftop equipment and edge noise"
      },
      "geometry": {
        "type": "Polygon",
        "coordinates": [
          [
            [
              -77.43575572836862,
              37.53811495806421
            ],
            [
              -77.43576817092828,
              37.538149552702805
            ],
            [
              -77.43557109568444,
              37.5383530672758
            ],
            [
              -77.43531790125495,
              37.53822311979866
            ],
            [
              -77.43532745194209,
              37.53816885376397
            ],
            [
              -77.43540427044857,
              37.53809517665086
            ],
            [
              -77.43554232294034,
              37.53816441971663
            ],
            [
              -77.43559857484622,
              37.53815424735322
            ],
            [
              -77.43559769558952,
              37.53812723102132
            ],
            [
              -77.43556376861117,
              37.538127931175346
            ],
            [
              -77.43558433501195,
              37.53806442629825
            ],
            [
              -77.43575572836862,
              37.53811495806421
            ]
          ]
        ]
      }
    }
  ]
}
