{
"type": "FeatureCollection",
"name": "roads",
"crs": { "type": "name", "properties": { "name": "urn:ogc:def:crs:EPSG::32618" } },
"xy_coordinate_resolution": 0.01,
"features": [
{ "type": "Feature", "properties": { "id": "osm:way/1225580688", "name": null, "highway": "service", "lanes": null, "width": 4.5, "oneway": false, "surface": null, "footway": null, "sidewalk_left": false, "sidewalk_right": false, "generated_sidewalk": false, "bus_lanes": null, "bus_lane_side": null, "bus_only": false, "sidewalk": false, "bridge": false, "ramp": false, "tunnel": false, "layer": 0, "deck": null }, "geometry": { "type": "LineString", "coordinates": [ [ 284688.68, 4159000.0 ], [ 284688.86, 4159000.24 ] ] } },
{ "type": "Feature", "properties": { "id": "osm:way/1223669991", "name": null, "highway": "footway", "lanes": null, "width": 2.0, "oneway": false, "surface": "asphalt", "footway": "crossing", "sidewalk_left": false, "sidewalk_right": false, "generated_sidewalk": false, "bus_lanes": null, "bus_lane_side": null, "bus_only": false, "sidewalk": false, "bridge": false, "ramp": false, "tunnel": false, "layer": 0, "deck": null }, "geometry": { "type": "LineString", "coordinates": [ [ 284673.0, 4159000.0 ], [ 284676.96, 4159004.85 ], [ 284683.0, 4159012.25 ], [ 284685.03, 4159012.26 ] ] } },
{ "type": "Feature", "properties": { "id": "osm:way/1223669965", "name": null, "highway": "footway", "lanes": null, "width": 2.0, "oneway": false, "surface": null, "footway": null, "sidewalk_left": false, "sidewalk_right": false, "generated_sidewalk": false, "bus_lanes": null, "bus_lane_side": null, "bus_only": false, "sidewalk": false, "bridge": false, "ramp": false, "tunnel": false, "layer": 0, "deck": null }, "geometry": { "type": "LineString", "coordinates": [ [ 284688.37, 4159017.97 ], [ 284690.56, 4159009.51 ] ] } },
{ "type": "Feature", "properties": { "id": "osm:way/1223669963", "name": null, "highway": "footway", "lanes": null, "width": 2.0, "oneway": false, "surface": "concrete", "footway": "sidewalk", "sidewalk_left": false, "sidewalk_right": false, "generated_sidewalk": false, "bus_lanes": null, "bus_lane_side": null, "bus_only": false, "sidewalk": false, "bridge": false, "ramp": false, "tunnel": false, "layer": 0, "deck": null }, "geometry": { "type": "MultiLineString", "coordinates": [ [ [ 284717.19, 4159080.3 ], [ 284707.23, 4159067.38 ], [ 284701.42, 4159059.63 ], [ 284693.2, 4159048.68 ], [ 284688.82, 4159044.91 ], [ 284685.69, 4159041.49 ], [ 284680.92, 4159033.19 ], [ 284672.9, 4159022.83 ], [ 284666.09, 4159014.64 ], [ 284658.61, 4159004.37 ], [ 284655.12, 4159001.53 ], [ 284653.8, 4159000.0 ] ], [ [ 284569.01, 4159000.0 ], [ 284571.61, 4159003.37 ], [ 284585.87, 4159021.89 ], [ 284600.21, 4159040.72 ], [ 284606.17, 4159048.39 ], [ 284620.08, 4159066.42 ], [ 284634.41, 4159084.78 ], [ 284640.7, 4159092.84 ], [ 284651.4, 4159106.98 ], [ 284652.85, 4159107.89 ], [ 284654.56, 4159108.03 ], [ 284716.17, 4159084.87 ], [ 284717.18, 4159083.9 ], [ 284717.54, 4159082.93 ], [ 284717.51, 4159081.61 ], [ 284717.19, 4159080.3 ] ] ] } },
{ "type": "Feature", "properties": { "id": "osm:way/182380858", "name": null, "highway": "footway", "lanes": null, "width": 2.0, "oneway": false, "surface": null, "footway": null, "sidewalk_left": false, "sidewalk_right": false, "generated_sidewalk": false, "bus_lanes": null, "bus_lane_side": null, "bus_only": false, "sidewalk": false, "bridge": false, "ramp": false, "tunnel": false, "layer": 0, "deck": null }, "geometry": { "type": "LineString", "coordinates": [ [ 284600.21, 4159040.72 ], [ 284666.09, 4159014.64 ] ] } },
{ "type": "Feature", "properties": { "id": "osm:way/182380859", "name": null, "highway": "footway", "lanes": null, "width": 2.0, "oneway": false, "surface": null, "footway": null, "sidewalk_left": false, "sidewalk_right": false, "generated_sidewalk": false, "bus_lanes": null, "bus_lane_side": null, "bus_only": false, "sidewalk": false, "bridge": false, "ramp": false, "tunnel": false, "layer": 0, "deck": null }, "geometry": { "type": "LineString", "coordinates": [ [ 284606.17, 4159048.39 ], [ 284672.9, 4159022.83 ], [ 284679.76, 4159019.86 ] ] } },
{ "type": "Feature", "properties": { "id": "osm:way/182380865", "name": null, "highway": "footway", "lanes": null, "width": 2.0, "oneway": false, "surface": null, "footway": null, "sidewalk_left": false, "sidewalk_right": false, "generated_sidewalk": false, "bus_lanes": null, "bus_lane_side": null, "bus_only": false, "sidewalk": false, "bridge": false, "ramp": false, "tunnel": false, "layer": 0, "deck": null }, "geometry": { "type": "LineString", "coordinates": [ [ 284620.08, 4159066.42 ], [ 284685.69, 4159041.49 ] ] } },
{ "type": "Feature", "properties": { "id": "osm:way/1484769660", "name": null, "highway": "footway", "lanes": null, "width": 2.0, "oneway": false, "surface": null, "footway": null, "sidewalk_left": false, "sidewalk_right": false, "generated_sidewalk": false, "bus_lanes": null, "bus_lane_side": null, "bus_only": false, "sidewalk": false, "bridge": false, "ramp": false, "tunnel": false, "layer": 0, "deck": null }, "geometry": { "type": "LineString", "coordinates": [ [ 284634.41, 4159084.78 ], [ 284701.42, 4159059.63 ] ] } },
{ "type": "Feature", "properties": { "id": "osm:way/182382388", "name": null, "highway": "footway", "lanes": null, "width": 2.0, "oneway": false, "surface": null, "footway": null, "sidewalk_left": false, "sidewalk_right": false, "generated_sidewalk": false, "bus_lanes": null, "bus_lane_side": null, "bus_only": false, "sidewalk": false, "bridge": false, "ramp": false, "tunnel": false, "layer": 0, "deck": null }, "geometry": { "type": "LineString", "coordinates": [ [ 284640.7, 4159092.84 ], [ 284707.23, 4159067.38 ] ] } },
{ "type": "Feature", "properties": { "id": "osm:way/323636835", "name": "West Coutts Street", "highway": "residential", "lanes": null, "width": 7.0, "oneway": false, "surface": null, "footway": null, "sidewalk_left": false, "sidewalk_right": null, "generated_sidewalk": true, "bus_lanes": null, "bus_lane_side": null, "bus_only": false, "sidewalk": false, "bridge": false, "ramp": false, "tunnel": false, "layer": 0, "deck": null }, "geometry": { "type": "LineString", "coordinates": [ [ 284730.94, 4159086.0 ], [ 284682.37, 4159104.31 ], [ 284662.18, 4159110.82 ], [ 284655.45, 4159110.91 ], [ 284647.98, 4159111.01 ] ] } },
{ "type": "Feature", "properties": { "id": "osm:way/1225580677", "name": null, "highway": "footway", "lanes": null, "width": 2.0, "oneway": false, "surface": null, "footway": null, "sidewalk_left": false, "sidewalk_right": false, "generated_sidewalk": false, "bus_lanes": null, "bus_lane_side": null, "bus_only": false, "sidewalk": false, "bridge": false, "ramp": false, "tunnel": false, "layer": 0, "deck": null }, "geometry": { "type": "LineString", "coordinates": [ [ 284580.44, 4159000.0 ], [ 284571.61, 4159003.37 ] ] } },
{ "type": "Feature", "properties": { "id": "osm:way/1225580683", "name": null, "highway": "footway", "lanes": null, "width": 2.0, "oneway": false, "surface": null, "footway": "crossing", "sidewalk_left": false, "sidewalk_right": false, "generated_sidewalk": false, "bus_lanes": null, "bus_lane_side": null, "bus_only": false, "sidewalk": false, "bridge": false, "ramp": false, "tunnel": false, "layer": 0, "deck": null }, "geometry": { "type": "LineString", "coordinates": [ [ 284552.77, 4159000.42 ], [ 284553.85, 4159000.0 ] ] } },
{ "type": "Feature", "properties": { "id": "osm:way/182380875", "name": null, "highway": "footway", "lanes": null, "width": 2.0, "oneway": false, "surface": "concrete", "footway": null, "sidewalk_left": false, "sidewalk_right": false, "generated_sidewalk": false, "bus_lanes": null, "bus_lane_side": null, "bus_only": false, "sidewalk": false, "bridge": false, "ramp": false, "tunnel": false, "layer": 0, "deck": null }, "geometry": { "type": "LineString", "coordinates": [ [ 284504.42, 4159000.0 ], [ 284505.52, 4159007.62 ], [ 284518.46, 4159022.68 ] ] } },
{ "type": "Feature", "properties": { "id": "osm:way/1223669992", "name": null, "highway": "footway", "lanes": null, "width": 2.0, "oneway": false, "surface": null, "footway": null, "sidewalk_left": false, "sidewalk_right": false, "generated_sidewalk": false, "bus_lanes": null, "bus_lane_side": null, "bus_only": false, "sidewalk": false, "bridge": false, "ramp": false, "tunnel": false, "layer": 0, "deck": null }, "geometry": { "type": "LineString", "coordinates": [ [ 284641.92, 4159000.0 ], [ 284585.87, 4159021.89 ] ] } },
{ "type": "Feature", "properties": { "id": "osm:way/182380845", "name": null, "highway": "footway", "lanes": null, "width": 2.0, "oneway": false, "surface": "concrete", "footway": null, "sidewalk_left": false, "sidewalk_right": false, "generated_sidewalk": false, "bus_lanes": null, "bus_lane_side": null, "bus_only": false, "sidewalk": false, "bridge": false, "ramp": false, "tunnel": false, "layer": 0, "deck": null }, "geometry": { "type": "MultiLineString", "coordinates": [ [ [ 284569.33, 4159022.0 ], [ 284535.26, 4159022.65 ], [ 284518.46, 4159022.68 ], [ 284512.19, 4159022.7 ], [ 284503.13, 4159022.2 ], [ 284500.49, 4159020.06 ], [ 284500.0, 4159018.59 ] ], [ [ 284500.0, 4159011.35 ], [ 284501.5, 4159009.38 ], [ 284505.52, 4159007.62 ], [ 284541.67, 4159002.35 ], [ 284552.77, 4159000.42 ] ] ] } },
{ "type": "Feature", "properties": { "id": "osm:way/182380864", "name": null, "highway": "footway", "lanes": null, "width": 2.0, "oneway": false, "surface": null, "footway": null, "sidewalk_left": false, "sidewalk_right": false, "generated_sidewalk": false, "bus_lanes": null, "bus_lane_side": null, "bus_only": false, "sidewalk": false, "bridge": false, "ramp": false, "tunnel": false, "layer": 0, "deck": null }, "geometry": { "type": "LineString", "coordinates": [ [ 284518.46, 4159022.68 ], [ 284541.67, 4159002.35 ] ] } },
{ "type": "Feature", "properties": { "id": "osm:way/6038268", "name": "Saint Peter Street", "highway": "residential", "lanes": null, "width": 7.0, "oneway": false, "surface": "asphalt", "footway": null, "sidewalk_left": null, "sidewalk_right": false, "generated_sidewalk": true, "bus_lanes": null, "bus_lane_side": null, "bus_only": false, "sidewalk": false, "bridge": false, "ramp": false, "tunnel": false, "layer": 0, "deck": null }, "geometry": { "type": "LineString", "coordinates": [ [ 284560.62, 4159000.0 ], [ 284579.63, 4159022.85 ], [ 284615.33, 4159068.34 ], [ 284630.9, 4159089.16 ], [ 284647.98, 4159111.01 ] ] } },
{ "type": "Feature", "properties": { "id": "osm:way/1225580678", "name": null, "highway": "footway", "lanes": null, "width": 2.0, "oneway": false, "surface": "concrete", "footway": "sidewalk", "sidewalk_left": false, "sidewalk_right": false, "generated_sidewalk": false, "bus_lanes": null, "bus_lane_side": null, "bus_only": false, "sidewalk": false, "bridge": false, "ramp": false, "tunnel": false, "layer": 0, "deck": null }, "geometry": { "type": "LineString", "coordinates": [ [ 284500.0, 4159100.72 ], [ 284518.53, 4159100.59 ], [ 284573.49, 4159100.73 ], [ 284605.16, 4159100.7 ], [ 284622.62, 4159100.64 ], [ 284623.97, 4159100.3 ], [ 284625.15, 4159099.27 ], [ 284625.61, 4159097.74 ], [ 284625.41, 4159096.12 ], [ 284624.12, 4159092.73 ], [ 284610.82, 4159075.3 ], [ 284576.35, 4159031.46 ], [ 284569.33, 4159022.0 ], [ 284555.57, 4159004.59 ], [ 284552.77, 4159000.42 ], [ 284552.41, 4159000.0 ] ] } },
{ "type": "Feature", "properties": { "id": "osm:way/182380873", "name": null, "highway": "footway", "lanes": null, "width": 2.0, "oneway": false, "surface": "concrete", "footway": null, "sidewalk_left": false, "sidewalk_right": false, "generated_sidewalk": false, "bus_lanes": null, "bus_lane_side": null, "bus_only": false, "sidewalk": false, "bridge": false, "ramp": false, "tunnel": false, "layer": 0, "deck": null }, "geometry": { "type": "LineString", "coordinates": [ [ 284572.79, 4159045.48 ], [ 284518.56, 4159045.6 ], [ 284500.0, 4159045.38 ] ] } },
{ "type": "Feature", "properties": { "id": "osm:way/182380879", "name": null, "highway": "footway", "lanes": null, "width": 2.0, "oneway": false, "surface": "concrete", "footway": null, "sidewalk_left": false, "sidewalk_right": false, "generated_sidewalk": false, "bus_lanes": null, "bus_lane_side": null, "bus_only": false, "sidewalk": false, "bridge": false, "ramp": false, "tunnel": false, "layer": 0, "deck": null }, "geometry": { "type": "LineString", "coordinates": [ [ 284518.46, 4159022.68 ], [ 284518.56, 4159045.6 ], [ 284518.49, 4159067.85 ], [ 284518.53, 4159100.59 ], [ 284518.53, 4159103.0 ] ] } },
{ "type": "Feature", "properties": { "id": "osm:way/182380773", "name": "West Federal Street", "highway": "residential", "lanes": null, "width": 7.0, "oneway": false, "surface": null, "footway": null, "sidewalk_left": false, "sidewalk_right": null, "generated_sidewalk": true, "bus_lanes": null, "bus_lane_side": null, "bus_only": false, "sidewalk": false, "bridge": false, "ramp": false, "tunnel": false, "layer": 0, "deck": null }, "geometry": { "type": "LineString", "coordinates": [ [ 284689.48, 4159000.0 ], [ 284688.86, 4159000.24 ], [ 284676.96, 4159004.85 ], [ 284669.76, 4159007.99 ] ] } },
{ "type": "Feature", "properties": { "id": "osm:way/182382390", "name": null, "highway": "footway", "lanes": null, "width": 2.0, "oneway": false, "surface": null, "footway": null, "sidewalk_left": false, "sidewalk_right": false, "generated_sidewalk": false, "bus_lanes": null, "bus_lane_side": null, "bus_only": false, "sidewalk": false, "bridge": false, "ramp": false, "tunnel": false, "layer": 0, "deck": null }, "geometry": { "type": "LineString", "coordinates": [ [ 284688.64, 4159032.24 ], [ 284697.77, 4159030.21 ], [ 284710.59, 4159027.23 ], [ 284724.87, 4159023.97 ], [ 284730.87, 4159022.83 ], [ 284737.8, 4159020.21 ], [ 284739.22, 4159018.08 ], [ 284750.0, 4159014.27 ] ] } },
{ "type": "Feature", "properties": { "id": "osm:way/182382389", "name": null, "highway": "footway", "lanes": null, "width": 2.0, "oneway": false, "surface": null, "footway": null, "sidewalk_left": false, "sidewalk_right": false, "generated_sidewalk": false, "bus_lanes": null, "bus_lane_side": null, "bus_only": false, "sidewalk": false, "bridge": false, "ramp": false, "tunnel": false, "layer": 0, "deck": null }, "geometry": { "type": "LineString", "coordinates": [ [ 284724.87, 4159023.97 ], [ 284739.92, 4159044.41 ] ] } },
{ "type": "Feature", "properties": { "id": "osm:way/182382387", "name": null, "highway": "footway", "lanes": null, "width": 2.0, "oneway": false, "surface": null, "footway": null, "sidewalk_left": false, "sidewalk_right": false, "generated_sidewalk": false, "bus_lanes": null, "bus_lane_side": null, "bus_only": false, "sidewalk": false, "bridge": false, "ramp": false, "tunnel": false, "layer": 0, "deck": null }, "geometry": { "type": "LineString", "coordinates": [ [ 284722.67, 4159062.09 ], [ 284740.04, 4159048.98 ], [ 284739.92, 4159044.41 ], [ 284750.0, 4159036.41 ] ] } },
{ "type": "Feature", "properties": { "id": "osm:way/6033362", "name": "West Coutts Street", "highway": "footway", "lanes": null, "width": 2.0, "oneway": false, "surface": null, "footway": null, "sidewalk_left": false, "sidewalk_right": false, "generated_sidewalk": false, "bus_lanes": null, "bus_lane_side": null, "bus_only": false, "sidewalk": false, "bridge": false, "ramp": false, "tunnel": false, "layer": 0, "deck": null }, "geometry": { "type": "LineString", "coordinates": [ [ 284750.0, 4159068.73 ], [ 284736.29, 4159079.33 ] ] } },
{ "type": "Feature", "properties": { "id": "osm:way/930960348", "name": "Saint Paul Street", "highway": "residential", "lanes": null, "width": 7.0, "oneway": false, "surface": "asphalt", "footway": null, "sidewalk_left": false, "sidewalk_right": null, "generated_sidewalk": true, "bus_lanes": null, "bus_lane_side": null, "bus_only": false, "sidewalk": false, "bridge": false, "ramp": false, "tunnel": false, "layer": 0, "deck": null }, "geometry": { "type": "LineString", "coordinates": [ [ 284663.63, 4159000.0 ], [ 284669.76, 4159007.99 ], [ 284679.76, 4159019.86 ], [ 284688.64, 4159032.24 ], [ 284716.53, 4159067.05 ], [ 284730.94, 4159086.0 ], [ 284750.0, 4159110.47 ] ] } },
{ "type": "Feature", "properties": { "id": "osm:way/1223669964", "name": null, "highway": "footway", "lanes": null, "width": 2.0, "oneway": false, "surface": null, "footway": "sidewalk", "sidewalk_left": false, "sidewalk_right": false, "generated_sidewalk": false, "bus_lanes": null, "bus_lane_side": null, "bus_only": false, "sidewalk": false, "bridge": false, "ramp": false, "tunnel": false, "layer": 0, "deck": null }, "geometry": { "type": "MultiLineString", "coordinates": [ [ [ 284697.77, 4159030.21 ], [ 284722.67, 4159062.09 ], [ 284736.29, 4159079.33 ], [ 284750.0, 4159097.4 ] ], [ [ 284715.57, 4159000.0 ], [ 284690.56, 4159009.51 ], [ 284685.76, 4159011.11 ], [ 284685.03, 4159012.26 ], [ 284685.17, 4159013.79 ], [ 284688.37, 4159017.97 ], [ 284697.77, 4159030.21 ] ] ] } },
{ "type": "Feature", "properties": { "id": "osm:way/1483868765", "name": null, "highway": "footway", "lanes": null, "width": 2.0, "oneway": false, "surface": null, "footway": "sidewalk", "sidewalk_left": false, "sidewalk_right": false, "generated_sidewalk": false, "bus_lanes": null, "bus_lane_side": null, "bus_only": false, "sidewalk": false, "bridge": false, "ramp": false, "tunnel": false, "layer": 0, "deck": null }, "geometry": { "type": "LineString", "coordinates": [ [ 284726.33, 4159096.19 ], [ 284728.61, 4159097.68 ], [ 284731.96, 4159102.31 ], [ 284736.8, 4159108.46 ], [ 284741.44, 4159114.27 ], [ 284745.89, 4159119.89 ], [ 284749.58, 4159125.0 ], [ 284750.0, 4159125.55 ] ] } },
{ "type": "Feature", "properties": { "id": "osm:way/6038253", "name": "West Hill Street", "highway": "residential", "lanes": null, "width": 7.0, "oneway": false, "surface": null, "footway": null, "sidewalk_left": false, "sidewalk_right": null, "generated_sidewalk": true, "bus_lanes": null, "bus_lane_side": null, "bus_only": false, "sidewalk": false, "bridge": false, "ramp": false, "tunnel": false, "layer": 0, "deck": null }, "geometry": { "type": "LineString", "coordinates": [ [ 284750.0, 4159170.14 ], [ 284744.19, 4159170.98 ], [ 284704.21, 4159169.93 ], [ 284697.67, 4159167.43 ], [ 284690.67, 4159164.76 ], [ 284672.81, 4159141.34 ], [ 284656.46, 4159121.36 ], [ 284647.98, 4159111.01 ] ] } },
{ "type": "Feature", "properties": { "id": "osm:way/182380871", "name": null, "highway": "footway", "lanes": null, "width": 2.0, "oneway": false, "surface": null, "footway": "sidewalk", "sidewalk_left": false, "sidewalk_right": false, "generated_sidewalk": false, "bus_lanes": null, "bus_lane_side": null, "bus_only": false, "sidewalk": false, "bridge": false, "ramp": false, "tunnel": false, "layer": 0, "deck": null }, "geometry": { "type": "LineString", "coordinates": [ [ 284672.81, 4159141.34 ], [ 284678.38, 4159139.19 ], [ 284716.91, 4159124.36 ], [ 284742.08, 4159154.41 ], [ 284744.19, 4159156.5 ] ] } },
{ "type": "Feature", "properties": { "id": "osm:way/182380878", "name": null, "highway": "footway", "lanes": null, "width": 2.0, "oneway": false, "surface": null, "footway": null, "sidewalk_left": false, "sidewalk_right": false, "generated_sidewalk": false, "bus_lanes": null, "bus_lane_side": null, "bus_only": false, "sidewalk": false, "bridge": false, "ramp": false, "tunnel": false, "layer": 0, "deck": null }, "geometry": { "type": "LineString", "coordinates": [ [ 284573.6, 4159108.53 ], [ 284573.49, 4159100.73 ], [ 284573.07, 4159067.73 ], [ 284572.79, 4159045.48 ], [ 284569.33, 4159022.0 ] ] } },
{ "type": "Feature", "properties": { "id": "osm:way/182380869", "name": null, "highway": "footway", "lanes": null, "width": 2.0, "oneway": false, "surface": "concrete", "footway": null, "sidewalk_left": false, "sidewalk_right": false, "generated_sidewalk": false, "bus_lanes": null, "bus_lane_side": null, "bus_only": false, "sidewalk": false, "bridge": false, "ramp": false, "tunnel": false, "layer": 0, "deck": null }, "geometry": { "type": "LineString", "coordinates": [ [ 284500.0, 4159067.77 ], [ 284518.49, 4159067.85 ], [ 284573.07, 4159067.73 ] ] } },
{ "type": "Feature", "properties": { "id": "osm:way/6033209", "name": "Calhoun Street", "highway": "residential", "lanes": null, "width": 7.0, "oneway": false, "surface": null, "footway": null, "sidewalk_left": null, "sidewalk_right": false, "generated_sidewalk": true, "bus_lanes": null, "bus_lane_side": null, "bus_only": false, "sidewalk": false, "bridge": false, "ramp": true, "tunnel": false, "layer": 0, "deck": [ 284647.98, 4159111.01, 43.11, 284349.92, 4159090.44, 46.22 ] }, "geometry": { "type": "LineString", "coordinates": [ [ 284647.98, 4159111.01 ], [ 284633.0, 4159107.82 ], [ 284573.6, 4159108.53 ], [ 284518.53, 4159109.01 ], [ 284506.28, 4159108.94 ], [ 284500.0, 4159108.95 ] ] } },
{ "type": "Feature", "properties": { "id": "osm:way/1225580681", "name": null, "highway": "footway", "lanes": null, "width": 2.0, "oneway": false, "surface": "concrete", "footway": "sidewalk", "sidewalk_left": false, "sidewalk_right": false, "generated_sidewalk": false, "bus_lanes": null, "bus_lane_side": null, "bus_only": false, "sidewalk": false, "bridge": false, "ramp": false, "tunnel": false, "layer": 0, "deck": null }, "geometry": { "type": "LineString", "coordinates": [ [ 284624.56, 4159101.21 ], [ 284623.97, 4159100.3 ] ] } },
{ "type": "Feature", "properties": { "id": "osm:way/1225827595", "name": null, "highway": "footway", "lanes": null, "width": 2.0, "oneway": false, "surface": "concrete", "footway": "link", "sidewalk_left": false, "sidewalk_right": false, "generated_sidewalk": false, "bus_lanes": null, "bus_lane_side": null, "bus_only": false, "sidewalk": false, "bridge": false, "ramp": false, "tunnel": false, "layer": 0, "deck": null }, "geometry": { "type": "LineString", "coordinates": [ [ 284518.53, 4159103.0 ], [ 284518.53, 4159109.01 ] ] } },
{ "type": "Feature", "properties": { "id": "osm:way/1484769654", "name": null, "highway": "footway", "lanes": null, "width": 2.0, "oneway": false, "surface": null, "footway": "sidewalk", "sidewalk_left": false, "sidewalk_right": false, "generated_sidewalk": false, "bus_lanes": null, "bus_lane_side": null, "bus_only": false, "sidewalk": false, "bridge": false, "ramp": false, "tunnel": false, "layer": 0, "deck": null }, "geometry": { "type": "LineString", "coordinates": [ [ 284500.0, 4159115.54 ], [ 284506.33, 4159115.62 ], [ 284513.6, 4159115.72 ], [ 284641.75, 4159115.96 ], [ 284642.69, 4159115.42 ] ] } },
{ "type": "Feature", "properties": { "id": "osm:way/866499638", "name": null, "highway": "service", "lanes": null, "width": 4.5, "oneway": false, "surface": null, "footway": null, "sidewalk_left": false, "sidewalk_right": false, "generated_sidewalk": false, "bus_lanes": null, "bus_lane_side": null, "bus_only": false, "sidewalk": false, "bridge": false, "ramp": false, "tunnel": false, "layer": 0, "deck": null }, "geometry": { "type": "LineString", "coordinates": [ [ 284500.0, 4159126.75 ], [ 284504.84, 4159126.64 ], [ 284506.39, 4159124.1 ], [ 284506.33, 4159115.62 ], [ 284506.28, 4159108.94 ] ] } },
{ "type": "Feature", "properties": { "id": "osm:way/1483868764", "name": null, "highway": "footway", "lanes": null, "width": 2.0, "oneway": false, "surface": null, "footway": "sidewalk", "sidewalk_left": false, "sidewalk_right": false, "generated_sidewalk": false, "bus_lanes": null, "bus_lane_side": null, "bus_only": false, "sidewalk": false, "bridge": false, "ramp": false, "tunnel": false, "layer": 0, "deck": null }, "geometry": { "type": "LineString", "coordinates": [ [ 284663.23, 4159119.94 ], [ 284664.41, 4159120.2 ], [ 284665.45, 4159119.01 ], [ 284671.72, 4159116.3 ], [ 284672.99, 4159115.76 ], [ 284681.35, 4159112.72 ], [ 284683.38, 4159113.45 ], [ 284687.15, 4159111.94 ], [ 284686.81, 4159110.63 ], [ 284697.31, 4159106.52 ], [ 284701.63, 4159106.02 ], [ 284707.51, 4159102.85 ], [ 284715.44, 4159099.82 ], [ 284718.46, 4159099.6 ], [ 284720.77, 4159098.27 ], [ 284723.07, 4159096.9 ], [ 284726.33, 4159096.19 ], [ 284727.15, 4159093.93 ] ] } },
{ "type": "Feature", "properties": { "id": "osm:way/1225580680", "name": null, "highway": "footway", "lanes": null, "width": 2.0, "oneway": false, "surface": null, "footway": "crossing", "sidewalk_left": false, "sidewalk_right": false, "generated_sidewalk": false, "bus_lanes": null, "bus_lane_side": null, "bus_only": false, "sidewalk": false, "bridge": false, "ramp": false, "tunnel": false, "layer": 0, "deck": null }, "geometry": { "type": "LineString", "coordinates": [ [ 284642.69, 4159115.42 ], [ 284633.0, 4159107.82 ], [ 284624.56, 4159101.21 ] ] } },
{ "type": "Feature", "properties": { "id": "osm:way/1484769655", "name": null, "highway": "footway", "lanes": null, "width": 2.0, "oneway": false, "surface": null, "footway": "crossing", "sidewalk_left": false, "sidewalk_right": false, "generated_sidewalk": false, "bus_lanes": null, "bus_lane_side": null, "bus_only": false, "sidewalk": false, "bridge": false, "ramp": false, "tunnel": false, "layer": 0, "deck": null }, "geometry": { "type": "LineString", "coordinates": [ [ 284652.85, 4159107.89 ], [ 284655.45, 4159110.91 ], [ 284663.23, 4159119.94 ] ] } },
{ "type": "Feature", "properties": { "id": "osm:way/1484769659", "name": null, "highway": "footway", "lanes": null, "width": 2.0, "oneway": false, "surface": null, "footway": "crossing", "sidewalk_left": false, "sidewalk_right": false, "generated_sidewalk": false, "bus_lanes": null, "bus_lane_side": null, "bus_only": false, "sidewalk": false, "bridge": false, "ramp": false, "tunnel": false, "layer": 0, "deck": null }, "geometry": { "type": "LineString", "coordinates": [ [ 284656.46, 4159121.36 ], [ 284663.23, 4159119.94 ] ] } },
{ "type": "Feature", "properties": { "id": "osm:way/1483868766", "name": null, "highway": "footway", "lanes": null, "width": 2.0, "oneway": false, "surface": null, "footway": "sidewalk", "sidewalk_left": false, "sidewalk_right": false, "generated_sidewalk": false, "bus_lanes": null, "bus_lane_side": null, "bus_only": false, "sidewalk": false, "bridge": false, "ramp": false, "tunnel": false, "layer": 0, "deck": null }, "geometry": { "type": "LineString", "coordinates": [ [ 284671.72, 4159116.3 ], [ 284668.63, 4159126.44 ], [ 284664.41, 4159120.2 ] ] } },
{ "type": "Feature", "properties": { "id": "osm:way/1484769658", "name": null, "highway": "footway", "lanes": null, "width": 2.0, "oneway": false, "surface": null, "footway": "crossing", "sidewalk_left": false, "sidewalk_right": false, "generated_sidewalk": false, "bus_lanes": null, "bus_lane_side": null, "bus_only": false, "sidewalk": false, "bridge": false, "ramp": false, "tunnel": false, "layer": 0, "deck": null }, "geometry": { "type": "LineString", "coordinates": [ [ 284653.9, 4159123.39 ], [ 284656.46, 4159121.36 ] ] } },
{ "type": "Feature", "properties": { "id": "osm:way/1484769656", "name": null, "highway": "footway", "lanes": null, "width": 2.0, "oneway": false, "surface": null, "footway": null, "sidewalk_left": false, "sidewalk_right": false, "generated_sidewalk": false, "bus_lanes": null, "bus_lane_side": null, "bus_only": false, "sidewalk": false, "bridge": false, "ramp": false, "tunnel": false, "layer": 0, "deck": null }, "geometry": { "type": "LineString", "coordinates": [ [ 284653.9, 4159123.39 ], [ 284654.19, 4159128.86 ], [ 284654.57, 4159130.43 ], [ 284655.39, 4159134.02 ], [ 284656.56, 4159136.21 ], [ 284664.26, 4159148.74 ], [ 284666.74, 4159152.73 ], [ 284671.54, 4159158.03 ], [ 284675.92, 4159163.35 ], [ 284680.03, 4159169.23 ], [ 284686.62, 4159177.37 ], [ 284688.58, 4159178.96 ], [ 284690.57, 4159178.43 ], [ 284692.21, 4159176.73 ], [ 284693.4, 4159175.34 ], [ 284695.83, 4159171.68 ] ] } },
{ "type": "Feature", "properties": { "id": "osm:way/1483868767", "name": null, "highway": "footway", "lanes": null, "width": 2.0, "oneway": false, "surface": null, "footway": "sidewalk", "sidewalk_left": false, "sidewalk_right": false, "generated_sidewalk": false, "bus_lanes": null, "bus_lane_side": null, "bus_only": false, "sidewalk": false, "bridge": false, "ramp": false, "tunnel": false, "layer": 0, "deck": null }, "geometry": { "type": "LineString", "coordinates": [ [ 284668.63, 4159126.44 ], [ 284678.38, 4159139.19 ], [ 284681.49, 4159143.27 ], [ 284690.33, 4159154.95 ], [ 284695.89, 4159158.21 ], [ 284702.01, 4159159.07 ], [ 284708.82, 4159159.96 ], [ 284725.21, 4159161.24 ], [ 284736.04, 4159160.96 ], [ 284743.98, 4159160.37 ], [ 284746.82, 4159160.08 ], [ 284750.0, 4159159.77 ] ] } },
{ "type": "Feature", "properties": { "id": "osm:way/1483868770", "name": null, "highway": "footway", "lanes": null, "width": 2.0, "oneway": false, "surface": null, "footway": "sidewalk", "sidewalk_left": false, "sidewalk_right": false, "generated_sidewalk": false, "bus_lanes": null, "bus_lane_side": null, "bus_only": false, "sidewalk": false, "bridge": false, "ramp": false, "tunnel": false, "layer": 0, "deck": null }, "geometry": { "type": "LineString", "coordinates": [ [ 284739.02, 4159156.38 ], [ 284742.08, 4159154.41 ] ] } },
{ "type": "Feature", "properties": { "id": "osm:way/1483868773", "name": null, "highway": "steps", "lanes": null, "width": 2.0, "oneway": false, "surface": null, "footway": null, "sidewalk_left": false, "sidewalk_right": false, "generated_sidewalk": false, "bus_lanes": null, "bus_lane_side": null, "bus_only": false, "sidewalk": false, "bridge": false, "ramp": false, "tunnel": false, "layer": 0, "deck": null }, "geometry": { "type": "LineString", "coordinates": [ [ 284744.19, 4159156.5 ], [ 284745.41, 4159157.99 ] ] } },
{ "type": "Feature", "properties": { "id": "osm:way/1483868772", "name": null, "highway": "steps", "lanes": null, "width": 2.0, "oneway": false, "surface": null, "footway": null, "sidewalk_left": false, "sidewalk_right": false, "generated_sidewalk": false, "bus_lanes": null, "bus_lane_side": null, "bus_only": false, "sidewalk": false, "bridge": false, "ramp": false, "tunnel": false, "layer": 0, "deck": null }, "geometry": { "type": "LineString", "coordinates": [ [ 284739.02, 4159156.38 ], [ 284737.92, 4159158.23 ] ] } },
{ "type": "Feature", "properties": { "id": "osm:way/1483868771", "name": null, "highway": "footway", "lanes": null, "width": 2.0, "oneway": false, "surface": null, "footway": null, "sidewalk_left": false, "sidewalk_right": false, "generated_sidewalk": false, "bus_lanes": null, "bus_lane_side": null, "bus_only": false, "sidewalk": false, "bridge": false, "ramp": false, "tunnel": false, "layer": 0, "deck": null }, "geometry": { "type": "LineString", "coordinates": [ [ 284745.41, 4159157.99 ], [ 284746.82, 4159160.08 ] ] } },
{ "type": "Feature", "properties": { "id": "osm:way/1483868769", "name": null, "highway": "footway", "lanes": null, "width": 2.0, "oneway": false, "surface": null, "footway": "sidewalk", "sidewalk_left": false, "sidewalk_right": false, "generated_sidewalk": false, "bus_lanes": null, "bus_lane_side": null, "bus_only": false, "sidewalk": false, "bridge": false, "ramp": false, "tunnel": false, "layer": 0, "deck": null }, "geometry": { "type": "LineString", "coordinates": [ [ 284736.04, 4159160.96 ], [ 284737.92, 4159158.23 ] ] } },
{ "type": "Feature", "properties": { "id": "osm:way/1484769657", "name": null, "highway": "footway", "lanes": null, "width": 2.0, "oneway": false, "surface": null, "footway": "crossing", "sidewalk_left": false, "sidewalk_right": false, "generated_sidewalk": false, "bus_lanes": null, "bus_lane_side": null, "bus_only": false, "sidewalk": false, "bridge": false, "ramp": false, "tunnel": false, "layer": 0, "deck": null }, "geometry": { "type": "LineString", "coordinates": [ [ 284695.83, 4159171.68 ], [ 284697.67, 4159167.43 ] ] } }
]
}
