{
"type": "FeatureCollection",
"name": "water",
"crs": { "type": "name", "properties": { "name": "urn:ogc:def:crs:EPSG::32618" } },
"xy_coordinate_resolution": 0.01,
"features": [
{ "type": "Feature", "properties": { "id": "osm:way/762180701", "name": null, "kind": "pond", "water_z": 5.55, "source": null }, "geometry": { "type": "Polygon", "coordinates": [ [ [ 285879.96, 4155013.74 ], [ 285883.06, 4155000.0 ], [ 285830.82, 4155000.0 ], [ 285830.23, 4155002.64 ], [ 285879.96, 4155013.74 ] ] ] } },
{ "type": "Feature", "properties": { "id": "osm:way/762180655", "name": null, "kind": "pond", "water_z": 5.55, "source": null }, "geometry": { "type": "Polygon", "coordinates": [ [ [ 286000.0, 4155025.06 ], [ 286000.0, 4155000.0 ], [ 285937.8, 4155000.0 ], [ 285935.45, 4155010.86 ], [ 286000.0, 4155025.06 ] ] ] } },
{ "type": "Feature", "properties": { "id": "osm:way/762180644", "name": null, "kind": "pond", "water_z": 5.7, "source": null }, "geometry": { "type": "Polygon", "coordinates": [ [ [ 286000.0, 4155037.87 ], [ 285932.76, 4155023.43 ], [ 285915.41, 4155099.45 ], [ 286000.0, 4155118.09 ], [ 286000.0, 4155037.87 ] ] ] } },
{ "type": "Feature", "properties": { "id": "osm:way/762180649", "name": null, "kind": "pond", "water_z": 7.32, "source": null }, "geometry": { "type": "Polygon", "coordinates": [ [ [ 285847.5, 4155110.29 ], [ 285847.61, 4155114.9 ], [ 285849.77, 4155118.99 ], [ 285853.51, 4155121.72 ], [ 285852.85, 4155124.22 ], [ 285848.83, 4155125.09 ], [ 285843.81, 4155129.78 ], [ 285842.67, 4155135.55 ], [ 285846.33, 4155142.55 ], [ 285873.0, 4155149.46 ], [ 285879.5, 4155148.81 ], [ 285883.68, 4155145.39 ], [ 285885.58, 4155139.13 ], [ 285884.81, 4155135.51 ], [ 285879.62, 4155130.09 ], [ 285880.24, 4155127.49 ], [ 285884.91, 4155126.37 ], [ 285888.44, 4155123.33 ], [ 285890.17, 4155115.54 ], [ 285886.02, 4155109.18 ], [ 285855.98, 4155102.21 ], [ 285849.32, 4155106.21 ], [ 285847.5, 4155110.29 ] ] ] } },
{ "type": "Feature", "properties": { "id": "osm:way/762180659", "name": null, "kind": "pond", "water_z": 6.66, "source": null }, "geometry": { "type": "Polygon", "coordinates": [ [ [ 286000.0, 4155194.42 ], [ 286000.0, 4155153.27 ], [ 285907.18, 4155132.57 ], [ 285892.53, 4155205.67 ], [ 285898.18, 4155207.05 ], [ 285898.03, 4155208.1 ], [ 285911.72, 4155210.97 ], [ 285911.93, 4155209.84 ], [ 285953.99, 4155220.25 ], [ 285953.5, 4155222.27 ], [ 285955.85, 4155222.89 ], [ 285956.41, 4155220.73 ], [ 285973.32, 4155223.71 ], [ 285979.13, 4155225.77 ], [ 285978.68, 4155227.83 ], [ 285981.05, 4155228.42 ], [ 285981.57, 4155226.27 ], [ 285992.73, 4155227.69 ], [ 286000.0, 4155194.42 ] ] ] } }
]
}
