{
"type": "FeatureCollection",
"name": "landuse",
"crs": { "type": "name", "properties": { "name": "urn:ogc:def:crs:EPSG::32618" } },
"xy_coordinate_resolution": 0.01,
"features": [
{ "type": "Feature", "properties": { "id": "richmond_structure:425539", "name": null, "kind": "deck", "sport": null, "surface": null, "pitch_layout": null, "source": "richmond_structures", "source_updated": "2026-09-08T12:07:13.637000Z", "base_z": null, "top_z": null }, "geometry": { "type": "Polygon", "coordinates": [ [ [ 284375.59, 4158750.0 ], [ 284369.75, 4158754.69 ], [ 284366.1, 4158750.14 ], [ 284366.27, 4158750.0 ], [ 284363.52, 4158750.0 ], [ 284379.37, 4158770.05 ], [ 284395.02, 4158758.08 ], [ 284391.84, 4158754.31 ], [ 284389.81, 4158755.95 ], [ 284385.01, 4158750.0 ], [ 284375.59, 4158750.0 ] ], [ [ 284377.69, 4158757.88 ], [ 284375.53, 4158755.14 ], [ 284380.86, 4158750.92 ], [ 284383.03, 4158753.66 ], [ 284385.61, 4158751.62 ], [ 284389.62, 4158756.69 ], [ 284379.2, 4158764.92 ], [ 284375.19, 4158759.85 ], [ 284377.69, 4158757.88 ] ] ] } },
{ "type": "Feature", "properties": { "id": "osm:way/321398114", "name": null, "kind": "parking", "sport": null, "surface": null, "pitch_layout": null, "source": null, "source_updated": null, "base_z": null, "top_z": null }, "geometry": { "type": "Polygon", "coordinates": [ [ [ 284332.99, 4158779.69 ], [ 284357.96, 4158759.9 ], [ 284350.05, 4158750.0 ], [ 284310.08, 4158750.0 ], [ 284312.39, 4158752.89 ], [ 284304.73, 4158758.96 ], [ 284301.98, 4158755.52 ], [ 284281.71, 4158771.57 ], [ 284296.77, 4158790.41 ], [ 284324.19, 4158768.69 ], [ 284332.99, 4158779.69 ] ] ] } },
{ "type": "Feature", "properties": { "id": "imagery:groundcover_paved:2792", "name": null, "kind": "groundcover_paved", "sport": null, "surface": null, "pitch_layout": null, "source": "vgin_vbmp+naip+lidar2025", "source_updated": null, "base_z": null, "top_z": null }, "geometry": { "type": "MultiPolygon", "coordinates": [ [ [ [ 284272.73, 4158808.82 ], [ 284273.18, 4158808.89 ], [ 284273.66, 4158809.0 ], [ 284274.12, 4158809.16 ], [ 284274.57, 4158809.37 ], [ 284274.99, 4158809.62 ], [ 284275.39, 4158809.91 ], [ 284275.75, 4158810.24 ], [ 284276.09, 4158810.6 ], [ 284279.06, 4158814.17 ], [ 284279.39, 4158813.99 ], [ 284279.84, 4158813.79 ], [ 284280.31, 4158813.63 ], [ 284280.78, 4158813.53 ], [ 284281.27, 4158813.47 ], [ 284281.76, 4158813.45 ], [ 284282.25, 4158813.49 ], [ 284282.73, 4158813.57 ], [ 284283.21, 4158813.7 ], [ 284283.66, 4158813.88 ], [ 284283.72, 4158813.9 ], [ 284283.95, 4158813.77 ], [ 284284.4, 4158813.57 ], [ 284284.86, 4158813.42 ], [ 284285.34, 4158813.31 ], [ 284285.83, 4158813.25 ], [ 284286.32, 4158813.23 ], [ 284286.54, 4158813.25 ], [ 284284.68, 4158810.93 ], [ 284284.23, 4158810.76 ], [ 284283.79, 4158810.54 ], [ 284283.38, 4158810.29 ], [ 284282.99, 4158809.99 ], [ 284282.63, 4158809.65 ], [ 284282.31, 4158809.29 ], [ 284278.89, 4158804.99 ], [ 284278.6, 4158804.59 ], [ 284278.36, 4158804.16 ], [ 284278.15, 4158803.71 ], [ 284278.0, 4158803.25 ], [ 284277.88, 4158802.77 ], [ 284277.82, 4158802.28 ], [ 284277.8, 4158801.79 ], [ 284277.84, 4158801.3 ], [ 284277.92, 4158800.82 ], [ 284278.04, 4158800.34 ], [ 284278.22, 4158799.88 ], [ 284278.44, 4158799.44 ], [ 284278.7, 4158799.02 ], [ 284279.0, 4158798.63 ], [ 284279.33, 4158798.27 ], [ 284279.7, 4158797.95 ], [ 284285.98, 4158792.99 ], [ 284286.38, 4158792.71 ], [ 284286.55, 4158792.61 ], [ 284279.58, 4158783.66 ], [ 284279.43, 4158783.46 ], [ 284278.86, 4158783.63 ], [ 284273.37, 4158783.63 ], [ 284272.49, 4158782.74 ], [ 284271.86, 4158782.75 ], [ 284271.85, 4158782.74 ], [ 284266.43, 4158786.85 ], [ 284267.13, 4158787.65 ], [ 284267.33, 4158788.53 ], [ 284269.3, 4158790.68 ], [ 284272.1, 4158791.61 ], [ 284272.89, 4158792.26 ], [ 284274.34, 4158794.75 ], [ 284274.5, 4158795.76 ], [ 284272.33, 4158806.62 ], [ 284272.59, 4158808.55 ], [ 284272.73, 4158808.82 ] ] ], [ [ [ 284251.42, 4158842.96 ], [ 284251.34, 4158843.45 ], [ 284251.22, 4158843.93 ], [ 284251.05, 4158844.39 ], [ 284250.84, 4158844.83 ], [ 284250.58, 4158845.25 ], [ 284250.29, 4158845.65 ], [ 284250.0, 4158845.96 ], [ 284250.0, 4158847.2 ], [ 284262.64, 4158842.37 ], [ 284263.3, 4158842.11 ], [ 284250.0, 4158825.71 ], [ 284250.0, 4158838.9 ], [ 284250.32, 4158839.29 ], [ 284250.61, 4158839.69 ], [ 284250.86, 4158840.11 ], [ 284251.07, 4158840.55 ], [ 284251.23, 4158841.02 ], [ 284251.35, 4158841.49 ], [ 284251.42, 4158841.98 ], [ 284251.44, 4158842.47 ], [ 284251.42, 4158842.96 ] ] ], [ [ [ 284304.26, 4158837.63 ], [ 284304.53, 4158837.63 ], [ 284305.55, 4158838.05 ], [ 284307.71, 4158840.2 ], [ 284308.13, 4158841.22 ], [ 284308.13, 4158845.09 ], [ 284308.02, 4158845.66 ], [ 284307.37, 4158847.23 ], [ 284307.04, 4158847.71 ], [ 284302.86, 4158851.89 ], [ 284302.54, 4158852.14 ], [ 284301.5, 4158852.73 ], [ 284301.13, 4158852.88 ], [ 284266.68, 4158861.49 ], [ 284265.67, 4158861.96 ], [ 284250.0, 4158873.15 ], [ 284250.0, 4158884.86 ], [ 284251.58, 4158884.07 ], [ 284306.08, 4158856.63 ], [ 284306.24, 4158856.55 ], [ 284328.67, 4158846.58 ], [ 284328.84, 4158846.5 ], [ 284368.08, 4158831.33 ], [ 284368.49, 4158831.19 ], [ 284383.13, 4158827.36 ], [ 284383.13, 4158821.79 ], [ 284381.08, 4158818.94 ], [ 284376.63, 4158817.46 ], [ 284375.91, 4158816.93 ], [ 284374.41, 4158814.85 ], [ 284374.17, 4158814.12 ], [ 284374.55, 4158813.2 ], [ 284376.71, 4158811.05 ], [ 284377.73, 4158810.63 ], [ 284387.58, 4158810.63 ], [ 284387.68, 4158808.28 ], [ 284387.3, 4158805.16 ], [ 284319.94, 4158831.58 ], [ 284319.91, 4158831.59 ], [ 284304.26, 4158837.63 ] ] ], [ [ [ 284250.0, 4158894.62 ], [ 284250.0, 4158898.13 ], [ 284252.52, 4158896.43 ], [ 284252.87, 4158896.21 ], [ 284284.06, 4158877.48 ], [ 284284.4, 4158877.29 ], [ 284306.48, 4158865.5 ], [ 284306.79, 4158865.34 ], [ 284329.07, 4158854.72 ], [ 284309.41, 4158863.46 ], [ 284255.28, 4158890.72 ], [ 284250.0, 4158894.62 ] ] ], [ [ [ 284393.54, 4158917.22 ], [ 284393.92, 4158916.93 ], [ 284394.33, 4158916.67 ], [ 284394.76, 4158916.45 ], [ 284395.21, 4158916.28 ], [ 284395.68, 4158916.15 ], [ 284396.16, 4158916.07 ], [ 284396.64, 4158916.03 ], [ 284397.12, 4158916.04 ], [ 284397.6, 4158916.1 ], [ 284409.14, 4158918.01 ], [ 284409.63, 4158918.11 ], [ 284410.1, 4158918.26 ], [ 284410.55, 4158918.46 ], [ 284410.98, 4158918.7 ], [ 284411.39, 4158918.99 ], [ 284411.77, 4158919.31 ], [ 284412.11, 4158919.67 ], [ 284412.41, 4158920.06 ], [ 284412.68, 4158920.48 ], [ 284412.9, 4158920.92 ], [ 284413.08, 4158921.39 ], [ 284413.21, 4158921.86 ], [ 284413.29, 4158922.35 ], [ 284413.32, 4158922.85 ], [ 284413.31, 4158923.34 ], [ 284413.24, 4158923.83 ], [ 284412.78, 4158926.39 ], [ 284417.41, 4158927.14 ], [ 284408.51, 4158906.48 ], [ 284390.52, 4158914.98 ], [ 284390.45, 4158915.37 ], [ 284389.39, 4158921.63 ], [ 284391.58, 4158921.63 ], [ 284391.87, 4158920.09 ], [ 284391.99, 4158919.62 ], [ 284392.14, 4158919.16 ], [ 284392.35, 4158918.72 ], [ 284392.59, 4158918.31 ], [ 284392.87, 4158917.92 ], [ 284393.19, 4158917.55 ], [ 284393.54, 4158917.22 ] ] ], [ [ [ 284261.91, 4158936.63 ], [ 284264.89, 4158936.63 ], [ 284267.01, 4158935.75 ], [ 284277.04, 4158925.71 ], [ 284277.53, 4158925.39 ], [ 284279.1, 4158924.74 ], [ 284279.67, 4158924.63 ], [ 284285.28, 4158924.63 ], [ 284287.96, 4158922.97 ], [ 284289.37, 4158920.15 ], [ 284289.77, 4158919.66 ], [ 284291.22, 4158918.49 ], [ 284291.78, 4158918.21 ], [ 284313.33, 4158912.83 ], [ 284314.72, 4158912.04 ], [ 284322.47, 4158904.28 ], [ 284322.76, 4158904.06 ], [ 284323.69, 4158903.5 ], [ 284324.02, 4158903.35 ], [ 284360.66, 4158892.08 ], [ 284362.62, 4158890.16 ], [ 284364.3, 4158885.12 ], [ 284364.83, 4158884.4 ], [ 284366.91, 4158882.9 ], [ 284367.77, 4158882.63 ], [ 284373.29, 4158882.63 ], [ 284374.31, 4158881.89 ], [ 284374.58, 4158880.36 ], [ 284374.59, 4158880.35 ], [ 284374.59, 4158880.34 ], [ 284375.14, 4158877.4 ], [ 284375.09, 4158877.23 ], [ 284374.69, 4158876.93 ], [ 284374.13, 4158875.8 ], [ 284374.13, 4158869.07 ], [ 284364.52, 4158873.11 ], [ 284342.54, 4158882.62 ], [ 284320.99, 4158893.12 ], [ 284300.11, 4158904.17 ], [ 284279.32, 4158916.19 ], [ 284259.16, 4158928.88 ], [ 284250.0, 4158935.32 ], [ 284250.0, 4158949.29 ], [ 284259.02, 4158938.02 ], [ 284259.53, 4158937.61 ], [ 284261.27, 4158936.77 ], [ 284261.91, 4158936.63 ] ] ], [ [ [ 284319.5, 4158943.55 ], [ 284319.52, 4158943.61 ], [ 284319.52, 4158943.64 ], [ 284319.53, 4158943.66 ], [ 284319.54, 4158943.72 ], [ 284319.55, 4158943.78 ], [ 284319.56, 4158943.81 ], [ 284319.56, 4158943.84 ], [ 284319.57, 4158943.9 ], [ 284319.57, 4158943.96 ], [ 284319.57, 4158943.99 ], [ 284319.58, 4158944.01 ], [ 284319.58, 4158944.07 ], [ 284319.58, 4158944.13 ], [ 284319.57, 4158944.16 ], [ 284319.57, 4158944.19 ], [ 284319.57, 4158944.25 ], [ 284319.56, 4158944.31 ], [ 284319.4, 4158945.5 ], [ 284322.08, 4158945.93 ], [ 284338.37, 4158938.84 ], [ 284338.54, 4158938.78 ], [ 284338.71, 4158938.73 ], [ 284338.89, 4158938.71 ], [ 284339.07, 4158938.7 ], [ 284339.25, 4158938.7 ], [ 284339.43, 4158938.73 ], [ 284339.61, 4158938.77 ], [ 284339.78, 4158938.83 ], [ 284339.94, 4158938.91 ], [ 284340.1, 4158939.0 ], [ 284340.24, 4158939.11 ], [ 284340.38, 4158939.24 ], [ 284340.49, 4158939.37 ], [ 284340.6, 4158939.52 ], [ 284340.69, 4158939.68 ], [ 284340.77, 4158939.84 ], [ 284340.89, 4158940.17 ], [ 284346.89, 4158941.03 ], [ 284347.6, 4158937.31 ], [ 284347.55, 4158935.41 ], [ 284347.28, 4158934.43 ], [ 284346.82, 4158933.5 ], [ 284345.76, 4158933.97 ], [ 284340.33, 4158936.38 ], [ 284340.17, 4158936.44 ], [ 284340.0, 4158936.49 ], [ 284339.82, 4158936.52 ], [ 284339.65, 4158936.53 ], [ 284339.47, 4158936.53 ], [ 284339.29, 4158936.5 ], [ 284339.12, 4158936.46 ], [ 284338.95, 4158936.41 ], [ 284338.79, 4158936.34 ], [ 284338.64, 4158936.25 ], [ 284338.49, 4158936.15 ], [ 284338.36, 4158936.03 ], [ 284338.24, 4158935.91 ], [ 284338.13, 4158935.77 ], [ 284338.04, 4158935.62 ], [ 284337.96, 4158935.46 ], [ 284337.89, 4158935.29 ], [ 284337.85, 4158935.12 ], [ 284337.82, 4158934.95 ], [ 284337.8, 4158934.77 ], [ 284337.81, 4158934.6 ], [ 284337.83, 4158934.42 ], [ 284337.87, 4158934.25 ], [ 284337.92, 4158934.08 ], [ 284337.99, 4158933.92 ], [ 284338.08, 4158933.77 ], [ 284338.18, 4158933.62 ], [ 284338.3, 4158933.49 ], [ 284338.42, 4158933.38 ], [ 284338.17, 4158933.49 ], [ 284338.13, 4158933.5 ], [ 284318.9, 4158941.77 ], [ 284319.48, 4158943.49 ], [ 284319.5, 4158943.55 ] ] ], [ [ [ 284332.46, 4158927.63 ], [ 284331.81, 4158927.7 ], [ 284306.53, 4158933.32 ], [ 284304.49, 4158934.9 ], [ 284302.78, 4158938.32 ], [ 284302.45, 4158938.76 ], [ 284301.24, 4158939.85 ], [ 284300.76, 4158940.14 ], [ 284278.74, 4158948.4 ], [ 284277.67, 4158949.09 ], [ 284273.92, 4158952.84 ], [ 284307.81, 4158939.91 ], [ 284315.06, 4158936.79 ], [ 284335.7, 4158927.91 ], [ 284336.33, 4158927.63 ], [ 284332.46, 4158927.63 ] ] ], [ [ [ 284353.65, 4158938.13 ], [ 284352.57, 4158943.8 ], [ 284348.8, 4158963.63 ], [ 284351.59, 4158963.63 ], [ 284352.16, 4158963.74 ], [ 284353.74, 4158964.39 ], [ 284354.22, 4158964.71 ], [ 284355.34, 4158965.83 ], [ 284361.0, 4158933.63 ], [ 284358.4, 4158933.63 ], [ 284357.63, 4158933.41 ], [ 284355.66, 4158932.19 ], [ 284355.12, 4158931.59 ], [ 284354.38, 4158930.13 ], [ 284352.4, 4158931.01 ], [ 284352.88, 4158932.01 ], [ 284352.99, 4158932.27 ], [ 284353.08, 4158932.53 ], [ 284353.53, 4158934.14 ], [ 284353.58, 4158934.38 ], [ 284353.62, 4158934.63 ], [ 284353.64, 4158934.88 ], [ 284353.71, 4158937.48 ], [ 284353.7, 4158937.81 ], [ 284353.65, 4158938.13 ] ] ], [ [ [ 284419.0, 4158948.28 ], [ 284419.11, 4158948.99 ], [ 284419.13, 4158949.23 ], [ 284419.13, 4158959.09 ], [ 284419.02, 4158959.66 ], [ 284418.37, 4158961.23 ], [ 284418.04, 4158961.71 ], [ 284417.23, 4158962.53 ], [ 284430.2, 4158956.83 ], [ 284421.08, 4158935.65 ], [ 284418.85, 4158947.78 ], [ 284418.94, 4158948.05 ], [ 284419.0, 4158948.28 ] ] ], [ [ [ 284279.81, 4158974.16 ], [ 284281.13, 4158972.44 ], [ 284281.13, 4158968.16 ], [ 284281.68, 4158967.04 ], [ 284284.31, 4158964.98 ], [ 284285.53, 4158964.73 ], [ 284289.4, 4158965.69 ], [ 284293.13, 4158962.78 ], [ 284293.13, 4158956.71 ], [ 284293.32, 4158955.99 ], [ 284294.4, 4158954.09 ], [ 284294.92, 4158953.55 ], [ 284304.99, 4158947.51 ], [ 284273.18, 4158959.65 ], [ 284274.64, 4158964.15 ], [ 284275.72, 4158966.55 ], [ 284279.81, 4158974.16 ] ] ], [ [ [ 284273.93, 4158996.16 ], [ 284274.69, 4158997.92 ], [ 284274.83, 4158998.28 ], [ 284274.93, 4158998.66 ], [ 284275.21, 4159000.0 ], [ 284275.69, 4159000.0 ], [ 284275.38, 4158998.13 ], [ 284273.93, 4158996.16 ] ] ], [ [ [ 284421.54, 4158755.04 ], [ 284421.66, 4158754.57 ], [ 284421.84, 4158754.1 ], [ 284422.05, 4158753.66 ], [ 284422.31, 4158753.24 ], [ 284422.61, 4158752.85 ], [ 284422.95, 4158752.49 ], [ 284423.32, 4158752.17 ], [ 284426.04, 4158750.0 ], [ 284423.43, 4158750.0 ], [ 284422.05, 4158751.1 ], [ 284416.28, 4158782.25 ], [ 284439.68, 4158773.96 ], [ 284439.82, 4158773.92 ], [ 284439.97, 4158773.89 ], [ 284440.12, 4158773.87 ], [ 284440.27, 4158773.87 ], [ 284440.43, 4158773.89 ], [ 284440.57, 4158773.92 ], [ 284440.72, 4158773.96 ], [ 284440.86, 4158774.02 ], [ 284440.99, 4158774.09 ], [ 284441.12, 4158774.18 ], [ 284441.24, 4158774.28 ], [ 284441.35, 4158774.38 ], [ 284441.44, 4158774.5 ], [ 284441.53, 4158774.63 ], [ 284441.6, 4158774.76 ], [ 284441.65, 4158774.9 ], [ 284441.7, 4158775.05 ], [ 284441.72, 4158775.18 ], [ 284443.47, 4158774.5 ], [ 284442.63, 4158774.28 ], [ 284442.27, 4158774.13 ], [ 284423.99, 4158763.69 ], [ 284423.44, 4158763.15 ], [ 284422.33, 4158761.23 ], [ 284422.13, 4158760.49 ], [ 284422.13, 4158758.62 ], [ 284421.99, 4158758.39 ], [ 284421.79, 4158757.94 ], [ 284421.63, 4158757.48 ], [ 284421.51, 4158757.0 ], [ 284421.45, 4158756.51 ], [ 284421.43, 4158756.02 ], [ 284421.46, 4158755.53 ], [ 284421.54, 4158755.04 ] ] ], [ [ [ 284491.74, 4158776.05 ], [ 284491.69, 4158776.07 ], [ 284491.43, 4158776.09 ], [ 284489.55, 4158779.1 ], [ 284489.53, 4158779.13 ], [ 284489.51, 4158779.16 ], [ 284489.48, 4158779.2 ], [ 284489.45, 4158779.24 ], [ 284489.42, 4158779.27 ], [ 284489.4, 4158779.3 ], [ 284489.37, 4158779.34 ], [ 284489.33, 4158779.38 ], [ 284489.31, 4158779.4 ], [ 284489.28, 4158779.43 ], [ 284489.24, 4158779.46 ], [ 284489.21, 4158779.5 ], [ 284489.18, 4158779.52 ], [ 284489.15, 4158779.55 ], [ 284489.11, 4158779.58 ], [ 284489.07, 4158779.61 ], [ 284489.04, 4158779.63 ], [ 284489.01, 4158779.65 ], [ 284488.96, 4158779.68 ], [ 284488.92, 4158779.71 ], [ 284488.89, 4158779.72 ], [ 284488.86, 4158779.74 ], [ 284488.81, 4158779.76 ], [ 284488.76, 4158779.79 ], [ 284488.73, 4158779.8 ], [ 284488.7, 4158779.81 ], [ 284488.65, 4158779.83 ], [ 284488.6, 4158779.85 ], [ 284488.56, 4158779.86 ], [ 284488.53, 4158779.87 ], [ 284488.48, 4158779.88 ], [ 284488.43, 4158779.9 ], [ 284488.39, 4158779.9 ], [ 284488.36, 4158779.91 ], [ 284488.3, 4158779.92 ], [ 284488.25, 4158779.93 ], [ 284488.22, 4158779.93 ], [ 284488.18, 4158779.94 ], [ 284486.29, 4158780.1 ], [ 284487.17, 4158780.88 ], [ 284500.0, 4158782.48 ], [ 284500.0, 4158779.62 ], [ 284491.11, 4158781.05 ], [ 284491.74, 4158776.05 ] ] ], [ [ [ 284416.68, 4158801.21 ], [ 284416.13, 4158800.09 ], [ 284416.13, 4158799.22 ], [ 284416.55, 4158798.2 ], [ 284418.71, 4158796.05 ], [ 284419.73, 4158795.63 ], [ 284420.28, 4158795.63 ], [ 284422.96, 4158793.97 ], [ 284424.12, 4158791.66 ], [ 284424.66, 4158791.06 ], [ 284425.05, 4158790.82 ], [ 284419.55, 4158792.94 ], [ 284412.34, 4158795.79 ], [ 284410.6, 4158796.47 ], [ 284409.82, 4158798.18 ], [ 284407.5, 4158810.39 ], [ 284406.9, 4158813.67 ], [ 284407.13, 4158814.22 ], [ 284407.13, 4158820.44 ], [ 284421.05, 4158816.07 ], [ 284421.39, 4158815.98 ], [ 284421.74, 4158815.92 ], [ 284441.01, 4158813.68 ], [ 284470.16, 4158806.32 ], [ 284470.22, 4158806.31 ], [ 284470.28, 4158806.29 ], [ 284485.74, 4158802.65 ], [ 284484.9, 4158801.87 ], [ 284450.24, 4158804.54 ], [ 284448.35, 4158805.41 ], [ 284444.22, 4158809.54 ], [ 284443.74, 4158809.86 ], [ 284442.16, 4158810.51 ], [ 284441.59, 4158810.63 ], [ 284431.73, 4158810.63 ], [ 284430.71, 4158810.2 ], [ 284428.55, 4158808.05 ], [ 284428.13, 4158807.03 ], [ 284428.13, 4158805.47 ], [ 284424.4, 4158802.56 ], [ 284420.53, 4158803.53 ], [ 284419.31, 4158803.27 ], [ 284416.68, 4158801.21 ] ] ], [ [ [ 284480.95, 4158857.47 ], [ 284480.71, 4158857.97 ], [ 284480.41, 4158858.45 ], [ 284480.07, 4158858.9 ], [ 284479.69, 4158859.32 ], [ 284479.27, 4158859.69 ], [ 284478.81, 4158860.03 ], [ 284478.33, 4158860.31 ], [ 284477.81, 4158860.55 ], [ 284397.02, 4158893.2 ], [ 284393.87, 4158894.49 ], [ 284392.23, 4158895.19 ], [ 284390.76, 4158902.1 ], [ 284394.31, 4158900.46 ], [ 284394.41, 4158900.42 ], [ 284406.91, 4158895.04 ], [ 284425.91, 4158886.86 ], [ 284425.93, 4158886.86 ], [ 284458.38, 4158873.01 ], [ 284458.57, 4158872.94 ], [ 284481.57, 4158864.38 ], [ 284500.0, 4158857.43 ], [ 284500.0, 4158849.15 ], [ 284480.98, 4158857.38 ], [ 284480.95, 4158857.47 ] ] ], [ [ [ 284475.14, 4158849.49 ], [ 284475.71, 4158849.47 ], [ 284476.27, 4158849.5 ], [ 284476.83, 4158849.59 ], [ 284477.37, 4158849.73 ], [ 284477.72, 4158849.86 ], [ 284500.0, 4158840.21 ], [ 284500.0, 4158831.76 ], [ 284487.54, 4158834.57 ], [ 284464.03, 4158839.97 ], [ 284441.19, 4158846.01 ], [ 284420.5, 4158852.4 ], [ 284406.69, 4158856.91 ], [ 284399.71, 4158859.44 ], [ 284398.4, 4158871.18 ], [ 284398.07, 4158871.97 ], [ 284396.48, 4158873.84 ], [ 284395.86, 4158874.24 ], [ 284394.67, 4158881.75 ], [ 284422.46, 4158870.52 ], [ 284421.71, 4158870.2 ], [ 284419.55, 4158868.05 ], [ 284419.13, 4158867.03 ], [ 284419.13, 4158866.6 ], [ 284419.31, 4158865.9 ], [ 284420.29, 4158864.06 ], [ 284420.78, 4158863.53 ], [ 284427.19, 4158859.25 ], [ 284427.59, 4158859.07 ], [ 284428.83, 4158858.69 ], [ 284429.26, 4158858.63 ], [ 284433.53, 4158858.63 ], [ 284434.55, 4158859.05 ], [ 284436.71, 4158861.2 ], [ 284437.13, 4158862.22 ], [ 284437.13, 4158864.59 ], [ 284473.5, 4158849.89 ], [ 284474.04, 4158849.7 ], [ 284474.59, 4158849.57 ], [ 284475.14, 4158849.49 ] ] ], [ [ [ 284425.19, 4158914.79 ], [ 284421.47, 4158906.43 ], [ 284421.3, 4158905.99 ], [ 284421.17, 4158905.53 ], [ 284421.08, 4158905.06 ], [ 284421.04, 4158904.59 ], [ 284421.05, 4158904.11 ], [ 284421.1, 4158903.64 ], [ 284421.19, 4158903.17 ], [ 284421.33, 4158902.71 ], [ 284421.51, 4158902.27 ], [ 284421.74, 4158901.85 ], [ 284422.0, 4158901.45 ], [ 284422.3, 4158901.08 ], [ 284422.63, 4158900.74 ], [ 284422.99, 4158900.43 ], [ 284423.39, 4158900.16 ], [ 284423.8, 4158899.93 ], [ 284424.24, 4158899.74 ], [ 284446.69, 4158891.07 ], [ 284448.71, 4158889.05 ], [ 284449.73, 4158888.63 ], [ 284453.02, 4158888.63 ], [ 284461.52, 4158885.34 ], [ 284461.98, 4158885.19 ], [ 284462.46, 4158885.08 ], [ 284462.57, 4158885.07 ], [ 284462.12, 4158883.87 ], [ 284440.36, 4158892.13 ], [ 284414.06, 4158903.93 ], [ 284435.89, 4158954.63 ], [ 284443.66, 4158952.02 ], [ 284442.59, 4158943.71 ], [ 284441.09, 4158936.63 ], [ 284437.73, 4158936.63 ], [ 284436.71, 4158936.2 ], [ 284434.55, 4158934.05 ], [ 284434.13, 4158933.03 ], [ 284434.13, 4158922.87 ], [ 284433.25, 4158920.75 ], [ 284430.23, 4158917.73 ], [ 284430.01, 4158917.75 ], [ 284429.51, 4158917.75 ], [ 284429.01, 4158917.7 ], [ 284428.52, 4158917.6 ], [ 284428.04, 4158917.45 ], [ 284427.58, 4158917.26 ], [ 284427.14, 4158917.02 ], [ 284426.73, 4158916.73 ], [ 284426.34, 4158916.41 ], [ 284426.0, 4158916.05 ], [ 284425.69, 4158915.66 ], [ 284425.41, 4158915.24 ], [ 284425.19, 4158914.79 ] ] ], [ [ [ 284439.53, 4158957.71 ], [ 284446.53, 4158955.63 ], [ 284446.86, 4158955.54 ], [ 284453.76, 4158954.07 ], [ 284453.79, 4158954.07 ], [ 284453.81, 4158954.07 ], [ 284453.92, 4158954.05 ], [ 284454.14, 4158954.01 ], [ 284463.52, 4158952.87 ], [ 284463.7, 4158952.85 ], [ 284500.0, 4158950.03 ], [ 284500.0, 4158949.76 ], [ 284457.59, 4158952.68 ], [ 284446.1, 4158954.99 ], [ 284437.32, 4158957.94 ], [ 284437.55, 4158958.48 ], [ 284439.15, 4158957.84 ], [ 284439.53, 4158957.71 ] ] ] ] } },
{ "type": "Feature", "properties": { "id": "richmond_structure:425540", "name": null, "kind": "deck", "sport": null, "surface": null, "pitch_layout": null, "source": "richmond_structures", "source_updated": "2026-09-08T12:07:13.637000Z", "base_z": null, "top_z": null }, "geometry": { "type": "Polygon", "coordinates": [ [ [ 284365.28, 4158776.06 ], [ 284367.0, 4158774.7 ], [ 284364.21, 4158771.18 ], [ 284362.49, 4158772.55 ], [ 284365.28, 4158776.06 ] ] ] } },
{ "type": "Feature", "properties": { "id": "osm:way/822841357", "name": null, "kind": "grass", "sport": null, "surface": null, "pitch_layout": null, "source": null, "source_updated": null, "base_z": null, "top_z": null }, "geometry": { "type": "Polygon", "coordinates": [ [ [ 284389.83, 4158785.55 ], [ 284394.2, 4158785.77 ], [ 284395.98, 4158783.72 ], [ 284397.19, 4158778.35 ], [ 284396.36, 4158772.19 ], [ 284390.65, 4158772.0 ], [ 284383.42, 4158777.53 ], [ 284389.83, 4158785.55 ] ] ] } },
{ "type": "Feature", "properties": { "id": "osm:way/822841356", "name": null, "kind": "grass", "sport": null, "surface": null, "pitch_layout": null, "source": null, "source_updated": null, "base_z": null, "top_z": null }, "geometry": { "type": "Polygon", "coordinates": [ [ [ 284385.76, 4158793.58 ], [ 284359.55, 4158762.29 ], [ 284333.38, 4158781.34 ], [ 284324.04, 4158770.39 ], [ 284295.93, 4158792.0 ], [ 284319.84, 4158821.77 ], [ 284379.67, 4158798.57 ], [ 284385.02, 4158795.82 ], [ 284385.76, 4158793.58 ] ] ] } },
{ "type": "Feature", "properties": { "id": "imagery:groundcover_lawn:1717", "name": null, "kind": "groundcover_lawn", "sport": null, "surface": null, "pitch_layout": null, "source": "vgin_vbmp+naip+lidar2025", "source_updated": null, "base_z": null, "top_z": null }, "geometry": { "type": "MultiPolygon", "coordinates": [ [ [ [ 284250.83, 4158790.85 ], [ 284250.3, 4158790.13 ], [ 284250.0, 4158789.23 ], [ 284250.0, 4158791.68 ], [ 284250.96, 4158790.95 ], [ 284250.83, 4158790.85 ] ] ], [ [ [ 284251.43, 4158802.96 ], [ 284251.52, 4158802.92 ], [ 284251.62, 4158802.9 ], [ 284251.72, 4158802.89 ], [ 284251.81, 4158802.88 ], [ 284251.91, 4158802.88 ], [ 284252.01, 4158802.9 ], [ 284252.1, 4158802.92 ], [ 284252.2, 4158802.96 ], [ 284252.28, 4158803.0 ], [ 284252.37, 4158803.05 ], [ 284252.45, 4158803.11 ], [ 284252.52, 4158803.17 ], [ 284252.59, 4158803.24 ], [ 284256.36, 4158807.82 ], [ 284257.74, 4158808.39 ], [ 284258.22, 4158808.71 ], [ 284262.84, 4158813.33 ], [ 284267.77, 4158812.26 ], [ 284273.61, 4158796.68 ], [ 284270.8, 4158792.63 ], [ 284258.84, 4158792.63 ], [ 284250.0, 4158799.34 ], [ 284250.0, 4158804.07 ], [ 284251.18, 4158803.11 ], [ 284251.26, 4158803.05 ], [ 284251.34, 4158803.0 ], [ 284251.43, 4158802.96 ] ] ] ] } },
{ "type": "Feature", "properties": { "id": "richmond_structure:301304", "name": null, "kind": "deck", "sport": null, "surface": null, "pitch_layout": null, "source": "richmond_structures", "source_updated": "2026-09-08T12:07:13.637000Z", "base_z": null, "top_z": null }, "geometry": { "type": "Polygon", "coordinates": [ [ [ 284297.36, 4158814.93 ], [ 284294.74, 4158811.28 ], [ 284287.14, 4158815.65 ], [ 284288.97, 4158817.67 ], [ 284291.94, 4158816.03 ], [ 284294.09, 4158814.36 ], [ 284295.59, 4158816.3 ], [ 284297.36, 4158814.93 ] ] ] } },
{ "type": "Feature", "properties": { "id": "imagery:groundcover_lawn:1661", "name": null, "kind": "groundcover_lawn", "sport": null, "surface": null, "pitch_layout": null, "source": "vgin_vbmp+naip+lidar2025", "source_updated": null, "base_z": null, "top_z": null }, "geometry": { "type": "Polygon", "coordinates": [ [ [ 284265.8, 4158861.9 ], [ 284266.56, 4158861.55 ], [ 284266.82, 4158861.45 ], [ 284301.33, 4158852.83 ], [ 284302.72, 4158852.04 ], [ 284307.25, 4158847.5 ], [ 284308.13, 4158845.38 ], [ 284308.13, 4158841.67 ], [ 284304.26, 4158838.8 ], [ 284289.74, 4158843.22 ], [ 284271.97, 4158850.07 ], [ 284250.0, 4158858.55 ], [ 284250.0, 4158873.15 ], [ 284265.55, 4158862.04 ], [ 284265.8, 4158861.9 ] ] ] } },
{ "type": "Feature", "properties": { "id": "imagery:groundcover_lawn:1653", "name": null, "kind": "groundcover_lawn", "sport": null, "surface": null, "pitch_layout": null, "source": "vgin_vbmp+naip+lidar2025", "source_updated": null, "base_z": null, "top_z": null }, "geometry": { "type": "Polygon", "coordinates": [ [ [ 284424.34, 4158869.76 ], [ 284437.13, 4158864.59 ], [ 284437.13, 4158862.79 ], [ 284433.18, 4158859.94 ], [ 284421.18, 4158863.94 ], [ 284419.13, 4158866.79 ], [ 284419.13, 4158867.08 ], [ 284422.62, 4158870.04 ], [ 284424.34, 4158869.76 ] ] ] } },
{ "type": "Feature", "properties": { "id": "imagery:groundcover_lawn:1737", "name": null, "kind": "groundcover_lawn", "sport": null, "surface": null, "pitch_layout": null, "source": "vgin_vbmp+naip+lidar2025", "source_updated": null, "base_z": null, "top_z": null }, "geometry": { "type": "Polygon", "coordinates": [ [ [ 284448.39, 4158772.6 ], [ 284455.13, 4158770.01 ], [ 284455.13, 4158768.63 ], [ 284453.28, 4158765.85 ], [ 284451.71, 4158765.2 ], [ 284449.55, 4158763.05 ], [ 284449.13, 4158762.03 ], [ 284449.13, 4158760.87 ], [ 284448.25, 4158758.75 ], [ 284443.56, 4158754.06 ], [ 284438.6, 4158755.23 ], [ 284437.96, 4158757.13 ], [ 284437.43, 4158757.85 ], [ 284435.35, 4158759.35 ], [ 284434.5, 4158759.63 ], [ 284431.38, 4158759.63 ], [ 284430.1, 4158760.65 ], [ 284430.02, 4158760.7 ], [ 284429.93, 4158760.75 ], [ 284429.84, 4158760.79 ], [ 284429.75, 4158760.83 ], [ 284429.65, 4158760.85 ], [ 284429.56, 4158760.86 ], [ 284429.46, 4158760.87 ], [ 284429.36, 4158760.86 ], [ 284429.27, 4158760.84 ], [ 284429.17, 4158760.82 ], [ 284429.08, 4158760.78 ], [ 284428.99, 4158760.74 ], [ 284428.91, 4158760.69 ], [ 284428.83, 4158760.63 ], [ 284428.76, 4158760.56 ], [ 284428.69, 4158760.49 ], [ 284428.06, 4158759.7 ], [ 284425.13, 4158762.63 ], [ 284425.13, 4158763.39 ], [ 284427.27, 4158766.27 ], [ 284448.39, 4158772.6 ] ] ] } },
{ "type": "Feature", "properties": { "id": "osm:way/1293290195", "name": null, "kind": "parking", "sport": null, "surface": null, "pitch_layout": null, "source": null, "source_updated": null, "base_z": null, "top_z": null }, "geometry": { "type": "Polygon", "coordinates": [ [ [ 284491.11, 4158781.05 ], [ 284500.0, 4158779.62 ], [ 284500.0, 4158773.09 ], [ 284491.89, 4158774.9 ], [ 284491.11, 4158781.05 ] ] ] } },
{ "type": "Feature", "properties": { "id": "imagery:groundcover_lawn:1734", "name": null, "kind": "groundcover_lawn", "sport": null, "surface": null, "pitch_layout": null, "source": "vgin_vbmp+naip+lidar2025", "source_updated": null, "base_z": null, "top_z": null }, "geometry": { "type": "MultiPolygon", "coordinates": [ [ [ [ 284469.69, 4158756.97 ], [ 284469.55, 4158757.87 ], [ 284468.37, 4158760.19 ], [ 284467.72, 4158760.83 ], [ 284465.59, 4158761.9 ], [ 284463.95, 4158764.25 ], [ 284463.68, 4158766.71 ], [ 284496.43, 4158754.09 ], [ 284497.13, 4158752.38 ], [ 284497.13, 4158750.0 ], [ 284468.92, 4158750.0 ], [ 284468.57, 4158750.28 ], [ 284469.69, 4158756.97 ] ] ], [ [ [ 284464.57, 4158780.8 ], [ 284464.75, 4158780.81 ], [ 284464.92, 4158780.83 ], [ 284468.54, 4158781.6 ], [ 284470.21, 4158781.62 ], [ 284471.4, 4158781.18 ], [ 284473.88, 4158778.53 ], [ 284474.01, 4158778.39 ], [ 284474.17, 4158778.28 ], [ 284476.82, 4158776.43 ], [ 284476.99, 4158776.33 ], [ 284477.16, 4158776.25 ], [ 284477.34, 4158776.18 ], [ 284477.52, 4158776.14 ], [ 284480.03, 4158775.67 ], [ 284480.18, 4158775.65 ], [ 284480.33, 4158775.64 ], [ 284480.48, 4158775.65 ], [ 284483.39, 4158775.84 ], [ 284483.54, 4158775.85 ], [ 284483.68, 4158775.88 ], [ 284483.82, 4158775.92 ], [ 284483.97, 4158775.97 ], [ 284482.63, 4158770.63 ], [ 284481.59, 4158769.02 ], [ 284462.61, 4158776.34 ], [ 284462.09, 4158781.01 ], [ 284464.39, 4158780.8 ], [ 284464.57, 4158780.8 ] ] ], [ [ [ 284427.59, 4158805.04 ], [ 284428.13, 4158806.16 ], [ 284428.13, 4158807.63 ], [ 284431.13, 4158810.63 ], [ 284441.89, 4158810.63 ], [ 284444.01, 4158809.75 ], [ 284448.23, 4158805.53 ], [ 284448.63, 4158805.24 ], [ 284449.93, 4158804.61 ], [ 284450.4, 4158804.47 ], [ 284472.9, 4158801.65 ], [ 284472.99, 4158801.65 ], [ 284473.27, 4158801.63 ], [ 284473.36, 4158801.63 ], [ 284484.53, 4158801.63 ], [ 284485.55, 4158802.05 ], [ 284486.08, 4158802.57 ], [ 284500.0, 4158799.3 ], [ 284500.0, 4158782.48 ], [ 284487.62, 4158780.94 ], [ 284486.83, 4158780.58 ], [ 284486.29, 4158780.1 ], [ 284485.69, 4158780.16 ], [ 284485.51, 4158780.16 ], [ 284485.34, 4158780.15 ], [ 284485.16, 4158780.12 ], [ 284484.98, 4158780.08 ], [ 284482.93, 4158779.42 ], [ 284480.46, 4158779.25 ], [ 284478.56, 4158779.61 ], [ 284476.38, 4158781.12 ], [ 284473.74, 4158783.95 ], [ 284473.62, 4158784.07 ], [ 284473.49, 4158784.17 ], [ 284473.35, 4158784.27 ], [ 284473.2, 4158784.35 ], [ 284473.05, 4158784.41 ], [ 284471.15, 4158785.12 ], [ 284470.99, 4158785.17 ], [ 284470.83, 4158785.2 ], [ 284470.66, 4158785.22 ], [ 284470.5, 4158785.23 ], [ 284468.31, 4158785.2 ], [ 284468.14, 4158785.19 ], [ 284467.97, 4158785.16 ], [ 284464.44, 4158784.41 ], [ 284462.64, 4158784.57 ], [ 284461.65, 4158784.95 ], [ 284461.49, 4158786.41 ], [ 284461.02, 4158787.33 ], [ 284458.86, 4158789.26 ], [ 284457.89, 4158789.63 ], [ 284450.67, 4158789.63 ], [ 284450.1, 4158789.51 ], [ 284450.02, 4158789.48 ], [ 284446.19, 4158790.96 ], [ 284446.02, 4158791.02 ], [ 284445.85, 4158791.06 ], [ 284445.68, 4158791.08 ], [ 284445.5, 4158791.09 ], [ 284445.32, 4158791.07 ], [ 284445.15, 4158791.04 ], [ 284444.98, 4158791.0 ], [ 284444.81, 4158790.93 ], [ 284444.66, 4158790.85 ], [ 284444.51, 4158790.76 ], [ 284444.37, 4158790.65 ], [ 284444.24, 4158790.53 ], [ 284444.12, 4158790.4 ], [ 284444.02, 4158790.25 ], [ 284443.93, 4158790.1 ], [ 284443.86, 4158789.94 ], [ 284443.81, 4158789.77 ], [ 284443.77, 4158789.6 ], [ 284443.75, 4158789.42 ], [ 284443.74, 4158789.25 ], [ 284443.75, 4158789.07 ], [ 284443.78, 4158788.9 ], [ 284443.83, 4158788.73 ], [ 284443.89, 4158788.56 ], [ 284443.97, 4158788.4 ], [ 284444.07, 4158788.25 ], [ 284444.17, 4158788.11 ], [ 284444.3, 4158787.99 ], [ 284444.43, 4158787.87 ], [ 284444.57, 4158787.77 ], [ 284444.73, 4158787.68 ], [ 284444.89, 4158787.61 ], [ 284446.49, 4158786.98 ], [ 284446.07, 4158786.57 ], [ 284441.27, 4158787.35 ], [ 284441.15, 4158787.59 ], [ 284440.6, 4158788.19 ], [ 284438.63, 4158789.41 ], [ 284437.86, 4158789.63 ], [ 284428.15, 4158789.63 ], [ 284425.05, 4158790.82 ], [ 284424.3, 4158791.28 ], [ 284423.15, 4158793.59 ], [ 284422.6, 4158794.19 ], [ 284420.63, 4158795.41 ], [ 284419.86, 4158795.63 ], [ 284419.13, 4158795.63 ], [ 284416.13, 4158798.63 ], [ 284416.13, 4158800.78 ], [ 284419.86, 4158803.69 ], [ 284423.73, 4158802.73 ], [ 284424.95, 4158802.98 ], [ 284427.59, 4158805.04 ] ] ] ] } },
{ "type": "Feature", "properties": { "id": "richmond_structure:287499", "name": null, "kind": "deck", "sport": null, "surface": null, "pitch_layout": null, "source": "richmond_structures", "source_updated": "2026-09-08T12:07:13.637000Z", "base_z": null, "top_z": null }, "geometry": { "type": "Polygon", "coordinates": [ [ [ 284496.81, 4158886.54 ], [ 284499.62, 4158885.47 ], [ 284497.75, 4158880.56 ], [ 284494.94, 4158881.62 ], [ 284496.81, 4158886.54 ] ] ] } },
{ "type": "Feature", "properties": { "id": "richmond_structure:287503", "name": null, "kind": "deck", "sport": null, "surface": null, "pitch_layout": null, "source": "richmond_structures", "source_updated": "2026-09-08T12:07:13.637000Z", "base_z": null, "top_z": null }, "geometry": { "type": "Polygon", "coordinates": [ [ [ 284483.47, 4158885.8 ], [ 284481.06, 4158886.71 ], [ 284483.0, 4158891.85 ], [ 284485.41, 4158890.94 ], [ 284483.47, 4158885.8 ] ] ] } },
{ "type": "Feature", "properties": { "id": "richmond_structure:287507", "name": null, "kind": "deck", "sport": null, "surface": null, "pitch_layout": null, "source": "richmond_structures", "source_updated": "2026-09-08T12:07:13.637000Z", "base_z": null, "top_z": null }, "geometry": { "type": "Polygon", "coordinates": [ [ [ 284469.97, 4158899.19 ], [ 284475.89, 4158896.93 ], [ 284472.52, 4158888.0 ], [ 284466.56, 4158890.28 ], [ 284469.97, 4158899.19 ] ] ] } },
{ "type": "Feature", "properties": { "id": "richmond_structure:287512", "name": null, "kind": "deck", "sport": null, "surface": null, "pitch_layout": null, "source": "richmond_structures", "source_updated": "2026-09-08T12:07:13.637000Z", "base_z": null, "top_z": null }, "geometry": { "type": "Polygon", "coordinates": [ [ [ 284497.91, 4158909.34 ], [ 284495.26, 4158902.04 ], [ 284487.87, 4158904.77 ], [ 284489.69, 4158909.61 ], [ 284493.1, 4158911.22 ], [ 284497.91, 4158909.34 ] ] ] } },
{ "type": "Feature", "properties": { "id": "richmond_structure:287513", "name": null, "kind": "deck", "sport": null, "surface": null, "pitch_layout": null, "source": "richmond_structures", "source_updated": "2026-09-08T12:07:13.637000Z", "base_z": null, "top_z": null }, "geometry": { "type": "Polygon", "coordinates": [ [ [ 284477.23, 4158910.72 ], [ 284480.61, 4158909.44 ], [ 284479.37, 4158906.17 ], [ 284476.0, 4158907.45 ], [ 284477.23, 4158910.72 ] ] ] } },
{ "type": "Feature", "properties": { "id": "richmond_structure:287514", "name": null, "kind": "deck", "sport": null, "surface": null, "pitch_layout": null, "source": "richmond_structures", "source_updated": "2026-09-08T12:07:13.637000Z", "base_z": null, "top_z": null }, "geometry": { "type": "Polygon", "coordinates": [ [ [ 284454.41, 4158910.19 ], [ 284452.36, 4158904.7 ], [ 284443.38, 4158908.07 ], [ 284445.43, 4158913.55 ], [ 284454.41, 4158910.19 ] ] ] } },
{ "type": "Feature", "properties": { "id": "imagery:groundcover_lawn:1641", "name": null, "kind": "groundcover_lawn", "sport": null, "surface": null, "pitch_layout": null, "source": "vgin_vbmp+naip+lidar2025", "source_updated": null, "base_z": null, "top_z": null }, "geometry": { "type": "MultiPolygon", "coordinates": [ [ [ [ 284495.65, 4158895.75 ], [ 284500.0, 4158906.92 ], [ 284500.0, 4158896.71 ], [ 284497.44, 4158895.3 ], [ 284495.65, 4158895.75 ] ] ], [ [ [ 284493.46, 4158908.43 ], [ 284493.58, 4158909.36 ], [ 284492.87, 4158912.94 ], [ 284493.72, 4158915.17 ], [ 284493.75, 4158915.26 ], [ 284493.77, 4158915.35 ], [ 284493.78, 4158915.45 ], [ 284493.78, 4158915.54 ], [ 284493.78, 4158915.64 ], [ 284493.76, 4158915.73 ], [ 284493.74, 4158915.83 ], [ 284493.71, 4158915.92 ], [ 284493.66, 4158916.0 ], [ 284493.61, 4158916.08 ], [ 284493.56, 4158916.16 ], [ 284493.49, 4158916.23 ], [ 284493.42, 4158916.3 ], [ 284493.35, 4158916.35 ], [ 284493.26, 4158916.4 ], [ 284493.18, 4158916.45 ], [ 284493.09, 4158916.48 ], [ 284492.1, 4158916.8 ], [ 284491.85, 4158918.04 ], [ 284494.14, 4158920.83 ], [ 284500.0, 4158920.4 ], [ 284500.0, 4158916.85 ], [ 284492.13, 4158896.63 ], [ 284490.4, 4158897.06 ], [ 284488.13, 4158899.97 ], [ 284488.13, 4158900.51 ], [ 284489.38, 4158903.8 ], [ 284489.79, 4158904.45 ], [ 284491.64, 4158905.38 ], [ 284492.3, 4158906.04 ], [ 284493.46, 4158908.43 ] ] ], [ [ [ 284498.04, 4158938.64 ], [ 284498.02, 4158938.73 ], [ 284497.98, 4158938.82 ], [ 284497.46, 4158942.99 ], [ 284499.64, 4158946.17 ], [ 284500.0, 4158946.15 ], [ 284500.0, 4158924.01 ], [ 284498.91, 4158924.09 ], [ 284499.28, 4158924.51 ], [ 284499.63, 4158925.64 ], [ 284498.06, 4158938.16 ], [ 284498.07, 4158938.35 ], [ 284498.07, 4158938.45 ], [ 284498.06, 4158938.55 ], [ 284498.04, 4158938.64 ] ] ] ] } },
{ "type": "Feature", "properties": { "id": "richmond_structure:287516", "name": null, "kind": "deck", "sport": null, "surface": null, "pitch_layout": null, "source": "richmond_structures", "source_updated": "2026-09-08T12:07:13.637000Z", "base_z": null, "top_z": null }, "geometry": { "type": "Polygon", "coordinates": [ [ [ 284479.13, 4158915.59 ], [ 284482.45, 4158914.34 ], [ 284481.39, 4158911.51 ], [ 284478.07, 4158912.76 ], [ 284479.13, 4158915.59 ] ] ] } },
{ "type": "Feature", "properties": { "id": "imagery:groundcover_lawn:1614", "name": null, "kind": "groundcover_lawn", "sport": null, "surface": null, "pitch_layout": null, "source": "vgin_vbmp+naip+lidar2025", "source_updated": null, "base_z": null, "top_z": null }, "geometry": { "type": "MultiPolygon", "coordinates": [ [ [ [ 284470.97, 4158921.63 ], [ 284473.81, 4158919.57 ], [ 284474.49, 4158917.55 ], [ 284473.42, 4158914.65 ], [ 284471.97, 4158912.63 ], [ 284469.02, 4158912.63 ], [ 284467.87, 4158912.04 ], [ 284466.44, 4158910.06 ], [ 284458.11, 4158913.21 ], [ 284457.95, 4158913.26 ], [ 284457.79, 4158913.3 ], [ 284457.63, 4158913.32 ], [ 284457.46, 4158913.32 ], [ 284457.29, 4158913.31 ], [ 284457.13, 4158913.29 ], [ 284456.97, 4158913.25 ], [ 284456.81, 4158913.2 ], [ 284455.41, 4158912.64 ], [ 284443.16, 4158916.74 ], [ 284441.47, 4158918.04 ], [ 284441.13, 4158919.4 ], [ 284442.23, 4158924.6 ], [ 284451.2, 4158923.94 ], [ 284451.21, 4158923.93 ], [ 284451.75, 4158923.26 ], [ 284453.79, 4158921.88 ], [ 284454.61, 4158921.63 ], [ 284470.97, 4158921.63 ] ] ], [ [ [ 284439.03, 4158926.88 ], [ 284437.52, 4158919.73 ], [ 284437.49, 4158919.57 ], [ 284437.48, 4158919.41 ], [ 284437.49, 4158919.24 ], [ 284437.5, 4158919.08 ], [ 284437.54, 4158918.92 ], [ 284438.14, 4158916.55 ], [ 284438.19, 4158916.38 ], [ 284438.25, 4158916.22 ], [ 284438.33, 4158916.07 ], [ 284438.43, 4158915.93 ], [ 284438.54, 4158915.8 ], [ 284438.65, 4158915.67 ], [ 284438.79, 4158915.56 ], [ 284441.2, 4158913.7 ], [ 284441.37, 4158913.59 ], [ 284441.54, 4158913.49 ], [ 284441.73, 4158913.42 ], [ 284454.89, 4158909.01 ], [ 284455.07, 4158908.97 ], [ 284455.25, 4158908.93 ], [ 284455.43, 4158908.92 ], [ 284455.61, 4158908.93 ], [ 284455.79, 4158908.95 ], [ 284455.96, 4158908.99 ], [ 284456.13, 4158909.05 ], [ 284457.49, 4158909.59 ], [ 284464.33, 4158907.01 ], [ 284461.74, 4158905.42 ], [ 284433.18, 4158914.94 ], [ 284431.13, 4158917.79 ], [ 284431.13, 4158931.17 ], [ 284433.54, 4158934.11 ], [ 284440.87, 4158935.57 ], [ 284439.03, 4158926.88 ] ] ] ] } },
{ "type": "Feature", "properties": { "id": "richmond_structure:287439", "name": null, "kind": "deck", "sport": null, "surface": null, "pitch_layout": null, "source": "richmond_structures", "source_updated": "2026-09-08T12:07:13.637000Z", "base_z": null, "top_z": null }, "geometry": { "type": "Polygon", "coordinates": [ [ [ 284454.63, 4158933.63 ], [ 284458.65, 4158933.35 ], [ 284458.53, 4158931.58 ], [ 284454.51, 4158931.86 ], [ 284454.63, 4158933.63 ] ] ] } },
{ "type": "Feature", "properties": { "id": "richmond_structure:287440", "name": null, "kind": "deck", "sport": null, "surface": null, "pitch_layout": null, "source": "richmond_structures", "source_updated": "2026-09-08T12:07:13.637000Z", "base_z": null, "top_z": null }, "geometry": { "type": "Polygon", "coordinates": [ [ [ 284448.04, 4158934.09 ], [ 284451.46, 4158933.85 ], [ 284451.31, 4158931.7 ], [ 284447.89, 4158931.94 ], [ 284448.04, 4158934.09 ] ] ] } },
{ "type": "Feature", "properties": { "id": "imagery:groundcover_lawn:1538", "name": null, "kind": "groundcover_lawn", "sport": null, "surface": null, "pitch_layout": null, "source": "vgin_vbmp+naip+lidar2025", "source_updated": null, "base_z": null, "top_z": null }, "geometry": { "type": "MultiPolygon", "coordinates": [ [ [ [ 284474.67, 4158987.76 ], [ 284474.74, 4158987.85 ], [ 284500.0, 4158984.19 ], [ 284500.0, 4158979.15 ], [ 284476.61, 4158983.05 ], [ 284474.67, 4158987.76 ] ] ], [ [ [ 284496.7, 4158991.77 ], [ 284497.86, 4158989.84 ], [ 284500.0, 4158988.7 ], [ 284500.0, 4158987.83 ], [ 284476.13, 4158991.29 ], [ 284476.13, 4158993.17 ], [ 284479.56, 4158996.14 ], [ 284494.56, 4158993.99 ], [ 284496.56, 4158991.68 ], [ 284496.7, 4158991.77 ] ] ] ] } },
{ "type": "Feature", "properties": { "id": "richmond_structure:287324", "name": null, "kind": "deck", "sport": null, "surface": null, "pitch_layout": null, "source": "richmond_structures", "source_updated": "2026-09-08T12:07:13.637000Z", "base_z": null, "top_z": null }, "geometry": { "type": "Polygon", "coordinates": [ [ [ 284414.91, 4158928.42 ], [ 284408.15, 4158927.1 ], [ 284407.45, 4158930.94 ], [ 284414.17, 4158932.25 ], [ 284414.91, 4158928.42 ] ] ] } },
{ "type": "Feature", "properties": { "id": "imagery:groundcover_lawn:1635", "name": null, "kind": "groundcover_lawn", "sport": null, "surface": null, "pitch_layout": null, "source": "vgin_vbmp+naip+lidar2025", "source_updated": null, "base_z": null, "top_z": null }, "geometry": { "type": "MultiPolygon", "coordinates": [ [ [ [ 284280.82, 4159000.0 ], [ 284280.78, 4158999.91 ], [ 284279.05, 4158994.6 ], [ 284279.02, 4158994.51 ], [ 284279.01, 4158994.41 ], [ 284279.0, 4158994.31 ], [ 284279.0, 4158994.21 ], [ 284279.02, 4158994.11 ], [ 284279.04, 4158994.01 ], [ 284279.07, 4158993.92 ], [ 284279.11, 4158993.83 ], [ 284279.16, 4158993.74 ], [ 284279.22, 4158993.66 ], [ 284279.29, 4158993.59 ], [ 284279.36, 4158993.52 ], [ 284279.44, 4158993.46 ], [ 284279.53, 4158993.41 ], [ 284279.62, 4158993.37 ], [ 284279.71, 4158993.33 ], [ 284283.23, 4158992.27 ], [ 284283.33, 4158992.25 ], [ 284281.19, 4158988.65 ], [ 284280.16, 4158988.3 ], [ 284279.52, 4158987.88 ], [ 284278.05, 4158986.22 ], [ 284277.71, 4158985.53 ], [ 284276.88, 4158981.37 ], [ 284275.57, 4158979.16 ], [ 284275.51, 4158979.04 ], [ 284270.83, 4158970.34 ], [ 284270.57, 4158970.1 ], [ 284269.35, 4158968.13 ], [ 284269.13, 4158967.35 ], [ 284269.13, 4158966.78 ], [ 284269.01, 4158966.51 ], [ 284268.89, 4158966.19 ], [ 284266.49, 4158958.77 ], [ 284266.47, 4158958.7 ], [ 284266.44, 4158958.63 ], [ 284266.43, 4158958.56 ], [ 284266.41, 4158958.48 ], [ 284266.4, 4158958.41 ], [ 284266.38, 4158958.34 ], [ 284266.37, 4158958.26 ], [ 284266.36, 4158958.19 ], [ 284266.35, 4158958.12 ], [ 284266.34, 4158958.04 ], [ 284266.34, 4158957.97 ], [ 284266.34, 4158957.89 ], [ 284266.34, 4158957.82 ], [ 284266.34, 4158957.75 ], [ 284266.34, 4158957.67 ], [ 284266.35, 4158957.59 ], [ 284266.36, 4158957.52 ], [ 284266.36, 4158957.45 ], [ 284266.37, 4158957.37 ], [ 284266.39, 4158957.29 ], [ 284266.4, 4158957.22 ], [ 284266.41, 4158957.15 ], [ 284266.43, 4158957.08 ], [ 284266.45, 4158957.0 ], [ 284266.48, 4158956.93 ], [ 284266.49, 4158956.86 ], [ 284266.52, 4158956.79 ], [ 284266.55, 4158956.72 ], [ 284266.58, 4158956.65 ], [ 284266.6, 4158956.58 ], [ 284266.64, 4158956.52 ], [ 284266.67, 4158956.44 ], [ 284266.71, 4158956.38 ], [ 284266.74, 4158956.32 ], [ 284266.78, 4158956.25 ], [ 284266.82, 4158956.18 ], [ 284266.86, 4158956.13 ], [ 284266.9, 4158956.07 ], [ 284266.95, 4158956.0 ], [ 284266.99, 4158955.94 ], [ 284267.04, 4158955.89 ], [ 284267.08, 4158955.83 ], [ 284267.14, 4158955.77 ], [ 284267.19, 4158955.71 ], [ 284267.24, 4158955.67 ], [ 284267.29, 4158955.61 ], [ 284267.35, 4158955.56 ], [ 284267.41, 4158955.51 ], [ 284267.47, 4158955.47 ], [ 284267.52, 4158955.42 ], [ 284267.58, 4158955.37 ], [ 284267.65, 4158955.33 ], [ 284267.71, 4158955.29 ], [ 284267.76, 4158955.25 ], [ 284267.83, 4158955.21 ], [ 284267.9, 4158955.17 ], [ 284267.96, 4158955.14 ], [ 284268.03, 4158955.1 ], [ 284268.1, 4158955.07 ], [ 284268.17, 4158955.04 ], [ 284268.23, 4158955.01 ], [ 284268.3, 4158954.98 ], [ 284277.17, 4158951.6 ], [ 284292.14, 4158940.37 ], [ 284292.56, 4158940.15 ], [ 284293.9, 4158939.7 ], [ 284294.37, 4158939.63 ], [ 284300.28, 4158939.63 ], [ 284302.96, 4158937.97 ], [ 284304.34, 4158935.2 ], [ 284304.76, 4158934.7 ], [ 284306.26, 4158933.52 ], [ 284306.85, 4158933.24 ], [ 284331.73, 4158927.71 ], [ 284331.89, 4158927.69 ], [ 284332.38, 4158927.63 ], [ 284332.54, 4158927.63 ], [ 284336.33, 4158927.63 ], [ 284345.47, 4158923.55 ], [ 284361.43, 4158916.25 ], [ 284363.28, 4158915.41 ], [ 284364.04, 4158914.27 ], [ 284364.57, 4158913.79 ], [ 284364.8, 4158913.66 ], [ 284365.12, 4158912.23 ], [ 284367.62, 4158898.12 ], [ 284367.66, 4158897.94 ], [ 284370.28, 4158888.65 ], [ 284370.34, 4158888.48 ], [ 284370.41, 4158888.31 ], [ 284370.51, 4158888.15 ], [ 284370.61, 4158888.0 ], [ 284370.74, 4158887.87 ], [ 284373.79, 4158884.8 ], [ 284374.1, 4158883.04 ], [ 284373.73, 4158882.63 ], [ 284367.29, 4158882.63 ], [ 284364.45, 4158884.68 ], [ 284362.73, 4158889.82 ], [ 284362.36, 4158890.41 ], [ 284360.91, 4158891.83 ], [ 284360.31, 4158892.18 ], [ 284323.84, 4158903.41 ], [ 284322.6, 4158904.15 ], [ 284314.86, 4158911.89 ], [ 284314.54, 4158912.14 ], [ 284313.5, 4158912.73 ], [ 284313.13, 4158912.88 ], [ 284291.47, 4158918.29 ], [ 284289.51, 4158919.86 ], [ 284288.15, 4158922.59 ], [ 284287.6, 4158923.19 ], [ 284285.63, 4158924.41 ], [ 284284.86, 4158924.63 ], [ 284279.99, 4158924.63 ], [ 284277.3, 4158926.28 ], [ 284275.76, 4158929.36 ], [ 284275.44, 4158929.79 ], [ 284274.27, 4158930.86 ], [ 284273.82, 4158931.15 ], [ 284260.87, 4158936.33 ], [ 284259.64, 4158937.24 ], [ 284250.0, 4158949.29 ], [ 284250.0, 4158968.39 ], [ 284251.05, 4158968.8 ], [ 284251.42, 4158968.97 ], [ 284251.78, 4158969.19 ], [ 284257.07, 4158972.77 ], [ 284257.5, 4158973.1 ], [ 284262.6, 4158977.73 ], [ 284262.87, 4158978.01 ], [ 284266.81, 4158982.38 ], [ 284267.08, 4158982.72 ], [ 284267.31, 4158983.08 ], [ 284271.49, 4158990.62 ], [ 284271.65, 4158990.94 ], [ 284273.94, 4158996.2 ], [ 284273.98, 4158996.23 ], [ 284275.17, 4158997.85 ], [ 284275.44, 4158998.48 ], [ 284275.69, 4159000.0 ], [ 284280.82, 4159000.0 ] ] ], [ [ [ 284285.8, 4158996.64 ], [ 284285.24, 4158995.47 ], [ 284286.05, 4158998.2 ], [ 284286.07, 4158998.29 ], [ 284286.08, 4158998.39 ], [ 284286.09, 4158998.49 ], [ 284286.09, 4158998.58 ], [ 284286.07, 4158998.68 ], [ 284286.05, 4158998.77 ], [ 284286.02, 4158998.86 ], [ 284285.98, 4158998.95 ], [ 284285.93, 4158999.03 ], [ 284285.87, 4158999.11 ], [ 284285.81, 4158999.18 ], [ 284285.74, 4158999.25 ], [ 284285.66, 4158999.31 ], [ 284285.58, 4158999.36 ], [ 284285.49, 4158999.4 ], [ 284285.4, 4158999.44 ], [ 284283.7, 4159000.0 ], [ 284286.29, 4159000.0 ], [ 284286.07, 4158997.76 ], [ 284285.8, 4158996.64 ] ] ], [ [ [ 284305.21, 4158984.89 ], [ 284305.14, 4158984.35 ], [ 284305.13, 4158984.16 ], [ 284305.13, 4158970.51 ], [ 284305.17, 4158970.16 ], [ 284305.41, 4158969.16 ], [ 284305.53, 4158968.84 ], [ 284309.12, 4158961.64 ], [ 284309.58, 4158958.83 ], [ 284309.61, 4158958.73 ], [ 284309.64, 4158958.64 ], [ 284309.67, 4158958.55 ], [ 284309.72, 4158958.47 ], [ 284309.78, 4158958.38 ], [ 284309.84, 4158958.31 ], [ 284309.91, 4158958.24 ], [ 284309.99, 4158958.18 ], [ 284310.07, 4158958.13 ], [ 284310.16, 4158958.08 ], [ 284310.25, 4158958.05 ], [ 284310.34, 4158958.02 ], [ 284310.44, 4158958.0 ], [ 284310.54, 4158957.99 ], [ 284310.63, 4158957.99 ], [ 284310.73, 4158958.01 ], [ 284310.93, 4158958.04 ], [ 284312.46, 4158954.97 ], [ 284310.5, 4158950.72 ], [ 284303.42, 4158948.95 ], [ 284301.03, 4158949.36 ], [ 284294.21, 4158953.9 ], [ 284292.92, 4158955.91 ], [ 284287.82, 4158986.51 ], [ 284287.39, 4158987.14 ], [ 284290.53, 4158992.43 ], [ 284290.64, 4158992.64 ], [ 284291.44, 4158994.27 ], [ 284291.57, 4158994.58 ], [ 284291.67, 4158994.91 ], [ 284292.05, 4158996.57 ], [ 284292.12, 4158996.96 ], [ 284292.39, 4158999.63 ], [ 284305.19, 4158999.63 ], [ 284307.88, 4158995.29 ], [ 284307.72, 4158994.97 ], [ 284305.24, 4158985.07 ], [ 284305.21, 4158984.89 ] ] ] ] } },
{ "type": "Feature", "properties": { "id": "imagery:groundcover_lawn:1566", "name": null, "kind": "groundcover_lawn", "sport": null, "surface": null, "pitch_layout": null, "source": "vgin_vbmp+naip+lidar2025", "source_updated": null, "base_z": null, "top_z": null }, "geometry": { "type": "Polygon", "coordinates": [ [ [ 284389.13, 4158971.46 ], [ 284386.97, 4158969.76 ], [ 284386.89, 4158969.69 ], [ 284386.83, 4158969.62 ], [ 284386.77, 4158969.54 ], [ 284386.71, 4158969.46 ], [ 284386.67, 4158969.37 ], [ 284386.63, 4158969.28 ], [ 284386.61, 4158969.18 ], [ 284386.59, 4158969.08 ], [ 284386.59, 4158968.98 ], [ 284386.59, 4158968.88 ], [ 284386.61, 4158968.78 ], [ 284389.13, 4158955.61 ], [ 284389.13, 4158955.29 ], [ 284385.54, 4158952.34 ], [ 284383.85, 4158952.68 ], [ 284379.23, 4158977.61 ], [ 284385.97, 4158976.26 ], [ 284386.95, 4158975.83 ], [ 284389.13, 4158973.17 ], [ 284389.13, 4158971.46 ] ] ] } },
{ "type": "Feature", "properties": { "id": "imagery:groundcover_bare:1552", "name": null, "kind": "groundcover_bare", "sport": null, "surface": null, "pitch_layout": null, "source": "vgin_vbmp+naip+lidar2025", "source_updated": null, "base_z": null, "top_z": null }, "geometry": { "type": "Polygon", "coordinates": [ [ [ 284285.99, 4158984.63 ], [ 284287.13, 4158984.63 ], [ 284290.13, 4158981.63 ], [ 284290.13, 4158968.79 ], [ 284288.08, 4158965.94 ], [ 284285.08, 4158964.94 ], [ 284281.13, 4158967.79 ], [ 284281.13, 4158976.58 ], [ 284285.85, 4158984.54 ], [ 284285.99, 4158984.63 ] ] ] } },
{ "type": "Feature", "properties": { "id": "imagery:groundcover_lawn:1548", "name": null, "kind": "groundcover_lawn", "sport": null, "surface": null, "pitch_layout": null, "source": "vgin_vbmp+naip+lidar2025", "source_updated": null, "base_z": null, "top_z": null }, "geometry": { "type": "Polygon", "coordinates": [ [ [ 284352.91, 4158979.98 ], [ 284354.1, 4158972.93 ], [ 284346.7, 4158971.6 ], [ 284346.55, 4158971.73 ], [ 284346.31, 4158971.91 ], [ 284346.06, 4158972.07 ], [ 284345.79, 4158972.2 ], [ 284345.51, 4158972.3 ], [ 284345.22, 4158972.38 ], [ 284344.92, 4158972.42 ], [ 284344.62, 4158972.44 ], [ 284344.32, 4158972.43 ], [ 284344.03, 4158972.39 ], [ 284343.73, 4158972.32 ], [ 284343.45, 4158972.22 ], [ 284343.18, 4158972.09 ], [ 284342.92, 4158971.94 ], [ 284342.68, 4158971.76 ], [ 284342.46, 4158971.57 ], [ 284342.25, 4158971.34 ], [ 284342.07, 4158971.11 ], [ 284341.92, 4158970.85 ], [ 284341.86, 4158970.73 ], [ 284338.12, 4158970.06 ], [ 284334.0, 4158993.77 ], [ 284333.96, 4158993.93 ], [ 284333.92, 4158994.08 ], [ 284333.85, 4158994.23 ], [ 284333.78, 4158994.38 ], [ 284333.69, 4158994.51 ], [ 284330.23, 4158999.35 ], [ 284330.12, 4158999.49 ], [ 284330.0, 4158999.62 ], [ 284329.87, 4158999.73 ], [ 284329.72, 4158999.83 ], [ 284329.57, 4158999.91 ], [ 284329.41, 4158999.99 ], [ 284329.37, 4159000.0 ], [ 284346.47, 4159000.0 ], [ 284350.78, 4158990.59 ], [ 284352.91, 4158979.98 ] ] ] } },
{ "type": "Feature", "properties": { "id": "osm:way/1121057678", "name": null, "kind": "grass", "sport": null, "surface": null, "pitch_layout": null, "source": null, "source_updated": null, "base_z": null, "top_z": null }, "geometry": { "type": "Polygon", "coordinates": [ [ [ 284250.0, 4158980.01 ], [ 284250.0, 4159000.0 ], [ 284266.0, 4159000.0 ], [ 284259.95, 4158987.87 ], [ 284250.0, 4158980.01 ] ] ] } }
]
}
