{
"type": "FeatureCollection",
"name": "crossings",
"crs": { "type": "name", "properties": { "name": "urn:ogc:def:crs:EPSG::32618" } },
"xy_coordinate_resolution": 0.01,
"features": [
{ "type": "Feature", "properties": { "id": "osm:node/10582962729", "crossing": "uncontrolled", "crossing_markings": null, "road_id": "osm:way/6033583", "road_width": 7.0, "road_dx": 0.434805, "road_dy": 0.900524, "road_x": 282762.27, "road_y": 4158515.48, "foot_dx": 0.904578, "foot_dy": -0.426309, "crossing_island": false }, "geometry": { "type": "Point", "coordinates": [ 282762.27, 4158515.48 ] } },
{ "type": "Feature", "properties": { "id": "osm:node/10582962731", "crossing": "marked", "crossing_markings": "yes", "road_id": "osm:way/602212778", "road_width": 7.0, "road_dx": -0.90256, "road_dy": 0.430565, "road_x": 282773.07, "road_y": 4158520.27, "foot_dx": -0.428209, "foot_dy": -0.90368, "crossing_island": false }, "geometry": { "type": "Point", "coordinates": [ 282773.07, 4158520.27 ] } },
{ "type": "Feature", "properties": { "id": "osm:node/10582962734", "crossing": "uncontrolled", "crossing_markings": null, "road_id": "osm:way/602212778", "road_width": 7.0, "road_dx": -0.902126, "road_dy": 0.431473, "road_x": 282760.39, "road_y": 4158526.34, "foot_dx": -0.427372, "foot_dy": -0.904076, "crossing_island": false }, "geometry": { "type": "Point", "coordinates": [ 282760.39, 4158526.34 ] } },
{ "type": "Feature", "properties": { "id": "osm:node/10582962733", "crossing": "uncontrolled", "crossing_markings": null, "road_id": "osm:way/6033583", "road_width": 7.0, "road_dx": 0.424259, "road_dy": 0.905541, "road_x": 282769.48, "road_y": 4158530.65, "foot_dx": 0.906203, "foot_dy": -0.422842, "crossing_island": false }, "geometry": { "type": "Point", "coordinates": [ 282769.48, 4158530.65 ] } },
{ "type": "Feature", "properties": { "id": "osm:node/10582962723", "crossing": "unmarked", "crossing_markings": "no", "road_id": null, "road_width": null, "road_dx": null, "road_dy": null, "road_x": null, "road_y": null, "foot_dx": null, "foot_dy": null, "crossing_island": false }, "geometry": { "type": "Point", "coordinates": [ 282897.07, 4158535.09 ] } },
{ "type": "Feature", "properties": { "id": "osm:node/10962593418", "crossing": "unmarked", "crossing_markings": "no", "road_id": "osm:way/327920848", "road_width": 8.0, "road_dx": -0.886574, "road_dy": 0.462586, "road_x": 282984.86, "road_y": 4158567.48, "foot_dx": 0.029722, "foot_dy": 0.999558, "crossing_island": false }, "geometry": { "type": "Point", "coordinates": [ 282984.86, 4158567.48 ] } },
{ "type": "Feature", "properties": { "id": "osm:node/11210412571", "crossing": "unmarked", "crossing_markings": null, "road_id": null, "road_width": null, "road_dx": null, "road_dy": null, "road_x": null, "road_y": null, "foot_dx": null, "foot_dy": null, "crossing_island": false }, "geometry": { "type": "Point", "coordinates": [ 282800.18, 4158581.83 ] } },
{ "type": "Feature", "properties": { "id": "osm:node/11210412573", "crossing": "unmarked", "crossing_markings": null, "road_id": null, "road_width": null, "road_dx": null, "road_dy": null, "road_x": null, "road_y": null, "foot_dx": null, "foot_dy": null, "crossing_island": false }, "geometry": { "type": "Point", "coordinates": [ 282789.58, 4158586.88 ] } },
{ "type": "Feature", "properties": { "id": "osm:node/10582962717", "crossing": "uncontrolled", "crossing_markings": null, "road_id": "osm:way/6033394", "road_width": 7.0, "road_dx": 0.431283, "road_dy": 0.902217, "road_x": 282928.4, "road_y": 4158587.2, "foot_dx": 0.905075, "foot_dy": -0.425252, "crossing_island": false }, "geometry": { "type": "Point", "coordinates": [ 282928.4, 4158587.2 ] } },
{ "type": "Feature", "properties": { "id": "osm:node/10582962719", "crossing": "uncontrolled", "crossing_markings": null, "road_id": "osm:way/327920848", "road_width": 8.0, "road_dx": -0.886718, "road_dy": 0.462311, "road_x": 282937.63, "road_y": 4158592.1, "foot_dx": -0.426718, "foot_dy": -0.904385, "crossing_island": false }, "geometry": { "type": "Point", "coordinates": [ 282937.63, 4158592.1 ] } },
{ "type": "Feature", "properties": { "id": "osm:node/10582962720", "crossing": "uncontrolled", "crossing_markings": null, "road_id": "osm:way/265143028", "road_width": 8.0, "road_dx": -0.901959, "road_dy": 0.431821, "road_x": 282926.57, "road_y": 4158597.63, "foot_dx": -0.433735, "foot_dy": -0.90104, "crossing_island": false }, "geometry": { "type": "Point", "coordinates": [ 282926.57, 4158597.63 ] } },
{ "type": "Feature", "properties": { "id": "osm:node/10582962715", "crossing": "uncontrolled", "crossing_markings": null, "road_id": "osm:way/265143029", "road_width": 7.0, "road_dx": 0.426792, "road_dy": 0.90435, "road_x": 282935.58, "road_y": 4158602.32, "foot_dx": 0.896452, "foot_dy": -0.443141, "crossing_island": false }, "geometry": { "type": "Point", "coordinates": [ 282935.58, 4158602.32 ] } },
{ "type": "Feature", "properties": { "id": "osm:node/10289983985", "crossing": "unmarked", "crossing_markings": "no", "road_id": null, "road_width": null, "road_dx": null, "road_dy": null, "road_x": null, "road_y": null, "foot_dx": null, "foot_dy": null, "crossing_island": false }, "geometry": { "type": "Point", "coordinates": [ 282986.59, 4158624.74 ] } },
{ "type": "Feature", "properties": { "id": "osm:node/10289983991", "crossing": "unmarked", "crossing_markings": "no", "road_id": null, "road_width": null, "road_dx": null, "road_dy": null, "road_x": null, "road_y": null, "foot_dx": null, "foot_dy": null, "crossing_island": false }, "geometry": { "type": "Point", "coordinates": [ 282958.54, 4158637.32 ] } },
{ "type": "Feature", "properties": { "id": "osm:node/10582985787", "crossing": "uncontrolled", "crossing_markings": null, "road_id": "osm:way/6033583", "road_width": 7.0, "road_dx": 0.436767, "road_dy": 0.899575, "road_x": 282820.76, "road_y": 4158638.1, "foot_dx": 0.900011, "foot_dy": -0.435868, "crossing_island": false }, "geometry": { "type": "Point", "coordinates": [ 282820.76, 4158638.1 ] } },
{ "type": "Feature", "properties": { "id": "osm:node/10582985788", "crossing": "uncontrolled", "crossing_markings": null, "road_id": "osm:way/265143028", "road_width": 8.0, "road_dx": -0.902175, "road_dy": 0.43137, "road_x": 282830.08, "road_y": 4158643.77, "foot_dx": -0.416194, "foot_dy": -0.909276, "crossing_island": false }, "geometry": { "type": "Point", "coordinates": [ 282829.85, 4158643.88 ] } },
{ "type": "Feature", "properties": { "id": "osm:node/10289983978", "crossing": "unmarked", "crossing_markings": "no", "road_id": null, "road_width": null, "road_dx": null, "road_dy": null, "road_x": null, "road_y": null, "foot_dx": null, "foot_dy": null, "crossing_island": false }, "geometry": { "type": "Point", "coordinates": [ 282950.94, 4158649.21 ] } },
{ "type": "Feature", "properties": { "id": "osm:node/10582985789", "crossing": "uncontrolled", "crossing_markings": null, "road_id": "osm:way/265143028", "road_width": 8.0, "road_dx": -0.900986, "road_dy": 0.433848, "road_x": 282817.81, "road_y": 4158649.67, "foot_dx": -0.452187, "foot_dy": -0.891923, "crossing_island": false }, "geometry": { "type": "Point", "coordinates": [ 282817.81, 4158649.67 ] } },
{ "type": "Feature", "properties": { "id": "osm:node/10289983996", "crossing": "unmarked", "crossing_markings": "no", "road_id": "osm:way/6033583", "road_width": 7.0, "road_dx": 0.423531, "road_dy": 0.905882, "road_x": 282828.36, "road_y": 4158654.04, "foot_dx": -0.898225, "foot_dy": 0.439537, "crossing_island": false }, "geometry": { "type": "Point", "coordinates": [ 282828.36, 4158654.04 ] } },
{ "type": "Feature", "properties": { "id": "osm:node/10289983976", "crossing": "marked", "crossing_markings": "yes", "road_id": "osm:way/265143029", "road_width": 7.0, "road_dx": 0.431613, "road_dy": 0.902059, "road_x": 282968.75, "road_y": 4158672.54, "foot_dx": 0.907035, "foot_dy": -0.421055, "crossing_island": false }, "geometry": { "type": "Point", "coordinates": [ 282969.17, 4158673.43 ] } },
{ "type": "Feature", "properties": { "id": "osm:node/10289983975", "crossing": "marked", "crossing_markings": "yes", "road_id": "osm:way/265141457", "road_width": 7.0, "road_dx": -0.886707, "road_dy": 0.462331, "road_x": 282976.43, "road_y": 4158675.17, "foot_dx": 0.418042, "foot_dy": 0.908428, "crossing_island": false }, "geometry": { "type": "Point", "coordinates": [ 282975.52, 4158675.65 ] } },
{ "type": "Feature", "properties": { "id": "osm:node/10289983973", "crossing": "marked", "crossing_markings": "yes", "road_id": "osm:way/265141457", "road_width": 7.0, "road_dx": -0.902574, "road_dy": 0.430536, "road_x": 282966.13, "road_y": 4158680.17, "foot_dx": 0.514174, "foot_dy": 0.857686, "crossing_island": false }, "geometry": { "type": "Point", "coordinates": [ 282966.48, 4158679.96 ] } },
{ "type": "Feature", "properties": { "id": "osm:node/10582985777", "crossing": "unmarked", "crossing_markings": "no", "road_id": null, "road_width": null, "road_dx": null, "road_dy": null, "road_x": null, "road_y": null, "foot_dx": null, "foot_dy": null, "crossing_island": false }, "geometry": { "type": "Point", "coordinates": [ 282847.54, 4158710.52 ] } },
{ "type": "Feature", "properties": { "id": "osm:node/10289984003", "crossing": "unmarked", "crossing_markings": "no", "road_id": "osm:way/711891259", "road_width": 7.0, "road_dx": -0.768602, "road_dy": -0.639728, "road_x": 282908.99, "road_y": 4158740.91, "foot_dx": -0.646294, "foot_dy": 0.763089, "crossing_island": false }, "geometry": { "type": "Point", "coordinates": [ 282908.99, 4158740.91 ] } },
{ "type": "Feature", "properties": { "id": "osm:node/10290001532", "crossing": "unmarked", "crossing_markings": "no", "road_id": "osm:way/265141459", "road_width": 7.0, "road_dx": 0.022194, "road_dy": 0.999754, "road_x": 282990.57, "road_y": 4158557.46, "foot_dx": -0.914188, "foot_dy": 0.40529, "crossing_island": false }, "geometry": { "type": "Point", "coordinates": [ 282990.57, 4158557.46 ] } },
{ "type": "Feature", "properties": { "id": "osm:node/10962593417", "crossing": "unmarked", "crossing_markings": "no", "road_id": "osm:way/823415273", "road_width": 8.0, "road_dx": -0.998242, "road_dy": 0.059271, "road_x": 282997.13, "road_y": 4158564.04, "foot_dx": -0.077534, "foot_dy": -0.99699, "crossing_island": false }, "geometry": { "type": "Point", "coordinates": [ 282997.13, 4158564.04 ] } },
{ "type": "Feature", "properties": { "id": "osm:node/10289983988", "crossing": "unmarked", "crossing_markings": "no", "road_id": "osm:way/265141459", "road_width": 7.0, "road_dx": 0.032653, "road_dy": 0.999467, "road_x": 282991.08, "road_y": 4158575.26, "foot_dx": 0.873351, "foot_dy": -0.487092, "crossing_island": false }, "geometry": { "type": "Point", "coordinates": [ 282991.08, 4158575.26 ] } },
{ "type": "Feature", "properties": { "id": "osm:node/10290001519", "crossing": "unmarked", "crossing_markings": "no", "road_id": null, "road_width": null, "road_dx": null, "road_dy": null, "road_x": null, "road_y": null, "foot_dx": null, "foot_dy": null, "crossing_island": false }, "geometry": { "type": "Point", "coordinates": [ 282998.34, 4158614.3 ] } }
]
}
