{
"type": "FeatureCollection",
"name": "wires",
"crs": { "type": "name", "properties": { "name": "urn:ogc:def:crs:EPSG::32618" } },
"xy_coordinate_resolution": 0.01,
"features": [
{ "type": "Feature", "properties": { "id": "wire:27059-27061", "h0": 8.84, "h1": 8.84, "z0": 62.4, "z1": 62.33 }, "geometry": { "type": "LineString", "coordinates": [ [ 282764.03, 4158535.76 ], [ 282776.58, 4158525.68 ] ] } },
{ "type": "Feature", "properties": { "id": "wire:27087-27088", "h0": 10.0, "h1": 10.0, "z0": 61.95, "z1": 61.84 }, "geometry": { "type": "LineString", "coordinates": [ [ 282894.25, 4158506.99 ], [ 282879.04, 4158497.16 ] ] } },
{ "type": "Feature", "properties": { "id": "wire:27045-27047", "h0": 10.0, "h1": 10.0, "z0": 62.1, "z1": 62.24 }, "geometry": { "type": "LineString", "coordinates": [ [ 282804.19, 4158498.27 ], [ 282806.58, 4158512.19 ] ] } },
{ "type": "Feature", "properties": { "id": "wire:27048-27083", "h0": 10.0, "h1": 10.0, "z0": 61.9, "z1": 62.51 }, "geometry": { "type": "LineString", "coordinates": [ [ 282834.53, 4158497.48 ], [ 282847.35, 4158523.41 ] ] } },
{ "type": "Feature", "properties": { "id": "wire:27084-27087", "h0": 10.0, "h1": 10.0, "z0": 62.14, "z1": 61.95 }, "geometry": { "type": "LineString", "coordinates": [ [ 282898.33, 4158538.17 ], [ 282894.25, 4158506.99 ] ] } },
{ "type": "Feature", "properties": { "id": "wire:27084-27085", "h0": 10.0, "h1": 10.0, "z0": 62.14, "z1": 62.33 }, "geometry": { "type": "LineString", "coordinates": [ [ 282898.33, 4158538.17 ], [ 282918.42, 4158556.81 ] ] } },
{ "type": "Feature", "properties": { "id": "wire:27080-27082", "h0": 10.0, "h1": 10.0, "z0": 62.87, "z1": 63.12 }, "geometry": { "type": "LineString", "coordinates": [ [ 282855.75, 4158551.86 ], [ 282864.71, 4158553.86 ] ] } },
{ "type": "Feature", "properties": { "id": "wire:27079-27080", "h0": 10.0, "h1": 10.0, "z0": 63.24, "z1": 62.87 }, "geometry": { "type": "LineString", "coordinates": [ [ 282842.68, 4158564.49 ], [ 282855.75, 4158551.86 ] ] } },
{ "type": "Feature", "properties": { "id": "wire:27085-27086", "h0": 10.0, "h1": 10.0, "z0": 62.33, "z1": 62.48 }, "geometry": { "type": "LineString", "coordinates": [ [ 282918.42, 4158556.81 ], [ 282918.99, 4158580.42 ] ] } },
{ "type": "Feature", "properties": { "id": "wire:27078-27079", "h0": 10.0, "h1": 10.0, "z0": 63.22, "z1": 63.24 }, "geometry": { "type": "LineString", "coordinates": [ [ 282824.75, 4158573.14 ], [ 282842.68, 4158564.49 ] ] } },
{ "type": "Feature", "properties": { "id": "wire:26990-27091", "h0": 13.11, "h1": 10.0, "z0": 61.98, "z1": 62.18 }, "geometry": { "type": "LineString", "coordinates": [ [ 282985.74, 4158579.09 ], [ 282962.63, 4158572.5 ] ] } },
{ "type": "Feature", "properties": { "id": "wire:27056-27064", "h0": 10.0, "h1": 10.0, "z0": 62.59, "z1": 62.76 }, "geometry": { "type": "LineString", "coordinates": [ [ 282776.85, 4158561.68 ], [ 282789.44, 4158563.55 ] ] } },
{ "type": "Feature", "properties": { "id": "wire:27089-27090", "h0": 10.0, "h1": 6.25, "z0": 62.93, "z1": 62.93 }, "geometry": { "type": "LineString", "coordinates": [ [ 282805.44, 4158597.17 ], [ 282800.64, 4158606.05 ] ] } },
{ "type": "Feature", "properties": { "id": "wire:27073-27074", "h0": 10.0, "h1": 10.0, "z0": 61.98, "z1": 61.92 }, "geometry": { "type": "LineString", "coordinates": [ [ 282758.41, 4158598.71 ], [ 282753.09, 4158607.63 ] ] } },
{ "type": "Feature", "properties": { "id": "wire:26990-27015", "h0": 13.11, "h1": 10.0, "z0": 61.98, "z1": 61.99 }, "geometry": { "type": "LineString", "coordinates": [ [ 282985.74, 4158579.09 ], [ 282998.42, 4158574.1 ] ] } },
{ "type": "Feature", "properties": { "id": "wire:27031-27086", "h0": 11.73, "h1": 10.0, "z0": 62.56, "z1": 62.48 }, "geometry": { "type": "LineString", "coordinates": [ [ 282921.39, 4158594.76 ], [ 282918.99, 4158580.42 ] ] } },
{ "type": "Feature", "properties": { "id": "wire:27029-27030", "h0": 6.25, "h1": 10.0, "z0": 62.52, "z1": 62.5 }, "geometry": { "type": "LineString", "coordinates": [ [ 282939.71, 4158598.94 ], [ 282930.5, 4158607.65 ] ] } },
{ "type": "Feature", "properties": { "id": "wire:27032-27033", "h0": 10.0, "h1": 10.0, "z0": 62.77, "z1": 62.94 }, "geometry": { "type": "LineString", "coordinates": [ [ 282896.4, 4158619.13 ], [ 282870.74, 4158618.11 ] ] } },
{ "type": "Feature", "properties": { "id": "wire:26991-26993", "h0": 8.84, "h1": 14.48, "z0": 61.64, "z1": 61.65 }, "geometry": { "type": "LineString", "coordinates": [ [ 282996.66, 4158611.52 ], [ 282987.02, 4158628.2 ] ] } },
{ "type": "Feature", "properties": { "id": "wire:27033-27034", "h0": 10.0, "h1": 10.0, "z0": 62.94, "z1": 63.04 }, "geometry": { "type": "LineString", "coordinates": [ [ 282870.74, 4158618.11 ], [ 282856.77, 4158625.67 ] ] } },
{ "type": "Feature", "properties": { "id": "wire:27026-27028", "h0": 10.0, "h1": 10.0, "z0": 61.97, "z1": 62.32 }, "geometry": { "type": "LineString", "coordinates": [ [ 282947.55, 4158640.67 ], [ 282947.21, 4158617.39 ] ] } },
{ "type": "Feature", "properties": { "id": "wire:27035-27036", "h0": 10.0, "h1": 10.0, "z0": 63.22, "z1": 63.21 }, "geometry": { "type": "LineString", "coordinates": [ [ 282825.48, 4158638.44 ], [ 282832.43, 4158649.19 ] ] } },
{ "type": "Feature", "properties": { "id": "wire:27020-27026", "h0": 13.11, "h1": 10.0, "z0": 61.82, "z1": 61.97 }, "geometry": { "type": "LineString", "coordinates": [ [ 282953.96, 4158653.63 ], [ 282947.55, 4158640.67 ] ] } },
{ "type": "Feature", "properties": { "id": "wire:26992-27036", "h0": 10.0, "h1": 10.0, "z0": 63.02, "z1": 63.21 }, "geometry": { "type": "LineString", "coordinates": [ [ 282828.15, 4158666.24 ], [ 282832.43, 4158649.19 ] ] } },
{ "type": "Feature", "properties": { "id": "wire:27037-27038", "h0": 6.25, "h1": 6.25, "z0": 63.14, "z1": 63.35 }, "geometry": { "type": "LineString", "coordinates": [ [ 282814.11, 4158645.01 ], [ 282786.51, 4158673.26 ] ] } },
{ "type": "Feature", "properties": { "id": "wire:27014-27016", "h0": 10.0, "h1": 10.0, "z0": 63.15, "z1": 62.71 }, "geometry": { "type": "LineString", "coordinates": [ [ 282904.61, 4158675.26 ], [ 282922.67, 4158666.07 ] ] } },
{ "type": "Feature", "properties": { "id": "wire:26988-26989", "h0": 10.0, "h1": 6.25, "z0": 62.78, "z1": 62.99 }, "geometry": { "type": "LineString", "coordinates": [ [ 282843.18, 4158699.31 ], [ 282846.13, 4158682.42 ] ] } },
{ "type": "Feature", "properties": { "id": "wire:26988-26996", "h0": 10.0, "h1": 13.11, "z0": 62.78, "z1": 62.83 }, "geometry": { "type": "LineString", "coordinates": [ [ 282843.18, 4158699.31 ], [ 282843.08, 4158709.5 ] ] } },
{ "type": "Feature", "properties": { "id": "wire:26996-27000", "h0": 13.11, "h1": 10.0, "z0": 62.83, "z1": 63.52 }, "geometry": { "type": "LineString", "coordinates": [ [ 282843.08, 4158709.5 ], [ 282823.88, 4158724.97 ] ] } },
{ "type": "Feature", "properties": { "id": "wire:27000-27001", "h0": 10.0, "h1": 13.11, "z0": 63.52, "z1": 63.86 }, "geometry": { "type": "LineString", "coordinates": [ [ 282823.88, 4158724.97 ], [ 282809.68, 4158725.42 ] ] } },
{ "type": "Feature", "properties": { "id": "wire:26985-26986", "h0": 10.0, "h1": 6.25, "z0": 62.59, "z1": 62.55 }, "geometry": { "type": "LineString", "coordinates": [ [ 282860.33, 4158736.14 ], [ 282867.32, 4158727.28 ] ] } },
{ "type": "Feature", "properties": { "id": "wire:27039-27040", "h0": 10.0, "h1": 6.25, "z0": 63.47, "z1": 63.42 }, "geometry": { "type": "LineString", "coordinates": [ [ 282755.87, 4158688.04 ], [ 282746.15, 4158677.28 ] ] } },
{ "type": "Feature", "properties": { "id": "wire:27001-27003", "h0": 13.11, "h1": 11.73, "z0": 63.86, "z1": 64.33 }, "geometry": { "type": "LineString", "coordinates": [ [ 282809.68, 4158725.42 ], [ 282781.51, 4158738.86 ] ] } },
{ "type": "Feature", "properties": { "id": "wire:27003-27010", "h0": 11.73, "h1": 13.11, "z0": 64.33, "z1": 64.07 }, "geometry": { "type": "LineString", "coordinates": [ [ 282781.51, 4158738.86 ], [ 282754.36, 4158751.81 ] ] } }
]
}
