{
"type": "FeatureCollection",
"name": "crossings",
"crs": { "type": "name", "properties": { "name": "urn:ogc:def:crs:EPSG::32618" } },
"xy_coordinate_resolution": 0.01,
"features": [
{ "type": "Feature", "properties": { "id": "osm:node/12045064800", "crossing": "unmarked", "crossing_markings": "no", "road_id": null, "road_width": null, "road_dx": null, "road_dy": null, "road_x": null, "road_y": null, "crossing_island": false }, "geometry": { "type": "Point", "coordinates": [ 285881.58, 4156252.3 ] } },
{ "type": "Feature", "properties": { "id": "osm:node/12045064789", "crossing": "unmarked", "crossing_markings": "no", "road_id": null, "road_width": null, "road_dx": null, "road_dy": null, "road_x": null, "road_y": null, "crossing_island": false }, "geometry": { "type": "Point", "coordinates": [ 285878.5, 4156254.91 ] } },
{ "type": "Feature", "properties": { "id": "osm:node/12045064774", "crossing": "uncontrolled", "crossing_markings": "lines", "road_id": null, "road_width": null, "road_dx": null, "road_dy": null, "road_x": null, "road_y": null, "crossing_island": false }, "geometry": { "type": "Point", "coordinates": [ 285890.8, 4156284.44 ] } },
{ "type": "Feature", "properties": { "id": "osm:node/12045064805", "crossing": "uncontrolled", "crossing_markings": "lines", "road_id": "osm:way/343040025", "road_width": 7.0, "road_dx": 0.77944, "road_dy": -0.626476, "road_x": 285899.71, "road_y": 4156285.35, "crossing_island": false }, "geometry": { "type": "Point", "coordinates": [ 285899.71, 4156285.35 ] } },
{ "type": "Feature", "properties": { "id": "osm:node/12045064784", "crossing": "uncontrolled", "crossing_markings": "lines", "road_id": "osm:way/343040025", "road_width": 7.0, "road_dx": 0.78001, "road_dy": -0.625767, "road_x": 285891.02, "road_y": 4156292.33, "crossing_island": false }, "geometry": { "type": "Point", "coordinates": [ 285891.02, 4156292.33 ] } },
{ "type": "Feature", "properties": { "id": "osm:node/12042926198", "crossing": "uncontrolled", "crossing_markings": "lines", "road_id": "osm:way/6037685", "road_width": 7.0, "road_dx": 0.613056, "road_dy": 0.790039, "road_x": 285898.0, "road_y": 4156292.97, "crossing_island": false }, "geometry": { "type": "Point", "coordinates": [ 285898.0, 4156292.97 ] } },
{ "type": "Feature", "properties": { "id": "osm:node/12070998170", "crossing": "uncontrolled", "crossing_markings": "lines", "road_id": "osm:way/1303399661", "road_width": 7.0, "road_dx": 0.779623, "road_dy": -0.626249, "road_x": 285857.23, "road_y": 4156319.43, "crossing_island": false }, "geometry": { "type": "Point", "coordinates": [ 285857.23, 4156319.43 ] } },
{ "type": "Feature", "properties": { "id": "osm:node/12045064783", "crossing": "unmarked", "crossing_markings": "no", "road_id": "osm:way/6039254", "road_width": 7.0, "road_dx": -0.62927, "road_dy": -0.777187, "road_x": 285815.51, "road_y": 4156352.85, "crossing_island": false }, "geometry": { "type": "Point", "coordinates": [ 285812.64, 4156348.2 ] } },
{ "type": "Feature", "properties": { "id": "osm:node/12042926193", "crossing": "unmarked", "crossing_markings": "no", "road_id": null, "road_width": null, "road_dx": null, "road_dy": null, "road_x": null, "road_y": null, "crossing_island": false }, "geometry": { "type": "Point", "coordinates": [ 285932.75, 4156348.9 ] } },
{ "type": "Feature", "properties": { "id": "osm:node/12042924341", "crossing": "uncontrolled", "crossing_markings": "surface", "road_id": "osm:way/6037685", "road_width": 7.0, "road_dx": 0.628846, "road_dy": 0.77753, "road_x": 285964.63, "road_y": 4156375.34, "crossing_island": false }, "geometry": { "type": "Point", "coordinates": [ 285964.63, 4156375.34 ] } },
{ "type": "Feature", "properties": { "id": "osm:node/12070974450", "crossing": "uncontrolled", "crossing_markings": "lines", "road_id": "osm:way/1303399649", "road_width": 7.0, "road_dx": 0.784058, "road_dy": -0.620688, "road_x": 285820.08, "road_y": 4156349.23, "crossing_island": false }, "geometry": { "type": "Point", "coordinates": [ 285820.08, 4156349.23 ] } },
{ "type": "Feature", "properties": { "id": "osm:node/12045064782", "crossing": "unmarked", "crossing_markings": "no", "road_id": "osm:way/1303399649", "road_width": 7.0, "road_dx": 0.782675, "road_dy": -0.62243, "road_x": 285814.56, "road_y": 4156353.6, "crossing_island": false }, "geometry": { "type": "Point", "coordinates": [ 285811.17, 4156349.35 ] } },
{ "type": "Feature", "properties": { "id": "osm:node/12070974452", "crossing": "uncontrolled", "crossing_markings": "lines", "road_id": "osm:way/1303399649", "road_width": 7.0, "road_dx": 0.783578, "road_dy": -0.621293, "road_x": 285812.02, "road_y": 4156355.62, "crossing_island": false }, "geometry": { "type": "Point", "coordinates": [ 285812.02, 4156355.62 ] } },
{ "type": "Feature", "properties": { "id": "osm:node/12070974451", "crossing": "uncontrolled", "crossing_markings": "lines", "road_id": "osm:way/6039254", "road_width": 7.0, "road_dx": -0.628944, "road_dy": -0.77745, "road_x": 285817.96, "road_y": 4156355.88, "crossing_island": false }, "geometry": { "type": "Point", "coordinates": [ 285817.96, 4156355.88 ] } },
{ "type": "Feature", "properties": { "id": "osm:node/12070974462", "crossing": "unmarked", "crossing_markings": "no", "road_id": "osm:way/1303399648", "road_width": 7.0, "road_dx": 0.781397, "road_dy": -0.624034, "road_x": 285771.16, "road_y": 4156388.26, "crossing_island": false }, "geometry": { "type": "Point", "coordinates": [ 285771.16, 4156388.26 ] } },
{ "type": "Feature", "properties": { "id": "osm:node/12042926195", "crossing": "unmarked", "crossing_markings": "no", "road_id": null, "road_width": null, "road_dx": null, "road_dy": null, "road_x": null, "road_y": null, "crossing_island": false }, "geometry": { "type": "Point", "coordinates": [ 285866.29, 4156402.23 ] } },
{ "type": "Feature", "properties": { "id": "osm:node/12042924344", "crossing": "uncontrolled", "crossing_markings": "lines", "road_id": "osm:way/692873477", "road_width": 13.2, "road_dx": -0.780126, "road_dy": 0.625622, "road_x": 285975.73, "road_y": 4156376.75, "crossing_island": false }, "geometry": { "type": "Point", "coordinates": [ 285975.73, 4156376.75 ] } },
{ "type": "Feature", "properties": { "id": "osm:node/12042924342", "crossing": "uncontrolled", "crossing_markings": "lines", "road_id": "osm:way/692873477", "road_width": 13.2, "road_dx": -0.780389, "road_dy": 0.625295, "road_x": 285965.28, "road_y": 4156385.13, "crossing_island": false }, "geometry": { "type": "Point", "coordinates": [ 285965.28, 4156385.13 ] } },
{ "type": "Feature", "properties": { "id": "osm:node/12042924346", "crossing": "uncontrolled", "crossing_markings": "surface", "road_id": null, "road_width": null, "road_dx": null, "road_dy": null, "road_x": null, "road_y": null, "crossing_island": false }, "geometry": { "type": "Point", "coordinates": [ 285975.14, 4156388.32 ] } },
{ "type": "Feature", "properties": { "id": "osm:node/12042924308", "crossing": "unmarked", "crossing_markings": "no", "road_id": null, "road_width": null, "road_dx": null, "road_dy": null, "road_x": null, "road_y": null, "crossing_island": false }, "geometry": { "type": "Point", "coordinates": [ 285999.19, 4156427.17 ] } },
{ "type": "Feature", "properties": { "id": "osm:node/12042926183", "crossing": "unmarked", "crossing_markings": "no", "road_id": null, "road_width": null, "road_dx": null, "road_dy": null, "road_x": null, "road_y": null, "crossing_island": false }, "geometry": { "type": "Point", "coordinates": [ 285855.44, 4156414.14 ] } },
{ "type": "Feature", "properties": { "id": "osm:node/12042926213", "crossing": "uncontrolled", "crossing_markings": "lines", "road_id": "osm:way/6039254", "road_width": 7.0, "road_dx": -0.628238, "road_dy": -0.778021, "road_x": 285885.27, "road_y": 4156439.07, "crossing_island": false }, "geometry": { "type": "Point", "coordinates": [ 285885.27, 4156439.07 ] } },
{ "type": "Feature", "properties": { "id": "osm:node/12042926191", "crossing": "unmarked", "crossing_markings": "no", "road_id": "osm:way/692873476", "road_width": 7.0, "road_dx": 0.628704, "road_dy": 0.777645, "road_x": 285895.96, "road_y": 4156452.3, "crossing_island": false }, "geometry": { "type": "Point", "coordinates": [ 285895.96, 4156452.3 ] } },
{ "type": "Feature", "properties": { "id": "osm:node/12070974425", "crossing": "unmarked", "crossing_markings": "no", "road_id": null, "road_width": null, "road_dx": null, "road_dy": null, "road_x": null, "road_y": null, "crossing_island": false }, "geometry": { "type": "Point", "coordinates": [ 285781.74, 4156458.48 ] } },
{ "type": "Feature", "properties": { "id": "osm:node/11585333242", "crossing": "unmarked", "crossing_markings": "no", "road_id": null, "road_width": null, "road_dx": null, "road_dy": null, "road_x": null, "road_y": null, "crossing_island": false }, "geometry": { "type": "Point", "coordinates": [ 285927.2, 4156476.72 ] } },
{ "type": "Feature", "properties": { "id": "osm:node/11585333239", "crossing": "unmarked", "crossing_markings": "no", "road_id": null, "road_width": null, "road_dx": null, "road_dy": null, "road_x": null, "road_y": null, "crossing_island": false }, "geometry": { "type": "Point", "coordinates": [ 285935.46, 4156486.59 ] } },
{ "type": "Feature", "properties": { "id": "osm:node/12042926189", "crossing": "unmarked", "crossing_markings": "no", "road_id": "osm:way/47968408", "road_width": 13.2, "road_dx": -0.778109, "road_dy": 0.628129, "road_x": 285844.33, "road_y": 4156482.56, "crossing_island": false }, "geometry": { "type": "Point", "coordinates": [ 285849.67, 4156489.17 ] } }
]
}
