{
"type": "FeatureCollection",
"name": "pois",
"crs": { "type": "name", "properties": { "name": "urn:ogc:def:crs:EPSG::32618" } },
"xy_coordinate_resolution": 0.01,
"features": [
{ "type": "Feature", "properties": { "id": "lidar-tree:284966:4160252", "name": null, "kind": "tree", "species": null, "source": "lidar2025", "tree_height": 11.3, "crown_radius": 3.4, "height_source": "lidar2025" }, "geometry": { "type": "Point", "coordinates": [ 284966.5, 4160251.5 ] } },
{ "type": "Feature", "properties": { "id": "lidar-tree:284938:4160254", "name": null, "kind": "tree", "species": null, "source": "lidar2025", "tree_height": 5.0, "crown_radius": 2.6, "height_source": "lidar2025" }, "geometry": { "type": "Point", "coordinates": [ 284938.5, 4160254.5 ] } },
{ "type": "Feature", "properties": { "id": "lidar-tree:284954:4160258", "name": null, "kind": "tree", "species": null, "source": "lidar2025", "tree_height": 4.9, "crown_radius": 2.7, "height_source": "lidar2025" }, "geometry": { "type": "Point", "coordinates": [ 284954.5, 4160257.5 ] } },
{ "type": "Feature", "properties": { "id": "rva-tree:94548", "name": "Crataegus viridis", "kind": "tree", "species": "Crataegus viridis", "source": "city_inventory", "tree_height": 8.0, "crown_radius": 2.5, "height_source": "estimated" }, "geometry": { "type": "Point", "coordinates": [ 284812.57, 4160254.55 ] } },
{ "type": "Feature", "properties": { "id": "rva-tree:94392", "name": "Crataegus viridis", "kind": "tree", "species": "Crataegus viridis", "source": "city_inventory", "tree_height": 8.0, "crown_radius": 2.5, "height_source": "estimated" }, "geometry": { "type": "Point", "coordinates": [ 284803.22, 4160255.62 ] } },
{ "type": "Feature", "properties": { "id": "lidar-tree:284776:4160258", "name": null, "kind": "tree", "species": null, "source": "lidar2025", "tree_height": 8.8, "crown_radius": 5.2, "height_source": "lidar2025" }, "geometry": { "type": "Point", "coordinates": [ 284775.5, 4160258.5 ] } },
{ "type": "Feature", "properties": { "id": "rva-tree:92294", "name": "Crataegus viridis", "kind": "tree", "species": "Crataegus viridis", "source": "city_inventory", "tree_height": 8.0, "crown_radius": 2.5, "height_source": "estimated" }, "geometry": { "type": "Point", "coordinates": [ 284796.34, 4160258.52 ] } },
{ "type": "Feature", "properties": { "id": "rva-tree:94606", "name": "Ginkgo biloba", "kind": "tree", "species": "Ginkgo biloba", "source": "city_inventory", "tree_height": 5.2, "crown_radius": 1.8, "height_source": "lidar2025" }, "geometry": { "type": "Point", "coordinates": [ 284854.18, 4160259.5 ] } },
{ "type": "Feature", "properties": { "id": "rva-tree:92289", "name": "Crataegus viridis", "kind": "tree", "species": "Crataegus viridis", "source": "city_inventory", "tree_height": 8.0, "crown_radius": 2.5, "height_source": "estimated" }, "geometry": { "type": "Point", "coordinates": [ 284787.99, 4160260.76 ] } },
{ "type": "Feature", "properties": { "id": "rva-tree:76644", "name": "Quercus coccinea", "kind": "tree", "species": "Quercus coccinea", "source": "city_inventory", "tree_height": 8.0, "crown_radius": 2.5, "height_source": "estimated" }, "geometry": { "type": "Point", "coordinates": [ 284845.31, 4160260.8 ] } },
{ "type": "Feature", "properties": { "id": "rva-tree:92031", "name": "Prunus serotina", "kind": "tree", "species": "Prunus serotina", "source": "city_inventory", "tree_height": 8.0, "crown_radius": 2.5, "height_source": "estimated" }, "geometry": { "type": "Point", "coordinates": [ 284786.11, 4160261.8 ] } },
{ "type": "Feature", "properties": { "id": "rva-tree:76645", "name": "Quercus coccinea", "kind": "tree", "species": "Quercus coccinea", "source": "city_inventory", "tree_height": 8.0, "crown_radius": 2.5, "height_source": "estimated" }, "geometry": { "type": "Point", "coordinates": [ 284835.24, 4160261.89 ] } },
{ "type": "Feature", "properties": { "id": "rva-tree:91667", "name": "Prunus serotina", "kind": "tree", "species": "Prunus serotina", "source": "city_inventory", "tree_height": 16.1, "crown_radius": 4.9, "height_source": "lidar2025" }, "geometry": { "type": "Point", "coordinates": [ 284772.15, 4160268.58 ] } },
{ "type": "Feature", "properties": { "id": "rva-tree:94556", "name": "Ulmus alata", "kind": "tree", "species": "Ulmus alata", "source": "city_inventory", "tree_height": 16.1, "crown_radius": 4.9, "height_source": "lidar2025" }, "geometry": { "type": "Point", "coordinates": [ 284770.48, 4160268.88 ] } },
{ "type": "Feature", "properties": { "id": "rva-tree:94575", "name": "Quercus palustris", "kind": "tree", "species": "Quercus palustris", "source": "city_inventory", "tree_height": 16.1, "crown_radius": 4.9, "height_source": "lidar2025" }, "geometry": { "type": "Point", "coordinates": [ 284769.04, 4160269.17 ] } },
{ "type": "Feature", "properties": { "id": "rva-tree:83287", "name": "Liquidambar styraciflua", "kind": "tree", "species": "Liquidambar styraciflua", "source": "city_inventory", "tree_height": 24.4, "crown_radius": 6.0, "height_source": "lidar2025" }, "geometry": { "type": "Point", "coordinates": [ 284756.81, 4160287.78 ] } },
{ "type": "Feature", "properties": { "id": "rva-tree:83672", "name": "Liquidambar styraciflua", "kind": "tree", "species": "Liquidambar styraciflua", "source": "city_inventory", "tree_height": 24.4, "crown_radius": 6.0, "height_source": "lidar2025" }, "geometry": { "type": "Point", "coordinates": [ 284755.73, 4160289.26 ] } },
{ "type": "Feature", "properties": { "id": "rva-tree:94638", "name": "Ailanthus altissima", "kind": "tree", "species": "Ailanthus altissima", "source": "city_inventory", "tree_height": 8.0, "crown_radius": 2.5, "height_source": "estimated" }, "geometry": { "type": "Point", "coordinates": [ 284784.24, 4160263.31 ] } },
{ "type": "Feature", "properties": { "id": "rva-tree:94607", "name": "Ginkgo biloba", "kind": "tree", "species": "Ginkgo biloba", "source": "city_inventory", "tree_height": 6.8, "crown_radius": 2.1, "height_source": "lidar2025" }, "geometry": { "type": "Point", "coordinates": [ 284811.01, 4160264.48 ] } },
{ "type": "Feature", "properties": { "id": "lidar-tree:284824:4160268", "name": null, "kind": "tree", "species": null, "source": "lidar2025", "tree_height": 5.5, "crown_radius": 2.6, "height_source": "lidar2025" }, "geometry": { "type": "Point", "coordinates": [ 284823.5, 4160268.5 ] } },
{ "type": "Feature", "properties": { "id": "rva-tree:92288", "name": "Quercus coccinea", "kind": "tree", "species": "Quercus coccinea", "source": "city_inventory", "tree_height": 8.0, "crown_radius": 2.5, "height_source": "estimated" }, "geometry": { "type": "Point", "coordinates": [ 284789.86, 4160272.01 ] } },
{ "type": "Feature", "properties": { "id": "rva-tree:76693", "name": "Quercus coccinea", "kind": "tree", "species": "Quercus coccinea", "source": "city_inventory", "tree_height": 8.0, "crown_radius": 2.5, "height_source": "estimated" }, "geometry": { "type": "Point", "coordinates": [ 284780.6, 4160275.49 ] } },
{ "type": "Feature", "properties": { "id": "lidar-tree:284814:4160278", "name": null, "kind": "tree", "species": null, "source": "lidar2025", "tree_height": 9.6, "crown_radius": 4.1, "height_source": "lidar2025" }, "geometry": { "type": "Point", "coordinates": [ 284814.5, 4160277.5 ] } },
{ "type": "Feature", "properties": { "id": "lidar-tree:284786:4160282", "name": null, "kind": "tree", "species": null, "source": "lidar2025", "tree_height": 6.1, "crown_radius": 4.9, "height_source": "lidar2025" }, "geometry": { "type": "Point", "coordinates": [ 284785.5, 4160281.5 ] } },
{ "type": "Feature", "properties": { "id": "lidar-tree:284830:4160288", "name": null, "kind": "tree", "species": null, "source": "lidar2025", "tree_height": 16.1, "crown_radius": 6.0, "height_source": "lidar2025" }, "geometry": { "type": "Point", "coordinates": [ 284829.5, 4160288.5 ] } },
{ "type": "Feature", "properties": { "id": "lidar-tree:284844:4160290", "name": null, "kind": "tree", "species": null, "source": "lidar2025", "tree_height": 12.1, "crown_radius": 4.3, "height_source": "lidar2025" }, "geometry": { "type": "Point", "coordinates": [ 284843.5, 4160289.5 ] } },
{ "type": "Feature", "properties": { "id": "lidar-tree:284774:4160290", "name": null, "kind": "tree", "species": null, "source": "lidar2025", "tree_height": 25.7, "crown_radius": 6.0, "height_source": "lidar2025" }, "geometry": { "type": "Point", "coordinates": [ 284774.5, 4160290.5 ] } },
{ "type": "Feature", "properties": { "id": "rva-tree:94568", "name": "Pistacia chinensis", "kind": "tree", "species": "Pistacia chinensis", "source": "city_inventory", "tree_height": 6.6, "crown_radius": 2.4, "height_source": "lidar2025" }, "geometry": { "type": "Point", "coordinates": [ 284905.5, 4160253.74 ] } },
{ "type": "Feature", "properties": { "id": "rva-tree:92816", "name": "Ulmus alata", "kind": "tree", "species": "Ulmus alata", "source": "city_inventory", "tree_height": 18.0, "crown_radius": 5.0, "height_source": "lidar2025" }, "geometry": { "type": "Point", "coordinates": [ 284877.91, 4160256.45 ] } },
{ "type": "Feature", "properties": { "id": "rva-tree:90981", "name": "Ginkgo biloba", "kind": "tree", "species": "Ginkgo biloba", "source": "city_inventory", "tree_height": 4.5, "crown_radius": 2.5, "height_source": "lidar2025" }, "geometry": { "type": "Point", "coordinates": [ 284922.73, 4160260.66 ] } },
{ "type": "Feature", "properties": { "id": "lidar-tree:284866:4160262", "name": null, "kind": "tree", "species": null, "source": "lidar2025", "tree_height": 4.1, "crown_radius": 2.9, "height_source": "lidar2025" }, "geometry": { "type": "Point", "coordinates": [ 284866.5, 4160262.5 ] } },
{ "type": "Feature", "properties": { "id": "rva-tree:90979", "name": "Prunus spp.", "kind": "tree", "species": "Prunus spp.", "source": "city_inventory", "tree_height": 6.2, "crown_radius": 4.7, "height_source": "lidar2025" }, "geometry": { "type": "Point", "coordinates": [ 284913.63, 4160263.51 ] } },
{ "type": "Feature", "properties": { "id": "rva-tree:90973", "name": "Prunus spp.", "kind": "tree", "species": "Prunus spp.", "source": "city_inventory", "tree_height": 6.2, "crown_radius": 4.7, "height_source": "lidar2025" }, "geometry": { "type": "Point", "coordinates": [ 284914.32, 4160270.95 ] } },
{ "type": "Feature", "properties": { "id": "rva-tree:90985", "name": "Ginkgo biloba", "kind": "tree", "species": "Ginkgo biloba", "source": "city_inventory", "tree_height": 8.0, "crown_radius": 2.5, "height_source": "estimated" }, "geometry": { "type": "Point", "coordinates": [ 284924.59, 4160275.41 ] } },
{ "type": "Feature", "properties": { "id": "rva-tree:90963", "name": "Prunus spp.", "kind": "tree", "species": "Prunus spp.", "source": "city_inventory", "tree_height": 6.6, "crown_radius": 4.6, "height_source": "lidar2025" }, "geometry": { "type": "Point", "coordinates": [ 284915.64, 4160278.36 ] } },
{ "type": "Feature", "properties": { "id": "lidar-tree:284860:4160284", "name": null, "kind": "tree", "species": null, "source": "lidar2025", "tree_height": 5.8, "crown_radius": 4.1, "height_source": "lidar2025" }, "geometry": { "type": "Point", "coordinates": [ 284860.5, 4160284.5 ] } },
{ "type": "Feature", "properties": { "id": "lidar-tree:284882:4160290", "name": null, "kind": "tree", "species": null, "source": "lidar2025", "tree_height": 19.1, "crown_radius": 6.0, "height_source": "lidar2025" }, "geometry": { "type": "Point", "coordinates": [ 284881.5, 4160289.5 ] } },
{ "type": "Feature", "properties": { "id": "lidar-tree:284954:4160274", "name": null, "kind": "tree", "species": null, "source": "lidar2025", "tree_height": 5.5, "crown_radius": 3.0, "height_source": "lidar2025" }, "geometry": { "type": "Point", "coordinates": [ 284954.5, 4160273.5 ] } },
{ "type": "Feature", "properties": { "id": "lidar-tree:284930:4160282", "name": null, "kind": "tree", "species": null, "source": "lidar2025", "tree_height": 11.9, "crown_radius": 4.8, "height_source": "lidar2025" }, "geometry": { "type": "Point", "coordinates": [ 284929.5, 4160281.5 ] } },
{ "type": "Feature", "properties": { "id": "lidar-tree:284988:4160284", "name": null, "kind": "tree", "species": null, "source": "lidar2025", "tree_height": 14.6, "crown_radius": 4.8, "height_source": "lidar2025" }, "geometry": { "type": "Point", "coordinates": [ 284988.5, 4160284.5 ] } },
{ "type": "Feature", "properties": { "id": "lidar-tree:284972:4160286", "name": null, "kind": "tree", "species": null, "source": "lidar2025", "tree_height": 10.5, "crown_radius": 4.8, "height_source": "lidar2025" }, "geometry": { "type": "Point", "coordinates": [ 284972.5, 4160285.5 ] } },
{ "type": "Feature", "properties": { "id": "lidar-tree:284946:4160294", "name": null, "kind": "tree", "species": null, "source": "lidar2025", "tree_height": 7.2, "crown_radius": 3.9, "height_source": "lidar2025" }, "geometry": { "type": "Point", "coordinates": [ 284945.5, 4160293.5 ] } },
{ "type": "Feature", "properties": { "id": "lidar-tree:284984:4160298", "name": null, "kind": "tree", "species": null, "source": "lidar2025", "tree_height": 13.7, "crown_radius": 5.6, "height_source": "lidar2025" }, "geometry": { "type": "Point", "coordinates": [ 284984.5, 4160298.5 ] } },
{ "type": "Feature", "properties": { "id": "lidar-tree:284998:4160300", "name": null, "kind": "tree", "species": null, "source": "lidar2025", "tree_height": 24.1, "crown_radius": 6.0, "height_source": "lidar2025" }, "geometry": { "type": "Point", "coordinates": [ 284997.5, 4160299.5 ] } },
{ "type": "Feature", "properties": { "id": "lidar-tree:284968:4160308", "name": null, "kind": "tree", "species": null, "source": "lidar2025", "tree_height": 14.9, "crown_radius": 5.6, "height_source": "lidar2025" }, "geometry": { "type": "Point", "coordinates": [ 284968.5, 4160307.5 ] } },
{ "type": "Feature", "properties": { "id": "rva-tree:61465", "name": "Acer rubrum", "kind": "tree", "species": "Acer rubrum", "source": "city_inventory", "tree_height": 16.2, "crown_radius": 5.0, "height_source": "lidar2025" }, "geometry": { "type": "Point", "coordinates": [ 284926.34, 4160292.22 ] } },
{ "type": "Feature", "properties": { "id": "lidar-tree:284864:4160298", "name": null, "kind": "tree", "species": null, "source": "lidar2025", "tree_height": 11.6, "crown_radius": 4.6, "height_source": "lidar2025" }, "geometry": { "type": "Point", "coordinates": [ 284863.5, 4160297.5 ] } },
{ "type": "Feature", "properties": { "id": "lidar-tree:284908:4160306", "name": null, "kind": "tree", "species": null, "source": "lidar2025", "tree_height": 10.5, "crown_radius": 4.3, "height_source": "lidar2025" }, "geometry": { "type": "Point", "coordinates": [ 284907.5, 4160305.5 ] } },
{ "type": "Feature", "properties": { "id": "lidar-tree:284914:4160312", "name": null, "kind": "tree", "species": null, "source": "lidar2025", "tree_height": 13.3, "crown_radius": 5.9, "height_source": "lidar2025" }, "geometry": { "type": "Point", "coordinates": [ 284914.5, 4160311.5 ] } },
{ "type": "Feature", "properties": { "id": "lidar-tree:284902:4160314", "name": null, "kind": "tree", "species": null, "source": "lidar2025", "tree_height": 7.3, "crown_radius": 5.0, "height_source": "lidar2025" }, "geometry": { "type": "Point", "coordinates": [ 284901.5, 4160313.5 ] } },
{ "type": "Feature", "properties": { "id": "rva-tree:90371", "name": "Zelkova serrata", "kind": "tree", "species": "Zelkova serrata", "source": "city_inventory", "tree_height": 8.0, "crown_radius": 2.5, "height_source": "estimated" }, "geometry": { "type": "Point", "coordinates": [ 284919.94, 4160316.16 ] } },
{ "type": "Feature", "properties": { "id": "lidar-tree:284878:4160318", "name": null, "kind": "tree", "species": null, "source": "lidar2025", "tree_height": 19.5, "crown_radius": 6.0, "height_source": "lidar2025" }, "geometry": { "type": "Point", "coordinates": [ 284878.5, 4160317.5 ] } },
{ "type": "Feature", "properties": { "id": "lidar-tree:284868:4160322", "name": null, "kind": "tree", "species": null, "source": "lidar2025", "tree_height": 18.5, "crown_radius": 6.0, "height_source": "lidar2025" }, "geometry": { "type": "Point", "coordinates": [ 284868.5, 4160322.5 ] } },
{ "type": "Feature", "properties": { "id": "lidar-tree:284916:4160324", "name": null, "kind": "tree", "species": null, "source": "lidar2025", "tree_height": 10.7, "crown_radius": 6.0, "height_source": "lidar2025" }, "geometry": { "type": "Point", "coordinates": [ 284916.5, 4160323.5 ] } },
{ "type": "Feature", "properties": { "id": "rva-tree:90369", "name": "Zelkova serrata", "kind": "tree", "species": "Zelkova serrata", "source": "city_inventory", "tree_height": 10.0, "crown_radius": 5.4, "height_source": "lidar2025" }, "geometry": { "type": "Point", "coordinates": [ 284921.87, 4160328.94 ] } },
{ "type": "Feature", "properties": { "id": "lidar-tree:284816:4160290", "name": null, "kind": "tree", "species": null, "source": "lidar2025", "tree_height": 15.8, "crown_radius": 5.7, "height_source": "lidar2025" }, "geometry": { "type": "Point", "coordinates": [ 284815.5, 4160290.5 ] } },
{ "type": "Feature", "properties": { "id": "lidar-tree:284790:4160298", "name": null, "kind": "tree", "species": null, "source": "lidar2025", "tree_height": 5.6, "crown_radius": 2.9, "height_source": "lidar2025" }, "geometry": { "type": "Point", "coordinates": [ 284789.5, 4160297.5 ] } },
{ "type": "Feature", "properties": { "id": "lidar-tree:284838:4160300", "name": null, "kind": "tree", "species": null, "source": "lidar2025", "tree_height": 18.6, "crown_radius": 6.0, "height_source": "lidar2025" }, "geometry": { "type": "Point", "coordinates": [ 284837.5, 4160300.5 ] } },
{ "type": "Feature", "properties": { "id": "lidar-tree:284826:4160302", "name": null, "kind": "tree", "species": null, "source": "lidar2025", "tree_height": 14.2, "crown_radius": 5.6, "height_source": "lidar2025" }, "geometry": { "type": "Point", "coordinates": [ 284825.5, 4160302.5 ] } },
{ "type": "Feature", "properties": { "id": "lidar-tree:284846:4160316", "name": null, "kind": "tree", "species": null, "source": "lidar2025", "tree_height": 25.2, "crown_radius": 6.0, "height_source": "lidar2025" }, "geometry": { "type": "Point", "coordinates": [ 284845.5, 4160316.5 ] } },
{ "type": "Feature", "properties": { "id": "lidar-tree:284792:4160328", "name": null, "kind": "tree", "species": null, "source": "lidar2025", "tree_height": 20.0, "crown_radius": 6.0, "height_source": "lidar2025" }, "geometry": { "type": "Point", "coordinates": [ 284791.5, 4160328.5 ] } },
{ "type": "Feature", "properties": { "id": "lidar-tree:284808:4160330", "name": null, "kind": "tree", "species": null, "source": "lidar2025", "tree_height": 5.7, "crown_radius": 2.9, "height_source": "lidar2025" }, "geometry": { "type": "Point", "coordinates": [ 284808.5, 4160329.5 ] } },
{ "type": "Feature", "properties": { "id": "lidar-tree:284826:4160332", "name": null, "kind": "tree", "species": null, "source": "lidar2025", "tree_height": 9.0, "crown_radius": 6.0, "height_source": "lidar2025" }, "geometry": { "type": "Point", "coordinates": [ 284826.5, 4160331.5 ] } },
{ "type": "Feature", "properties": { "id": "lidar-tree:284808:4160336", "name": null, "kind": "tree", "species": null, "source": "lidar2025", "tree_height": 4.4, "crown_radius": 3.0, "height_source": "lidar2025" }, "geometry": { "type": "Point", "coordinates": [ 284807.5, 4160335.5 ] } },
{ "type": "Feature", "properties": { "id": "rva-tree:91539", "name": "Platanus occidentalis", "kind": "tree", "species": "Platanus occidentalis", "source": "city_inventory", "tree_height": 29.5, "crown_radius": 6.0, "height_source": "lidar2025" }, "geometry": { "type": "Point", "coordinates": [ 284845.17, 4160356.75 ] } },
{ "type": "Feature", "properties": { "id": "lidar-tree:284998:4160318", "name": null, "kind": "tree", "species": null, "source": "lidar2025", "tree_height": 10.3, "crown_radius": 4.9, "height_source": "lidar2025" }, "geometry": { "type": "Point", "coordinates": [ 284998.5, 4160318.5 ] } },
{ "type": "Feature", "properties": { "id": "lidar-tree:284982:4160322", "name": null, "kind": "tree", "species": null, "source": "lidar2025", "tree_height": 10.8, "crown_radius": 5.5, "height_source": "lidar2025" }, "geometry": { "type": "Point", "coordinates": [ 284982.5, 4160321.5 ] } },
{ "type": "Feature", "properties": { "id": "lidar-tree:284982:4160330", "name": null, "kind": "tree", "species": null, "source": "lidar2025", "tree_height": 11.4, "crown_radius": 3.7, "height_source": "lidar2025" }, "geometry": { "type": "Point", "coordinates": [ 284982.5, 4160330.5 ] } },
{ "type": "Feature", "properties": { "id": "lidar-tree:284940:4160340", "name": null, "kind": "tree", "species": null, "source": "lidar2025", "tree_height": 9.9, "crown_radius": 4.4, "height_source": "lidar2025" }, "geometry": { "type": "Point", "coordinates": [ 284939.5, 4160339.5 ] } },
{ "type": "Feature", "properties": { "id": "rva-tree:90971", "name": "Lagerstroemia indica", "kind": "tree", "species": "Lagerstroemia indica", "source": "city_inventory", "tree_height": 9.1, "crown_radius": 4.7, "height_source": "lidar2025" }, "geometry": { "type": "Point", "coordinates": [ 284990.75, 4160339.53 ] } },
{ "type": "Feature", "properties": { "id": "rva-tree:92937", "name": "Platanus occidentalis", "kind": "tree", "species": "Platanus occidentalis", "source": "city_inventory", "tree_height": 8.0, "crown_radius": 2.5, "height_source": "estimated" }, "geometry": { "type": "Point", "coordinates": [ 284977.13, 4160341.35 ] } },
{ "type": "Feature", "properties": { "id": "rva-tree:92936", "name": "Platanus occidentalis", "kind": "tree", "species": "Platanus occidentalis", "source": "city_inventory", "tree_height": 8.0, "crown_radius": 2.5, "height_source": "estimated" }, "geometry": { "type": "Point", "coordinates": [ 284966.28, 4160342.32 ] } },
{ "type": "Feature", "properties": { "id": "rva-tree:92935", "name": "Platanus occidentalis", "kind": "tree", "species": "Platanus occidentalis", "source": "city_inventory", "tree_height": 8.0, "crown_radius": 2.5, "height_source": "estimated" }, "geometry": { "type": "Point", "coordinates": [ 284954.33, 4160343.7 ] } },
{ "type": "Feature", "properties": { "id": "rva-tree:92573", "name": "Lagerstroemia indica", "kind": "tree", "species": "Lagerstroemia indica", "source": "city_inventory", "tree_height": 6.5, "crown_radius": 4.2, "height_source": "lidar2025" }, "geometry": { "type": "Point", "coordinates": [ 284984.5, 4160353.08 ] } },
{ "type": "Feature", "properties": { "id": "lidar-tree:284886:4160332", "name": null, "kind": "tree", "species": null, "source": "lidar2025", "tree_height": 6.3, "crown_radius": 3.7, "height_source": "lidar2025" }, "geometry": { "type": "Point", "coordinates": [ 284886.5, 4160331.5 ] } },
{ "type": "Feature", "properties": { "id": "lidar-tree:284856:4160334", "name": null, "kind": "tree", "species": null, "source": "lidar2025", "tree_height": 6.6, "crown_radius": 2.9, "height_source": "lidar2025" }, "geometry": { "type": "Point", "coordinates": [ 284856.5, 4160333.5 ] } },
{ "type": "Feature", "properties": { "id": "lidar-tree:284886:4160336", "name": null, "kind": "tree", "species": null, "source": "lidar2025", "tree_height": 5.1, "crown_radius": 3.3, "height_source": "lidar2025" }, "geometry": { "type": "Point", "coordinates": [ 284886.5, 4160336.5 ] } },
{ "type": "Feature", "properties": { "id": "lidar-tree:284870:4160336", "name": null, "kind": "tree", "species": null, "source": "lidar2025", "tree_height": 5.3, "crown_radius": 3.8, "height_source": "lidar2025" }, "geometry": { "type": "Point", "coordinates": [ 284869.5, 4160336.5 ] } },
{ "type": "Feature", "properties": { "id": "rva-tree:90982", "name": "Zelkova serrata", "kind": "tree", "species": "Zelkova serrata", "source": "city_inventory", "tree_height": 6.5, "crown_radius": 3.3, "height_source": "lidar2025" }, "geometry": { "type": "Point", "coordinates": [ 284923.58, 4160341.32 ] } },
{ "type": "Feature", "properties": { "id": "lidar-tree:284866:4160346", "name": null, "kind": "tree", "species": null, "source": "lidar2025", "tree_height": 25.0, "crown_radius": 6.0, "height_source": "lidar2025" }, "geometry": { "type": "Point", "coordinates": [ 284866.5, 4160345.5 ] } },
{ "type": "Feature", "properties": { "id": "rva-tree:120255", "name": "Platanus occidentalis", "kind": "tree", "species": "Platanus occidentalis", "source": "city_inventory", "tree_height": 8.0, "crown_radius": 2.5, "height_source": "estimated" }, "geometry": { "type": "Point", "coordinates": [ 284915.31, 4160348.69 ] } },
{ "type": "Feature", "properties": { "id": "rva-tree:61461", "name": "Platanus occidentalis", "kind": "tree", "species": "Platanus occidentalis", "source": "city_inventory", "tree_height": 8.0, "crown_radius": 2.5, "height_source": "estimated" }, "geometry": { "type": "Point", "coordinates": [ 284904.02, 4160349.98 ] } },
{ "type": "Feature", "properties": { "id": "rva-tree:94336", "name": "Platanus occidentalis", "kind": "tree", "species": "Platanus occidentalis", "source": "city_inventory", "tree_height": 8.0, "crown_radius": 2.5, "height_source": "estimated" }, "geometry": { "type": "Point", "coordinates": [ 284892.72, 4160351.06 ] } },
{ "type": "Feature", "properties": { "id": "rva-tree:91520", "name": "Platanus occidentalis", "kind": "tree", "species": "Platanus occidentalis", "source": "city_inventory", "tree_height": 8.0, "crown_radius": 2.5, "height_source": "estimated" }, "geometry": { "type": "Point", "coordinates": [ 284882.06, 4160351.89 ] } },
{ "type": "Feature", "properties": { "id": "rva-tree:93988", "name": "Cornus florida", "kind": "tree", "species": "Cornus florida", "source": "city_inventory", "tree_height": 30.3, "crown_radius": 6.0, "height_source": "lidar2025" }, "geometry": { "type": "Point", "coordinates": [ 284837.8, 4160357.9 ] } },
{ "type": "Feature", "properties": { "id": "rva-tree:91532", "name": "Platanus occidentalis", "kind": "tree", "species": "Platanus occidentalis", "source": "city_inventory", "tree_height": 30.3, "crown_radius": 6.0, "height_source": "lidar2025" }, "geometry": { "type": "Point", "coordinates": [ 284833.03, 4160358.73 ] } },
{ "type": "Feature", "properties": { "id": "rva-tree:94629", "name": "Acer saccharum", "kind": "tree", "species": "Acer saccharum", "source": "city_inventory", "tree_height": 8.0, "crown_radius": 2.5, "height_source": "estimated" }, "geometry": { "type": "Point", "coordinates": [ 284827.37, 4160359.16 ] } },
{ "type": "Feature", "properties": { "id": "rva-tree:94564", "name": "Ilex cornuta", "kind": "tree", "species": "Ilex cornuta", "source": "city_inventory", "tree_height": 8.0, "crown_radius": 2.5, "height_source": "estimated" }, "geometry": { "type": "Point", "coordinates": [ 284819.77, 4160359.88 ] } },
{ "type": "Feature", "properties": { "id": "rva-tree:94265", "name": "Ilex cornuta", "kind": "tree", "species": "Ilex cornuta", "source": "city_inventory", "tree_height": 8.0, "crown_radius": 2.5, "height_source": "estimated" }, "geometry": { "type": "Point", "coordinates": [ 284815.89, 4160361.12 ] } },
{ "type": "Feature", "properties": { "id": "rva-tree:94623", "name": "Acer campestre", "kind": "tree", "species": "Acer campestre", "source": "city_inventory", "tree_height": 22.3, "crown_radius": 6.0, "height_source": "lidar2025" }, "geometry": { "type": "Point", "coordinates": [ 284803.04, 4160361.6 ] } },
{ "type": "Feature", "properties": { "id": "rva-tree:94850", "name": "Ulmus alata", "kind": "tree", "species": "Ulmus alata", "source": "city_inventory", "tree_height": 22.3, "crown_radius": 6.0, "height_source": "lidar2025" }, "geometry": { "type": "Point", "coordinates": [ 284808.28, 4160361.84 ] } },
{ "type": "Feature", "properties": { "id": "rva-tree:91531", "name": "Platanus occidentalis", "kind": "tree", "species": "Platanus occidentalis", "source": "city_inventory", "tree_height": 22.3, "crown_radius": 6.0, "height_source": "lidar2025" }, "geometry": { "type": "Point", "coordinates": [ 284800.0, 4160361.93 ] } },
{ "type": "Feature", "properties": { "id": "rva-tree:94554", "name": "Lagerstroemia indica", "kind": "tree", "species": "Lagerstroemia indica", "source": "city_inventory", "tree_height": 22.3, "crown_radius": 6.0, "height_source": "lidar2025" }, "geometry": { "type": "Point", "coordinates": [ 284809.81, 4160362.0 ] } },
{ "type": "Feature", "properties": { "id": "rva-tree:95108", "name": "Platanus occidentalis", "kind": "tree", "species": "Platanus occidentalis", "source": "city_inventory", "tree_height": 28.9, "crown_radius": 6.0, "height_source": "lidar2025" }, "geometry": { "type": "Point", "coordinates": [ 284787.0, 4160364.15 ] } },
{ "type": "Feature", "properties": { "id": "rva-tree:91519", "name": "Platanus occidentalis", "kind": "tree", "species": "Platanus occidentalis", "source": "city_inventory", "tree_height": 8.0, "crown_radius": 2.5, "height_source": "estimated" }, "geometry": { "type": "Point", "coordinates": [ 284868.82, 4160353.48 ] } },
{ "type": "Feature", "properties": { "id": "rva-tree:91540", "name": "Platanus occidentalis", "kind": "tree", "species": "Platanus occidentalis", "source": "city_inventory", "tree_height": 8.0, "crown_radius": 2.5, "height_source": "estimated" }, "geometry": { "type": "Point", "coordinates": [ 284856.05, 4160356.13 ] } },
{ "type": "Feature", "properties": { "id": "rva-tree:94913", "name": "Platanus occidentalis", "kind": "tree", "species": "Platanus occidentalis", "source": "city_inventory", "tree_height": 19.8, "crown_radius": 6.0, "height_source": "lidar2025" }, "geometry": { "type": "Point", "coordinates": [ 284918.41, 4160361.66 ] } },
{ "type": "Feature", "properties": { "id": "rva-tree:94921", "name": "Platanus occidentalis", "kind": "tree", "species": "Platanus occidentalis", "source": "city_inventory", "tree_height": 23.6, "crown_radius": 6.0, "height_source": "lidar2025" }, "geometry": { "type": "Point", "coordinates": [ 284905.38, 4160363.02 ] } },
{ "type": "Feature", "properties": { "id": "lidar-tree:284876:4160364", "name": null, "kind": "tree", "species": null, "source": "lidar2025", "tree_height": 29.7, "crown_radius": 6.0, "height_source": "lidar2025" }, "geometry": { "type": "Point", "coordinates": [ 284875.5, 4160363.5 ] } },
{ "type": "Feature", "properties": { "id": "rva-tree:96334", "name": "Platanus occidentalis", "kind": "tree", "species": "Platanus occidentalis", "source": "city_inventory", "tree_height": 26.0, "crown_radius": 6.0, "height_source": "lidar2025" }, "geometry": { "type": "Point", "coordinates": [ 284893.23, 4160364.78 ] } },
{ "type": "Feature", "properties": { "id": "rva-tree:61462", "name": "Platanus occidentalis", "kind": "tree", "species": "Platanus occidentalis", "source": "city_inventory", "tree_height": 25.5, "crown_radius": 6.0, "height_source": "lidar2025" }, "geometry": { "type": "Point", "coordinates": [ 284884.73, 4160364.88 ] } },
{ "type": "Feature", "properties": { "id": "rva-tree:91523", "name": "Platanus occidentalis", "kind": "tree", "species": "Platanus occidentalis", "source": "city_inventory", "tree_height": 30.4, "crown_radius": 6.0, "height_source": "lidar2025" }, "geometry": { "type": "Point", "coordinates": [ 284868.68, 4160367.22 ] } },
{ "type": "Feature", "properties": { "id": "rva-tree:91524", "name": "Platanus occidentalis", "kind": "tree", "species": "Platanus occidentalis", "source": "city_inventory", "tree_height": 33.4, "crown_radius": 6.0, "height_source": "lidar2025" }, "geometry": { "type": "Point", "coordinates": [ 284858.47, 4160368.47 ] } },
{ "type": "Feature", "properties": { "id": "lidar-tree:284872:4160374", "name": null, "kind": "tree", "species": null, "source": "lidar2025", "tree_height": 28.5, "crown_radius": 6.0, "height_source": "lidar2025" }, "geometry": { "type": "Point", "coordinates": [ 284872.5, 4160373.5 ] } },
{ "type": "Feature", "properties": { "id": "rva-tree:95595", "name": "Ulmus americana", "kind": "tree", "species": "Ulmus americana", "source": "city_inventory", "tree_height": 6.5, "crown_radius": 4.2, "height_source": "lidar2025" }, "geometry": { "type": "Point", "coordinates": [ 284979.28, 4160353.83 ] } },
{ "type": "Feature", "properties": { "id": "rva-tree:90202", "name": "Acer platanoides", "kind": "tree", "species": "Acer platanoides", "source": "city_inventory", "tree_height": 8.0, "crown_radius": 2.5, "height_source": "estimated" }, "geometry": { "type": "Point", "coordinates": [ 284974.05, 4160354.4 ] } },
{ "type": "Feature", "properties": { "id": "rva-tree:92586", "name": "Lagerstroemia indica", "kind": "tree", "species": "Lagerstroemia indica", "source": "city_inventory", "tree_height": 7.1, "crown_radius": 4.4, "height_source": "lidar2025" }, "geometry": { "type": "Point", "coordinates": [ 284970.13, 4160355.11 ] } },
{ "type": "Feature", "properties": { "id": "rva-tree:92641", "name": "Lagerstroemia indica", "kind": "tree", "species": "Lagerstroemia indica", "source": "city_inventory", "tree_height": 7.1, "crown_radius": 4.4, "height_source": "lidar2025" }, "geometry": { "type": "Point", "coordinates": [ 284964.72, 4160355.88 ] } },
{ "type": "Feature", "properties": { "id": "rva-tree:90911", "name": "Lagerstroemia indica", "kind": "tree", "species": "Lagerstroemia indica", "source": "city_inventory", "tree_height": 8.0, "crown_radius": 2.5, "height_source": "estimated" }, "geometry": { "type": "Point", "coordinates": [ 284955.75, 4160356.77 ] } },
{ "type": "Feature", "properties": { "id": "rva-tree:92145", "name": "Lagerstroemia indica", "kind": "tree", "species": "Lagerstroemia indica", "source": "city_inventory", "tree_height": 8.9, "crown_radius": 4.7, "height_source": "lidar2025" }, "geometry": { "type": "Point", "coordinates": [ 284943.42, 4160357.98 ] } },
{ "type": "Feature", "properties": { "id": "rva-tree:93915", "name": "Gleditsia triacanthos inermis", "kind": "tree", "species": "Gleditsia triacanthos inermis", "source": "city_inventory", "tree_height": 8.9, "crown_radius": 4.7, "height_source": "lidar2025" }, "geometry": { "type": "Point", "coordinates": [ 284937.64, 4160358.95 ] } },
{ "type": "Feature", "properties": { "id": "lidar-tree:284938:4160370", "name": null, "kind": "tree", "species": null, "source": "lidar2025", "tree_height": 6.8, "crown_radius": 3.5, "height_source": "lidar2025" }, "geometry": { "type": "Point", "coordinates": [ 284937.5, 4160369.5 ] } },
{ "type": "Feature", "properties": { "id": "rva-tree:90107", "name": "Ulmus americana", "kind": "tree", "species": "Ulmus americana", "source": "city_inventory", "tree_height": 13.6, "crown_radius": 6.0, "height_source": "lidar2025" }, "geometry": { "type": "Point", "coordinates": [ 284929.37, 4160371.17 ] } },
{ "type": "Feature", "properties": { "id": "lidar-tree:284844:4160370", "name": null, "kind": "tree", "species": null, "source": "lidar2025", "tree_height": 25.1, "crown_radius": 6.0, "height_source": "lidar2025" }, "geometry": { "type": "Point", "coordinates": [ 284844.5, 4160370.5 ] } },
{ "type": "Feature", "properties": { "id": "rva-tree:91525", "name": "Platanus occidentalis", "kind": "tree", "species": "Platanus occidentalis", "source": "city_inventory", "tree_height": 28.9, "crown_radius": 6.0, "height_source": "lidar2025" }, "geometry": { "type": "Point", "coordinates": [ 284835.23, 4160371.08 ] } },
{ "type": "Feature", "properties": { "id": "rva-tree:96694", "name": "Platanus occidentalis", "kind": "tree", "species": "Platanus occidentalis", "source": "city_inventory", "tree_height": 26.5, "crown_radius": 6.0, "height_source": "lidar2025" }, "geometry": { "type": "Point", "coordinates": [ 284823.96, 4160372.81 ] } },
{ "type": "Feature", "properties": { "id": "rva-tree:96374", "name": "Acer saccharum", "kind": "tree", "species": "Acer saccharum", "source": "city_inventory", "tree_height": 8.0, "crown_radius": 2.5, "height_source": "estimated" }, "geometry": { "type": "Point", "coordinates": [ 284811.78, 4160373.7 ] } },
{ "type": "Feature", "properties": { "id": "rva-tree:95107", "name": "Platanus occidentalis", "kind": "tree", "species": "Platanus occidentalis", "source": "city_inventory", "tree_height": 24.4, "crown_radius": 6.0, "height_source": "lidar2025" }, "geometry": { "type": "Point", "coordinates": [ 284800.94, 4160375.63 ] } },
{ "type": "Feature", "properties": { "id": "lidar-tree:284792:4160378", "name": null, "kind": "tree", "species": null, "source": "lidar2025", "tree_height": 20.8, "crown_radius": 6.0, "height_source": "lidar2025" }, "geometry": { "type": "Point", "coordinates": [ 284792.5, 4160377.5 ] } },
{ "type": "Feature", "properties": { "id": "lidar-tree:284832:4160386", "name": null, "kind": "tree", "species": null, "source": "lidar2025", "tree_height": 21.9, "crown_radius": 5.5, "height_source": "lidar2025" }, "geometry": { "type": "Point", "coordinates": [ 284831.5, 4160385.5 ] } },
{ "type": "Feature", "properties": { "id": "lidar-tree:284800:4160390", "name": null, "kind": "tree", "species": null, "source": "lidar2025", "tree_height": 15.8, "crown_radius": 5.4, "height_source": "lidar2025" }, "geometry": { "type": "Point", "coordinates": [ 284800.5, 4160389.5 ] } },
{ "type": "Feature", "properties": { "id": "lidar-tree:284818:4160394", "name": null, "kind": "tree", "species": null, "source": "lidar2025", "tree_height": 10.0, "crown_radius": 4.3, "height_source": "lidar2025" }, "geometry": { "type": "Point", "coordinates": [ 284817.5, 4160394.5 ] } },
{ "type": "Feature", "properties": { "id": "lidar-tree:284846:4160398", "name": null, "kind": "tree", "species": null, "source": "lidar2025", "tree_height": 26.2, "crown_radius": 6.0, "height_source": "lidar2025" }, "geometry": { "type": "Point", "coordinates": [ 284845.5, 4160398.5 ] } },
{ "type": "Feature", "properties": { "id": "rva-tree:65146", "name": "Platanus occidentalis", "kind": "tree", "species": "Platanus occidentalis", "source": "city_inventory", "tree_height": 26.7, "crown_radius": 6.0, "height_source": "lidar2025" }, "geometry": { "type": "Point", "coordinates": [ 284773.14, 4160301.53 ] } },
{ "type": "Feature", "properties": { "id": "rva-tree:83471", "name": "Juniperus spp.", "kind": "tree", "species": "Juniperus spp.", "source": "city_inventory", "tree_height": 8.0, "crown_radius": 2.5, "height_source": "estimated" }, "geometry": { "type": "Point", "coordinates": [ 284760.08, 4160322.9 ] } },
{ "type": "Feature", "properties": { "id": "rva-tree:83458", "name": "Juniperus spp.", "kind": "tree", "species": "Juniperus spp.", "source": "city_inventory", "tree_height": 8.0, "crown_radius": 2.5, "height_source": "estimated" }, "geometry": { "type": "Point", "coordinates": [ 284760.92, 4160325.07 ] } },
{ "type": "Feature", "properties": { "id": "lidar-tree:284768:4160360", "name": null, "kind": "tree", "species": null, "source": "lidar2025", "tree_height": 11.6, "crown_radius": 5.2, "height_source": "lidar2025" }, "geometry": { "type": "Point", "coordinates": [ 284768.5, 4160359.5 ] } },
{ "type": "Feature", "properties": { "id": "rva-tree:86615", "name": "Platanus occidentalis", "kind": "tree", "species": "Platanus occidentalis", "source": "city_inventory", "tree_height": 14.7, "crown_radius": 6.0, "height_source": "lidar2025" }, "geometry": { "type": "Point", "coordinates": [ 284764.5, 4160366.35 ] } },
{ "type": "Feature", "properties": { "id": "lidar-tree:284768:4160384", "name": null, "kind": "tree", "species": null, "source": "lidar2025", "tree_height": 16.7, "crown_radius": 4.9, "height_source": "lidar2025" }, "geometry": { "type": "Point", "coordinates": [ 284768.5, 4160384.5 ] } },
{ "type": "Feature", "properties": { "id": "lidar-tree:284772:4160408", "name": null, "kind": "tree", "species": null, "source": "lidar2025", "tree_height": 12.7, "crown_radius": 3.1, "height_source": "lidar2025" }, "geometry": { "type": "Point", "coordinates": [ 284772.5, 4160408.5 ] } },
{ "type": "Feature", "properties": { "id": "lidar-tree:284766:4160412", "name": null, "kind": "tree", "species": null, "source": "lidar2025", "tree_height": 5.4, "crown_radius": 4.5, "height_source": "lidar2025" }, "geometry": { "type": "Point", "coordinates": [ 284765.5, 4160411.5 ] } },
{ "type": "Feature", "properties": { "id": "lidar-tree:284754:4160416", "name": null, "kind": "tree", "species": null, "source": "lidar2025", "tree_height": 4.5, "crown_radius": 2.2, "height_source": "lidar2025" }, "geometry": { "type": "Point", "coordinates": [ 284754.5, 4160415.5 ] } },
{ "type": "Feature", "properties": { "id": "lidar-tree:284772:4160422", "name": null, "kind": "tree", "species": null, "source": "lidar2025", "tree_height": 8.9, "crown_radius": 3.2, "height_source": "lidar2025" }, "geometry": { "type": "Point", "coordinates": [ 284772.5, 4160421.5 ] } },
{ "type": "Feature", "properties": { "id": "lidar-tree:284760:4160432", "name": null, "kind": "tree", "species": null, "source": "lidar2025", "tree_height": 13.6, "crown_radius": 4.6, "height_source": "lidar2025" }, "geometry": { "type": "Point", "coordinates": [ 284759.5, 4160432.5 ] } },
{ "type": "Feature", "properties": { "id": "lidar-tree:284764:4160450", "name": null, "kind": "tree", "species": null, "source": "lidar2025", "tree_height": 9.5, "crown_radius": 4.9, "height_source": "lidar2025" }, "geometry": { "type": "Point", "coordinates": [ 284764.5, 4160450.5 ] } },
{ "type": "Feature", "properties": { "id": "rva-tree:66334", "name": "Quercus palustris", "kind": "tree", "species": "Quercus palustris", "source": "city_inventory", "tree_height": 22.8, "crown_radius": 6.0, "height_source": "lidar2025" }, "geometry": { "type": "Point", "coordinates": [ 284753.27, 4160475.81 ] } },
{ "type": "Feature", "properties": { "id": "rva-tree:92153", "name": "Lagerstroemia indica", "kind": "tree", "species": "Lagerstroemia indica", "source": "city_inventory", "tree_height": 6.2, "crown_radius": 3.8, "height_source": "lidar2025" }, "geometry": { "type": "Point", "coordinates": [ 284760.69, 4160496.5 ] } },
{ "type": "Feature", "properties": { "id": "osm:node/13030341678", "name": null, "kind": "bench", "species": null, "source": null, "tree_height": null, "crown_radius": null, "height_source": null }, "geometry": { "type": "Point", "coordinates": [ 284750.59, 4160499.04 ] } },
{ "type": "Feature", "properties": { "id": "lidar-tree:284848:4160476", "name": null, "kind": "tree", "species": null, "source": "lidar2025", "tree_height": 6.2, "crown_radius": 1.8, "height_source": "lidar2025" }, "geometry": { "type": "Point", "coordinates": [ 284847.5, 4160476.5 ] } },
{ "type": "Feature", "properties": { "id": "rva-tree:91506", "name": "Platanus occidentalis", "kind": "tree", "species": "Platanus occidentalis", "source": "city_inventory", "tree_height": 8.0, "crown_radius": 2.5, "height_source": "estimated" }, "geometry": { "type": "Point", "coordinates": [ 284839.38, 4160476.7 ] } },
{ "type": "Feature", "properties": { "id": "rva-tree:76268", "name": "Platanus occidentalis", "kind": "tree", "species": "Platanus occidentalis", "source": "city_inventory", "tree_height": 8.0, "crown_radius": 2.5, "height_source": "estimated" }, "geometry": { "type": "Point", "coordinates": [ 284829.8, 4160477.06 ] } },
{ "type": "Feature", "properties": { "id": "rva-tree:76269", "name": "Platanus occidentalis", "kind": "tree", "species": "Platanus occidentalis", "source": "city_inventory", "tree_height": 5.1, "crown_radius": 3.0, "height_source": "lidar2025" }, "geometry": { "type": "Point", "coordinates": [ 284820.27, 4160478.72 ] } },
{ "type": "Feature", "properties": { "id": "rva-tree:76271", "name": "Platanus occidentalis", "kind": "tree", "species": "Platanus occidentalis", "source": "city_inventory", "tree_height": 18.0, "crown_radius": 6.0, "height_source": "lidar2025" }, "geometry": { "type": "Point", "coordinates": [ 284810.71, 4160479.73 ] } },
{ "type": "Feature", "properties": { "id": "rva-tree:93223", "name": "Platanus occidentalis", "kind": "tree", "species": "Platanus occidentalis", "source": "city_inventory", "tree_height": 18.0, "crown_radius": 6.0, "height_source": "lidar2025" }, "geometry": { "type": "Point", "coordinates": [ 284802.7, 4160481.56 ] } },
{ "type": "Feature", "properties": { "id": "lidar-tree:284818:4160484", "name": null, "kind": "tree", "species": null, "source": "lidar2025", "tree_height": 5.1, "crown_radius": 3.0, "height_source": "lidar2025" }, "geometry": { "type": "Point", "coordinates": [ 284818.5, 4160484.5 ] } },
{ "type": "Feature", "properties": { "id": "lidar-tree:284774:4160486", "name": null, "kind": "tree", "species": null, "source": "lidar2025", "tree_height": 5.0, "crown_radius": 2.1, "height_source": "lidar2025" }, "geometry": { "type": "Point", "coordinates": [ 284773.5, 4160486.5 ] } },
{ "type": "Feature", "properties": { "id": "rva-tree:95266", "name": "Platanus x acerifolia", "kind": "tree", "species": "Platanus x acerifolia", "source": "city_inventory", "tree_height": 9.3, "crown_radius": 4.6, "height_source": "lidar2025" }, "geometry": { "type": "Point", "coordinates": [ 284786.13, 4160489.25 ] } },
{ "type": "Feature", "properties": { "id": "rva-tree:94343", "name": "Zelkova serrata", "kind": "tree", "species": "Zelkova serrata", "source": "city_inventory", "tree_height": 13.0, "crown_radius": 6.0, "height_source": "lidar2025" }, "geometry": { "type": "Point", "coordinates": [ 284797.14, 4160489.61 ] } },
{ "type": "Feature", "properties": { "id": "lidar-tree:284948:4160388", "name": null, "kind": "tree", "species": null, "source": "lidar2025", "tree_height": 9.3, "crown_radius": 5.1, "height_source": "lidar2025" }, "geometry": { "type": "Point", "coordinates": [ 284948.5, 4160387.5 ] } },
{ "type": "Feature", "properties": { "id": "lidar-tree:284966:4160388", "name": null, "kind": "tree", "species": null, "source": "lidar2025", "tree_height": 6.6, "crown_radius": 3.5, "height_source": "lidar2025" }, "geometry": { "type": "Point", "coordinates": [ 284965.5, 4160387.5 ] } },
{ "type": "Feature", "properties": { "id": "lidar-tree:284980:4160388", "name": null, "kind": "tree", "species": null, "source": "lidar2025", "tree_height": 15.5, "crown_radius": 6.0, "height_source": "lidar2025" }, "geometry": { "type": "Point", "coordinates": [ 284980.5, 4160388.5 ] } },
{ "type": "Feature", "properties": { "id": "lidar-tree:284998:4160392", "name": null, "kind": "tree", "species": null, "source": "lidar2025", "tree_height": 13.3, "crown_radius": 6.0, "height_source": "lidar2025" }, "geometry": { "type": "Point", "coordinates": [ 284997.5, 4160392.5 ] } },
{ "type": "Feature", "properties": { "id": "lidar-tree:284954:4160396", "name": null, "kind": "tree", "species": null, "source": "lidar2025", "tree_height": 13.7, "crown_radius": 4.2, "height_source": "lidar2025" }, "geometry": { "type": "Point", "coordinates": [ 284954.5, 4160395.5 ] } },
{ "type": "Feature", "properties": { "id": "lidar-tree:284966:4160408", "name": null, "kind": "tree", "species": null, "source": "lidar2025", "tree_height": 22.0, "crown_radius": 6.0, "height_source": "lidar2025" }, "geometry": { "type": "Point", "coordinates": [ 284965.5, 4160408.5 ] } },
{ "type": "Feature", "properties": { "id": "lidar-tree:284944:4160410", "name": null, "kind": "tree", "species": null, "source": "lidar2025", "tree_height": 12.9, "crown_radius": 6.0, "height_source": "lidar2025" }, "geometry": { "type": "Point", "coordinates": [ 284943.5, 4160410.5 ] } },
{ "type": "Feature", "properties": { "id": "rva-tree:92473", "name": "Ulmus americana", "kind": "tree", "species": "Ulmus americana", "source": "city_inventory", "tree_height": 8.0, "crown_radius": 2.5, "height_source": "estimated" }, "geometry": { "type": "Point", "coordinates": [ 284957.71, 4160411.75 ] } },
{ "type": "Feature", "properties": { "id": "lidar-tree:284978:4160412", "name": null, "kind": "tree", "species": null, "source": "lidar2025", "tree_height": 26.8, "crown_radius": 6.0, "height_source": "lidar2025" }, "geometry": { "type": "Point", "coordinates": [ 284978.5, 4160412.5 ] } },
{ "type": "Feature", "properties": { "id": "lidar-tree:284996:4160416", "name": null, "kind": "tree", "species": null, "source": "lidar2025", "tree_height": 23.3, "crown_radius": 6.0, "height_source": "lidar2025" }, "geometry": { "type": "Point", "coordinates": [ 284996.5, 4160415.5 ] } },
{ "type": "Feature", "properties": { "id": "lidar-tree:284878:4160386", "name": null, "kind": "tree", "species": null, "source": "lidar2025", "tree_height": 22.3, "crown_radius": 6.0, "height_source": "lidar2025" }, "geometry": { "type": "Point", "coordinates": [ 284877.5, 4160385.5 ] } },
{ "type": "Feature", "properties": { "id": "lidar-tree:284882:4160402", "name": null, "kind": "tree", "species": null, "source": "lidar2025", "tree_height": 27.8, "crown_radius": 6.0, "height_source": "lidar2025" }, "geometry": { "type": "Point", "coordinates": [ 284882.5, 4160401.5 ] } },
{ "type": "Feature", "properties": { "id": "lidar-tree:284928:4160412", "name": null, "kind": "tree", "species": null, "source": "lidar2025", "tree_height": 7.0, "crown_radius": 5.3, "height_source": "lidar2025" }, "geometry": { "type": "Point", "coordinates": [ 284927.5, 4160411.5 ] } },
{ "type": "Feature", "properties": { "id": "lidar-tree:284888:4160412", "name": null, "kind": "tree", "species": null, "source": "lidar2025", "tree_height": 26.1, "crown_radius": 6.0, "height_source": "lidar2025" }, "geometry": { "type": "Point", "coordinates": [ 284888.5, 4160411.5 ] } },
{ "type": "Feature", "properties": { "id": "lidar-tree:284868:4160416", "name": null, "kind": "tree", "species": null, "source": "lidar2025", "tree_height": 17.5, "crown_radius": 5.9, "height_source": "lidar2025" }, "geometry": { "type": "Point", "coordinates": [ 284868.5, 4160416.5 ] } },
{ "type": "Feature", "properties": { "id": "lidar-tree:284924:4160420", "name": null, "kind": "tree", "species": null, "source": "lidar2025", "tree_height": 10.4, "crown_radius": 5.2, "height_source": "lidar2025" }, "geometry": { "type": "Point", "coordinates": [ 284924.5, 4160420.5 ] } },
{ "type": "Feature", "properties": { "id": "lidar-tree:284868:4160426", "name": null, "kind": "tree", "species": null, "source": "lidar2025", "tree_height": 13.6, "crown_radius": 6.0, "height_source": "lidar2025" }, "geometry": { "type": "Point", "coordinates": [ 284868.5, 4160426.5 ] } },
{ "type": "Feature", "properties": { "id": "lidar-tree:284858:4160428", "name": null, "kind": "tree", "species": null, "source": "lidar2025", "tree_height": 12.1, "crown_radius": 6.0, "height_source": "lidar2025" }, "geometry": { "type": "Point", "coordinates": [ 284858.5, 4160428.5 ] } },
{ "type": "Feature", "properties": { "id": "lidar-tree:284924:4160436", "name": null, "kind": "tree", "species": null, "source": "lidar2025", "tree_height": 4.6, "crown_radius": 2.4, "height_source": "lidar2025" }, "geometry": { "type": "Point", "coordinates": [ 284923.5, 4160435.5 ] } },
{ "type": "Feature", "properties": { "id": "lidar-tree:284858:4160438", "name": null, "kind": "tree", "species": null, "source": "lidar2025", "tree_height": 4.7, "crown_radius": 4.1, "height_source": "lidar2025" }, "geometry": { "type": "Point", "coordinates": [ 284858.5, 4160438.5 ] } },
{ "type": "Feature", "properties": { "id": "lidar-tree:284818:4160408", "name": null, "kind": "tree", "species": null, "source": "lidar2025", "tree_height": 17.7, "crown_radius": 6.0, "height_source": "lidar2025" }, "geometry": { "type": "Point", "coordinates": [ 284818.5, 4160407.5 ] } },
{ "type": "Feature", "properties": { "id": "rva-tree:94626", "name": "Gleditsia triacanthos inermis", "kind": "tree", "species": "Gleditsia triacanthos inermis", "source": "city_inventory", "tree_height": 11.2, "crown_radius": 4.7, "height_source": "lidar2025" }, "geometry": { "type": "Point", "coordinates": [ 284786.44, 4160408.96 ] } },
{ "type": "Feature", "properties": { "id": "lidar-tree:284834:4160412", "name": null, "kind": "tree", "species": null, "source": "lidar2025", "tree_height": 16.9, "crown_radius": 6.0, "height_source": "lidar2025" }, "geometry": { "type": "Point", "coordinates": [ 284834.5, 4160412.5 ] } },
{ "type": "Feature", "properties": { "id": "lidar-tree:284806:4160414", "name": null, "kind": "tree", "species": null, "source": "lidar2025", "tree_height": 17.3, "crown_radius": 5.6, "height_source": "lidar2025" }, "geometry": { "type": "Point", "coordinates": [ 284805.5, 4160414.5 ] } },
{ "type": "Feature", "properties": { "id": "lidar-tree:284840:4160420", "name": null, "kind": "tree", "species": null, "source": "lidar2025", "tree_height": 22.1, "crown_radius": 6.0, "height_source": "lidar2025" }, "geometry": { "type": "Point", "coordinates": [ 284839.5, 4160420.5 ] } },
{ "type": "Feature", "properties": { "id": "lidar-tree:284804:4160428", "name": null, "kind": "tree", "species": null, "source": "lidar2025", "tree_height": 17.0, "crown_radius": 6.0, "height_source": "lidar2025" }, "geometry": { "type": "Point", "coordinates": [ 284804.5, 4160427.5 ] } },
{ "type": "Feature", "properties": { "id": "lidar-tree:284822:4160430", "name": null, "kind": "tree", "species": null, "source": "lidar2025", "tree_height": 5.5, "crown_radius": 4.3, "height_source": "lidar2025" }, "geometry": { "type": "Point", "coordinates": [ 284821.5, 4160430.5 ] } },
{ "type": "Feature", "properties": { "id": "lidar-tree:284790:4160432", "name": null, "kind": "tree", "species": null, "source": "lidar2025", "tree_height": 13.2, "crown_radius": 3.2, "height_source": "lidar2025" }, "geometry": { "type": "Point", "coordinates": [ 284790.5, 4160431.5 ] } },
{ "type": "Feature", "properties": { "id": "lidar-tree:284816:4160438", "name": null, "kind": "tree", "species": null, "source": "lidar2025", "tree_height": 11.3, "crown_radius": 4.5, "height_source": "lidar2025" }, "geometry": { "type": "Point", "coordinates": [ 284816.5, 4160437.5 ] } },
{ "type": "Feature", "properties": { "id": "lidar-tree:284792:4160444", "name": null, "kind": "tree", "species": null, "source": "lidar2025", "tree_height": 16.4, "crown_radius": 5.5, "height_source": "lidar2025" }, "geometry": { "type": "Point", "coordinates": [ 284791.5, 4160443.5 ] } },
{ "type": "Feature", "properties": { "id": "lidar-tree:284988:4160416", "name": null, "kind": "tree", "species": null, "source": "lidar2025", "tree_height": 27.0, "crown_radius": 6.0, "height_source": "lidar2025" }, "geometry": { "type": "Point", "coordinates": [ 284987.5, 4160416.5 ] } },
{ "type": "Feature", "properties": { "id": "lidar-tree:284940:4160422", "name": null, "kind": "tree", "species": null, "source": "lidar2025", "tree_height": 10.5, "crown_radius": 5.7, "height_source": "lidar2025" }, "geometry": { "type": "Point", "coordinates": [ 284939.5, 4160421.5 ] } },
{ "type": "Feature", "properties": { "id": "rva-tree:90720", "name": "Gleditsia triacanthos inermis", "kind": "tree", "species": "Gleditsia triacanthos inermis", "source": "city_inventory", "tree_height": 12.8, "crown_radius": 6.0, "height_source": "lidar2025" }, "geometry": { "type": "Point", "coordinates": [ 284952.33, 4160423.58 ] } },
{ "type": "Feature", "properties": { "id": "lidar-tree:284992:4160426", "name": null, "kind": "tree", "species": null, "source": "lidar2025", "tree_height": 27.2, "crown_radius": 6.0, "height_source": "lidar2025" }, "geometry": { "type": "Point", "coordinates": [ 284992.5, 4160426.5 ] } },
{ "type": "Feature", "properties": { "id": "lidar-tree:284968:4160428", "name": null, "kind": "tree", "species": null, "source": "lidar2025", "tree_height": 27.2, "crown_radius": 6.0, "height_source": "lidar2025" }, "geometry": { "type": "Point", "coordinates": [ 284967.5, 4160428.5 ] } },
{ "type": "Feature", "properties": { "id": "rva-tree:89670", "name": "Ulmus americana", "kind": "tree", "species": "Ulmus americana", "source": "city_inventory", "tree_height": 18.5, "crown_radius": 6.0, "height_source": "lidar2025" }, "geometry": { "type": "Point", "coordinates": [ 284957.68, 4160436.14 ] } },
{ "type": "Feature", "properties": { "id": "lidar-tree:284948:4160442", "name": null, "kind": "tree", "species": null, "source": "lidar2025", "tree_height": 20.4, "crown_radius": 6.0, "height_source": "lidar2025" }, "geometry": { "type": "Point", "coordinates": [ 284948.5, 4160442.5 ] } },
{ "type": "Feature", "properties": { "id": "rva-tree:89679", "name": "Platanus occidentalis", "kind": "tree", "species": "Platanus occidentalis", "source": "city_inventory", "tree_height": 21.8, "crown_radius": 6.0, "height_source": "lidar2025" }, "geometry": { "type": "Point", "coordinates": [ 284990.92, 4160447.47 ] } },
{ "type": "Feature", "properties": { "id": "lidar-tree:284940:4160448", "name": null, "kind": "tree", "species": null, "source": "lidar2025", "tree_height": 27.6, "crown_radius": 6.0, "height_source": "lidar2025" }, "geometry": { "type": "Point", "coordinates": [ 284940.5, 4160448.5 ] } },
{ "type": "Feature", "properties": { "id": "lidar-tree:284892:4160442", "name": null, "kind": "tree", "species": null, "source": "lidar2025", "tree_height": 11.9, "crown_radius": 4.6, "height_source": "lidar2025" }, "geometry": { "type": "Point", "coordinates": [ 284891.5, 4160441.5 ] } },
{ "type": "Feature", "properties": { "id": "lidar-tree:284876:4160444", "name": null, "kind": "tree", "species": null, "source": "lidar2025", "tree_height": 4.7, "crown_radius": 2.4, "height_source": "lidar2025" }, "geometry": { "type": "Point", "coordinates": [ 284875.5, 4160443.5 ] } },
{ "type": "Feature", "properties": { "id": "lidar-tree:284862:4160448", "name": null, "kind": "tree", "species": null, "source": "lidar2025", "tree_height": 5.3, "crown_radius": 3.4, "height_source": "lidar2025" }, "geometry": { "type": "Point", "coordinates": [ 284861.5, 4160448.5 ] } },
{ "type": "Feature", "properties": { "id": "rva-tree:94848", "name": "Platanus occidentalis", "kind": "tree", "species": "Platanus occidentalis", "source": "city_inventory", "tree_height": 8.0, "crown_radius": 2.5, "height_source": "estimated" }, "geometry": { "type": "Point", "coordinates": [ 284921.5, 4160456.42 ] } },
{ "type": "Feature", "properties": { "id": "rva-tree:94609", "name": "X Cupressocyparis leylandii", "kind": "tree", "species": "X Cupressocyparis leylandii", "source": "city_inventory", "tree_height": 10.7, "crown_radius": 3.4, "height_source": "lidar2025" }, "geometry": { "type": "Point", "coordinates": [ 284914.77, 4160457.1 ] } },
{ "type": "Feature", "properties": { "id": "rva-tree:96926", "name": "Lagerstroemia indica", "kind": "tree", "species": "Lagerstroemia indica", "source": "city_inventory", "tree_height": 5.2, "crown_radius": 3.0, "height_source": "lidar2025" }, "geometry": { "type": "Point", "coordinates": [ 284903.04, 4160458.41 ] } },
{ "type": "Feature", "properties": { "id": "rva-tree:96918", "name": "Lagerstroemia indica", "kind": "tree", "species": "Lagerstroemia indica", "source": "city_inventory", "tree_height": 5.2, "crown_radius": 3.0, "height_source": "lidar2025" }, "geometry": { "type": "Point", "coordinates": [ 284897.82, 4160458.82 ] } },
{ "type": "Feature", "properties": { "id": "rva-tree:93945", "name": "Pyrus calleryana", "kind": "tree", "species": "Pyrus calleryana", "source": "city_inventory", "tree_height": 12.1, "crown_radius": 3.9, "height_source": "lidar2025" }, "geometry": { "type": "Point", "coordinates": [ 284891.52, 4160459.49 ] } },
{ "type": "Feature", "properties": { "id": "lidar-tree:284876:4160460", "name": null, "kind": "tree", "species": null, "source": "lidar2025", "tree_height": 7.6, "crown_radius": 4.8, "height_source": "lidar2025" }, "geometry": { "type": "Point", "coordinates": [ 284876.5, 4160459.5 ] } },
{ "type": "Feature", "properties": { "id": "rva-tree:96910", "name": "Lagerstroemia indica", "kind": "tree", "species": "Lagerstroemia indica", "source": "city_inventory", "tree_height": 12.1, "crown_radius": 3.9, "height_source": "lidar2025" }, "geometry": { "type": "Point", "coordinates": [ 284884.36, 4160460.63 ] } },
{ "type": "Feature", "properties": { "id": "lidar-tree:284776:4160444", "name": null, "kind": "tree", "species": null, "source": "lidar2025", "tree_height": 17.5, "crown_radius": 6.0, "height_source": "lidar2025" }, "geometry": { "type": "Point", "coordinates": [ 284775.5, 4160443.5 ] } },
{ "type": "Feature", "properties": { "id": "lidar-tree:284846:4160448", "name": null, "kind": "tree", "species": null, "source": "lidar2025", "tree_height": 6.0, "crown_radius": 3.8, "height_source": "lidar2025" }, "geometry": { "type": "Point", "coordinates": [ 284846.5, 4160448.5 ] } },
{ "type": "Feature", "properties": { "id": "rva-tree:66258", "name": "Platanus occidentalis", "kind": "tree", "species": "Platanus occidentalis", "source": "city_inventory", "tree_height": 20.0, "crown_radius": 6.0, "height_source": "lidar2025" }, "geometry": { "type": "Point", "coordinates": [ 284782.16, 4160456.33 ] } },
{ "type": "Feature", "properties": { "id": "lidar-tree:284810:4160462", "name": null, "kind": "tree", "species": null, "source": "lidar2025", "tree_height": 3.8, "crown_radius": 1.9, "height_source": "lidar2025" }, "geometry": { "type": "Point", "coordinates": [ 284809.5, 4160462.5 ] } },
{ "type": "Feature", "properties": { "id": "rva-tree:93913", "name": "Platanus occidentalis", "kind": "tree", "species": "Platanus occidentalis", "source": "city_inventory", "tree_height": 6.7, "crown_radius": 3.1, "height_source": "lidar2025" }, "geometry": { "type": "Point", "coordinates": [ 284848.54, 4160464.8 ] } },
{ "type": "Feature", "properties": { "id": "rva-tree:94332", "name": "Platanus occidentalis", "kind": "tree", "species": "Platanus occidentalis", "source": "city_inventory", "tree_height": 8.0, "crown_radius": 2.5, "height_source": "estimated" }, "geometry": { "type": "Point", "coordinates": [ 284835.08, 4160466.61 ] } },
{ "type": "Feature", "properties": { "id": "rva-tree:88691", "name": "Platanus occidentalis", "kind": "tree", "species": "Platanus occidentalis", "source": "city_inventory", "tree_height": 15.2, "crown_radius": 6.0, "height_source": "lidar2025" }, "geometry": { "type": "Point", "coordinates": [ 284783.18, 4160467.7 ] } },
{ "type": "Feature", "properties": { "id": "rva-tree:94331", "name": "Platanus occidentalis", "kind": "tree", "species": "Platanus occidentalis", "source": "city_inventory", "tree_height": 8.0, "crown_radius": 2.5, "height_source": "estimated" }, "geometry": { "type": "Point", "coordinates": [ 284822.92, 4160468.15 ] } },
{ "type": "Feature", "properties": { "id": "rva-tree:94329", "name": "Platanus occidentalis", "kind": "tree", "species": "Platanus occidentalis", "source": "city_inventory", "tree_height": 8.0, "crown_radius": 2.5, "height_source": "estimated" }, "geometry": { "type": "Point", "coordinates": [ 284812.28, 4160469.2 ] } },
{ "type": "Feature", "properties": { "id": "rva-tree:94328", "name": "Platanus occidentalis", "kind": "tree", "species": "Platanus occidentalis", "source": "city_inventory", "tree_height": 8.0, "crown_radius": 2.5, "height_source": "estimated" }, "geometry": { "type": "Point", "coordinates": [ 284801.2, 4160470.49 ] } },
{ "type": "Feature", "properties": { "id": "rva-tree:89678", "name": "Platanus occidentalis", "kind": "tree", "species": "Platanus occidentalis", "source": "city_inventory", "tree_height": 20.2, "crown_radius": 6.0, "height_source": "lidar2025" }, "geometry": { "type": "Point", "coordinates": [ 284980.09, 4160448.81 ] } },
{ "type": "Feature", "properties": { "id": "rva-tree:93226", "name": "Platanus occidentalis", "kind": "tree", "species": "Platanus occidentalis", "source": "city_inventory", "tree_height": 8.0, "crown_radius": 2.5, "height_source": "estimated" }, "geometry": { "type": "Point", "coordinates": [ 284959.27, 4160451.52 ] } },
{ "type": "Feature", "properties": { "id": "rva-tree:92008", "name": "Pyrus calleryana", "kind": "tree", "species": "Pyrus calleryana", "source": "city_inventory", "tree_height": 26.4, "crown_radius": 6.0, "height_source": "lidar2025" }, "geometry": { "type": "Point", "coordinates": [ 284952.11, 4160452.66 ] } },
{ "type": "Feature", "properties": { "id": "rva-tree:66347", "name": "Platanus occidentalis", "kind": "tree", "species": "Platanus occidentalis", "source": "city_inventory", "tree_height": 27.7, "crown_radius": 6.0, "height_source": "lidar2025" }, "geometry": { "type": "Point", "coordinates": [ 284943.86, 4160453.62 ] } },
{ "type": "Feature", "properties": { "id": "rva-tree:91508", "name": "Platanus occidentalis", "kind": "tree", "species": "Platanus occidentalis", "source": "city_inventory", "tree_height": 28.1, "crown_radius": 6.0, "height_source": "lidar2025" }, "geometry": { "type": "Point", "coordinates": [ 284932.35, 4160454.92 ] } },
{ "type": "Feature", "properties": { "id": "rva-tree:61471", "name": "Platanus occidentalis", "kind": "tree", "species": "Platanus occidentalis", "source": "city_inventory", "tree_height": 23.9, "crown_radius": 6.0, "height_source": "lidar2025" }, "geometry": { "type": "Point", "coordinates": [ 284989.55, 4160458.49 ] } },
{ "type": "Feature", "properties": { "id": "rva-tree:66348", "name": "Platanus occidentalis", "kind": "tree", "species": "Platanus occidentalis", "source": "city_inventory", "tree_height": 26.3, "crown_radius": 6.0, "height_source": "lidar2025" }, "geometry": { "type": "Point", "coordinates": [ 284948.4, 4160464.14 ] } },
{ "type": "Feature", "properties": { "id": "rva-tree:92587", "name": "Platanus occidentalis", "kind": "tree", "species": "Platanus occidentalis", "source": "city_inventory", "tree_height": 29.2, "crown_radius": 6.0, "height_source": "lidar2025" }, "geometry": { "type": "Point", "coordinates": [ 284934.5, 4160465.96 ] } },
{ "type": "Feature", "properties": { "id": "rva-tree:793", "name": "Pistacia chinensis", "kind": "tree", "species": "Pistacia chinensis", "source": "city_inventory", "tree_height": 8.0, "crown_radius": 2.5, "height_source": "estimated" }, "geometry": { "type": "Point", "coordinates": [ 284982.02, 4160467.77 ] } },
{ "type": "Feature", "properties": { "id": "lidar-tree:284862:4160462", "name": null, "kind": "tree", "species": null, "source": "lidar2025", "tree_height": 8.0, "crown_radius": 3.6, "height_source": "lidar2025" }, "geometry": { "type": "Point", "coordinates": [ 284862.5, 4160461.5 ] } },
{ "type": "Feature", "properties": { "id": "rva-tree:94334", "name": "Platanus occidentalis", "kind": "tree", "species": "Platanus occidentalis", "source": "city_inventory", "tree_height": 8.0, "crown_radius": 3.6, "height_source": "lidar2025" }, "geometry": { "type": "Point", "coordinates": [ 284868.72, 4160462.31 ] } },
{ "type": "Feature", "properties": { "id": "rva-tree:91502", "name": "Platanus occidentalis", "kind": "tree", "species": "Platanus occidentalis", "source": "city_inventory", "tree_height": 8.0, "crown_radius": 2.5, "height_source": "estimated" }, "geometry": { "type": "Point", "coordinates": [ 284901.49, 4160469.59 ] } },
{ "type": "Feature", "properties": { "id": "rva-tree:91503", "name": "Platanus occidentalis", "kind": "tree", "species": "Platanus occidentalis", "source": "city_inventory", "tree_height": 8.0, "crown_radius": 2.5, "height_source": "estimated" }, "geometry": { "type": "Point", "coordinates": [ 284885.63, 4160471.27 ] } },
{ "type": "Feature", "properties": { "id": "lidar-tree:284910:4160472", "name": null, "kind": "tree", "species": null, "source": "lidar2025", "tree_height": 4.4, "crown_radius": 3.7, "height_source": "lidar2025" }, "geometry": { "type": "Point", "coordinates": [ 284909.5, 4160471.5 ] } },
{ "type": "Feature", "properties": { "id": "rva-tree:1269", "name": "Platanus occidentalis", "kind": "tree", "species": "Platanus occidentalis", "source": "city_inventory", "tree_height": 8.0, "crown_radius": 2.5, "height_source": "estimated" }, "geometry": { "type": "Point", "coordinates": [ 284874.32, 4160472.13 ] } },
{ "type": "Feature", "properties": { "id": "lidar-tree:284862:4160474", "name": null, "kind": "tree", "species": null, "source": "lidar2025", "tree_height": 8.4, "crown_radius": 2.3, "height_source": "lidar2025" }, "geometry": { "type": "Point", "coordinates": [ 284862.5, 4160474.5 ] } },
{ "type": "Feature", "properties": { "id": "lidar-tree:284908:4160478", "name": null, "kind": "tree", "species": null, "source": "lidar2025", "tree_height": 4.4, "crown_radius": 4.1, "height_source": "lidar2025" }, "geometry": { "type": "Point", "coordinates": [ 284908.5, 4160477.5 ] } },
{ "type": "Feature", "properties": { "id": "lidar-tree:284866:4160490", "name": null, "kind": "tree", "species": null, "source": "lidar2025", "tree_height": 4.8, "crown_radius": 3.4, "height_source": "lidar2025" }, "geometry": { "type": "Point", "coordinates": [ 284866.5, 4160489.5 ] } },
{ "type": "Feature", "properties": { "id": "lidar-tree:284910:4160494", "name": null, "kind": "tree", "species": null, "source": "lidar2025", "tree_height": 11.1, "crown_radius": 4.4, "height_source": "lidar2025" }, "geometry": { "type": "Point", "coordinates": [ 284909.5, 4160493.5 ] } },
{ "type": "Feature", "properties": { "id": "rva-tree:91582", "name": "Quercus rubra", "kind": "tree", "species": "Quercus rubra", "source": "city_inventory", "tree_height": 23.7, "crown_radius": 6.0, "height_source": "lidar2025" }, "geometry": { "type": "Point", "coordinates": [ 284971.8, 4160468.06 ] } },
{ "type": "Feature", "properties": { "id": "rva-tree:92477", "name": "Gleditsia triacanthos inermis", "kind": "tree", "species": "Gleditsia triacanthos inermis", "source": "city_inventory", "tree_height": 11.1, "crown_radius": 6.0, "height_source": "lidar2025" }, "geometry": { "type": "Point", "coordinates": [ 284991.07, 4160489.19 ] } },
{ "type": "Feature", "properties": { "id": "lidar-tree:284946:4160496", "name": null, "kind": "tree", "species": null, "source": "lidar2025", "tree_height": 20.4, "crown_radius": 6.0, "height_source": "lidar2025" }, "geometry": { "type": "Point", "coordinates": [ 284945.5, 4160496.5 ] } },
{ "type": "Feature", "properties": { "id": "lidar-tree:284934:4160500", "name": null, "kind": "tree", "species": null, "source": "lidar2025", "tree_height": 13.6, "crown_radius": 5.0, "height_source": "lidar2025" }, "geometry": { "type": "Point", "coordinates": [ 284933.5, 4160499.5 ] } },
{ "type": "Feature", "properties": { "id": "rva-tree:94884", "name": "Lagerstroemia indica", "kind": "tree", "species": "Lagerstroemia indica", "source": "city_inventory", "tree_height": 13.0, "crown_radius": 6.0, "height_source": "lidar2025" }, "geometry": { "type": "Point", "coordinates": [ 284798.35, 4160497.07 ] } },
{ "type": "Feature", "properties": { "id": "rva-tree:95264", "name": "Platanus x acerifolia", "kind": "tree", "species": "Platanus x acerifolia", "source": "city_inventory", "tree_height": 7.5, "crown_radius": 3.8, "height_source": "lidar2025" }, "geometry": { "type": "Point", "coordinates": [ 284787.7, 4160499.19 ] } },
{ "type": "Feature", "properties": { "id": "lidar-tree:284868:4160496", "name": null, "kind": "tree", "species": null, "source": "lidar2025", "tree_height": 5.2, "crown_radius": 4.4, "height_source": "lidar2025" }, "geometry": { "type": "Point", "coordinates": [ 284868.5, 4160496.5 ] } },
{ "type": "Feature", "properties": { "id": "lidar-tree:284862:4160496", "name": null, "kind": "tree", "species": null, "source": "lidar2025", "tree_height": 4.8, "crown_radius": 4.3, "height_source": "lidar2025" }, "geometry": { "type": "Point", "coordinates": [ 284861.5, 4160496.5 ] } }
]
}
