{
"type": "FeatureCollection",
"name": "wires",
"crs": { "type": "name", "properties": { "name": "urn:ogc:def:crs:EPSG::32618" } },
"xy_coordinate_resolution": 0.01,
"features": [
{ "type": "Feature", "properties": { "id": "wire:33456-33621", "h0": 10.0, "h1": 10.0, "z0": 46.58, "z1": 48.57 }, "geometry": { "type": "LineString", "coordinates": [ [ 284754.56, 4160276.15 ], [ 284793.39, 4160260.93 ] ] } },
{ "type": "Feature", "properties": { "id": "wire:33617-33619", "h0": 8.84, "h1": 10.0, "z0": 49.66, "z1": 49.48 }, "geometry": { "type": "LineString", "coordinates": [ [ 284875.1, 4160248.0 ], [ 284832.73, 4160253.11 ] ] } },
{ "type": "Feature", "properties": { "id": "wire:33612-33617", "h0": 8.84, "h1": 8.84, "z0": 49.62, "z1": 49.66 }, "geometry": { "type": "LineString", "coordinates": [ [ 284911.79, 4160253.86 ], [ 284875.1, 4160248.0 ] ] } },
{ "type": "Feature", "properties": { "id": "wire:33390-33392", "h0": 10.0, "h1": 10.0, "z0": 49.64, "z1": 49.48 }, "geometry": { "type": "LineString", "coordinates": [ [ 285016.9, 4160284.45 ], [ 284972.54, 4160289.9 ] ] } },
{ "type": "Feature", "properties": { "id": "wire:33389-33391", "h0": 10.0, "h1": 10.0, "z0": 48.41, "z1": 49.17 }, "geometry": { "type": "LineString", "coordinates": [ [ 284831.36, 4160306.68 ], [ 284870.34, 4160302.13 ] ] } },
{ "type": "Feature", "properties": { "id": "wire:33387-33389", "h0": 10.0, "h1": 10.0, "z0": 47.32, "z1": 48.41 }, "geometry": { "type": "LineString", "coordinates": [ [ 284801.79, 4160310.14 ], [ 284831.36, 4160306.68 ] ] } },
{ "type": "Feature", "properties": { "id": "wire:33394-33395", "h0": 10.0, "h1": 8.84, "z0": 49.43, "z1": 48.88 }, "geometry": { "type": "LineString", "coordinates": [ [ 284912.77, 4160297.18 ], [ 284930.5, 4160328.62 ] ] } },
{ "type": "Feature", "properties": { "id": "wire:33382-33383", "h0": 10.0, "h1": 8.84, "z0": 46.97, "z1": 47.31 }, "geometry": { "type": "LineString", "coordinates": [ [ 284777.56, 4160312.97 ], [ 284776.34, 4160335.74 ] ] } },
{ "type": "Feature", "properties": { "id": "wire:33362-33395", "h0": 8.84, "h1": 8.84, "z0": 48.59, "z1": 48.88 }, "geometry": { "type": "LineString", "coordinates": [ [ 284935.75, 4160360.27 ], [ 284930.5, 4160328.62 ] ] } },
{ "type": "Feature", "properties": { "id": "wire:33366-33368", "h0": 8.84, "h1": 8.84, "z0": 48.91, "z1": 49.11 }, "geometry": { "type": "LineString", "coordinates": [ [ 284961.72, 4160355.1 ], [ 285003.38, 4160349.33 ] ] } },
{ "type": "Feature", "properties": { "id": "wire:33362-33364", "h0": 8.84, "h1": 10.0, "z0": 48.59, "z1": 48.81 }, "geometry": { "type": "LineString", "coordinates": [ [ 284935.75, 4160360.27 ], [ 284945.24, 4160383.21 ] ] } },
{ "type": "Feature", "properties": { "id": "wire:33353-33356", "h0": 8.84, "h1": 8.84, "z0": 47.66, "z1": 47.05 }, "geometry": { "type": "LineString", "coordinates": [ [ 284797.57, 4160374.16 ], [ 284828.49, 4160370.39 ] ] } },
{ "type": "Feature", "properties": { "id": "wire:33350-33353", "h0": 10.0, "h1": 8.84, "z0": 48.02, "z1": 47.66 }, "geometry": { "type": "LineString", "coordinates": [ [ 284771.46, 4160381.61 ], [ 284797.57, 4160374.16 ] ] } },
{ "type": "Feature", "properties": { "id": "wire:33359-33364", "h0": 10.0, "h1": 10.0, "z0": 49.22, "z1": 48.81 }, "geometry": { "type": "LineString", "coordinates": [ [ 284954.56, 4160400.86 ], [ 284945.24, 4160383.21 ] ] } },
{ "type": "Feature", "properties": { "id": "wire:33355-33357", "h0": 10.0, "h1": 10.0, "z0": 47.27, "z1": 47.43 }, "geometry": { "type": "LineString", "coordinates": [ [ 284878.6, 4160410.26 ], [ 284905.81, 4160413.29 ] ] } },
{ "type": "Feature", "properties": { "id": "wire:33383-33385", "h0": 8.84, "h1": 8.84, "z0": 47.31, "z1": 47.57 }, "geometry": { "type": "LineString", "coordinates": [ [ 284776.34, 4160335.74 ], [ 284769.27, 4160349.05 ] ] } },
{ "type": "Feature", "properties": { "id": "wire:33347-33349", "h0": 8.84, "h1": 10.0, "z0": 49.61, "z1": 48.34 }, "geometry": { "type": "LineString", "coordinates": [ [ 284759.96, 4160430.4 ], [ 284777.13, 4160422.81 ] ] } },
{ "type": "Feature", "properties": { "id": "wire:33357-33358", "h0": 10.0, "h1": 10.0, "z0": 47.43, "z1": 47.62 }, "geometry": { "type": "LineString", "coordinates": [ [ 284905.81, 4160413.29 ], [ 284918.16, 4160411.07 ] ] } },
{ "type": "Feature", "properties": { "id": "wire:33354-33355", "h0": 10.0, "h1": 10.0, "z0": 47.94, "z1": 47.27 }, "geometry": { "type": "LineString", "coordinates": [ [ 284844.27, 4160414.53 ], [ 284878.6, 4160410.26 ] ] } },
{ "type": "Feature", "properties": { "id": "wire:33352-33354", "h0": 10.0, "h1": 10.0, "z0": 48.31, "z1": 47.94 }, "geometry": { "type": "LineString", "coordinates": [ [ 284827.17, 4160422.41 ], [ 284844.27, 4160414.53 ] ] } },
{ "type": "Feature", "properties": { "id": "wire:33351-33352", "h0": 10.0, "h1": 10.0, "z0": 48.71, "z1": 48.31 }, "geometry": { "type": "LineString", "coordinates": [ [ 284807.29, 4160419.15 ], [ 284827.17, 4160422.41 ] ] } },
{ "type": "Feature", "properties": { "id": "wire:33349-33351", "h0": 10.0, "h1": 10.0, "z0": 48.34, "z1": 48.71 }, "geometry": { "type": "LineString", "coordinates": [ [ 284777.13, 4160422.81 ], [ 284807.29, 4160419.15 ] ] } },
{ "type": "Feature", "properties": { "id": "wire:33312-33314", "h0": 10.0, "h1": 10.0, "z0": 49.28, "z1": 49.2 }, "geometry": { "type": "LineString", "coordinates": [ [ 285000.37, 4160447.79 ], [ 284975.33, 4160450.12 ] ] } },
{ "type": "Feature", "properties": { "id": "wire:33314-33316", "h0": 10.0, "h1": 10.0, "z0": 49.2, "z1": 48.07 }, "geometry": { "type": "LineString", "coordinates": [ [ 284975.33, 4160450.12 ], [ 284929.42, 4160465.63 ] ] } },
{ "type": "Feature", "properties": { "id": "wire:33316-33318", "h0": 10.0, "h1": 8.84, "z0": 48.07, "z1": 47.36 }, "geometry": { "type": "LineString", "coordinates": [ [ 284929.42, 4160465.63 ], [ 284887.77, 4160468.79 ] ] } },
{ "type": "Feature", "properties": { "id": "wire:33324-33339", "h0": 8.84, "h1": 8.84, "z0": 49.14, "z1": 48.79 }, "geometry": { "type": "LineString", "coordinates": [ [ 284767.38, 4160484.23 ], [ 284783.2, 4160470.27 ] ] } },
{ "type": "Feature", "properties": { "id": "wire:33318-33320", "h0": 8.84, "h1": 8.84, "z0": 47.36, "z1": 48.25 }, "geometry": { "type": "LineString", "coordinates": [ [ 284887.77, 4160468.79 ], [ 284843.59, 4160465.85 ] ] } },
{ "type": "Feature", "properties": { "id": "wire:33320-33323", "h0": 8.84, "h1": 8.84, "z0": 48.25, "z1": 48.68 }, "geometry": { "type": "LineString", "coordinates": [ [ 284843.59, 4160465.85 ], [ 284806.66, 4160470.72 ] ] } },
{ "type": "Feature", "properties": { "id": "wire:33323-33339", "h0": 8.84, "h1": 8.84, "z0": 48.68, "z1": 48.79 }, "geometry": { "type": "LineString", "coordinates": [ [ 284806.66, 4160470.72 ], [ 284783.2, 4160470.27 ] ] } },
{ "type": "Feature", "properties": { "id": "wire:33324-33329", "h0": 8.84, "h1": 8.84, "z0": 49.14, "z1": 49.76 }, "geometry": { "type": "LineString", "coordinates": [ [ 284767.38, 4160484.23 ], [ 284754.31, 4160513.52 ] ] } }
]
}
