{
"type": "FeatureCollection",
"name": "pois",
"crs": { "type": "name", "properties": { "name": "urn:ogc:def:crs:EPSG::32618" } },
"xy_coordinate_resolution": 0.01,
"features": [
{ "type": "Feature", "properties": { "id": "lidar-tree:280756:4159750", "name": null, "kind": "tree", "species": null, "source": "lidar2025", "tree_height": 18.0, "crown_radius": 6.0, "height_source": "lidar2025" }, "geometry": { "type": "Point", "coordinates": [ 280755.5, 4159750.5 ] } },
{ "type": "Feature", "properties": { "id": "rva-tree:16958", "name": "Acer rubrum", "kind": "tree", "species": "Acer rubrum", "source": "city_inventory", "tree_height": 8.0, "crown_radius": 2.5, "height_source": "estimated" }, "geometry": { "type": "Point", "coordinates": [ 280802.01, 4159759.69 ] } },
{ "type": "Feature", "properties": { "id": "lidar-tree:280952:4159756", "name": null, "kind": "tree", "species": null, "source": "lidar2025", "tree_height": 17.3, "crown_radius": 6.0, "height_source": "lidar2025" }, "geometry": { "type": "Point", "coordinates": [ 280951.5, 4159755.5 ] } },
{ "type": "Feature", "properties": { "id": "rva-tree:17236", "name": "Magnolia x soulangiana", "kind": "tree", "species": "Magnolia x soulangiana", "source": "city_inventory", "tree_height": 8.0, "crown_radius": 2.5, "height_source": "estimated" }, "geometry": { "type": "Point", "coordinates": [ 280921.85, 4159758.26 ] } },
{ "type": "Feature", "properties": { "id": "rva-tree:17146", "name": "Acer rubrum", "kind": "tree", "species": "Acer rubrum", "source": "city_inventory", "tree_height": 10.8, "crown_radius": 5.0, "height_source": "lidar2025" }, "geometry": { "type": "Point", "coordinates": [ 280853.69, 4159751.36 ] } },
{ "type": "Feature", "properties": { "id": "rva-tree:63878", "name": "Acer rubrum", "kind": "tree", "species": "Acer rubrum", "source": "city_inventory", "tree_height": 5.4, "crown_radius": 2.9, "height_source": "lidar2025" }, "geometry": { "type": "Point", "coordinates": [ 280809.28, 4159756.56 ] } },
{ "type": "Feature", "properties": { "id": "rva-tree:17148", "name": "Acer rubrum", "kind": "tree", "species": "Acer rubrum", "source": "city_inventory", "tree_height": 10.7, "crown_radius": 5.0, "height_source": "lidar2025" }, "geometry": { "type": "Point", "coordinates": [ 280836.82, 4159759.29 ] } },
{ "type": "Feature", "properties": { "id": "lidar-tree:280846:4159762", "name": null, "kind": "tree", "species": null, "source": "lidar2025", "tree_height": 6.3, "crown_radius": 4.7, "height_source": "lidar2025" }, "geometry": { "type": "Point", "coordinates": [ 280845.5, 4159761.5 ] } },
{ "type": "Feature", "properties": { "id": "rva-tree:63899", "name": "Acer rubrum", "kind": "tree", "species": "Acer rubrum", "source": "city_inventory", "tree_height": 10.7, "crown_radius": 5.0, "height_source": "lidar2025" }, "geometry": { "type": "Point", "coordinates": [ 280830.97, 4159762.13 ] } },
{ "type": "Feature", "properties": { "id": "rva-tree:17150", "name": "Acer saccharum", "kind": "tree", "species": "Acer saccharum", "source": "city_inventory", "tree_height": 8.0, "crown_radius": 2.5, "height_source": "estimated" }, "geometry": { "type": "Point", "coordinates": [ 280820.12, 4159767.46 ] } },
{ "type": "Feature", "properties": { "id": "rva-tree:17151", "name": "Acer rubrum", "kind": "tree", "species": "Acer rubrum", "source": "city_inventory", "tree_height": 13.1, "crown_radius": 5.1, "height_source": "lidar2025" }, "geometry": { "type": "Point", "coordinates": [ 280812.94, 4159770.83 ] } },
{ "type": "Feature", "properties": { "id": "rva-tree:17152", "name": "Betula nigra", "kind": "tree", "species": "Betula nigra", "source": "city_inventory", "tree_height": 13.1, "crown_radius": 5.1, "height_source": "lidar2025" }, "geometry": { "type": "Point", "coordinates": [ 280807.79, 4159773.24 ] } },
{ "type": "Feature", "properties": { "id": "lidar-tree:280842:4159784", "name": null, "kind": "tree", "species": null, "source": "lidar2025", "tree_height": 7.2, "crown_radius": 3.7, "height_source": "lidar2025" }, "geometry": { "type": "Point", "coordinates": [ 280841.5, 4159783.5 ] } },
{ "type": "Feature", "properties": { "id": "lidar-tree:280852:4159790", "name": null, "kind": "tree", "species": null, "source": "lidar2025", "tree_height": 6.0, "crown_radius": 5.0, "height_source": "lidar2025" }, "geometry": { "type": "Point", "coordinates": [ 280851.5, 4159790.5 ] } },
{ "type": "Feature", "properties": { "id": "lidar-tree:280832:4159794", "name": null, "kind": "tree", "species": null, "source": "lidar2025", "tree_height": 26.7, "crown_radius": 6.0, "height_source": "lidar2025" }, "geometry": { "type": "Point", "coordinates": [ 280831.5, 4159794.5 ] } },
{ "type": "Feature", "properties": { "id": "lidar-tree:280818:4159798", "name": null, "kind": "tree", "species": null, "source": "lidar2025", "tree_height": 5.1, "crown_radius": 3.2, "height_source": "lidar2025" }, "geometry": { "type": "Point", "coordinates": [ 280817.5, 4159798.5 ] } },
{ "type": "Feature", "properties": { "id": "lidar-tree:280988:4159792", "name": null, "kind": "tree", "species": null, "source": "lidar2025", "tree_height": 8.0, "crown_radius": 4.8, "height_source": "lidar2025" }, "geometry": { "type": "Point", "coordinates": [ 280988.5, 4159792.5 ] } },
{ "type": "Feature", "properties": { "id": "lidar-tree:280996:4159800", "name": null, "kind": "tree", "species": null, "source": "lidar2025", "tree_height": 15.9, "crown_radius": 6.0, "height_source": "lidar2025" }, "geometry": { "type": "Point", "coordinates": [ 280996.5, 4159800.5 ] } },
{ "type": "Feature", "properties": { "id": "lidar-tree:280992:4159808", "name": null, "kind": "tree", "species": null, "source": "lidar2025", "tree_height": 17.5, "crown_radius": 5.6, "height_source": "lidar2025" }, "geometry": { "type": "Point", "coordinates": [ 280991.5, 4159808.5 ] } },
{ "type": "Feature", "properties": { "id": "lidar-tree:280982:4159808", "name": null, "kind": "tree", "species": null, "source": "lidar2025", "tree_height": 7.4, "crown_radius": 2.6, "height_source": "lidar2025" }, "geometry": { "type": "Point", "coordinates": [ 280982.5, 4159808.5 ] } },
{ "type": "Feature", "properties": { "id": "lidar-tree:280984:4159818", "name": null, "kind": "tree", "species": null, "source": "lidar2025", "tree_height": 4.8, "crown_radius": 2.3, "height_source": "lidar2025" }, "geometry": { "type": "Point", "coordinates": [ 280984.5, 4159818.5 ] } },
{ "type": "Feature", "properties": { "id": "rva-tree:17248", "name": "Cercis canadensis", "kind": "tree", "species": "Cercis canadensis", "source": "city_inventory", "tree_height": 8.0, "crown_radius": 2.5, "height_source": "estimated" }, "geometry": { "type": "Point", "coordinates": [ 280978.18, 4159825.83 ] } },
{ "type": "Feature", "properties": { "id": "rva-tree:17230", "name": "Ulmus alata", "kind": "tree", "species": "Ulmus alata", "source": "city_inventory", "tree_height": 11.3, "crown_radius": 4.2, "height_source": "lidar2025" }, "geometry": { "type": "Point", "coordinates": [ 280907.67, 4159752.48 ] } },
{ "type": "Feature", "properties": { "id": "lidar-tree:280876:4159780", "name": null, "kind": "tree", "species": null, "source": "lidar2025", "tree_height": 6.0, "crown_radius": 5.4, "height_source": "lidar2025" }, "geometry": { "type": "Point", "coordinates": [ 280875.5, 4159779.5 ] } },
{ "type": "Feature", "properties": { "id": "lidar-tree:280882:4159800", "name": null, "kind": "tree", "species": null, "source": "lidar2025", "tree_height": 10.0, "crown_radius": 6.0, "height_source": "lidar2025" }, "geometry": { "type": "Point", "coordinates": [ 280882.5, 4159799.5 ] } },
{ "type": "Feature", "properties": { "id": "lidar-tree:280860:4159802", "name": null, "kind": "tree", "species": null, "source": "lidar2025", "tree_height": 4.0, "crown_radius": 3.2, "height_source": "lidar2025" }, "geometry": { "type": "Point", "coordinates": [ 280860.5, 4159802.5 ] } },
{ "type": "Feature", "properties": { "id": "lidar-tree:280896:4159812", "name": null, "kind": "tree", "species": null, "source": "lidar2025", "tree_height": 14.1, "crown_radius": 5.8, "height_source": "lidar2025" }, "geometry": { "type": "Point", "coordinates": [ 280895.5, 4159812.5 ] } },
{ "type": "Feature", "properties": { "id": "lidar-tree:280890:4159828", "name": null, "kind": "tree", "species": null, "source": "lidar2025", "tree_height": 23.3, "crown_radius": 5.2, "height_source": "lidar2025" }, "geometry": { "type": "Point", "coordinates": [ 280889.5, 4159828.5 ] } },
{ "type": "Feature", "properties": { "id": "lidar-tree:280756:4159760", "name": null, "kind": "tree", "species": null, "source": "lidar2025", "tree_height": 9.8, "crown_radius": 5.8, "height_source": "lidar2025" }, "geometry": { "type": "Point", "coordinates": [ 280756.5, 4159760.5 ] } },
{ "type": "Feature", "properties": { "id": "rva-tree:16957", "name": "Acer saccharum", "kind": "tree", "species": "Acer saccharum", "source": "city_inventory", "tree_height": 15.2, "crown_radius": 6.0, "height_source": "lidar2025" }, "geometry": { "type": "Point", "coordinates": [ 280793.74, 4159763.97 ] } },
{ "type": "Feature", "properties": { "id": "lidar-tree:280762:4159766", "name": null, "kind": "tree", "species": null, "source": "lidar2025", "tree_height": 6.9, "crown_radius": 4.3, "height_source": "lidar2025" }, "geometry": { "type": "Point", "coordinates": [ 280761.5, 4159766.5 ] } },
{ "type": "Feature", "properties": { "id": "lidar-tree:280776:4159766", "name": null, "kind": "tree", "species": null, "source": "lidar2025", "tree_height": 4.5, "crown_radius": 2.0, "height_source": "lidar2025" }, "geometry": { "type": "Point", "coordinates": [ 280776.5, 4159766.5 ] } },
{ "type": "Feature", "properties": { "id": "rva-tree:17153", "name": "Ulmus parvifolia", "kind": "tree", "species": "Ulmus parvifolia", "source": "city_inventory", "tree_height": 10.7, "crown_radius": 6.0, "height_source": "lidar2025" }, "geometry": { "type": "Point", "coordinates": [ 280798.19, 4159777.89 ] } },
{ "type": "Feature", "properties": { "id": "rva-tree:17154", "name": "Ulmus parvifolia", "kind": "tree", "species": "Ulmus parvifolia", "source": "city_inventory", "tree_height": 11.9, "crown_radius": 6.0, "height_source": "lidar2025" }, "geometry": { "type": "Point", "coordinates": [ 280787.33, 4159782.9 ] } },
{ "type": "Feature", "properties": { "id": "rva-tree:17155", "name": "Acer saccharum", "kind": "tree", "species": "Acer saccharum", "source": "city_inventory", "tree_height": 16.6, "crown_radius": 6.0, "height_source": "lidar2025" }, "geometry": { "type": "Point", "coordinates": [ 280778.51, 4159787.2 ] } },
{ "type": "Feature", "properties": { "id": "rva-tree:17157", "name": "Acer saccharum", "kind": "tree", "species": "Acer saccharum", "source": "city_inventory", "tree_height": 14.4, "crown_radius": 6.0, "height_source": "lidar2025" }, "geometry": { "type": "Point", "coordinates": [ 280769.08, 4159791.93 ] } },
{ "type": "Feature", "properties": { "id": "lidar-tree:280792:4159806", "name": null, "kind": "tree", "species": null, "source": "lidar2025", "tree_height": 6.5, "crown_radius": 3.2, "height_source": "lidar2025" }, "geometry": { "type": "Point", "coordinates": [ 280791.5, 4159805.5 ] } },
{ "type": "Feature", "properties": { "id": "rva-tree:62648", "name": "Platanus occidentalis", "kind": "tree", "species": "Platanus occidentalis", "source": "city_inventory", "tree_height": 8.0, "crown_radius": 2.5, "height_source": "estimated" }, "geometry": { "type": "Point", "coordinates": [ 280759.01, 4159814.02 ] } },
{ "type": "Feature", "properties": { "id": "lidar-tree:280932:4159762", "name": null, "kind": "tree", "species": null, "source": "lidar2025", "tree_height": 21.9, "crown_radius": 6.0, "height_source": "lidar2025" }, "geometry": { "type": "Point", "coordinates": [ 280932.5, 4159762.5 ] } },
{ "type": "Feature", "properties": { "id": "lidar-tree:280956:4159766", "name": null, "kind": "tree", "species": null, "source": "lidar2025", "tree_height": 10.8, "crown_radius": 3.4, "height_source": "lidar2025" }, "geometry": { "type": "Point", "coordinates": [ 280956.5, 4159766.5 ] } },
{ "type": "Feature", "properties": { "id": "lidar-tree:280914:4159776", "name": null, "kind": "tree", "species": null, "source": "lidar2025", "tree_height": 4.9, "crown_radius": 2.0, "height_source": "lidar2025" }, "geometry": { "type": "Point", "coordinates": [ 280913.5, 4159775.5 ] } },
{ "type": "Feature", "properties": { "id": "rva-tree:17228", "name": "Quercus palustris", "kind": "tree", "species": "Quercus palustris", "source": "city_inventory", "tree_height": 8.0, "crown_radius": 2.5, "height_source": "estimated" }, "geometry": { "type": "Point", "coordinates": [ 280923.54, 4159785.98 ] } },
{ "type": "Feature", "properties": { "id": "rva-tree:17242", "name": "Carpinus betulus", "kind": "tree", "species": "Carpinus betulus", "source": "city_inventory", "tree_height": 8.0, "crown_radius": 2.5, "height_source": "estimated" }, "geometry": { "type": "Point", "coordinates": [ 280939.84, 4159795.4 ] } },
{ "type": "Feature", "properties": { "id": "rva-tree:17243", "name": "Carpinus betulus", "kind": "tree", "species": "Carpinus betulus", "source": "city_inventory", "tree_height": 8.0, "crown_radius": 2.5, "height_source": "estimated" }, "geometry": { "type": "Point", "coordinates": [ 280943.98, 4159804.37 ] } },
{ "type": "Feature", "properties": { "id": "lidar-tree:280922:4159810", "name": null, "kind": "tree", "species": null, "source": "lidar2025", "tree_height": 8.1, "crown_radius": 5.8, "height_source": "lidar2025" }, "geometry": { "type": "Point", "coordinates": [ 280921.5, 4159809.5 ] } },
{ "type": "Feature", "properties": { "id": "rva-tree:17244", "name": "Magnolia x soulangiana", "kind": "tree", "species": "Magnolia x soulangiana", "source": "city_inventory", "tree_height": 8.0, "crown_radius": 2.5, "height_source": "estimated" }, "geometry": { "type": "Point", "coordinates": [ 280948.25, 4159813.13 ] } },
{ "type": "Feature", "properties": { "id": "lidar-tree:280920:4159818", "name": null, "kind": "tree", "species": null, "source": "lidar2025", "tree_height": 5.6, "crown_radius": 5.0, "height_source": "lidar2025" }, "geometry": { "type": "Point", "coordinates": [ 280919.5, 4159817.5 ] } },
{ "type": "Feature", "properties": { "id": "lidar-tree:280936:4159820", "name": null, "kind": "tree", "species": null, "source": "lidar2025", "tree_height": 8.0, "crown_radius": 4.1, "height_source": "lidar2025" }, "geometry": { "type": "Point", "coordinates": [ 280935.5, 4159819.5 ] } },
{ "type": "Feature", "properties": { "id": "lidar-tree:280812:4159806", "name": null, "kind": "tree", "species": null, "source": "lidar2025", "tree_height": 9.0, "crown_radius": 3.7, "height_source": "lidar2025" }, "geometry": { "type": "Point", "coordinates": [ 280811.5, 4159805.5 ] } },
{ "type": "Feature", "properties": { "id": "lidar-tree:280830:4159806", "name": null, "kind": "tree", "species": null, "source": "lidar2025", "tree_height": 23.1, "crown_radius": 5.4, "height_source": "lidar2025" }, "geometry": { "type": "Point", "coordinates": [ 280830.5, 4159806.5 ] } },
{ "type": "Feature", "properties": { "id": "lidar-tree:280820:4159808", "name": null, "kind": "tree", "species": null, "source": "lidar2025", "tree_height": 5.5, "crown_radius": 4.7, "height_source": "lidar2025" }, "geometry": { "type": "Point", "coordinates": [ 280819.5, 4159807.5 ] } },
{ "type": "Feature", "properties": { "id": "lidar-tree:280840:4159810", "name": null, "kind": "tree", "species": null, "source": "lidar2025", "tree_height": 26.7, "crown_radius": 6.0, "height_source": "lidar2025" }, "geometry": { "type": "Point", "coordinates": [ 280839.5, 4159809.5 ] } },
{ "type": "Feature", "properties": { "id": "lidar-tree:280814:4159814", "name": null, "kind": "tree", "species": null, "source": "lidar2025", "tree_height": 7.1, "crown_radius": 4.8, "height_source": "lidar2025" }, "geometry": { "type": "Point", "coordinates": [ 280814.5, 4159813.5 ] } },
{ "type": "Feature", "properties": { "id": "lidar-tree:280848:4159822", "name": null, "kind": "tree", "species": null, "source": "lidar2025", "tree_height": 3.9, "crown_radius": 3.0, "height_source": "lidar2025" }, "geometry": { "type": "Point", "coordinates": [ 280847.5, 4159821.5 ] } },
{ "type": "Feature", "properties": { "id": "lidar-tree:280816:4159828", "name": null, "kind": "tree", "species": null, "source": "lidar2025", "tree_height": 7.1, "crown_radius": 5.9, "height_source": "lidar2025" }, "geometry": { "type": "Point", "coordinates": [ 280815.5, 4159827.5 ] } },
{ "type": "Feature", "properties": { "id": "lidar-tree:280854:4159834", "name": null, "kind": "tree", "species": null, "source": "lidar2025", "tree_height": 6.4, "crown_radius": 4.4, "height_source": "lidar2025" }, "geometry": { "type": "Point", "coordinates": [ 280854.5, 4159834.5 ] } },
{ "type": "Feature", "properties": { "id": "lidar-tree:280844:4159838", "name": null, "kind": "tree", "species": null, "source": "lidar2025", "tree_height": 18.0, "crown_radius": 6.0, "height_source": "lidar2025" }, "geometry": { "type": "Point", "coordinates": [ 280843.5, 4159837.5 ] } },
{ "type": "Feature", "properties": { "id": "lidar-tree:280826:4159842", "name": null, "kind": "tree", "species": null, "source": "lidar2025", "tree_height": 8.3, "crown_radius": 4.8, "height_source": "lidar2025" }, "geometry": { "type": "Point", "coordinates": [ 280825.5, 4159841.5 ] } },
{ "type": "Feature", "properties": { "id": "lidar-tree:280954:4159824", "name": null, "kind": "tree", "species": null, "source": "lidar2025", "tree_height": 26.5, "crown_radius": 6.0, "height_source": "lidar2025" }, "geometry": { "type": "Point", "coordinates": [ 280954.5, 4159823.5 ] } },
{ "type": "Feature", "properties": { "id": "rva-tree:17222", "name": "Celtis laevigata", "kind": "tree", "species": "Celtis laevigata", "source": "city_inventory", "tree_height": 5.3, "crown_radius": 3.8, "height_source": "lidar2025" }, "geometry": { "type": "Point", "coordinates": [ 280945.42, 4159831.25 ] } },
{ "type": "Feature", "properties": { "id": "rva-tree:17223", "name": "Ulmus americana", "kind": "tree", "species": "Ulmus americana", "source": "city_inventory", "tree_height": 5.3, "crown_radius": 3.8, "height_source": "lidar2025" }, "geometry": { "type": "Point", "coordinates": [ 280944.73, 4159831.35 ] } },
{ "type": "Feature", "properties": { "id": "lidar-tree:280942:4159836", "name": null, "kind": "tree", "species": null, "source": "lidar2025", "tree_height": 5.3, "crown_radius": 3.8, "height_source": "lidar2025" }, "geometry": { "type": "Point", "coordinates": [ 280941.5, 4159836.5 ] } },
{ "type": "Feature", "properties": { "id": "rva-tree:17220", "name": "Ulmus parvifolia", "kind": "tree", "species": "Ulmus parvifolia", "source": "city_inventory", "tree_height": 10.1, "crown_radius": 5.8, "height_source": "lidar2025" }, "geometry": { "type": "Point", "coordinates": [ 280935.91, 4159846.2 ] } },
{ "type": "Feature", "properties": { "id": "rva-tree:17217", "name": "Zelkova serrata", "kind": "tree", "species": "Zelkova serrata", "source": "city_inventory", "tree_height": 8.0, "crown_radius": 2.5, "height_source": "estimated" }, "geometry": { "type": "Point", "coordinates": [ 280916.0, 4159855.77 ] } },
{ "type": "Feature", "properties": { "id": "rva-tree:17376", "name": "Ulmus americana", "kind": "tree", "species": "Ulmus americana", "source": "city_inventory", "tree_height": 8.0, "crown_radius": 2.5, "height_source": "estimated" }, "geometry": { "type": "Point", "coordinates": [ 280949.36, 4159856.29 ] } },
{ "type": "Feature", "properties": { "id": "lidar-tree:280938:4159862", "name": null, "kind": "tree", "species": null, "source": "lidar2025", "tree_height": 8.0, "crown_radius": 4.4, "height_source": "lidar2025" }, "geometry": { "type": "Point", "coordinates": [ 280938.5, 4159861.5 ] } },
{ "type": "Feature", "properties": { "id": "rva-tree:17379", "name": "Acer saccharum", "kind": "tree", "species": "Acer saccharum", "source": "city_inventory", "tree_height": 11.6, "crown_radius": 5.0, "height_source": "lidar2025" }, "geometry": { "type": "Point", "coordinates": [ 280925.17, 4159867.68 ] } },
{ "type": "Feature", "properties": { "id": "rva-tree:26702", "name": "Zelkova serrata", "kind": "tree", "species": "Zelkova serrata", "source": "city_inventory", "tree_height": 16.7, "crown_radius": 6.0, "height_source": "lidar2025" }, "geometry": { "type": "Point", "coordinates": [ 280964.57, 4159871.63 ] } },
{ "type": "Feature", "properties": { "id": "lidar-tree:280860:4159830", "name": null, "kind": "tree", "species": null, "source": "lidar2025", "tree_height": 5.2, "crown_radius": 4.2, "height_source": "lidar2025" }, "geometry": { "type": "Point", "coordinates": [ 280859.5, 4159830.5 ] } },
{ "type": "Feature", "properties": { "id": "lidar-tree:280894:4159838", "name": null, "kind": "tree", "species": null, "source": "lidar2025", "tree_height": 15.4, "crown_radius": 6.0, "height_source": "lidar2025" }, "geometry": { "type": "Point", "coordinates": [ 280893.5, 4159837.5 ] } },
{ "type": "Feature", "properties": { "id": "lidar-tree:280876:4159840", "name": null, "kind": "tree", "species": null, "source": "lidar2025", "tree_height": 5.2, "crown_radius": 3.3, "height_source": "lidar2025" }, "geometry": { "type": "Point", "coordinates": [ 280876.5, 4159840.5 ] } },
{ "type": "Feature", "properties": { "id": "rva-tree:17215", "name": "Lagerstroemia indica", "kind": "tree", "species": "Lagerstroemia indica", "source": "city_inventory", "tree_height": 16.7, "crown_radius": 6.0, "height_source": "lidar2025" }, "geometry": { "type": "Point", "coordinates": [ 280903.62, 4159861.68 ] } },
{ "type": "Feature", "properties": { "id": "rva-tree:17214", "name": "Lagerstroemia indica", "kind": "tree", "species": "Lagerstroemia indica", "source": "city_inventory", "tree_height": 16.7, "crown_radius": 6.0, "height_source": "lidar2025" }, "geometry": { "type": "Point", "coordinates": [ 280899.99, 4159863.28 ] } },
{ "type": "Feature", "properties": { "id": "rva-tree:17213", "name": "Ulmus alata", "kind": "tree", "species": "Ulmus alata", "source": "city_inventory", "tree_height": 16.7, "crown_radius": 6.0, "height_source": "lidar2025" }, "geometry": { "type": "Point", "coordinates": [ 280896.7, 4159865.47 ] } },
{ "type": "Feature", "properties": { "id": "osm:node/13608497793", "name": null, "kind": "streetlight", "species": null, "source": null, "tree_height": null, "crown_radius": null, "height_source": null }, "geometry": { "type": "Point", "coordinates": [ 280892.26, 4159866.52 ] } },
{ "type": "Feature", "properties": { "id": "rva-tree:17210", "name": "Zelkova serrata", "kind": "tree", "species": "Zelkova serrata", "source": "city_inventory", "tree_height": 8.0, "crown_radius": 2.5, "height_source": "estimated" }, "geometry": { "type": "Point", "coordinates": [ 280874.49, 4159875.44 ] } },
{ "type": "Feature", "properties": { "id": "rva-tree:17382", "name": "Oxydendrum arboreum", "kind": "tree", "species": "Oxydendrum arboreum", "source": "city_inventory", "tree_height": 8.0, "crown_radius": 2.5, "height_source": "estimated" }, "geometry": { "type": "Point", "coordinates": [ 280901.17, 4159879.17 ] } },
{ "type": "Feature", "properties": { "id": "rva-tree:17209", "name": "Ulmus americana", "kind": "tree", "species": "Ulmus americana", "source": "city_inventory", "tree_height": 20.4, "crown_radius": 6.0, "height_source": "lidar2025" }, "geometry": { "type": "Point", "coordinates": [ 280864.76, 4159880.33 ] } },
{ "type": "Feature", "properties": { "id": "lidar-tree:280814:4159848", "name": null, "kind": "tree", "species": null, "source": "lidar2025", "tree_height": 4.3, "crown_radius": 3.5, "height_source": "lidar2025" }, "geometry": { "type": "Point", "coordinates": [ 280814.5, 4159848.5 ] } },
{ "type": "Feature", "properties": { "id": "lidar-tree:280856:4159856", "name": null, "kind": "tree", "species": null, "source": "lidar2025", "tree_height": 8.6, "crown_radius": 5.5, "height_source": "lidar2025" }, "geometry": { "type": "Point", "coordinates": [ 280855.5, 4159855.5 ] } },
{ "type": "Feature", "properties": { "id": "lidar-tree:280830:4159860", "name": null, "kind": "tree", "species": null, "source": "lidar2025", "tree_height": 16.9, "crown_radius": 6.0, "height_source": "lidar2025" }, "geometry": { "type": "Point", "coordinates": [ 280830.5, 4159860.5 ] } },
{ "type": "Feature", "properties": { "id": "lidar-tree:280850:4159862", "name": null, "kind": "tree", "species": null, "source": "lidar2025", "tree_height": 6.6, "crown_radius": 4.4, "height_source": "lidar2025" }, "geometry": { "type": "Point", "coordinates": [ 280849.5, 4159862.5 ] } },
{ "type": "Feature", "properties": { "id": "lidar-tree:280836:4159878", "name": null, "kind": "tree", "species": null, "source": "lidar2025", "tree_height": 5.4, "crown_radius": 2.0, "height_source": "lidar2025" }, "geometry": { "type": "Point", "coordinates": [ 280836.5, 4159877.5 ] } },
{ "type": "Feature", "properties": { "id": "lidar-tree:280822:4159878", "name": null, "kind": "tree", "species": null, "source": "lidar2025", "tree_height": 15.3, "crown_radius": 6.0, "height_source": "lidar2025" }, "geometry": { "type": "Point", "coordinates": [ 280822.5, 4159878.5 ] } },
{ "type": "Feature", "properties": { "id": "rva-tree:17208", "name": "Zelkova serrata", "kind": "tree", "species": "Zelkova serrata", "source": "city_inventory", "tree_height": 7.0, "crown_radius": 5.5, "height_source": "lidar2025" }, "geometry": { "type": "Point", "coordinates": [ 280854.8, 4159884.93 ] } },
{ "type": "Feature", "properties": { "id": "rva-tree:17207", "name": "Acer campestre", "kind": "tree", "species": "Acer campestre", "source": "city_inventory", "tree_height": 7.1, "crown_radius": 5.7, "height_source": "lidar2025" }, "geometry": { "type": "Point", "coordinates": [ 280845.6, 4159889.57 ] } },
{ "type": "Feature", "properties": { "id": "rva-tree:17205", "name": "Zelkova serrata", "kind": "tree", "species": "Zelkova serrata", "source": "city_inventory", "tree_height": 10.0, "crown_radius": 5.4, "height_source": "lidar2025" }, "geometry": { "type": "Point", "coordinates": [ 280836.31, 4159893.91 ] } },
{ "type": "Feature", "properties": { "id": "lidar-tree:280810:4159894", "name": null, "kind": "tree", "species": null, "source": "lidar2025", "tree_height": 20.1, "crown_radius": 6.0, "height_source": "lidar2025" }, "geometry": { "type": "Point", "coordinates": [ 280809.5, 4159894.5 ] } },
{ "type": "Feature", "properties": { "id": "rva-tree:17383", "name": "Zelkova serrata", "kind": "tree", "species": "Zelkova serrata", "source": "city_inventory", "tree_height": 8.0, "crown_radius": 2.5, "height_source": "estimated" }, "geometry": { "type": "Point", "coordinates": [ 280895.14, 4159882.03 ] } },
{ "type": "Feature", "properties": { "id": "rva-tree:61842", "name": "Liquidambar styraciflua", "kind": "tree", "species": "Liquidambar styraciflua", "source": "city_inventory", "tree_height": 8.0, "crown_radius": 2.5, "height_source": "estimated" }, "geometry": { "type": "Point", "coordinates": [ 280881.69, 4159888.41 ] } },
{ "type": "Feature", "properties": { "id": "lidar-tree:280892:4159890", "name": null, "kind": "tree", "species": null, "source": "lidar2025", "tree_height": 5.4, "crown_radius": 3.6, "height_source": "lidar2025" }, "geometry": { "type": "Point", "coordinates": [ 280892.5, 4159889.5 ] } },
{ "type": "Feature", "properties": { "id": "rva-tree:61845", "name": "Acer saccharinum", "kind": "tree", "species": "Acer saccharinum", "source": "city_inventory", "tree_height": 19.8, "crown_radius": 6.0, "height_source": "lidar2025" }, "geometry": { "type": "Point", "coordinates": [ 280874.72, 4159891.9 ] } },
{ "type": "Feature", "properties": { "id": "rva-tree:17385", "name": "Acer rubrum", "kind": "tree", "species": "Acer rubrum", "source": "city_inventory", "tree_height": 8.0, "crown_radius": 2.5, "height_source": "estimated" }, "geometry": { "type": "Point", "coordinates": [ 280865.45, 4159896.49 ] } },
{ "type": "Feature", "properties": { "id": "rva-tree:17386", "name": "Taxodium distichum", "kind": "tree", "species": "Taxodium distichum", "source": "city_inventory", "tree_height": 14.6, "crown_radius": 5.3, "height_source": "lidar2025" }, "geometry": { "type": "Point", "coordinates": [ 280859.01, 4159899.33 ] } },
{ "type": "Feature", "properties": { "id": "lidar-tree:280910:4159912", "name": null, "kind": "tree", "species": null, "source": "lidar2025", "tree_height": 13.3, "crown_radius": 6.0, "height_source": "lidar2025" }, "geometry": { "type": "Point", "coordinates": [ 280909.5, 4159912.5 ] } },
{ "type": "Feature", "properties": { "id": "lidar-tree:280882:4159928", "name": null, "kind": "tree", "species": null, "source": "lidar2025", "tree_height": 8.3, "crown_radius": 5.2, "height_source": "lidar2025" }, "geometry": { "type": "Point", "coordinates": [ 280881.5, 4159928.5 ] } },
{ "type": "Feature", "properties": { "id": "lidar-tree:280856:4159944", "name": null, "kind": "tree", "species": null, "source": "lidar2025", "tree_height": 26.6, "crown_radius": 6.0, "height_source": "lidar2025" }, "geometry": { "type": "Point", "coordinates": [ 280856.5, 4159943.5 ] } },
{ "type": "Feature", "properties": { "id": "lidar-tree:280874:4159954", "name": null, "kind": "tree", "species": null, "source": "lidar2025", "tree_height": 28.1, "crown_radius": 6.0, "height_source": "lidar2025" }, "geometry": { "type": "Point", "coordinates": [ 280874.5, 4159954.5 ] } },
{ "type": "Feature", "properties": { "id": "osm:node/13608497794", "name": null, "kind": "streetlight", "species": null, "source": null, "tree_height": null, "crown_radius": null, "height_source": null }, "geometry": { "type": "Point", "coordinates": [ 280830.64, 4159896.21 ] } },
{ "type": "Feature", "properties": { "id": "rva-tree:17204", "name": "Zelkova serrata", "kind": "tree", "species": "Zelkova serrata", "source": "city_inventory", "tree_height": 22.7, "crown_radius": 6.0, "height_source": "lidar2025" }, "geometry": { "type": "Point", "coordinates": [ 280827.03, 4159898.33 ] } },
{ "type": "Feature", "properties": { "id": "lidar-tree:280820:4159900", "name": null, "kind": "tree", "species": null, "source": "lidar2025", "tree_height": 22.7, "crown_radius": 6.0, "height_source": "lidar2025" }, "geometry": { "type": "Point", "coordinates": [ 280820.5, 4159900.5 ] } },
{ "type": "Feature", "properties": { "id": "rva-tree:17388", "name": "Zelkova serrata", "kind": "tree", "species": "Zelkova serrata", "source": "city_inventory", "tree_height": 9.2, "crown_radius": 5.8, "height_source": "lidar2025" }, "geometry": { "type": "Point", "coordinates": [ 280847.87, 4159904.76 ] } },
{ "type": "Feature", "properties": { "id": "lidar-tree:280814:4159906", "name": null, "kind": "tree", "species": null, "source": "lidar2025", "tree_height": 21.6, "crown_radius": 6.0, "height_source": "lidar2025" }, "geometry": { "type": "Point", "coordinates": [ 280813.5, 4159906.5 ] } },
{ "type": "Feature", "properties": { "id": "rva-tree:17389", "name": "Liquidambar styraciflua", "kind": "tree", "species": "Liquidambar styraciflua", "source": "city_inventory", "tree_height": 8.0, "crown_radius": 2.5, "height_source": "estimated" }, "geometry": { "type": "Point", "coordinates": [ 280840.7, 4159908.08 ] } },
{ "type": "Feature", "properties": { "id": "rva-tree:17390", "name": "Zelkova serrata", "kind": "tree", "species": "Zelkova serrata", "source": "city_inventory", "tree_height": 8.0, "crown_radius": 2.5, "height_source": "estimated" }, "geometry": { "type": "Point", "coordinates": [ 280832.45, 4159912.03 ] } },
{ "type": "Feature", "properties": { "id": "rva-tree:17391", "name": "Zelkova serrata", "kind": "tree", "species": "Zelkova serrata", "source": "city_inventory", "tree_height": 11.4, "crown_radius": 5.4, "height_source": "lidar2025" }, "geometry": { "type": "Point", "coordinates": [ 280823.35, 4159916.35 ] } },
{ "type": "Feature", "properties": { "id": "lidar-tree:280840:4159916", "name": null, "kind": "tree", "species": null, "source": "lidar2025", "tree_height": 6.3, "crown_radius": 3.6, "height_source": "lidar2025" }, "geometry": { "type": "Point", "coordinates": [ 280839.5, 4159916.5 ] } },
{ "type": "Feature", "properties": { "id": "lidar-tree:280806:4159940", "name": null, "kind": "tree", "species": null, "source": "lidar2025", "tree_height": 29.0, "crown_radius": 6.0, "height_source": "lidar2025" }, "geometry": { "type": "Point", "coordinates": [ 280806.5, 4159940.5 ] } },
{ "type": "Feature", "properties": { "id": "lidar-tree:280838:4159964", "name": null, "kind": "tree", "species": null, "source": "lidar2025", "tree_height": 23.6, "crown_radius": 6.0, "height_source": "lidar2025" }, "geometry": { "type": "Point", "coordinates": [ 280838.5, 4159964.5 ] } },
{ "type": "Feature", "properties": { "id": "rva-tree:26676", "name": "Cornus kousa", "kind": "tree", "species": "Cornus kousa", "source": "city_inventory", "tree_height": 8.0, "crown_radius": 2.5, "height_source": "estimated" }, "geometry": { "type": "Point", "coordinates": [ 280836.22, 4159981.62 ] } },
{ "type": "Feature", "properties": { "id": "lidar-tree:280850:4159986", "name": null, "kind": "tree", "species": null, "source": "lidar2025", "tree_height": 21.4, "crown_radius": 6.0, "height_source": "lidar2025" }, "geometry": { "type": "Point", "coordinates": [ 280850.5, 4159986.5 ] } },
{ "type": "Feature", "properties": { "id": "lidar-tree:280820:4159990", "name": null, "kind": "tree", "species": null, "source": "lidar2025", "tree_height": 19.6, "crown_radius": 5.9, "height_source": "lidar2025" }, "geometry": { "type": "Point", "coordinates": [ 280819.5, 4159989.5 ] } },
{ "type": "Feature", "properties": { "id": "rva-tree:65728", "name": "Ginkgo biloba", "kind": "tree", "species": "Ginkgo biloba", "source": "city_inventory", "tree_height": 8.0, "crown_radius": 2.5, "height_source": "estimated" }, "geometry": { "type": "Point", "coordinates": [ 280840.13, 4159990.05 ] } },
{ "type": "Feature", "properties": { "id": "lidar-tree:280996:4159840", "name": null, "kind": "tree", "species": null, "source": "lidar2025", "tree_height": 5.5, "crown_radius": 3.7, "height_source": "lidar2025" }, "geometry": { "type": "Point", "coordinates": [ 280996.5, 4159840.5 ] } },
{ "type": "Feature", "properties": { "id": "lidar-tree:280982:4159842", "name": null, "kind": "tree", "species": null, "source": "lidar2025", "tree_height": 4.4, "crown_radius": 2.5, "height_source": "lidar2025" }, "geometry": { "type": "Point", "coordinates": [ 280982.5, 4159841.5 ] } },
{ "type": "Feature", "properties": { "id": "lidar-tree:280974:4159852", "name": null, "kind": "tree", "species": null, "source": "lidar2025", "tree_height": 4.8, "crown_radius": 3.3, "height_source": "lidar2025" }, "geometry": { "type": "Point", "coordinates": [ 280973.5, 4159851.5 ] } },
{ "type": "Feature", "properties": { "id": "rva-tree:26705", "name": "Ulmus alata", "kind": "tree", "species": "Ulmus alata", "source": "city_inventory", "tree_height": 8.0, "crown_radius": 2.5, "height_source": "estimated" }, "geometry": { "type": "Point", "coordinates": [ 280977.57, 4159873.87 ] } },
{ "type": "Feature", "properties": { "id": "lidar-tree:280994:4159884", "name": null, "kind": "tree", "species": null, "source": "lidar2025", "tree_height": 8.8, "crown_radius": 5.0, "height_source": "lidar2025" }, "geometry": { "type": "Point", "coordinates": [ 280993.5, 4159884.5 ] } },
{ "type": "Feature", "properties": { "id": "rva-tree:26706", "name": "Ulmus alata", "kind": "tree", "species": "Ulmus alata", "source": "city_inventory", "tree_height": 8.0, "crown_radius": 2.5, "height_source": "estimated" }, "geometry": { "type": "Point", "coordinates": [ 280982.93, 4159885.24 ] } },
{ "type": "Feature", "properties": { "id": "rva-tree:26701", "name": "Ulmus alata", "kind": "tree", "species": "Ulmus alata", "source": "city_inventory", "tree_height": 16.5, "crown_radius": 6.0, "height_source": "lidar2025" }, "geometry": { "type": "Point", "coordinates": [ 280971.14, 4159886.65 ] } },
{ "type": "Feature", "properties": { "id": "rva-tree:26707", "name": "Nyssa sylvatica", "kind": "tree", "species": "Nyssa sylvatica", "source": "city_inventory", "tree_height": 8.0, "crown_radius": 2.5, "height_source": "estimated" }, "geometry": { "type": "Point", "coordinates": [ 280986.25, 4159892.7 ] } },
{ "type": "Feature", "properties": { "id": "rva-tree:26700", "name": "Acer saccharum", "kind": "tree", "species": "Acer saccharum", "source": "city_inventory", "tree_height": 11.1, "crown_radius": 4.5, "height_source": "lidar2025" }, "geometry": { "type": "Point", "coordinates": [ 280976.03, 4159896.2 ] } },
{ "type": "Feature", "properties": { "id": "lidar-tree:280938:4159886", "name": null, "kind": "tree", "species": null, "source": "lidar2025", "tree_height": 5.1, "crown_radius": 3.5, "height_source": "lidar2025" }, "geometry": { "type": "Point", "coordinates": [ 280938.5, 4159885.5 ] } },
{ "type": "Feature", "properties": { "id": "lidar-tree:280950:4159894", "name": null, "kind": "tree", "species": null, "source": "lidar2025", "tree_height": 11.5, "crown_radius": 5.6, "height_source": "lidar2025" }, "geometry": { "type": "Point", "coordinates": [ 280949.5, 4159893.5 ] } },
{ "type": "Feature", "properties": { "id": "lidar-tree:280942:4159898", "name": null, "kind": "tree", "species": null, "source": "lidar2025", "tree_height": 5.0, "crown_radius": 3.3, "height_source": "lidar2025" }, "geometry": { "type": "Point", "coordinates": [ 280941.5, 4159898.5 ] } },
{ "type": "Feature", "properties": { "id": "lidar-tree:280926:4159904", "name": null, "kind": "tree", "species": null, "source": "lidar2025", "tree_height": 16.5, "crown_radius": 6.0, "height_source": "lidar2025" }, "geometry": { "type": "Point", "coordinates": [ 280926.5, 4159904.5 ] } },
{ "type": "Feature", "properties": { "id": "lidar-tree:280948:4159910", "name": null, "kind": "tree", "species": null, "source": "lidar2025", "tree_height": 8.7, "crown_radius": 6.0, "height_source": "lidar2025" }, "geometry": { "type": "Point", "coordinates": [ 280948.5, 4159910.5 ] } },
{ "type": "Feature", "properties": { "id": "lidar-tree:280964:4159918", "name": null, "kind": "tree", "species": null, "source": "lidar2025", "tree_height": 9.3, "crown_radius": 3.9, "height_source": "lidar2025" }, "geometry": { "type": "Point", "coordinates": [ 280963.5, 4159917.5 ] } },
{ "type": "Feature", "properties": { "id": "lidar-tree:280952:4159924", "name": null, "kind": "tree", "species": null, "source": "lidar2025", "tree_height": 8.7, "crown_radius": 6.0, "height_source": "lidar2025" }, "geometry": { "type": "Point", "coordinates": [ 280952.5, 4159923.5 ] } },
{ "type": "Feature", "properties": { "id": "lidar-tree:280958:4159932", "name": null, "kind": "tree", "species": null, "source": "lidar2025", "tree_height": 9.8, "crown_radius": 5.2, "height_source": "lidar2025" }, "geometry": { "type": "Point", "coordinates": [ 280958.5, 4159931.5 ] } },
{ "type": "Feature", "properties": { "id": "lidar-tree:280960:4159954", "name": null, "kind": "tree", "species": null, "source": "lidar2025", "tree_height": 23.5, "crown_radius": 6.0, "height_source": "lidar2025" }, "geometry": { "type": "Point", "coordinates": [ 280960.5, 4159953.5 ] } },
{ "type": "Feature", "properties": { "id": "lidar-tree:280950:4159954", "name": null, "kind": "tree", "species": null, "source": "lidar2025", "tree_height": 23.7, "crown_radius": 6.0, "height_source": "lidar2025" }, "geometry": { "type": "Point", "coordinates": [ 280950.5, 4159953.5 ] } },
{ "type": "Feature", "properties": { "id": "lidar-tree:280998:4159902", "name": null, "kind": "tree", "species": null, "source": "lidar2025", "tree_height": 27.0, "crown_radius": 6.0, "height_source": "lidar2025" }, "geometry": { "type": "Point", "coordinates": [ 280997.5, 4159901.5 ] } },
{ "type": "Feature", "properties": { "id": "rva-tree:26708", "name": "Aesculus hippocastanum", "kind": "tree", "species": "Aesculus hippocastanum", "source": "city_inventory", "tree_height": 27.0, "crown_radius": 6.0, "height_source": "lidar2025" }, "geometry": { "type": "Point", "coordinates": [ 280990.87, 4159901.65 ] } },
{ "type": "Feature", "properties": { "id": "rva-tree:26709", "name": "Carpinus betulus", "kind": "tree", "species": "Carpinus betulus", "source": "city_inventory", "tree_height": 8.0, "crown_radius": 2.5, "height_source": "estimated" }, "geometry": { "type": "Point", "coordinates": [ 280993.85, 4159909.22 ] } },
{ "type": "Feature", "properties": { "id": "lidar-tree:280978:4159912", "name": null, "kind": "tree", "species": null, "source": "lidar2025", "tree_height": 6.2, "crown_radius": 4.0, "height_source": "lidar2025" }, "geometry": { "type": "Point", "coordinates": [ 280978.5, 4159911.5 ] } },
{ "type": "Feature", "properties": { "id": "rva-tree:26697", "name": "Acer saccharum", "kind": "tree", "species": "Acer saccharum", "source": "city_inventory", "tree_height": 8.0, "crown_radius": 2.5, "height_source": "estimated" }, "geometry": { "type": "Point", "coordinates": [ 280986.38, 4159918.35 ] } },
{ "type": "Feature", "properties": { "id": "lidar-tree:280984:4159938", "name": null, "kind": "tree", "species": null, "source": "lidar2025", "tree_height": 25.7, "crown_radius": 6.0, "height_source": "lidar2025" }, "geometry": { "type": "Point", "coordinates": [ 280983.5, 4159938.5 ] } },
{ "type": "Feature", "properties": { "id": "lidar-tree:280992:4159942", "name": null, "kind": "tree", "species": null, "source": "lidar2025", "tree_height": 24.7, "crown_radius": 6.0, "height_source": "lidar2025" }, "geometry": { "type": "Point", "coordinates": [ 280991.5, 4159942.5 ] } },
{ "type": "Feature", "properties": { "id": "rva-tree:26695", "name": "Acer campestre", "kind": "tree", "species": "Acer campestre", "source": "city_inventory", "tree_height": 24.7, "crown_radius": 6.0, "height_source": "lidar2025" }, "geometry": { "type": "Point", "coordinates": [ 280997.96, 4159942.61 ] } },
{ "type": "Feature", "properties": { "id": "rva-tree:26693", "name": "Acer saccharum", "kind": "tree", "species": "Acer saccharum", "source": "city_inventory", "tree_height": 13.8, "crown_radius": 5.3, "height_source": "lidar2025" }, "geometry": { "type": "Point", "coordinates": [ 280992.73, 4159969.74 ] } },
{ "type": "Feature", "properties": { "id": "rva-tree:26692", "name": "Acer rubrum", "kind": "tree", "species": "Acer rubrum", "source": "city_inventory", "tree_height": 8.0, "crown_radius": 2.5, "height_source": "estimated" }, "geometry": { "type": "Point", "coordinates": [ 280984.59, 4159973.49 ] } },
{ "type": "Feature", "properties": { "id": "rva-tree:26691", "name": "Acer rubrum", "kind": "tree", "species": "Acer rubrum", "source": "city_inventory", "tree_height": 11.4, "crown_radius": 4.7, "height_source": "lidar2025" }, "geometry": { "type": "Point", "coordinates": [ 280977.6, 4159977.09 ] } },
{ "type": "Feature", "properties": { "id": "rva-tree:26690", "name": "Unknown tree", "kind": "tree", "species": "Unknown tree", "source": "city_inventory", "tree_height": 5.6, "crown_radius": 3.8, "height_source": "lidar2025" }, "geometry": { "type": "Point", "coordinates": [ 280971.17, 4159980.12 ] } },
{ "type": "Feature", "properties": { "id": "lidar-tree:280918:4159962", "name": null, "kind": "tree", "species": null, "source": "lidar2025", "tree_height": 16.1, "crown_radius": 6.0, "height_source": "lidar2025" }, "geometry": { "type": "Point", "coordinates": [ 280918.5, 4159961.5 ] } },
{ "type": "Feature", "properties": { "id": "lidar-tree:280938:4159964", "name": null, "kind": "tree", "species": null, "source": "lidar2025", "tree_height": 8.4, "crown_radius": 5.3, "height_source": "lidar2025" }, "geometry": { "type": "Point", "coordinates": [ 280938.5, 4159963.5 ] } },
{ "type": "Feature", "properties": { "id": "lidar-tree:280930:4159968", "name": null, "kind": "tree", "species": null, "source": "lidar2025", "tree_height": 4.3, "crown_radius": 3.8, "height_source": "lidar2025" }, "geometry": { "type": "Point", "coordinates": [ 280929.5, 4159967.5 ] } },
{ "type": "Feature", "properties": { "id": "lidar-tree:280960:4159982", "name": null, "kind": "tree", "species": null, "source": "lidar2025", "tree_height": 12.1, "crown_radius": 6.0, "height_source": "lidar2025" }, "geometry": { "type": "Point", "coordinates": [ 280960.5, 4159982.5 ] } },
{ "type": "Feature", "properties": { "id": "rva-tree:26688", "name": "Betula nigra", "kind": "tree", "species": "Betula nigra", "source": "city_inventory", "tree_height": 15.1, "crown_radius": 6.0, "height_source": "lidar2025" }, "geometry": { "type": "Point", "coordinates": [ 280951.16, 4159989.2 ] } },
{ "type": "Feature", "properties": { "id": "rva-tree:26687", "name": "Quercus lyrata", "kind": "tree", "species": "Quercus lyrata", "source": "city_inventory", "tree_height": 14.1, "crown_radius": 5.0, "height_source": "lidar2025" }, "geometry": { "type": "Point", "coordinates": [ 280938.08, 4159995.47 ] } },
{ "type": "Feature", "properties": { "id": "rva-tree:26597", "name": "Acer saccharum", "kind": "tree", "species": "Acer saccharum", "source": "city_inventory", "tree_height": 14.4, "crown_radius": 6.0, "height_source": "lidar2025" }, "geometry": { "type": "Point", "coordinates": [ 280967.81, 4159997.9 ] } },
{ "type": "Feature", "properties": { "id": "rva-tree:26594", "name": "Acer saccharum", "kind": "tree", "species": "Acer saccharum", "source": "city_inventory", "tree_height": 13.3, "crown_radius": 5.4, "height_source": "lidar2025" }, "geometry": { "type": "Point", "coordinates": [ 280991.89, 4159986.52 ] } },
{ "type": "Feature", "properties": { "id": "rva-tree:26595", "name": "Acer saccharum", "kind": "tree", "species": "Acer saccharum", "source": "city_inventory", "tree_height": 13.8, "crown_radius": 5.7, "height_source": "lidar2025" }, "geometry": { "type": "Point", "coordinates": [ 280983.29, 4159990.49 ] } },
{ "type": "Feature", "properties": { "id": "rva-tree:26596", "name": "Acer rubrum", "kind": "tree", "species": "Acer rubrum", "source": "city_inventory", "tree_height": 14.4, "crown_radius": 6.0, "height_source": "lidar2025" }, "geometry": { "type": "Point", "coordinates": [ 280974.59, 4159994.75 ] } },
{ "type": "Feature", "properties": { "id": "lidar-tree:280984:4160000", "name": null, "kind": "tree", "species": null, "source": "lidar2025", "tree_height": 5.9, "crown_radius": 3.4, "height_source": "lidar2025" }, "geometry": { "type": "Point", "coordinates": [ 280984.5, 4159999.5 ] } },
{ "type": "Feature", "properties": { "id": "lidar-tree:280888:4159966", "name": null, "kind": "tree", "species": null, "source": "lidar2025", "tree_height": 31.0, "crown_radius": 6.0, "height_source": "lidar2025" }, "geometry": { "type": "Point", "coordinates": [ 280888.5, 4159965.5 ] } },
{ "type": "Feature", "properties": { "id": "lidar-tree:280882:4159972", "name": null, "kind": "tree", "species": null, "source": "lidar2025", "tree_height": 30.2, "crown_radius": 6.0, "height_source": "lidar2025" }, "geometry": { "type": "Point", "coordinates": [ 280881.5, 4159972.5 ] } },
{ "type": "Feature", "properties": { "id": "lidar-tree:280886:4159984", "name": null, "kind": "tree", "species": null, "source": "lidar2025", "tree_height": 22.5, "crown_radius": 6.0, "height_source": "lidar2025" }, "geometry": { "type": "Point", "coordinates": [ 280885.5, 4159983.5 ] } },
{ "type": "Feature", "properties": { "id": "lidar-tree:280906:4159986", "name": null, "kind": "tree", "species": null, "source": "lidar2025", "tree_height": 5.1, "crown_radius": 2.8, "height_source": "lidar2025" }, "geometry": { "type": "Point", "coordinates": [ 280906.5, 4159986.5 ] } },
{ "type": "Feature", "properties": { "id": "rva-tree:17191", "name": "Acer rubrum", "kind": "tree", "species": "Acer rubrum", "source": "city_inventory", "tree_height": 11.4, "crown_radius": 5.1, "height_source": "lidar2025" }, "geometry": { "type": "Point", "coordinates": [ 280761.54, 4159929.36 ] } },
{ "type": "Feature", "properties": { "id": "rva-tree:17392", "name": "Cladrastis kentukea", "kind": "tree", "species": "Cladrastis kentukea", "source": "city_inventory", "tree_height": 8.0, "crown_radius": 2.5, "height_source": "estimated" }, "geometry": { "type": "Point", "coordinates": [ 280795.99, 4159929.37 ] } },
{ "type": "Feature", "properties": { "id": "rva-tree:17190", "name": "Acer rubrum", "kind": "tree", "species": "Acer rubrum", "source": "city_inventory", "tree_height": 9.6, "crown_radius": 5.1, "height_source": "lidar2025" }, "geometry": { "type": "Point", "coordinates": [ 280754.53, 4159932.92 ] } },
{ "type": "Feature", "properties": { "id": "rva-tree:17393", "name": "Acer saccharum", "kind": "tree", "species": "Acer saccharum", "source": "city_inventory", "tree_height": 12.9, "crown_radius": 5.7, "height_source": "lidar2025" }, "geometry": { "type": "Point", "coordinates": [ 280787.66, 4159933.55 ] } },
{ "type": "Feature", "properties": { "id": "rva-tree:17395", "name": "Acer rubrum", "kind": "tree", "species": "Acer rubrum", "source": "city_inventory", "tree_height": 5.6, "crown_radius": 3.0, "height_source": "lidar2025" }, "geometry": { "type": "Point", "coordinates": [ 280773.08, 4159940.3 ] } },
{ "type": "Feature", "properties": { "id": "rva-tree:17396", "name": "Acer rubrum", "kind": "tree", "species": "Acer rubrum", "source": "city_inventory", "tree_height": 8.1, "crown_radius": 4.4, "height_source": "lidar2025" }, "geometry": { "type": "Point", "coordinates": [ 280762.77, 4159945.07 ] } },
{ "type": "Feature", "properties": { "id": "rva-tree:17397", "name": "Acer rubrum", "kind": "tree", "species": "Acer rubrum", "source": "city_inventory", "tree_height": 13.4, "crown_radius": 5.3, "height_source": "lidar2025" }, "geometry": { "type": "Point", "coordinates": [ 280755.03, 4159948.86 ] } },
{ "type": "Feature", "properties": { "id": "lidar-tree:280754:4159828", "name": null, "kind": "tree", "species": null, "source": "lidar2025", "tree_height": 14.1, "crown_radius": 6.0, "height_source": "lidar2025" }, "geometry": { "type": "Point", "coordinates": [ 280753.5, 4159828.5 ] } },
{ "type": "Feature", "properties": { "id": "lidar-tree:280790:4159830", "name": null, "kind": "tree", "species": null, "source": "lidar2025", "tree_height": 20.7, "crown_radius": 6.0, "height_source": "lidar2025" }, "geometry": { "type": "Point", "coordinates": [ 280789.5, 4159830.5 ] } },
{ "type": "Feature", "properties": { "id": "lidar-tree:280762:4159850", "name": null, "kind": "tree", "species": null, "source": "lidar2025", "tree_height": 23.9, "crown_radius": 6.0, "height_source": "lidar2025" }, "geometry": { "type": "Point", "coordinates": [ 280761.5, 4159850.5 ] } },
{ "type": "Feature", "properties": { "id": "rva-tree:17198", "name": "Cornus florida", "kind": "tree", "species": "Cornus florida", "source": "city_inventory", "tree_height": 7.2, "crown_radius": 3.8, "height_source": "lidar2025" }, "geometry": { "type": "Point", "coordinates": [ 280777.37, 4159853.76 ] } },
{ "type": "Feature", "properties": { "id": "rva-tree:62649", "name": "Pistacia chinensis", "kind": "tree", "species": "Pistacia chinensis", "source": "city_inventory", "tree_height": 5.8, "crown_radius": 3.1, "height_source": "lidar2025" }, "geometry": { "type": "Point", "coordinates": [ 280780.28, 4159860.07 ] } },
{ "type": "Feature", "properties": { "id": "lidar-tree:280756:4159862", "name": null, "kind": "tree", "species": null, "source": "lidar2025", "tree_height": 4.3, "crown_radius": 2.5, "height_source": "lidar2025" }, "geometry": { "type": "Point", "coordinates": [ 280756.5, 4159862.5 ] } },
{ "type": "Feature", "properties": { "id": "rva-tree:17197", "name": "Cornus florida", "kind": "tree", "species": "Cornus florida", "source": "city_inventory", "tree_height": 4.6, "crown_radius": 2.9, "height_source": "lidar2025" }, "geometry": { "type": "Point", "coordinates": [ 280784.1, 4159868.15 ] } },
{ "type": "Feature", "properties": { "id": "rva-tree:17196", "name": "Acer rubrum", "kind": "tree", "species": "Acer rubrum", "source": "city_inventory", "tree_height": 4.6, "crown_radius": 2.9, "height_source": "lidar2025" }, "geometry": { "type": "Point", "coordinates": [ 280786.84, 4159874.23 ] } },
{ "type": "Feature", "properties": { "id": "lidar-tree:280798:4159880", "name": null, "kind": "tree", "species": null, "source": "lidar2025", "tree_height": 6.8, "crown_radius": 4.4, "height_source": "lidar2025" }, "geometry": { "type": "Point", "coordinates": [ 280798.5, 4159879.5 ] } },
{ "type": "Feature", "properties": { "id": "rva-tree:17195", "name": "Cornus florida", "kind": "tree", "species": "Cornus florida", "source": "city_inventory", "tree_height": 7.0, "crown_radius": 3.9, "height_source": "lidar2025" }, "geometry": { "type": "Point", "coordinates": [ 280790.27, 4159881.73 ] } },
{ "type": "Feature", "properties": { "id": "rva-tree:62650", "name": "Pistacia chinensis", "kind": "tree", "species": "Pistacia chinensis", "source": "city_inventory", "tree_height": 8.0, "crown_radius": 2.5, "height_source": "estimated" }, "geometry": { "type": "Point", "coordinates": [ 280793.98, 4159889.94 ] } },
{ "type": "Feature", "properties": { "id": "lidar-tree:280786:4159898", "name": null, "kind": "tree", "species": null, "source": "lidar2025", "tree_height": 6.9, "crown_radius": 4.8, "height_source": "lidar2025" }, "geometry": { "type": "Point", "coordinates": [ 280786.5, 4159897.5 ] } },
{ "type": "Feature", "properties": { "id": "lidar-tree:280768:4159900", "name": null, "kind": "tree", "species": null, "source": "lidar2025", "tree_height": 5.6, "crown_radius": 3.0, "height_source": "lidar2025" }, "geometry": { "type": "Point", "coordinates": [ 280768.5, 4159900.5 ] } },
{ "type": "Feature", "properties": { "id": "rva-tree:17194", "name": "Acer rubrum", "kind": "tree", "species": "Acer rubrum", "source": "city_inventory", "tree_height": 18.1, "crown_radius": 5.6, "height_source": "lidar2025" }, "geometry": { "type": "Point", "coordinates": [ 280799.22, 4159900.96 ] } },
{ "type": "Feature", "properties": { "id": "lidar-tree:280752:4159906", "name": null, "kind": "tree", "species": null, "source": "lidar2025", "tree_height": 28.1, "crown_radius": 6.0, "height_source": "lidar2025" }, "geometry": { "type": "Point", "coordinates": [ 280751.5, 4159905.5 ] } },
{ "type": "Feature", "properties": { "id": "lidar-tree:280800:4159908", "name": null, "kind": "tree", "species": null, "source": "lidar2025", "tree_height": 18.1, "crown_radius": 5.6, "height_source": "lidar2025" }, "geometry": { "type": "Point", "coordinates": [ 280799.5, 4159907.5 ] } },
{ "type": "Feature", "properties": { "id": "lidar-tree:280768:4159908", "name": null, "kind": "tree", "species": null, "source": "lidar2025", "tree_height": 4.8, "crown_radius": 4.4, "height_source": "lidar2025" }, "geometry": { "type": "Point", "coordinates": [ 280768.5, 4159907.5 ] } },
{ "type": "Feature", "properties": { "id": "lidar-tree:280792:4159912", "name": null, "kind": "tree", "species": null, "source": "lidar2025", "tree_height": 5.5, "crown_radius": 2.5, "height_source": "lidar2025" }, "geometry": { "type": "Point", "coordinates": [ 280791.5, 4159911.5 ] } },
{ "type": "Feature", "properties": { "id": "lidar-tree:280766:4159914", "name": null, "kind": "tree", "species": null, "source": "lidar2025", "tree_height": 5.7, "crown_radius": 5.0, "height_source": "lidar2025" }, "geometry": { "type": "Point", "coordinates": [ 280765.5, 4159913.5 ] } },
{ "type": "Feature", "properties": { "id": "lidar-tree:280764:4159922", "name": null, "kind": "tree", "species": null, "source": "lidar2025", "tree_height": 6.3, "crown_radius": 5.0, "height_source": "lidar2025" }, "geometry": { "type": "Point", "coordinates": [ 280764.5, 4159922.5 ] } }
]
}
