{
"type": "FeatureCollection",
"name": "roads",
"crs": { "type": "name", "properties": { "name": "urn:ogc:def:crs:EPSG::32618" } },
"xy_coordinate_resolution": 0.01,
"features": [
{ "type": "Feature", "properties": { "id": "osm:way/304316223", "name": "East Canal Street", "highway": "secondary", "lanes": 2.0, "width": 9.5, "oneway": true, "surface": "asphalt", "footway": null, "sidewalk_left": false, "sidewalk_right": false, "generated_sidewalk": true, "bus_lanes": null, "bus_lane_side": null, "bus_only": false, "sidewalk": false, "bridge": false, "ramp": false, "tunnel": false, "layer": 0, "deck": null }, "geometry": { "type": "LineString", "coordinates": [ [ 284199.31, 4157500.0 ], [ 284194.83, 4157503.64 ], [ 284180.53, 4157514.41 ], [ 284169.64, 4157522.74 ], [ 284139.73, 4157546.47 ], [ 284137.0, 4157548.67 ], [ 284134.17, 4157550.99 ], [ 284130.83, 4157553.72 ] ] } },
{ "type": "Feature", "properties": { "id": "osm:way/1111944748", "name": null, "highway": "footway", "lanes": null, "width": 2.0, "oneway": false, "surface": null, "footway": "sidewalk", "sidewalk_left": false, "sidewalk_right": false, "generated_sidewalk": false, "bus_lanes": null, "bus_lane_side": null, "bus_only": false, "sidewalk": false, "bridge": false, "ramp": false, "tunnel": false, "layer": 0, "deck": null }, "geometry": { "type": "LineString", "coordinates": [ [ 284226.02, 4157500.0 ], [ 284245.41, 4157523.86 ] ] } },
{ "type": "Feature", "properties": { "id": "osm:way/266759721", "name": null, "highway": "service", "lanes": null, "width": 4.5, "oneway": false, "surface": "asphalt", "footway": null, "sidewalk_left": false, "sidewalk_right": false, "generated_sidewalk": false, "bus_lanes": null, "bus_lane_side": null, "bus_only": false, "sidewalk": false, "bridge": false, "ramp": false, "tunnel": false, "layer": 0, "deck": null }, "geometry": { "type": "LineString", "coordinates": [ [ 284245.58, 4157507.49 ], [ 284250.0, 4157503.99 ] ] } },
{ "type": "Feature", "properties": { "id": "osm:way/1111944845", "name": null, "highway": "footway", "lanes": null, "width": 2.0, "oneway": false, "surface": "asphalt", "footway": "crossing", "sidewalk_left": false, "sidewalk_right": false, "generated_sidewalk": false, "bus_lanes": null, "bus_lane_side": null, "bus_only": false, "sidewalk": false, "bridge": false, "ramp": false, "tunnel": false, "layer": 0, "deck": null }, "geometry": { "type": "LineString", "coordinates": [ [ 284207.31, 4157502.78 ], [ 284211.0, 4157500.0 ] ] } },
{ "type": "Feature", "properties": { "id": "osm:way/308294614", "name": null, "highway": "service", "lanes": null, "width": 4.5, "oneway": false, "surface": "asphalt", "footway": null, "sidewalk_left": false, "sidewalk_right": false, "generated_sidewalk": false, "bus_lanes": null, "bus_lane_side": null, "bus_only": false, "sidewalk": false, "bridge": false, "ramp": false, "tunnel": false, "layer": 0, "deck": null }, "geometry": { "type": "LineString", "coordinates": [ [ 284250.0, 4157513.2 ], [ 284245.58, 4157507.49 ], [ 284239.81, 4157500.0 ] ] } },
{ "type": "Feature", "properties": { "id": "osm:way/1200727513", "name": null, "highway": "footway", "lanes": null, "width": 2.0, "oneway": false, "surface": "concrete", "footway": "crossing", "sidewalk_left": false, "sidewalk_right": false, "generated_sidewalk": false, "bus_lanes": null, "bus_lane_side": null, "bus_only": false, "sidewalk": false, "bridge": false, "ramp": false, "tunnel": false, "layer": 0, "deck": null }, "geometry": { "type": "LineString", "coordinates": [ [ 284216.99, 4157514.92 ], [ 284214.75, 4157512.12 ], [ 284213.12, 4157510.06 ] ] } },
{ "type": "Feature", "properties": { "id": "osm:way/266759720", "name": null, "highway": "service", "lanes": null, "width": 4.5, "oneway": false, "surface": "asphalt", "footway": null, "sidewalk_left": false, "sidewalk_right": false, "generated_sidewalk": false, "bus_lanes": null, "bus_lane_side": null, "bus_only": false, "sidewalk": false, "bridge": false, "ramp": false, "tunnel": false, "layer": 0, "deck": null }, "geometry": { "type": "LineString", "coordinates": [ [ 284240.82, 4157531.03 ], [ 284247.24, 4157526.12 ], [ 284250.0, 4157524.01 ] ] } },
{ "type": "Feature", "properties": { "id": "osm:way/1200727515", "name": null, "highway": "footway", "lanes": null, "width": 2.0, "oneway": false, "surface": null, "footway": "crossing", "sidewalk_left": false, "sidewalk_right": false, "generated_sidewalk": false, "bus_lanes": null, "bus_lane_side": null, "bus_only": false, "sidewalk": false, "bridge": false, "ramp": false, "tunnel": false, "layer": 0, "deck": null }, "geometry": { "type": "LineString", "coordinates": [ [ 284245.41, 4157523.86 ], [ 284247.24, 4157526.12 ], [ 284250.0, 4157529.52 ] ] } },
{ "type": "Feature", "properties": { "id": "osm:way/321384755", "name": null, "highway": "service", "lanes": null, "width": 4.5, "oneway": false, "surface": null, "footway": null, "sidewalk_left": false, "sidewalk_right": false, "generated_sidewalk": false, "bus_lanes": null, "bus_lane_side": null, "bus_only": false, "sidewalk": false, "bridge": false, "ramp": false, "tunnel": false, "layer": 0, "deck": null }, "geometry": { "type": "MultiLineString", "coordinates": [ [ [ 284244.62, 4157592.83 ], [ 284250.0, 4157588.61 ] ], [ [ 284250.0, 4157572.15 ], [ 284206.62, 4157517.25 ] ] ] } },
{ "type": "Feature", "properties": { "id": "osm:way/321384713", "name": null, "highway": "service", "lanes": null, "width": 4.5, "oneway": false, "surface": "asphalt", "footway": null, "sidewalk_left": false, "sidewalk_right": false, "generated_sidewalk": false, "bus_lanes": null, "bus_lane_side": null, "bus_only": false, "sidewalk": false, "bridge": false, "ramp": false, "tunnel": false, "layer": 0, "deck": null }, "geometry": { "type": "MultiLineString", "coordinates": [ [ [ 284221.78, 4157507.68 ], [ 284214.75, 4157512.12 ], [ 284206.62, 4157517.25 ], [ 284193.09, 4157528.04 ], [ 284244.62, 4157592.83 ], [ 284230.93, 4157603.61 ] ], [ [ 284230.93, 4157603.61 ], [ 284218.12, 4157613.68 ], [ 284204.84, 4157624.12 ], [ 284171.85, 4157582.08 ], [ 284184.69, 4157572.01 ], [ 284197.42, 4157562.03 ], [ 284230.93, 4157603.61 ] ] ] } },
{ "type": "Feature", "properties": { "id": "osm:way/321384763", "name": null, "highway": "service", "lanes": null, "width": 4.5, "oneway": false, "surface": "asphalt", "footway": null, "sidewalk_left": false, "sidewalk_right": false, "generated_sidewalk": false, "bus_lanes": null, "bus_lane_side": null, "bus_only": false, "sidewalk": false, "bridge": false, "ramp": false, "tunnel": false, "layer": 0, "deck": null }, "geometry": { "type": "MultiLineString", "coordinates": [ [ [ 284180.53, 4157514.41 ], [ 284175.89, 4157508.6 ], [ 284169.02, 4157500.0 ] ], [ [ 284191.9, 4157500.0 ], [ 284194.83, 4157503.64 ] ] ] } },
{ "type": "Feature", "properties": { "id": "osm:way/1111944843", "name": null, "highway": "footway", "lanes": null, "width": 2.0, "oneway": false, "surface": "asphalt", "footway": "crossing", "sidewalk_left": false, "sidewalk_right": false, "generated_sidewalk": false, "bus_lanes": null, "bus_lane_side": null, "bus_only": false, "sidewalk": false, "bridge": false, "ramp": false, "tunnel": false, "layer": 0, "deck": null }, "geometry": { "type": "LineString", "coordinates": [ [ 284207.31, 4157502.78 ], [ 284204.23, 4157500.0 ] ] } },
{ "type": "Feature", "properties": { "id": "osm:way/1200727510", "name": null, "highway": "footway", "lanes": null, "width": 2.0, "oneway": false, "surface": "paving_stones", "footway": "sidewalk", "sidewalk_left": false, "sidewalk_right": false, "generated_sidewalk": false, "bus_lanes": null, "bus_lane_side": null, "bus_only": false, "sidewalk": false, "bridge": false, "ramp": false, "tunnel": false, "layer": 0, "deck": null }, "geometry": { "type": "LineString", "coordinates": [ [ 284177.29, 4157507.48 ], [ 284186.81, 4157500.0 ] ] } },
{ "type": "Feature", "properties": { "id": "osm:way/321384741", "name": null, "highway": "service", "lanes": null, "width": 4.5, "oneway": false, "surface": "asphalt", "footway": null, "sidewalk_left": false, "sidewalk_right": false, "generated_sidewalk": false, "bus_lanes": null, "bus_lane_side": null, "bus_only": false, "sidewalk": false, "bridge": false, "ramp": false, "tunnel": false, "layer": 0, "deck": null }, "geometry": { "type": "LineString", "coordinates": [ [ 284151.69, 4157500.0 ], [ 284165.14, 4157517.05 ], [ 284169.64, 4157522.74 ] ] } },
{ "type": "Feature", "properties": { "id": "osm:way/1200727511", "name": null, "highway": "footway", "lanes": null, "width": 2.0, "oneway": false, "surface": "concrete", "footway": "crossing", "sidewalk_left": false, "sidewalk_right": false, "generated_sidewalk": false, "bus_lanes": null, "bus_lane_side": null, "bus_only": false, "sidewalk": false, "bridge": false, "ramp": false, "tunnel": false, "layer": 0, "deck": null }, "geometry": { "type": "LineString", "coordinates": [ [ 284172.94, 4157510.92 ], [ 284175.89, 4157508.6 ], [ 284177.29, 4157507.48 ] ] } },
{ "type": "Feature", "properties": { "id": "osm:way/1200727516", "name": null, "highway": "footway", "lanes": null, "width": 2.0, "oneway": false, "surface": "paving_stones", "footway": "sidewalk", "sidewalk_left": false, "sidewalk_right": false, "generated_sidewalk": false, "bus_lanes": null, "bus_lane_side": null, "bus_only": false, "sidewalk": false, "bridge": false, "ramp": false, "tunnel": false, "layer": 0, "deck": null }, "geometry": { "type": "LineString", "coordinates": [ [ 284167.89, 4157514.89 ], [ 284172.94, 4157510.92 ] ] } },
{ "type": "Feature", "properties": { "id": "osm:way/1200727517", "name": null, "highway": "footway", "lanes": null, "width": 2.0, "oneway": false, "surface": "concrete", "footway": "crossing", "sidewalk_left": false, "sidewalk_right": false, "generated_sidewalk": false, "bus_lanes": null, "bus_lane_side": null, "bus_only": false, "sidewalk": false, "bridge": false, "ramp": false, "tunnel": false, "layer": 0, "deck": null }, "geometry": { "type": "LineString", "coordinates": [ [ 284163.39, 4157518.44 ], [ 284165.14, 4157517.05 ], [ 284167.89, 4157514.89 ] ] } },
{ "type": "Feature", "properties": { "id": "osm:way/1197171964", "name": null, "highway": "footway", "lanes": null, "width": 2.0, "oneway": false, "surface": "concrete", "footway": "sidewalk", "sidewalk_left": false, "sidewalk_right": false, "generated_sidewalk": false, "bus_lanes": null, "bus_lane_side": null, "bus_only": false, "sidewalk": false, "bridge": false, "ramp": false, "tunnel": false, "layer": 0, "deck": null }, "geometry": { "type": "LineString", "coordinates": [ [ 284132.32, 4157542.88 ], [ 284163.39, 4157518.44 ] ] } },
{ "type": "Feature", "properties": { "id": "osm:way/1194173492", "name": null, "highway": "footway", "lanes": null, "width": 2.0, "oneway": false, "surface": "asphalt", "footway": "crossing", "sidewalk_left": false, "sidewalk_right": false, "generated_sidewalk": false, "bus_lanes": null, "bus_lane_side": null, "bus_only": false, "sidewalk": false, "bridge": false, "ramp": false, "tunnel": false, "layer": 0, "deck": null }, "geometry": { "type": "LineString", "coordinates": [ [ 284132.32, 4157542.88 ], [ 284137.0, 4157548.67 ], [ 284142.77, 4157555.83 ] ] } },
{ "type": "Feature", "properties": { "id": "osm:way/1111944808", "name": null, "highway": "footway", "lanes": null, "width": 2.0, "oneway": false, "surface": null, "footway": "sidewalk", "sidewalk_left": false, "sidewalk_right": false, "generated_sidewalk": false, "bus_lanes": null, "bus_lane_side": null, "bus_only": false, "sidewalk": false, "bridge": false, "ramp": false, "tunnel": false, "layer": 0, "deck": null }, "geometry": { "type": "LineString", "coordinates": [ [ 284213.12, 4157510.06 ], [ 284207.31, 4157502.78 ], [ 284142.77, 4157555.83 ], [ 284206.59, 4157635.97 ] ] } },
{ "type": "Feature", "properties": { "id": "osm:way/6040511", "name": "South 4th Street", "highway": "tertiary", "lanes": 2.0, "width": 8.0, "oneway": true, "surface": "asphalt", "footway": null, "sidewalk_left": true, "sidewalk_right": false, "generated_sidewalk": true, "bus_lanes": null, "bus_lane_side": null, "bus_only": false, "sidewalk": false, "bridge": false, "ramp": true, "tunnel": false, "layer": 0, "deck": [ 284178.64, 4157452.96, 40.58, 284360.02, 4157678.9, 50.42 ] }, "geometry": { "type": "LineString", "coordinates": [ [ 284215.62, 4157500.0 ], [ 284221.78, 4157507.68 ], [ 284240.82, 4157531.03 ], [ 284250.0, 4157542.38 ] ] } },
{ "type": "Feature", "properties": { "id": "osm:way/1200727512", "name": null, "highway": "footway", "lanes": null, "width": 2.0, "oneway": false, "surface": null, "footway": "sidewalk", "sidewalk_left": false, "sidewalk_right": false, "generated_sidewalk": false, "bus_lanes": null, "bus_lane_side": null, "bus_only": false, "sidewalk": false, "bridge": false, "ramp": false, "tunnel": false, "layer": 0, "deck": null }, "geometry": { "type": "MultiLineString", "coordinates": [ [ [ 284206.59, 4157635.97 ], [ 284250.0, 4157601.58 ] ], [ [ 284250.0, 4157556.33 ], [ 284216.99, 4157514.92 ] ] ] } },
{ "type": "Feature", "properties": { "id": "osm:way/1065962908", "name": null, "highway": "service", "lanes": null, "width": 4.5, "oneway": false, "surface": null, "footway": null, "sidewalk_left": false, "sidewalk_right": false, "generated_sidewalk": false, "bus_lanes": null, "bus_lane_side": null, "bus_only": false, "sidewalk": false, "bridge": false, "ramp": false, "tunnel": false, "layer": 0, "deck": null }, "geometry": { "type": "LineString", "coordinates": [ [ 284239.72, 4157620.04 ], [ 284245.37, 4157625.76 ], [ 284246.97, 4157627.4 ] ] } },
{ "type": "Feature", "properties": { "id": "osm:way/1111944811", "name": null, "highway": "footway", "lanes": null, "width": 2.0, "oneway": false, "surface": "asphalt", "footway": "crossing", "sidewalk_left": false, "sidewalk_right": false, "generated_sidewalk": false, "bus_lanes": null, "bus_lane_side": null, "bus_only": false, "sidewalk": false, "bridge": false, "ramp": false, "tunnel": false, "layer": 0, "deck": null }, "geometry": { "type": "LineString", "coordinates": [ [ 284216.86, 4157648.58 ], [ 284211.66, 4157642.39 ], [ 284206.59, 4157635.97 ] ] } },
{ "type": "Feature", "properties": { "id": "osm:way/1111944809", "name": null, "highway": "footway", "lanes": null, "width": 2.0, "oneway": false, "surface": "asphalt", "footway": "crossing", "sidewalk_left": false, "sidewalk_right": false, "generated_sidewalk": false, "bus_lanes": null, "bus_lane_side": null, "bus_only": false, "sidewalk": false, "bridge": false, "ramp": false, "tunnel": false, "layer": 0, "deck": null }, "geometry": { "type": "LineString", "coordinates": [ [ 284204.09, 4157658.91 ], [ 284210.69, 4157653.5 ], [ 284214.33, 4157650.6 ], [ 284216.86, 4157648.58 ] ] } },
{ "type": "Feature", "properties": { "id": "osm:way/1111944717", "name": null, "highway": "footway", "lanes": null, "width": 2.0, "oneway": false, "surface": null, "footway": "sidewalk", "sidewalk_left": false, "sidewalk_right": false, "generated_sidewalk": false, "bus_lanes": null, "bus_lane_side": null, "bus_only": false, "sidewalk": false, "bridge": false, "ramp": false, "tunnel": false, "layer": 0, "deck": null }, "geometry": { "type": "LineString", "coordinates": [ [ 284250.0, 4157622.05 ], [ 284245.37, 4157625.76 ], [ 284216.86, 4157648.58 ], [ 284241.33, 4157678.87 ], [ 284248.37, 4157687.58 ], [ 284250.0, 4157689.6 ] ] } },
{ "type": "Feature", "properties": { "id": "osm:way/1348712684", "name": "3rd Street Cycle Track", "highway": "cycleway", "lanes": null, "width": 2.5, "oneway": false, "surface": null, "footway": null, "sidewalk_left": false, "sidewalk_right": false, "generated_sidewalk": false, "bus_lanes": null, "bus_lane_side": null, "bus_only": false, "sidewalk": false, "bridge": false, "ramp": true, "tunnel": false, "layer": 0, "deck": [ 284361.45, 4157835.9, 54.01, 284105.88, 4157515.79, 46.3 ] }, "geometry": { "type": "LineString", "coordinates": [ [ 284250.0, 4157695.71 ], [ 284245.47, 4157689.81 ], [ 284238.18, 4157681.1 ], [ 284216.89, 4157653.88 ], [ 284214.33, 4157650.6 ], [ 284209.07, 4157644.45 ], [ 284203.86, 4157637.94 ], [ 284202.04, 4157635.67 ], [ 284141.96, 4157560.58 ], [ 284139.93, 4157558.05 ], [ 284134.17, 4157550.99 ], [ 284129.61, 4157545.02 ], [ 284127.76, 4157542.75 ], [ 284105.88, 4157515.79 ] ] } },
{ "type": "Feature", "properties": { "id": "osm:way/1065962909", "name": null, "highway": "service", "lanes": null, "width": 4.5, "oneway": false, "surface": null, "footway": null, "sidewalk_left": false, "sidewalk_right": false, "generated_sidewalk": false, "bus_lanes": null, "bus_lane_side": null, "bus_only": false, "sidewalk": false, "bridge": false, "ramp": false, "tunnel": false, "layer": 0, "deck": null }, "geometry": { "type": "LineString", "coordinates": [ [ 284234.74, 4157683.55 ], [ 284238.18, 4157681.1 ], [ 284241.33, 4157678.87 ], [ 284247.39, 4157674.56 ] ] } },
{ "type": "Feature", "properties": { "id": "osm:way/321384773", "name": null, "highway": "service", "lanes": null, "width": 4.5, "oneway": false, "surface": "asphalt", "footway": null, "sidewalk_left": false, "sidewalk_right": false, "generated_sidewalk": false, "bus_lanes": null, "bus_lane_side": null, "bus_only": false, "sidewalk": false, "bridge": false, "ramp": false, "tunnel": false, "layer": 0, "deck": null }, "geometry": { "type": "LineString", "coordinates": [ [ 284241.93, 4157692.54 ], [ 284245.47, 4157689.81 ], [ 284248.37, 4157687.58 ], [ 284250.0, 4157686.33 ] ] } },
{ "type": "Feature", "properties": { "id": "osm:way/321384746", "name": null, "highway": "service", "lanes": null, "width": 4.5, "oneway": false, "surface": null, "footway": null, "sidewalk_left": false, "sidewalk_right": false, "generated_sidewalk": false, "bus_lanes": null, "bus_lane_side": null, "bus_only": false, "sidewalk": false, "bridge": false, "ramp": false, "tunnel": false, "layer": 0, "deck": null }, "geometry": { "type": "LineString", "coordinates": [ [ 284230.42, 4157708.01 ], [ 284250.0, 4157732.05 ] ] } },
{ "type": "Feature", "properties": { "id": "osm:way/321384743", "name": null, "highway": "service", "lanes": null, "width": 4.5, "oneway": false, "surface": null, "footway": null, "sidewalk_left": false, "sidewalk_right": false, "generated_sidewalk": false, "bus_lanes": null, "bus_lane_side": null, "bus_only": false, "sidewalk": false, "bridge": false, "ramp": false, "tunnel": false, "layer": 0, "deck": null }, "geometry": { "type": "LineString", "coordinates": [ [ 284184.69, 4157572.01 ], [ 284218.12, 4157613.68 ] ] } },
{ "type": "Feature", "properties": { "id": "osm:way/321384728", "name": null, "highway": "service", "lanes": null, "width": 4.5, "oneway": false, "surface": null, "footway": null, "sidewalk_left": false, "sidewalk_right": false, "generated_sidewalk": false, "bus_lanes": null, "bus_lane_side": null, "bus_only": false, "sidewalk": false, "bridge": false, "ramp": false, "tunnel": false, "layer": 0, "deck": null }, "geometry": { "type": "LineString", "coordinates": [ [ 284117.63, 4157619.36 ], [ 284151.19, 4157592.0 ], [ 284157.41, 4157586.93 ] ] } },
{ "type": "Feature", "properties": { "id": "osm:way/321384726", "name": null, "highway": "service", "lanes": null, "width": 4.5, "oneway": false, "surface": null, "footway": null, "sidewalk_left": false, "sidewalk_right": false, "generated_sidewalk": false, "bus_lanes": null, "bus_lane_side": null, "bus_only": false, "sidewalk": false, "bridge": false, "ramp": false, "tunnel": false, "layer": 0, "deck": null }, "geometry": { "type": "LineString", "coordinates": [ [ 284169.03, 4157601.44 ], [ 284162.51, 4157606.39 ], [ 284128.17, 4157632.43 ] ] } },
{ "type": "Feature", "properties": { "id": "osm:way/1111944810", "name": null, "highway": "footway", "lanes": null, "width": 2.0, "oneway": false, "surface": "asphalt", "footway": "crossing", "sidewalk_left": false, "sidewalk_right": false, "generated_sidewalk": false, "bus_lanes": null, "bus_lane_side": null, "bus_only": false, "sidewalk": false, "bridge": false, "ramp": false, "tunnel": false, "layer": 0, "deck": null }, "geometry": { "type": "LineString", "coordinates": [ [ 284193.45, 4157645.78 ], [ 284200.29, 4157640.51 ], [ 284203.86, 4157637.94 ], [ 284206.59, 4157635.97 ] ] } },
{ "type": "Feature", "properties": { "id": "osm:way/6033510", "name": "South 3rd Street", "highway": "tertiary", "lanes": 1.0, "width": 8.0, "oneway": true, "surface": "asphalt", "footway": null, "sidewalk_left": true, "sidewalk_right": true, "generated_sidewalk": true, "bus_lanes": null, "bus_lane_side": null, "bus_only": false, "sidewalk": false, "bridge": false, "ramp": false, "tunnel": false, "layer": 0, "deck": null }, "geometry": { "type": "LineString", "coordinates": [ [ 284250.0, 4157702.62 ], [ 284245.07, 4157696.46 ], [ 284241.93, 4157692.54 ], [ 284234.74, 4157683.55 ], [ 284213.02, 4157656.42 ], [ 284210.69, 4157653.5 ], [ 284205.63, 4157647.18 ], [ 284200.29, 4157640.51 ], [ 284169.03, 4157601.44 ], [ 284157.41, 4157586.93 ], [ 284138.74, 4157563.6 ], [ 284136.37, 4157560.82 ], [ 284130.83, 4157553.72 ] ] } },
{ "type": "Feature", "properties": { "id": "osm:way/1111944812", "name": null, "highway": "footway", "lanes": null, "width": 2.0, "oneway": false, "surface": "asphalt", "footway": "crossing", "sidewalk_left": false, "sidewalk_right": false, "generated_sidewalk": false, "bus_lanes": null, "bus_lane_side": null, "bus_only": false, "sidewalk": false, "bridge": false, "ramp": false, "tunnel": false, "layer": 0, "deck": null }, "geometry": { "type": "LineString", "coordinates": [ [ 284193.45, 4157645.78 ], [ 284198.92, 4157652.52 ], [ 284204.09, 4157658.91 ] ] } },
{ "type": "Feature", "properties": { "id": "osm:way/321384734", "name": null, "highway": "service", "lanes": null, "width": 4.5, "oneway": false, "surface": null, "footway": null, "sidewalk_left": false, "sidewalk_right": false, "generated_sidewalk": false, "bus_lanes": null, "bus_lane_side": null, "bus_only": false, "sidewalk": false, "bridge": false, "ramp": false, "tunnel": false, "layer": 0, "deck": null }, "geometry": { "type": "LineString", "coordinates": [ [ 284191.4, 4157658.51 ], [ 284196.57, 4157664.93 ], [ 284213.96, 4157686.53 ] ] } },
{ "type": "Feature", "properties": { "id": "osm:way/38229539", "name": "East Cary Street", "highway": "primary", "lanes": null, "width": 11.0, "oneway": true, "surface": "asphalt", "footway": null, "sidewalk_left": false, "sidewalk_right": false, "generated_sidewalk": true, "bus_lanes": null, "bus_lane_side": null, "bus_only": false, "sidewalk": false, "bridge": false, "ramp": false, "tunnel": false, "layer": 0, "deck": null }, "geometry": { "type": "LineString", "coordinates": [ [ 284076.52, 4157750.0 ], [ 284117.85, 4157717.08 ], [ 284122.02, 4157713.79 ], [ 284128.71, 4157708.44 ], [ 284134.58, 4157703.75 ], [ 284165.67, 4157679.01 ], [ 284168.95, 4157676.39 ], [ 284177.32, 4157669.73 ], [ 284191.4, 4157658.51 ], [ 284192.79, 4157657.41 ], [ 284196.1, 4157654.77 ], [ 284198.92, 4157652.52 ], [ 284205.63, 4157647.18 ], [ 284209.07, 4157644.45 ], [ 284211.66, 4157642.39 ], [ 284239.72, 4157620.04 ], [ 284250.0, 4157611.85 ] ] } },
{ "type": "Feature", "properties": { "id": "osm:way/321384719", "name": null, "highway": "service", "lanes": null, "width": 4.5, "oneway": false, "surface": null, "footway": null, "sidewalk_left": false, "sidewalk_right": false, "generated_sidewalk": false, "bus_lanes": null, "bus_lane_side": null, "bus_only": false, "sidewalk": false, "bridge": false, "ramp": false, "tunnel": false, "layer": 0, "deck": null }, "geometry": { "type": "LineString", "coordinates": [ [ 284177.32, 4157669.73 ], [ 284182.52, 4157676.17 ], [ 284199.28, 4157696.93 ] ] } },
{ "type": "Feature", "properties": { "id": "osm:way/321384739", "name": null, "highway": "service", "lanes": null, "width": 4.5, "oneway": false, "surface": null, "footway": null, "sidewalk_left": false, "sidewalk_right": false, "generated_sidewalk": false, "bus_lanes": null, "bus_lane_side": null, "bus_only": false, "sidewalk": false, "bridge": false, "ramp": false, "tunnel": false, "layer": 0, "deck": null }, "geometry": { "type": "LineString", "coordinates": [ [ 284168.95, 4157676.39 ], [ 284174.2, 4157682.84 ], [ 284208.66, 4157725.17 ] ] } },
{ "type": "Feature", "properties": { "id": "osm:way/321384751", "name": null, "highway": "service", "lanes": null, "width": 4.5, "oneway": false, "surface": null, "footway": null, "sidewalk_left": false, "sidewalk_right": false, "generated_sidewalk": false, "bus_lanes": null, "bus_lane_side": null, "bus_only": false, "sidewalk": false, "bridge": false, "ramp": false, "tunnel": false, "layer": 0, "deck": null }, "geometry": { "type": "LineString", "coordinates": [ [ 284206.67, 4157726.74 ], [ 284201.76, 4157720.79 ], [ 284175.85, 4157689.47 ], [ 284172.61, 4157685.35 ], [ 284172.0, 4157684.59 ], [ 284169.61, 4157681.53 ], [ 284165.67, 4157679.01 ] ] } },
{ "type": "Feature", "properties": { "id": "osm:way/1111944814", "name": null, "highway": "footway", "lanes": null, "width": 2.0, "oneway": false, "surface": null, "footway": "sidewalk", "sidewalk_left": false, "sidewalk_right": false, "generated_sidewalk": false, "bus_lanes": null, "bus_lane_side": null, "bus_only": false, "sidewalk": false, "bridge": false, "ramp": false, "tunnel": false, "layer": 0, "deck": null }, "geometry": { "type": "MultiLineString", "coordinates": [ [ [ 284204.09, 4157658.91 ], [ 284196.57, 4157664.93 ], [ 284182.52, 4157676.17 ], [ 284174.2, 4157682.84 ], [ 284172.0, 4157684.59 ], [ 284139.73, 4157710.43 ], [ 284170.63, 4157749.49 ], [ 284171.03, 4157750.0 ] ], [ [ 284250.0, 4157715.08 ], [ 284238.9, 4157701.33 ], [ 284205.94, 4157659.85 ], [ 284204.09, 4157658.91 ] ] ] } },
{ "type": "Feature", "properties": { "id": "osm:way/154014613", "name": "Griffin French Alley", "highway": "service", "lanes": null, "width": 4.5, "oneway": false, "surface": null, "footway": null, "sidewalk_left": false, "sidewalk_right": false, "generated_sidewalk": false, "bus_lanes": null, "bus_lane_side": null, "bus_only": false, "sidewalk": false, "bridge": false, "ramp": false, "tunnel": false, "layer": 0, "deck": null }, "geometry": { "type": "LineString", "coordinates": [ [ 284169.98, 4157750.0 ], [ 284170.63, 4157749.49 ], [ 284198.55, 4157727.49 ], [ 284201.32, 4157730.97 ], [ 284206.67, 4157726.74 ], [ 284208.66, 4157725.17 ], [ 284212.74, 4157721.97 ], [ 284230.42, 4157708.01 ], [ 284238.9, 4157701.33 ], [ 284245.07, 4157696.46 ] ] } },
{ "type": "Feature", "properties": { "id": "osm:way/6040298", "name": "South 2nd Street", "highway": "tertiary", "lanes": 2.0, "width": 8.0, "oneway": true, "surface": "asphalt", "footway": null, "sidewalk_left": true, "sidewalk_right": false, "generated_sidewalk": true, "bus_lanes": null, "bus_lane_side": null, "bus_only": false, "sidewalk": false, "bridge": false, "ramp": false, "tunnel": false, "layer": 0, "deck": null }, "geometry": { "type": "LineString", "coordinates": [ [ 284128.71, 4157708.44 ], [ 284133.84, 4157714.76 ], [ 284162.33, 4157750.0 ] ] } },
{ "type": "Feature", "properties": { "id": "osm:way/321384731", "name": null, "highway": "service", "lanes": null, "width": 4.5, "oneway": false, "surface": null, "footway": null, "sidewalk_left": false, "sidewalk_right": false, "generated_sidewalk": false, "bus_lanes": null, "bus_lane_side": null, "bus_only": false, "sidewalk": false, "bridge": false, "ramp": false, "tunnel": false, "layer": 0, "deck": null }, "geometry": { "type": "LineString", "coordinates": [ [ 284212.74, 4157721.97 ], [ 284236.55, 4157750.0 ] ] } },
{ "type": "Feature", "properties": { "id": "osm:way/1194173497", "name": null, "highway": "footway", "lanes": null, "width": 2.0, "oneway": false, "surface": "concrete", "footway": "sidewalk", "sidewalk_left": false, "sidewalk_right": false, "generated_sidewalk": false, "bus_lanes": null, "bus_lane_side": null, "bus_only": false, "sidewalk": false, "bridge": true, "ramp": false, "tunnel": false, "layer": 1, "deck": [ 284108.4, 4157514.1, 46.43, 284070.1, 4157463.6, 45.58 ] }, "geometry": { "type": "LineString", "coordinates": [ [ 284108.37, 4157514.13 ], [ 284097.04, 4157500.0 ] ] } },
{ "type": "Feature", "properties": { "id": "osm:way/1348712686", "name": "3rd Street Cycle Track", "highway": "cycleway", "lanes": null, "width": 2.5, "oneway": false, "surface": null, "footway": null, "sidewalk_left": false, "sidewalk_right": false, "generated_sidewalk": false, "bus_lanes": null, "bus_lane_side": null, "bus_only": false, "sidewalk": false, "bridge": true, "ramp": false, "tunnel": false, "layer": 1, "deck": [ 284105.9, 4157515.8, 46.3, 284067.7, 4157466.2, 47.65 ] }, "geometry": { "type": "LineString", "coordinates": [ [ 284105.88, 4157515.79 ], [ 284096.57, 4157503.7 ], [ 284093.73, 4157500.0 ] ] } },
{ "type": "Feature", "properties": { "id": "osm:way/37961313", "name": "South 3rd Street", "highway": "tertiary", "lanes": 1.0, "width": 8.0, "oneway": true, "surface": "concrete", "footway": null, "sidewalk_left": false, "sidewalk_right": true, "generated_sidewalk": true, "bus_lanes": null, "bus_lane_side": null, "bus_only": false, "sidewalk": false, "bridge": true, "ramp": false, "tunnel": false, "layer": 1, "deck": [ 284102.9, 4157518.8, 46.36, 284064.4, 4157468.2, 45.63 ] }, "geometry": { "type": "LineString", "coordinates": [ [ 284102.9, 4157518.82 ], [ 284088.57, 4157500.0 ] ] } },
{ "type": "Feature", "properties": { "id": "osm:way/1194173496", "name": null, "highway": "footway", "lanes": null, "width": 2.0, "oneway": false, "surface": "concrete", "footway": "sidewalk", "sidewalk_left": false, "sidewalk_right": false, "generated_sidewalk": false, "bus_lanes": null, "bus_lane_side": null, "bus_only": false, "sidewalk": false, "bridge": true, "ramp": false, "tunnel": false, "layer": 1, "deck": [ 284097.6, 4157523.7, 46.4, 284057.0, 4157473.1, 45.53 ] }, "geometry": { "type": "LineString", "coordinates": [ [ 284097.65, 4157523.71 ], [ 284078.58, 4157500.0 ] ] } },
{ "type": "Feature", "properties": { "id": "osm:way/1194173491", "name": null, "highway": "footway", "lanes": null, "width": 2.0, "oneway": false, "surface": "concrete", "footway": "sidewalk", "sidewalk_left": false, "sidewalk_right": false, "generated_sidewalk": false, "bus_lanes": null, "bus_lane_side": null, "bus_only": false, "sidewalk": false, "bridge": false, "ramp": true, "tunnel": false, "layer": 0, "deck": [ 284132.32, 4157542.88, 46.47, 284108.37, 4157514.13, 46.43 ] }, "geometry": { "type": "LineString", "coordinates": [ [ 284132.32, 4157542.88 ], [ 284108.37, 4157514.13 ] ] } },
{ "type": "Feature", "properties": { "id": "osm:way/693428901", "name": "South 3rd Street", "highway": "tertiary", "lanes": 1.0, "width": 8.0, "oneway": true, "surface": "asphalt", "footway": null, "sidewalk_left": true, "sidewalk_right": true, "generated_sidewalk": true, "bus_lanes": null, "bus_lane_side": null, "bus_only": false, "sidewalk": false, "bridge": false, "ramp": true, "tunnel": false, "layer": 0, "deck": [ 284130.83, 4157553.72, 46.76, 284102.9, 4157518.82, 46.36 ] }, "geometry": { "type": "LineString", "coordinates": [ [ 284130.83, 4157553.72 ], [ 284126.1, 4157547.8 ], [ 284102.9, 4157518.82 ] ] } },
{ "type": "Feature", "properties": { "id": "osm:way/1194173495", "name": null, "highway": "footway", "lanes": null, "width": 2.0, "oneway": false, "surface": "concrete", "footway": "sidewalk", "sidewalk_left": false, "sidewalk_right": false, "generated_sidewalk": false, "bus_lanes": null, "bus_lane_side": null, "bus_only": false, "sidewalk": false, "bridge": false, "ramp": true, "tunnel": false, "layer": 0, "deck": [ 284119.59, 4157552.96, 46.62, 284097.65, 4157523.71, 46.4 ] }, "geometry": { "type": "LineString", "coordinates": [ [ 284119.59, 4157552.96 ], [ 284097.65, 4157523.71 ] ] } },
{ "type": "Feature", "properties": { "id": "osm:way/1194173494", "name": null, "highway": "footway", "lanes": null, "width": 2.0, "oneway": false, "surface": "asphalt", "footway": "crossing", "sidewalk_left": false, "sidewalk_right": false, "generated_sidewalk": false, "bus_lanes": null, "bus_lane_side": null, "bus_only": false, "sidewalk": false, "bridge": false, "ramp": false, "tunnel": false, "layer": 0, "deck": null }, "geometry": { "type": "LineString", "coordinates": [ [ 284119.59, 4157552.96 ], [ 284126.1, 4157547.8 ], [ 284129.61, 4157545.02 ], [ 284132.32, 4157542.88 ] ] } },
{ "type": "Feature", "properties": { "id": "osm:way/1194173493", "name": null, "highway": "footway", "lanes": null, "width": 2.0, "oneway": false, "surface": "asphalt", "footway": "crossing", "sidewalk_left": false, "sidewalk_right": false, "generated_sidewalk": false, "bus_lanes": null, "bus_lane_side": null, "bus_only": false, "sidewalk": false, "bridge": false, "ramp": false, "tunnel": false, "layer": 0, "deck": null }, "geometry": { "type": "LineString", "coordinates": [ [ 284129.98, 4157565.91 ], [ 284124.24, 4157558.74 ], [ 284119.59, 4157552.96 ] ] } },
{ "type": "Feature", "properties": { "id": "osm:way/1112080136", "name": null, "highway": "footway", "lanes": null, "width": 2.0, "oneway": false, "surface": "asphalt", "footway": "crossing", "sidewalk_left": false, "sidewalk_right": false, "generated_sidewalk": false, "bus_lanes": null, "bus_lane_side": null, "bus_only": false, "sidewalk": false, "bridge": false, "ramp": false, "tunnel": false, "layer": 0, "deck": null }, "geometry": { "type": "LineString", "coordinates": [ [ 284129.98, 4157565.91 ], [ 284136.37, 4157560.82 ], [ 284139.93, 4157558.05 ], [ 284142.77, 4157555.83 ] ] } },
{ "type": "Feature", "properties": { "id": "osm:way/1377762123", "name": "East Byrd Street", "highway": "secondary", "lanes": 2.0, "width": 9.5, "oneway": true, "surface": "asphalt", "footway": null, "sidewalk_left": null, "sidewalk_right": false, "generated_sidewalk": true, "bus_lanes": null, "bus_lane_side": null, "bus_only": false, "sidewalk": false, "bridge": false, "ramp": false, "tunnel": false, "layer": 0, "deck": null }, "geometry": { "type": "LineString", "coordinates": [ [ 284000.0, 4157504.9 ], [ 284006.26, 4157500.0 ] ] } },
{ "type": "Feature", "properties": { "id": "osm:way/1348712685", "name": "Byrd Street Cycle Track", "highway": "cycleway", "lanes": null, "width": 2.5, "oneway": false, "surface": null, "footway": null, "sidewalk_left": false, "sidewalk_right": false, "generated_sidewalk": false, "bus_lanes": null, "bus_lane_side": null, "bus_only": false, "sidewalk": false, "bridge": false, "ramp": true, "tunnel": false, "layer": 0, "deck": [ 284067.73, 4157466.2, 47.65, 283979.15, 4157521.22, 38.74 ] }, "geometry": { "type": "LineString", "coordinates": [ [ 284015.24, 4157500.0 ], [ 284000.0, 4157512.41 ] ] } },
{ "type": "Feature", "properties": { "id": "osm:way/90276710", "name": null, "highway": "motorway_link", "lanes": 1.0, "width": 6.0, "oneway": true, "surface": null, "footway": null, "sidewalk_left": false, "sidewalk_right": false, "generated_sidewalk": false, "bus_lanes": null, "bus_lane_side": null, "bus_only": false, "sidewalk": false, "bridge": false, "ramp": false, "tunnel": false, "layer": 0, "deck": null }, "geometry": { "type": "LineString", "coordinates": [ [ 284000.0, 4157535.92 ], [ 284028.26, 4157517.25 ], [ 284052.63, 4157500.0 ] ] } },
{ "type": "Feature", "properties": { "id": "osm:way/1125543246", "name": null, "highway": "footway", "lanes": null, "width": 2.0, "oneway": false, "surface": null, "footway": "sidewalk", "sidewalk_left": false, "sidewalk_right": false, "generated_sidewalk": false, "bus_lanes": null, "bus_lane_side": null, "bus_only": false, "sidewalk": false, "bridge": true, "ramp": false, "tunnel": false, "layer": 1, "deck": [ 283996.5, 4157530.4, 37.96, 284043.6, 4157590.2, 43.64 ] }, "geometry": { "type": "LineString", "coordinates": [ [ 284000.0, 4157534.82 ], [ 284043.58, 4157590.23 ] ] } },
{ "type": "Feature", "properties": { "id": "osm:way/45088625", "name": "South 2nd Street", "highway": "tertiary", "lanes": 4.0, "width": 13.2, "oneway": false, "surface": null, "footway": null, "sidewalk_left": false, "sidewalk_right": false, "generated_sidewalk": true, "bus_lanes": null, "bus_lane_side": null, "bus_only": false, "sidewalk": false, "bridge": true, "ramp": false, "tunnel": false, "layer": 1, "deck": [ 283989.7, 4157533.6, 38.86, 284038.8, 4157595.3, 43.58 ] }, "geometry": { "type": "LineString", "coordinates": [ [ 284000.0, 4157546.56 ], [ 284038.81, 4157595.32 ] ] } },
{ "type": "Feature", "properties": { "id": "osm:way/1125543251", "name": null, "highway": "footway", "lanes": null, "width": 2.0, "oneway": false, "surface": "concrete", "footway": "sidewalk", "sidewalk_left": false, "sidewalk_right": false, "generated_sidewalk": false, "bus_lanes": null, "bus_lane_side": null, "bus_only": false, "sidewalk": false, "bridge": true, "ramp": false, "tunnel": false, "layer": 1, "deck": [ 283984.0, 4157539.3, 37.91, 284033.2, 4157600.9, 43.64 ] }, "geometry": { "type": "LineString", "coordinates": [ [ 284000.0, 4157559.34 ], [ 284033.22, 4157600.89 ] ] } },
{ "type": "Feature", "properties": { "id": "osm:way/321384721", "name": null, "highway": "service", "lanes": null, "width": 4.5, "oneway": false, "surface": null, "footway": null, "sidewalk_left": false, "sidewalk_right": false, "generated_sidewalk": false, "bus_lanes": null, "bus_lane_side": null, "bus_only": false, "sidewalk": false, "bridge": false, "ramp": false, "tunnel": false, "layer": 0, "deck": null }, "geometry": { "type": "LineString", "coordinates": [ [ 284041.6, 4157598.9 ], [ 284047.14, 4157594.31 ], [ 284075.86, 4157570.48 ] ] } },
{ "type": "Feature", "properties": { "id": "osm:way/693428904", "name": "South 2nd Street", "highway": "tertiary", "lanes": 4.0, "width": 13.2, "oneway": false, "surface": "asphalt", "footway": null, "sidewalk_left": false, "sidewalk_right": false, "generated_sidewalk": true, "bus_lanes": null, "bus_lane_side": null, "bus_only": false, "sidewalk": false, "bridge": false, "ramp": true, "tunnel": false, "layer": 0, "deck": [ 284038.81, 4157595.32, 43.58, 284054.16, 4157614.73, 44.19 ] }, "geometry": { "type": "LineString", "coordinates": [ [ 284038.81, 4157595.32 ], [ 284041.6, 4157598.9 ], [ 284045.87, 4157604.28 ], [ 284049.11, 4157608.37 ], [ 284054.16, 4157614.73 ] ] } },
{ "type": "Feature", "properties": { "id": "osm:way/1125543252", "name": null, "highway": "footway", "lanes": null, "width": 2.0, "oneway": false, "surface": "concrete", "footway": "sidewalk", "sidewalk_left": false, "sidewalk_right": false, "generated_sidewalk": false, "bus_lanes": null, "bus_lane_side": null, "bus_only": false, "sidewalk": false, "bridge": false, "ramp": true, "tunnel": false, "layer": 0, "deck": [ 284033.22, 4157600.89, 43.64, 284041.41, 4157615.32, 44.27 ] }, "geometry": { "type": "LineString", "coordinates": [ [ 284033.22, 4157600.89 ], [ 284041.52, 4157611.66 ], [ 284042.53, 4157613.64 ], [ 284041.41, 4157615.32 ] ] } },
{ "type": "Feature", "properties": { "id": "osm:way/1125543242", "name": null, "highway": "footway", "lanes": null, "width": 2.0, "oneway": false, "surface": "asphalt", "footway": "crossing", "sidewalk_left": false, "sidewalk_right": false, "generated_sidewalk": false, "bus_lanes": null, "bus_lane_side": null, "bus_only": false, "sidewalk": false, "bridge": false, "ramp": false, "tunnel": false, "layer": 0, "deck": null }, "geometry": { "type": "LineString", "coordinates": [ [ 284042.53, 4157613.64 ], [ 284049.11, 4157608.37 ], [ 284055.18, 4157603.5 ] ] } },
{ "type": "Feature", "properties": { "id": "osm:way/321384759", "name": null, "highway": "service", "lanes": null, "width": 4.5, "oneway": false, "surface": null, "footway": null, "sidewalk_left": false, "sidewalk_right": false, "generated_sidewalk": false, "bus_lanes": null, "bus_lane_side": null, "bus_only": false, "sidewalk": false, "bridge": false, "ramp": false, "tunnel": false, "layer": 0, "deck": null }, "geometry": { "type": "LineString", "coordinates": [ [ 284091.96, 4157583.62 ], [ 284087.6, 4157577.47 ], [ 284070.11, 4157552.77 ], [ 284068.81, 4157549.06 ] ] } },
{ "type": "Feature", "properties": { "id": "osm:way/1125543244", "name": null, "highway": "footway", "lanes": null, "width": 2.0, "oneway": false, "surface": null, "footway": "sidewalk", "sidewalk_left": false, "sidewalk_right": false, "generated_sidewalk": false, "bus_lanes": null, "bus_lane_side": null, "bus_only": false, "sidewalk": false, "bridge": false, "ramp": false, "tunnel": false, "layer": 0, "deck": null }, "geometry": { "type": "LineString", "coordinates": [ [ 284043.58, 4157590.23 ], [ 284047.14, 4157594.31 ], [ 284055.18, 4157603.5 ], [ 284087.6, 4157577.47 ], [ 284119.59, 4157552.96 ] ] } },
{ "type": "Feature", "properties": { "id": "osm:way/693428902", "name": "East Canal Street", "highway": "secondary", "lanes": 4.0, "width": 13.2, "oneway": true, "surface": "asphalt", "footway": null, "sidewalk_left": false, "sidewalk_right": false, "generated_sidewalk": true, "bus_lanes": null, "bus_lane_side": null, "bus_only": false, "sidewalk": false, "bridge": false, "ramp": false, "tunnel": false, "layer": 0, "deck": null }, "geometry": { "type": "LineString", "coordinates": [ [ 284130.83, 4157553.72 ], [ 284124.24, 4157558.74 ], [ 284091.96, 4157583.62 ], [ 284090.04, 4157585.1 ], [ 284061.75, 4157608.65 ], [ 284060.0, 4157610.08 ], [ 284054.16, 4157614.73 ] ] } },
{ "type": "Feature", "properties": { "id": "osm:way/321384733", "name": null, "highway": "service", "lanes": null, "width": 4.5, "oneway": false, "surface": null, "footway": null, "sidewalk_left": false, "sidewalk_right": false, "generated_sidewalk": false, "bus_lanes": null, "bus_lane_side": null, "bus_only": false, "sidewalk": false, "bridge": false, "ramp": false, "tunnel": false, "layer": 0, "deck": null }, "geometry": { "type": "LineString", "coordinates": [ [ 284074.01, 4157622.01 ], [ 284101.84, 4157599.75 ] ] } },
{ "type": "Feature", "properties": { "id": "osm:way/321384740", "name": null, "highway": "service", "lanes": null, "width": 4.5, "oneway": false, "surface": null, "footway": null, "sidewalk_left": false, "sidewalk_right": false, "generated_sidewalk": false, "bus_lanes": null, "bus_lane_side": null, "bus_only": false, "sidewalk": false, "bridge": false, "ramp": false, "tunnel": false, "layer": 0, "deck": null }, "geometry": { "type": "LineString", "coordinates": [ [ 284077.3, 4157643.8 ], [ 284082.91, 4157639.28 ], [ 284113.7, 4157614.47 ] ] } },
{ "type": "Feature", "properties": { "id": "osm:way/1111944813", "name": null, "highway": "footway", "lanes": null, "width": 2.0, "oneway": false, "surface": null, "footway": "sidewalk", "sidewalk_left": false, "sidewalk_right": false, "generated_sidewalk": false, "bus_lanes": null, "bus_lane_side": null, "bus_only": false, "sidewalk": false, "bridge": false, "ramp": false, "tunnel": false, "layer": 0, "deck": null }, "geometry": { "type": "LineString", "coordinates": [ [ 284129.98, 4157565.91 ], [ 284151.19, 4157592.0 ], [ 284162.51, 4157606.39 ], [ 284193.45, 4157645.78 ], [ 284160.1, 4157672.49 ], [ 284129.41, 4157697.08 ], [ 284093.71, 4157652.8 ], [ 284082.91, 4157639.28 ], [ 284064.42, 4157616.13 ], [ 284095.53, 4157591.9 ], [ 284129.98, 4157565.91 ] ] } },
{ "type": "Feature", "properties": { "id": "osm:way/321384778", "name": null, "highway": "service", "lanes": null, "width": 4.5, "oneway": false, "surface": null, "footway": null, "sidewalk_left": false, "sidewalk_right": false, "generated_sidewalk": false, "bus_lanes": null, "bus_lane_side": null, "bus_only": false, "sidewalk": false, "bridge": false, "ramp": false, "tunnel": false, "layer": 0, "deck": null }, "geometry": { "type": "LineString", "coordinates": [ [ 284090.04, 4157585.1 ], [ 284095.53, 4157591.9 ], [ 284101.84, 4157599.75 ], [ 284113.7, 4157614.47 ], [ 284117.63, 4157619.36 ], [ 284124.89, 4157628.36 ], [ 284128.17, 4157632.43 ], [ 284160.1, 4157672.49 ], [ 284165.67, 4157679.01 ] ] } },
{ "type": "Feature", "properties": { "id": "osm:way/321384742", "name": null, "highway": "service", "lanes": null, "width": 4.5, "oneway": false, "surface": null, "footway": null, "sidewalk_left": false, "sidewalk_right": false, "generated_sidewalk": false, "bus_lanes": null, "bus_lane_side": null, "bus_only": false, "sidewalk": false, "bridge": false, "ramp": false, "tunnel": false, "layer": 0, "deck": null }, "geometry": { "type": "LineString", "coordinates": [ [ 284088.02, 4157657.27 ], [ 284093.71, 4157652.8 ], [ 284124.89, 4157628.36 ] ] } },
{ "type": "Feature", "properties": { "id": "osm:way/152634460", "name": "South 2nd Street", "highway": "tertiary", "lanes": 4.0, "width": 13.2, "oneway": false, "surface": null, "footway": null, "sidewalk_left": false, "sidewalk_right": false, "generated_sidewalk": true, "bus_lanes": null, "bus_lane_side": null, "bus_only": false, "sidewalk": false, "bridge": false, "ramp": false, "tunnel": false, "layer": 0, "deck": null }, "geometry": { "type": "LineString", "coordinates": [ [ 284054.16, 4157614.73 ], [ 284058.86, 4157620.61 ], [ 284061.44, 4157623.86 ], [ 284077.3, 4157643.8 ], [ 284088.02, 4157657.27 ], [ 284092.04, 4157662.33 ], [ 284121.56, 4157699.45 ], [ 284123.34, 4157701.74 ], [ 284128.71, 4157708.44 ] ] } },
{ "type": "Feature", "properties": { "id": "osm:way/1112300451", "name": null, "highway": "footway", "lanes": null, "width": 2.0, "oneway": false, "surface": "asphalt", "footway": "crossing", "sidewalk_left": false, "sidewalk_right": false, "generated_sidewalk": false, "bus_lanes": null, "bus_lane_side": null, "bus_only": false, "sidewalk": false, "bridge": false, "ramp": false, "tunnel": false, "layer": 0, "deck": null }, "geometry": { "type": "LineString", "coordinates": [ [ 284129.41, 4157697.08 ], [ 284123.34, 4157701.74 ], [ 284116.6, 4157706.89 ] ] } },
{ "type": "Feature", "properties": { "id": "osm:way/1125543243", "name": null, "highway": "footway", "lanes": null, "width": 2.0, "oneway": false, "surface": "asphalt", "footway": "crossing", "sidewalk_left": false, "sidewalk_right": false, "generated_sidewalk": false, "bus_lanes": null, "bus_lane_side": null, "bus_only": false, "sidewalk": false, "bridge": false, "ramp": false, "tunnel": false, "layer": 0, "deck": null }, "geometry": { "type": "LineString", "coordinates": [ [ 284055.18, 4157603.5 ], [ 284060.0, 4157610.08 ], [ 284064.42, 4157616.13 ] ] } },
{ "type": "Feature", "properties": { "id": "osm:way/1125543241", "name": null, "highway": "footway", "lanes": null, "width": 2.0, "oneway": false, "surface": "asphalt", "footway": "crossing", "sidewalk_left": false, "sidewalk_right": false, "generated_sidewalk": false, "bus_lanes": null, "bus_lane_side": null, "bus_only": false, "sidewalk": false, "bridge": false, "ramp": false, "tunnel": false, "layer": 0, "deck": null }, "geometry": { "type": "LineString", "coordinates": [ [ 284052.28, 4157625.91 ], [ 284047.69, 4157620.13 ], [ 284042.53, 4157613.64 ] ] } },
{ "type": "Feature", "properties": { "id": "osm:way/1125543240", "name": null, "highway": "footway", "lanes": null, "width": 2.0, "oneway": false, "surface": "asphalt", "footway": "crossing", "sidewalk_left": false, "sidewalk_right": false, "generated_sidewalk": false, "bus_lanes": null, "bus_lane_side": null, "bus_only": false, "sidewalk": false, "bridge": false, "ramp": false, "tunnel": false, "layer": 0, "deck": null }, "geometry": { "type": "LineString", "coordinates": [ [ 284052.28, 4157625.91 ], [ 284058.86, 4157620.61 ], [ 284064.42, 4157616.13 ] ] } },
{ "type": "Feature", "properties": { "id": "osm:way/38335246", "name": null, "highway": "motorway_link", "lanes": 1.0, "width": 6.0, "oneway": true, "surface": null, "footway": null, "sidewalk_left": false, "sidewalk_right": false, "generated_sidewalk": false, "bus_lanes": null, "bus_lane_side": null, "bus_only": false, "sidewalk": false, "bridge": false, "ramp": false, "tunnel": false, "layer": 0, "deck": null }, "geometry": { "type": "LineString", "coordinates": [ [ 284093.83, 4157500.0 ], [ 284063.88, 4157537.27 ], [ 284011.91, 4157592.2 ], [ 284000.0, 4157604.89 ] ] } },
{ "type": "Feature", "properties": { "id": "osm:way/321391741", "name": null, "highway": "service", "lanes": null, "width": 4.5, "oneway": false, "surface": null, "footway": null, "sidewalk_left": false, "sidewalk_right": false, "generated_sidewalk": false, "bus_lanes": null, "bus_lane_side": null, "bus_only": false, "sidewalk": false, "bridge": false, "ramp": false, "tunnel": false, "layer": 0, "deck": null }, "geometry": { "type": "LineString", "coordinates": [ [ 284029.08, 4157635.52 ], [ 284033.57, 4157640.64 ], [ 284050.38, 4157659.91 ] ] } },
{ "type": "Feature", "properties": { "id": "osm:way/799763073", "name": null, "highway": "service", "lanes": null, "width": 4.5, "oneway": false, "surface": null, "footway": null, "sidewalk_left": false, "sidewalk_right": false, "generated_sidewalk": false, "bus_lanes": null, "bus_lane_side": null, "bus_only": false, "sidewalk": false, "bridge": false, "ramp": false, "tunnel": false, "layer": 0, "deck": null }, "geometry": { "type": "LineString", "coordinates": [ [ 284012.4, 4157648.49 ], [ 284016.79, 4157653.86 ], [ 284050.79, 4157695.96 ] ] } },
{ "type": "Feature", "properties": { "id": "osm:way/38335245", "name": "Downtown Expressway", "highway": "motorway", "lanes": 2.0, "width": 14.0, "oneway": true, "surface": "asphalt", "footway": null, "sidewalk_left": false, "sidewalk_right": false, "generated_sidewalk": false, "bus_lanes": null, "bus_lane_side": null, "bus_only": false, "sidewalk": false, "bridge": false, "ramp": false, "tunnel": false, "layer": 0, "deck": null }, "geometry": { "type": "LineString", "coordinates": [ [ 284000.0, 4157555.33 ], [ 284062.09, 4157500.0 ] ] } },
{ "type": "Feature", "properties": { "id": "osm:way/693428903", "name": "East Canal Street", "highway": "secondary", "lanes": 2.0, "width": 9.5, "oneway": true, "surface": "asphalt", "footway": null, "sidewalk_left": null, "sidewalk_right": false, "generated_sidewalk": true, "bus_lanes": null, "bus_lane_side": null, "bus_only": false, "sidewalk": false, "bridge": false, "ramp": false, "tunnel": false, "layer": 0, "deck": null }, "geometry": { "type": "LineString", "coordinates": [ [ 284054.16, 4157614.73 ], [ 284047.69, 4157620.13 ], [ 284029.08, 4157635.52 ], [ 284012.4, 4157648.49 ], [ 284000.0, 4157658.13 ] ] } },
{ "type": "Feature", "properties": { "id": "osm:way/37961323", "name": "Downtown Expressway", "highway": "motorway", "lanes": 2.0, "width": 14.0, "oneway": true, "surface": "asphalt", "footway": null, "sidewalk_left": false, "sidewalk_right": false, "generated_sidewalk": false, "bus_lanes": null, "bus_lane_side": null, "bus_only": false, "sidewalk": false, "bridge": false, "ramp": false, "tunnel": false, "layer": 0, "deck": null }, "geometry": { "type": "LineString", "coordinates": [ [ 284090.83, 4157500.0 ], [ 284000.0, 4157583.49 ] ] } },
{ "type": "Feature", "properties": { "id": "osm:way/799763074", "name": null, "highway": "service", "lanes": null, "width": 4.5, "oneway": false, "surface": null, "footway": null, "sidewalk_left": false, "sidewalk_right": false, "generated_sidewalk": false, "bus_lanes": null, "bus_lane_side": null, "bus_only": false, "sidewalk": false, "bridge": false, "ramp": false, "tunnel": false, "layer": 0, "deck": null }, "geometry": { "type": "LineString", "coordinates": [ [ 284042.42, 4157702.7 ], [ 284050.79, 4157695.96 ], [ 284078.14, 4157673.93 ] ] } },
{ "type": "Feature", "properties": { "id": "osm:way/1112300453", "name": null, "highway": "footway", "lanes": null, "width": 2.0, "oneway": false, "surface": null, "footway": "sidewalk", "sidewalk_left": false, "sidewalk_right": false, "generated_sidewalk": false, "bus_lanes": null, "bus_lane_side": null, "bus_only": false, "sidewalk": false, "bridge": false, "ramp": false, "tunnel": false, "layer": 0, "deck": null }, "geometry": { "type": "MultiLineString", "coordinates": [ [ [ 284116.6, 4157706.89 ], [ 284085.38, 4157667.58 ], [ 284052.28, 4157625.91 ], [ 284033.57, 4157640.64 ], [ 284016.79, 4157653.86 ], [ 284000.0, 4157667.65 ] ], [ [ 284000.0, 4157694.66 ], [ 284019.71, 4157719.38 ], [ 284044.14, 4157750.0 ] ], [ [ 284062.83, 4157750.0 ], [ 284116.6, 4157706.89 ] ] ] } },
{ "type": "Feature", "properties": { "id": "osm:way/1065187694", "name": null, "highway": "footway", "lanes": null, "width": 2.0, "oneway": false, "surface": null, "footway": "sidewalk", "sidewalk_left": false, "sidewalk_right": false, "generated_sidewalk": false, "bus_lanes": null, "bus_lane_side": null, "bus_only": false, "sidewalk": false, "bridge": false, "ramp": false, "tunnel": false, "layer": 0, "deck": null }, "geometry": { "type": "LineString", "coordinates": [ [ 284024.27, 4157750.0 ], [ 284015.43, 4157738.77 ], [ 284007.98, 4157728.66 ], [ 284004.74, 4157724.39 ], [ 284000.0, 4157718.36 ] ] } },
{ "type": "Feature", "properties": { "id": "osm:way/1131774012", "name": null, "highway": "service", "lanes": null, "width": 4.5, "oneway": false, "surface": null, "footway": null, "sidewalk_left": false, "sidewalk_right": false, "generated_sidewalk": false, "bus_lanes": null, "bus_lane_side": null, "bus_only": false, "sidewalk": false, "bridge": false, "ramp": false, "tunnel": false, "layer": 0, "deck": null }, "geometry": { "type": "LineString", "coordinates": [ [ 284009.85, 4157749.15 ], [ 284010.56, 4157750.0 ] ] } },
{ "type": "Feature", "properties": { "id": "osm:way/6037194", "name": "South 1st Street", "highway": "residential", "lanes": null, "width": 7.0, "oneway": true, "surface": "asphalt", "footway": null, "sidewalk_left": true, "sidewalk_right": false, "generated_sidewalk": true, "bus_lanes": null, "bus_lane_side": null, "bus_only": false, "sidewalk": true, "bridge": false, "ramp": false, "tunnel": false, "layer": 0, "deck": null }, "geometry": { "type": "LineString", "coordinates": [ [ 284034.09, 4157750.0 ], [ 284021.12, 4157733.7 ], [ 284013.58, 4157724.21 ], [ 284010.36, 4157720.17 ], [ 284000.0, 4157707.14 ] ] } },
{ "type": "Feature", "properties": { "id": "osm:way/1112080135", "name": null, "highway": "footway", "lanes": null, "width": 2.0, "oneway": false, "surface": "asphalt", "footway": "crossing", "sidewalk_left": false, "sidewalk_right": false, "generated_sidewalk": false, "bus_lanes": null, "bus_lane_side": null, "bus_only": false, "sidewalk": false, "bridge": false, "ramp": false, "tunnel": false, "layer": 0, "deck": null }, "geometry": { "type": "LineString", "coordinates": [ [ 284129.41, 4157697.08 ], [ 284134.58, 4157703.75 ], [ 284139.73, 4157710.43 ] ] } },
{ "type": "Feature", "properties": { "id": "osm:way/1112300452", "name": null, "highway": "footway", "lanes": null, "width": 2.0, "oneway": false, "surface": "asphalt", "footway": "crossing", "sidewalk_left": false, "sidewalk_right": false, "generated_sidewalk": false, "bus_lanes": null, "bus_lane_side": null, "bus_only": false, "sidewalk": false, "bridge": false, "ramp": false, "tunnel": false, "layer": 0, "deck": null }, "geometry": { "type": "LineString", "coordinates": [ [ 284126.83, 4157719.91 ], [ 284122.02, 4157713.79 ], [ 284116.6, 4157706.89 ] ] } },
{ "type": "Feature", "properties": { "id": "osm:way/1112300450", "name": null, "highway": "footway", "lanes": null, "width": 2.0, "oneway": false, "surface": "asphalt", "footway": "crossing", "sidewalk_left": false, "sidewalk_right": false, "generated_sidewalk": false, "bus_lanes": null, "bus_lane_side": null, "bus_only": false, "sidewalk": false, "bridge": false, "ramp": false, "tunnel": false, "layer": 0, "deck": null }, "geometry": { "type": "LineString", "coordinates": [ [ 284126.83, 4157719.91 ], [ 284133.84, 4157714.76 ], [ 284139.73, 4157710.43 ] ] } },
{ "type": "Feature", "properties": { "id": "osm:way/1112300449", "name": null, "highway": "footway", "lanes": null, "width": 2.0, "oneway": false, "surface": null, "footway": "sidewalk", "sidewalk_left": false, "sidewalk_right": false, "generated_sidewalk": false, "bus_lanes": null, "bus_lane_side": null, "bus_only": false, "sidewalk": false, "bridge": false, "ramp": false, "tunnel": false, "layer": 0, "deck": null }, "geometry": { "type": "MultiLineString", "coordinates": [ [ [ 284126.83, 4157719.91 ], [ 284088.84, 4157750.0 ] ], [ [ 284150.3, 4157750.0 ], [ 284126.83, 4157719.91 ] ] ] } }
]
}
