{
"type": "FeatureCollection",
"name": "landuse",
"crs": { "type": "name", "properties": { "name": "urn:ogc:def:crs:EPSG::32618" } },
"xy_coordinate_resolution": 0.01,
"features": [
{ "type": "Feature", "properties": { "id": "imagery:groundcover_paved:2792", "name": null, "kind": "groundcover_paved", "sport": null, "surface": null, "pitch_layout": null, "source": "vgin_vbmp+naip+lidar2025", "source_updated": null, "base_z": null, "top_z": null }, "geometry": { "type": "MultiPolygon", "coordinates": [ [ [ [ 284015.42, 4160500.24 ], [ 284015.86, 4160500.46 ], [ 284016.27, 4160500.73 ], [ 284016.66, 4160501.03 ], [ 284017.01, 4160501.37 ], [ 284017.33, 4160501.74 ], [ 284020.75, 4160506.14 ], [ 284021.03, 4160506.54 ], [ 284021.27, 4160506.97 ], [ 284021.47, 4160507.42 ], [ 284021.62, 4160507.89 ], [ 284021.73, 4160508.37 ], [ 284021.79, 4160508.85 ], [ 284021.8, 4160509.34 ], [ 284021.76, 4160509.83 ], [ 284021.68, 4160510.32 ], [ 284021.54, 4160510.79 ], [ 284021.37, 4160511.25 ], [ 284021.15, 4160511.68 ], [ 284020.88, 4160512.1 ], [ 284020.58, 4160512.48 ], [ 284020.24, 4160512.84 ], [ 284019.87, 4160513.16 ], [ 284017.86, 4160514.72 ], [ 284035.81, 4160537.99 ], [ 284035.98, 4160538.24 ], [ 284038.88, 4160542.86 ], [ 284039.01, 4160543.09 ], [ 284039.12, 4160543.34 ], [ 284039.39, 4160544.0 ], [ 284045.14, 4160539.24 ], [ 284045.53, 4160538.95 ], [ 284045.94, 4160538.7 ], [ 284046.38, 4160538.49 ], [ 284046.83, 4160538.32 ], [ 284047.3, 4160538.2 ], [ 284047.78, 4160538.13 ], [ 284048.26, 4160538.1 ], [ 284048.75, 4160538.12 ], [ 284049.23, 4160538.18 ], [ 284049.7, 4160538.29 ], [ 284050.16, 4160538.45 ], [ 284050.6, 4160538.65 ], [ 284051.02, 4160538.89 ], [ 284051.42, 4160539.17 ], [ 284051.78, 4160539.49 ], [ 284052.12, 4160539.84 ], [ 284052.41, 4160540.22 ], [ 284052.67, 4160540.63 ], [ 284052.89, 4160541.06 ], [ 284053.07, 4160541.51 ], [ 284055.73, 4160549.48 ], [ 284055.86, 4160549.94 ], [ 284055.95, 4160550.42 ], [ 284055.99, 4160550.9 ], [ 284055.98, 4160551.38 ], [ 284055.93, 4160551.85 ], [ 284055.83, 4160552.32 ], [ 284055.69, 4160552.78 ], [ 284055.5, 4160553.23 ], [ 284055.27, 4160553.65 ], [ 284055.0, 4160554.05 ], [ 284054.7, 4160554.42 ], [ 284054.36, 4160554.76 ], [ 284053.99, 4160555.07 ], [ 284053.59, 4160555.34 ], [ 284053.2, 4160555.55 ], [ 284059.13, 4160554.93 ], [ 284059.13, 4160554.8 ], [ 284059.05, 4160554.69 ], [ 284057.28, 4160552.02 ], [ 284057.03, 4160551.6 ], [ 284056.82, 4160551.16 ], [ 284056.66, 4160550.7 ], [ 284056.54, 4160550.23 ], [ 284056.47, 4160549.75 ], [ 284056.44, 4160549.26 ], [ 284056.47, 4160548.78 ], [ 284056.54, 4160548.3 ], [ 284056.65, 4160547.83 ], [ 284056.81, 4160547.37 ], [ 284057.02, 4160546.93 ], [ 284057.26, 4160546.51 ], [ 284057.55, 4160546.11 ], [ 284057.87, 4160545.75 ], [ 284058.09, 4160545.55 ], [ 284053.85, 4160539.94 ], [ 284053.57, 4160539.54 ], [ 284053.34, 4160539.11 ], [ 284053.15, 4160538.67 ], [ 284053.0, 4160538.21 ], [ 284052.9, 4160537.73 ], [ 284052.85, 4160537.25 ], [ 284052.84, 4160536.77 ], [ 284052.88, 4160536.29 ], [ 284052.96, 4160535.81 ], [ 284053.09, 4160535.34 ], [ 284053.26, 4160534.89 ], [ 284053.48, 4160534.46 ], [ 284053.74, 4160534.05 ], [ 284054.04, 4160533.67 ], [ 284054.37, 4160533.31 ], [ 284054.74, 4160533.0 ], [ 284063.22, 4160526.3 ], [ 284063.62, 4160526.01 ], [ 284064.05, 4160525.77 ], [ 284064.5, 4160525.57 ], [ 284064.97, 4160525.41 ], [ 284065.45, 4160525.3 ], [ 284065.94, 4160525.24 ], [ 284066.43, 4160525.23 ], [ 284066.93, 4160525.26 ], [ 284067.41, 4160525.35 ], [ 284067.89, 4160525.48 ], [ 284068.35, 4160525.66 ], [ 284068.79, 4160525.88 ], [ 284069.21, 4160526.15 ], [ 284069.6, 4160526.45 ], [ 284069.95, 4160526.79 ], [ 284070.27, 4160527.17 ], [ 284075.91, 4160534.48 ], [ 284080.49, 4160537.0 ], [ 284080.51, 4160537.01 ], [ 284080.54, 4160537.03 ], [ 284080.71, 4160537.14 ], [ 284080.91, 4160537.26 ], [ 284080.93, 4160537.28 ], [ 284080.96, 4160537.29 ], [ 284081.12, 4160537.42 ], [ 284081.3, 4160537.55 ], [ 284081.32, 4160537.58 ], [ 284081.35, 4160537.6 ], [ 284081.5, 4160537.74 ], [ 284081.66, 4160537.89 ], [ 284081.68, 4160537.92 ], [ 284081.71, 4160537.94 ], [ 284081.84, 4160538.09 ], [ 284081.98, 4160538.26 ], [ 284082.01, 4160538.29 ], [ 284082.03, 4160538.32 ], [ 284085.65, 4160543.0 ], [ 284085.68, 4160543.04 ], [ 284085.71, 4160543.08 ], [ 284089.58, 4160548.27 ], [ 284089.61, 4160548.33 ], [ 284089.65, 4160548.38 ], [ 284091.86, 4160551.51 ], [ 284096.4, 4160551.03 ], [ 284066.61, 4160513.48 ], [ 284066.61, 4160513.47 ], [ 284056.05, 4160500.0 ], [ 284046.18, 4160500.0 ], [ 284046.48, 4160500.36 ], [ 284046.77, 4160500.75 ], [ 284047.02, 4160501.17 ], [ 284047.23, 4160501.61 ], [ 284047.4, 4160502.07 ], [ 284047.52, 4160502.55 ], [ 284047.55, 4160502.72 ], [ 284049.89, 4160505.57 ], [ 284050.19, 4160505.97 ], [ 284050.44, 4160506.39 ], [ 284050.65, 4160506.83 ], [ 284050.81, 4160507.29 ], [ 284050.93, 4160507.77 ], [ 284051.01, 4160508.25 ], [ 284051.03, 4160508.74 ], [ 284051.01, 4160509.23 ], [ 284050.94, 4160509.72 ], [ 284050.82, 4160510.19 ], [ 284050.65, 4160510.66 ], [ 284050.45, 4160511.1 ], [ 284050.19, 4160511.52 ], [ 284049.9, 4160511.92 ], [ 284049.57, 4160512.28 ], [ 284049.21, 4160512.61 ], [ 284045.68, 4160515.52 ], [ 284045.74, 4160515.79 ], [ 284045.82, 4160516.27 ], [ 284045.84, 4160516.76 ], [ 284045.82, 4160517.25 ], [ 284045.75, 4160517.74 ], [ 284045.63, 4160518.22 ], [ 284045.47, 4160518.68 ], [ 284045.26, 4160519.12 ], [ 284045.0, 4160519.55 ], [ 284044.71, 4160519.94 ], [ 284044.38, 4160520.31 ], [ 284044.02, 4160520.64 ], [ 284043.55, 4160521.02 ], [ 284043.84, 4160521.8 ], [ 284046.48, 4160521.66 ], [ 284046.54, 4160521.93 ], [ 284048.38, 4160521.48 ], [ 284056.21, 4160523.04 ], [ 284057.05, 4160523.55 ], [ 284058.8, 4160525.68 ], [ 284059.13, 4160526.61 ], [ 284059.13, 4160528.29 ], [ 284058.61, 4160529.39 ], [ 284056.06, 4160531.48 ], [ 284054.88, 4160531.78 ], [ 284047.05, 4160530.21 ], [ 284046.21, 4160529.71 ], [ 284044.46, 4160527.57 ], [ 284044.13, 4160526.65 ], [ 284044.13, 4160524.76 ], [ 284041.12, 4160523.02 ], [ 284038.13, 4160525.48 ], [ 284037.74, 4160525.77 ], [ 284037.32, 4160526.02 ], [ 284036.88, 4160526.23 ], [ 284036.42, 4160526.4 ], [ 284035.94, 4160526.52 ], [ 284035.45, 4160526.59 ], [ 284034.97, 4160526.61 ], [ 284034.48, 4160526.59 ], [ 284033.99, 4160526.52 ], [ 284033.51, 4160526.4 ], [ 284033.05, 4160526.24 ], [ 284032.61, 4160526.03 ], [ 284032.19, 4160525.78 ], [ 284031.79, 4160525.49 ], [ 284031.43, 4160525.16 ], [ 284031.1, 4160524.79 ], [ 284023.33, 4160515.37 ], [ 284023.04, 4160514.97 ], [ 284022.79, 4160514.55 ], [ 284022.57, 4160514.11 ], [ 284022.41, 4160513.65 ], [ 284022.29, 4160513.17 ], [ 284022.22, 4160512.69 ], [ 284022.19, 4160512.2 ], [ 284022.21, 4160511.71 ], [ 284022.28, 4160511.22 ], [ 284022.4, 4160510.75 ], [ 284022.57, 4160510.28 ], [ 284022.78, 4160509.84 ], [ 284023.03, 4160509.42 ], [ 284023.32, 4160509.02 ], [ 284023.65, 4160508.66 ], [ 284024.01, 4160508.33 ], [ 284034.13, 4160500.0 ], [ 284014.73, 4160500.0 ], [ 284014.97, 4160500.07 ], [ 284015.42, 4160500.24 ] ] ], [ [ [ 284010.32, 4160500.86 ], [ 284010.72, 4160500.58 ], [ 284011.15, 4160500.34 ], [ 284011.6, 4160500.14 ], [ 284012.02, 4160500.0 ], [ 284009.18, 4160500.0 ], [ 284009.85, 4160501.22 ], [ 284010.32, 4160500.86 ] ] ], [ [ [ 284101.67, 4160514.96 ], [ 284113.39, 4160515.37 ], [ 284113.82, 4160511.19 ], [ 284113.82, 4160511.18 ], [ 284113.82, 4160511.16 ], [ 284114.09, 4160508.83 ], [ 284113.85, 4160509.0 ], [ 284113.43, 4160509.23 ], [ 284112.99, 4160509.43 ], [ 284112.54, 4160509.58 ], [ 284112.07, 4160509.68 ], [ 284111.6, 4160509.74 ], [ 284111.12, 4160509.76 ], [ 284110.64, 4160509.73 ], [ 284088.06, 4160507.19 ], [ 284087.58, 4160507.11 ], [ 284087.1, 4160506.98 ], [ 284086.64, 4160506.81 ], [ 284086.2, 4160506.59 ], [ 284085.78, 4160506.33 ], [ 284085.39, 4160506.04 ], [ 284085.03, 4160505.7 ], [ 284084.71, 4160505.33 ], [ 284084.42, 4160504.94 ], [ 284084.18, 4160504.51 ], [ 284083.97, 4160504.06 ], [ 284083.82, 4160503.6 ], [ 284083.7, 4160503.12 ], [ 284083.64, 4160502.64 ], [ 284083.62, 4160502.15 ], [ 284083.65, 4160501.66 ], [ 284083.84, 4160500.0 ], [ 284079.8, 4160500.0 ], [ 284080.9, 4160501.42 ], [ 284088.24, 4160510.94 ], [ 284089.86, 4160512.96 ], [ 284090.49, 4160513.05 ], [ 284091.83, 4160513.25 ], [ 284091.91, 4160513.26 ], [ 284101.67, 4160514.96 ] ] ], [ [ [ 284152.17, 4160548.69 ], [ 284142.73, 4160547.11 ], [ 284142.3, 4160547.49 ], [ 284142.29, 4160547.49 ], [ 284141.69, 4160548.02 ], [ 284141.06, 4160553.49 ], [ 284145.01, 4160553.85 ], [ 284149.69, 4160553.37 ], [ 284149.7, 4160553.37 ], [ 284151.84, 4160553.16 ], [ 284152.14, 4160553.15 ], [ 284152.44, 4160553.16 ], [ 284178.9, 4160555.82 ], [ 284179.14, 4160555.85 ], [ 284179.57, 4160554.16 ], [ 284179.91, 4160551.75 ], [ 284179.59, 4160551.71 ], [ 284152.27, 4160548.71 ], [ 284152.17, 4160548.69 ] ] ], [ [ [ 284145.05, 4160559.96 ], [ 284144.76, 4160559.95 ], [ 284140.38, 4160559.56 ], [ 284138.99, 4160571.53 ], [ 284138.09, 4160579.29 ], [ 284137.91, 4160580.83 ], [ 284144.1, 4160581.44 ], [ 284146.05, 4160564.21 ], [ 284146.54, 4160559.83 ], [ 284145.34, 4160559.95 ], [ 284145.05, 4160559.96 ] ] ], [ [ [ 284042.45, 4160624.99 ], [ 284042.38, 4160624.69 ], [ 284042.33, 4160624.39 ], [ 284042.32, 4160624.09 ], [ 284042.34, 4160623.78 ], [ 284043.5, 4160612.36 ], [ 284043.55, 4160612.06 ], [ 284043.62, 4160611.77 ], [ 284043.73, 4160611.49 ], [ 284043.85, 4160611.22 ], [ 284044.01, 4160610.96 ], [ 284044.19, 4160610.73 ], [ 284044.39, 4160610.5 ], [ 284044.61, 4160610.3 ], [ 284044.85, 4160610.13 ], [ 284045.11, 4160609.97 ], [ 284045.38, 4160609.85 ], [ 284045.67, 4160609.75 ], [ 284045.96, 4160609.68 ], [ 284046.25, 4160609.63 ], [ 284046.53, 4160609.62 ], [ 284046.5, 4160609.53 ], [ 284046.38, 4160609.05 ], [ 284046.32, 4160608.57 ], [ 284046.3, 4160608.07 ], [ 284046.33, 4160607.58 ], [ 284048.08, 4160592.19 ], [ 284048.16, 4160591.71 ], [ 284048.28, 4160591.24 ], [ 284048.45, 4160590.78 ], [ 284048.67, 4160590.34 ], [ 284048.93, 4160589.92 ], [ 284049.22, 4160589.54 ], [ 284049.56, 4160589.18 ], [ 284049.92, 4160588.85 ], [ 284050.09, 4160588.73 ], [ 284044.05, 4160588.15 ], [ 284043.77, 4160588.11 ], [ 284043.5, 4160588.04 ], [ 284043.24, 4160587.95 ], [ 284042.98, 4160587.84 ], [ 284042.74, 4160587.7 ], [ 284040.45, 4160586.29 ], [ 284040.19, 4160586.11 ], [ 284039.96, 4160585.91 ], [ 284039.74, 4160585.68 ], [ 284039.55, 4160585.44 ], [ 284039.39, 4160585.17 ], [ 284039.25, 4160584.89 ], [ 284039.14, 4160584.6 ], [ 284039.07, 4160584.3 ], [ 284039.02, 4160583.99 ], [ 284039.0, 4160583.68 ], [ 284039.02, 4160583.37 ], [ 284039.6, 4160577.96 ], [ 284039.58, 4160577.89 ], [ 284039.51, 4160577.41 ], [ 284039.5, 4160576.92 ], [ 284039.53, 4160576.43 ], [ 284040.31, 4160569.31 ], [ 284040.39, 4160568.83 ], [ 284040.52, 4160568.35 ], [ 284040.69, 4160567.89 ], [ 284040.9, 4160567.45 ], [ 284041.16, 4160567.03 ], [ 284041.46, 4160566.64 ], [ 284041.79, 4160566.28 ], [ 284042.16, 4160565.96 ], [ 284042.56, 4160565.67 ], [ 284042.98, 4160565.42 ], [ 284043.43, 4160565.22 ], [ 284043.89, 4160565.06 ], [ 284044.37, 4160564.94 ], [ 284044.86, 4160564.88 ], [ 284045.35, 4160564.86 ], [ 284045.84, 4160564.89 ], [ 284047.97, 4160565.13 ], [ 284048.09, 4160565.13 ], [ 284048.32, 4160565.13 ], [ 284048.55, 4160565.15 ], [ 284048.73, 4160565.17 ], [ 284048.31, 4160561.08 ], [ 284048.28, 4160560.59 ], [ 284048.3, 4160560.1 ], [ 284048.37, 4160559.62 ], [ 284048.49, 4160559.14 ], [ 284048.65, 4160558.68 ], [ 284048.86, 4160558.24 ], [ 284049.11, 4160557.81 ], [ 284049.4, 4160557.42 ], [ 284049.72, 4160557.05 ], [ 284050.06, 4160556.75 ], [ 284043.34, 4160559.24 ], [ 284042.87, 4160559.39 ], [ 284042.4, 4160559.49 ], [ 284041.92, 4160559.54 ], [ 284041.43, 4160559.55 ], [ 284041.14, 4160559.53 ], [ 284041.11, 4160560.9 ], [ 284041.1, 4160561.17 ], [ 284038.13, 4160589.07 ], [ 284038.13, 4160589.65 ], [ 284038.04, 4160589.89 ], [ 284033.88, 4160629.07 ], [ 284045.76, 4160631.27 ], [ 284044.24, 4160629.69 ], [ 284044.06, 4160629.48 ], [ 284043.89, 4160629.24 ], [ 284043.74, 4160629.0 ], [ 284043.62, 4160628.74 ], [ 284043.53, 4160628.47 ], [ 284042.45, 4160624.99 ] ] ], [ [ [ 284185.93, 4160561.34 ], [ 284186.0, 4160561.62 ], [ 284187.2, 4160567.71 ], [ 284187.21, 4160567.72 ], [ 284187.21, 4160567.73 ], [ 284187.22, 4160567.83 ], [ 284187.25, 4160567.99 ], [ 284187.25, 4160568.01 ], [ 284187.25, 4160568.02 ], [ 284187.25, 4160568.13 ], [ 284187.26, 4160568.28 ], [ 284187.31, 4160575.64 ], [ 284187.3, 4160575.94 ], [ 284187.26, 4160576.23 ], [ 284187.19, 4160576.52 ], [ 284186.04, 4160580.45 ], [ 284185.92, 4160580.77 ], [ 284185.77, 4160581.09 ], [ 284183.5, 4160585.1 ], [ 284183.34, 4160585.36 ], [ 284183.14, 4160585.6 ], [ 284182.93, 4160585.83 ], [ 284180.33, 4160588.26 ], [ 284180.11, 4160588.45 ], [ 284179.86, 4160588.62 ], [ 284179.61, 4160588.76 ], [ 284179.33, 4160588.88 ], [ 284179.05, 4160588.97 ], [ 284173.72, 4160590.43 ], [ 284173.44, 4160590.5 ], [ 284173.16, 4160590.53 ], [ 284172.88, 4160590.54 ], [ 284172.59, 4160590.53 ], [ 284146.48, 4160587.8 ], [ 284137.22, 4160586.89 ], [ 284137.2, 4160587.07 ], [ 284136.33, 4160595.29 ], [ 284136.07, 4160597.98 ], [ 284147.91, 4160599.18 ], [ 284148.2, 4160599.22 ], [ 284148.5, 4160599.3 ], [ 284148.78, 4160599.4 ], [ 284149.05, 4160599.53 ], [ 284149.31, 4160599.69 ], [ 284149.55, 4160599.87 ], [ 284149.78, 4160600.07 ], [ 284149.98, 4160600.3 ], [ 284150.15, 4160600.54 ], [ 284150.31, 4160600.8 ], [ 284150.43, 4160601.08 ], [ 284150.53, 4160601.36 ], [ 284150.6, 4160601.66 ], [ 284150.64, 4160601.96 ], [ 284150.65, 4160602.26 ], [ 284150.63, 4160602.56 ], [ 284150.48, 4160603.85 ], [ 284151.4, 4160603.95 ], [ 284151.59, 4160603.65 ], [ 284151.89, 4160603.26 ], [ 284152.22, 4160602.9 ], [ 284152.59, 4160602.58 ], [ 284152.98, 4160602.29 ], [ 284153.41, 4160602.04 ], [ 284153.85, 4160601.84 ], [ 284154.31, 4160601.68 ], [ 284154.79, 4160601.56 ], [ 284155.28, 4160601.49 ], [ 284155.77, 4160601.47 ], [ 284156.26, 4160601.5 ], [ 284156.86, 4160601.57 ], [ 284157.05, 4160601.19 ], [ 284157.3, 4160600.77 ], [ 284157.6, 4160600.38 ], [ 284157.93, 4160600.02 ], [ 284158.3, 4160599.69 ], [ 284158.7, 4160599.4 ], [ 284159.12, 4160599.15 ], [ 284159.57, 4160598.95 ], [ 284160.03, 4160598.79 ], [ 284160.51, 4160598.67 ], [ 284160.99, 4160598.61 ], [ 284161.48, 4160598.59 ], [ 284161.97, 4160598.61 ], [ 284165.41, 4160598.99 ], [ 284165.9, 4160599.06 ], [ 284166.37, 4160599.19 ], [ 284166.83, 4160599.36 ], [ 284167.27, 4160599.57 ], [ 284167.69, 4160599.83 ], [ 284168.08, 4160600.12 ], [ 284168.44, 4160600.46 ], [ 284168.77, 4160600.82 ], [ 284169.06, 4160601.22 ], [ 284169.31, 4160601.64 ], [ 284169.51, 4160602.09 ], [ 284169.67, 4160602.55 ], [ 284169.79, 4160603.03 ], [ 284169.85, 4160603.52 ], [ 284169.87, 4160604.01 ], [ 284169.85, 4160604.5 ], [ 284169.75, 4160605.38 ], [ 284169.87, 4160605.63 ], [ 284170.03, 4160606.1 ], [ 284170.14, 4160606.57 ], [ 284170.21, 4160607.06 ], [ 284170.23, 4160607.55 ], [ 284170.2, 4160608.04 ], [ 284169.86, 4160611.21 ], [ 284181.78, 4160612.62 ], [ 284182.27, 4160612.7 ], [ 284182.74, 4160612.83 ], [ 284183.2, 4160613.0 ], [ 284183.64, 4160613.22 ], [ 284184.06, 4160613.48 ], [ 284184.44, 4160613.78 ], [ 284184.8, 4160614.11 ], [ 284185.12, 4160614.48 ], [ 284185.41, 4160614.88 ], [ 284185.65, 4160615.31 ], [ 284185.85, 4160615.76 ], [ 284186.01, 4160616.22 ], [ 284186.12, 4160616.7 ], [ 284186.18, 4160617.19 ], [ 284186.2, 4160617.68 ], [ 284186.16, 4160618.17 ], [ 284184.38, 4160633.28 ], [ 284184.3, 4160633.77 ], [ 284184.17, 4160634.24 ], [ 284184.0, 4160634.7 ], [ 284183.78, 4160635.14 ], [ 284183.52, 4160635.55 ], [ 284183.22, 4160635.94 ], [ 284182.88, 4160636.3 ], [ 284182.51, 4160636.62 ], [ 284182.11, 4160636.91 ], [ 284181.69, 4160637.15 ], [ 284181.24, 4160637.35 ], [ 284180.78, 4160637.51 ], [ 284180.3, 4160637.62 ], [ 284179.81, 4160637.68 ], [ 284179.32, 4160637.7 ], [ 284178.83, 4160637.66 ], [ 284164.34, 4160635.95 ], [ 284163.85, 4160635.87 ], [ 284163.38, 4160635.74 ], [ 284162.92, 4160635.57 ], [ 284162.48, 4160635.35 ], [ 284162.07, 4160635.09 ], [ 284161.68, 4160634.79 ], [ 284161.32, 4160634.46 ], [ 284161.0, 4160634.09 ], [ 284160.71, 4160633.69 ], [ 284160.47, 4160633.26 ], [ 284160.27, 4160632.82 ], [ 284160.11, 4160632.35 ], [ 284160.0, 4160631.87 ], [ 284159.94, 4160631.39 ], [ 284159.92, 4160630.9 ], [ 284159.95, 4160630.41 ], [ 284160.32, 4160627.22 ], [ 284159.0, 4160627.08 ], [ 284158.96, 4160627.13 ], [ 284158.59, 4160627.46 ], [ 284158.19, 4160627.74 ], [ 284157.77, 4160627.99 ], [ 284157.32, 4160628.2 ], [ 284156.86, 4160628.36 ], [ 284156.38, 4160628.47 ], [ 284155.9, 4160628.54 ], [ 284155.41, 4160628.56 ], [ 284154.92, 4160628.53 ], [ 284148.03, 4160627.79 ], [ 284146.82, 4160639.94 ], [ 284185.01, 4160644.0 ], [ 284190.22, 4160597.92 ], [ 284194.96, 4160553.45 ], [ 284186.73, 4160552.63 ], [ 284186.67, 4160552.62 ], [ 284185.96, 4160552.53 ], [ 284185.59, 4160555.17 ], [ 284185.53, 4160555.5 ], [ 284184.57, 4160559.28 ], [ 284185.39, 4160560.3 ], [ 284185.56, 4160560.54 ], [ 284185.71, 4160560.79 ], [ 284185.83, 4160561.06 ], [ 284185.93, 4160561.34 ] ] ], [ [ [ 284090.38, 4160600.74 ], [ 284090.59, 4160600.52 ], [ 284093.4, 4160597.69 ], [ 284093.62, 4160597.5 ], [ 284093.85, 4160597.32 ], [ 284094.1, 4160597.17 ], [ 284094.36, 4160597.04 ], [ 284094.63, 4160596.94 ], [ 284094.92, 4160596.86 ], [ 284095.2, 4160596.82 ], [ 284101.68, 4160596.05 ], [ 284101.93, 4160596.03 ], [ 284102.19, 4160596.03 ], [ 284102.44, 4160596.05 ], [ 284104.58, 4160596.34 ], [ 284105.02, 4160592.23 ], [ 284091.93, 4160592.77 ], [ 284091.51, 4160592.76 ], [ 284086.63, 4160592.29 ], [ 284086.81, 4160592.44 ], [ 284087.13, 4160592.8 ], [ 284087.42, 4160593.18 ], [ 284087.67, 4160593.59 ], [ 284087.88, 4160594.02 ], [ 284088.05, 4160594.47 ], [ 284088.18, 4160594.94 ], [ 284088.26, 4160595.41 ], [ 284088.29, 4160595.89 ], [ 284088.28, 4160596.37 ], [ 284087.13, 4160611.88 ], [ 284087.09, 4160612.2 ], [ 284084.54, 4160630.48 ], [ 284084.44, 4160630.98 ], [ 284084.3, 4160631.46 ], [ 284084.1, 4160631.93 ], [ 284083.86, 4160632.37 ], [ 284083.58, 4160632.79 ], [ 284083.26, 4160633.18 ], [ 284082.9, 4160633.53 ], [ 284082.87, 4160633.56 ], [ 284083.26, 4160633.62 ], [ 284086.96, 4160633.92 ], [ 284086.94, 4160633.84 ], [ 284086.9, 4160633.55 ], [ 284086.88, 4160633.26 ], [ 284086.89, 4160632.96 ], [ 284087.43, 4160626.11 ], [ 284087.44, 4160626.06 ], [ 284089.71, 4160602.38 ], [ 284089.75, 4160602.08 ], [ 284089.83, 4160601.79 ], [ 284089.93, 4160601.51 ], [ 284090.05, 4160601.24 ], [ 284090.21, 4160600.98 ], [ 284090.38, 4160600.74 ] ] ], [ [ [ 284095.68, 4160604.05 ], [ 284093.51, 4160626.62 ], [ 284093.08, 4160632.04 ], [ 284095.69, 4160634.64 ], [ 284100.45, 4160635.1 ], [ 284103.93, 4160602.4 ], [ 284102.02, 4160602.15 ], [ 284096.98, 4160602.75 ], [ 284095.68, 4160604.05 ] ] ], [ [ [ 284057.77, 4160647.89 ], [ 284058.1, 4160647.83 ], [ 284058.59, 4160647.81 ], [ 284059.08, 4160647.83 ], [ 284067.84, 4160648.66 ], [ 284067.8, 4160648.3 ], [ 284067.8, 4160647.81 ], [ 284067.84, 4160647.32 ], [ 284068.49, 4160642.72 ], [ 284068.58, 4160642.24 ], [ 284068.72, 4160641.77 ], [ 284068.91, 4160641.31 ], [ 284069.13, 4160640.88 ], [ 284069.4, 4160640.47 ], [ 284069.71, 4160640.09 ], [ 284070.06, 4160639.74 ], [ 284070.44, 4160639.42 ], [ 284070.84, 4160639.15 ], [ 284071.27, 4160638.91 ], [ 284071.72, 4160638.72 ], [ 284072.19, 4160638.58 ], [ 284072.38, 4160638.54 ], [ 284072.53, 4160638.34 ], [ 284072.88, 4160637.99 ], [ 284072.9, 4160637.98 ], [ 284053.44, 4160634.51 ], [ 284053.96, 4160634.93 ], [ 284054.18, 4160635.12 ], [ 284054.38, 4160635.33 ], [ 284056.42, 4160637.72 ], [ 284056.61, 4160637.98 ], [ 284056.78, 4160638.26 ], [ 284056.92, 4160638.55 ], [ 284058.22, 4160641.76 ], [ 284058.33, 4160642.07 ], [ 284058.4, 4160642.38 ], [ 284058.44, 4160642.7 ], [ 284058.44, 4160643.02 ], [ 284058.42, 4160643.34 ], [ 284057.77, 4160647.89 ] ] ], [ [ [ 284093.2, 4160642.13 ], [ 284093.3, 4160642.61 ], [ 284093.35, 4160643.1 ], [ 284093.36, 4160643.59 ], [ 284093.31, 4160644.08 ], [ 284092.21, 4160651.96 ], [ 284092.12, 4160652.44 ], [ 284091.98, 4160652.91 ], [ 284091.79, 4160653.37 ], [ 284091.57, 4160653.8 ], [ 284091.3, 4160654.21 ], [ 284090.99, 4160654.59 ], [ 284090.64, 4160654.94 ], [ 284090.27, 4160655.26 ], [ 284089.86, 4160655.53 ], [ 284089.43, 4160655.77 ], [ 284088.98, 4160655.96 ], [ 284088.51, 4160656.1 ], [ 284088.03, 4160656.2 ], [ 284087.54, 4160656.26 ], [ 284087.51, 4160656.26 ], [ 284087.24, 4160656.44 ], [ 284086.81, 4160656.68 ], [ 284086.36, 4160656.87 ], [ 284085.89, 4160657.02 ], [ 284085.41, 4160657.12 ], [ 284084.92, 4160657.17 ], [ 284084.42, 4160657.17 ], [ 284083.93, 4160657.13 ], [ 284083.58, 4160657.08 ], [ 284082.65, 4160666.86 ], [ 284083.81, 4160666.98 ], [ 284084.29, 4160667.05 ], [ 284084.76, 4160667.17 ], [ 284085.21, 4160667.33 ], [ 284085.65, 4160667.54 ], [ 284086.07, 4160667.79 ], [ 284086.46, 4160668.07 ], [ 284086.82, 4160668.39 ], [ 284087.15, 4160668.75 ], [ 284087.44, 4160669.14 ], [ 284087.69, 4160669.55 ], [ 284087.9, 4160669.98 ], [ 284088.07, 4160670.44 ], [ 284088.2, 4160670.91 ], [ 284088.27, 4160671.38 ], [ 284088.31, 4160671.87 ], [ 284088.29, 4160672.35 ], [ 284087.68, 4160679.97 ], [ 284087.62, 4160680.47 ], [ 284087.51, 4160680.95 ], [ 284087.35, 4160681.42 ], [ 284087.14, 4160681.87 ], [ 284086.89, 4160682.3 ], [ 284086.6, 4160682.71 ], [ 284086.27, 4160683.08 ], [ 284085.9, 4160683.42 ], [ 284085.51, 4160683.72 ], [ 284085.08, 4160683.97 ], [ 284084.63, 4160684.19 ], [ 284084.16, 4160684.36 ], [ 284083.68, 4160684.48 ], [ 284083.19, 4160684.55 ], [ 284082.69, 4160684.58 ], [ 284082.2, 4160684.55 ], [ 284059.33, 4160682.24 ], [ 284058.85, 4160682.16 ], [ 284058.37, 4160682.04 ], [ 284057.91, 4160681.88 ], [ 284057.47, 4160681.67 ], [ 284057.05, 4160681.41 ], [ 284056.65, 4160681.12 ], [ 284056.29, 4160680.79 ], [ 284055.96, 4160680.43 ], [ 284055.67, 4160680.03 ], [ 284055.42, 4160679.61 ], [ 284055.21, 4160679.17 ], [ 284055.05, 4160678.7 ], [ 284054.93, 4160678.23 ], [ 284054.86, 4160677.74 ], [ 284054.84, 4160677.25 ], [ 284054.86, 4160676.76 ], [ 284055.63, 4160669.16 ], [ 284055.7, 4160668.67 ], [ 284055.82, 4160668.2 ], [ 284055.99, 4160667.73 ], [ 284056.2, 4160667.29 ], [ 284056.45, 4160666.87 ], [ 284056.74, 4160666.48 ], [ 284057.07, 4160666.11 ], [ 284057.44, 4160665.79 ], [ 284057.83, 4160665.49 ], [ 284058.25, 4160665.24 ], [ 284058.33, 4160665.21 ], [ 284057.44, 4160665.12 ], [ 284056.95, 4160665.05 ], [ 284056.48, 4160664.93 ], [ 284056.02, 4160664.77 ], [ 284055.57, 4160664.56 ], [ 284055.4, 4160664.46 ], [ 284052.83, 4160682.42 ], [ 284058.79, 4160683.02 ], [ 284059.73, 4160682.63 ], [ 284061.53, 4160682.63 ], [ 284062.55, 4160683.05 ], [ 284062.94, 4160683.43 ], [ 284074.97, 4160684.64 ], [ 284075.01, 4160684.65 ], [ 284075.05, 4160684.65 ], [ 284094.86, 4160687.54 ], [ 284098.35, 4160654.83 ], [ 284099.81, 4160641.16 ], [ 284094.04, 4160640.62 ], [ 284092.43, 4160640.49 ], [ 284092.63, 4160640.78 ], [ 284092.86, 4160641.21 ], [ 284093.06, 4160641.66 ], [ 284093.2, 4160642.13 ] ] ], [ [ [ 284136.44, 4160661.45 ], [ 284136.72, 4160661.35 ], [ 284137.0, 4160661.28 ], [ 284137.29, 4160661.24 ], [ 284137.59, 4160661.23 ], [ 284137.88, 4160661.24 ], [ 284171.17, 4160664.6 ], [ 284171.87, 4160659.14 ], [ 284130.95, 4160655.14 ], [ 284127.48, 4160683.79 ], [ 284126.86, 4160688.96 ], [ 284127.71, 4160688.96 ], [ 284129.64, 4160687.37 ], [ 284130.68, 4160685.35 ], [ 284132.02, 4160682.48 ], [ 284134.55, 4160663.87 ], [ 284134.6, 4160663.58 ], [ 284134.68, 4160663.3 ], [ 284134.79, 4160663.03 ], [ 284134.92, 4160662.77 ], [ 284135.08, 4160662.52 ], [ 284135.26, 4160662.29 ], [ 284135.46, 4160662.08 ], [ 284135.68, 4160661.88 ], [ 284135.92, 4160661.71 ], [ 284136.18, 4160661.57 ], [ 284136.44, 4160661.45 ] ] ], [ [ [ 284052.87, 4160713.87 ], [ 284053.2, 4160713.51 ], [ 284053.57, 4160713.18 ], [ 284053.96, 4160712.89 ], [ 284054.38, 4160712.64 ], [ 284054.83, 4160712.44 ], [ 284055.29, 4160712.28 ], [ 284055.77, 4160712.16 ], [ 284056.25, 4160712.09 ], [ 284056.74, 4160712.07 ], [ 284057.23, 4160712.1 ], [ 284059.99, 4160712.38 ], [ 284061.12, 4160702.34 ], [ 284061.2, 4160701.86 ], [ 284061.33, 4160701.39 ], [ 284061.5, 4160700.93 ], [ 284061.62, 4160700.68 ], [ 284051.66, 4160699.53 ], [ 284050.53, 4160703.3 ], [ 284050.13, 4160707.85 ], [ 284050.12, 4160707.99 ], [ 284047.69, 4160726.44 ], [ 284050.29, 4160727.51 ], [ 284050.49, 4160727.36 ], [ 284050.58, 4160727.35 ], [ 284050.62, 4160727.31 ], [ 284051.74, 4160716.55 ], [ 284051.82, 4160716.06 ], [ 284051.94, 4160715.59 ], [ 284052.11, 4160715.13 ], [ 284052.32, 4160714.69 ], [ 284052.57, 4160714.27 ], [ 284052.87, 4160713.87 ] ] ], [ [ [ 284176.55, 4160725.05 ], [ 284176.13, 4160724.03 ], [ 284176.13, 4160722.22 ], [ 284176.55, 4160721.2 ], [ 284178.71, 4160719.05 ], [ 284178.94, 4160718.95 ], [ 284179.18, 4160717.03 ], [ 284180.07, 4160705.3 ], [ 284179.95, 4160705.09 ], [ 284179.76, 4160704.64 ], [ 284179.61, 4160704.17 ], [ 284179.51, 4160703.69 ], [ 284179.46, 4160703.21 ], [ 284179.46, 4160702.72 ], [ 284179.54, 4160700.55 ], [ 284178.71, 4160700.2 ], [ 284176.55, 4160698.05 ], [ 284176.13, 4160697.03 ], [ 284176.13, 4160695.22 ], [ 284176.55, 4160694.2 ], [ 284179.13, 4160691.63 ], [ 284178.59, 4160691.08 ], [ 284179.59, 4160687.81 ], [ 284176.76, 4160683.57 ], [ 284176.57, 4160683.17 ], [ 284176.2, 4160681.93 ], [ 284176.13, 4160681.5 ], [ 284176.13, 4160674.47 ], [ 284173.85, 4160694.1 ], [ 284173.8, 4160694.4 ], [ 284173.73, 4160694.68 ], [ 284173.62, 4160694.96 ], [ 284173.49, 4160695.23 ], [ 284173.33, 4160695.48 ], [ 284173.15, 4160695.72 ], [ 284172.95, 4160695.94 ], [ 284172.73, 4160696.13 ], [ 284172.49, 4160696.31 ], [ 284172.23, 4160696.46 ], [ 284171.96, 4160696.58 ], [ 284171.68, 4160696.68 ], [ 284171.39, 4160696.75 ], [ 284171.09, 4160696.79 ], [ 284170.8, 4160696.8 ], [ 284170.5, 4160696.78 ], [ 284142.79, 4160693.83 ], [ 284133.46, 4160698.01 ], [ 284133.2, 4160698.11 ], [ 284132.93, 4160698.19 ], [ 284132.65, 4160698.24 ], [ 284129.61, 4160698.67 ], [ 284124.73, 4160699.48 ], [ 284122.42, 4160699.86 ], [ 284122.32, 4160700.79 ], [ 284122.73, 4160700.63 ], [ 284130.53, 4160700.63 ], [ 284131.55, 4160701.05 ], [ 284133.71, 4160703.2 ], [ 284134.13, 4160704.22 ], [ 284134.13, 4160706.03 ], [ 284133.71, 4160707.05 ], [ 284131.55, 4160709.2 ], [ 284130.53, 4160709.63 ], [ 284122.73, 4160709.63 ], [ 284121.71, 4160709.2 ], [ 284121.44, 4160708.94 ], [ 284121.36, 4160709.68 ], [ 284119.59, 4160726.09 ], [ 284121.08, 4160724.93 ], [ 284121.98, 4160724.63 ], [ 284151.53, 4160724.63 ], [ 284152.55, 4160725.05 ], [ 284154.71, 4160727.2 ], [ 284155.13, 4160728.22 ], [ 284155.13, 4160743.14 ], [ 284156.01, 4160745.26 ], [ 284156.21, 4160745.46 ], [ 284156.63, 4160746.48 ], [ 284156.63, 4160747.13 ], [ 284159.51, 4160750.0 ], [ 284175.03, 4160750.0 ], [ 284177.99, 4160726.48 ], [ 284176.55, 4160725.05 ] ], [ [ 284176.43, 4160711.36 ], [ 284176.28, 4160711.83 ], [ 284176.07, 4160712.28 ], [ 284175.83, 4160712.7 ], [ 284175.54, 4160713.1 ], [ 284175.22, 4160713.47 ], [ 284174.86, 4160713.81 ], [ 284174.48, 4160714.11 ], [ 284174.06, 4160714.37 ], [ 284173.62, 4160714.58 ], [ 284173.16, 4160714.76 ], [ 284172.69, 4160714.89 ], [ 284172.2, 4160714.97 ], [ 284171.71, 4160715.0 ], [ 284171.22, 4160714.99 ], [ 284168.55, 4160714.77 ], [ 284168.07, 4160714.71 ], [ 284167.59, 4160714.6 ], [ 284167.12, 4160714.44 ], [ 284166.68, 4160714.24 ], [ 284166.25, 4160714.0 ], [ 284165.85, 4160713.71 ], [ 284165.48, 4160713.39 ], [ 284165.15, 4160713.03 ], [ 284164.85, 4160712.64 ], [ 284164.59, 4160712.23 ], [ 284164.37, 4160711.79 ], [ 284164.19, 4160711.33 ], [ 284164.07, 4160710.85 ], [ 284163.99, 4160710.37 ], [ 284163.95, 4160709.88 ], [ 284163.97, 4160709.39 ], [ 284164.39, 4160704.16 ], [ 284164.45, 4160703.68 ], [ 284164.56, 4160703.2 ], [ 284164.72, 4160702.73 ], [ 284164.92, 4160702.29 ], [ 284165.16, 4160701.86 ], [ 284165.45, 4160701.46 ], [ 284165.77, 4160701.09 ], [ 284166.13, 4160700.76 ], [ 284166.52, 4160700.46 ], [ 284166.93, 4160700.2 ], [ 284167.37, 4160699.98 ], [ 284167.83, 4160699.8 ], [ 284168.3, 4160699.68 ], [ 284168.79, 4160699.6 ], [ 284169.28, 4160699.56 ], [ 284169.77, 4160699.58 ], [ 284172.44, 4160699.79 ], [ 284172.92, 4160699.85 ], [ 284173.4, 4160699.96 ], [ 284173.87, 4160700.12 ], [ 284174.31, 4160700.32 ], [ 284174.74, 4160700.57 ], [ 284175.14, 4160700.85 ], [ 284175.51, 4160701.17 ], [ 284175.85, 4160701.53 ], [ 284176.14, 4160701.92 ], [ 284176.4, 4160702.34 ], [ 284176.62, 4160702.78 ], [ 284176.8, 4160703.24 ], [ 284176.92, 4160703.71 ], [ 284177.01, 4160704.19 ], [ 284177.04, 4160704.68 ], [ 284177.02, 4160705.17 ], [ 284176.61, 4160710.4 ], [ 284176.54, 4160710.89 ], [ 284176.43, 4160711.36 ] ] ], [ [ [ 284073.4, 4160746.19 ], [ 284079.64, 4160747.75 ], [ 284080.53, 4160748.41 ], [ 284081.48, 4160750.0 ], [ 284087.97, 4160750.0 ], [ 284090.81, 4160722.08 ], [ 284090.67, 4160722.1 ], [ 284090.18, 4160722.11 ], [ 284089.69, 4160722.08 ], [ 284082.69, 4160721.29 ], [ 284081.69, 4160730.86 ], [ 284081.62, 4160731.35 ], [ 284081.5, 4160731.82 ], [ 284081.33, 4160732.28 ], [ 284081.12, 4160732.72 ], [ 284080.86, 4160733.14 ], [ 284080.57, 4160733.54 ], [ 284080.24, 4160733.9 ], [ 284079.87, 4160734.22 ], [ 284079.47, 4160734.51 ], [ 284079.05, 4160734.76 ], [ 284078.61, 4160734.97 ], [ 284078.14, 4160735.13 ], [ 284077.92, 4160735.19 ], [ 284077.1, 4160736.13 ], [ 284076.02, 4160736.63 ], [ 284074.35, 4160736.63 ], [ 284073.25, 4160736.1 ], [ 284072.7, 4160735.44 ], [ 284072.09, 4160734.88 ], [ 284070.58, 4160734.73 ], [ 284066.63, 4160736.84 ], [ 284066.63, 4160737.25 ], [ 284068.48, 4160740.02 ], [ 284068.55, 4160740.05 ], [ 284070.71, 4160742.2 ], [ 284071.13, 4160743.22 ], [ 284071.13, 4160743.28 ], [ 284073.4, 4160746.19 ] ] ], [ [ [ 284191.17, 4160506.33 ], [ 284191.05, 4160506.81 ], [ 284190.88, 4160507.27 ], [ 284190.67, 4160507.71 ], [ 284190.41, 4160508.13 ], [ 284190.12, 4160508.52 ], [ 284189.78, 4160508.88 ], [ 284189.42, 4160509.21 ], [ 284189.02, 4160509.5 ], [ 284188.6, 4160509.74 ], [ 284188.15, 4160509.95 ], [ 284187.69, 4160510.11 ], [ 284187.21, 4160510.23 ], [ 284186.73, 4160510.3 ], [ 284186.24, 4160510.32 ], [ 284185.75, 4160510.29 ], [ 284180.01, 4160509.68 ], [ 284179.87, 4160510.83 ], [ 284179.79, 4160511.31 ], [ 284179.66, 4160511.79 ], [ 284179.49, 4160512.24 ], [ 284179.27, 4160512.68 ], [ 284179.01, 4160513.1 ], [ 284178.71, 4160513.49 ], [ 284178.37, 4160513.84 ], [ 284178.0, 4160514.17 ], [ 284177.61, 4160514.45 ], [ 284177.18, 4160514.7 ], [ 284176.73, 4160514.9 ], [ 284176.27, 4160515.05 ], [ 284175.79, 4160515.16 ], [ 284175.31, 4160515.23 ], [ 284174.82, 4160515.24 ], [ 284174.33, 4160515.21 ], [ 284174.18, 4160515.19 ], [ 284174.31, 4160515.31 ], [ 284174.63, 4160515.68 ], [ 284174.92, 4160516.08 ], [ 284175.16, 4160516.51 ], [ 284175.36, 4160516.95 ], [ 284175.52, 4160517.42 ], [ 284175.63, 4160517.9 ], [ 284175.69, 4160518.38 ], [ 284175.71, 4160518.87 ], [ 284175.67, 4160519.36 ], [ 284175.08, 4160524.41 ], [ 284174.02, 4160533.41 ], [ 284173.94, 4160533.89 ], [ 284173.82, 4160534.35 ], [ 284173.73, 4160534.6 ], [ 284196.73, 4160536.86 ], [ 284200.65, 4160500.0 ], [ 284191.87, 4160500.0 ], [ 284191.25, 4160505.85 ], [ 284191.17, 4160506.33 ] ] ], [ [ [ 284212.69, 4160508.58 ], [ 284213.18, 4160508.65 ], [ 284213.65, 4160508.76 ], [ 284214.12, 4160508.91 ], [ 284214.24, 4160508.97 ], [ 284214.36, 4160508.89 ], [ 284214.79, 4160508.67 ], [ 284215.25, 4160508.5 ], [ 284215.73, 4160508.37 ], [ 284216.21, 4160508.29 ], [ 284219.29, 4160507.94 ], [ 284217.27, 4160503.9 ], [ 284217.27, 4160502.62 ], [ 284218.61, 4160500.0 ], [ 284206.78, 4160500.0 ], [ 284205.79, 4160509.3 ], [ 284205.8, 4160509.3 ], [ 284211.71, 4160508.6 ], [ 284212.2, 4160508.57 ], [ 284212.69, 4160508.58 ] ] ], [ [ [ 284190.71, 4160647.92 ], [ 284191.47, 4160647.89 ], [ 284197.52, 4160647.46 ], [ 284250.0, 4160641.03 ], [ 284250.0, 4160639.7 ], [ 284190.81, 4160647.05 ], [ 284190.71, 4160647.92 ] ] ], [ [ [ 284191.17, 4160739.56 ], [ 284190.84, 4160739.63 ], [ 284188.73, 4160739.63 ], [ 284187.71, 4160739.2 ], [ 284185.55, 4160737.05 ], [ 284185.13, 4160736.03 ], [ 284185.13, 4160730.63 ], [ 284183.79, 4160729.28 ], [ 284181.26, 4160749.36 ], [ 284185.75, 4160750.0 ], [ 284193.61, 4160750.0 ], [ 284196.05, 4160747.3 ], [ 284194.67, 4160741.77 ], [ 284191.17, 4160739.56 ] ] ] ] } },
{ "type": "Feature", "properties": { "id": "richmond_structure:294055", "name": null, "kind": "deck", "sport": null, "surface": null, "pitch_layout": null, "source": "richmond_structures", "source_updated": "2026-09-08T12:07:13.637000Z", "base_z": null, "top_z": null }, "geometry": { "type": "Polygon", "coordinates": [ [ [ 284173.85, 4160519.94 ], [ 284170.53, 4160519.61 ], [ 284169.93, 4160524.66 ], [ 284173.21, 4160525.0 ], [ 284173.85, 4160519.94 ] ] ] } },
{ "type": "Feature", "properties": { "id": "richmond_structure:294056", "name": null, "kind": "deck", "sport": null, "surface": null, "pitch_layout": null, "source": "richmond_structures", "source_updated": "2026-09-08T12:07:13.637000Z", "base_z": null, "top_z": null }, "geometry": { "type": "Polygon", "coordinates": [ [ [ 284173.21, 4160525.0 ], [ 284169.93, 4160524.66 ], [ 284168.87, 4160533.67 ], [ 284172.06, 4160533.97 ], [ 284173.21, 4160525.0 ] ] ] } },
{ "type": "Feature", "properties": { "id": "imagery:groundcover_lawn:276", "name": null, "kind": "groundcover_lawn", "sport": null, "surface": null, "pitch_layout": null, "source": "vgin_vbmp+naip+lidar2025", "source_updated": null, "base_z": null, "top_z": null }, "geometry": { "type": "MultiPolygon", "coordinates": [ [ [ [ 284001.27, 4160638.21 ], [ 284001.32, 4160637.98 ], [ 284002.82, 4160632.42 ], [ 284002.91, 4160632.14 ], [ 284003.02, 4160631.88 ], [ 284003.16, 4160631.63 ], [ 284003.21, 4160631.55 ], [ 284003.15, 4160631.58 ], [ 284003.06, 4160631.62 ], [ 284002.97, 4160631.65 ], [ 284002.87, 4160631.67 ], [ 284002.77, 4160631.68 ], [ 284002.68, 4160631.68 ], [ 284002.58, 4160631.67 ], [ 284000.0, 4160631.29 ], [ 284000.0, 4160636.01 ], [ 284000.04, 4160636.1 ], [ 284000.07, 4160636.2 ], [ 284000.09, 4160636.29 ], [ 284000.11, 4160636.39 ], [ 284000.11, 4160636.49 ], [ 284000.1, 4160636.59 ], [ 284000.0, 4160637.46 ], [ 284000.0, 4160649.58 ], [ 284001.24, 4160638.44 ], [ 284001.27, 4160638.21 ] ] ], [ [ [ 284003.89, 4160623.45 ], [ 284003.98, 4160623.48 ], [ 284004.07, 4160623.52 ], [ 284004.16, 4160623.57 ], [ 284004.24, 4160623.62 ], [ 284004.32, 4160623.68 ], [ 284004.39, 4160623.75 ], [ 284004.45, 4160623.83 ], [ 284004.51, 4160623.91 ], [ 284004.55, 4160624.0 ], [ 284004.59, 4160624.09 ], [ 284004.62, 4160624.18 ], [ 284004.64, 4160624.28 ], [ 284004.65, 4160624.37 ], [ 284004.65, 4160624.47 ], [ 284004.64, 4160624.57 ], [ 284003.71, 4160630.82 ], [ 284003.69, 4160630.92 ], [ 284003.68, 4160630.97 ], [ 284005.51, 4160628.95 ], [ 284005.7, 4160628.75 ], [ 284005.9, 4160628.58 ], [ 284006.12, 4160628.42 ], [ 284006.36, 4160628.29 ], [ 284006.6, 4160628.17 ], [ 284009.99, 4160626.76 ], [ 284010.26, 4160626.67 ], [ 284010.54, 4160626.59 ], [ 284010.83, 4160626.55 ], [ 284011.11, 4160626.53 ], [ 284011.4, 4160626.54 ], [ 284025.61, 4160627.66 ], [ 284025.87, 4160627.69 ], [ 284027.85, 4160628.02 ], [ 284030.51, 4160603.01 ], [ 284029.13, 4160601.63 ], [ 284029.04, 4160601.63 ], [ 284028.88, 4160602.99 ], [ 284028.87, 4160603.09 ], [ 284028.84, 4160603.19 ], [ 284028.81, 4160603.28 ], [ 284028.77, 4160603.37 ], [ 284028.71, 4160603.45 ], [ 284028.66, 4160603.53 ], [ 284028.59, 4160603.6 ], [ 284028.51, 4160603.66 ], [ 284028.44, 4160603.72 ], [ 284028.35, 4160603.77 ], [ 284028.26, 4160603.81 ], [ 284028.17, 4160603.84 ], [ 284028.07, 4160603.87 ], [ 284027.98, 4160603.88 ], [ 284027.88, 4160603.88 ], [ 284027.78, 4160603.88 ], [ 284021.92, 4160603.23 ], [ 284021.82, 4160603.21 ], [ 284021.73, 4160603.19 ], [ 284021.64, 4160603.16 ], [ 284021.55, 4160603.11 ], [ 284021.46, 4160603.06 ], [ 284021.39, 4160603.0 ], [ 284021.31, 4160602.93 ], [ 284021.25, 4160602.86 ], [ 284021.19, 4160602.78 ], [ 284021.14, 4160602.7 ], [ 284021.1, 4160602.61 ], [ 284021.07, 4160602.51 ], [ 284021.05, 4160602.42 ], [ 284021.03, 4160602.32 ], [ 284021.03, 4160602.22 ], [ 284021.04, 4160602.13 ], [ 284021.67, 4160596.47 ], [ 284021.68, 4160596.37 ], [ 284021.71, 4160596.28 ], [ 284021.74, 4160596.18 ], [ 284021.79, 4160596.1 ], [ 284021.84, 4160596.01 ], [ 284021.9, 4160595.93 ], [ 284021.96, 4160595.86 ], [ 284022.04, 4160595.8 ], [ 284022.12, 4160595.74 ], [ 284022.2, 4160595.69 ], [ 284022.29, 4160595.65 ], [ 284022.38, 4160595.62 ], [ 284022.48, 4160595.6 ], [ 284022.57, 4160595.58 ], [ 284022.67, 4160595.58 ], [ 284022.77, 4160595.58 ], [ 284024.98, 4160595.83 ], [ 284025.21, 4160595.55 ], [ 284026.05, 4160595.04 ], [ 284031.48, 4160593.96 ], [ 284033.76, 4160572.44 ], [ 284033.42, 4160572.27 ], [ 284032.67, 4160570.96 ], [ 284032.84, 4160568.58 ], [ 284032.78, 4160568.66 ], [ 284032.71, 4160568.73 ], [ 284032.64, 4160568.8 ], [ 284032.56, 4160568.86 ], [ 284032.48, 4160568.91 ], [ 284032.39, 4160568.95 ], [ 284032.3, 4160568.99 ], [ 284032.2, 4160569.01 ], [ 284032.1, 4160569.02 ], [ 284032.01, 4160569.03 ], [ 284031.91, 4160569.03 ], [ 284025.61, 4160568.42 ], [ 284025.51, 4160568.41 ], [ 284025.42, 4160568.39 ], [ 284025.32, 4160568.35 ], [ 284025.23, 4160568.31 ], [ 284025.15, 4160568.26 ], [ 284025.07, 4160568.2 ], [ 284025.0, 4160568.14 ], [ 284024.93, 4160568.06 ], [ 284024.87, 4160567.99 ], [ 284024.82, 4160567.9 ], [ 284024.78, 4160567.81 ], [ 284024.75, 4160567.72 ], [ 284024.72, 4160567.63 ], [ 284024.71, 4160567.53 ], [ 284024.7, 4160567.43 ], [ 284024.71, 4160567.33 ], [ 284025.26, 4160561.49 ], [ 284025.28, 4160561.39 ], [ 284025.3, 4160561.3 ], [ 284025.33, 4160561.2 ], [ 284025.37, 4160561.12 ], [ 284025.42, 4160561.03 ], [ 284025.48, 4160560.95 ], [ 284025.55, 4160560.88 ], [ 284025.62, 4160560.81 ], [ 284025.7, 4160560.75 ], [ 284025.78, 4160560.7 ], [ 284025.87, 4160560.66 ], [ 284025.96, 4160560.63 ], [ 284026.05, 4160560.61 ], [ 284026.03, 4160560.57 ], [ 284025.98, 4160560.48 ], [ 284025.95, 4160560.39 ], [ 284025.92, 4160560.29 ], [ 284025.91, 4160560.2 ], [ 284025.9, 4160560.1 ], [ 284025.9, 4160560.0 ], [ 284026.34, 4160554.47 ], [ 284026.35, 4160554.37 ], [ 284026.38, 4160554.28 ], [ 284026.41, 4160554.18 ], [ 284026.45, 4160554.09 ], [ 284026.5, 4160554.01 ], [ 284026.55, 4160553.93 ], [ 284026.62, 4160553.85 ], [ 284026.69, 4160553.79 ], [ 284026.77, 4160553.73 ], [ 284026.85, 4160553.68 ], [ 284026.94, 4160553.63 ], [ 284027.03, 4160553.6 ], [ 284027.13, 4160553.57 ], [ 284027.14, 4160553.57 ], [ 284027.62, 4160550.71 ], [ 284027.61, 4160550.71 ], [ 284027.51, 4160550.69 ], [ 284027.42, 4160550.67 ], [ 284027.33, 4160550.63 ], [ 284027.24, 4160550.59 ], [ 284027.16, 4160550.54 ], [ 284027.08, 4160550.48 ], [ 284027.01, 4160550.41 ], [ 284026.95, 4160550.33 ], [ 284026.89, 4160550.25 ], [ 284026.84, 4160550.17 ], [ 284026.8, 4160550.08 ], [ 284026.77, 4160549.99 ], [ 284026.75, 4160549.89 ], [ 284026.74, 4160549.79 ], [ 284026.73, 4160549.69 ], [ 284026.74, 4160549.6 ], [ 284027.41, 4160544.19 ], [ 284027.42, 4160544.1 ], [ 284027.45, 4160544.0 ], [ 284027.48, 4160543.91 ], [ 284027.5, 4160543.88 ], [ 284025.59, 4160541.63 ], [ 284021.33, 4160541.63 ], [ 284020.25, 4160541.12 ], [ 284018.91, 4160539.55 ], [ 284018.22, 4160539.48 ], [ 284018.13, 4160539.46 ], [ 284018.03, 4160539.44 ], [ 284017.94, 4160539.4 ], [ 284017.85, 4160539.36 ], [ 284017.77, 4160539.31 ], [ 284017.69, 4160539.25 ], [ 284017.62, 4160539.18 ], [ 284017.55, 4160539.11 ], [ 284017.49, 4160539.03 ], [ 284017.44, 4160538.95 ], [ 284017.4, 4160538.86 ], [ 284017.37, 4160538.77 ], [ 284017.35, 4160538.67 ], [ 284017.33, 4160538.57 ], [ 284017.33, 4160538.48 ], [ 284017.33, 4160538.38 ], [ 284017.95, 4160532.45 ], [ 284017.96, 4160532.36 ], [ 284017.99, 4160532.26 ], [ 284018.02, 4160532.17 ], [ 284018.06, 4160532.08 ], [ 284018.11, 4160532.0 ], [ 284018.17, 4160531.92 ], [ 284018.24, 4160531.85 ], [ 284018.31, 4160531.78 ], [ 284018.39, 4160531.72 ], [ 284018.48, 4160531.67 ], [ 284018.57, 4160531.63 ], [ 284018.66, 4160531.6 ], [ 284018.75, 4160531.58 ], [ 284018.81, 4160531.57 ], [ 284019.55, 4160527.12 ], [ 284016.59, 4160523.63 ], [ 284009.67, 4160523.63 ], [ 284008.55, 4160523.08 ], [ 284006.49, 4160520.44 ], [ 284006.23, 4160519.23 ], [ 284008.04, 4160511.97 ], [ 284005.52, 4160508.7 ], [ 284005.19, 4160512.14 ], [ 284005.18, 4160512.24 ], [ 284005.15, 4160512.33 ], [ 284005.12, 4160512.42 ], [ 284005.08, 4160512.51 ], [ 284005.03, 4160512.6 ], [ 284004.97, 4160512.67 ], [ 284004.91, 4160512.75 ], [ 284004.83, 4160512.81 ], [ 284004.75, 4160512.87 ], [ 284004.67, 4160512.92 ], [ 284004.58, 4160512.97 ], [ 284004.49, 4160513.0 ], [ 284004.39, 4160513.02 ], [ 284004.3, 4160513.04 ], [ 284004.2, 4160513.04 ], [ 284004.1, 4160513.04 ], [ 284000.0, 4160512.65 ], [ 284000.0, 4160573.07 ], [ 284005.27, 4160573.83 ], [ 284005.37, 4160573.84 ], [ 284005.46, 4160573.87 ], [ 284005.55, 4160573.91 ], [ 284005.64, 4160573.95 ], [ 284005.72, 4160574.01 ], [ 284005.8, 4160574.07 ], [ 284005.87, 4160574.14 ], [ 284005.93, 4160574.21 ], [ 284005.99, 4160574.3 ], [ 284006.03, 4160574.38 ], [ 284006.07, 4160574.47 ], [ 284006.1, 4160574.57 ], [ 284006.12, 4160574.66 ], [ 284006.13, 4160574.76 ], [ 284006.13, 4160574.86 ], [ 284006.12, 4160574.96 ], [ 284005.38, 4160580.17 ], [ 284005.36, 4160580.27 ], [ 284005.34, 4160580.36 ], [ 284005.3, 4160580.45 ], [ 284005.25, 4160580.54 ], [ 284005.2, 4160580.62 ], [ 284005.14, 4160580.7 ], [ 284005.07, 4160580.77 ], [ 284004.99, 4160580.83 ], [ 284004.91, 4160580.89 ], [ 284004.82, 4160580.93 ], [ 284004.73, 4160580.97 ], [ 284004.64, 4160581.0 ], [ 284004.54, 4160581.02 ], [ 284004.45, 4160581.03 ], [ 284004.35, 4160581.03 ], [ 284004.25, 4160581.02 ], [ 284000.0, 4160580.41 ], [ 284000.0, 4160622.88 ], [ 284003.79, 4160623.43 ], [ 284003.89, 4160623.45 ] ], [ [ 284009.57, 4160604.52 ], [ 284009.58, 4160604.42 ], [ 284009.6, 4160604.33 ], [ 284009.63, 4160604.24 ], [ 284009.67, 4160604.15 ], [ 284009.72, 4160604.06 ], [ 284009.78, 4160603.99 ], [ 284009.84, 4160603.91 ], [ 284009.91, 4160603.85 ], [ 284009.99, 4160603.79 ], [ 284010.07, 4160603.73 ], [ 284010.15, 4160603.69 ], [ 284010.24, 4160603.65 ], [ 284010.34, 4160603.63 ], [ 284010.43, 4160603.61 ], [ 284010.53, 4160603.6 ], [ 284014.12, 4160603.46 ], [ 284014.22, 4160603.46 ], [ 284014.32, 4160603.48 ], [ 284014.42, 4160603.5 ], [ 284014.52, 4160603.53 ], [ 284014.61, 4160603.57 ], [ 284014.7, 4160603.62 ], [ 284014.78, 4160603.68 ], [ 284014.85, 4160603.74 ], [ 284014.92, 4160603.82 ], [ 284014.98, 4160603.9 ], [ 284015.04, 4160603.98 ], [ 284015.08, 4160604.07 ], [ 284015.12, 4160604.17 ], [ 284015.14, 4160604.27 ], [ 284015.16, 4160604.37 ], [ 284015.16, 4160604.47 ], [ 284015.14, 4160608.9 ], [ 284015.14, 4160609.0 ], [ 284015.12, 4160609.1 ], [ 284015.1, 4160609.19 ], [ 284015.06, 4160609.29 ], [ 284015.02, 4160609.37 ], [ 284014.97, 4160609.46 ], [ 284014.91, 4160609.54 ], [ 284014.84, 4160609.61 ], [ 284014.76, 4160609.68 ], [ 284014.68, 4160609.74 ], [ 284014.6, 4160609.78 ], [ 284014.5, 4160609.83 ], [ 284014.41, 4160609.86 ], [ 284014.31, 4160609.88 ], [ 284014.21, 4160609.89 ], [ 284014.11, 4160609.89 ], [ 284010.6, 4160609.8 ], [ 284010.51, 4160609.79 ], [ 284010.41, 4160609.77 ], [ 284010.32, 4160609.75 ], [ 284010.23, 4160609.71 ], [ 284010.15, 4160609.67 ], [ 284010.07, 4160609.62 ], [ 284009.99, 4160609.56 ], [ 284009.92, 4160609.5 ], [ 284009.86, 4160609.43 ], [ 284009.8, 4160609.35 ], [ 284009.75, 4160609.27 ], [ 284009.71, 4160609.18 ], [ 284009.68, 4160609.09 ], [ 284009.65, 4160609.0 ], [ 284009.64, 4160608.91 ], [ 284009.63, 4160608.81 ], [ 284009.57, 4160604.62 ], [ 284009.57, 4160604.52 ] ] ], [ [ [ 284000.0, 4160501.54 ], [ 284000.0, 4160504.98 ], [ 284002.86, 4160505.25 ], [ 284000.0, 4160501.54 ] ] ], [ [ [ 284007.94, 4160656.62 ], [ 284008.03, 4160656.59 ], [ 284008.13, 4160656.56 ], [ 284008.22, 4160656.55 ], [ 284008.32, 4160656.55 ], [ 284008.42, 4160656.56 ], [ 284015.9, 4160657.51 ], [ 284016.0, 4160657.52 ], [ 284016.1, 4160657.55 ], [ 284016.19, 4160657.59 ], [ 284016.28, 4160657.63 ], [ 284016.36, 4160657.68 ], [ 284016.44, 4160657.75 ], [ 284016.51, 4160657.81 ], [ 284016.57, 4160657.89 ], [ 284016.63, 4160657.97 ], [ 284016.67, 4160658.05 ], [ 284016.71, 4160658.15 ], [ 284016.74, 4160658.24 ], [ 284016.77, 4160658.33 ], [ 284016.78, 4160658.43 ], [ 284016.78, 4160658.53 ], [ 284016.78, 4160658.57 ], [ 284019.38, 4160659.0 ], [ 284019.46, 4160658.95 ], [ 284019.55, 4160658.91 ], [ 284019.65, 4160658.88 ], [ 284019.74, 4160658.86 ], [ 284019.84, 4160658.85 ], [ 284019.94, 4160658.85 ], [ 284020.04, 4160658.85 ], [ 284020.37, 4160658.89 ], [ 284020.45, 4160658.17 ], [ 284020.47, 4160658.07 ], [ 284020.5, 4160657.98 ], [ 284020.53, 4160657.89 ], [ 284020.57, 4160657.8 ], [ 284020.63, 4160657.71 ], [ 284020.69, 4160657.64 ], [ 284020.75, 4160657.56 ], [ 284020.83, 4160657.5 ], [ 284020.91, 4160657.44 ], [ 284020.99, 4160657.39 ], [ 284021.08, 4160657.35 ], [ 284021.18, 4160657.32 ], [ 284021.27, 4160657.3 ], [ 284021.37, 4160657.29 ], [ 284021.47, 4160657.29 ], [ 284021.56, 4160657.29 ], [ 284026.93, 4160657.92 ], [ 284027.03, 4160657.93 ], [ 284027.12, 4160657.96 ], [ 284027.21, 4160657.99 ], [ 284027.3, 4160658.04 ], [ 284027.38, 4160658.09 ], [ 284027.46, 4160658.15 ], [ 284027.53, 4160658.22 ], [ 284027.6, 4160658.29 ], [ 284027.65, 4160658.37 ], [ 284027.7, 4160658.46 ], [ 284027.74, 4160658.55 ], [ 284027.77, 4160658.64 ], [ 284027.8, 4160658.74 ], [ 284027.81, 4160658.84 ], [ 284027.81, 4160658.93 ], [ 284027.8, 4160659.03 ], [ 284027.72, 4160659.72 ], [ 284028.74, 4160659.84 ], [ 284028.83, 4160659.85 ], [ 284028.93, 4160659.88 ], [ 284029.02, 4160659.91 ], [ 284029.11, 4160659.96 ], [ 284029.19, 4160660.01 ], [ 284029.27, 4160660.07 ], [ 284029.34, 4160660.14 ], [ 284029.41, 4160660.21 ], [ 284029.46, 4160660.29 ], [ 284029.47, 4160660.29 ], [ 284029.54, 4160660.22 ], [ 284029.61, 4160660.16 ], [ 284029.69, 4160660.1 ], [ 284029.78, 4160660.05 ], [ 284029.87, 4160660.01 ], [ 284029.96, 4160659.98 ], [ 284030.06, 4160659.96 ], [ 284030.15, 4160659.95 ], [ 284030.25, 4160659.94 ], [ 284030.35, 4160659.95 ], [ 284030.59, 4160659.98 ], [ 284030.66, 4160659.42 ], [ 284030.68, 4160659.32 ], [ 284030.7, 4160659.23 ], [ 284030.74, 4160659.14 ], [ 284030.78, 4160659.05 ], [ 284030.84, 4160658.97 ], [ 284030.9, 4160658.89 ], [ 284030.96, 4160658.82 ], [ 284031.04, 4160658.75 ], [ 284031.12, 4160658.7 ], [ 284031.2, 4160658.65 ], [ 284031.29, 4160658.61 ], [ 284031.39, 4160658.58 ], [ 284031.48, 4160658.56 ], [ 284031.58, 4160658.54 ], [ 284031.68, 4160658.54 ], [ 284031.77, 4160658.55 ], [ 284037.54, 4160659.24 ], [ 284037.63, 4160659.26 ], [ 284037.73, 4160659.28 ], [ 284037.82, 4160659.32 ], [ 284037.91, 4160659.36 ], [ 284037.99, 4160659.41 ], [ 284038.07, 4160659.47 ], [ 284038.14, 4160659.54 ], [ 284038.2, 4160659.62 ], [ 284038.26, 4160659.7 ], [ 284038.31, 4160659.78 ], [ 284038.35, 4160659.87 ], [ 284038.38, 4160659.96 ], [ 284038.4, 4160660.06 ], [ 284038.41, 4160660.16 ], [ 284038.42, 4160660.25 ], [ 284038.41, 4160660.35 ], [ 284038.33, 4160661.01 ], [ 284038.66, 4160661.04 ], [ 284038.76, 4160661.06 ], [ 284038.85, 4160661.09 ], [ 284038.94, 4160661.12 ], [ 284039.03, 4160661.16 ], [ 284039.11, 4160661.22 ], [ 284039.19, 4160661.28 ], [ 284039.26, 4160661.34 ], [ 284039.33, 4160661.42 ], [ 284039.39, 4160661.5 ], [ 284039.41, 4160661.54 ], [ 284039.41, 4160661.51 ], [ 284039.43, 4160661.41 ], [ 284039.46, 4160661.32 ], [ 284039.49, 4160661.23 ], [ 284039.54, 4160661.15 ], [ 284039.59, 4160661.07 ], [ 284039.65, 4160660.99 ], [ 284039.72, 4160660.92 ], [ 284039.79, 4160660.86 ], [ 284039.87, 4160660.81 ], [ 284039.95, 4160660.76 ], [ 284040.04, 4160660.72 ], [ 284040.13, 4160660.69 ], [ 284040.23, 4160660.67 ], [ 284040.32, 4160660.66 ], [ 284040.42, 4160660.66 ], [ 284041.23, 4160660.67 ], [ 284041.24, 4160660.54 ], [ 284041.25, 4160660.44 ], [ 284041.27, 4160660.34 ], [ 284041.31, 4160660.24 ], [ 284041.35, 4160660.15 ], [ 284041.4, 4160660.06 ], [ 284041.46, 4160659.98 ], [ 284041.52, 4160659.91 ], [ 284041.6, 4160659.84 ], [ 284041.68, 4160659.78 ], [ 284041.77, 4160659.73 ], [ 284041.86, 4160659.68 ], [ 284041.95, 4160659.65 ], [ 284042.05, 4160659.63 ], [ 284042.15, 4160659.61 ], [ 284042.25, 4160659.61 ], [ 284043.96, 4160659.64 ], [ 284044.55, 4160658.2 ], [ 284046.71, 4160656.05 ], [ 284048.28, 4160655.4 ], [ 284050.13, 4160652.63 ], [ 284050.13, 4160649.63 ], [ 284047.13, 4160646.63 ], [ 284043.98, 4160646.63 ], [ 284043.08, 4160646.32 ], [ 284040.96, 4160644.66 ], [ 284040.44, 4160643.87 ], [ 284038.79, 4160637.25 ], [ 284037.31, 4160635.91 ], [ 284030.02, 4160634.56 ], [ 284029.96, 4160634.55 ], [ 284029.3, 4160641.32 ], [ 284029.29, 4160641.42 ], [ 284029.26, 4160641.52 ], [ 284029.23, 4160641.61 ], [ 284029.19, 4160641.7 ], [ 284029.14, 4160641.78 ], [ 284029.08, 4160641.86 ], [ 284029.01, 4160641.93 ], [ 284028.94, 4160642.0 ], [ 284028.86, 4160642.06 ], [ 284028.78, 4160642.11 ], [ 284028.69, 4160642.15 ], [ 284028.6, 4160642.18 ], [ 284028.5, 4160642.21 ], [ 284028.4, 4160642.22 ], [ 284028.31, 4160642.23 ], [ 284028.21, 4160642.22 ], [ 284027.59, 4160642.16 ], [ 284026.55, 4160643.2 ], [ 284025.53, 4160643.63 ], [ 284017.73, 4160643.63 ], [ 284016.71, 4160643.2 ], [ 284014.55, 4160641.05 ], [ 284014.42, 4160640.72 ], [ 284013.83, 4160640.66 ], [ 284013.74, 4160640.65 ], [ 284013.64, 4160640.63 ], [ 284013.55, 4160640.59 ], [ 284013.46, 4160640.55 ], [ 284013.38, 4160640.5 ], [ 284013.3, 4160640.44 ], [ 284013.23, 4160640.37 ], [ 284013.16, 4160640.3 ], [ 284013.1, 4160640.22 ], [ 284013.05, 4160640.14 ], [ 284013.01, 4160640.05 ], [ 284012.98, 4160639.96 ], [ 284012.95, 4160639.86 ], [ 284012.94, 4160639.76 ], [ 284012.94, 4160639.67 ], [ 284012.94, 4160639.57 ], [ 284013.55, 4160633.58 ], [ 284013.57, 4160633.48 ], [ 284013.59, 4160633.39 ], [ 284013.63, 4160633.29 ], [ 284013.67, 4160633.2 ], [ 284013.72, 4160633.12 ], [ 284013.78, 4160633.04 ], [ 284013.85, 4160632.97 ], [ 284013.92, 4160632.9 ], [ 284013.98, 4160632.86 ], [ 284011.66, 4160632.68 ], [ 284009.57, 4160633.54 ], [ 284008.52, 4160634.71 ], [ 284007.28, 4160639.35 ], [ 284005.35, 4160656.66 ], [ 284007.45, 4160657.01 ], [ 284007.48, 4160656.97 ], [ 284007.54, 4160656.89 ], [ 284007.61, 4160656.82 ], [ 284007.68, 4160656.76 ], [ 284007.76, 4160656.7 ], [ 284007.85, 4160656.66 ], [ 284007.94, 4160656.62 ] ] ] ] } },
{ "type": "Feature", "properties": { "id": "richmond_structure:403079", "name": null, "kind": "deck", "sport": null, "surface": null, "pitch_layout": null, "source": "richmond_structures", "source_updated": "2026-09-08T12:07:13.637000Z", "base_z": null, "top_z": null }, "geometry": { "type": "Polygon", "coordinates": [ [ [ 284007.82, 4160576.46 ], [ 284008.97, 4160576.61 ], [ 284008.22, 4160582.47 ], [ 284012.5, 4160582.9 ], [ 284012.77, 4160575.67 ], [ 284008.04, 4160575.11 ], [ 284007.82, 4160576.46 ] ] ] } },
{ "type": "Feature", "properties": { "id": "richmond_structure:285561", "name": null, "kind": "deck", "sport": null, "surface": null, "pitch_layout": null, "source": "richmond_structures", "source_updated": "2026-09-08T12:07:13.637000Z", "base_z": null, "top_z": null }, "geometry": { "type": "Polygon", "coordinates": [ [ [ 284028.34, 4160598.06 ], [ 284022.47, 4160597.41 ], [ 284021.85, 4160603.07 ], [ 284027.71, 4160603.72 ], [ 284028.34, 4160598.06 ] ] ] } },
{ "type": "Feature", "properties": { "id": "richmond_structure:285788", "name": null, "kind": "deck", "sport": null, "surface": null, "pitch_layout": null, "source": "richmond_structures", "source_updated": "2026-09-08T12:07:13.637000Z", "base_z": null, "top_z": null }, "geometry": { "type": "Polygon", "coordinates": [ [ [ 284219.0, 4160629.95 ], [ 284212.25, 4160630.75 ], [ 284212.51, 4160632.97 ], [ 284219.26, 4160632.17 ], [ 284219.0, 4160629.95 ] ] ] } },
{ "type": "Feature", "properties": { "id": "richmond_structure:403656", "name": null, "kind": "deck", "sport": null, "surface": null, "pitch_layout": null, "source": "richmond_structures", "source_updated": "2026-09-08T12:07:13.637000Z", "base_z": null, "top_z": null }, "geometry": { "type": "Polygon", "coordinates": [ [ [ 284073.25, 4160640.63 ], [ 284074.82, 4160640.78 ], [ 284074.47, 4160644.42 ], [ 284075.78, 4160644.61 ], [ 284076.41, 4160639.07 ], [ 284071.95, 4160638.6 ], [ 284071.11, 4160647.85 ], [ 284072.73, 4160648.01 ], [ 284073.37, 4160643.07 ], [ 284073.02, 4160643.04 ], [ 284073.25, 4160640.63 ] ] ] } },
{ "type": "Feature", "properties": { "id": "richmond_structure:403657", "name": null, "kind": "deck", "sport": null, "surface": null, "pitch_layout": null, "source": "richmond_structures", "source_updated": "2026-09-08T12:07:13.637000Z", "base_z": null, "top_z": null }, "geometry": { "type": "Polygon", "coordinates": [ [ [ 284020.22, 4160656.63 ], [ 284019.74, 4160660.69 ], [ 284021.06, 4160660.85 ], [ 284021.27, 4160659.12 ], [ 284026.62, 4160659.76 ], [ 284026.9, 4160657.44 ], [ 284020.22, 4160656.63 ] ] ] } },
{ "type": "Feature", "properties": { "id": "richmond_structure:293734", "name": null, "kind": "deck", "sport": null, "surface": null, "pitch_layout": null, "source": "richmond_structures", "source_updated": "2026-09-08T12:07:13.637000Z", "base_z": null, "top_z": null }, "geometry": { "type": "Polygon", "coordinates": [ [ [ 284042.12, 4160657.18 ], [ 284042.05, 4160661.44 ], [ 284047.34, 4160661.53 ], [ 284047.41, 4160657.26 ], [ 284042.12, 4160657.18 ] ] ] } },
{ "type": "Feature", "properties": { "id": "imagery:groundcover_lawn:279", "name": null, "kind": "groundcover_lawn", "sport": null, "surface": null, "pitch_layout": null, "source": "vgin_vbmp+naip+lidar2025", "source_updated": null, "base_z": null, "top_z": null }, "geometry": { "type": "Polygon", "coordinates": [ [ [ 284223.01, 4160511.54 ], [ 284223.62, 4160511.47 ], [ 284223.72, 4160511.46 ], [ 284223.82, 4160511.46 ], [ 284223.92, 4160511.48 ], [ 284224.01, 4160511.5 ], [ 284224.11, 4160511.53 ], [ 284224.19, 4160511.57 ], [ 284224.28, 4160511.62 ], [ 284224.36, 4160511.68 ], [ 284224.43, 4160511.74 ], [ 284224.5, 4160511.81 ], [ 284224.56, 4160511.89 ], [ 284224.61, 4160511.97 ], [ 284224.66, 4160512.06 ], [ 284224.69, 4160512.15 ], [ 284224.72, 4160512.25 ], [ 284224.73, 4160512.35 ], [ 284224.73, 4160512.36 ], [ 284228.14, 4160511.55 ], [ 284228.1, 4160511.22 ], [ 284228.09, 4160511.12 ], [ 284228.1, 4160511.03 ], [ 284228.11, 4160510.93 ], [ 284228.13, 4160510.83 ], [ 284228.17, 4160510.74 ], [ 284228.21, 4160510.65 ], [ 284228.26, 4160510.57 ], [ 284228.31, 4160510.49 ], [ 284228.38, 4160510.41 ], [ 284228.45, 4160510.35 ], [ 284228.53, 4160510.29 ], [ 284228.61, 4160510.23 ], [ 284228.7, 4160510.19 ], [ 284228.79, 4160510.16 ], [ 284228.88, 4160510.13 ], [ 284228.98, 4160510.12 ], [ 284230.3, 4160509.97 ], [ 284231.85, 4160509.15 ], [ 284232.74, 4160509.0 ], [ 284235.43, 4160509.38 ], [ 284238.09, 4160509.08 ], [ 284238.18, 4160509.07 ], [ 284238.28, 4160509.08 ], [ 284238.38, 4160509.09 ], [ 284238.47, 4160509.11 ], [ 284238.57, 4160509.14 ], [ 284238.66, 4160509.18 ], [ 284238.74, 4160509.23 ], [ 284238.82, 4160509.29 ], [ 284238.9, 4160509.36 ], [ 284238.96, 4160509.43 ], [ 284239.02, 4160509.51 ], [ 284239.07, 4160509.59 ], [ 284239.12, 4160509.68 ], [ 284239.15, 4160509.77 ], [ 284239.18, 4160509.86 ], [ 284239.19, 4160509.92 ], [ 284241.02, 4160510.18 ], [ 284241.07, 4160510.09 ], [ 284241.13, 4160510.01 ], [ 284241.2, 4160509.94 ], [ 284241.27, 4160509.87 ], [ 284241.35, 4160509.81 ], [ 284241.43, 4160509.76 ], [ 284241.52, 4160509.72 ], [ 284241.61, 4160509.69 ], [ 284241.71, 4160509.66 ], [ 284241.8, 4160509.65 ], [ 284247.78, 4160509.03 ], [ 284247.88, 4160509.02 ], [ 284247.98, 4160509.03 ], [ 284248.07, 4160509.04 ], [ 284248.17, 4160509.06 ], [ 284248.26, 4160509.09 ], [ 284248.35, 4160509.14 ], [ 284248.44, 4160509.19 ], [ 284248.52, 4160509.24 ], [ 284248.59, 4160509.31 ], [ 284248.65, 4160509.38 ], [ 284248.71, 4160509.46 ], [ 284248.76, 4160509.54 ], [ 284248.81, 4160509.63 ], [ 284248.84, 4160509.72 ], [ 284248.86, 4160509.82 ], [ 284248.88, 4160509.92 ], [ 284248.92, 4160510.27 ], [ 284250.0, 4160510.16 ], [ 284250.0, 4160500.0 ], [ 284216.97, 4160500.0 ], [ 284215.13, 4160502.17 ], [ 284215.13, 4160504.13 ], [ 284216.33, 4160506.53 ], [ 284223.01, 4160511.54 ] ] ] } },
{ "type": "Feature", "properties": { "id": "richmond_structure:403073", "name": null, "kind": "deck", "sport": null, "surface": null, "pitch_layout": null, "source": "richmond_structures", "source_updated": "2026-09-08T12:07:13.637000Z", "base_z": null, "top_z": null }, "geometry": { "type": "Polygon", "coordinates": [ [ [ 284243.17, 4160508.47 ], [ 284243.52, 4160511.29 ], [ 284247.54, 4160510.87 ], [ 284247.19, 4160507.97 ], [ 284243.17, 4160508.47 ] ] ] } },
{ "type": "Feature", "properties": { "id": "richmond_structure:403074", "name": null, "kind": "deck", "sport": null, "surface": null, "pitch_layout": null, "source": "richmond_structures", "source_updated": "2026-09-08T12:07:13.637000Z", "base_z": null, "top_z": null }, "geometry": { "type": "Polygon", "coordinates": [ [ [ 284219.52, 4160509.58 ], [ 284217.85, 4160509.75 ], [ 284218.27, 4160513.91 ], [ 284223.17, 4160513.34 ], [ 284222.89, 4160510.53 ], [ 284219.65, 4160510.85 ], [ 284219.52, 4160509.58 ] ] ] } },
{ "type": "Feature", "properties": { "id": "imagery:groundcover_lawn:232", "name": null, "kind": "groundcover_lawn", "sport": null, "surface": null, "pitch_layout": null, "source": "vgin_vbmp+naip+lidar2025", "source_updated": null, "base_z": null, "top_z": null }, "geometry": { "type": "Polygon", "coordinates": [ [ [ 284248.13, 4160529.94 ], [ 284248.13, 4160529.91 ], [ 284244.86, 4160526.92 ], [ 284221.51, 4160529.05 ], [ 284219.66, 4160534.15 ], [ 284219.74, 4160534.23 ], [ 284247.45, 4160530.7 ], [ 284248.13, 4160529.94 ] ] ] } },
{ "type": "Feature", "properties": { "id": "imagery:groundcover_lawn:224", "name": null, "kind": "groundcover_lawn", "sport": null, "surface": null, "pitch_layout": null, "source": "vgin_vbmp+naip+lidar2025", "source_updated": null, "base_z": null, "top_z": null }, "geometry": { "type": "Polygon", "coordinates": [ [ [ 284241.64, 4160552.12 ], [ 284241.74, 4160552.13 ], [ 284241.83, 4160552.15 ], [ 284241.93, 4160552.18 ], [ 284242.02, 4160552.22 ], [ 284242.1, 4160552.27 ], [ 284242.18, 4160552.33 ], [ 284242.26, 4160552.39 ], [ 284242.32, 4160552.46 ], [ 284242.38, 4160552.54 ], [ 284242.44, 4160552.63 ], [ 284242.48, 4160552.71 ], [ 284242.51, 4160552.8 ], [ 284242.54, 4160552.9 ], [ 284242.56, 4160553.0 ], [ 284242.83, 4160555.32 ], [ 284243.15, 4160555.66 ], [ 284243.27, 4160555.9 ], [ 284248.07, 4160556.68 ], [ 284249.28, 4160555.47 ], [ 284249.21, 4160554.89 ], [ 284249.21, 4160554.79 ], [ 284249.21, 4160554.69 ], [ 284249.22, 4160554.59 ], [ 284249.24, 4160554.5 ], [ 284249.28, 4160554.4 ], [ 284249.32, 4160554.31 ], [ 284249.36, 4160554.23 ], [ 284249.42, 4160554.15 ], [ 284249.48, 4160554.08 ], [ 284249.56, 4160554.01 ], [ 284249.63, 4160553.95 ], [ 284249.72, 4160553.9 ], [ 284249.8, 4160553.85 ], [ 284249.9, 4160553.82 ], [ 284249.99, 4160553.79 ], [ 284250.0, 4160553.79 ], [ 284250.0, 4160547.04 ], [ 284234.06, 4160549.0 ], [ 284233.85, 4160550.04 ], [ 284236.08, 4160552.76 ], [ 284241.44, 4160552.12 ], [ 284241.54, 4160552.12 ], [ 284241.64, 4160552.12 ] ] ] } },
{ "type": "Feature", "properties": { "id": "richmond_structure:300838", "name": null, "kind": "deck", "sport": null, "surface": null, "pitch_layout": null, "source": "richmond_structures", "source_updated": "2026-09-08T12:07:13.637000Z", "base_z": null, "top_z": null }, "geometry": { "type": "Polygon", "coordinates": [ [ [ 284250.0, 4160560.63 ], [ 284250.0, 4160556.39 ], [ 284248.17, 4160556.61 ], [ 284248.67, 4160560.79 ], [ 284250.0, 4160560.63 ] ] ] } },
{ "type": "Feature", "properties": { "id": "richmond_structure:300834", "name": null, "kind": "deck", "sport": null, "surface": null, "pitch_layout": null, "source": "richmond_structures", "source_updated": "2026-09-08T12:07:13.637000Z", "base_z": null, "top_z": null }, "geometry": { "type": "Polygon", "coordinates": [ [ [ 284240.43, 4160566.77 ], [ 284236.72, 4160567.21 ], [ 284236.88, 4160568.52 ], [ 284240.58, 4160568.08 ], [ 284240.43, 4160566.77 ] ] ] } },
{ "type": "Feature", "properties": { "id": "imagery:groundcover_lawn:228", "name": null, "kind": "groundcover_lawn", "sport": null, "surface": null, "pitch_layout": null, "source": "vgin_vbmp+naip+lidar2025", "source_updated": null, "base_z": null, "top_z": null }, "geometry": { "type": "MultiPolygon", "coordinates": [ [ [ [ 284231.23, 4160568.29 ], [ 284231.08, 4160568.8 ], [ 284227.13, 4160571.01 ], [ 284227.13, 4160571.03 ], [ 284226.71, 4160572.05 ], [ 284226.11, 4160572.65 ], [ 284226.1, 4160572.68 ], [ 284226.07, 4160572.77 ], [ 284226.03, 4160572.86 ], [ 284225.98, 4160572.95 ], [ 284225.92, 4160573.03 ], [ 284225.86, 4160573.1 ], [ 284225.79, 4160573.17 ], [ 284225.71, 4160573.23 ], [ 284225.63, 4160573.28 ], [ 284225.54, 4160573.33 ], [ 284225.45, 4160573.36 ], [ 284225.38, 4160573.38 ], [ 284224.55, 4160574.2 ], [ 284223.53, 4160574.63 ], [ 284202.47, 4160574.63 ], [ 284199.56, 4160576.9 ], [ 284197.87, 4160583.67 ], [ 284197.79, 4160584.45 ], [ 284199.28, 4160587.7 ], [ 284201.1, 4160588.61 ], [ 284201.69, 4160589.15 ], [ 284202.91, 4160591.12 ], [ 284203.13, 4160591.9 ], [ 284203.13, 4160592.63 ], [ 284204.36, 4160593.85 ], [ 284250.0, 4160588.39 ], [ 284250.0, 4160568.63 ], [ 284232.4, 4160568.63 ], [ 284231.23, 4160568.29 ] ], [ [ 284241.97, 4160588.94 ], [ 284236.36, 4160589.6 ], [ 284236.27, 4160589.61 ], [ 284236.17, 4160589.61 ], [ 284236.07, 4160589.59 ], [ 284235.98, 4160589.57 ], [ 284235.88, 4160589.54 ], [ 284235.79, 4160589.5 ], [ 284235.71, 4160589.45 ], [ 284235.63, 4160589.4 ], [ 284235.55, 4160589.33 ], [ 284235.49, 4160589.26 ], [ 284235.43, 4160589.18 ], [ 284235.37, 4160589.1 ], [ 284235.33, 4160589.01 ], [ 284235.3, 4160588.92 ], [ 284235.27, 4160588.83 ], [ 284235.25, 4160588.73 ], [ 284234.48, 4160582.29 ], [ 284234.48, 4160582.19 ], [ 284234.48, 4160582.09 ], [ 284234.49, 4160581.99 ], [ 284234.51, 4160581.9 ], [ 284234.55, 4160581.8 ], [ 284234.59, 4160581.71 ], [ 284234.63, 4160581.63 ], [ 284234.69, 4160581.55 ], [ 284234.76, 4160581.48 ], [ 284234.83, 4160581.41 ], [ 284234.91, 4160581.35 ], [ 284234.99, 4160581.3 ], [ 284235.08, 4160581.25 ], [ 284235.17, 4160581.22 ], [ 284235.26, 4160581.19 ], [ 284235.36, 4160581.17 ], [ 284240.96, 4160580.51 ], [ 284241.06, 4160580.5 ], [ 284241.16, 4160580.5 ], [ 284241.26, 4160580.52 ], [ 284241.35, 4160580.54 ], [ 284241.45, 4160580.57 ], [ 284241.54, 4160580.61 ], [ 284241.62, 4160580.66 ], [ 284241.7, 4160580.71 ], [ 284241.77, 4160580.78 ], [ 284241.84, 4160580.85 ], [ 284241.9, 4160580.93 ], [ 284241.95, 4160581.01 ], [ 284242.0, 4160581.1 ], [ 284242.03, 4160581.19 ], [ 284242.06, 4160581.28 ], [ 284242.07, 4160581.38 ], [ 284242.84, 4160587.82 ], [ 284242.85, 4160587.92 ], [ 284242.85, 4160588.02 ], [ 284242.84, 4160588.12 ], [ 284242.81, 4160588.21 ], [ 284242.78, 4160588.31 ], [ 284242.74, 4160588.4 ], [ 284242.69, 4160588.48 ], [ 284242.64, 4160588.56 ], [ 284242.57, 4160588.64 ], [ 284242.5, 4160588.7 ], [ 284242.42, 4160588.76 ], [ 284242.34, 4160588.81 ], [ 284242.25, 4160588.86 ], [ 284242.16, 4160588.89 ], [ 284242.07, 4160588.92 ], [ 284241.97, 4160588.94 ] ], [ [ 284232.48, 4160589.7 ], [ 284226.65, 4160590.41 ], [ 284226.55, 4160590.42 ], [ 284226.45, 4160590.42 ], [ 284226.35, 4160590.4 ], [ 284226.26, 4160590.38 ], [ 284226.16, 4160590.35 ], [ 284226.08, 4160590.31 ], [ 284225.99, 4160590.26 ], [ 284225.91, 4160590.21 ], [ 284225.84, 4160590.14 ], [ 284225.77, 4160590.07 ], [ 284225.71, 4160589.99 ], [ 284225.66, 4160589.91 ], [ 284225.61, 4160589.82 ], [ 284225.58, 4160589.73 ], [ 284225.55, 4160589.64 ], [ 284225.53, 4160589.54 ], [ 284224.9, 4160584.32 ], [ 284224.9, 4160584.23 ], [ 284224.9, 4160584.13 ], [ 284224.91, 4160584.03 ], [ 284224.93, 4160583.94 ], [ 284224.96, 4160583.84 ], [ 284225.0, 4160583.75 ], [ 284225.05, 4160583.67 ], [ 284225.11, 4160583.59 ], [ 284225.17, 4160583.51 ], [ 284225.25, 4160583.45 ], [ 284225.32, 4160583.38 ], [ 284225.41, 4160583.33 ], [ 284225.49, 4160583.29 ], [ 284225.59, 4160583.25 ], [ 284225.68, 4160583.23 ], [ 284225.78, 4160583.21 ], [ 284231.62, 4160582.52 ], [ 284231.72, 4160582.51 ], [ 284231.82, 4160582.51 ], [ 284231.91, 4160582.52 ], [ 284232.01, 4160582.55 ], [ 284232.1, 4160582.58 ], [ 284232.19, 4160582.62 ], [ 284232.28, 4160582.67 ], [ 284232.36, 4160582.72 ], [ 284232.43, 4160582.79 ], [ 284232.5, 4160582.86 ], [ 284232.56, 4160582.94 ], [ 284232.61, 4160583.02 ], [ 284232.65, 4160583.11 ], [ 284232.69, 4160583.2 ], [ 284232.71, 4160583.29 ], [ 284232.73, 4160583.39 ], [ 284233.35, 4160588.59 ], [ 284233.36, 4160588.69 ], [ 284233.36, 4160588.79 ], [ 284233.34, 4160588.89 ], [ 284233.32, 4160588.98 ], [ 284233.29, 4160589.07 ], [ 284233.25, 4160589.16 ], [ 284233.2, 4160589.25 ], [ 284233.15, 4160589.33 ], [ 284233.08, 4160589.4 ], [ 284233.01, 4160589.47 ], [ 284232.93, 4160589.53 ], [ 284232.85, 4160589.58 ], [ 284232.76, 4160589.63 ], [ 284232.67, 4160589.66 ], [ 284232.58, 4160589.69 ], [ 284232.48, 4160589.7 ] ] ], [ [ [ 284197.52, 4160618.18 ], [ 284197.56, 4160618.09 ], [ 284197.61, 4160618.01 ], [ 284197.67, 4160617.93 ], [ 284197.74, 4160617.86 ], [ 284197.81, 4160617.79 ], [ 284197.89, 4160617.73 ], [ 284197.97, 4160617.68 ], [ 284198.06, 4160617.64 ], [ 284198.15, 4160617.6 ], [ 284198.24, 4160617.58 ], [ 284198.34, 4160617.56 ], [ 284202.54, 4160617.09 ], [ 284202.49, 4160616.61 ], [ 284202.48, 4160616.51 ], [ 284202.48, 4160616.42 ], [ 284202.5, 4160616.32 ], [ 284202.52, 4160616.22 ], [ 284202.55, 4160616.13 ], [ 284202.59, 4160616.04 ], [ 284202.64, 4160615.96 ], [ 284202.7, 4160615.88 ], [ 284202.76, 4160615.8 ], [ 284202.84, 4160615.74 ], [ 284202.91, 4160615.68 ], [ 284203.0, 4160615.63 ], [ 284203.09, 4160615.58 ], [ 284203.18, 4160615.55 ], [ 284203.27, 4160615.52 ], [ 284203.37, 4160615.51 ], [ 284207.48, 4160615.05 ], [ 284207.58, 4160615.04 ], [ 284207.68, 4160615.04 ], [ 284207.78, 4160615.06 ], [ 284207.87, 4160615.08 ], [ 284207.97, 4160615.11 ], [ 284208.06, 4160615.15 ], [ 284208.14, 4160615.2 ], [ 284208.22, 4160615.26 ], [ 284208.29, 4160615.32 ], [ 284208.36, 4160615.39 ], [ 284208.42, 4160615.47 ], [ 284208.47, 4160615.56 ], [ 284208.51, 4160615.64 ], [ 284208.55, 4160615.74 ], [ 284208.57, 4160615.83 ], [ 284208.59, 4160615.93 ], [ 284208.61, 4160616.14 ], [ 284208.67, 4160616.17 ], [ 284210.19, 4160617.69 ], [ 284222.12, 4160616.28 ], [ 284222.22, 4160616.27 ], [ 284222.32, 4160616.27 ], [ 284222.42, 4160616.28 ], [ 284222.51, 4160616.31 ], [ 284222.54, 4160616.32 ], [ 284224.13, 4160614.28 ], [ 284224.13, 4160611.22 ], [ 284224.55, 4160610.2 ], [ 284226.71, 4160608.05 ], [ 284227.73, 4160607.63 ], [ 284233.86, 4160607.63 ], [ 284234.63, 4160607.85 ], [ 284236.6, 4160609.06 ], [ 284237.15, 4160609.66 ], [ 284238.51, 4160612.39 ], [ 284239.94, 4160613.54 ], [ 284239.98, 4160613.53 ], [ 284240.07, 4160613.51 ], [ 284245.42, 4160612.87 ], [ 284245.52, 4160612.86 ], [ 284245.62, 4160612.87 ], [ 284245.71, 4160612.88 ], [ 284245.81, 4160612.9 ], [ 284245.9, 4160612.93 ], [ 284245.99, 4160612.97 ], [ 284246.08, 4160613.02 ], [ 284246.16, 4160613.08 ], [ 284246.23, 4160613.14 ], [ 284246.3, 4160613.21 ], [ 284246.36, 4160613.29 ], [ 284246.41, 4160613.38 ], [ 284246.45, 4160613.46 ], [ 284246.49, 4160613.56 ], [ 284246.52, 4160613.65 ], [ 284246.53, 4160613.75 ], [ 284246.7, 4160615.13 ], [ 284249.4, 4160614.81 ], [ 284249.5, 4160614.8 ], [ 284249.6, 4160614.81 ], [ 284249.7, 4160614.82 ], [ 284249.79, 4160614.84 ], [ 284249.89, 4160614.87 ], [ 284249.98, 4160614.91 ], [ 284250.0, 4160614.93 ], [ 284250.0, 4160601.97 ], [ 284248.98, 4160596.87 ], [ 284249.28, 4160595.69 ], [ 284250.0, 4160594.81 ], [ 284250.0, 4160594.53 ], [ 284214.93, 4160598.73 ], [ 284215.13, 4160599.22 ], [ 284215.13, 4160604.03 ], [ 284214.71, 4160605.05 ], [ 284212.55, 4160607.2 ], [ 284211.53, 4160607.63 ], [ 284197.13, 4160607.63 ], [ 284195.02, 4160609.74 ], [ 284194.4, 4160615.21 ], [ 284195.79, 4160617.45 ], [ 284197.48, 4160618.3 ], [ 284197.49, 4160618.27 ], [ 284197.52, 4160618.18 ] ] ] ] } },
{ "type": "Feature", "properties": { "id": "richmond_structure:300743", "name": null, "kind": "deck", "sport": null, "surface": null, "pitch_layout": null, "source": "richmond_structures", "source_updated": "2026-09-08T12:07:13.637000Z", "base_z": null, "top_z": null }, "geometry": { "type": "Polygon", "coordinates": [ [ [ 284249.05, 4160614.26 ], [ 284245.35, 4160614.7 ], [ 284245.64, 4160617.08 ], [ 284249.34, 4160616.64 ], [ 284249.05, 4160614.26 ] ] ] } },
{ "type": "Feature", "properties": { "id": "richmond_structure:300742", "name": null, "kind": "deck", "sport": null, "surface": null, "pitch_layout": null, "source": "richmond_structures", "source_updated": "2026-09-08T12:07:13.637000Z", "base_z": null, "top_z": null }, "geometry": { "type": "Polygon", "coordinates": [ [ [ 284238.99, 4160630.93 ], [ 284238.69, 4160628.38 ], [ 284229.58, 4160629.46 ], [ 284229.89, 4160632.01 ], [ 284238.99, 4160630.93 ] ] ] } },
{ "type": "Feature", "properties": { "id": "imagery:groundcover_lawn:158", "name": null, "kind": "groundcover_lawn", "sport": null, "surface": null, "pitch_layout": null, "source": "vgin_vbmp+naip+lidar2025", "source_updated": null, "base_z": null, "top_z": null }, "geometry": { "type": "Polygon", "coordinates": [ [ [ 284235.17, 4160635.59 ], [ 284233.99, 4160631.71 ], [ 284230.19, 4160632.16 ], [ 284230.09, 4160632.17 ], [ 284229.99, 4160632.16 ], [ 284229.89, 4160632.15 ], [ 284229.8, 4160632.13 ], [ 284229.71, 4160632.1 ], [ 284229.62, 4160632.06 ], [ 284229.53, 4160632.01 ], [ 284229.45, 4160631.95 ], [ 284229.38, 4160631.89 ], [ 284229.31, 4160631.82 ], [ 284229.25, 4160631.74 ], [ 284229.2, 4160631.66 ], [ 284229.15, 4160631.57 ], [ 284229.12, 4160631.48 ], [ 284229.09, 4160631.38 ], [ 284229.08, 4160631.29 ], [ 284228.88, 4160629.57 ], [ 284226.38, 4160629.08 ], [ 284223.11, 4160630.68 ], [ 284222.15, 4160632.59 ], [ 284221.6, 4160633.19 ], [ 284219.63, 4160634.41 ], [ 284218.46, 4160634.74 ], [ 284216.31, 4160638.04 ], [ 284218.54, 4160639.98 ], [ 284232.51, 4160638.24 ], [ 284235.17, 4160635.59 ] ] ] } },
{ "type": "Feature", "properties": { "id": "imagery:groundcover_lawn:136", "name": null, "kind": "groundcover_lawn", "sport": null, "surface": null, "pitch_layout": null, "source": "vgin_vbmp+naip+lidar2025", "source_updated": null, "base_z": null, "top_z": null }, "geometry": { "type": "Polygon", "coordinates": [ [ [ 284233.09, 4160663.34 ], [ 284233.06, 4160662.97 ], [ 284233.06, 4160662.87 ], [ 284233.07, 4160662.77 ], [ 284233.09, 4160662.67 ], [ 284233.11, 4160662.58 ], [ 284233.15, 4160662.49 ], [ 284233.19, 4160662.4 ], [ 284233.25, 4160662.32 ], [ 284233.31, 4160662.24 ], [ 284233.38, 4160662.17 ], [ 284233.45, 4160662.11 ], [ 284233.53, 4160662.05 ], [ 284233.62, 4160662.0 ], [ 284233.71, 4160661.97 ], [ 284233.8, 4160661.94 ], [ 284233.9, 4160661.91 ], [ 284233.99, 4160661.9 ], [ 284237.28, 4160661.68 ], [ 284237.37, 4160661.68 ], [ 284237.47, 4160661.69 ], [ 284237.57, 4160661.71 ], [ 284237.66, 4160661.74 ], [ 284237.76, 4160661.77 ], [ 284237.84, 4160661.82 ], [ 284237.93, 4160661.87 ], [ 284238.0, 4160661.93 ], [ 284238.07, 4160662.0 ], [ 284238.14, 4160662.08 ], [ 284238.19, 4160662.16 ], [ 284238.24, 4160662.24 ], [ 284238.28, 4160662.33 ], [ 284238.31, 4160662.43 ], [ 284238.33, 4160662.52 ], [ 284238.34, 4160662.62 ], [ 284238.35, 4160662.86 ], [ 284243.39, 4160662.51 ], [ 284243.49, 4160662.51 ], [ 284243.59, 4160662.52 ], [ 284243.69, 4160662.54 ], [ 284243.78, 4160662.56 ], [ 284243.87, 4160662.6 ], [ 284243.96, 4160662.64 ], [ 284244.04, 4160662.7 ], [ 284244.12, 4160662.76 ], [ 284244.19, 4160662.83 ], [ 284244.26, 4160662.9 ], [ 284244.31, 4160662.98 ], [ 284244.36, 4160663.07 ], [ 284244.4, 4160663.16 ], [ 284244.43, 4160663.25 ], [ 284244.45, 4160663.35 ], [ 284244.46, 4160663.45 ], [ 284244.51, 4160664.2 ], [ 284246.14, 4160663.62 ], [ 284246.53, 4160663.23 ], [ 284246.5, 4160662.88 ], [ 284246.49, 4160662.79 ], [ 284246.5, 4160662.69 ], [ 284246.51, 4160662.59 ], [ 284246.54, 4160662.5 ], [ 284246.57, 4160662.4 ], [ 284246.62, 4160662.31 ], [ 284246.67, 4160662.23 ], [ 284246.73, 4160662.15 ], [ 284246.79, 4160662.08 ], [ 284246.87, 4160662.02 ], [ 284246.95, 4160661.96 ], [ 284247.03, 4160661.91 ], [ 284247.12, 4160661.87 ], [ 284247.21, 4160661.84 ], [ 284247.31, 4160661.81 ], [ 284247.41, 4160661.8 ], [ 284248.01, 4160661.75 ], [ 284250.0, 4160659.76 ], [ 284250.0, 4160653.33 ], [ 284233.76, 4160655.42 ], [ 284228.44, 4160657.19 ], [ 284226.4, 4160660.37 ], [ 284229.09, 4160663.02 ], [ 284232.58, 4160663.37 ], [ 284233.09, 4160663.34 ] ] ] } },
{ "type": "Feature", "properties": { "id": "richmond_structure:299562", "name": null, "kind": "deck", "sport": null, "surface": null, "pitch_layout": null, "source": "richmond_structures", "source_updated": "2026-09-08T12:07:13.637000Z", "base_z": null, "top_z": null }, "geometry": { "type": "Polygon", "coordinates": [ [ [ 284241.62, 4160675.28 ], [ 284241.33, 4160673.52 ], [ 284235.74, 4160673.9 ], [ 284236.14, 4160675.93 ], [ 284241.62, 4160675.28 ] ] ] } },
{ "type": "Feature", "properties": { "id": "imagery:groundcover_lawn:125", "name": null, "kind": "groundcover_lawn", "sport": null, "surface": null, "pitch_layout": null, "source": "vgin_vbmp+naip+lidar2025", "source_updated": null, "base_z": null, "top_z": null }, "geometry": { "type": "Polygon", "coordinates": [ [ [ 284191.13, 4160708.16 ], [ 284191.13, 4160712.7 ], [ 284192.28, 4160715.06 ], [ 284192.78, 4160715.45 ], [ 284193.83, 4160715.98 ], [ 284194.36, 4160716.12 ], [ 284195.29, 4160716.66 ], [ 284197.81, 4160716.9 ], [ 284200.07, 4160716.09 ], [ 284201.59, 4160716.55 ], [ 284202.84, 4160718.24 ], [ 284203.13, 4160719.11 ], [ 284203.13, 4160745.63 ], [ 284204.98, 4160748.4 ], [ 284206.55, 4160749.05 ], [ 284207.51, 4160750.0 ], [ 284230.89, 4160750.0 ], [ 284232.09, 4160748.45 ], [ 284232.89, 4160747.94 ], [ 284239.96, 4160746.17 ], [ 284241.93, 4160744.57 ], [ 284242.68, 4160743.04 ], [ 284245.31, 4160740.98 ], [ 284246.53, 4160740.73 ], [ 284250.0, 4160741.59 ], [ 284250.0, 4160720.89 ], [ 284249.38, 4160722.13 ], [ 284248.71, 4160722.79 ], [ 284246.33, 4160723.96 ], [ 284245.4, 4160724.08 ], [ 284234.24, 4160721.85 ], [ 284233.83, 4160721.7 ], [ 284233.2, 4160721.36 ], [ 284229.29, 4160722.34 ], [ 284229.04, 4160722.71 ], [ 284228.22, 4160723.54 ], [ 284227.74, 4160723.86 ], [ 284226.16, 4160724.51 ], [ 284225.63, 4160724.62 ], [ 284225.1, 4160724.51 ], [ 284223.53, 4160723.86 ], [ 284223.23, 4160723.66 ], [ 284222.86, 4160722.59 ], [ 284223.24, 4160719.28 ], [ 284223.91, 4160718.24 ], [ 284224.63, 4160717.79 ], [ 284226.04, 4160715.5 ], [ 284226.08, 4160714.97 ], [ 284223.82, 4160711.8 ], [ 284217.89, 4160710.32 ], [ 284217.09, 4160709.8 ], [ 284215.44, 4160707.68 ], [ 284215.13, 4160706.78 ], [ 284215.13, 4160698.22 ], [ 284215.55, 4160697.2 ], [ 284217.71, 4160695.05 ], [ 284218.73, 4160694.63 ], [ 284220.53, 4160694.63 ], [ 284221.21, 4160694.91 ], [ 284224.71, 4160694.0 ], [ 284224.79, 4160690.38 ], [ 284224.41, 4160689.85 ], [ 284224.17, 4160689.12 ], [ 284224.55, 4160688.2 ], [ 284226.87, 4160685.88 ], [ 284227.22, 4160683.55 ], [ 284229.11, 4160685.08 ], [ 284228.98, 4160685.4 ], [ 284230.55, 4160686.05 ], [ 284232.71, 4160688.2 ], [ 284233.13, 4160689.22 ], [ 284233.13, 4160689.74 ], [ 284232.54, 4160690.89 ], [ 284229.77, 4160692.89 ], [ 284228.5, 4160693.08 ], [ 284227.19, 4160692.64 ], [ 284223.47, 4160696.65 ], [ 284224.13, 4160698.23 ], [ 284224.13, 4160701.08 ], [ 284225.91, 4160703.19 ], [ 284225.69, 4160703.44 ], [ 284227.99, 4160705.43 ], [ 284231.43, 4160705.77 ], [ 284232.25, 4160705.31 ], [ 284233.21, 4160705.14 ], [ 284238.85, 4160706.08 ], [ 284242.11, 4160704.27 ], [ 284242.55, 4160703.2 ], [ 284242.99, 4160702.77 ], [ 284243.0, 4160702.7 ], [ 284243.02, 4160702.6 ], [ 284243.05, 4160702.51 ], [ 284243.08, 4160702.42 ], [ 284243.13, 4160702.33 ], [ 284243.19, 4160702.25 ], [ 284243.25, 4160702.18 ], [ 284243.32, 4160702.11 ], [ 284243.4, 4160702.05 ], [ 284243.48, 4160701.99 ], [ 284243.57, 4160701.95 ], [ 284243.66, 4160701.91 ], [ 284243.75, 4160701.89 ], [ 284243.85, 4160701.87 ], [ 284243.9, 4160701.86 ], [ 284244.71, 4160701.05 ], [ 284245.73, 4160700.63 ], [ 284250.0, 4160700.63 ], [ 284250.0, 4160682.63 ], [ 284249.17, 4160682.63 ], [ 284248.77, 4160682.57 ], [ 284247.61, 4160682.25 ], [ 284247.24, 4160682.09 ], [ 284235.91, 4160675.29 ], [ 284231.68, 4160676.52 ], [ 284230.94, 4160678.01 ], [ 284230.52, 4160678.52 ], [ 284230.23, 4160678.74 ], [ 284230.22, 4160678.82 ], [ 284230.19, 4160678.92 ], [ 284230.16, 4160679.01 ], [ 284230.11, 4160679.09 ], [ 284230.06, 4160679.18 ], [ 284230.0, 4160679.25 ], [ 284229.93, 4160679.32 ], [ 284229.85, 4160679.39 ], [ 284229.77, 4160679.44 ], [ 284229.69, 4160679.49 ], [ 284229.6, 4160679.53 ], [ 284229.5, 4160679.56 ], [ 284229.41, 4160679.58 ], [ 284229.31, 4160679.59 ], [ 284229.09, 4160679.61 ], [ 284228.96, 4160679.71 ], [ 284228.55, 4160679.89 ], [ 284227.33, 4160682.31 ], [ 284224.17, 4160680.82 ], [ 284215.73, 4160682.51 ], [ 284215.49, 4160682.53 ], [ 284214.77, 4160682.56 ], [ 284214.53, 4160682.55 ], [ 284201.25, 4160680.89 ], [ 284198.88, 4160681.14 ], [ 284198.78, 4160681.14 ], [ 284198.68, 4160681.14 ], [ 284198.58, 4160681.12 ], [ 284198.49, 4160681.1 ], [ 284198.39, 4160681.07 ], [ 284198.3, 4160681.03 ], [ 284198.22, 4160680.98 ], [ 284198.14, 4160680.92 ], [ 284198.07, 4160680.85 ], [ 284198.0, 4160680.78 ], [ 284197.94, 4160680.7 ], [ 284197.89, 4160680.62 ], [ 284197.85, 4160680.53 ], [ 284197.83, 4160680.46 ], [ 284195.02, 4160680.11 ], [ 284194.98, 4160680.12 ], [ 284194.88, 4160680.12 ], [ 284194.78, 4160680.12 ], [ 284194.68, 4160680.1 ], [ 284194.58, 4160680.08 ], [ 284194.49, 4160680.05 ], [ 284192.59, 4160679.81 ], [ 284190.09, 4160680.66 ], [ 284187.89, 4160682.87 ], [ 284186.89, 4160696.0 ], [ 284195.59, 4160696.34 ], [ 284195.68, 4160696.35 ], [ 284195.78, 4160696.37 ], [ 284195.88, 4160696.39 ], [ 284195.97, 4160696.43 ], [ 284196.05, 4160696.48 ], [ 284196.14, 4160696.53 ], [ 284196.21, 4160696.59 ], [ 284196.28, 4160696.66 ], [ 284196.34, 4160696.73 ], [ 284196.4, 4160696.82 ], [ 284196.45, 4160696.9 ], [ 284196.49, 4160696.99 ], [ 284196.52, 4160697.09 ], [ 284196.54, 4160697.18 ], [ 284196.55, 4160697.28 ], [ 284196.55, 4160697.38 ], [ 284196.31, 4160703.37 ], [ 284196.31, 4160703.47 ], [ 284196.29, 4160703.56 ], [ 284196.26, 4160703.66 ], [ 284196.22, 4160703.75 ], [ 284196.18, 4160703.84 ], [ 284196.12, 4160703.92 ], [ 284196.06, 4160704.0 ], [ 284195.99, 4160704.07 ], [ 284195.92, 4160704.13 ], [ 284195.84, 4160704.18 ], [ 284195.75, 4160704.23 ], [ 284195.66, 4160704.27 ], [ 284195.57, 4160704.3 ], [ 284195.47, 4160704.32 ], [ 284195.37, 4160704.33 ], [ 284195.28, 4160704.33 ], [ 284188.58, 4160704.07 ], [ 284190.04, 4160705.54 ], [ 284190.37, 4160706.02 ], [ 284191.02, 4160707.6 ], [ 284191.13, 4160708.16 ] ] ] } },
{ "type": "Feature", "properties": { "id": "richmond_structure:425231", "name": null, "kind": "deck", "sport": null, "surface": null, "pitch_layout": null, "source": "richmond_structures", "source_updated": "2026-09-08T12:07:13.637000Z", "base_z": null, "top_z": null }, "geometry": { "type": "Polygon", "coordinates": [ [ [ 284187.04, 4160707.67 ], [ 284187.02, 4160708.74 ], [ 284190.89, 4160708.73 ], [ 284190.85, 4160708.1 ], [ 284195.6, 4160707.88 ], [ 284195.59, 4160704.73 ], [ 284188.8, 4160704.6 ], [ 284188.7, 4160707.48 ], [ 284187.04, 4160707.67 ] ] ] } },
{ "type": "Feature", "properties": { "id": "richmond_structure:292534", "name": null, "kind": "deck", "sport": null, "surface": null, "pitch_layout": null, "source": "richmond_structures", "source_updated": "2026-09-08T12:07:13.637000Z", "base_z": null, "top_z": null }, "geometry": { "type": "Polygon", "coordinates": [ [ [ 284002.21, 4160712.56 ], [ 284001.83, 4160718.51 ], [ 284007.82, 4160719.14 ], [ 284008.25, 4160714.86 ], [ 284004.96, 4160714.48 ], [ 284005.14, 4160712.9 ], [ 284002.21, 4160712.56 ] ] ] } },
{ "type": "Feature", "properties": { "id": "richmond_structure:293496", "name": null, "kind": "deck", "sport": null, "surface": null, "pitch_layout": null, "source": "richmond_structures", "source_updated": "2026-09-08T12:07:13.637000Z", "base_z": null, "top_z": null }, "geometry": { "type": "Polygon", "coordinates": [ [ [ 284040.88, 4160720.57 ], [ 284041.08, 4160718.3 ], [ 284035.06, 4160717.72 ], [ 284034.87, 4160719.91 ], [ 284040.88, 4160720.57 ] ] ] } },
{ "type": "Feature", "properties": { "id": "imagery:groundcover_lawn:56", "name": null, "kind": "groundcover_lawn", "sport": null, "surface": null, "pitch_layout": null, "source": "vgin_vbmp+naip+lidar2025", "source_updated": null, "base_z": null, "top_z": null }, "geometry": { "type": "Polygon", "coordinates": [ [ [ 284023.13, 4160736.69 ], [ 284023.46, 4160735.77 ], [ 284025.22, 4160733.63 ], [ 284026.21, 4160733.03 ], [ 284027.57, 4160729.69 ], [ 284026.85, 4160726.99 ], [ 284026.96, 4160725.97 ], [ 284024.28, 4160721.63 ], [ 284017.13, 4160721.63 ], [ 284014.13, 4160724.63 ], [ 284014.13, 4160727.03 ], [ 284013.71, 4160728.05 ], [ 284011.55, 4160730.2 ], [ 284010.53, 4160730.63 ], [ 284000.0, 4160730.63 ], [ 284000.0, 4160740.1 ], [ 284001.48, 4160746.03 ], [ 284016.7, 4160749.33 ], [ 284018.58, 4160746.29 ], [ 284019.77, 4160745.63 ], [ 284020.13, 4160745.63 ], [ 284023.13, 4160742.63 ], [ 284023.13, 4160736.69 ] ] ] } }
]
}
