{
"type": "FeatureCollection",
"name": "water",
"crs": { "type": "name", "properties": { "name": "urn:ogc:def:crs:EPSG::32618" } },
"xy_coordinate_resolution": 0.01,
"features": [
{ "type": "Feature", "properties": { "id": "osm:way/305179278", "name": "Reedy Creek", "kind": "canal", "water_z": 22.16, "source": null }, "geometry": { "type": "Polygon", "coordinates": [ [ [ 281750.0, 4155833.47 ], [ 281762.35, 4155864.02 ], [ 281765.88, 4155864.06 ], [ 281766.29, 4155863.09 ], [ 281750.0, 4155822.79 ], [ 281750.0, 4155833.47 ] ] ] } },
{ "type": "Feature", "properties": { "id": "osm:way/76228683", "name": "Reedy Creek", "kind": "canal", "water_z": 19.01, "source": null }, "geometry": { "type": "Polygon", "coordinates": [ [ [ 281762.7, 4155864.03 ], [ 281766.66, 4155864.06 ], [ 281766.31, 4155863.14 ], [ 281763.92, 4155861.91 ], [ 281762.7, 4155864.03 ] ] ] } },
{ "type": "Feature", "properties": { "id": "osm:way/303497404", "name": "Manchester Canal (Old Canal Bed Prep)", "kind": "canal", "water_z": 19.59, "source": null }, "geometry": { "type": "Polygon", "coordinates": [ [ [ 281784.42, 4155933.84 ], [ 281784.55, 4155933.6 ], [ 281784.57, 4155932.79 ], [ 281784.32, 4155931.53 ], [ 281784.37, 4155929.82 ], [ 281784.17, 4155929.17 ], [ 281783.63, 4155928.75 ], [ 281782.86, 4155928.61 ], [ 281781.85, 4155928.58 ], [ 281781.41, 4155927.5 ], [ 281781.6, 4155926.7 ], [ 281781.62, 4155926.09 ], [ 281780.5, 4155925.3 ], [ 281779.48, 4155925.03 ], [ 281779.45, 4155925.02 ], [ 281779.14, 4155925.05 ], [ 281778.99, 4155925.25 ], [ 281778.91, 4155925.37 ], [ 281778.59, 4155926.14 ], [ 281777.88, 4155927.49 ], [ 281777.35, 4155927.72 ], [ 281776.88, 4155927.67 ], [ 281775.56, 4155927.38 ], [ 281771.79, 4155925.81 ], [ 281770.36, 4155925.32 ], [ 281769.82, 4155924.42 ], [ 281769.1, 4155924.04 ], [ 281768.44, 4155924.07 ], [ 281766.84, 4155924.19 ], [ 281765.71, 4155923.88 ], [ 281765.03, 4155923.48 ], [ 281764.8, 4155922.53 ], [ 281765.0, 4155921.81 ], [ 281765.95, 4155920.93 ], [ 281767.09, 4155920.33 ], [ 281767.72, 4155919.83 ], [ 281767.83, 4155919.6 ], [ 281767.82, 4155919.52 ], [ 281767.69, 4155919.39 ], [ 281765.85, 4155918.75 ], [ 281765.08, 4155918.66 ], [ 281764.06, 4155918.91 ], [ 281763.57, 4155919.37 ], [ 281763.38, 4155920.21 ], [ 281763.04, 4155920.52 ], [ 281762.43, 4155920.85 ], [ 281760.42, 4155921.35 ], [ 281757.46, 4155921.72 ], [ 281756.38, 4155921.74 ], [ 281755.47, 4155921.4 ], [ 281754.69, 4155920.17 ], [ 281754.29, 4155918.79 ], [ 281754.07, 4155917.48 ], [ 281754.18, 4155915.99 ], [ 281755.12, 4155915.16 ], [ 281755.39, 4155915.11 ], [ 281750.0, 4155913.23 ], [ 281750.0, 4155923.8 ], [ 281771.47, 4155931.3 ], [ 281784.42, 4155933.84 ] ] ] } },
{ "type": "Feature", "properties": { "id": "noaa:Rivers:7", "name": "James River", "kind": "river", "water_z": null, "source": "noaa2025" }, "geometry": { "type": "Polygon", "coordinates": [ [ [ 281986.03, 4155912.63 ], [ 281980.58, 4155912.56 ], [ 281973.2, 4155912.67 ], [ 281967.86, 4155912.75 ], [ 281960.01, 4155912.24 ], [ 281947.04, 4155910.57 ], [ 281939.39, 4155909.8 ], [ 281933.34, 4155909.5 ], [ 281925.56, 4155909.79 ], [ 281917.59, 4155909.91 ], [ 281916.41, 4155910.06 ], [ 281913.96, 4155909.93 ], [ 281912.31, 4155909.32 ], [ 281910.59, 4155909.4 ], [ 281908.74, 4155909.17 ], [ 281906.72, 4155910.42 ], [ 281906.01, 4155910.58 ], [ 281904.89, 4155910.45 ], [ 281902.53, 4155910.64 ], [ 281900.68, 4155911.38 ], [ 281899.16, 4155911.37 ], [ 281897.21, 4155911.29 ], [ 281895.73, 4155912.09 ], [ 281894.69, 4155913.01 ], [ 281893.29, 4155914.04 ], [ 281892.09, 4155914.36 ], [ 281890.43, 4155914.34 ], [ 281888.14, 4155914.16 ], [ 281885.0, 4155914.54 ], [ 281881.95, 4155914.83 ], [ 281878.84, 4155916.08 ], [ 281877.47, 4155916.7 ], [ 281871.79, 4155917.6 ], [ 281863.42, 4155919.18 ], [ 281860.96, 4155919.82 ], [ 281858.03, 4155920.87 ], [ 281854.74, 4155921.71 ], [ 281853.37, 4155921.94 ], [ 281851.06, 4155921.72 ], [ 281847.73, 4155922.15 ], [ 281842.78, 4155922.63 ], [ 281837.42, 4155922.31 ], [ 281829.57, 4155920.95 ], [ 281825.39, 4155920.11 ], [ 281820.23, 4155919.14 ], [ 281817.39, 4155919.33 ], [ 281815.97, 4155919.91 ], [ 281814.52, 4155920.93 ], [ 281812.66, 4155922.66 ], [ 281810.83, 4155923.08 ], [ 281805.52, 4155922.66 ], [ 281799.1, 4155919.75 ], [ 281792.35, 4155914.92 ], [ 281790.16, 4155910.01 ], [ 281789.6, 4155903.24 ], [ 281789.49, 4155902.7 ], [ 281789.07, 4155902.03 ], [ 281788.41, 4155901.8 ], [ 281786.27, 4155901.35 ], [ 281784.63, 4155899.7 ], [ 281783.31, 4155893.64 ], [ 281783.46, 4155893.03 ], [ 281784.1, 4155892.37 ], [ 281784.3, 4155891.88 ], [ 281784.23, 4155891.38 ], [ 281783.93, 4155890.5 ], [ 281782.35, 4155887.86 ], [ 281780.74, 4155884.75 ], [ 281779.68, 4155882.06 ], [ 281777.28, 4155874.87 ], [ 281774.99, 4155869.49 ], [ 281772.95, 4155866.17 ], [ 281771.44, 4155864.11 ], [ 281753.65, 4155863.94 ], [ 281754.47, 4155864.92 ], [ 281757.55, 4155867.47 ], [ 281760.42, 4155870.61 ], [ 281762.11, 4155872.34 ], [ 281762.87, 4155876.38 ], [ 281765.2, 4155880.15 ], [ 281767.81, 4155886.8 ], [ 281768.88, 4155889.47 ], [ 281768.79, 4155891.93 ], [ 281768.46, 4155897.02 ], [ 281768.18, 4155903.77 ], [ 281767.64, 4155907.96 ], [ 281766.81, 4155908.12 ], [ 281765.71, 4155908.03 ], [ 281762.67, 4155907.4 ], [ 281760.59, 4155906.82 ], [ 281759.5, 4155907.03 ], [ 281759.13, 4155907.79 ], [ 281759.34, 4155908.7 ], [ 281759.76, 4155909.26 ], [ 281760.53, 4155910.06 ], [ 281762.46, 4155912.53 ], [ 281761.45, 4155913.62 ], [ 281759.98, 4155914.11 ], [ 281755.12, 4155915.16 ], [ 281754.18, 4155915.99 ], [ 281754.07, 4155917.48 ], [ 281754.29, 4155918.79 ], [ 281754.69, 4155920.17 ], [ 281755.47, 4155921.4 ], [ 281756.38, 4155921.74 ], [ 281757.46, 4155921.72 ], [ 281760.42, 4155921.35 ], [ 281762.43, 4155920.85 ], [ 281763.04, 4155920.52 ], [ 281763.38, 4155920.21 ], [ 281763.57, 4155919.37 ], [ 281764.06, 4155918.91 ], [ 281765.08, 4155918.66 ], [ 281766.27, 4155918.8 ], [ 281767.45, 4155919.16 ], [ 281767.82, 4155919.52 ], [ 281767.83, 4155919.6 ], [ 281767.72, 4155919.83 ], [ 281767.09, 4155920.33 ], [ 281765.95, 4155920.93 ], [ 281765.0, 4155921.81 ], [ 281764.8, 4155922.53 ], [ 281765.03, 4155923.48 ], [ 281765.71, 4155923.88 ], [ 281766.84, 4155924.19 ], [ 281768.44, 4155924.07 ], [ 281769.1, 4155924.04 ], [ 281769.82, 4155924.42 ], [ 281770.36, 4155925.32 ], [ 281771.79, 4155925.81 ], [ 281775.56, 4155927.38 ], [ 281776.88, 4155927.67 ], [ 281777.35, 4155927.72 ], [ 281777.88, 4155927.49 ], [ 281778.59, 4155926.14 ], [ 281778.91, 4155925.37 ], [ 281778.99, 4155925.25 ], [ 281779.14, 4155925.05 ], [ 281779.45, 4155925.02 ], [ 281779.48, 4155925.03 ], [ 281780.5, 4155925.3 ], [ 281781.62, 4155926.09 ], [ 281781.6, 4155926.7 ], [ 281781.41, 4155927.5 ], [ 281781.85, 4155928.58 ], [ 281782.86, 4155928.61 ], [ 281783.63, 4155928.75 ], [ 281784.17, 4155929.17 ], [ 281784.37, 4155929.82 ], [ 281784.32, 4155931.53 ], [ 281784.57, 4155932.79 ], [ 281784.55, 4155933.6 ], [ 281784.35, 4155933.98 ], [ 281783.96, 4155934.15 ], [ 281783.06, 4155934.14 ], [ 281780.87, 4155933.96 ], [ 281778.51, 4155934.09 ], [ 281777.7, 4155934.16 ], [ 281776.9, 4155934.35 ], [ 281775.95, 4155934.73 ], [ 281775.43, 4155935.08 ], [ 281775.18, 4155935.42 ], [ 281774.62, 4155936.12 ], [ 281772.28, 4155936.81 ], [ 281768.79, 4155937.8 ], [ 281764.59, 4155938.39 ], [ 281757.28, 4155938.4 ], [ 281755.86, 4155938.14 ], [ 281753.22, 4155938.14 ], [ 281750.51, 4155939.04 ], [ 281750.0, 4155939.34 ], [ 281750.0, 4155997.23 ], [ 281753.39, 4155995.15 ], [ 281757.19, 4155993.96 ], [ 281770.28, 4155992.42 ], [ 281774.44, 4155991.39 ], [ 281780.32, 4155989.24 ], [ 281788.27, 4155986.5 ], [ 281791.05, 4155985.87 ], [ 281795.55, 4155984.47 ], [ 281800.6, 4155983.58 ], [ 281806.89, 4155983.18 ], [ 281816.77, 4155984.91 ], [ 281837.34, 4155991.85 ], [ 281851.09, 4156000.0 ], [ 281929.57, 4156000.0 ], [ 281922.03, 4155997.19 ], [ 281913.79, 4155995.53 ], [ 281911.2, 4155994.22 ], [ 281910.38, 4155993.42 ], [ 281909.55, 4155993.3 ], [ 281907.05, 4155993.73 ], [ 281905.28, 4155993.69 ], [ 281879.03, 4155986.51 ], [ 281871.05, 4155984.62 ], [ 281863.17, 4155981.39 ], [ 281861.1, 4155980.15 ], [ 281857.1, 4155979.36 ], [ 281856.66, 4155978.27 ], [ 281862.2, 4155974.94 ], [ 281863.64, 4155972.97 ], [ 281868.11, 4155969.79 ], [ 281869.07, 4155969.6 ], [ 281869.59, 4155969.22 ], [ 281869.78, 4155966.77 ], [ 281868.71, 4155964.15 ], [ 281869.06, 4155962.85 ], [ 281869.9, 4155961.52 ], [ 281870.69, 4155961.23 ], [ 281872.34, 4155961.25 ], [ 281874.57, 4155962.29 ], [ 281877.68, 4155966.76 ], [ 281879.41, 4155967.95 ], [ 281880.75, 4155967.98 ], [ 281885.35, 4155965.67 ], [ 281888.11, 4155965.57 ], [ 281891.9, 4155968.1 ], [ 281897.88, 4155966.95 ], [ 281899.59, 4155966.12 ], [ 281900.58, 4155965.2 ], [ 281901.85, 4155964.57 ], [ 281904.05, 4155963.95 ], [ 281904.71, 4155964.98 ], [ 281904.61, 4155965.83 ], [ 281905.12, 4155966.97 ], [ 281910.05, 4155965.74 ], [ 281913.35, 4155966.39 ], [ 281915.7, 4155966.19 ], [ 281926.44, 4155963.61 ], [ 281939.34, 4155962.68 ], [ 281956.65, 4155963.29 ], [ 281992.26, 4155961.79 ], [ 282000.0, 4155962.15 ], [ 282000.0, 4155912.75 ], [ 281993.13, 4155913.13 ], [ 281986.03, 4155912.63 ] ] ] } }
]
}
