{
"type": "FeatureCollection",
"name": "roads",
"crs": { "type": "name", "properties": { "name": "urn:ogc:def:crs:EPSG::32618" } },
"xy_coordinate_resolution": 0.01,
"features": [
{ "type": "Feature", "properties": { "id": "osm:way/31839583", "name": "Richmond-Petersburg Turnpike", "highway": "motorway", "lanes": 3.0, "width": 14.0, "oneway": true, "surface": "asphalt", "footway": null, "sidewalk_left": false, "sidewalk_right": false, "generated_sidewalk": false, "bus_lanes": null, "bus_lane_side": null, "bus_only": false, "sidewalk": false, "bridge": false, "ramp": false, "tunnel": false, "layer": 0, "deck": null }, "geometry": { "type": "LineString", "coordinates": [ [ 283691.22, 4159500.0 ], [ 283684.41, 4159505.6 ], [ 283500.0, 4159636.49 ] ] } },
{ "type": "Feature", "properties": { "id": "osm:way/1131779204", "name": null, "highway": "footway", "lanes": null, "width": 2.0, "oneway": false, "surface": null, "footway": null, "sidewalk_left": false, "sidewalk_right": false, "generated_sidewalk": false, "bus_lanes": null, "bus_lane_side": null, "bus_only": false, "sidewalk": false, "bridge": false, "ramp": false, "tunnel": false, "layer": 0, "deck": null }, "geometry": { "type": "LineString", "coordinates": [ [ 283748.59, 4159564.98 ], [ 283748.37, 4159557.67 ], [ 283750.0, 4159556.9 ] ] } },
{ "type": "Feature", "properties": { "id": "osm:way/1469006280", "name": null, "highway": "footway", "lanes": null, "width": 2.0, "oneway": false, "surface": null, "footway": "crossing", "sidewalk_left": false, "sidewalk_right": false, "generated_sidewalk": false, "bus_lanes": null, "bus_lane_side": null, "bus_only": false, "sidewalk": false, "bridge": false, "ramp": false, "tunnel": false, "layer": 0, "deck": null }, "geometry": { "type": "LineString", "coordinates": [ [ 283748.73, 4159572.71 ], [ 283748.76, 4159570.34 ], [ 283748.59, 4159564.98 ] ] } },
{ "type": "Feature", "properties": { "id": "osm:way/1469006279", "name": null, "highway": "footway", "lanes": null, "width": 2.0, "oneway": false, "surface": null, "footway": null, "sidewalk_left": false, "sidewalk_right": false, "generated_sidewalk": false, "bus_lanes": null, "bus_lane_side": null, "bus_only": false, "sidewalk": false, "bridge": false, "ramp": false, "tunnel": false, "layer": 0, "deck": null }, "geometry": { "type": "LineString", "coordinates": [ [ 283748.93, 4159584.55 ], [ 283748.73, 4159572.71 ] ] } },
{ "type": "Feature", "properties": { "id": "osm:way/1073836188", "name": null, "highway": "service", "lanes": null, "width": 4.5, "oneway": false, "surface": null, "footway": null, "sidewalk_left": false, "sidewalk_right": false, "generated_sidewalk": false, "bus_lanes": null, "bus_lane_side": null, "bus_only": false, "sidewalk": false, "bridge": false, "ramp": false, "tunnel": false, "layer": 0, "deck": null }, "geometry": { "type": "LineString", "coordinates": [ [ 283750.0, 4159589.32 ], [ 283747.44, 4159589.3 ], [ 283743.02, 4159589.21 ], [ 283737.37, 4159587.52 ], [ 283737.35, 4159579.94 ], [ 283743.81, 4159571.64 ], [ 283748.76, 4159570.34 ], [ 283750.0, 4159570.01 ] ] } },
{ "type": "Feature", "properties": { "id": "osm:way/1469006281", "name": null, "highway": "footway", "lanes": null, "width": 2.0, "oneway": false, "surface": null, "footway": "crossing", "sidewalk_left": false, "sidewalk_right": false, "generated_sidewalk": false, "bus_lanes": null, "bus_lane_side": null, "bus_only": false, "sidewalk": false, "bridge": false, "ramp": false, "tunnel": false, "layer": 0, "deck": null }, "geometry": { "type": "LineString", "coordinates": [ [ 283746.91, 4159590.75 ], [ 283747.44, 4159589.3 ], [ 283748.93, 4159584.55 ] ] } },
{ "type": "Feature", "properties": { "id": "osm:way/1469006282", "name": null, "highway": "footway", "lanes": null, "width": 2.0, "oneway": false, "surface": null, "footway": "access_aisle", "sidewalk_left": false, "sidewalk_right": false, "generated_sidewalk": false, "bus_lanes": null, "bus_lane_side": null, "bus_only": false, "sidewalk": false, "bridge": false, "ramp": false, "tunnel": false, "layer": 0, "deck": null }, "geometry": { "type": "LineString", "coordinates": [ [ 283746.91, 4159590.75 ], [ 283746.9, 4159596.85 ] ] } },
{ "type": "Feature", "properties": { "id": "osm:way/673646689", "name": null, "highway": "service", "lanes": null, "width": 4.5, "oneway": false, "surface": null, "footway": null, "sidewalk_left": false, "sidewalk_right": false, "generated_sidewalk": false, "bus_lanes": null, "bus_lane_side": null, "bus_only": false, "sidewalk": false, "bridge": false, "ramp": false, "tunnel": false, "layer": 0, "deck": null }, "geometry": { "type": "LineString", "coordinates": [ [ 283668.97, 4159627.51 ], [ 283743.52, 4159627.4 ], [ 283750.0, 4159627.18 ] ] } },
{ "type": "Feature", "properties": { "id": "osm:way/6038679", "name": "School Street", "highway": "residential", "lanes": null, "width": 7.0, "oneway": false, "surface": null, "footway": null, "sidewalk_left": null, "sidewalk_right": null, "generated_sidewalk": true, "bus_lanes": null, "bus_lane_side": null, "bus_only": false, "sidewalk": false, "bridge": false, "ramp": false, "tunnel": false, "layer": 0, "deck": null }, "geometry": { "type": "LineString", "coordinates": [ [ 283750.0, 4159691.84 ], [ 283709.14, 4159691.85 ], [ 283643.95, 4159691.88 ], [ 283637.89, 4159691.88 ], [ 283571.4, 4159692.55 ] ] } },
{ "type": "Feature", "properties": { "id": "osm:way/601102841", "name": "Richmond-Petersburg Turnpike", "highway": "motorway", "lanes": 3.0, "width": 14.0, "oneway": true, "surface": "asphalt", "footway": null, "sidewalk_left": false, "sidewalk_right": false, "generated_sidewalk": false, "bus_lanes": null, "bus_lane_side": null, "bus_only": false, "sidewalk": false, "bridge": false, "ramp": false, "tunnel": false, "layer": 0, "deck": null }, "geometry": { "type": "LineString", "coordinates": [ [ 283500.0, 4159619.54 ], [ 283665.7, 4159500.0 ] ] } },
{ "type": "Feature", "properties": { "id": "osm:way/1494844853", "name": null, "highway": "service", "lanes": null, "width": 4.5, "oneway": false, "surface": null, "footway": null, "sidewalk_left": false, "sidewalk_right": false, "generated_sidewalk": false, "bus_lanes": null, "bus_lane_side": null, "bus_only": false, "sidewalk": false, "bridge": false, "ramp": false, "tunnel": false, "layer": 0, "deck": null }, "geometry": { "type": "LineString", "coordinates": [ [ 283500.0, 4159553.64 ], [ 283502.86, 4159551.44 ] ] } },
{ "type": "Feature", "properties": { "id": "osm:way/725273479", "name": null, "highway": "service", "lanes": null, "width": 4.5, "oneway": false, "surface": null, "footway": null, "sidewalk_left": false, "sidewalk_right": false, "generated_sidewalk": false, "bus_lanes": null, "bus_lane_side": null, "bus_only": false, "sidewalk": false, "bridge": false, "ramp": false, "tunnel": false, "layer": 0, "deck": null }, "geometry": { "type": "LineString", "coordinates": [ [ 283709.14, 4159691.85 ], [ 283709.38, 4159682.85 ], [ 283710.44, 4159644.49 ] ] } },
{ "type": "Feature", "properties": { "id": "osm:way/1131779229", "name": null, "highway": "service", "lanes": null, "width": 4.5, "oneway": false, "surface": null, "footway": null, "sidewalk_left": false, "sidewalk_right": false, "generated_sidewalk": false, "bus_lanes": null, "bus_lane_side": null, "bus_only": false, "sidewalk": false, "bridge": false, "ramp": false, "tunnel": false, "layer": 0, "deck": null }, "geometry": { "type": "LineString", "coordinates": [ [ 283643.95, 4159691.88 ], [ 283644.27, 4159648.68 ] ] } },
{ "type": "Feature", "properties": { "id": "osm:way/689645857", "name": null, "highway": "service", "lanes": null, "width": 4.5, "oneway": false, "surface": null, "footway": null, "sidewalk_left": false, "sidewalk_right": false, "generated_sidewalk": false, "bus_lanes": null, "bus_lane_side": null, "bus_only": false, "sidewalk": false, "bridge": false, "ramp": false, "tunnel": false, "layer": 0, "deck": null }, "geometry": { "type": "LineString", "coordinates": [ [ 283571.4, 4159692.55 ], [ 283571.03, 4159703.15 ], [ 283550.94, 4159733.84 ] ] } },
{ "type": "Feature", "properties": { "id": "osm:way/1131779230", "name": null, "highway": "service", "lanes": null, "width": 4.5, "oneway": false, "surface": null, "footway": null, "sidewalk_left": false, "sidewalk_right": false, "generated_sidewalk": false, "bus_lanes": null, "bus_lane_side": null, "bus_only": false, "sidewalk": false, "bridge": false, "ramp": false, "tunnel": false, "layer": 0, "deck": null }, "geometry": { "type": "LineString", "coordinates": [ [ 283626.95, 4159733.94 ], [ 283616.66, 4159725.98 ] ] } },
{ "type": "Feature", "properties": { "id": "osm:way/6032837", "name": "Currie Street", "highway": "residential", "lanes": null, "width": 7.0, "oneway": false, "surface": null, "footway": null, "sidewalk_left": null, "sidewalk_right": null, "generated_sidewalk": true, "bus_lanes": null, "bus_lane_side": null, "bus_only": false, "sidewalk": false, "bridge": false, "ramp": false, "tunnel": false, "layer": 0, "deck": null }, "geometry": { "type": "LineString", "coordinates": [ [ 283637.89, 4159691.88 ], [ 283616.66, 4159725.98 ], [ 283601.7, 4159750.0 ] ] } },
{ "type": "Feature", "properties": { "id": "osm:way/1131779231", "name": null, "highway": "service", "lanes": null, "width": 4.5, "oneway": false, "surface": null, "footway": null, "sidewalk_left": false, "sidewalk_right": false, "generated_sidewalk": false, "bus_lanes": null, "bus_lane_side": null, "bus_only": false, "sidewalk": false, "bridge": false, "ramp": false, "tunnel": false, "layer": 0, "deck": null }, "geometry": { "type": "LineString", "coordinates": [ [ 283649.53, 4159713.95 ], [ 283637.93, 4159714.72 ], [ 283626.95, 4159733.94 ], [ 283617.77, 4159750.0 ] ] } },
{ "type": "Feature", "properties": { "id": "osm:way/1131779232", "name": null, "highway": "service", "lanes": null, "width": 4.5, "oneway": false, "surface": null, "footway": null, "sidewalk_left": false, "sidewalk_right": false, "generated_sidewalk": false, "bus_lanes": null, "bus_lane_side": null, "bus_only": false, "sidewalk": false, "bridge": false, "ramp": false, "tunnel": false, "layer": 0, "deck": null }, "geometry": { "type": "MultiLineString", "coordinates": [ [ [ 283680.48, 4159750.0 ], [ 283680.47, 4159749.61 ] ], [ [ 283680.47, 4159749.61 ], [ 283680.25, 4159714.79 ], [ 283693.41, 4159714.71 ], [ 283693.63, 4159749.51 ], [ 283680.47, 4159749.61 ] ] ] } }
]
}
