{
"type": "FeatureCollection",
"name": "pois",
"crs": { "type": "name", "properties": { "name": "urn:ogc:def:crs:EPSG::32618" } },
"xy_coordinate_resolution": 0.01,
"features": [
{ "type": "Feature", "properties": { "id": "rva-tree:81925", "name": "Ligustrum sinensis", "kind": "tree", "species": "Ligustrum sinensis", "source": "city_inventory", "tree_height": 8.0, "crown_radius": 2.5, "height_source": "estimated" }, "geometry": { "type": "Point", "coordinates": [ 284507.06, 4160513.73 ] } },
{ "type": "Feature", "properties": { "id": "rva-tree:79549", "name": "Acer rubrum", "kind": "tree", "species": "Acer rubrum", "source": "city_inventory", "tree_height": 8.0, "crown_radius": 2.5, "height_source": "estimated" }, "geometry": { "type": "Point", "coordinates": [ 284517.02, 4160516.73 ] } },
{ "type": "Feature", "properties": { "id": "rva-tree:66095", "name": "Betula nigra", "kind": "tree", "species": "Betula nigra", "source": "city_inventory", "tree_height": 13.3, "crown_radius": 5.5, "height_source": "lidar2025" }, "geometry": { "type": "Point", "coordinates": [ 284517.87, 4160524.17 ] } },
{ "type": "Feature", "properties": { "id": "rva-tree:94881", "name": "Cercis canadensis", "kind": "tree", "species": "Cercis canadensis", "source": "city_inventory", "tree_height": 8.0, "crown_radius": 2.5, "height_source": "estimated" }, "geometry": { "type": "Point", "coordinates": [ 284500.76, 4160525.78 ] } },
{ "type": "Feature", "properties": { "id": "rva-tree:83649", "name": "Carya tomentosa", "kind": "tree", "species": "Carya tomentosa", "source": "city_inventory", "tree_height": 20.8, "crown_radius": 6.0, "height_source": "lidar2025" }, "geometry": { "type": "Point", "coordinates": [ 284503.94, 4160543.57 ] } },
{ "type": "Feature", "properties": { "id": "rva-tree:83802", "name": "Ailanthus altissima", "kind": "tree", "species": "Ailanthus altissima", "source": "city_inventory", "tree_height": 20.8, "crown_radius": 6.0, "height_source": "lidar2025" }, "geometry": { "type": "Point", "coordinates": [ 284507.84, 4160548.17 ] } },
{ "type": "Feature", "properties": { "id": "rva-tree:83847", "name": "Ailanthus altissima", "kind": "tree", "species": "Ailanthus altissima", "source": "city_inventory", "tree_height": 20.8, "crown_radius": 6.0, "height_source": "lidar2025" }, "geometry": { "type": "Point", "coordinates": [ 284508.24, 4160549.03 ] } },
{ "type": "Feature", "properties": { "id": "rva-tree:83172", "name": "Fagus grandifolia", "kind": "tree", "species": "Fagus grandifolia", "source": "city_inventory", "tree_height": 24.5, "crown_radius": 6.0, "height_source": "lidar2025" }, "geometry": { "type": "Point", "coordinates": [ 284500.58, 4160553.26 ] } },
{ "type": "Feature", "properties": { "id": "rva-tree:85057", "name": "Liquidambar styraciflua", "kind": "tree", "species": "Liquidambar styraciflua", "source": "city_inventory", "tree_height": 24.5, "crown_radius": 6.0, "height_source": "lidar2025" }, "geometry": { "type": "Point", "coordinates": [ 284504.46, 4160553.63 ] } },
{ "type": "Feature", "properties": { "id": "rva-tree:86681", "name": "Zelkova serrata", "kind": "tree", "species": "Zelkova serrata", "source": "city_inventory", "tree_height": 13.6, "crown_radius": 6.0, "height_source": "lidar2025" }, "geometry": { "type": "Point", "coordinates": [ 284628.62, 4160501.61 ] } },
{ "type": "Feature", "properties": { "id": "lidar-tree:284676:4160512", "name": null, "kind": "tree", "species": null, "source": "lidar2025", "tree_height": 20.7, "crown_radius": 6.0, "height_source": "lidar2025" }, "geometry": { "type": "Point", "coordinates": [ 284676.5, 4160512.5 ] } },
{ "type": "Feature", "properties": { "id": "rva-tree:87247", "name": "Zelkova serrata", "kind": "tree", "species": "Zelkova serrata", "source": "city_inventory", "tree_height": 8.0, "crown_radius": 2.5, "height_source": "estimated" }, "geometry": { "type": "Point", "coordinates": [ 284629.08, 4160513.8 ] } },
{ "type": "Feature", "properties": { "id": "lidar-tree:284666:4160520", "name": null, "kind": "tree", "species": null, "source": "lidar2025", "tree_height": 16.0, "crown_radius": 6.0, "height_source": "lidar2025" }, "geometry": { "type": "Point", "coordinates": [ 284665.5, 4160520.5 ] } },
{ "type": "Feature", "properties": { "id": "lidar-tree:284610:4160522", "name": null, "kind": "tree", "species": null, "source": "lidar2025", "tree_height": 7.5, "crown_radius": 3.6, "height_source": "lidar2025" }, "geometry": { "type": "Point", "coordinates": [ 284609.5, 4160521.5 ] } },
{ "type": "Feature", "properties": { "id": "rva-tree:86690", "name": "Zelkova serrata", "kind": "tree", "species": "Zelkova serrata", "source": "city_inventory", "tree_height": 19.0, "crown_radius": 6.0, "height_source": "lidar2025" }, "geometry": { "type": "Point", "coordinates": [ 284636.43, 4160523.13 ] } },
{ "type": "Feature", "properties": { "id": "lidar-tree:284678:4160526", "name": null, "kind": "tree", "species": null, "source": "lidar2025", "tree_height": 19.2, "crown_radius": 6.0, "height_source": "lidar2025" }, "geometry": { "type": "Point", "coordinates": [ 284677.5, 4160525.5 ] } },
{ "type": "Feature", "properties": { "id": "rva-tree:90310", "name": "Zelkova serrata", "kind": "tree", "species": "Zelkova serrata", "source": "city_inventory", "tree_height": 14.6, "crown_radius": 6.0, "height_source": "lidar2025" }, "geometry": { "type": "Point", "coordinates": [ 284627.59, 4160528.5 ] } },
{ "type": "Feature", "properties": { "id": "rva-tree:89161", "name": "Acer rubrum", "kind": "tree", "species": "Acer rubrum", "source": "city_inventory", "tree_height": 8.0, "crown_radius": 2.5, "height_source": "estimated" }, "geometry": { "type": "Point", "coordinates": [ 284642.59, 4160532.71 ] } },
{ "type": "Feature", "properties": { "id": "rva-tree:74981", "name": "Cornus spp.", "kind": "tree", "species": "Cornus spp.", "source": "city_inventory", "tree_height": 4.8, "crown_radius": 2.8, "height_source": "lidar2025" }, "geometry": { "type": "Point", "coordinates": [ 284568.94, 4160501.02 ] } },
{ "type": "Feature", "properties": { "id": "lidar-tree:284532:4160510", "name": null, "kind": "tree", "species": null, "source": "lidar2025", "tree_height": 17.8, "crown_radius": 5.2, "height_source": "lidar2025" }, "geometry": { "type": "Point", "coordinates": [ 284531.5, 4160509.5 ] } },
{ "type": "Feature", "properties": { "id": "rva-tree:82002", "name": "Tsuga caroliniana", "kind": "tree", "species": "Tsuga caroliniana", "source": "city_inventory", "tree_height": 8.0, "crown_radius": 2.5, "height_source": "estimated" }, "geometry": { "type": "Point", "coordinates": [ 284521.52, 4160509.58 ] } },
{ "type": "Feature", "properties": { "id": "lidar-tree:284588:4160512", "name": null, "kind": "tree", "species": null, "source": "lidar2025", "tree_height": 7.6, "crown_radius": 4.1, "height_source": "lidar2025" }, "geometry": { "type": "Point", "coordinates": [ 284588.5, 4160511.5 ] } },
{ "type": "Feature", "properties": { "id": "rva-tree:66103", "name": "Liquidambar styraciflua", "kind": "tree", "species": "Liquidambar styraciflua", "source": "city_inventory", "tree_height": 24.6, "crown_radius": 5.8, "height_source": "lidar2025" }, "geometry": { "type": "Point", "coordinates": [ 284523.42, 4160512.77 ] } },
{ "type": "Feature", "properties": { "id": "rva-tree:81129", "name": "Quercus alba", "kind": "tree", "species": "Quercus alba", "source": "city_inventory", "tree_height": 24.6, "crown_radius": 5.8, "height_source": "lidar2025" }, "geometry": { "type": "Point", "coordinates": [ 284523.32, 4160513.49 ] } },
{ "type": "Feature", "properties": { "id": "rva-tree:81661", "name": "Quercus phellos", "kind": "tree", "species": "Quercus phellos", "source": "city_inventory", "tree_height": 18.8, "crown_radius": 6.0, "height_source": "lidar2025" }, "geometry": { "type": "Point", "coordinates": [ 284562.35, 4160513.68 ] } },
{ "type": "Feature", "properties": { "id": "lidar-tree:284584:4160518", "name": null, "kind": "tree", "species": null, "source": "lidar2025", "tree_height": 10.9, "crown_radius": 3.9, "height_source": "lidar2025" }, "geometry": { "type": "Point", "coordinates": [ 284583.5, 4160518.5 ] } },
{ "type": "Feature", "properties": { "id": "rva-tree:74980", "name": "Cornus spp.", "kind": "tree", "species": "Cornus spp.", "source": "city_inventory", "tree_height": 8.0, "crown_radius": 2.5, "height_source": "estimated" }, "geometry": { "type": "Point", "coordinates": [ 284558.93, 4160519.71 ] } },
{ "type": "Feature", "properties": { "id": "rva-tree:74930", "name": "Cornus spp.", "kind": "tree", "species": "Cornus spp.", "source": "city_inventory", "tree_height": 8.0, "crown_radius": 2.5, "height_source": "estimated" }, "geometry": { "type": "Point", "coordinates": [ 284555.65, 4160526.38 ] } },
{ "type": "Feature", "properties": { "id": "lidar-tree:284700:4160500", "name": null, "kind": "tree", "species": null, "source": "lidar2025", "tree_height": 12.6, "crown_radius": 5.3, "height_source": "lidar2025" }, "geometry": { "type": "Point", "coordinates": [ 284700.5, 4160500.5 ] } },
{ "type": "Feature", "properties": { "id": "rva-tree:86676", "name": "Acer saccharum", "kind": "tree", "species": "Acer saccharum", "source": "city_inventory", "tree_height": 16.6, "crown_radius": 5.6, "height_source": "lidar2025" }, "geometry": { "type": "Point", "coordinates": [ 284736.27, 4160504.31 ] } },
{ "type": "Feature", "properties": { "id": "lidar-tree:284734:4160524", "name": null, "kind": "tree", "species": null, "source": "lidar2025", "tree_height": 7.4, "crown_radius": 2.9, "height_source": "lidar2025" }, "geometry": { "type": "Point", "coordinates": [ 284734.5, 4160523.5 ] } },
{ "type": "Feature", "properties": { "id": "lidar-tree:284714:4160528", "name": null, "kind": "tree", "species": null, "source": "lidar2025", "tree_height": 19.4, "crown_radius": 6.0, "height_source": "lidar2025" }, "geometry": { "type": "Point", "coordinates": [ 284714.5, 4160527.5 ] } },
{ "type": "Feature", "properties": { "id": "lidar-tree:284708:4160540", "name": null, "kind": "tree", "species": null, "source": "lidar2025", "tree_height": 7.4, "crown_radius": 4.4, "height_source": "lidar2025" }, "geometry": { "type": "Point", "coordinates": [ 284708.5, 4160540.5 ] } },
{ "type": "Feature", "properties": { "id": "rva-tree:79302", "name": "Betula nigra", "kind": "tree", "species": "Betula nigra", "source": "city_inventory", "tree_height": 8.0, "crown_radius": 2.5, "height_source": "estimated" }, "geometry": { "type": "Point", "coordinates": [ 284551.33, 4160528.94 ] } },
{ "type": "Feature", "properties": { "id": "rva-tree:74929", "name": "Cornus spp.", "kind": "tree", "species": "Cornus spp.", "source": "city_inventory", "tree_height": 8.0, "crown_radius": 2.5, "height_source": "estimated" }, "geometry": { "type": "Point", "coordinates": [ 284552.99, 4160531.98 ] } },
{ "type": "Feature", "properties": { "id": "lidar-tree:284596:4160532", "name": null, "kind": "tree", "species": null, "source": "lidar2025", "tree_height": 10.9, "crown_radius": 4.4, "height_source": "lidar2025" }, "geometry": { "type": "Point", "coordinates": [ 284596.5, 4160532.5 ] } },
{ "type": "Feature", "properties": { "id": "lidar-tree:284590:4160534", "name": null, "kind": "tree", "species": null, "source": "lidar2025", "tree_height": 8.6, "crown_radius": 4.5, "height_source": "lidar2025" }, "geometry": { "type": "Point", "coordinates": [ 284589.5, 4160533.5 ] } },
{ "type": "Feature", "properties": { "id": "rva-tree:79041", "name": "Cornus florida", "kind": "tree", "species": "Cornus florida", "source": "city_inventory", "tree_height": 6.6, "crown_radius": 4.1, "height_source": "lidar2025" }, "geometry": { "type": "Point", "coordinates": [ 284545.8, 4160536.83 ] } },
{ "type": "Feature", "properties": { "id": "rva-tree:74789", "name": "Cornus spp.", "kind": "tree", "species": "Cornus spp.", "source": "city_inventory", "tree_height": 6.6, "crown_radius": 4.1, "height_source": "lidar2025" }, "geometry": { "type": "Point", "coordinates": [ 284548.68, 4160541.15 ] } },
{ "type": "Feature", "properties": { "id": "lidar-tree:284580:4160544", "name": null, "kind": "tree", "species": null, "source": "lidar2025", "tree_height": 27.4, "crown_radius": 6.0, "height_source": "lidar2025" }, "geometry": { "type": "Point", "coordinates": [ 284580.5, 4160544.5 ] } },
{ "type": "Feature", "properties": { "id": "rva-tree:74788", "name": "Cornus spp.", "kind": "tree", "species": "Cornus spp.", "source": "city_inventory", "tree_height": 10.4, "crown_radius": 5.9, "height_source": "lidar2025" }, "geometry": { "type": "Point", "coordinates": [ 284546.64, 4160544.95 ] } },
{ "type": "Feature", "properties": { "id": "rva-tree:80154", "name": "Morus alba", "kind": "tree", "species": "Morus alba", "source": "city_inventory", "tree_height": 10.4, "crown_radius": 5.9, "height_source": "lidar2025" }, "geometry": { "type": "Point", "coordinates": [ 284544.36, 4160546.12 ] } },
{ "type": "Feature", "properties": { "id": "rva-tree:74468", "name": "Cornus spp.", "kind": "tree", "species": "Cornus spp.", "source": "city_inventory", "tree_height": 10.4, "crown_radius": 5.9, "height_source": "lidar2025" }, "geometry": { "type": "Point", "coordinates": [ 284542.74, 4160552.62 ] } },
{ "type": "Feature", "properties": { "id": "lidar-tree:284624:4160534", "name": null, "kind": "tree", "species": null, "source": "lidar2025", "tree_height": 14.6, "crown_radius": 6.0, "height_source": "lidar2025" }, "geometry": { "type": "Point", "coordinates": [ 284624.5, 4160534.5 ] } },
{ "type": "Feature", "properties": { "id": "rva-tree:87814", "name": "Zelkova serrata", "kind": "tree", "species": "Zelkova serrata", "source": "city_inventory", "tree_height": 14.1, "crown_radius": 6.0, "height_source": "lidar2025" }, "geometry": { "type": "Point", "coordinates": [ 284636.81, 4160540.49 ] } },
{ "type": "Feature", "properties": { "id": "rva-tree:90965", "name": "Lagerstroemia indica", "kind": "tree", "species": "Lagerstroemia indica", "source": "city_inventory", "tree_height": 8.0, "crown_radius": 2.5, "height_source": "estimated" }, "geometry": { "type": "Point", "coordinates": [ 284649.97, 4160543.04 ] } },
{ "type": "Feature", "properties": { "id": "rva-tree:88546", "name": "Lagerstroemia indica", "kind": "tree", "species": "Lagerstroemia indica", "source": "city_inventory", "tree_height": 8.0, "crown_radius": 2.5, "height_source": "estimated" }, "geometry": { "type": "Point", "coordinates": [ 284651.39, 4160543.58 ] } },
{ "type": "Feature", "properties": { "id": "rva-tree:88553", "name": "Lagerstroemia indica", "kind": "tree", "species": "Lagerstroemia indica", "source": "city_inventory", "tree_height": 8.0, "crown_radius": 2.5, "height_source": "estimated" }, "geometry": { "type": "Point", "coordinates": [ 284653.92, 4160546.89 ] } },
{ "type": "Feature", "properties": { "id": "lidar-tree:284604:4160548", "name": null, "kind": "tree", "species": null, "source": "lidar2025", "tree_height": 21.8, "crown_radius": 5.3, "height_source": "lidar2025" }, "geometry": { "type": "Point", "coordinates": [ 284603.5, 4160547.5 ] } },
{ "type": "Feature", "properties": { "id": "rva-tree:87797", "name": "Zelkova serrata", "kind": "tree", "species": "Zelkova serrata", "source": "city_inventory", "tree_height": 12.5, "crown_radius": 5.9, "height_source": "lidar2025" }, "geometry": { "type": "Point", "coordinates": [ 284643.76, 4160549.54 ] } },
{ "type": "Feature", "properties": { "id": "rva-tree:86692", "name": "Zelkova serrata", "kind": "tree", "species": "Zelkova serrata", "source": "city_inventory", "tree_height": 6.5, "crown_radius": 4.4, "height_source": "lidar2025" }, "geometry": { "type": "Point", "coordinates": [ 284657.53, 4160552.56 ] } },
{ "type": "Feature", "properties": { "id": "lidar-tree:284600:4160554", "name": null, "kind": "tree", "species": null, "source": "lidar2025", "tree_height": 21.5, "crown_radius": 5.3, "height_source": "lidar2025" }, "geometry": { "type": "Point", "coordinates": [ 284600.5, 4160554.5 ] } },
{ "type": "Feature", "properties": { "id": "rva-tree:89301", "name": "Ulmus alata", "kind": "tree", "species": "Ulmus alata", "source": "city_inventory", "tree_height": 18.5, "crown_radius": 6.0, "height_source": "lidar2025" }, "geometry": { "type": "Point", "coordinates": [ 284650.92, 4160559.11 ] } },
{ "type": "Feature", "properties": { "id": "lidar-tree:284736:4160544", "name": null, "kind": "tree", "species": null, "source": "lidar2025", "tree_height": 7.9, "crown_radius": 3.9, "height_source": "lidar2025" }, "geometry": { "type": "Point", "coordinates": [ 284735.5, 4160543.5 ] } },
{ "type": "Feature", "properties": { "id": "lidar-tree:284730:4160550", "name": null, "kind": "tree", "species": null, "source": "lidar2025", "tree_height": 9.9, "crown_radius": 4.9, "height_source": "lidar2025" }, "geometry": { "type": "Point", "coordinates": [ 284729.5, 4160549.5 ] } },
{ "type": "Feature", "properties": { "id": "lidar-tree:284720:4160556", "name": null, "kind": "tree", "species": null, "source": "lidar2025", "tree_height": 8.2, "crown_radius": 4.2, "height_source": "lidar2025" }, "geometry": { "type": "Point", "coordinates": [ 284720.5, 4160555.5 ] } },
{ "type": "Feature", "properties": { "id": "lidar-tree:284736:4160558", "name": null, "kind": "tree", "species": null, "source": "lidar2025", "tree_height": 7.0, "crown_radius": 5.1, "height_source": "lidar2025" }, "geometry": { "type": "Point", "coordinates": [ 284735.5, 4160558.5 ] } },
{ "type": "Feature", "properties": { "id": "lidar-tree:284688:4160560", "name": null, "kind": "tree", "species": null, "source": "lidar2025", "tree_height": 5.2, "crown_radius": 2.8, "height_source": "lidar2025" }, "geometry": { "type": "Point", "coordinates": [ 284687.5, 4160559.5 ] } },
{ "type": "Feature", "properties": { "id": "lidar-tree:284748:4160570", "name": null, "kind": "tree", "species": null, "source": "lidar2025", "tree_height": 5.5, "crown_radius": 2.5, "height_source": "lidar2025" }, "geometry": { "type": "Point", "coordinates": [ 284747.5, 4160569.5 ] } },
{ "type": "Feature", "properties": { "id": "lidar-tree:284722:4160576", "name": null, "kind": "tree", "species": null, "source": "lidar2025", "tree_height": 5.1, "crown_radius": 4.9, "height_source": "lidar2025" }, "geometry": { "type": "Point", "coordinates": [ 284721.5, 4160575.5 ] } },
{ "type": "Feature", "properties": { "id": "lidar-tree:284560:4160556", "name": null, "kind": "tree", "species": null, "source": "lidar2025", "tree_height": 14.0, "crown_radius": 5.0, "height_source": "lidar2025" }, "geometry": { "type": "Point", "coordinates": [ 284559.5, 4160555.5 ] } },
{ "type": "Feature", "properties": { "id": "rva-tree:74467", "name": "Cornus spp.", "kind": "tree", "species": "Cornus spp.", "source": "city_inventory", "tree_height": 8.0, "crown_radius": 2.5, "height_source": "estimated" }, "geometry": { "type": "Point", "coordinates": [ 284540.15, 4160558.07 ] } },
{ "type": "Feature", "properties": { "id": "rva-tree:79894", "name": "Ligustrum japonicum", "kind": "tree", "species": "Ligustrum japonicum", "source": "city_inventory", "tree_height": 8.0, "crown_radius": 2.5, "height_source": "estimated" }, "geometry": { "type": "Point", "coordinates": [ 284538.42, 4160561.55 ] } },
{ "type": "Feature", "properties": { "id": "rva-tree:74249", "name": "Cornus spp.", "kind": "tree", "species": "Cornus spp.", "source": "city_inventory", "tree_height": 7.3, "crown_radius": 3.0, "height_source": "lidar2025" }, "geometry": { "type": "Point", "coordinates": [ 284533.13, 4160571.6 ] } },
{ "type": "Feature", "properties": { "id": "rva-tree:90590", "name": "Quercus palustris", "kind": "tree", "species": "Quercus palustris", "source": "city_inventory", "tree_height": 8.0, "crown_radius": 2.5, "height_source": "estimated" }, "geometry": { "type": "Point", "coordinates": [ 284552.43, 4160573.64 ] } },
{ "type": "Feature", "properties": { "id": "rva-tree:74160", "name": "Cornus spp.", "kind": "tree", "species": "Cornus spp.", "source": "city_inventory", "tree_height": 8.0, "crown_radius": 2.5, "height_source": "estimated" }, "geometry": { "type": "Point", "coordinates": [ 284530.46, 4160577.21 ] } },
{ "type": "Feature", "properties": { "id": "rva-tree:95746", "name": "Lagerstroemia indica", "kind": "tree", "species": "Lagerstroemia indica", "source": "city_inventory", "tree_height": 8.0, "crown_radius": 2.5, "height_source": "estimated" }, "geometry": { "type": "Point", "coordinates": [ 284557.1, 4160580.44 ] } },
{ "type": "Feature", "properties": { "id": "rva-tree:74152", "name": "Cornus spp.", "kind": "tree", "species": "Cornus spp.", "source": "city_inventory", "tree_height": 8.0, "crown_radius": 2.5, "height_source": "estimated" }, "geometry": { "type": "Point", "coordinates": [ 284527.62, 4160584.14 ] } },
{ "type": "Feature", "properties": { "id": "rva-tree:90591", "name": "Quercus palustris", "kind": "tree", "species": "Quercus palustris", "source": "city_inventory", "tree_height": 23.2, "crown_radius": 6.0, "height_source": "lidar2025" }, "geometry": { "type": "Point", "coordinates": [ 284560.97, 4160584.71 ] } },
{ "type": "Feature", "properties": { "id": "rva-tree:92811", "name": "Acer saccharum", "kind": "tree", "species": "Acer saccharum", "source": "city_inventory", "tree_height": 23.2, "crown_radius": 6.0, "height_source": "lidar2025" }, "geometry": { "type": "Point", "coordinates": [ 284564.12, 4160588.08 ] } },
{ "type": "Feature", "properties": { "id": "rva-tree:86694", "name": "Zelkova serrata", "kind": "tree", "species": "Zelkova serrata", "source": "city_inventory", "tree_height": 16.8, "crown_radius": 6.0, "height_source": "lidar2025" }, "geometry": { "type": "Point", "coordinates": [ 284665.93, 4160563.05 ] } },
{ "type": "Feature", "properties": { "id": "lidar-tree:284678:4160566", "name": null, "kind": "tree", "species": null, "source": "lidar2025", "tree_height": 6.3, "crown_radius": 3.9, "height_source": "lidar2025" }, "geometry": { "type": "Point", "coordinates": [ 284678.5, 4160566.5 ] } },
{ "type": "Feature", "properties": { "id": "lidar-tree:284626:4160570", "name": null, "kind": "tree", "species": null, "source": "lidar2025", "tree_height": 4.3, "crown_radius": 1.5, "height_source": "lidar2025" }, "geometry": { "type": "Point", "coordinates": [ 284625.5, 4160570.5 ] } },
{ "type": "Feature", "properties": { "id": "rva-tree:87728", "name": "Zelkova serrata", "kind": "tree", "species": "Zelkova serrata", "source": "city_inventory", "tree_height": 14.8, "crown_radius": 6.0, "height_source": "lidar2025" }, "geometry": { "type": "Point", "coordinates": [ 284662.31, 4160572.1 ] } },
{ "type": "Feature", "properties": { "id": "rva-tree:88600", "name": "Zelkova serrata", "kind": "tree", "species": "Zelkova serrata", "source": "city_inventory", "tree_height": 13.9, "crown_radius": 6.0, "height_source": "lidar2025" }, "geometry": { "type": "Point", "coordinates": [ 284673.74, 4160574.17 ] } },
{ "type": "Feature", "properties": { "id": "rva-tree:87708", "name": "Zelkova serrata", "kind": "tree", "species": "Zelkova serrata", "source": "city_inventory", "tree_height": 13.9, "crown_radius": 6.0, "height_source": "lidar2025" }, "geometry": { "type": "Point", "coordinates": [ 284668.04, 4160581.91 ] } },
{ "type": "Feature", "properties": { "id": "rva-tree:89473", "name": "Lagerstroemia indica", "kind": "tree", "species": "Lagerstroemia indica", "source": "city_inventory", "tree_height": 13.9, "crown_radius": 6.0, "height_source": "lidar2025" }, "geometry": { "type": "Point", "coordinates": [ 284669.91, 4160583.98 ] } },
{ "type": "Feature", "properties": { "id": "rva-tree:86861", "name": "Zelkova serrata", "kind": "tree", "species": "Zelkova serrata", "source": "city_inventory", "tree_height": 15.1, "crown_radius": 6.0, "height_source": "lidar2025" }, "geometry": { "type": "Point", "coordinates": [ 284682.56, 4160585.24 ] } },
{ "type": "Feature", "properties": { "id": "rva-tree:87727", "name": "Zelkova serrata", "kind": "tree", "species": "Zelkova serrata", "source": "city_inventory", "tree_height": 15.1, "crown_radius": 6.0, "height_source": "lidar2025" }, "geometry": { "type": "Point", "coordinates": [ 284674.8, 4160590.42 ] } },
{ "type": "Feature", "properties": { "id": "lidar-tree:284636:4160598", "name": null, "kind": "tree", "species": null, "source": "lidar2025", "tree_height": 22.1, "crown_radius": 6.0, "height_source": "lidar2025" }, "geometry": { "type": "Point", "coordinates": [ 284635.5, 4160597.5 ] } },
{ "type": "Feature", "properties": { "id": "lidar-tree:284714:4160580", "name": null, "kind": "tree", "species": null, "source": "lidar2025", "tree_height": 6.9, "crown_radius": 5.5, "height_source": "lidar2025" }, "geometry": { "type": "Point", "coordinates": [ 284713.5, 4160580.5 ] } },
{ "type": "Feature", "properties": { "id": "lidar-tree:284730:4160582", "name": null, "kind": "tree", "species": null, "source": "lidar2025", "tree_height": 6.9, "crown_radius": 4.7, "height_source": "lidar2025" }, "geometry": { "type": "Point", "coordinates": [ 284729.5, 4160582.5 ] } },
{ "type": "Feature", "properties": { "id": "rva-tree:86862", "name": "Zelkova serrata", "kind": "tree", "species": "Zelkova serrata", "source": "city_inventory", "tree_height": 13.9, "crown_radius": 6.0, "height_source": "lidar2025" }, "geometry": { "type": "Point", "coordinates": [ 284690.79, 4160596.74 ] } },
{ "type": "Feature", "properties": { "id": "lidar-tree:284736:4160602", "name": null, "kind": "tree", "species": null, "source": "lidar2025", "tree_height": 17.6, "crown_radius": 6.0, "height_source": "lidar2025" }, "geometry": { "type": "Point", "coordinates": [ 284735.5, 4160601.5 ] } },
{ "type": "Feature", "properties": { "id": "rva-tree:88085", "name": "Cladrastis kentukea", "kind": "tree", "species": "Cladrastis kentukea", "source": "city_inventory", "tree_height": 8.0, "crown_radius": 2.5, "height_source": "estimated" }, "geometry": { "type": "Point", "coordinates": [ 284697.33, 4160605.7 ] } },
{ "type": "Feature", "properties": { "id": "rva-tree:87721", "name": "Zelkova serrata", "kind": "tree", "species": "Zelkova serrata", "source": "city_inventory", "tree_height": 11.7, "crown_radius": 6.0, "height_source": "lidar2025" }, "geometry": { "type": "Point", "coordinates": [ 284688.35, 4160608.52 ] } },
{ "type": "Feature", "properties": { "id": "rva-tree:89107", "name": "Cornus kousa", "kind": "tree", "species": "Cornus kousa", "source": "city_inventory", "tree_height": 8.0, "crown_radius": 2.5, "height_source": "estimated" }, "geometry": { "type": "Point", "coordinates": [ 284741.34, 4160610.87 ] } },
{ "type": "Feature", "properties": { "id": "rva-tree:89105", "name": "Cornus kousa", "kind": "tree", "species": "Cornus kousa", "source": "city_inventory", "tree_height": 8.0, "crown_radius": 2.5, "height_source": "estimated" }, "geometry": { "type": "Point", "coordinates": [ 284732.64, 4160613.79 ] } },
{ "type": "Feature", "properties": { "id": "rva-tree:89103", "name": "Cladrastis kentukea", "kind": "tree", "species": "Cladrastis kentukea", "source": "city_inventory", "tree_height": 8.0, "crown_radius": 2.5, "height_source": "estimated" }, "geometry": { "type": "Point", "coordinates": [ 284725.1, 4160615.47 ] } },
{ "type": "Feature", "properties": { "id": "rva-tree:83173", "name": "Liquidambar styraciflua", "kind": "tree", "species": "Liquidambar styraciflua", "source": "city_inventory", "tree_height": 24.5, "crown_radius": 6.0, "height_source": "lidar2025" }, "geometry": { "type": "Point", "coordinates": [ 284502.86, 4160557.49 ] } },
{ "type": "Feature", "properties": { "id": "rva-tree:83792", "name": "Quercus phellos", "kind": "tree", "species": "Quercus phellos", "source": "city_inventory", "tree_height": 24.5, "crown_radius": 6.0, "height_source": "lidar2025" }, "geometry": { "type": "Point", "coordinates": [ 284501.2, 4160562.08 ] } },
{ "type": "Feature", "properties": { "id": "rva-tree:83272", "name": "Quercus palustris", "kind": "tree", "species": "Quercus palustris", "source": "city_inventory", "tree_height": 24.5, "crown_radius": 6.0, "height_source": "lidar2025" }, "geometry": { "type": "Point", "coordinates": [ 284500.44, 4160565.18 ] } },
{ "type": "Feature", "properties": { "id": "osm:node/13645259304", "name": null, "kind": "monument", "species": null, "source": null, "tree_height": null, "crown_radius": null, "height_source": null }, "geometry": { "type": "Point", "coordinates": [ 284511.23, 4160572.86 ] } },
{ "type": "Feature", "properties": { "id": "rva-tree:74120", "name": "Cornus spp.", "kind": "tree", "species": "Cornus spp.", "source": "city_inventory", "tree_height": 8.0, "crown_radius": 2.5, "height_source": "estimated" }, "geometry": { "type": "Point", "coordinates": [ 284516.78, 4160607.15 ] } },
{ "type": "Feature", "properties": { "id": "rva-tree:74119", "name": "Cornus spp.", "kind": "tree", "species": "Cornus spp.", "source": "city_inventory", "tree_height": 8.0, "crown_radius": 2.5, "height_source": "estimated" }, "geometry": { "type": "Point", "coordinates": [ 284514.11, 4160612.61 ] } },
{ "type": "Feature", "properties": { "id": "rva-tree:1115", "name": "Cornus spp.", "kind": "tree", "species": "Cornus spp.", "source": "city_inventory", "tree_height": 8.0, "crown_radius": 2.5, "height_source": "estimated" }, "geometry": { "type": "Point", "coordinates": [ 284511.72, 4160617.27 ] } },
{ "type": "Feature", "properties": { "id": "rva-tree:888", "name": "Cornus spp.", "kind": "tree", "species": "Cornus spp.", "source": "city_inventory", "tree_height": 8.0, "crown_radius": 2.5, "height_source": "estimated" }, "geometry": { "type": "Point", "coordinates": [ 284507.31, 4160626.08 ] } },
{ "type": "Feature", "properties": { "id": "rva-tree:80214", "name": "Platanus occidentalis", "kind": "tree", "species": "Platanus occidentalis", "source": "city_inventory", "tree_height": 8.0, "crown_radius": 2.5, "height_source": "estimated" }, "geometry": { "type": "Point", "coordinates": [ 284503.71, 4160631.41 ] } },
{ "type": "Feature", "properties": { "id": "rva-tree:874", "name": "Cornus spp.", "kind": "tree", "species": "Cornus spp.", "source": "city_inventory", "tree_height": 8.0, "crown_radius": 2.5, "height_source": "estimated" }, "geometry": { "type": "Point", "coordinates": [ 284503.63, 4160633.43 ] } },
{ "type": "Feature", "properties": { "id": "rva-tree:670", "name": "Cornus spp.", "kind": "tree", "species": "Cornus spp.", "source": "city_inventory", "tree_height": 8.0, "crown_radius": 2.5, "height_source": "estimated" }, "geometry": { "type": "Point", "coordinates": [ 284501.73, 4160637.83 ] } },
{ "type": "Feature", "properties": { "id": "lidar-tree:284512:4160660", "name": null, "kind": "tree", "species": null, "source": "lidar2025", "tree_height": 11.4, "crown_radius": 5.0, "height_source": "lidar2025" }, "geometry": { "type": "Point", "coordinates": [ 284511.5, 4160660.5 ] } },
{ "type": "Feature", "properties": { "id": "rva-tree:93230", "name": "Quercus palustris", "kind": "tree", "species": "Quercus palustris", "source": "city_inventory", "tree_height": 8.0, "crown_radius": 2.5, "height_source": "estimated" }, "geometry": { "type": "Point", "coordinates": [ 284508.86, 4160677.32 ] } },
{ "type": "Feature", "properties": { "id": "rva-tree:74128", "name": "Cornus spp.", "kind": "tree", "species": "Cornus spp.", "source": "city_inventory", "tree_height": 8.0, "crown_radius": 2.5, "height_source": "estimated" }, "geometry": { "type": "Point", "coordinates": [ 284525.08, 4160589.96 ] } },
{ "type": "Feature", "properties": { "id": "lidar-tree:284596:4160592", "name": null, "kind": "tree", "species": null, "source": "lidar2025", "tree_height": 5.9, "crown_radius": 2.2, "height_source": "lidar2025" }, "geometry": { "type": "Point", "coordinates": [ 284595.5, 4160591.5 ] } },
{ "type": "Feature", "properties": { "id": "rva-tree:91813", "name": "Juniperus spp.", "kind": "tree", "species": "Juniperus spp.", "source": "city_inventory", "tree_height": 8.0, "crown_radius": 2.5, "height_source": "estimated" }, "geometry": { "type": "Point", "coordinates": [ 284567.8, 4160593.06 ] } },
{ "type": "Feature", "properties": { "id": "rva-tree:74127", "name": "Cornus spp.", "kind": "tree", "species": "Cornus spp.", "source": "city_inventory", "tree_height": 8.0, "crown_radius": 2.5, "height_source": "estimated" }, "geometry": { "type": "Point", "coordinates": [ 284522.14, 4160596.12 ] } },
{ "type": "Feature", "properties": { "id": "rva-tree:97195", "name": "Quercus palustris", "kind": "tree", "species": "Quercus palustris", "source": "city_inventory", "tree_height": 8.0, "crown_radius": 2.5, "height_source": "estimated" }, "geometry": { "type": "Point", "coordinates": [ 284556.75, 4160596.26 ] } },
{ "type": "Feature", "properties": { "id": "rva-tree:74126", "name": "Cornus spp.", "kind": "tree", "species": "Cornus spp.", "source": "city_inventory", "tree_height": 8.0, "crown_radius": 2.5, "height_source": "estimated" }, "geometry": { "type": "Point", "coordinates": [ 284519.32, 4160601.89 ] } },
{ "type": "Feature", "properties": { "id": "rva-tree:93294", "name": "Thuja spp.", "kind": "tree", "species": "Thuja spp.", "source": "city_inventory", "tree_height": 8.0, "crown_radius": 2.5, "height_source": "estimated" }, "geometry": { "type": "Point", "coordinates": [ 284578.61, 4160608.7 ] } },
{ "type": "Feature", "properties": { "id": "rva-tree:93320", "name": "Thuja spp.", "kind": "tree", "species": "Thuja spp.", "source": "city_inventory", "tree_height": 8.0, "crown_radius": 2.5, "height_source": "estimated" }, "geometry": { "type": "Point", "coordinates": [ 284581.79, 4160613.0 ] } },
{ "type": "Feature", "properties": { "id": "lidar-tree:284528:4160626", "name": null, "kind": "tree", "species": null, "source": "lidar2025", "tree_height": 8.6, "crown_radius": 1.4, "height_source": "lidar2025" }, "geometry": { "type": "Point", "coordinates": [ 284528.5, 4160625.5 ] } },
{ "type": "Feature", "properties": { "id": "lidar-tree:284582:4160632", "name": null, "kind": "tree", "species": null, "source": "lidar2025", "tree_height": 6.8, "crown_radius": 3.5, "height_source": "lidar2025" }, "geometry": { "type": "Point", "coordinates": [ 284582.5, 4160631.5 ] } },
{ "type": "Feature", "properties": { "id": "lidar-tree:284606:4160600", "name": null, "kind": "tree", "species": null, "source": "lidar2025", "tree_height": 5.5, "crown_radius": 2.8, "height_source": "lidar2025" }, "geometry": { "type": "Point", "coordinates": [ 284606.5, 4160600.5 ] } },
{ "type": "Feature", "properties": { "id": "lidar-tree:284662:4160600", "name": null, "kind": "tree", "species": null, "source": "lidar2025", "tree_height": 5.2, "crown_radius": 3.5, "height_source": "lidar2025" }, "geometry": { "type": "Point", "coordinates": [ 284662.5, 4160600.5 ] } },
{ "type": "Feature", "properties": { "id": "rva-tree:91543", "name": "Zelkova serrata", "kind": "tree", "species": "Zelkova serrata", "source": "city_inventory", "tree_height": 8.0, "crown_radius": 2.5, "height_source": "estimated" }, "geometry": { "type": "Point", "coordinates": [ 284681.44, 4160600.55 ] } },
{ "type": "Feature", "properties": { "id": "lidar-tree:284632:4160606", "name": null, "kind": "tree", "species": null, "source": "lidar2025", "tree_height": 23.2, "crown_radius": 6.0, "height_source": "lidar2025" }, "geometry": { "type": "Point", "coordinates": [ 284632.5, 4160605.5 ] } },
{ "type": "Feature", "properties": { "id": "lidar-tree:284666:4160614", "name": null, "kind": "tree", "species": null, "source": "lidar2025", "tree_height": 6.1, "crown_radius": 2.8, "height_source": "lidar2025" }, "geometry": { "type": "Point", "coordinates": [ 284665.5, 4160614.5 ] } },
{ "type": "Feature", "properties": { "id": "lidar-tree:284678:4160622", "name": null, "kind": "tree", "species": null, "source": "lidar2025", "tree_height": 10.8, "crown_radius": 6.0, "height_source": "lidar2025" }, "geometry": { "type": "Point", "coordinates": [ 284678.5, 4160621.5 ] } },
{ "type": "Feature", "properties": { "id": "lidar-tree:284664:4160622", "name": null, "kind": "tree", "species": null, "source": "lidar2025", "tree_height": 7.8, "crown_radius": 3.3, "height_source": "lidar2025" }, "geometry": { "type": "Point", "coordinates": [ 284664.5, 4160622.5 ] } },
{ "type": "Feature", "properties": { "id": "lidar-tree:284652:4160638", "name": null, "kind": "tree", "species": null, "source": "lidar2025", "tree_height": 12.0, "crown_radius": 2.6, "height_source": "lidar2025" }, "geometry": { "type": "Point", "coordinates": [ 284651.5, 4160637.5 ] } },
{ "type": "Feature", "properties": { "id": "lidar-tree:284624:4160640", "name": null, "kind": "tree", "species": null, "source": "lidar2025", "tree_height": 15.2, "crown_radius": 4.3, "height_source": "lidar2025" }, "geometry": { "type": "Point", "coordinates": [ 284624.5, 4160640.5 ] } },
{ "type": "Feature", "properties": { "id": "lidar-tree:284676:4160640", "name": null, "kind": "tree", "species": null, "source": "lidar2025", "tree_height": 19.9, "crown_radius": 5.9, "height_source": "lidar2025" }, "geometry": { "type": "Point", "coordinates": [ 284675.5, 4160640.5 ] } },
{ "type": "Feature", "properties": { "id": "rva-tree:89102", "name": "Cladrastis kentukea", "kind": "tree", "species": "Cladrastis kentukea", "source": "city_inventory", "tree_height": 8.0, "crown_radius": 2.5, "height_source": "estimated" }, "geometry": { "type": "Point", "coordinates": [ 284715.98, 4160617.61 ] } },
{ "type": "Feature", "properties": { "id": "rva-tree:89386", "name": "Ginkgo biloba", "kind": "tree", "species": "Ginkgo biloba", "source": "city_inventory", "tree_height": 8.0, "crown_radius": 2.5, "height_source": "estimated" }, "geometry": { "type": "Point", "coordinates": [ 284720.69, 4160626.04 ] } },
{ "type": "Feature", "properties": { "id": "rva-tree:87694", "name": "Zelkova serrata", "kind": "tree", "species": "Zelkova serrata", "source": "city_inventory", "tree_height": 8.0, "crown_radius": 2.5, "height_source": "estimated" }, "geometry": { "type": "Point", "coordinates": [ 284698.24, 4160628.9 ] } },
{ "type": "Feature", "properties": { "id": "lidar-tree:284694:4160636", "name": null, "kind": "tree", "species": null, "source": "lidar2025", "tree_height": 15.8, "crown_radius": 6.0, "height_source": "lidar2025" }, "geometry": { "type": "Point", "coordinates": [ 284693.5, 4160635.5 ] } },
{ "type": "Feature", "properties": { "id": "rva-tree:87091", "name": "Zelkova serrata", "kind": "tree", "species": "Zelkova serrata", "source": "city_inventory", "tree_height": 14.1, "crown_radius": 5.9, "height_source": "lidar2025" }, "geometry": { "type": "Point", "coordinates": [ 284700.03, 4160657.82 ] } },
{ "type": "Feature", "properties": { "id": "rva-tree:88298", "name": "Ulmus alata", "kind": "tree", "species": "Ulmus alata", "source": "city_inventory", "tree_height": 8.0, "crown_radius": 2.5, "height_source": "estimated" }, "geometry": { "type": "Point", "coordinates": [ 284710.97, 4160660.42 ] } },
{ "type": "Feature", "properties": { "id": "lidar-tree:284656:4160644", "name": null, "kind": "tree", "species": null, "source": "lidar2025", "tree_height": 20.4, "crown_radius": 5.2, "height_source": "lidar2025" }, "geometry": { "type": "Point", "coordinates": [ 284655.5, 4160643.5 ] } },
{ "type": "Feature", "properties": { "id": "lidar-tree:284640:4160650", "name": null, "kind": "tree", "species": null, "source": "lidar2025", "tree_height": 12.9, "crown_radius": 6.0, "height_source": "lidar2025" }, "geometry": { "type": "Point", "coordinates": [ 284640.5, 4160650.5 ] } },
{ "type": "Feature", "properties": { "id": "lidar-tree:284612:4160652", "name": null, "kind": "tree", "species": null, "source": "lidar2025", "tree_height": 4.3, "crown_radius": 1.9, "height_source": "lidar2025" }, "geometry": { "type": "Point", "coordinates": [ 284611.5, 4160651.5 ] } },
{ "type": "Feature", "properties": { "id": "lidar-tree:284632:4160652", "name": null, "kind": "tree", "species": null, "source": "lidar2025", "tree_height": 10.9, "crown_radius": 4.9, "height_source": "lidar2025" }, "geometry": { "type": "Point", "coordinates": [ 284632.5, 4160651.5 ] } },
{ "type": "Feature", "properties": { "id": "lidar-tree:284648:4160654", "name": null, "kind": "tree", "species": null, "source": "lidar2025", "tree_height": 16.2, "crown_radius": 6.0, "height_source": "lidar2025" }, "geometry": { "type": "Point", "coordinates": [ 284648.5, 4160653.5 ] } },
{ "type": "Feature", "properties": { "id": "lidar-tree:284658:4160654", "name": null, "kind": "tree", "species": null, "source": "lidar2025", "tree_height": 16.4, "crown_radius": 5.7, "height_source": "lidar2025" }, "geometry": { "type": "Point", "coordinates": [ 284657.5, 4160654.5 ] } },
{ "type": "Feature", "properties": { "id": "rva-tree:96244", "name": "Thuja spp.", "kind": "tree", "species": "Thuja spp.", "source": "city_inventory", "tree_height": 4.3, "crown_radius": 1.9, "height_source": "lidar2025" }, "geometry": { "type": "Point", "coordinates": [ 284607.61, 4160657.14 ] } },
{ "type": "Feature", "properties": { "id": "lidar-tree:284642:4160660", "name": null, "kind": "tree", "species": null, "source": "lidar2025", "tree_height": 14.3, "crown_radius": 6.0, "height_source": "lidar2025" }, "geometry": { "type": "Point", "coordinates": [ 284642.5, 4160660.5 ] } },
{ "type": "Feature", "properties": { "id": "lidar-tree:284624:4160662", "name": null, "kind": "tree", "species": null, "source": "lidar2025", "tree_height": 8.5, "crown_radius": 3.2, "height_source": "lidar2025" }, "geometry": { "type": "Point", "coordinates": [ 284624.5, 4160662.5 ] } },
{ "type": "Feature", "properties": { "id": "lidar-tree:284634:4160662", "name": null, "kind": "tree", "species": null, "source": "lidar2025", "tree_height": 15.5, "crown_radius": 4.5, "height_source": "lidar2025" }, "geometry": { "type": "Point", "coordinates": [ 284634.5, 4160662.5 ] } },
{ "type": "Feature", "properties": { "id": "lidar-tree:284578:4160638", "name": null, "kind": "tree", "species": null, "source": "lidar2025", "tree_height": 5.8, "crown_radius": 4.3, "height_source": "lidar2025" }, "geometry": { "type": "Point", "coordinates": [ 284577.5, 4160637.5 ] } },
{ "type": "Feature", "properties": { "id": "lidar-tree:284538:4160638", "name": null, "kind": "tree", "species": null, "source": "lidar2025", "tree_height": 12.7, "crown_radius": 5.1, "height_source": "lidar2025" }, "geometry": { "type": "Point", "coordinates": [ 284538.5, 4160637.5 ] } },
{ "type": "Feature", "properties": { "id": "lidar-tree:284598:4160638", "name": null, "kind": "tree", "species": null, "source": "lidar2025", "tree_height": 6.9, "crown_radius": 1.4, "height_source": "lidar2025" }, "geometry": { "type": "Point", "coordinates": [ 284598.5, 4160638.5 ] } },
{ "type": "Feature", "properties": { "id": "rva-tree:93663", "name": "Quercus palustris", "kind": "tree", "species": "Quercus palustris", "source": "city_inventory", "tree_height": 8.0, "crown_radius": 2.5, "height_source": "estimated" }, "geometry": { "type": "Point", "coordinates": [ 284591.98, 4160643.3 ] } },
{ "type": "Feature", "properties": { "id": "lidar-tree:284558:4160652", "name": null, "kind": "tree", "species": null, "source": "lidar2025", "tree_height": 4.8, "crown_radius": 4.0, "height_source": "lidar2025" }, "geometry": { "type": "Point", "coordinates": [ 284557.5, 4160651.5 ] } },
{ "type": "Feature", "properties": { "id": "lidar-tree:284552:4160660", "name": null, "kind": "tree", "species": null, "source": "lidar2025", "tree_height": 7.9, "crown_radius": 3.7, "height_source": "lidar2025" }, "geometry": { "type": "Point", "coordinates": [ 284552.5, 4160659.5 ] } },
{ "type": "Feature", "properties": { "id": "lidar-tree:284546:4160662", "name": null, "kind": "tree", "species": null, "source": "lidar2025", "tree_height": 10.8, "crown_radius": 3.3, "height_source": "lidar2025" }, "geometry": { "type": "Point", "coordinates": [ 284545.5, 4160662.5 ] } },
{ "type": "Feature", "properties": { "id": "lidar-tree:284546:4160672", "name": null, "kind": "tree", "species": null, "source": "lidar2025", "tree_height": 12.3, "crown_radius": 1.7, "height_source": "lidar2025" }, "geometry": { "type": "Point", "coordinates": [ 284545.5, 4160671.5 ] } },
{ "type": "Feature", "properties": { "id": "lidar-tree:284556:4160678", "name": null, "kind": "tree", "species": null, "source": "lidar2025", "tree_height": 7.2, "crown_radius": 1.4, "height_source": "lidar2025" }, "geometry": { "type": "Point", "coordinates": [ 284555.5, 4160677.5 ] } },
{ "type": "Feature", "properties": { "id": "lidar-tree:284598:4160678", "name": null, "kind": "tree", "species": null, "source": "lidar2025", "tree_height": 14.7, "crown_radius": 2.4, "height_source": "lidar2025" }, "geometry": { "type": "Point", "coordinates": [ 284597.5, 4160677.5 ] } },
{ "type": "Feature", "properties": { "id": "lidar-tree:284720:4160676", "name": null, "kind": "tree", "species": null, "source": "lidar2025", "tree_height": 10.2, "crown_radius": 1.5, "height_source": "lidar2025" }, "geometry": { "type": "Point", "coordinates": [ 284720.5, 4160676.5 ] } },
{ "type": "Feature", "properties": { "id": "rva-tree:88086", "name": "Zelkova serrata", "kind": "tree", "species": "Zelkova serrata", "source": "city_inventory", "tree_height": 8.0, "crown_radius": 2.5, "height_source": "estimated" }, "geometry": { "type": "Point", "coordinates": [ 284712.4, 4160677.37 ] } },
{ "type": "Feature", "properties": { "id": "rva-tree:91136", "name": "Cladrastis kentukea", "kind": "tree", "species": "Cladrastis kentukea", "source": "city_inventory", "tree_height": 9.6, "crown_radius": 2.0, "height_source": "lidar2025" }, "geometry": { "type": "Point", "coordinates": [ 284701.92, 4160679.75 ] } },
{ "type": "Feature", "properties": { "id": "rva-tree:86874", "name": "Zelkova serrata", "kind": "tree", "species": "Zelkova serrata", "source": "city_inventory", "tree_height": 14.8, "crown_radius": 2.3, "height_source": "lidar2025" }, "geometry": { "type": "Point", "coordinates": [ 284712.56, 4160687.17 ] } },
{ "type": "Feature", "properties": { "id": "rva-tree:96287", "name": "Thuja spp.", "kind": "tree", "species": "Thuja spp.", "source": "city_inventory", "tree_height": 21.0, "crown_radius": 2.2, "height_source": "lidar2025" }, "geometry": { "type": "Point", "coordinates": [ 284608.3, 4160663.16 ] } },
{ "type": "Feature", "properties": { "id": "lidar-tree:284614:4160668", "name": null, "kind": "tree", "species": null, "source": "lidar2025", "tree_height": 21.0, "crown_radius": 2.2, "height_source": "lidar2025" }, "geometry": { "type": "Point", "coordinates": [ 284613.5, 4160667.5 ] } },
{ "type": "Feature", "properties": { "id": "lidar-tree:284600:4160672", "name": null, "kind": "tree", "species": null, "source": "lidar2025", "tree_height": 17.2, "crown_radius": 2.0, "height_source": "lidar2025" }, "geometry": { "type": "Point", "coordinates": [ 284599.5, 4160671.5 ] } },
{ "type": "Feature", "properties": { "id": "lidar-tree:284604:4160672", "name": null, "kind": "tree", "species": null, "source": "lidar2025", "tree_height": 22.2, "crown_radius": 2.8, "height_source": "lidar2025" }, "geometry": { "type": "Point", "coordinates": [ 284603.5, 4160672.5 ] } },
{ "type": "Feature", "properties": { "id": "lidar-tree:284614:4160672", "name": null, "kind": "tree", "species": null, "source": "lidar2025", "tree_height": 21.7, "crown_radius": 2.6, "height_source": "lidar2025" }, "geometry": { "type": "Point", "coordinates": [ 284614.5, 4160672.5 ] } },
{ "type": "Feature", "properties": { "id": "rva-tree:90628", "name": "Quercus rubra", "kind": "tree", "species": "Quercus rubra", "source": "city_inventory", "tree_height": 23.5, "crown_radius": 2.2, "height_source": "lidar2025" }, "geometry": { "type": "Point", "coordinates": [ 284609.07, 4160677.54 ] } },
{ "type": "Feature", "properties": { "id": "lidar-tree:284618:4160682", "name": null, "kind": "tree", "species": null, "source": "lidar2025", "tree_height": 15.5, "crown_radius": 1.8, "height_source": "lidar2025" }, "geometry": { "type": "Point", "coordinates": [ 284618.5, 4160682.5 ] } },
{ "type": "Feature", "properties": { "id": "lidar-tree:284668:4160686", "name": null, "kind": "tree", "species": null, "source": "lidar2025", "tree_height": 12.9, "crown_radius": 2.0, "height_source": "lidar2025" }, "geometry": { "type": "Point", "coordinates": [ 284667.5, 4160685.5 ] } },
{ "type": "Feature", "properties": { "id": "rva-tree:95395", "name": "Quercus palustris", "kind": "tree", "species": "Quercus palustris", "source": "city_inventory", "tree_height": 20.7, "crown_radius": 2.4, "height_source": "lidar2025" }, "geometry": { "type": "Point", "coordinates": [ 284600.1, 4160686.48 ] } },
{ "type": "Feature", "properties": { "id": "lidar-tree:284670:4160690", "name": null, "kind": "tree", "species": null, "source": "lidar2025", "tree_height": 15.8, "crown_radius": 2.5, "height_source": "lidar2025" }, "geometry": { "type": "Point", "coordinates": [ 284670.5, 4160689.5 ] } },
{ "type": "Feature", "properties": { "id": "lidar-tree:284718:4160690", "name": null, "kind": "tree", "species": null, "source": "lidar2025", "tree_height": 12.5, "crown_radius": 1.7, "height_source": "lidar2025" }, "geometry": { "type": "Point", "coordinates": [ 284718.5, 4160689.5 ] } },
{ "type": "Feature", "properties": { "id": "rva-tree:90378", "name": "Cladrastis kentukea", "kind": "tree", "species": "Cladrastis kentukea", "source": "city_inventory", "tree_height": 8.0, "crown_radius": 2.5, "height_source": "estimated" }, "geometry": { "type": "Point", "coordinates": [ 284703.87, 4160698.46 ] } },
{ "type": "Feature", "properties": { "id": "lidar-tree:284714:4160702", "name": null, "kind": "tree", "species": null, "source": "lidar2025", "tree_height": 10.4, "crown_radius": 2.0, "height_source": "lidar2025" }, "geometry": { "type": "Point", "coordinates": [ 284714.5, 4160701.5 ] } },
{ "type": "Feature", "properties": { "id": "lidar-tree:284614:4160690", "name": null, "kind": "tree", "species": null, "source": "lidar2025", "tree_height": 13.9, "crown_radius": 2.0, "height_source": "lidar2025" }, "geometry": { "type": "Point", "coordinates": [ 284613.5, 4160690.5 ] } },
{ "type": "Feature", "properties": { "id": "lidar-tree:284670:4160694", "name": null, "kind": "tree", "species": null, "source": "lidar2025", "tree_height": 20.8, "crown_radius": 2.7, "height_source": "lidar2025" }, "geometry": { "type": "Point", "coordinates": [ 284670.5, 4160694.5 ] } },
{ "type": "Feature", "properties": { "id": "lidar-tree:284620:4160694", "name": null, "kind": "tree", "species": null, "source": "lidar2025", "tree_height": 15.2, "crown_radius": 2.0, "height_source": "lidar2025" }, "geometry": { "type": "Point", "coordinates": [ 284619.5, 4160694.5 ] } },
{ "type": "Feature", "properties": { "id": "rva-tree:93654", "name": "Acer saccharinum", "kind": "tree", "species": "Acer saccharinum", "source": "city_inventory", "tree_height": 19.0, "crown_radius": 2.5, "height_source": "lidar2025" }, "geometry": { "type": "Point", "coordinates": [ 284601.01, 4160698.3 ] } },
{ "type": "Feature", "properties": { "id": "rva-tree:92942", "name": "Quercus falcata", "kind": "tree", "species": "Quercus falcata", "source": "city_inventory", "tree_height": 20.4, "crown_radius": 2.4, "height_source": "lidar2025" }, "geometry": { "type": "Point", "coordinates": [ 284611.51, 4160699.54 ] } },
{ "type": "Feature", "properties": { "id": "lidar-tree:284620:4160700", "name": null, "kind": "tree", "species": null, "source": "lidar2025", "tree_height": 14.9, "crown_radius": 2.3, "height_source": "lidar2025" }, "geometry": { "type": "Point", "coordinates": [ 284619.5, 4160700.5 ] } },
{ "type": "Feature", "properties": { "id": "lidar-tree:284620:4160706", "name": null, "kind": "tree", "species": null, "source": "lidar2025", "tree_height": 14.3, "crown_radius": 2.1, "height_source": "lidar2025" }, "geometry": { "type": "Point", "coordinates": [ 284619.5, 4160705.5 ] } },
{ "type": "Feature", "properties": { "id": "lidar-tree:284616:4160706", "name": null, "kind": "tree", "species": null, "source": "lidar2025", "tree_height": 20.1, "crown_radius": 2.2, "height_source": "lidar2025" }, "geometry": { "type": "Point", "coordinates": [ 284615.5, 4160705.5 ] } },
{ "type": "Feature", "properties": { "id": "lidar-tree:284604:4160706", "name": null, "kind": "tree", "species": null, "source": "lidar2025", "tree_height": 17.4, "crown_radius": 2.3, "height_source": "lidar2025" }, "geometry": { "type": "Point", "coordinates": [ 284604.5, 4160705.5 ] } },
{ "type": "Feature", "properties": { "id": "lidar-tree:284604:4160712", "name": null, "kind": "tree", "species": null, "source": "lidar2025", "tree_height": 15.5, "crown_radius": 2.3, "height_source": "lidar2025" }, "geometry": { "type": "Point", "coordinates": [ 284603.5, 4160711.5 ] } },
{ "type": "Feature", "properties": { "id": "rva-tree:93234", "name": "Quercus palustris", "kind": "tree", "species": "Quercus palustris", "source": "city_inventory", "tree_height": 8.0, "crown_radius": 2.5, "height_source": "estimated" }, "geometry": { "type": "Point", "coordinates": [ 284508.03, 4160692.69 ] } },
{ "type": "Feature", "properties": { "id": "lidar-tree:284508:4160716", "name": null, "kind": "tree", "species": null, "source": "lidar2025", "tree_height": 13.7, "crown_radius": 1.7, "height_source": "lidar2025" }, "geometry": { "type": "Point", "coordinates": [ 284508.5, 4160716.5 ] } },
{ "type": "Feature", "properties": { "id": "lidar-tree:284514:4160718", "name": null, "kind": "tree", "species": null, "source": "lidar2025", "tree_height": 12.6, "crown_radius": 2.0, "height_source": "lidar2025" }, "geometry": { "type": "Point", "coordinates": [ 284514.5, 4160717.5 ] } },
{ "type": "Feature", "properties": { "id": "lidar-tree:284510:4160722", "name": null, "kind": "tree", "species": null, "source": "lidar2025", "tree_height": 16.1, "crown_radius": 2.3, "height_source": "lidar2025" }, "geometry": { "type": "Point", "coordinates": [ 284509.5, 4160722.5 ] } },
{ "type": "Feature", "properties": { "id": "lidar-tree:284518:4160724", "name": null, "kind": "tree", "species": null, "source": "lidar2025", "tree_height": 13.4, "crown_radius": 1.8, "height_source": "lidar2025" }, "geometry": { "type": "Point", "coordinates": [ 284518.5, 4160724.5 ] } },
{ "type": "Feature", "properties": { "id": "lidar-tree:284514:4160728", "name": null, "kind": "tree", "species": null, "source": "lidar2025", "tree_height": 15.9, "crown_radius": 2.0, "height_source": "lidar2025" }, "geometry": { "type": "Point", "coordinates": [ 284513.5, 4160727.5 ] } },
{ "type": "Feature", "properties": { "id": "lidar-tree:284508:4160728", "name": null, "kind": "tree", "species": null, "source": "lidar2025", "tree_height": 16.6, "crown_radius": 2.2, "height_source": "lidar2025" }, "geometry": { "type": "Point", "coordinates": [ 284508.5, 4160727.5 ] } },
{ "type": "Feature", "properties": { "id": "lidar-tree:284514:4160734", "name": null, "kind": "tree", "species": null, "source": "lidar2025", "tree_height": 15.5, "crown_radius": 2.8, "height_source": "lidar2025" }, "geometry": { "type": "Point", "coordinates": [ 284513.5, 4160733.5 ] } },
{ "type": "Feature", "properties": { "id": "lidar-tree:284508:4160734", "name": null, "kind": "tree", "species": null, "source": "lidar2025", "tree_height": 19.0, "crown_radius": 2.4, "height_source": "lidar2025" }, "geometry": { "type": "Point", "coordinates": [ 284508.5, 4160734.5 ] } },
{ "type": "Feature", "properties": { "id": "lidar-tree:284510:4160738", "name": null, "kind": "tree", "species": null, "source": "lidar2025", "tree_height": 20.4, "crown_radius": 2.6, "height_source": "lidar2025" }, "geometry": { "type": "Point", "coordinates": [ 284509.5, 4160738.5 ] } },
{ "type": "Feature", "properties": { "id": "lidar-tree:284514:4160740", "name": null, "kind": "tree", "species": null, "source": "lidar2025", "tree_height": 19.5, "crown_radius": 2.8, "height_source": "lidar2025" }, "geometry": { "type": "Point", "coordinates": [ 284513.5, 4160739.5 ] } },
{ "type": "Feature", "properties": { "id": "lidar-tree:284508:4160744", "name": null, "kind": "tree", "species": null, "source": "lidar2025", "tree_height": 16.4, "crown_radius": 2.3, "height_source": "lidar2025" }, "geometry": { "type": "Point", "coordinates": [ 284508.5, 4160744.5 ] } },
{ "type": "Feature", "properties": { "id": "lidar-tree:284514:4160748", "name": null, "kind": "tree", "species": null, "source": "lidar2025", "tree_height": 13.1, "crown_radius": 1.8, "height_source": "lidar2025" }, "geometry": { "type": "Point", "coordinates": [ 284514.5, 4160748.5 ] } },
{ "type": "Feature", "properties": { "id": "lidar-tree:284718:4160704", "name": null, "kind": "tree", "species": null, "source": "lidar2025", "tree_height": 12.0, "crown_radius": 1.7, "height_source": "lidar2025" }, "geometry": { "type": "Point", "coordinates": [ 284718.5, 4160704.5 ] } },
{ "type": "Feature", "properties": { "id": "lidar-tree:284714:4160706", "name": null, "kind": "tree", "species": null, "source": "lidar2025", "tree_height": 13.8, "crown_radius": 2.2, "height_source": "lidar2025" }, "geometry": { "type": "Point", "coordinates": [ 284714.5, 4160705.5 ] } },
{ "type": "Feature", "properties": { "id": "lidar-tree:284710:4160706", "name": null, "kind": "tree", "species": null, "source": "lidar2025", "tree_height": 13.4, "crown_radius": 2.0, "height_source": "lidar2025" }, "geometry": { "type": "Point", "coordinates": [ 284709.5, 4160706.5 ] } },
{ "type": "Feature", "properties": { "id": "lidar-tree:284714:4160712", "name": null, "kind": "tree", "species": null, "source": "lidar2025", "tree_height": 13.5, "crown_radius": 2.5, "height_source": "lidar2025" }, "geometry": { "type": "Point", "coordinates": [ 284714.5, 4160711.5 ] } },
{ "type": "Feature", "properties": { "id": "lidar-tree:284710:4160712", "name": null, "kind": "tree", "species": null, "source": "lidar2025", "tree_height": 13.6, "crown_radius": 2.3, "height_source": "lidar2025" }, "geometry": { "type": "Point", "coordinates": [ 284710.5, 4160711.5 ] } },
{ "type": "Feature", "properties": { "id": "lidar-tree:284718:4160714", "name": null, "kind": "tree", "species": null, "source": "lidar2025", "tree_height": 12.7, "crown_radius": 1.9, "height_source": "lidar2025" }, "geometry": { "type": "Point", "coordinates": [ 284718.5, 4160714.5 ] } },
{ "type": "Feature", "properties": { "id": "lidar-tree:284714:4160716", "name": null, "kind": "tree", "species": null, "source": "lidar2025", "tree_height": 14.6, "crown_radius": 2.3, "height_source": "lidar2025" }, "geometry": { "type": "Point", "coordinates": [ 284714.5, 4160716.5 ] } },
{ "type": "Feature", "properties": { "id": "lidar-tree:284710:4160718", "name": null, "kind": "tree", "species": null, "source": "lidar2025", "tree_height": 13.8, "crown_radius": 2.3, "height_source": "lidar2025" }, "geometry": { "type": "Point", "coordinates": [ 284709.5, 4160717.5 ] } },
{ "type": "Feature", "properties": { "id": "lidar-tree:284704:4160718", "name": null, "kind": "tree", "species": null, "source": "lidar2025", "tree_height": 14.5, "crown_radius": 2.1, "height_source": "lidar2025" }, "geometry": { "type": "Point", "coordinates": [ 284704.5, 4160717.5 ] } },
{ "type": "Feature", "properties": { "id": "lidar-tree:284592:4160684", "name": null, "kind": "tree", "species": null, "source": "lidar2025", "tree_height": 14.7, "crown_radius": 2.1, "height_source": "lidar2025" }, "geometry": { "type": "Point", "coordinates": [ 284592.5, 4160683.5 ] } },
{ "type": "Feature", "properties": { "id": "lidar-tree:284592:4160688", "name": null, "kind": "tree", "species": null, "source": "lidar2025", "tree_height": 15.9, "crown_radius": 2.0, "height_source": "lidar2025" }, "geometry": { "type": "Point", "coordinates": [ 284592.5, 4160688.5 ] } },
{ "type": "Feature", "properties": { "id": "lidar-tree:284598:4160708", "name": null, "kind": "tree", "species": null, "source": "lidar2025", "tree_height": 15.2, "crown_radius": 1.8, "height_source": "lidar2025" }, "geometry": { "type": "Point", "coordinates": [ 284598.5, 4160707.5 ] } },
{ "type": "Feature", "properties": { "id": "lidar-tree:284598:4160712", "name": null, "kind": "tree", "species": null, "source": "lidar2025", "tree_height": 15.5, "crown_radius": 1.6, "height_source": "lidar2025" }, "geometry": { "type": "Point", "coordinates": [ 284598.5, 4160712.5 ] } },
{ "type": "Feature", "properties": { "id": "lidar-tree:284598:4160716", "name": null, "kind": "tree", "species": null, "source": "lidar2025", "tree_height": 13.5, "crown_radius": 1.9, "height_source": "lidar2025" }, "geometry": { "type": "Point", "coordinates": [ 284598.5, 4160716.5 ] } },
{ "type": "Feature", "properties": { "id": "lidar-tree:284598:4160722", "name": null, "kind": "tree", "species": null, "source": "lidar2025", "tree_height": 18.4, "crown_radius": 2.0, "height_source": "lidar2025" }, "geometry": { "type": "Point", "coordinates": [ 284597.5, 4160722.5 ] } },
{ "type": "Feature", "properties": { "id": "lidar-tree:284598:4160726", "name": null, "kind": "tree", "species": null, "source": "lidar2025", "tree_height": 18.0, "crown_radius": 2.0, "height_source": "lidar2025" }, "geometry": { "type": "Point", "coordinates": [ 284597.5, 4160726.5 ] } },
{ "type": "Feature", "properties": { "id": "lidar-tree:284520:4160734", "name": null, "kind": "tree", "species": null, "source": "lidar2025", "tree_height": 13.8, "crown_radius": 2.0, "height_source": "lidar2025" }, "geometry": { "type": "Point", "coordinates": [ 284519.5, 4160734.5 ] } },
{ "type": "Feature", "properties": { "id": "lidar-tree:284598:4160734", "name": null, "kind": "tree", "species": null, "source": "lidar2025", "tree_height": 13.9, "crown_radius": 1.8, "height_source": "lidar2025" }, "geometry": { "type": "Point", "coordinates": [ 284598.5, 4160734.5 ] } },
{ "type": "Feature", "properties": { "id": "lidar-tree:284560:4160738", "name": null, "kind": "tree", "species": null, "source": "lidar2025", "tree_height": 11.8, "crown_radius": 1.4, "height_source": "lidar2025" }, "geometry": { "type": "Point", "coordinates": [ 284559.5, 4160738.5 ] } },
{ "type": "Feature", "properties": { "id": "lidar-tree:284608:4160712", "name": null, "kind": "tree", "species": null, "source": "lidar2025", "tree_height": 15.7, "crown_radius": 1.7, "height_source": "lidar2025" }, "geometry": { "type": "Point", "coordinates": [ 284608.5, 4160712.5 ] } },
{ "type": "Feature", "properties": { "id": "lidar-tree:284608:4160716", "name": null, "kind": "tree", "species": null, "source": "lidar2025", "tree_height": 14.5, "crown_radius": 1.8, "height_source": "lidar2025" }, "geometry": { "type": "Point", "coordinates": [ 284608.5, 4160716.5 ] } },
{ "type": "Feature", "properties": { "id": "lidar-tree:284652:4160716", "name": null, "kind": "tree", "species": null, "source": "lidar2025", "tree_height": 11.4, "crown_radius": 2.0, "height_source": "lidar2025" }, "geometry": { "type": "Point", "coordinates": [ 284652.5, 4160716.5 ] } },
{ "type": "Feature", "properties": { "id": "lidar-tree:284604:4160718", "name": null, "kind": "tree", "species": null, "source": "lidar2025", "tree_height": 15.4, "crown_radius": 2.3, "height_source": "lidar2025" }, "geometry": { "type": "Point", "coordinates": [ 284603.5, 4160717.5 ] } },
{ "type": "Feature", "properties": { "id": "lidar-tree:284642:4160718", "name": null, "kind": "tree", "species": null, "source": "lidar2025", "tree_height": 10.5, "crown_radius": 1.9, "height_source": "lidar2025" }, "geometry": { "type": "Point", "coordinates": [ 284642.5, 4160717.5 ] } },
{ "type": "Feature", "properties": { "id": "lidar-tree:284648:4160718", "name": null, "kind": "tree", "species": null, "source": "lidar2025", "tree_height": 14.4, "crown_radius": 2.0, "height_source": "lidar2025" }, "geometry": { "type": "Point", "coordinates": [ 284648.5, 4160717.5 ] } },
{ "type": "Feature", "properties": { "id": "lidar-tree:284656:4160718", "name": null, "kind": "tree", "species": null, "source": "lidar2025", "tree_height": 10.7, "crown_radius": 1.6, "height_source": "lidar2025" }, "geometry": { "type": "Point", "coordinates": [ 284656.5, 4160718.5 ] } },
{ "type": "Feature", "properties": { "id": "lidar-tree:284648:4160722", "name": null, "kind": "tree", "species": null, "source": "lidar2025", "tree_height": 14.5, "crown_radius": 2.3, "height_source": "lidar2025" }, "geometry": { "type": "Point", "coordinates": [ 284647.5, 4160722.5 ] } },
{ "type": "Feature", "properties": { "id": "lidar-tree:284644:4160724", "name": null, "kind": "tree", "species": null, "source": "lidar2025", "tree_height": 14.0, "crown_radius": 1.7, "height_source": "lidar2025" }, "geometry": { "type": "Point", "coordinates": [ 284643.5, 4160723.5 ] } },
{ "type": "Feature", "properties": { "id": "lidar-tree:284608:4160724", "name": null, "kind": "tree", "species": null, "source": "lidar2025", "tree_height": 17.2, "crown_radius": 2.0, "height_source": "lidar2025" }, "geometry": { "type": "Point", "coordinates": [ 284607.5, 4160723.5 ] } },
{ "type": "Feature", "properties": { "id": "lidar-tree:284708:4160722", "name": null, "kind": "tree", "species": null, "source": "lidar2025", "tree_height": 14.5, "crown_radius": 2.2, "height_source": "lidar2025" }, "geometry": { "type": "Point", "coordinates": [ 284708.5, 4160722.5 ] } },
{ "type": "Feature", "properties": { "id": "lidar-tree:284746:4160722", "name": null, "kind": "tree", "species": null, "source": "lidar2025", "tree_height": 9.2, "crown_radius": 1.5, "height_source": "lidar2025" }, "geometry": { "type": "Point", "coordinates": [ 284746.5, 4160722.5 ] } },
{ "type": "Feature", "properties": { "id": "lidar-tree:284716:4160728", "name": null, "kind": "tree", "species": null, "source": "lidar2025", "tree_height": 15.6, "crown_radius": 2.0, "height_source": "lidar2025" }, "geometry": { "type": "Point", "coordinates": [ 284715.5, 4160728.5 ] } },
{ "type": "Feature", "properties": { "id": "lidar-tree:284720:4160730", "name": null, "kind": "tree", "species": null, "source": "lidar2025", "tree_height": 15.4, "crown_radius": 1.6, "height_source": "lidar2025" }, "geometry": { "type": "Point", "coordinates": [ 284720.5, 4160729.5 ] } },
{ "type": "Feature", "properties": { "id": "lidar-tree:284710:4160730", "name": null, "kind": "tree", "species": null, "source": "lidar2025", "tree_height": 14.2, "crown_radius": 1.9, "height_source": "lidar2025" }, "geometry": { "type": "Point", "coordinates": [ 284710.5, 4160729.5 ] } },
{ "type": "Feature", "properties": { "id": "lidar-tree:284724:4160734", "name": null, "kind": "tree", "species": null, "source": "lidar2025", "tree_height": 13.9, "crown_radius": 1.7, "height_source": "lidar2025" }, "geometry": { "type": "Point", "coordinates": [ 284724.5, 4160733.5 ] } },
{ "type": "Feature", "properties": { "id": "lidar-tree:284720:4160734", "name": null, "kind": "tree", "species": null, "source": "lidar2025", "tree_height": 14.8, "crown_radius": 2.3, "height_source": "lidar2025" }, "geometry": { "type": "Point", "coordinates": [ 284720.5, 4160733.5 ] } },
{ "type": "Feature", "properties": { "id": "lidar-tree:284710:4160734", "name": null, "kind": "tree", "species": null, "source": "lidar2025", "tree_height": 15.4, "crown_radius": 2.0, "height_source": "lidar2025" }, "geometry": { "type": "Point", "coordinates": [ 284710.5, 4160734.5 ] } },
{ "type": "Feature", "properties": { "id": "lidar-tree:284704:4160738", "name": null, "kind": "tree", "species": null, "source": "lidar2025", "tree_height": 9.8, "crown_radius": 1.8, "height_source": "lidar2025" }, "geometry": { "type": "Point", "coordinates": [ 284703.5, 4160737.5 ] } },
{ "type": "Feature", "properties": { "id": "lidar-tree:284710:4160738", "name": null, "kind": "tree", "species": null, "source": "lidar2025", "tree_height": 15.0, "crown_radius": 2.0, "height_source": "lidar2025" }, "geometry": { "type": "Point", "coordinates": [ 284710.5, 4160738.5 ] } },
{ "type": "Feature", "properties": { "id": "lidar-tree:284652:4160724", "name": null, "kind": "tree", "species": null, "source": "lidar2025", "tree_height": 13.9, "crown_radius": 1.7, "height_source": "lidar2025" }, "geometry": { "type": "Point", "coordinates": [ 284651.5, 4160723.5 ] } },
{ "type": "Feature", "properties": { "id": "lidar-tree:284602:4160726", "name": null, "kind": "tree", "species": null, "source": "lidar2025", "tree_height": 18.7, "crown_radius": 2.3, "height_source": "lidar2025" }, "geometry": { "type": "Point", "coordinates": [ 284601.5, 4160726.5 ] } },
{ "type": "Feature", "properties": { "id": "lidar-tree:284644:4160728", "name": null, "kind": "tree", "species": null, "source": "lidar2025", "tree_height": 11.7, "crown_radius": 1.7, "height_source": "lidar2025" }, "geometry": { "type": "Point", "coordinates": [ 284643.5, 4160727.5 ] } },
{ "type": "Feature", "properties": { "id": "lidar-tree:284648:4160734", "name": null, "kind": "tree", "species": null, "source": "lidar2025", "tree_height": 9.9, "crown_radius": 2.0, "height_source": "lidar2025" }, "geometry": { "type": "Point", "coordinates": [ 284648.5, 4160733.5 ] } },
{ "type": "Feature", "properties": { "id": "lidar-tree:284664:4160734", "name": null, "kind": "tree", "species": null, "source": "lidar2025", "tree_height": 10.6, "crown_radius": 1.7, "height_source": "lidar2025" }, "geometry": { "type": "Point", "coordinates": [ 284664.5, 4160733.5 ] } },
{ "type": "Feature", "properties": { "id": "lidar-tree:284608:4160734", "name": null, "kind": "tree", "species": null, "source": "lidar2025", "tree_height": 16.4, "crown_radius": 2.3, "height_source": "lidar2025" }, "geometry": { "type": "Point", "coordinates": [ 284607.5, 4160734.5 ] } },
{ "type": "Feature", "properties": { "id": "lidar-tree:284602:4160734", "name": null, "kind": "tree", "species": null, "source": "lidar2025", "tree_height": 15.0, "crown_radius": 2.3, "height_source": "lidar2025" }, "geometry": { "type": "Point", "coordinates": [ 284602.5, 4160734.5 ] } },
{ "type": "Feature", "properties": { "id": "lidar-tree:284612:4160738", "name": null, "kind": "tree", "species": null, "source": "lidar2025", "tree_height": 13.0, "crown_radius": 2.1, "height_source": "lidar2025" }, "geometry": { "type": "Point", "coordinates": [ 284612.5, 4160737.5 ] } },
{ "type": "Feature", "properties": { "id": "lidar-tree:284604:4160744", "name": null, "kind": "tree", "species": null, "source": "lidar2025", "tree_height": 19.2, "crown_radius": 2.4, "height_source": "lidar2025" }, "geometry": { "type": "Point", "coordinates": [ 284604.5, 4160743.5 ] } },
{ "type": "Feature", "properties": { "id": "lidar-tree:284610:4160744", "name": null, "kind": "tree", "species": null, "source": "lidar2025", "tree_height": 15.7, "crown_radius": 2.3, "height_source": "lidar2025" }, "geometry": { "type": "Point", "coordinates": [ 284609.5, 4160744.5 ] } },
{ "type": "Feature", "properties": { "id": "lidar-tree:284720:4160738", "name": null, "kind": "tree", "species": null, "source": "lidar2025", "tree_height": 15.1, "crown_radius": 2.3, "height_source": "lidar2025" }, "geometry": { "type": "Point", "coordinates": [ 284720.5, 4160738.5 ] } },
{ "type": "Feature", "properties": { "id": "lidar-tree:284714:4160740", "name": null, "kind": "tree", "species": null, "source": "lidar2025", "tree_height": 15.7, "crown_radius": 2.5, "height_source": "lidar2025" }, "geometry": { "type": "Point", "coordinates": [ 284714.5, 4160739.5 ] } },
{ "type": "Feature", "properties": { "id": "lidar-tree:284702:4160742", "name": null, "kind": "tree", "species": null, "source": "lidar2025", "tree_height": 12.1, "crown_radius": 1.6, "height_source": "lidar2025" }, "geometry": { "type": "Point", "coordinates": [ 284701.5, 4160742.5 ] } },
{ "type": "Feature", "properties": { "id": "lidar-tree:284712:4160744", "name": null, "kind": "tree", "species": null, "source": "lidar2025", "tree_height": 10.7, "crown_radius": 2.0, "height_source": "lidar2025" }, "geometry": { "type": "Point", "coordinates": [ 284711.5, 4160743.5 ] } },
{ "type": "Feature", "properties": { "id": "lidar-tree:284718:4160744", "name": null, "kind": "tree", "species": null, "source": "lidar2025", "tree_height": 15.4, "crown_radius": 2.0, "height_source": "lidar2025" }, "geometry": { "type": "Point", "coordinates": [ 284718.5, 4160743.5 ] } },
{ "type": "Feature", "properties": { "id": "lidar-tree:284704:4160750", "name": null, "kind": "tree", "species": null, "source": "lidar2025", "tree_height": 13.2, "crown_radius": 1.9, "height_source": "lidar2025" }, "geometry": { "type": "Point", "coordinates": [ 284703.5, 4160749.5 ] } },
{ "type": "Feature", "properties": { "id": "lidar-tree:284666:4160746", "name": null, "kind": "tree", "species": null, "source": "lidar2025", "tree_height": 9.5, "crown_radius": 1.8, "height_source": "lidar2025" }, "geometry": { "type": "Point", "coordinates": [ 284665.5, 4160745.5 ] } },
{ "type": "Feature", "properties": { "id": "lidar-tree:284678:4160746", "name": null, "kind": "tree", "species": null, "source": "lidar2025", "tree_height": 14.1, "crown_radius": 2.1, "height_source": "lidar2025" }, "geometry": { "type": "Point", "coordinates": [ 284677.5, 4160746.5 ] } },
{ "type": "Feature", "properties": { "id": "lidar-tree:284670:4160750", "name": null, "kind": "tree", "species": null, "source": "lidar2025", "tree_height": 13.9, "crown_radius": 2.0, "height_source": "lidar2025" }, "geometry": { "type": "Point", "coordinates": [ 284670.5, 4160749.5 ] } },
{ "type": "Feature", "properties": { "id": "lidar-tree:284520:4160740", "name": null, "kind": "tree", "species": null, "source": "lidar2025", "tree_height": 14.7, "crown_radius": 2.3, "height_source": "lidar2025" }, "geometry": { "type": "Point", "coordinates": [ 284519.5, 4160739.5 ] } },
{ "type": "Feature", "properties": { "id": "lidar-tree:284598:4160740", "name": null, "kind": "tree", "species": null, "source": "lidar2025", "tree_height": 13.7, "crown_radius": 2.3, "height_source": "lidar2025" }, "geometry": { "type": "Point", "coordinates": [ 284598.5, 4160739.5 ] } },
{ "type": "Feature", "properties": { "id": "lidar-tree:284598:4160746", "name": null, "kind": "tree", "species": null, "source": "lidar2025", "tree_height": 10.9, "crown_radius": 2.0, "height_source": "lidar2025" }, "geometry": { "type": "Point", "coordinates": [ 284598.5, 4160745.5 ] } },
{ "type": "Feature", "properties": { "id": "lidar-tree:284536:4160748", "name": null, "kind": "tree", "species": null, "source": "lidar2025", "tree_height": 12.5, "crown_radius": 1.7, "height_source": "lidar2025" }, "geometry": { "type": "Point", "coordinates": [ 284535.5, 4160747.5 ] } }
]
}
