{
"type": "FeatureCollection",
"name": "landuse",
"crs": { "type": "name", "properties": { "name": "urn:ogc:def:crs:EPSG::32618" } },
"xy_coordinate_resolution": 0.01,
"features": [
{ "type": "Feature", "properties": { "id": "imagery:groundcover_paved:2792", "name": null, "kind": "groundcover_paved", "sport": null, "surface": null, "pitch_layout": null, "source": "vgin_vbmp+naip+lidar2025", "source_updated": null, "base_z": null, "top_z": null }, "geometry": { "type": "MultiPolygon", "coordinates": [ [ [ [ 280522.76, 4160298.52 ], [ 280523.13, 4160298.37 ], [ 280531.86, 4160296.19 ], [ 280534.13, 4160293.28 ], [ 280534.13, 4160293.22 ], [ 280534.55, 4160292.2 ], [ 280536.2, 4160290.55 ], [ 280500.0, 4160250.23 ], [ 280500.0, 4160273.77 ], [ 280511.41, 4160286.42 ], [ 280522.59, 4160298.62 ], [ 280522.76, 4160298.52 ] ] ], [ [ [ 280538.1, 4160251.94 ], [ 280538.3, 4160252.99 ], [ 280540.52, 4160255.31 ], [ 280542.25, 4160255.75 ], [ 280545.25, 4160258.75 ], [ 280547.37, 4160259.63 ], [ 280555.97, 4160259.63 ], [ 280558.81, 4160257.57 ], [ 280561.34, 4160250.0 ], [ 280554.68, 4160250.0 ], [ 280557.02, 4160252.55 ], [ 280557.21, 4160252.78 ], [ 280557.38, 4160253.03 ], [ 280557.52, 4160253.29 ], [ 280557.64, 4160253.57 ], [ 280557.73, 4160253.86 ], [ 280557.79, 4160254.15 ], [ 280557.82, 4160254.45 ], [ 280557.82, 4160254.75 ], [ 280557.79, 4160255.04 ], [ 280557.73, 4160255.34 ], [ 280557.65, 4160255.62 ], [ 280557.54, 4160255.9 ], [ 280557.4, 4160256.17 ], [ 280557.23, 4160256.42 ], [ 280557.04, 4160256.65 ], [ 280556.83, 4160256.86 ], [ 280556.6, 4160257.05 ], [ 280556.35, 4160257.22 ], [ 280556.09, 4160257.36 ], [ 280555.81, 4160257.48 ], [ 280555.53, 4160257.57 ], [ 280555.24, 4160257.63 ], [ 280554.94, 4160257.66 ], [ 280554.64, 4160257.66 ], [ 280554.34, 4160257.63 ], [ 280554.05, 4160257.58 ], [ 280553.76, 4160257.49 ], [ 280553.48, 4160257.38 ], [ 280553.22, 4160257.24 ], [ 280552.97, 4160257.07 ], [ 280552.74, 4160256.88 ], [ 280552.52, 4160256.67 ], [ 280546.41, 4160250.0 ], [ 280536.51, 4160250.0 ], [ 280537.7, 4160251.19 ], [ 280538.1, 4160251.94 ] ] ], [ [ [ 280503.48, 4160316.14 ], [ 280504.37, 4160315.74 ], [ 280507.49, 4160314.09 ], [ 280512.47, 4160310.67 ], [ 280500.0, 4160297.06 ], [ 280500.0, 4160310.4 ], [ 280500.14, 4160310.68 ], [ 280503.48, 4160316.14 ] ] ], [ [ [ 280712.28, 4160259.63 ], [ 280714.96, 4160257.97 ], [ 280715.31, 4160257.26 ], [ 280714.38, 4160255.43 ], [ 280685.23, 4160274.8 ], [ 280684.79, 4160278.38 ], [ 280686.45, 4160281.45 ], [ 280689.05, 4160281.01 ], [ 280689.16, 4160281.28 ], [ 280691.28, 4160280.4 ], [ 280693.13, 4160277.63 ], [ 280693.13, 4160275.22 ], [ 280693.55, 4160274.2 ], [ 280695.71, 4160272.05 ], [ 280696.73, 4160271.63 ], [ 280702.13, 4160271.63 ], [ 280705.13, 4160268.63 ], [ 280705.13, 4160263.22 ], [ 280705.55, 4160262.2 ], [ 280707.71, 4160260.05 ], [ 280708.73, 4160259.63 ], [ 280712.28, 4160259.63 ] ] ], [ [ [ 280633.92, 4160252.89 ], [ 280633.45, 4160253.22 ], [ 280661.67, 4160284.76 ], [ 280667.1, 4160286.12 ], [ 280666.08, 4160284.98 ], [ 280635.97, 4160251.57 ], [ 280633.92, 4160252.89 ] ] ], [ [ [ 280594.08, 4160274.07 ], [ 280593.95, 4160274.25 ], [ 280593.92, 4160274.29 ], [ 280593.89, 4160274.33 ], [ 280593.75, 4160274.5 ], [ 280593.6, 4160274.67 ], [ 280593.57, 4160274.7 ], [ 280593.53, 4160274.74 ], [ 280593.37, 4160274.89 ], [ 280593.21, 4160275.05 ], [ 280593.17, 4160275.08 ], [ 280593.14, 4160275.11 ], [ 280592.96, 4160275.25 ], [ 280592.79, 4160275.39 ], [ 280571.31, 4160290.84 ], [ 280571.29, 4160290.85 ], [ 280571.27, 4160290.86 ], [ 280569.74, 4160291.95 ], [ 280571.37, 4160292.63 ], [ 280571.66, 4160292.63 ], [ 280630.21, 4160251.11 ], [ 280629.2, 4160250.0 ], [ 280628.58, 4160250.0 ], [ 280627.51, 4160250.75 ], [ 280627.46, 4160250.78 ], [ 280605.08, 4160266.08 ], [ 280594.55, 4160273.28 ], [ 280594.53, 4160273.33 ], [ 280594.5, 4160273.37 ], [ 280594.48, 4160273.42 ], [ 280594.37, 4160273.61 ], [ 280594.26, 4160273.81 ], [ 280594.24, 4160273.85 ], [ 280594.21, 4160273.89 ], [ 280594.08, 4160274.07 ] ] ], [ [ [ 280719.8, 4160308.57 ], [ 280719.12, 4160309.4 ], [ 280750.0, 4160288.19 ], [ 280750.0, 4160285.01 ], [ 280720.13, 4160305.43 ], [ 280720.13, 4160307.65 ], [ 280719.8, 4160308.57 ] ] ], [ [ [ 280579.13, 4160296.22 ], [ 280579.13, 4160297.48 ], [ 280590.23, 4160310.63 ], [ 280594.29, 4160310.63 ], [ 280595.18, 4160310.93 ], [ 280597.3, 4160312.59 ], [ 280597.82, 4160313.38 ], [ 280599.56, 4160320.35 ], [ 280602.47, 4160322.63 ], [ 280608.85, 4160322.63 ], [ 280655.65, 4160280.44 ], [ 280632.36, 4160256.49 ], [ 280577.56, 4160294.06 ], [ 280578.71, 4160295.2 ], [ 280579.13, 4160296.22 ] ] ], [ [ [ 280575.95, 4160306.27 ], [ 280574.73, 4160306.53 ], [ 280570.57, 4160305.49 ], [ 280588.83, 4160325.82 ], [ 280590.97, 4160328.14 ], [ 280586.68, 4160315.26 ], [ 280586.87, 4160313.99 ], [ 280588.87, 4160311.21 ], [ 280588.91, 4160311.19 ], [ 280579.13, 4160300.17 ], [ 280579.13, 4160303.09 ], [ 280578.59, 4160304.21 ], [ 280575.95, 4160306.27 ] ] ], [ [ [ 280500.0, 4160344.37 ], [ 280504.78, 4160341.12 ], [ 280510.56, 4160335.78 ], [ 280510.58, 4160335.77 ], [ 280510.6, 4160335.75 ], [ 280511.5, 4160334.96 ], [ 280510.8, 4160334.19 ], [ 280510.79, 4160334.18 ], [ 280510.43, 4160333.78 ], [ 280500.19, 4160340.53 ], [ 280500.0, 4160340.66 ], [ 280500.0, 4160344.37 ] ] ], [ [ [ 280746.71, 4160391.2 ], [ 280744.55, 4160389.05 ], [ 280744.13, 4160388.03 ], [ 280744.13, 4160383.08 ], [ 280741.44, 4160385.73 ], [ 280750.0, 4160395.11 ], [ 280750.0, 4160391.63 ], [ 280747.73, 4160391.63 ], [ 280746.71, 4160391.2 ] ] ], [ [ [ 280750.0, 4160404.17 ], [ 280740.47, 4160393.72 ], [ 280740.89, 4160410.29 ], [ 280750.0, 4160420.3 ], [ 280750.0, 4160404.17 ] ] ], [ [ [ 280741.52, 4160435.19 ], [ 280750.0, 4160444.57 ], [ 280750.0, 4160429.36 ], [ 280741.13, 4160419.61 ], [ 280741.52, 4160435.19 ] ] ], [ [ [ 280730.07, 4160465.26 ], [ 280727.38, 4160453.53 ], [ 280727.33, 4160453.24 ], [ 280727.29, 4160452.95 ], [ 280725.68, 4160430.33 ], [ 280723.64, 4160442.59 ], [ 280723.14, 4160443.46 ], [ 280721.0, 4160445.28 ], [ 280720.06, 4160445.63 ], [ 280718.08, 4160445.63 ], [ 280713.81, 4160448.81 ], [ 280713.71, 4160449.05 ], [ 280711.55, 4160451.2 ], [ 280710.53, 4160451.63 ], [ 280704.76, 4160451.63 ], [ 280709.02, 4160456.24 ], [ 280736.64, 4160484.61 ], [ 280734.34, 4160478.38 ], [ 280734.29, 4160478.24 ], [ 280730.16, 4160465.59 ], [ 280730.07, 4160465.26 ] ] ], [ [ [ 280548.47, 4160314.94 ], [ 280544.61, 4160322.66 ], [ 280648.36, 4160435.89 ], [ 280648.37, 4160435.9 ], [ 280648.39, 4160435.92 ], [ 280706.62, 4160500.0 ], [ 280729.84, 4160500.0 ], [ 280725.55, 4160495.59 ], [ 280697.76, 4160467.05 ], [ 280697.62, 4160466.89 ], [ 280577.32, 4160336.35 ], [ 280577.25, 4160336.28 ], [ 280555.73, 4160312.31 ], [ 280550.57, 4160313.34 ], [ 280548.47, 4160314.94 ] ] ], [ [ [ 280745.51, 4160458.97 ], [ 280749.53, 4160474.56 ], [ 280750.0, 4160475.22 ], [ 280750.0, 4160453.66 ], [ 280742.95, 4160445.87 ], [ 280745.51, 4160458.97 ] ] ], [ [ [ 280552.01, 4160370.12 ], [ 280555.66, 4160374.37 ], [ 280555.69, 4160374.41 ], [ 280558.88, 4160378.24 ], [ 280572.09, 4160392.79 ], [ 280575.07, 4160396.07 ], [ 280585.6, 4160407.65 ], [ 280589.23, 4160411.58 ], [ 280589.3, 4160411.66 ], [ 280592.39, 4160415.25 ], [ 280606.23, 4160429.84 ], [ 280606.33, 4160429.95 ], [ 280619.19, 4160444.89 ], [ 280623.1, 4160448.3 ], [ 280623.12, 4160448.31 ], [ 280626.77, 4160451.54 ], [ 280626.96, 4160451.71 ], [ 280627.13, 4160451.9 ], [ 280631.8, 4160457.67 ], [ 280640.39, 4160465.26 ], [ 280640.61, 4160465.47 ], [ 280641.96, 4160466.94 ], [ 280654.43, 4160480.35 ], [ 280654.7, 4160480.69 ], [ 280657.6, 4160484.88 ], [ 280660.87, 4160488.29 ], [ 280660.97, 4160488.39 ], [ 280671.07, 4160500.0 ], [ 280678.23, 4160500.0 ], [ 280669.81, 4160489.76 ], [ 280669.56, 4160489.42 ], [ 280653.34, 4160464.57 ], [ 280636.85, 4160446.42 ], [ 280530.35, 4160330.19 ], [ 280529.15, 4160332.59 ], [ 280528.6, 4160333.19 ], [ 280526.63, 4160334.41 ], [ 280525.86, 4160334.63 ], [ 280522.05, 4160334.63 ], [ 280521.14, 4160334.31 ], [ 280519.41, 4160332.92 ], [ 280518.88, 4160333.28 ], [ 280518.45, 4160333.67 ], [ 280520.27, 4160335.63 ], [ 280520.27, 4160335.64 ], [ 280524.87, 4160340.62 ], [ 280524.88, 4160340.64 ], [ 280538.84, 4160355.95 ], [ 280551.93, 4160370.03 ], [ 280552.01, 4160370.12 ] ] ], [ [ [ 280739.54, 4160460.22 ], [ 280735.58, 4160439.92 ], [ 280735.54, 4160439.67 ], [ 280735.52, 4160439.42 ], [ 280735.45, 4160436.47 ], [ 280734.82, 4160411.58 ], [ 280734.17, 4160385.7 ], [ 280734.17, 4160385.6 ], [ 280734.17, 4160385.48 ], [ 280734.17, 4160385.43 ], [ 280734.17, 4160385.39 ], [ 280734.19, 4160385.29 ], [ 280734.2, 4160385.18 ], [ 280734.21, 4160385.13 ], [ 280734.21, 4160385.08 ], [ 280734.23, 4160384.99 ], [ 280734.25, 4160384.89 ], [ 280734.27, 4160384.83 ], [ 280734.28, 4160384.78 ], [ 280734.31, 4160384.7 ], [ 280734.34, 4160384.6 ], [ 280734.37, 4160384.54 ], [ 280734.39, 4160384.48 ], [ 280734.42, 4160384.41 ], [ 280734.45, 4160384.33 ], [ 280734.49, 4160384.26 ], [ 280734.52, 4160384.2 ], [ 280734.56, 4160384.14 ], [ 280734.59, 4160384.06 ], [ 280734.64, 4160384.0 ], [ 280734.68, 4160383.93 ], [ 280734.72, 4160383.88 ], [ 280734.76, 4160383.81 ], [ 280734.81, 4160383.75 ], [ 280734.86, 4160383.68 ], [ 280734.91, 4160383.64 ], [ 280734.95, 4160383.58 ], [ 280735.01, 4160383.52 ], [ 280735.07, 4160383.45 ], [ 280746.1, 4160372.55 ], [ 280739.24, 4160364.95 ], [ 280726.14, 4160350.46 ], [ 280727.01, 4160352.76 ], [ 280727.12, 4160353.07 ], [ 280727.19, 4160353.4 ], [ 280730.21, 4160369.34 ], [ 280730.26, 4160369.64 ], [ 280730.28, 4160369.95 ], [ 280731.04, 4160398.65 ], [ 280734.85, 4160452.12 ], [ 280737.44, 4160463.4 ], [ 280741.49, 4160475.82 ], [ 280746.36, 4160489.01 ], [ 280750.0, 4160496.07 ], [ 280750.0, 4160485.77 ], [ 280744.23, 4160477.63 ], [ 280744.08, 4160477.4 ], [ 280743.95, 4160477.15 ], [ 280743.84, 4160476.89 ], [ 280743.76, 4160476.63 ], [ 280739.58, 4160460.4 ], [ 280739.54, 4160460.22 ] ] ], [ [ [ 280500.0, 4160416.89 ], [ 280522.0, 4160441.53 ], [ 280544.95, 4160466.94 ], [ 280557.18, 4160479.95 ], [ 280557.27, 4160480.04 ], [ 280567.51, 4160491.52 ], [ 280575.26, 4160500.0 ], [ 280576.0, 4160500.0 ], [ 280500.0, 4160415.92 ], [ 280500.0, 4160416.89 ] ] ] ] } },
{ "type": "Feature", "properties": { "id": "imagery:groundcover_lawn:432", "name": null, "kind": "groundcover_lawn", "sport": null, "surface": null, "pitch_layout": null, "source": "vgin_vbmp+naip+lidar2025", "source_updated": null, "base_z": null, "top_z": null }, "geometry": { "type": "Polygon", "coordinates": [ [ [ 280675.75, 4160252.86 ], [ 280676.34, 4160252.46 ], [ 280676.42, 4160252.4 ], [ 280676.51, 4160252.36 ], [ 280676.6, 4160252.33 ], [ 280676.7, 4160252.3 ], [ 280676.8, 4160252.29 ], [ 280676.89, 4160252.28 ], [ 280676.99, 4160252.29 ], [ 280677.09, 4160252.3 ], [ 280677.18, 4160252.32 ], [ 280677.28, 4160252.35 ], [ 280677.37, 4160252.4 ], [ 280677.45, 4160252.44 ], [ 280677.53, 4160252.5 ], [ 280677.6, 4160252.57 ], [ 280677.67, 4160252.64 ], [ 280677.73, 4160252.72 ], [ 280678.35, 4160253.63 ], [ 280679.73, 4160253.63 ], [ 280680.92, 4160252.82 ], [ 280683.12, 4160250.0 ], [ 280673.44, 4160250.0 ], [ 280675.14, 4160252.48 ], [ 280675.75, 4160252.86 ] ] ] } },
{ "type": "Feature", "properties": { "id": "imagery:groundcover_lawn:426", "name": null, "kind": "groundcover_lawn", "sport": null, "surface": null, "pitch_layout": null, "source": "vgin_vbmp+naip+lidar2025", "source_updated": null, "base_z": null, "top_z": null }, "geometry": { "type": "Polygon", "coordinates": [ [ [ 280695.27, 4160294.86 ], [ 280695.26, 4160294.76 ], [ 280695.27, 4160294.66 ], [ 280695.28, 4160294.57 ], [ 280695.3, 4160294.47 ], [ 280695.34, 4160294.38 ], [ 280695.38, 4160294.29 ], [ 280695.43, 4160294.21 ], [ 280695.49, 4160294.13 ], [ 280695.55, 4160294.05 ], [ 280695.63, 4160293.99 ], [ 280695.7, 4160293.93 ], [ 280697.63, 4160292.63 ], [ 280697.73, 4160292.43 ], [ 280697.1, 4160291.51 ], [ 280697.05, 4160291.43 ], [ 280697.01, 4160291.34 ], [ 280696.98, 4160291.24 ], [ 280696.95, 4160291.15 ], [ 280696.94, 4160291.05 ], [ 280696.93, 4160290.95 ], [ 280696.93, 4160290.86 ], [ 280696.95, 4160290.76 ], [ 280696.97, 4160290.66 ], [ 280697.01, 4160290.57 ], [ 280697.05, 4160290.48 ], [ 280697.1, 4160290.4 ], [ 280697.16, 4160290.32 ], [ 280697.22, 4160290.24 ], [ 280697.29, 4160290.18 ], [ 280697.37, 4160290.12 ], [ 280699.92, 4160288.41 ], [ 280702.67, 4160286.48 ], [ 280702.75, 4160286.43 ], [ 280702.84, 4160286.38 ], [ 280702.93, 4160286.35 ], [ 280703.03, 4160286.32 ], [ 280703.13, 4160286.31 ], [ 280703.22, 4160286.3 ], [ 280703.32, 4160286.3 ], [ 280703.42, 4160286.32 ], [ 280703.52, 4160286.34 ], [ 280703.61, 4160286.37 ], [ 280703.7, 4160286.41 ], [ 280703.79, 4160286.46 ], [ 280703.87, 4160286.52 ], [ 280703.94, 4160286.58 ], [ 280704.01, 4160286.65 ], [ 280704.07, 4160286.73 ], [ 280704.88, 4160287.91 ], [ 280706.89, 4160286.55 ], [ 280706.98, 4160286.5 ], [ 280707.07, 4160286.46 ], [ 280707.16, 4160286.42 ], [ 280707.25, 4160286.4 ], [ 280707.35, 4160286.38 ], [ 280707.45, 4160286.38 ], [ 280707.54, 4160286.38 ], [ 280707.64, 4160286.39 ], [ 280707.74, 4160286.42 ], [ 280707.83, 4160286.45 ], [ 280707.92, 4160286.49 ], [ 280708.0, 4160286.54 ], [ 280708.08, 4160286.6 ], [ 280708.15, 4160286.66 ], [ 280708.22, 4160286.73 ], [ 280708.28, 4160286.81 ], [ 280708.59, 4160287.26 ], [ 280708.7, 4160287.23 ], [ 280708.49, 4160286.92 ], [ 280708.44, 4160286.84 ], [ 280708.4, 4160286.75 ], [ 280708.36, 4160286.66 ], [ 280708.34, 4160286.56 ], [ 280708.32, 4160286.46 ], [ 280708.32, 4160286.37 ], [ 280708.32, 4160286.27 ], [ 280708.34, 4160286.17 ], [ 280708.36, 4160286.07 ], [ 280708.39, 4160285.98 ], [ 280708.44, 4160285.89 ], [ 280708.49, 4160285.81 ], [ 280708.54, 4160285.73 ], [ 280708.61, 4160285.66 ], [ 280708.68, 4160285.59 ], [ 280708.76, 4160285.53 ], [ 280710.84, 4160284.14 ], [ 280710.15, 4160283.11 ], [ 280710.1, 4160283.03 ], [ 280710.06, 4160282.94 ], [ 280710.02, 4160282.85 ], [ 280710.0, 4160282.75 ], [ 280709.98, 4160282.66 ], [ 280709.98, 4160282.56 ], [ 280709.98, 4160282.46 ], [ 280710.0, 4160282.36 ], [ 280710.02, 4160282.27 ], [ 280710.05, 4160282.17 ], [ 280710.09, 4160282.08 ], [ 280710.14, 4160282.0 ], [ 280710.2, 4160281.92 ], [ 280710.27, 4160281.85 ], [ 280710.34, 4160281.78 ], [ 280710.42, 4160281.72 ], [ 280712.97, 4160280.02 ], [ 280715.73, 4160278.08 ], [ 280715.81, 4160278.03 ], [ 280715.9, 4160277.99 ], [ 280715.99, 4160277.95 ], [ 280716.09, 4160277.93 ], [ 280716.18, 4160277.91 ], [ 280716.28, 4160277.9 ], [ 280716.38, 4160277.91 ], [ 280716.48, 4160277.92 ], [ 280716.58, 4160277.94 ], [ 280716.67, 4160277.97 ], [ 280716.76, 4160278.02 ], [ 280716.85, 4160278.07 ], [ 280716.93, 4160278.12 ], [ 280717.0, 4160278.19 ], [ 280717.07, 4160278.26 ], [ 280717.13, 4160278.34 ], [ 280717.93, 4160279.52 ], [ 280719.94, 4160278.15 ], [ 280720.02, 4160278.1 ], [ 280720.11, 4160278.06 ], [ 280720.2, 4160278.03 ], [ 280720.3, 4160278.0 ], [ 280720.39, 4160277.99 ], [ 280720.49, 4160277.98 ], [ 280720.59, 4160277.98 ], [ 280720.69, 4160278.0 ], [ 280720.78, 4160278.02 ], [ 280720.87, 4160278.05 ], [ 280720.96, 4160278.09 ], [ 280721.05, 4160278.14 ], [ 280721.13, 4160278.2 ], [ 280721.2, 4160278.27 ], [ 280721.27, 4160278.34 ], [ 280721.33, 4160278.42 ], [ 280721.47, 4160278.62 ], [ 280721.56, 4160278.48 ], [ 280721.06, 4160277.74 ], [ 280721.01, 4160277.66 ], [ 280720.96, 4160277.57 ], [ 280720.93, 4160277.47 ], [ 280720.91, 4160277.38 ], [ 280720.89, 4160277.28 ], [ 280720.88, 4160277.18 ], [ 280720.89, 4160277.09 ], [ 280720.9, 4160276.99 ], [ 280720.93, 4160276.89 ], [ 280720.96, 4160276.8 ], [ 280721.0, 4160276.71 ], [ 280721.05, 4160276.63 ], [ 280721.11, 4160276.55 ], [ 280721.17, 4160276.47 ], [ 280721.25, 4160276.41 ], [ 280721.33, 4160276.35 ], [ 280723.41, 4160274.95 ], [ 280722.72, 4160273.93 ], [ 280722.67, 4160273.85 ], [ 280722.62, 4160273.76 ], [ 280722.59, 4160273.67 ], [ 280722.56, 4160273.57 ], [ 280722.55, 4160273.48 ], [ 280722.54, 4160273.38 ], [ 280722.55, 4160273.28 ], [ 280722.56, 4160273.18 ], [ 280722.58, 4160273.09 ], [ 280722.62, 4160272.99 ], [ 280722.66, 4160272.9 ], [ 280722.71, 4160272.82 ], [ 280722.77, 4160272.74 ], [ 280722.83, 4160272.66 ], [ 280722.91, 4160272.6 ], [ 280722.99, 4160272.54 ], [ 280725.53, 4160270.83 ], [ 280728.29, 4160268.9 ], [ 280728.38, 4160268.85 ], [ 280728.46, 4160268.8 ], [ 280728.56, 4160268.77 ], [ 280728.65, 4160268.74 ], [ 280728.75, 4160268.73 ], [ 280728.85, 4160268.72 ], [ 280728.95, 4160268.72 ], [ 280729.05, 4160268.74 ], [ 280729.14, 4160268.76 ], [ 280729.24, 4160268.79 ], [ 280729.33, 4160268.83 ], [ 280729.41, 4160268.88 ], [ 280729.49, 4160268.94 ], [ 280729.56, 4160269.01 ], [ 280729.63, 4160269.08 ], [ 280729.69, 4160269.16 ], [ 280729.72, 4160269.2 ], [ 280730.81, 4160267.68 ], [ 280730.27, 4160266.04 ], [ 280730.35, 4160264.94 ], [ 280730.42, 4160264.8 ], [ 280729.04, 4160262.77 ], [ 280728.99, 4160262.69 ], [ 280728.95, 4160262.6 ], [ 280728.91, 4160262.51 ], [ 280728.89, 4160262.41 ], [ 280728.87, 4160262.31 ], [ 280728.87, 4160262.22 ], [ 280728.87, 4160262.12 ], [ 280728.89, 4160262.02 ], [ 280728.91, 4160261.92 ], [ 280728.94, 4160261.83 ], [ 280728.98, 4160261.74 ], [ 280729.04, 4160261.66 ], [ 280729.09, 4160261.58 ], [ 280729.16, 4160261.51 ], [ 280729.23, 4160261.44 ], [ 280729.31, 4160261.38 ], [ 280734.8, 4160257.68 ], [ 280734.88, 4160257.63 ], [ 280734.97, 4160257.59 ], [ 280735.06, 4160257.56 ], [ 280735.16, 4160257.53 ], [ 280735.26, 4160257.52 ], [ 280735.35, 4160257.51 ], [ 280735.45, 4160257.51 ], [ 280735.55, 4160257.53 ], [ 280735.64, 4160257.55 ], [ 280735.74, 4160257.58 ], [ 280735.82, 4160257.63 ], [ 280735.91, 4160257.68 ], [ 280735.99, 4160257.73 ], [ 280736.06, 4160257.8 ], [ 280736.13, 4160257.87 ], [ 280736.19, 4160257.95 ], [ 280737.27, 4160259.54 ], [ 280738.61, 4160258.2 ], [ 280740.07, 4160253.8 ], [ 280740.75, 4160252.99 ], [ 280743.33, 4160251.57 ], [ 280744.38, 4160251.44 ], [ 280747.83, 4160252.3 ], [ 280749.96, 4160250.0 ], [ 280733.46, 4160250.0 ], [ 280732.72, 4160253.7 ], [ 280732.21, 4160254.54 ], [ 280730.28, 4160256.13 ], [ 280730.15, 4160256.8 ], [ 280728.71, 4160256.2 ], [ 280726.55, 4160254.05 ], [ 280726.13, 4160253.03 ], [ 280726.13, 4160250.0 ], [ 280722.55, 4160250.0 ], [ 280714.51, 4160255.34 ], [ 280713.79, 4160256.91 ], [ 280712.84, 4160257.7 ], [ 280709.83, 4160258.45 ], [ 280705.77, 4160261.15 ], [ 280705.13, 4160261.97 ], [ 280705.13, 4160268.78 ], [ 280704.82, 4160269.68 ], [ 280703.17, 4160271.8 ], [ 280702.37, 4160272.32 ], [ 280695.4, 4160274.06 ], [ 280693.13, 4160276.97 ], [ 280693.13, 4160283.03 ], [ 280692.71, 4160284.05 ], [ 280690.55, 4160286.2 ], [ 280688.98, 4160286.85 ], [ 280688.1, 4160288.18 ], [ 280694.74, 4160295.34 ], [ 280695.29, 4160295.0 ], [ 280695.28, 4160294.96 ], [ 280695.27, 4160294.86 ] ] ] } },
{ "type": "Feature", "properties": { "id": "richmond_structure:409555", "name": null, "kind": "deck", "sport": null, "surface": null, "pitch_layout": null, "source": "richmond_structures", "source_updated": "2026-09-08T12:07:13.637000Z", "base_z": null, "top_z": null }, "geometry": { "type": "Polygon", "coordinates": [ [ [ 280729.24, 4160262.38 ], [ 280735.39, 4160258.13 ], [ 280731.03, 4160252.18 ], [ 280725.12, 4160256.13 ], [ 280729.24, 4160262.38 ] ] ] } },
{ "type": "Feature", "properties": { "id": "richmond_structure:409556", "name": null, "kind": "deck", "sport": null, "surface": null, "pitch_layout": null, "source": "richmond_structures", "source_updated": "2026-09-08T12:07:13.637000Z", "base_z": null, "top_z": null }, "geometry": { "type": "Polygon", "coordinates": [ [ [ 280729.59, 4160270.66 ], [ 280727.2, 4160272.06 ], [ 280728.1, 4160273.34 ], [ 280729.51, 4160272.34 ], [ 280730.56, 4160273.82 ], [ 280732.86, 4160272.19 ], [ 280731.6, 4160270.87 ], [ 280730.56, 4160270.49 ], [ 280729.59, 4160270.66 ] ] ] } },
{ "type": "Feature", "properties": { "id": "osm:way/236156641", "name": null, "kind": "groundcover_paved", "sport": "tennis", "surface": null, "pitch_layout": null, "source": null, "source_updated": null, "base_z": null, "top_z": null }, "geometry": { "type": "Polygon", "coordinates": [ [ [ 280604.03, 4160326.97 ], [ 280655.65, 4160280.44 ], [ 280632.36, 4160256.49 ], [ 280576.73, 4160294.63 ], [ 280604.03, 4160326.97 ] ] ] } },
{ "type": "Feature", "properties": { "id": "osm:way/1123139799", "name": "Albert Hill Middle School Fields", "kind": "pitch", "sport": null, "surface": null, "pitch_layout": { "cx": 280670.708230337, "cy": 4160348.941284457, "ax": -0.6638465284816726, "ay": -0.7478688298243428, "hl": 104.31193543163903, "hs": 36.11212613136273 }, "source": null, "source_updated": null, "base_z": null, "top_z": null }, "geometry": { "type": "Polygon", "coordinates": [ [ [ 280714.71, 4160349.16 ], [ 280707.0, 4160335.43 ], [ 280633.36, 4160253.12 ], [ 280574.45, 4160294.9 ], [ 280712.16, 4160450.04 ], [ 280723.33, 4160441.71 ], [ 280722.32, 4160377.06 ], [ 280719.53, 4160361.07 ], [ 280714.71, 4160349.16 ] ], [ [ 280576.73, 4160294.63 ], [ 280632.36, 4160256.49 ], [ 280655.65, 4160280.44 ], [ 280604.03, 4160326.97 ], [ 280576.73, 4160294.63 ] ] ] } },
{ "type": "Feature", "properties": { "id": "imagery:groundcover_lawn:369", "name": null, "kind": "groundcover_lawn", "sport": null, "surface": null, "pitch_layout": null, "source": "vgin_vbmp+naip+lidar2025", "source_updated": null, "base_z": null, "top_z": null }, "geometry": { "type": "MultiPolygon", "coordinates": [ [ [ [ 280592.97, 4160322.06 ], [ 280593.96, 4160323.9 ], [ 280594.13, 4160324.6 ], [ 280594.13, 4160331.57 ], [ 280632.88, 4160373.63 ], [ 280637.38, 4160373.63 ], [ 280638.01, 4160373.77 ], [ 280639.73, 4160374.58 ], [ 280640.24, 4160374.98 ], [ 280665.23, 4160405.53 ], [ 280667.55, 4160406.63 ], [ 280673.63, 4160406.63 ], [ 280588.41, 4160310.63 ], [ 280588.13, 4160310.63 ], [ 280585.13, 4160313.63 ], [ 280585.13, 4160315.02 ], [ 280586.47, 4160317.52 ], [ 280592.49, 4160321.53 ], [ 280592.97, 4160322.06 ] ] ], [ [ [ 280722.9, 4160378.47 ], [ 280721.79, 4160365.72 ], [ 280719.79, 4160355.14 ], [ 280716.22, 4160345.72 ], [ 280714.55, 4160344.05 ], [ 280714.13, 4160343.03 ], [ 280714.13, 4160340.19 ], [ 280713.68, 4160339.01 ], [ 280710.19, 4160333.69 ], [ 280706.22, 4160329.71 ], [ 280705.9, 4160329.23 ], [ 280705.29, 4160327.76 ], [ 280705.12, 4160327.69 ], [ 280704.64, 4160327.43 ], [ 280704.19, 4160327.13 ], [ 280703.77, 4160326.78 ], [ 280703.39, 4160326.39 ], [ 280692.48, 4160314.28 ], [ 280690.55, 4160316.2 ], [ 280690.0, 4160316.43 ], [ 280707.0, 4160335.43 ], [ 280714.71, 4160349.16 ], [ 280719.53, 4160361.07 ], [ 280722.32, 4160377.06 ], [ 280723.33, 4160441.71 ], [ 280718.08, 4160445.63 ], [ 280720.42, 4160445.63 ], [ 280723.4, 4160442.92 ], [ 280725.25, 4160424.39 ], [ 280723.45, 4160399.11 ], [ 280723.44, 4160398.94 ], [ 280722.9, 4160378.47 ] ] ], [ [ [ 280712.16, 4160450.04 ], [ 280678.78, 4160412.43 ], [ 280680.17, 4160424.94 ], [ 280704.76, 4160451.63 ], [ 280711.13, 4160451.63 ], [ 280713.9, 4160449.77 ], [ 280714.52, 4160448.28 ], [ 280712.16, 4160450.04 ] ] ] ] } },
{ "type": "Feature", "properties": { "id": "imagery:groundcover_lawn:388", "name": null, "kind": "groundcover_lawn", "sport": null, "surface": null, "pitch_layout": null, "source": "vgin_vbmp+naip+lidar2025", "source_updated": null, "base_z": null, "top_z": null }, "geometry": { "type": "Polygon", "coordinates": [ [ [ 280744.13, 4160388.63 ], [ 280747.13, 4160391.63 ], [ 280750.0, 4160391.63 ], [ 280750.0, 4160377.28 ], [ 280744.13, 4160383.08 ], [ 280744.13, 4160388.63 ] ] ] } },
{ "type": "Feature", "properties": { "id": "richmond_structure:252099", "name": null, "kind": "deck", "sport": null, "surface": null, "pitch_layout": null, "source": "richmond_structures", "source_updated": "2026-09-08T12:07:13.637000Z", "base_z": null, "top_z": null }, "geometry": { "type": "Polygon", "coordinates": [ [ [ 280629.88, 4160470.49 ], [ 280630.62, 4160469.92 ], [ 280628.92, 4160467.9 ], [ 280626.36, 4160469.93 ], [ 280629.38, 4160473.76 ], [ 280631.37, 4160472.17 ], [ 280629.88, 4160470.49 ] ] ] } },
{ "type": "Feature", "properties": { "id": "richmond_structure:253313", "name": null, "kind": "deck", "sport": null, "surface": null, "pitch_layout": null, "source": "richmond_structures", "source_updated": "2026-09-08T12:07:13.637000Z", "base_z": null, "top_z": null }, "geometry": { "type": "Polygon", "coordinates": [ [ [ 280567.3, 4160404.05 ], [ 280569.77, 4160402.08 ], [ 280566.44, 4160398.11 ], [ 280563.92, 4160400.12 ], [ 280567.3, 4160404.05 ] ] ] } },
{ "type": "Feature", "properties": { "id": "richmond_structure:252139", "name": null, "kind": "deck", "sport": null, "surface": null, "pitch_layout": null, "source": "richmond_structures", "source_updated": "2026-09-08T12:07:13.637000Z", "base_z": null, "top_z": null }, "geometry": { "type": "Polygon", "coordinates": [ [ [ 280595.43, 4160430.71 ], [ 280592.58, 4160432.97 ], [ 280595.74, 4160436.78 ], [ 280598.66, 4160434.54 ], [ 280595.43, 4160430.71 ] ] ] } },
{ "type": "Feature", "properties": { "id": "richmond_structure:252140", "name": null, "kind": "deck", "sport": null, "surface": null, "pitch_layout": null, "source": "richmond_structures", "source_updated": "2026-09-08T12:07:13.637000Z", "base_z": null, "top_z": null }, "geometry": { "type": "Polygon", "coordinates": [ [ [ 280592.11, 4160433.34 ], [ 280589.47, 4160435.43 ], [ 280592.78, 4160439.14 ], [ 280595.25, 4160437.21 ], [ 280592.11, 4160433.34 ] ] ] } },
{ "type": "Feature", "properties": { "id": "richmond_structure:253322", "name": null, "kind": "deck", "sport": null, "surface": null, "pitch_layout": null, "source": "richmond_structures", "source_updated": "2026-09-08T12:07:13.637000Z", "base_z": null, "top_z": null }, "geometry": { "type": "Polygon", "coordinates": [ [ [ 280597.74, 4160437.1 ], [ 280601.15, 4160441.03 ], [ 280603.38, 4160439.28 ], [ 280599.92, 4160435.37 ], [ 280597.74, 4160437.1 ] ] ] } },
{ "type": "Feature", "properties": { "id": "richmond_structure:252141", "name": null, "kind": "deck", "sport": null, "surface": null, "pitch_layout": null, "source": "richmond_structures", "source_updated": "2026-09-08T12:07:13.637000Z", "base_z": null, "top_z": null }, "geometry": { "type": "Polygon", "coordinates": [ [ [ 280588.86, 4160435.92 ], [ 280586.31, 4160437.94 ], [ 280589.44, 4160441.78 ], [ 280592.23, 4160439.62 ], [ 280588.86, 4160435.92 ] ] ] } },
{ "type": "Feature", "properties": { "id": "richmond_structure:252145", "name": null, "kind": "deck", "sport": null, "surface": null, "pitch_layout": null, "source": "richmond_structures", "source_updated": "2026-09-08T12:07:13.637000Z", "base_z": null, "top_z": null }, "geometry": { "type": "Polygon", "coordinates": [ [ [ 280597.89, 4160443.6 ], [ 280600.41, 4160441.61 ], [ 280596.98, 4160437.69 ], [ 280594.72, 4160439.47 ], [ 280597.89, 4160443.6 ] ] ] } },
{ "type": "Feature", "properties": { "id": "richmond_structure:252146", "name": null, "kind": "deck", "sport": null, "surface": null, "pitch_layout": null, "source": "richmond_structures", "source_updated": "2026-09-08T12:07:13.637000Z", "base_z": null, "top_z": null }, "geometry": { "type": "Polygon", "coordinates": [ [ [ 280594.46, 4160446.3 ], [ 280596.85, 4160444.41 ], [ 280593.39, 4160440.52 ], [ 280591.03, 4160442.38 ], [ 280594.46, 4160446.3 ] ] ] } },
{ "type": "Feature", "properties": { "id": "richmond_structure:253447", "name": null, "kind": "deck", "sport": null, "surface": null, "pitch_layout": null, "source": "richmond_structures", "source_updated": "2026-09-08T12:07:13.637000Z", "base_z": null, "top_z": null }, "geometry": { "type": "Polygon", "coordinates": [ [ [ 280582.12, 4160441.26 ], [ 280579.21, 4160443.57 ], [ 280582.24, 4160447.44 ], [ 280585.2, 4160445.06 ], [ 280582.12, 4160441.26 ] ] ] } },
{ "type": "Feature", "properties": { "id": "richmond_structure:252147", "name": null, "kind": "deck", "sport": null, "surface": null, "pitch_layout": null, "source": "richmond_structures", "source_updated": "2026-09-08T12:07:13.637000Z", "base_z": null, "top_z": null }, "geometry": { "type": "Polygon", "coordinates": [ [ [ 280590.72, 4160449.23 ], [ 280593.47, 4160447.07 ], [ 280590.34, 4160442.92 ], [ 280587.25, 4160445.36 ], [ 280590.72, 4160449.23 ] ] ] } },
{ "type": "Feature", "properties": { "id": "richmond_structure:252349", "name": null, "kind": "deck", "sport": null, "surface": null, "pitch_layout": null, "source": "richmond_structures", "source_updated": "2026-09-08T12:07:13.637000Z", "base_z": null, "top_z": null }, "geometry": { "type": "Polygon", "coordinates": [ [ [ 280578.64, 4160444.02 ], [ 280575.86, 4160446.23 ], [ 280578.74, 4160450.11 ], [ 280581.63, 4160447.99 ], [ 280578.64, 4160444.02 ] ] ] } },
{ "type": "Feature", "properties": { "id": "richmond_structure:252148", "name": null, "kind": "deck", "sport": null, "surface": null, "pitch_layout": null, "source": "richmond_structures", "source_updated": "2026-09-08T12:07:13.637000Z", "base_z": null, "top_z": null }, "geometry": { "type": "Polygon", "coordinates": [ [ [ 280587.62, 4160451.67 ], [ 280590.25, 4160449.61 ], [ 280586.79, 4160445.72 ], [ 280584.46, 4160447.55 ], [ 280587.62, 4160451.67 ] ] ] } },
{ "type": "Feature", "properties": { "id": "richmond_structure:252626", "name": null, "kind": "deck", "sport": null, "surface": null, "pitch_layout": null, "source": "richmond_structures", "source_updated": "2026-09-08T12:07:13.637000Z", "base_z": null, "top_z": null }, "geometry": { "type": "Polygon", "coordinates": [ [ [ 280575.2, 4160446.75 ], [ 280572.37, 4160448.99 ], [ 280575.24, 4160452.65 ], [ 280578.12, 4160450.38 ], [ 280575.2, 4160446.75 ] ] ] } },
{ "type": "Feature", "properties": { "id": "richmond_structure:252512", "name": null, "kind": "deck", "sport": null, "surface": null, "pitch_layout": null, "source": "richmond_structures", "source_updated": "2026-09-08T12:07:13.637000Z", "base_z": null, "top_z": null }, "geometry": { "type": "Polygon", "coordinates": [ [ [ 280583.79, 4160448.08 ], [ 280580.77, 4160450.45 ], [ 280584.25, 4160454.33 ], [ 280586.85, 4160452.28 ], [ 280583.79, 4160448.08 ] ] ] } },
{ "type": "Feature", "properties": { "id": "richmond_structure:253262", "name": null, "kind": "deck", "sport": null, "surface": null, "pitch_layout": null, "source": "richmond_structures", "source_updated": "2026-09-08T12:07:13.637000Z", "base_z": null, "top_z": null }, "geometry": { "type": "Polygon", "coordinates": [ [ [ 280569.14, 4160451.55 ], [ 280571.95, 4160455.23 ], [ 280574.88, 4160453.06 ], [ 280571.96, 4160449.32 ], [ 280569.14, 4160451.55 ] ] ] } },
{ "type": "Feature", "properties": { "id": "richmond_structure:252523", "name": null, "kind": "deck", "sport": null, "surface": null, "pitch_layout": null, "source": "richmond_structures", "source_updated": "2026-09-08T12:07:13.637000Z", "base_z": null, "top_z": null }, "geometry": { "type": "Polygon", "coordinates": [ [ [ 280580.69, 4160457.13 ], [ 280583.34, 4160455.05 ], [ 280580.12, 4160450.97 ], [ 280577.46, 4160453.06 ], [ 280580.69, 4160457.13 ] ] ] } },
{ "type": "Feature", "properties": { "id": "richmond_structure:253246", "name": null, "kind": "deck", "sport": null, "surface": null, "pitch_layout": null, "source": "richmond_structures", "source_updated": "2026-09-08T12:07:13.637000Z", "base_z": null, "top_z": null }, "geometry": { "type": "Polygon", "coordinates": [ [ [ 280571.79, 4160455.45 ], [ 280568.82, 4160451.81 ], [ 280565.81, 4160454.19 ], [ 280568.82, 4160457.84 ], [ 280571.79, 4160455.45 ] ] ] } },
{ "type": "Feature", "properties": { "id": "richmond_structure:252235", "name": null, "kind": "deck", "sport": null, "surface": null, "pitch_layout": null, "source": "richmond_structures", "source_updated": "2026-09-08T12:07:13.637000Z", "base_z": null, "top_z": null }, "geometry": { "type": "Polygon", "coordinates": [ [ [ 280577.2, 4160459.87 ], [ 280580.22, 4160457.5 ], [ 280576.95, 4160453.46 ], [ 280574.02, 4160455.77 ], [ 280577.2, 4160459.87 ] ] ] } },
{ "type": "Feature", "properties": { "id": "richmond_structure:252513", "name": null, "kind": "deck", "sport": null, "surface": null, "pitch_layout": null, "source": "richmond_structures", "source_updated": "2026-09-08T12:07:13.637000Z", "base_z": null, "top_z": null }, "geometry": { "type": "Polygon", "coordinates": [ [ [ 280574.05, 4160462.36 ], [ 280576.75, 4160460.23 ], [ 280573.32, 4160456.32 ], [ 280570.84, 4160458.27 ], [ 280574.05, 4160462.36 ] ] ] } },
{ "type": "Feature", "properties": { "id": "richmond_structure:252524", "name": null, "kind": "deck", "sport": null, "surface": null, "pitch_layout": null, "source": "richmond_structures", "source_updated": "2026-09-08T12:07:13.637000Z", "base_z": null, "top_z": null }, "geometry": { "type": "Polygon", "coordinates": [ [ [ 280570.32, 4160458.69 ], [ 280567.4, 4160460.98 ], [ 280570.69, 4160465.0 ], [ 280573.46, 4160462.82 ], [ 280570.32, 4160458.69 ] ] ] } },
{ "type": "Feature", "properties": { "id": "richmond_structure:253446", "name": null, "kind": "deck", "sport": null, "surface": null, "pitch_layout": null, "source": "richmond_structures", "source_updated": "2026-09-08T12:07:13.637000Z", "base_z": null, "top_z": null }, "geometry": { "type": "Polygon", "coordinates": [ [ [ 280567.24, 4160467.72 ], [ 280570.21, 4160465.38 ], [ 280567.01, 4160461.29 ], [ 280563.92, 4160463.73 ], [ 280567.24, 4160467.72 ] ] ] } },
{ "type": "Feature", "properties": { "id": "richmond_structure:253426", "name": null, "kind": "deck", "sport": null, "surface": null, "pitch_layout": null, "source": "richmond_structures", "source_updated": "2026-09-08T12:07:13.637000Z", "base_z": null, "top_z": null }, "geometry": { "type": "Polygon", "coordinates": [ [ [ 280627.84, 4160474.99 ], [ 280624.79, 4160471.18 ], [ 280622.97, 4160472.62 ], [ 280626.0, 4160476.46 ], [ 280627.84, 4160474.99 ] ] ] } },
{ "type": "Feature", "properties": { "id": "richmond_structure:252511", "name": null, "kind": "deck", "sport": null, "surface": null, "pitch_layout": null, "source": "richmond_structures", "source_updated": "2026-09-08T12:07:13.637000Z", "base_z": null, "top_z": null }, "geometry": { "type": "Polygon", "coordinates": [ [ [ 280632.38, 4160475.03 ], [ 280634.82, 4160477.79 ], [ 280637.6, 4160475.6 ], [ 280635.0, 4160472.89 ], [ 280632.38, 4160475.03 ] ] ] } },
{ "type": "Feature", "properties": { "id": "richmond_structure:253427", "name": null, "kind": "deck", "sport": null, "surface": null, "pitch_layout": null, "source": "richmond_structures", "source_updated": "2026-09-08T12:07:13.637000Z", "base_z": null, "top_z": null }, "geometry": { "type": "Polygon", "coordinates": [ [ [ 280625.39, 4160476.95 ], [ 280622.43, 4160473.05 ], [ 280620.41, 4160474.65 ], [ 280623.58, 4160478.4 ], [ 280625.39, 4160476.95 ] ] ] } },
{ "type": "Feature", "properties": { "id": "richmond_structure:253398", "name": null, "kind": "deck", "sport": null, "surface": null, "pitch_layout": null, "source": "richmond_structures", "source_updated": "2026-09-08T12:07:13.637000Z", "base_z": null, "top_z": null }, "geometry": { "type": "Polygon", "coordinates": [ [ [ 280630.21, 4160474.78 ], [ 280628.33, 4160476.28 ], [ 280631.52, 4160480.4 ], [ 280633.43, 4160478.88 ], [ 280630.21, 4160474.78 ] ] ] } },
{ "type": "Feature", "properties": { "id": "richmond_structure:252248", "name": null, "kind": "deck", "sport": null, "surface": null, "pitch_layout": null, "source": "richmond_structures", "source_updated": "2026-09-08T12:07:13.637000Z", "base_z": null, "top_z": null }, "geometry": { "type": "Polygon", "coordinates": [ [ [ 280627.96, 4160483.21 ], [ 280629.69, 4160481.84 ], [ 280626.28, 4160477.91 ], [ 280624.46, 4160479.36 ], [ 280627.96, 4160483.21 ] ] ] } },
{ "type": "Feature", "properties": { "id": "richmond_structure:253428", "name": null, "kind": "deck", "sport": null, "surface": null, "pitch_layout": null, "source": "richmond_structures", "source_updated": "2026-09-08T12:07:13.637000Z", "base_z": null, "top_z": null }, "geometry": { "type": "Polygon", "coordinates": [ [ [ 280619.03, 4160482.03 ], [ 280616.07, 4160478.1 ], [ 280613.97, 4160479.76 ], [ 280617.12, 4160483.55 ], [ 280619.03, 4160482.03 ] ] ] } },
{ "type": "Feature", "properties": { "id": "richmond_structure:252623", "name": null, "kind": "deck", "sport": null, "surface": null, "pitch_layout": null, "source": "richmond_structures", "source_updated": "2026-09-08T12:07:13.637000Z", "base_z": null, "top_z": null }, "geometry": { "type": "Polygon", "coordinates": [ [ [ 280621.28, 4160482.42 ], [ 280624.23, 4160486.16 ], [ 280627.22, 4160483.79 ], [ 280624.27, 4160480.05 ], [ 280621.28, 4160482.42 ] ] ] } },
{ "type": "Feature", "properties": { "id": "richmond_structure:253429", "name": null, "kind": "deck", "sport": null, "surface": null, "pitch_layout": null, "source": "richmond_structures", "source_updated": "2026-09-08T12:07:13.637000Z", "base_z": null, "top_z": null }, "geometry": { "type": "Polygon", "coordinates": [ [ [ 280615.84, 4160484.57 ], [ 280612.42, 4160480.99 ], [ 280609.79, 4160483.08 ], [ 280612.75, 4160487.04 ], [ 280615.84, 4160484.57 ] ] ] } },
{ "type": "Feature", "properties": { "id": "richmond_structure:252432", "name": null, "kind": "deck", "sport": null, "surface": null, "pitch_layout": null, "source": "richmond_structures", "source_updated": "2026-09-08T12:07:13.637000Z", "base_z": null, "top_z": null }, "geometry": { "type": "Polygon", "coordinates": [ [ [ 280621.35, 4160488.42 ], [ 280623.34, 4160486.85 ], [ 280620.01, 4160482.92 ], [ 280618.2, 4160484.36 ], [ 280621.35, 4160488.42 ] ] ] } },
{ "type": "Feature", "properties": { "id": "richmond_structure:252625", "name": null, "kind": "deck", "sport": null, "surface": null, "pitch_layout": null, "source": "richmond_structures", "source_updated": "2026-09-08T12:07:13.637000Z", "base_z": null, "top_z": null }, "geometry": { "type": "Polygon", "coordinates": [ [ [ 280609.23, 4160483.52 ], [ 280606.18, 4160485.94 ], [ 280608.52, 4160488.88 ], [ 280611.56, 4160486.46 ], [ 280609.23, 4160483.52 ] ] ] } },
{ "type": "Feature", "properties": { "id": "richmond_structure:252520", "name": null, "kind": "deck", "sport": null, "surface": null, "pitch_layout": null, "source": "richmond_structures", "source_updated": "2026-09-08T12:07:13.637000Z", "base_z": null, "top_z": null }, "geometry": { "type": "Polygon", "coordinates": [ [ [ 280616.8, 4160485.48 ], [ 280615.02, 4160486.9 ], [ 280618.04, 4160491.04 ], [ 280620.01, 4160489.48 ], [ 280616.8, 4160485.48 ] ] ] } },
{ "type": "Feature", "properties": { "id": "richmond_structure:252522", "name": null, "kind": "deck", "sport": null, "surface": null, "pitch_layout": null, "source": "richmond_structures", "source_updated": "2026-09-08T12:07:13.637000Z", "base_z": null, "top_z": null }, "geometry": { "type": "Polygon", "coordinates": [ [ [ 280610.43, 4160490.57 ], [ 280608.11, 4160492.42 ], [ 280611.09, 4160496.53 ], [ 280613.57, 4160494.57 ], [ 280610.43, 4160490.57 ] ] ] } },
{ "type": "Feature", "properties": { "id": "richmond_structure:252234", "name": null, "kind": "deck", "sport": null, "surface": null, "pitch_layout": null, "source": "richmond_structures", "source_updated": "2026-09-08T12:07:13.637000Z", "base_z": null, "top_z": null }, "geometry": { "type": "Polygon", "coordinates": [ [ [ 280607.93, 4160499.02 ], [ 280610.12, 4160497.3 ], [ 280606.7, 4160493.54 ], [ 280604.69, 4160495.15 ], [ 280607.93, 4160499.02 ] ] ] } },
{ "type": "Feature", "properties": { "id": "richmond_structure:252100", "name": null, "kind": "deck", "sport": null, "surface": null, "pitch_layout": null, "source": "richmond_structures", "source_updated": "2026-09-08T12:07:13.637000Z", "base_z": null, "top_z": null }, "geometry": { "type": "Polygon", "coordinates": [ [ [ 280608.85, 4160490.16 ], [ 280605.67, 4160486.34 ], [ 280603.15, 4160488.34 ], [ 280606.42, 4160492.1 ], [ 280608.85, 4160490.16 ] ] ] } },
{ "type": "Feature", "properties": { "id": "richmond_structure:253439", "name": null, "kind": "deck", "sport": null, "surface": null, "pitch_layout": null, "source": "richmond_structures", "source_updated": "2026-09-08T12:07:13.637000Z", "base_z": null, "top_z": null }, "geometry": { "type": "Polygon", "coordinates": [ [ [ 280601.83, 4160489.39 ], [ 280599.49, 4160491.24 ], [ 280602.22, 4160495.45 ], [ 280605.1, 4160493.15 ], [ 280601.83, 4160489.39 ] ] ] } },
{ "type": "Feature", "properties": { "id": "richmond_structure:252101", "name": null, "kind": "deck", "sport": null, "surface": null, "pitch_layout": null, "source": "richmond_structures", "source_updated": "2026-09-08T12:07:13.637000Z", "base_z": null, "top_z": null }, "geometry": { "type": "Polygon", "coordinates": [ [ [ 280601.52, 4160496.02 ], [ 280598.19, 4160492.27 ], [ 280595.91, 4160494.08 ], [ 280599.08, 4160497.97 ], [ 280601.52, 4160496.02 ] ] ] } },
{ "type": "Feature", "properties": { "id": "richmond_structure:252624", "name": null, "kind": "deck", "sport": null, "surface": null, "pitch_layout": null, "source": "richmond_structures", "source_updated": "2026-09-08T12:07:13.637000Z", "base_z": null, "top_z": null }, "geometry": { "type": "Polygon", "coordinates": [ [ [ 280597.14, 4160499.52 ], [ 280599.08, 4160497.97 ], [ 280595.91, 4160494.08 ], [ 280593.01, 4160496.38 ], [ 280595.26, 4160499.11 ], [ 280596.2, 4160498.4 ], [ 280597.14, 4160499.52 ] ] ] } },
{ "type": "Feature", "properties": { "id": "richmond_structure:253440", "name": null, "kind": "deck", "sport": null, "surface": null, "pitch_layout": null, "source": "richmond_structures", "source_updated": "2026-09-08T12:07:13.637000Z", "base_z": null, "top_z": null }, "geometry": { "type": "Polygon", "coordinates": [ [ [ 280595.22, 4160500.0 ], [ 280592.54, 4160496.76 ], [ 280589.38, 4160499.26 ], [ 280590.06, 4160500.0 ], [ 280595.22, 4160500.0 ] ] ] } },
{ "type": "Feature", "properties": { "id": "richmond_structure:252433", "name": null, "kind": "deck", "sport": null, "surface": null, "pitch_layout": null, "source": "richmond_structures", "source_updated": "2026-09-08T12:07:13.637000Z", "base_z": null, "top_z": null }, "geometry": { "type": "Polygon", "coordinates": [ [ [ 280598.61, 4160500.0 ], [ 280601.9, 4160500.0 ], [ 280600.68, 4160498.35 ], [ 280598.61, 4160500.0 ] ] ] } },
{ "type": "Feature", "properties": { "id": "imagery:groundcover_lawn:739", "name": null, "kind": "groundcover_lawn", "sport": null, "surface": null, "pitch_layout": null, "source": "vgin_vbmp+naip+lidar2025", "source_updated": null, "base_z": null, "top_z": null }, "geometry": { "type": "MultiPolygon", "coordinates": [ [ [ [ 280532.74, 4160256.63 ], [ 280534.59, 4160256.63 ], [ 280534.59, 4160256.47 ], [ 280537.35, 4160255.73 ], [ 280537.66, 4160252.31 ], [ 280536.35, 4160250.0 ], [ 280526.71, 4160250.0 ], [ 280530.24, 4160255.29 ], [ 280532.74, 4160256.63 ] ] ], [ [ [ 280542.87, 4160274.63 ], [ 280551.0, 4160274.63 ], [ 280551.43, 4160274.69 ], [ 280552.68, 4160275.07 ], [ 280553.07, 4160275.25 ], [ 280558.71, 4160279.01 ], [ 280560.4, 4160277.86 ], [ 280563.2, 4160275.2 ], [ 280563.37, 4160275.05 ], [ 280569.24, 4160270.71 ], [ 280570.85, 4160268.47 ], [ 280572.73, 4160265.32 ], [ 280573.13, 4160264.6 ], [ 280573.13, 4160264.41 ], [ 280572.38, 4160265.8 ], [ 280560.35, 4160275.16 ], [ 280551.81, 4160265.72 ], [ 280565.2, 4160252.35 ], [ 280563.08, 4160250.0 ], [ 280561.34, 4160250.0 ], [ 280559.11, 4160256.69 ], [ 280558.48, 4160257.47 ], [ 280556.06, 4160258.93 ], [ 280555.07, 4160259.12 ], [ 280541.87, 4160256.91 ], [ 280541.81, 4160256.89 ], [ 280537.72, 4160260.16 ], [ 280539.51, 4160270.88 ], [ 280542.87, 4160274.63 ] ] ] ] } },
{ "type": "Feature", "properties": { "id": "osm:way/1123139284", "name": "Humphrey Calder Community Garden", "kind": "park", "sport": null, "surface": null, "pitch_layout": null, "source": null, "source_updated": null, "base_z": null, "top_z": null }, "geometry": { "type": "Polygon", "coordinates": [ [ [ 280572.38, 4160265.8 ], [ 280580.88, 4160250.0 ], [ 280563.08, 4160250.0 ], [ 280565.2, 4160252.35 ], [ 280551.81, 4160265.72 ], [ 280560.35, 4160275.16 ], [ 280572.38, 4160265.8 ] ] ] } },
{ "type": "Feature", "properties": { "id": "richmond_structure:253371", "name": null, "kind": "deck", "sport": null, "surface": null, "pitch_layout": null, "source": "richmond_structures", "source_updated": "2026-09-08T12:07:13.637000Z", "base_z": null, "top_z": null }, "geometry": { "type": "Polygon", "coordinates": [ [ [ 280533.86, 4160366.91 ], [ 280536.6, 4160364.73 ], [ 280532.95, 4160361.09 ], [ 280530.26, 4160363.23 ], [ 280533.86, 4160366.91 ] ] ] } },
{ "type": "Feature", "properties": { "id": "richmond_structure:252078", "name": null, "kind": "deck", "sport": null, "surface": null, "pitch_layout": null, "source": "richmond_structures", "source_updated": "2026-09-08T12:07:13.637000Z", "base_z": null, "top_z": null }, "geometry": { "type": "Polygon", "coordinates": [ [ [ 280565.25, 4160397.26 ], [ 280562.15, 4160393.34 ], [ 280559.27, 4160395.61 ], [ 280562.32, 4160399.6 ], [ 280565.25, 4160397.26 ] ] ] } },
{ "type": "Feature", "properties": { "id": "richmond_structure:253430", "name": null, "kind": "deck", "sport": null, "surface": null, "pitch_layout": null, "source": "richmond_structures", "source_updated": "2026-09-08T12:07:13.637000Z", "base_z": null, "top_z": null }, "geometry": { "type": "Polygon", "coordinates": [ [ [ 280557.37, 4160397.11 ], [ 280555.56, 4160398.53 ], [ 280558.9, 4160402.33 ], [ 280560.55, 4160401.01 ], [ 280557.37, 4160397.11 ] ] ] } },
{ "type": "Feature", "properties": { "id": "richmond_structure:253249", "name": null, "kind": "deck", "sport": null, "surface": null, "pitch_layout": null, "source": "richmond_structures", "source_updated": "2026-09-08T12:07:13.637000Z", "base_z": null, "top_z": null }, "geometry": { "type": "Polygon", "coordinates": [ [ [ 280554.98, 4160398.99 ], [ 280552.45, 4160400.98 ], [ 280555.56, 4160405.0 ], [ 280557.9, 4160403.13 ], [ 280554.98, 4160398.99 ] ] ] } },
{ "type": "Feature", "properties": { "id": "richmond_structure:253329", "name": null, "kind": "deck", "sport": null, "surface": null, "pitch_layout": null, "source": "richmond_structures", "source_updated": "2026-09-08T12:07:13.637000Z", "base_z": null, "top_z": null }, "geometry": { "type": "Polygon", "coordinates": [ [ [ 280564.05, 4160406.63 ], [ 280566.79, 4160404.45 ], [ 280563.65, 4160400.33 ], [ 280560.85, 4160402.57 ], [ 280564.05, 4160406.63 ] ] ] } },
{ "type": "Feature", "properties": { "id": "richmond_structure:253347", "name": null, "kind": "deck", "sport": null, "surface": null, "pitch_layout": null, "source": "richmond_structures", "source_updated": "2026-09-08T12:07:13.637000Z", "base_z": null, "top_z": null }, "geometry": { "type": "Polygon", "coordinates": [ [ [ 280551.34, 4160401.86 ], [ 280549.09, 4160403.63 ], [ 280552.08, 4160407.78 ], [ 280554.61, 4160405.76 ], [ 280551.34, 4160401.86 ] ] ] } },
{ "type": "Feature", "properties": { "id": "richmond_structure:253267", "name": null, "kind": "deck", "sport": null, "surface": null, "pitch_layout": null, "source": "richmond_structures", "source_updated": "2026-09-08T12:07:13.637000Z", "base_z": null, "top_z": null }, "geometry": { "type": "Polygon", "coordinates": [ [ [ 280557.49, 4160405.26 ], [ 280559.11, 4160406.89 ], [ 280560.64, 4160409.34 ], [ 280563.7, 4160406.91 ], [ 280562.37, 4160404.98 ], [ 280560.29, 4160403.02 ], [ 280557.49, 4160405.26 ] ] ] } },
{ "type": "Feature", "properties": { "id": "richmond_structure:253325", "name": null, "kind": "deck", "sport": null, "surface": null, "pitch_layout": null, "source": "richmond_structures", "source_updated": "2026-09-08T12:07:13.637000Z", "base_z": null, "top_z": null }, "geometry": { "type": "Polygon", "coordinates": [ [ [ 280547.32, 4160405.02 ], [ 280545.37, 4160406.56 ], [ 280548.69, 4160410.49 ], [ 280550.35, 4160409.16 ], [ 280547.32, 4160405.02 ] ] ] } },
{ "type": "Feature", "properties": { "id": "richmond_structure:252207", "name": null, "kind": "deck", "sport": null, "surface": null, "pitch_layout": null, "source": "richmond_structures", "source_updated": "2026-09-08T12:07:13.637000Z", "base_z": null, "top_z": null }, "geometry": { "type": "Polygon", "coordinates": [ [ [ 280528.45, 4160362.94 ], [ 280525.14, 4160358.84 ], [ 280522.31, 4160361.1 ], [ 280525.42, 4160365.35 ], [ 280528.45, 4160362.94 ] ] ] } },
{ "type": "Feature", "properties": { "id": "richmond_structure:252217", "name": null, "kind": "deck", "sport": null, "surface": null, "pitch_layout": null, "source": "richmond_structures", "source_updated": "2026-09-08T12:07:13.637000Z", "base_z": null, "top_z": null }, "geometry": { "type": "Polygon", "coordinates": [ [ [ 280524.91, 4160365.76 ], [ 280521.61, 4160361.66 ], [ 280518.53, 4160364.1 ], [ 280521.79, 4160368.23 ], [ 280524.91, 4160365.76 ] ] ] } },
{ "type": "Feature", "properties": { "id": "richmond_structure:253251", "name": null, "kind": "deck", "sport": null, "surface": null, "pitch_layout": null, "source": "richmond_structures", "source_updated": "2026-09-08T12:07:13.637000Z", "base_z": null, "top_z": null }, "geometry": { "type": "Polygon", "coordinates": [ [ [ 280530.45, 4160369.62 ], [ 280533.17, 4160367.46 ], [ 280529.8, 4160363.6 ], [ 280527.13, 4160365.72 ], [ 280530.45, 4160369.62 ] ] ] } },
{ "type": "Feature", "properties": { "id": "richmond_structure:252424", "name": null, "kind": "deck", "sport": null, "surface": null, "pitch_layout": null, "source": "richmond_structures", "source_updated": "2026-09-08T12:07:13.637000Z", "base_z": null, "top_z": null }, "geometry": { "type": "Polygon", "coordinates": [ [ [ 280521.33, 4160368.59 ], [ 280517.87, 4160364.63 ], [ 280515.99, 4160366.13 ], [ 280519.18, 4160370.3 ], [ 280521.33, 4160368.59 ] ] ] } },
{ "type": "Feature", "properties": { "id": "richmond_structure:253314", "name": null, "kind": "deck", "sport": null, "surface": null, "pitch_layout": null, "source": "richmond_structures", "source_updated": "2026-09-08T12:07:13.637000Z", "base_z": null, "top_z": null }, "geometry": { "type": "Polygon", "coordinates": [ [ [ 280527.15, 4160372.24 ], [ 280529.92, 4160370.03 ], [ 280526.63, 4160366.13 ], [ 280523.61, 4160368.53 ], [ 280527.15, 4160372.24 ] ] ] } },
{ "type": "Feature", "properties": { "id": "richmond_structure:252218", "name": null, "kind": "deck", "sport": null, "surface": null, "pitch_layout": null, "source": "richmond_structures", "source_updated": "2026-09-08T12:07:13.637000Z", "base_z": null, "top_z": null }, "geometry": { "type": "Polygon", "coordinates": [ [ [ 280518.42, 4160370.9 ], [ 280515.24, 4160366.73 ], [ 280512.33, 4160369.05 ], [ 280515.46, 4160373.25 ], [ 280518.42, 4160370.9 ] ] ] } },
{ "type": "Feature", "properties": { "id": "richmond_structure:253348", "name": null, "kind": "deck", "sport": null, "surface": null, "pitch_layout": null, "source": "richmond_structures", "source_updated": "2026-09-08T12:07:13.637000Z", "base_z": null, "top_z": null }, "geometry": { "type": "Polygon", "coordinates": [ [ [ 280523.65, 4160375.01 ], [ 280526.64, 4160372.64 ], [ 280523.25, 4160368.82 ], [ 280520.27, 4160371.2 ], [ 280523.65, 4160375.01 ] ] ] } },
{ "type": "Feature", "properties": { "id": "richmond_structure:252425", "name": null, "kind": "deck", "sport": null, "surface": null, "pitch_layout": null, "source": "richmond_structures", "source_updated": "2026-09-08T12:07:13.637000Z", "base_z": null, "top_z": null }, "geometry": { "type": "Polygon", "coordinates": [ [ [ 280514.96, 4160373.65 ], [ 280511.62, 4160369.61 ], [ 280509.35, 4160371.42 ], [ 280512.62, 4160375.5 ], [ 280514.96, 4160373.65 ] ] ] } },
{ "type": "Feature", "properties": { "id": "richmond_structure:252216", "name": null, "kind": "deck", "sport": null, "surface": null, "pitch_layout": null, "source": "richmond_structures", "source_updated": "2026-09-08T12:07:13.637000Z", "base_z": null, "top_z": null }, "geometry": { "type": "Polygon", "coordinates": [ [ [ 280512.13, 4160375.9 ], [ 280508.79, 4160371.86 ], [ 280505.61, 4160374.4 ], [ 280509.05, 4160378.34 ], [ 280512.13, 4160375.9 ] ] ] } },
{ "type": "Feature", "properties": { "id": "richmond_structure:253252", "name": null, "kind": "deck", "sport": null, "surface": null, "pitch_layout": null, "source": "richmond_structures", "source_updated": "2026-09-08T12:07:13.637000Z", "base_z": null, "top_z": null }, "geometry": { "type": "Polygon", "coordinates": [ [ [ 280521.08, 4160372.87 ], [ 280518.52, 4160375.02 ], [ 280520.59, 4160377.44 ], [ 280523.22, 4160375.35 ], [ 280521.08, 4160372.87 ] ] ] } },
{ "type": "Feature", "properties": { "id": "richmond_structure:253326", "name": null, "kind": "deck", "sport": null, "surface": null, "pitch_layout": null, "source": "richmond_structures", "source_updated": "2026-09-08T12:07:13.637000Z", "base_z": null, "top_z": null }, "geometry": { "type": "Polygon", "coordinates": [ [ [ 280517.91, 4160375.54 ], [ 280514.98, 4160377.96 ], [ 280516.97, 4160380.31 ], [ 280519.94, 4160377.95 ], [ 280517.91, 4160375.54 ] ] ] } },
{ "type": "Feature", "properties": { "id": "richmond_structure:252244", "name": null, "kind": "deck", "sport": null, "surface": null, "pitch_layout": null, "source": "richmond_structures", "source_updated": "2026-09-08T12:07:13.637000Z", "base_z": null, "top_z": null }, "geometry": { "type": "Polygon", "coordinates": [ [ [ 280508.15, 4160379.06 ], [ 280505.0, 4160374.88 ], [ 280502.23, 4160377.09 ], [ 280505.56, 4160381.11 ], [ 280508.15, 4160379.06 ] ] ] } },
{ "type": "Feature", "properties": { "id": "richmond_structure:252542", "name": null, "kind": "deck", "sport": null, "surface": null, "pitch_layout": null, "source": "richmond_structures", "source_updated": "2026-09-08T12:07:13.637000Z", "base_z": null, "top_z": null }, "geometry": { "type": "Polygon", "coordinates": [ [ [ 280500.0, 4160381.48 ], [ 280501.09, 4160382.75 ], [ 280504.18, 4160380.4 ], [ 280501.65, 4160377.55 ], [ 280500.0, 4160378.86 ], [ 280500.0, 4160381.48 ] ] ] } },
{ "type": "Feature", "properties": { "id": "richmond_structure:253349", "name": null, "kind": "deck", "sport": null, "surface": null, "pitch_layout": null, "source": "richmond_structures", "source_updated": "2026-09-08T12:07:13.637000Z", "base_z": null, "top_z": null }, "geometry": { "type": "Polygon", "coordinates": [ [ [ 280514.86, 4160378.7 ], [ 280512.19, 4160380.97 ], [ 280513.9, 4160382.75 ], [ 280516.56, 4160380.64 ], [ 280514.86, 4160378.7 ] ] ] } },
{ "type": "Feature", "properties": { "id": "richmond_structure:415450", "name": null, "kind": "deck", "sport": null, "surface": null, "pitch_layout": null, "source": "richmond_structures", "source_updated": "2026-09-08T12:07:13.637000Z", "base_z": null, "top_z": null }, "geometry": { "type": "Polygon", "coordinates": [ [ [ 280507.94, 4160381.92 ], [ 280510.64, 4160385.34 ], [ 280513.56, 4160383.02 ], [ 280510.48, 4160379.77 ], [ 280507.94, 4160381.92 ] ] ] } },
{ "type": "Feature", "properties": { "id": "richmond_structure:253379", "name": null, "kind": "deck", "sport": null, "surface": null, "pitch_layout": null, "source": "richmond_structures", "source_updated": "2026-09-08T12:07:13.637000Z", "base_z": null, "top_z": null }, "geometry": { "type": "Polygon", "coordinates": [ [ [ 280506.83, 4160381.91 ], [ 280503.97, 4160384.19 ], [ 280507.14, 4160388.12 ], [ 280510.01, 4160385.84 ], [ 280506.83, 4160381.91 ] ] ] } },
{ "type": "Feature", "properties": { "id": "richmond_structure:252245", "name": null, "kind": "deck", "sport": null, "surface": null, "pitch_layout": null, "source": "richmond_structures", "source_updated": "2026-09-08T12:07:13.637000Z", "base_z": null, "top_z": null }, "geometry": { "type": "Polygon", "coordinates": [ [ [ 280506.29, 4160388.79 ], [ 280506.73, 4160388.44 ], [ 280503.31, 4160384.72 ], [ 280500.55, 4160386.92 ], [ 280503.73, 4160390.82 ], [ 280504.7, 4160390.05 ], [ 280503.57, 4160389.16 ], [ 280505.37, 4160388.02 ], [ 280506.29, 4160388.79 ] ] ] } },
{ "type": "Feature", "properties": { "id": "richmond_structure:253330", "name": null, "kind": "deck", "sport": null, "surface": null, "pitch_layout": null, "source": "richmond_structures", "source_updated": "2026-09-08T12:07:13.637000Z", "base_z": null, "top_z": null }, "geometry": { "type": "Polygon", "coordinates": [ [ [ 280501.45, 4160389.02 ], [ 280500.0, 4160390.24 ], [ 280500.0, 4160393.38 ], [ 280500.2, 4160393.63 ], [ 280503.22, 4160391.23 ], [ 280501.45, 4160389.02 ] ] ] } },
{ "type": "Feature", "properties": { "id": "richmond_structure:253365", "name": null, "kind": "deck", "sport": null, "surface": null, "pitch_layout": null, "source": "richmond_structures", "source_updated": "2026-09-08T12:07:13.637000Z", "base_z": null, "top_z": null }, "geometry": { "type": "Polygon", "coordinates": [ [ [ 280535.09, 4160421.36 ], [ 280531.54, 4160417.46 ], [ 280528.98, 4160419.48 ], [ 280532.86, 4160423.13 ], [ 280535.09, 4160421.36 ] ] ] } },
{ "type": "Feature", "properties": { "id": "richmond_structure:253370", "name": null, "kind": "deck", "sport": null, "surface": null, "pitch_layout": null, "source": "richmond_structures", "source_updated": "2026-09-08T12:07:13.637000Z", "base_z": null, "top_z": null }, "geometry": { "type": "Polygon", "coordinates": [ [ [ 280532.32, 4160423.56 ], [ 280528.65, 4160419.74 ], [ 280525.93, 4160421.88 ], [ 280529.53, 4160425.79 ], [ 280532.32, 4160423.56 ] ] ] } },
{ "type": "Feature", "properties": { "id": "richmond_structure:252431", "name": null, "kind": "deck", "sport": null, "surface": null, "pitch_layout": null, "source": "richmond_structures", "source_updated": "2026-09-08T12:07:13.637000Z", "base_z": null, "top_z": null }, "geometry": { "type": "Polygon", "coordinates": [ [ [ 280553.91, 4160408.12 ], [ 280555.56, 4160409.76 ], [ 280557.18, 4160412.09 ], [ 280560.07, 4160409.8 ], [ 280558.53, 4160407.62 ], [ 280556.73, 4160405.86 ], [ 280553.91, 4160408.12 ] ] ] } },
{ "type": "Feature", "properties": { "id": "richmond_structure:252627", "name": null, "kind": "deck", "sport": null, "surface": null, "pitch_layout": null, "source": "richmond_structures", "source_updated": "2026-09-08T12:07:13.637000Z", "base_z": null, "top_z": null }, "geometry": { "type": "Polygon", "coordinates": [ [ [ 280543.58, 4160407.97 ], [ 280542.61, 4160408.74 ], [ 280545.76, 4160412.83 ], [ 280546.89, 4160411.93 ], [ 280543.58, 4160407.97 ] ] ] } },
{ "type": "Feature", "properties": { "id": "richmond_structure:253399", "name": null, "kind": "deck", "sport": null, "surface": null, "pitch_layout": null, "source": "richmond_structures", "source_updated": "2026-09-08T12:07:13.637000Z", "base_z": null, "top_z": null }, "geometry": { "type": "Polygon", "coordinates": [ [ [ 280554.22, 4160414.45 ], [ 280556.72, 4160412.46 ], [ 280553.53, 4160408.42 ], [ 280551.18, 4160410.3 ], [ 280554.22, 4160414.45 ] ] ] } },
{ "type": "Feature", "properties": { "id": "richmond_structure:253281", "name": null, "kind": "deck", "sport": null, "surface": null, "pitch_layout": null, "source": "richmond_structures", "source_updated": "2026-09-08T12:07:13.637000Z", "base_z": null, "top_z": null }, "geometry": { "type": "Polygon", "coordinates": [ [ [ 280539.14, 4160411.47 ], [ 280542.31, 4160415.59 ], [ 280544.8, 4160413.59 ], [ 280541.47, 4160409.64 ], [ 280539.14, 4160411.47 ] ] ] } },
{ "type": "Feature", "properties": { "id": "richmond_structure:252079", "name": null, "kind": "deck", "sport": null, "surface": null, "pitch_layout": null, "source": "richmond_structures", "source_updated": "2026-09-08T12:07:13.637000Z", "base_z": null, "top_z": null }, "geometry": { "type": "Polygon", "coordinates": [ [ [ 280550.66, 4160417.28 ], [ 280553.37, 4160415.12 ], [ 280550.18, 4160411.09 ], [ 280547.57, 4160413.18 ], [ 280550.66, 4160417.28 ] ] ] } },
{ "type": "Feature", "properties": { "id": "richmond_structure:253250", "name": null, "kind": "deck", "sport": null, "surface": null, "pitch_layout": null, "source": "richmond_structures", "source_updated": "2026-09-08T12:07:13.637000Z", "base_z": null, "top_z": null }, "geometry": { "type": "Polygon", "coordinates": [ [ [ 280542.03, 4160415.81 ], [ 280538.57, 4160411.92 ], [ 280535.76, 4160414.13 ], [ 280539.25, 4160418.03 ], [ 280542.03, 4160415.81 ] ] ] } },
{ "type": "Feature", "properties": { "id": "richmond_structure:252080", "name": null, "kind": "deck", "sport": null, "surface": null, "pitch_layout": null, "source": "richmond_structures", "source_updated": "2026-09-08T12:07:13.637000Z", "base_z": null, "top_z": null }, "geometry": { "type": "Polygon", "coordinates": [ [ [ 280547.85, 4160419.51 ], [ 280550.25, 4160417.6 ], [ 280547.03, 4160413.61 ], [ 280544.42, 4160415.7 ], [ 280547.85, 4160419.51 ] ] ] } },
{ "type": "Feature", "properties": { "id": "richmond_structure:253364", "name": null, "kind": "deck", "sport": null, "surface": null, "pitch_layout": null, "source": "richmond_structures", "source_updated": "2026-09-08T12:07:13.637000Z", "base_z": null, "top_z": null }, "geometry": { "type": "Polygon", "coordinates": [ [ [ 280538.8, 4160418.39 ], [ 280535.31, 4160414.49 ], [ 280532.3, 4160416.86 ], [ 280535.85, 4160420.75 ], [ 280538.8, 4160418.39 ] ] ] } },
{ "type": "Feature", "properties": { "id": "richmond_structure:252076", "name": null, "kind": "deck", "sport": null, "surface": null, "pitch_layout": null, "source": "richmond_structures", "source_updated": "2026-09-08T12:07:13.637000Z", "base_z": null, "top_z": null }, "geometry": { "type": "Polygon", "coordinates": [ [ [ 280544.34, 4160422.3 ], [ 280546.68, 4160420.44 ], [ 280543.45, 4160416.47 ], [ 280540.93, 4160418.49 ], [ 280544.34, 4160422.3 ] ] ] } },
{ "type": "Feature", "properties": { "id": "richmond_structure:252102", "name": null, "kind": "deck", "sport": null, "surface": null, "pitch_layout": null, "source": "richmond_structures", "source_updated": "2026-09-08T12:07:13.637000Z", "base_z": null, "top_z": null }, "geometry": { "type": "Polygon", "coordinates": [ [ [ 280541.45, 4160421.02 ], [ 280538.65, 4160423.34 ], [ 280540.47, 4160425.38 ], [ 280543.23, 4160423.18 ], [ 280541.45, 4160421.02 ] ] ] } },
{ "type": "Feature", "properties": { "id": "richmond_structure:252077", "name": null, "kind": "deck", "sport": null, "surface": null, "pitch_layout": null, "source": "richmond_structures", "source_updated": "2026-09-08T12:07:13.637000Z", "base_z": null, "top_z": null }, "geometry": { "type": "Polygon", "coordinates": [ [ [ 280537.2, 4160427.98 ], [ 280539.76, 4160425.94 ], [ 280536.63, 4160421.92 ], [ 280533.99, 4160424.03 ], [ 280537.2, 4160427.98 ] ] ] } },
{ "type": "Feature", "properties": { "id": "richmond_structure:252227", "name": null, "kind": "deck", "sport": null, "surface": null, "pitch_layout": null, "source": "richmond_structures", "source_updated": "2026-09-08T12:07:13.637000Z", "base_z": null, "top_z": null }, "geometry": { "type": "Polygon", "coordinates": [ [ [ 280533.75, 4160430.72 ], [ 280536.73, 4160428.35 ], [ 280533.31, 4160424.58 ], [ 280530.5, 4160426.82 ], [ 280533.75, 4160430.72 ] ] ] } },
{ "type": "Feature", "properties": { "id": "richmond_structure:253300", "name": null, "kind": "deck", "sport": null, "surface": null, "pitch_layout": null, "source": "richmond_structures", "source_updated": "2026-09-08T12:07:13.637000Z", "base_z": null, "top_z": null }, "geometry": { "type": "Polygon", "coordinates": [ [ [ 280568.47, 4160458.68 ], [ 280565.29, 4160454.61 ], [ 280562.81, 4160456.58 ], [ 280566.16, 4160460.5 ], [ 280568.47, 4160458.68 ] ] ] } },
{ "type": "Feature", "properties": { "id": "richmond_structure:253280", "name": null, "kind": "deck", "sport": null, "surface": null, "pitch_layout": null, "source": "richmond_structures", "source_updated": "2026-09-08T12:07:13.637000Z", "base_z": null, "top_z": null }, "geometry": { "type": "Polygon", "coordinates": [ [ [ 280565.54, 4160460.99 ], [ 280562.19, 4160457.06 ], [ 280559.62, 4160459.1 ], [ 280562.99, 4160463.0 ], [ 280565.54, 4160460.99 ] ] ] } },
{ "type": "Feature", "properties": { "id": "richmond_structure:253299", "name": null, "kind": "deck", "sport": null, "surface": null, "pitch_layout": null, "source": "richmond_structures", "source_updated": "2026-09-08T12:07:13.637000Z", "base_z": null, "top_z": null }, "geometry": { "type": "Polygon", "coordinates": [ [ [ 280562.1, 4160463.7 ], [ 280558.84, 4160459.72 ], [ 280555.84, 4160462.1 ], [ 280559.25, 4160465.94 ], [ 280562.1, 4160463.7 ] ] ] } },
{ "type": "Feature", "properties": { "id": "richmond_structure:252138", "name": null, "kind": "deck", "sport": null, "surface": null, "pitch_layout": null, "source": "richmond_structures", "source_updated": "2026-09-08T12:07:13.637000Z", "base_z": null, "top_z": null }, "geometry": { "type": "Polygon", "coordinates": [ [ [ 280563.88, 4160470.36 ], [ 280566.61, 4160468.21 ], [ 280563.57, 4160464.0 ], [ 280560.12, 4160466.72 ], [ 280563.88, 4160470.36 ] ] ] } },
{ "type": "Feature", "properties": { "id": "richmond_structure:252228", "name": null, "kind": "deck", "sport": null, "surface": null, "pitch_layout": null, "source": "richmond_structures", "source_updated": "2026-09-08T12:07:13.637000Z", "base_z": null, "top_z": null }, "geometry": { "type": "Polygon", "coordinates": [ [ [ 280528.71, 4160426.45 ], [ 280525.16, 4160422.49 ], [ 280522.15, 4160424.86 ], [ 280525.77, 4160428.79 ], [ 280528.71, 4160426.45 ] ] ] } },
{ "type": "Feature", "properties": { "id": "richmond_structure:252103", "name": null, "kind": "deck", "sport": null, "surface": null, "pitch_layout": null, "source": "richmond_structures", "source_updated": "2026-09-08T12:07:13.637000Z", "base_z": null, "top_z": null }, "geometry": { "type": "Polygon", "coordinates": [ [ [ 280530.21, 4160433.54 ], [ 280533.05, 4160431.28 ], [ 280529.89, 4160427.3 ], [ 280526.8, 4160429.78 ], [ 280530.21, 4160433.54 ] ] ] } },
{ "type": "Feature", "properties": { "id": "osm:way/659474670", "name": null, "kind": "parking", "sport": null, "surface": null, "pitch_layout": null, "source": null, "source_updated": null, "base_z": null, "top_z": null }, "geometry": { "type": "Polygon", "coordinates": [ [ [ 280502.4, 4160450.08 ], [ 280500.0, 4160451.58 ], [ 280500.0, 4160464.1 ], [ 280508.06, 4160459.03 ], [ 280502.4, 4160450.08 ] ] ] } },
{ "type": "Feature", "properties": { "id": "imagery:groundcover_lawn:275", "name": null, "kind": "groundcover_lawn", "sport": null, "surface": null, "pitch_layout": null, "source": "vgin_vbmp+naip+lidar2025", "source_updated": null, "base_z": null, "top_z": null }, "geometry": { "type": "Polygon", "coordinates": [ [ [ 280513.23, 4160462.01 ], [ 280513.32, 4160462.02 ], [ 280513.42, 4160462.05 ], [ 280513.51, 4160462.08 ], [ 280513.6, 4160462.13 ], [ 280513.68, 4160462.18 ], [ 280513.76, 4160462.24 ], [ 280513.83, 4160462.31 ], [ 280513.89, 4160462.38 ], [ 280513.95, 4160462.46 ], [ 280519.68, 4160471.4 ], [ 280523.79, 4160473.45 ], [ 280528.13, 4160470.77 ], [ 280528.13, 4160469.81 ], [ 280514.45, 4160454.8 ], [ 280511.78, 4160458.74 ], [ 280513.08, 4160462.0 ], [ 280513.13, 4160462.0 ], [ 280513.23, 4160462.01 ] ] ] } },
{ "type": "Feature", "properties": { "id": "osm:way/659474672", "name": null, "kind": "parking", "sport": null, "surface": null, "pitch_layout": null, "source": null, "source_updated": null, "base_z": null, "top_z": null }, "geometry": { "type": "Polygon", "coordinates": [ [ [ 280533.01, 4160488.48 ], [ 280516.09, 4160500.0 ], [ 280541.91, 4160500.0 ], [ 280542.16, 4160495.46 ], [ 280538.34, 4160491.07 ], [ 280533.01, 4160488.48 ] ] ] } },
{ "type": "Feature", "properties": { "id": "imagery:groundcover_lawn:299", "name": null, "kind": "groundcover_lawn", "sport": null, "surface": null, "pitch_layout": null, "source": "vgin_vbmp+naip+lidar2025", "source_updated": null, "base_z": null, "top_z": null }, "geometry": { "type": "MultiPolygon", "coordinates": [ [ [ [ 280503.37, 4160451.63 ], [ 280504.13, 4160451.63 ], [ 280507.13, 4160448.63 ], [ 280507.13, 4160446.5 ], [ 280500.0, 4160438.65 ], [ 280500.0, 4160451.58 ], [ 280502.4, 4160450.08 ], [ 280503.37, 4160451.63 ] ] ], [ [ [ 280550.46, 4160494.54 ], [ 280544.99, 4160493.86 ], [ 280542.59, 4160495.7 ], [ 280542.42, 4160495.82 ], [ 280542.13, 4160496.01 ], [ 280541.91, 4160500.0 ], [ 280553.64, 4160500.0 ], [ 280554.69, 4160499.28 ], [ 280550.46, 4160494.54 ] ] ] ] } }
]
}
