{
"type": "FeatureCollection",
"name": "landuse",
"crs": { "type": "name", "properties": { "name": "urn:ogc:def:crs:EPSG::32618" } },
"xy_coordinate_resolution": 0.01,
"features": [
{ "type": "Feature", "properties": { "id": "imagery:groundcover_paved:2792", "name": null, "kind": "groundcover_paved", "sport": null, "surface": null, "pitch_layout": null, "source": "vgin_vbmp+naip+lidar2025", "source_updated": null, "base_z": null, "top_z": null }, "geometry": { "type": "MultiPolygon", "coordinates": [ [ [ [ 284751.75, 4159489.73 ], [ 284753.3, 4159488.55 ], [ 284753.91, 4159488.27 ], [ 284761.77, 4159486.7 ], [ 284764.79, 4159485.02 ], [ 284768.81, 4159483.11 ], [ 284771.7, 4159478.77 ], [ 284772.39, 4159478.22 ], [ 284774.75, 4159477.31 ], [ 284775.63, 4159477.25 ], [ 284779.24, 4159478.15 ], [ 284786.34, 4159474.78 ], [ 284787.28, 4159471.04 ], [ 284785.52, 4159467.54 ], [ 284784.71, 4159467.2 ], [ 284782.55, 4159465.05 ], [ 284781.9, 4159463.48 ], [ 284781.56, 4159463.62 ], [ 284779.5, 4159461.3 ], [ 284761.5, 4159459.05 ], [ 284758.13, 4159462.02 ], [ 284758.13, 4159476.03 ], [ 284757.71, 4159477.05 ], [ 284755.55, 4159479.2 ], [ 284754.53, 4159479.63 ], [ 284752.73, 4159479.63 ], [ 284751.71, 4159479.2 ], [ 284750.0, 4159477.49 ], [ 284750.0, 4159492.89 ], [ 284751.32, 4159490.24 ], [ 284751.75, 4159489.73 ] ] ], [ [ [ 284761.7, 4159402.35 ], [ 284763.72, 4159394.28 ], [ 284764.0, 4159393.71 ], [ 284765.16, 4159392.26 ], [ 284765.66, 4159391.86 ], [ 284768.23, 4159390.57 ], [ 284769.87, 4159387.52 ], [ 284767.46, 4159368.25 ], [ 284764.48, 4159365.63 ], [ 284758.13, 4159365.63 ], [ 284755.13, 4159368.63 ], [ 284755.13, 4159377.99 ], [ 284754.86, 4159378.85 ], [ 284753.36, 4159380.93 ], [ 284752.63, 4159381.46 ], [ 284750.0, 4159382.34 ], [ 284750.0, 4159404.63 ], [ 284758.79, 4159404.63 ], [ 284761.7, 4159402.35 ] ] ] ] } },
{ "type": "Feature", "properties": { "id": "imagery:groundcover_lawn:1847", "name": null, "kind": "groundcover_lawn", "sport": null, "surface": null, "pitch_layout": null, "source": "vgin_vbmp+naip+lidar2025", "source_updated": null, "base_z": null, "top_z": null }, "geometry": { "type": "Polygon", "coordinates": [ [ [ 284841.33, 4159257.37 ], [ 284842.43, 4159258.41 ], [ 284842.73, 4159258.82 ], [ 284844.51, 4159262.39 ], [ 284846.47, 4159263.96 ], [ 284855.74, 4159266.28 ], [ 284856.23, 4159266.5 ], [ 284857.55, 4159267.43 ], [ 284857.93, 4159267.82 ], [ 284862.24, 4159274.29 ], [ 284864.74, 4159275.63 ], [ 284870.59, 4159275.63 ], [ 284871.16, 4159275.74 ], [ 284872.74, 4159276.39 ], [ 284873.22, 4159276.71 ], [ 284880.25, 4159283.75 ], [ 284882.37, 4159284.63 ], [ 284904.67, 4159284.63 ], [ 284904.85, 4159284.64 ], [ 284905.4, 4159284.7 ], [ 284905.58, 4159284.74 ], [ 284914.37, 4159286.94 ], [ 284915.17, 4159287.45 ], [ 284916.82, 4159289.57 ], [ 284917.29, 4159290.94 ], [ 284917.63, 4159290.83 ], [ 284920.38, 4159293.35 ], [ 284952.89, 4159290.65 ], [ 284953.37, 4159290.57 ], [ 284976.33, 4159284.83 ], [ 284977.72, 4159284.04 ], [ 284982.25, 4159279.5 ], [ 284982.64, 4159279.22 ], [ 284983.9, 4159278.59 ], [ 284984.36, 4159278.45 ], [ 285000.0, 4159276.22 ], [ 285000.0, 4159250.0 ], [ 284824.97, 4159250.0 ], [ 284840.91, 4159257.08 ], [ 284841.33, 4159257.37 ] ] ] } },
{ "type": "Feature", "properties": { "id": "imagery:groundcover_paved:1297", "name": null, "kind": "groundcover_paved", "sport": null, "surface": null, "pitch_layout": null, "source": "vgin_vbmp+naip+lidar2025", "source_updated": null, "base_z": null, "top_z": null }, "geometry": { "type": "Polygon", "coordinates": [ [ [ 284750.69, 4159251.15 ], [ 284751.91, 4159253.12 ], [ 284752.13, 4159253.9 ], [ 284752.13, 4159258.46 ], [ 284754.18, 4159261.31 ], [ 284769.67, 4159266.47 ], [ 284770.62, 4159266.63 ], [ 284790.53, 4159266.63 ], [ 284791.55, 4159267.05 ], [ 284793.71, 4159269.2 ], [ 284794.13, 4159270.22 ], [ 284794.13, 4159273.77 ], [ 284795.79, 4159276.45 ], [ 284799.94, 4159278.53 ], [ 284800.33, 4159278.69 ], [ 284835.67, 4159290.47 ], [ 284836.62, 4159290.63 ], [ 284850.42, 4159290.63 ], [ 284851.76, 4159290.31 ], [ 284857.16, 4159287.61 ], [ 284856.93, 4159282.14 ], [ 284833.84, 4159272.91 ], [ 284833.58, 4159272.77 ], [ 284832.82, 4159272.27 ], [ 284832.59, 4159272.08 ], [ 284824.75, 4159264.25 ], [ 284823.27, 4159263.44 ], [ 284761.45, 4159250.0 ], [ 284750.0, 4159250.0 ], [ 284750.0, 4159250.56 ], [ 284750.1, 4159250.61 ], [ 284750.69, 4159251.15 ] ] ] } },
{ "type": "Feature", "properties": { "id": "imagery:groundcover_paved:1252", "name": null, "kind": "groundcover_paved", "sport": null, "surface": null, "pitch_layout": null, "source": "vgin_vbmp+naip+lidar2025", "source_updated": null, "base_z": null, "top_z": null }, "geometry": { "type": "MultiPolygon", "coordinates": [ [ [ [ 284941.28, 4159302.35 ], [ 285000.0, 4159297.25 ], [ 285000.0, 4159276.22 ], [ 284984.12, 4159278.48 ], [ 284982.42, 4159279.33 ], [ 284977.86, 4159283.89 ], [ 284977.54, 4159284.14 ], [ 284976.5, 4159284.73 ], [ 284976.13, 4159284.88 ], [ 284953.38, 4159290.56 ], [ 284953.28, 4159290.59 ], [ 284952.98, 4159290.64 ], [ 284952.88, 4159290.65 ], [ 284937.73, 4159292.34 ], [ 284935.94, 4159297.44 ], [ 284937.71, 4159299.2 ], [ 284938.25, 4159300.51 ], [ 284941.28, 4159302.35 ] ] ], [ [ [ 284895.36, 4159290.75 ], [ 284895.67, 4159290.73 ], [ 284896.58, 4159290.77 ], [ 284896.89, 4159290.81 ], [ 284914.05, 4159295.11 ], [ 284917.55, 4159291.05 ], [ 284917.13, 4159290.03 ], [ 284917.13, 4159289.97 ], [ 284914.86, 4159287.06 ], [ 284905.49, 4159284.72 ], [ 284904.76, 4159284.63 ], [ 284887.62, 4159284.63 ], [ 284886.67, 4159284.78 ], [ 284880.03, 4159286.99 ], [ 284878.03, 4159290.43 ], [ 284878.08, 4159290.69 ], [ 284881.52, 4159293.06 ], [ 284895.36, 4159290.75 ] ] ] ] } },
{ "type": "Feature", "properties": { "id": "imagery:groundcover_lawn:1225", "name": null, "kind": "groundcover_lawn", "sport": null, "surface": null, "pitch_layout": null, "source": "vgin_vbmp+naip+lidar2025", "source_updated": null, "base_z": null, "top_z": null }, "geometry": { "type": "Polygon", "coordinates": [ [ [ 284930.47, 4159309.52 ], [ 284937.38, 4159314.12 ], [ 284939.04, 4159314.63 ], [ 284955.59, 4159314.63 ], [ 284956.64, 4159314.43 ], [ 284966.87, 4159310.6 ], [ 284968.78, 4159307.34 ], [ 284965.99, 4159304.79 ], [ 284932.31, 4159302.81 ], [ 284929.13, 4159305.81 ], [ 284929.13, 4159307.02 ], [ 284930.47, 4159309.52 ] ] ] } },
{ "type": "Feature", "properties": { "id": "imagery:groundcover_bare:1164", "name": null, "kind": "groundcover_bare", "sport": null, "surface": null, "pitch_layout": null, "source": "vgin_vbmp+naip+lidar2025", "source_updated": null, "base_z": null, "top_z": null }, "geometry": { "type": "Polygon", "coordinates": [ [ [ 284781.14, 4159401.05 ], [ 284781.64, 4159392.63 ], [ 284779.73, 4159392.63 ], [ 284778.71, 4159392.2 ], [ 284776.55, 4159390.05 ], [ 284776.13, 4159389.03 ], [ 284776.13, 4159387.77 ], [ 284773.55, 4159384.8 ], [ 284770.25, 4159386.95 ], [ 284769.91, 4159388.13 ], [ 284768.69, 4159390.1 ], [ 284768.1, 4159390.64 ], [ 284765.79, 4159391.8 ], [ 284764.13, 4159394.48 ], [ 284764.13, 4159396.02 ], [ 284766.71, 4159398.99 ], [ 284781.14, 4159401.05 ] ] ] } },
{ "type": "Feature", "properties": { "id": "imagery:groundcover_bare:1117", "name": null, "kind": "groundcover_bare", "sport": null, "surface": null, "pitch_layout": null, "source": "vgin_vbmp+naip+lidar2025", "source_updated": null, "base_z": null, "top_z": null }, "geometry": { "type": "Polygon", "coordinates": [ [ [ 284793.53, 4159455.63 ], [ 284794.55, 4159456.05 ], [ 284796.71, 4159458.2 ], [ 284797.13, 4159459.22 ], [ 284797.13, 4159467.63 ], [ 284798.51, 4159469.0 ], [ 284816.13, 4159460.63 ], [ 284817.1, 4159459.66 ], [ 284815.53, 4159432.7 ], [ 284813.53, 4159431.63 ], [ 284811.47, 4159431.63 ], [ 284808.56, 4159433.9 ], [ 284806.71, 4159441.29 ], [ 284806.29, 4159442.01 ], [ 284804.51, 4159443.65 ], [ 284803.76, 4159444.02 ], [ 284790.64, 4159446.21 ], [ 284788.13, 4159449.17 ], [ 284788.13, 4159452.63 ], [ 284791.13, 4159455.63 ], [ 284793.53, 4159455.63 ] ] ] } },
{ "type": "Feature", "properties": { "id": "osm:way/1200850684", "name": null, "kind": "forest", "sport": null, "surface": null, "pitch_layout": null, "source": null, "source_updated": null, "base_z": null, "top_z": null }, "geometry": { "type": "Polygon", "coordinates": [ [ [ 285000.0, 4159490.84 ], [ 285000.0, 4159321.4 ], [ 284972.89, 4159329.84 ], [ 284932.18, 4159332.68 ], [ 284866.14, 4159305.88 ], [ 284750.0, 4159272.76 ], [ 284750.0, 4159342.29 ], [ 284766.41, 4159345.67 ], [ 284786.11, 4159340.21 ], [ 284783.46, 4159362.05 ], [ 284778.98, 4159437.24 ], [ 284801.58, 4159439.73 ], [ 284812.54, 4159381.33 ], [ 284817.13, 4159460.16 ], [ 284764.79, 4159485.02 ], [ 284750.0, 4159493.22 ], [ 284750.0, 4159500.0 ], [ 284968.75, 4159500.0 ], [ 284967.34, 4159488.84 ], [ 285000.0, 4159490.84 ] ] ] } },
{ "type": "Feature", "properties": { "id": "imagery:groundcover_lawn:1322", "name": null, "kind": "groundcover_lawn", "sport": null, "surface": null, "pitch_layout": null, "source": "vgin_vbmp+naip+lidar2025", "source_updated": null, "base_z": null, "top_z": null }, "geometry": { "type": "MultiPolygon", "coordinates": [ [ [ [ 284995.85, 4159306.21 ], [ 284997.43, 4159314.1 ], [ 284997.21, 4159315.18 ], [ 284995.52, 4159317.72 ], [ 284994.6, 4159318.33 ], [ 284939.82, 4159329.29 ], [ 284939.18, 4159329.27 ], [ 284937.36, 4159328.83 ], [ 284936.78, 4159328.55 ], [ 284923.64, 4159318.03 ], [ 284922.5, 4159317.47 ], [ 284912.78, 4159315.04 ], [ 284912.22, 4159314.76 ], [ 284910.77, 4159313.59 ], [ 284910.37, 4159313.1 ], [ 284908.81, 4159309.99 ], [ 284906.62, 4159308.37 ], [ 284893.16, 4159306.13 ], [ 284892.29, 4159305.64 ], [ 284890.48, 4159303.49 ], [ 284890.13, 4159302.55 ], [ 284890.13, 4159302.17 ], [ 284887.62, 4159299.21 ], [ 284836.42, 4159290.67 ], [ 284836.31, 4159290.65 ], [ 284835.96, 4159290.57 ], [ 284835.85, 4159290.53 ], [ 284800.61, 4159278.78 ], [ 284800.42, 4159278.71 ], [ 284799.89, 4159278.45 ], [ 284799.71, 4159278.35 ], [ 284782.89, 4159267.13 ], [ 284781.22, 4159266.63 ], [ 284770.81, 4159266.63 ], [ 284770.54, 4159266.6 ], [ 284769.75, 4159266.46 ], [ 284769.5, 4159266.39 ], [ 284750.0, 4159259.08 ], [ 284750.0, 4159272.76 ], [ 284866.14, 4159305.88 ], [ 284932.18, 4159332.68 ], [ 284972.89, 4159329.84 ], [ 285000.0, 4159321.4 ], [ 285000.0, 4159302.63 ], [ 284998.79, 4159302.63 ], [ 284995.85, 4159306.21 ] ] ], [ [ [ 284755.13, 4159378.46 ], [ 284755.13, 4159369.22 ], [ 284755.55, 4159368.2 ], [ 284757.71, 4159366.05 ], [ 284758.73, 4159365.63 ], [ 284763.53, 4159365.63 ], [ 284764.55, 4159366.05 ], [ 284766.71, 4159368.2 ], [ 284767.13, 4159369.22 ], [ 284767.13, 4159372.17 ], [ 284769.54, 4159375.11 ], [ 284779.42, 4159377.08 ], [ 284780.23, 4159377.55 ], [ 284781.98, 4159379.52 ], [ 284782.34, 4159380.38 ], [ 284782.36, 4159380.58 ], [ 284783.46, 4159362.05 ], [ 284786.11, 4159340.21 ], [ 284766.41, 4159345.67 ], [ 284750.0, 4159342.29 ], [ 284750.0, 4159382.34 ], [ 284753.08, 4159381.31 ], [ 284755.13, 4159378.46 ] ] ], [ [ [ 284750.0, 4159478.47 ], [ 284751.82, 4159479.63 ], [ 284755.13, 4159479.63 ], [ 284758.13, 4159476.63 ], [ 284758.13, 4159462.62 ], [ 284758.61, 4159461.55 ], [ 284760.99, 4159459.42 ], [ 284762.1, 4159459.07 ], [ 284782.4, 4159461.32 ], [ 284785.67, 4159458.93 ], [ 284787.65, 4159449.02 ], [ 284788.05, 4159448.27 ], [ 284789.78, 4159446.55 ], [ 284790.53, 4159446.15 ], [ 284801.27, 4159444.0 ], [ 284803.59, 4159441.78 ], [ 284805.26, 4159435.11 ], [ 284805.92, 4159434.23 ], [ 284808.53, 4159432.66 ], [ 284809.62, 4159432.5 ], [ 284815.6, 4159433.99 ], [ 284812.54, 4159381.33 ], [ 284801.58, 4159439.73 ], [ 284778.98, 4159437.24 ], [ 284780.28, 4159415.44 ], [ 284779.12, 4159414.46 ], [ 284778.63, 4159413.59 ], [ 284776.55, 4159401.13 ], [ 284773.59, 4159398.63 ], [ 284765.99, 4159398.63 ], [ 284763.3, 4159400.28 ], [ 284762.15, 4159402.59 ], [ 284761.6, 4159403.19 ], [ 284759.63, 4159404.41 ], [ 284758.86, 4159404.63 ], [ 284750.0, 4159404.63 ], [ 284750.0, 4159478.47 ] ] ], [ [ [ 284968.75, 4159500.0 ], [ 285000.0, 4159500.0 ], [ 285000.0, 4159490.84 ], [ 284967.34, 4159488.84 ], [ 284968.75, 4159500.0 ] ] ] ] } }
]
}
