{
"type": "FeatureCollection",
"name": "wires",
"crs": { "type": "name", "properties": { "name": "urn:ogc:def:crs:EPSG::32618" } },
"xy_coordinate_resolution": 0.01,
"features": [
{ "type": "Feature", "properties": { "id": "wire:14135-14145", "h0": 8.84, "h1": 10.0, "z0": 5.81, "z1": 5.8 }, "geometry": { "type": "LineString", "coordinates": [ [ 285923.75, 4156196.9 ], [ 285895.47, 4156222.28 ] ] } },
{ "type": "Feature", "properties": { "id": "wire:14145-14152", "h0": 10.0, "h1": 8.84, "z0": 5.8, "z1": 5.89 }, "geometry": { "type": "LineString", "coordinates": [ [ 285895.47, 4156222.28 ], [ 285866.19, 4156248.56 ] ] } }
]
}
