{
"type": "FeatureCollection",
"name": "pois",
"crs": { "type": "name", "properties": { "name": "urn:ogc:def:crs:EPSG::32618" } },
"xy_coordinate_resolution": 0.01,
"features": [
{ "type": "Feature", "properties": { "id": "lidar-tree:284704:4159252", "name": null, "kind": "tree", "species": null, "source": "lidar2025", "tree_height": 9.2, "crown_radius": 3.1, "height_source": "lidar2025" }, "geometry": { "type": "Point", "coordinates": [ 284703.5, 4159251.5 ] } },
{ "type": "Feature", "properties": { "id": "lidar-tree:284692:4159254", "name": null, "kind": "tree", "species": null, "source": "lidar2025", "tree_height": 5.2, "crown_radius": 4.0, "height_source": "lidar2025" }, "geometry": { "type": "Point", "coordinates": [ 284692.5, 4159253.5 ] } },
{ "type": "Feature", "properties": { "id": "lidar-tree:284700:4159260", "name": null, "kind": "tree", "species": null, "source": "lidar2025", "tree_height": 11.2, "crown_radius": 2.6, "height_source": "lidar2025" }, "geometry": { "type": "Point", "coordinates": [ 284699.5, 4159259.5 ] } },
{ "type": "Feature", "properties": { "id": "lidar-tree:284724:4159276", "name": null, "kind": "tree", "species": null, "source": "lidar2025", "tree_height": 25.4, "crown_radius": 6.0, "height_source": "lidar2025" }, "geometry": { "type": "Point", "coordinates": [ 284724.5, 4159276.5 ] } },
{ "type": "Feature", "properties": { "id": "lidar-tree:284692:4159276", "name": null, "kind": "tree", "species": null, "source": "lidar2025", "tree_height": 27.7, "crown_radius": 6.0, "height_source": "lidar2025" }, "geometry": { "type": "Point", "coordinates": [ 284692.5, 4159276.5 ] } },
{ "type": "Feature", "properties": { "id": "lidar-tree:284748:4159282", "name": null, "kind": "tree", "species": null, "source": "lidar2025", "tree_height": 19.6, "crown_radius": 6.0, "height_source": "lidar2025" }, "geometry": { "type": "Point", "coordinates": [ 284747.5, 4159282.5 ] } },
{ "type": "Feature", "properties": { "id": "lidar-tree:284662:4159254", "name": null, "kind": "tree", "species": null, "source": "lidar2025", "tree_height": 24.6, "crown_radius": 6.0, "height_source": "lidar2025" }, "geometry": { "type": "Point", "coordinates": [ 284662.5, 4159253.5 ] } },
{ "type": "Feature", "properties": { "id": "lidar-tree:284678:4159256", "name": null, "kind": "tree", "species": null, "source": "lidar2025", "tree_height": 18.9, "crown_radius": 6.0, "height_source": "lidar2025" }, "geometry": { "type": "Point", "coordinates": [ 284678.5, 4159255.5 ] } },
{ "type": "Feature", "properties": { "id": "lidar-tree:284608:4159256", "name": null, "kind": "tree", "species": null, "source": "lidar2025", "tree_height": 6.8, "crown_radius": 6.0, "height_source": "lidar2025" }, "geometry": { "type": "Point", "coordinates": [ 284607.5, 4159255.5 ] } },
{ "type": "Feature", "properties": { "id": "lidar-tree:284634:4159256", "name": null, "kind": "tree", "species": null, "source": "lidar2025", "tree_height": 13.5, "crown_radius": 6.0, "height_source": "lidar2025" }, "geometry": { "type": "Point", "coordinates": [ 284634.5, 4159256.5 ] } },
{ "type": "Feature", "properties": { "id": "lidar-tree:284616:4159262", "name": null, "kind": "tree", "species": null, "source": "lidar2025", "tree_height": 12.2, "crown_radius": 6.0, "height_source": "lidar2025" }, "geometry": { "type": "Point", "coordinates": [ 284616.5, 4159261.5 ] } },
{ "type": "Feature", "properties": { "id": "lidar-tree:284670:4159274", "name": null, "kind": "tree", "species": null, "source": "lidar2025", "tree_height": 30.5, "crown_radius": 6.0, "height_source": "lidar2025" }, "geometry": { "type": "Point", "coordinates": [ 284669.5, 4159274.5 ] } },
{ "type": "Feature", "properties": { "id": "lidar-tree:284546:4159252", "name": null, "kind": "tree", "species": null, "source": "lidar2025", "tree_height": 10.8, "crown_radius": 5.0, "height_source": "lidar2025" }, "geometry": { "type": "Point", "coordinates": [ 284545.5, 4159251.5 ] } },
{ "type": "Feature", "properties": { "id": "lidar-tree:284574:4159266", "name": null, "kind": "tree", "species": null, "source": "lidar2025", "tree_height": 5.3, "crown_radius": 1.7, "height_source": "lidar2025" }, "geometry": { "type": "Point", "coordinates": [ 284574.5, 4159265.5 ] } },
{ "type": "Feature", "properties": { "id": "lidar-tree:284584:4159266", "name": null, "kind": "tree", "species": null, "source": "lidar2025", "tree_height": 7.1, "crown_radius": 2.3, "height_source": "lidar2025" }, "geometry": { "type": "Point", "coordinates": [ 284584.5, 4159266.5 ] } },
{ "type": "Feature", "properties": { "id": "lidar-tree:284540:4159268", "name": null, "kind": "tree", "species": null, "source": "lidar2025", "tree_height": 16.7, "crown_radius": 5.3, "height_source": "lidar2025" }, "geometry": { "type": "Point", "coordinates": [ 284540.5, 4159268.5 ] } },
{ "type": "Feature", "properties": { "id": "lidar-tree:284534:4159268", "name": null, "kind": "tree", "species": null, "source": "lidar2025", "tree_height": 13.3, "crown_radius": 4.6, "height_source": "lidar2025" }, "geometry": { "type": "Point", "coordinates": [ 284533.5, 4159268.5 ] } },
{ "type": "Feature", "properties": { "id": "lidar-tree:284566:4159280", "name": null, "kind": "tree", "species": null, "source": "lidar2025", "tree_height": 27.3, "crown_radius": 6.0, "height_source": "lidar2025" }, "geometry": { "type": "Point", "coordinates": [ 284566.5, 4159280.5 ] } },
{ "type": "Feature", "properties": { "id": "lidar-tree:284650:4159280", "name": null, "kind": "tree", "species": null, "source": "lidar2025", "tree_height": 28.1, "crown_radius": 6.0, "height_source": "lidar2025" }, "geometry": { "type": "Point", "coordinates": [ 284649.5, 4159279.5 ] } },
{ "type": "Feature", "properties": { "id": "lidar-tree:284622:4159286", "name": null, "kind": "tree", "species": null, "source": "lidar2025", "tree_height": 16.5, "crown_radius": 6.0, "height_source": "lidar2025" }, "geometry": { "type": "Point", "coordinates": [ 284622.5, 4159285.5 ] } },
{ "type": "Feature", "properties": { "id": "lidar-tree:284632:4159286", "name": null, "kind": "tree", "species": null, "source": "lidar2025", "tree_height": 15.6, "crown_radius": 6.0, "height_source": "lidar2025" }, "geometry": { "type": "Point", "coordinates": [ 284631.5, 4159286.5 ] } },
{ "type": "Feature", "properties": { "id": "lidar-tree:284666:4159288", "name": null, "kind": "tree", "species": null, "source": "lidar2025", "tree_height": 19.3, "crown_radius": 6.0, "height_source": "lidar2025" }, "geometry": { "type": "Point", "coordinates": [ 284666.5, 4159288.5 ] } },
{ "type": "Feature", "properties": { "id": "lidar-tree:284608:4159290", "name": null, "kind": "tree", "species": null, "source": "lidar2025", "tree_height": 16.3, "crown_radius": 6.0, "height_source": "lidar2025" }, "geometry": { "type": "Point", "coordinates": [ 284607.5, 4159289.5 ] } },
{ "type": "Feature", "properties": { "id": "lidar-tree:284656:4159300", "name": null, "kind": "tree", "species": null, "source": "lidar2025", "tree_height": 17.8, "crown_radius": 6.0, "height_source": "lidar2025" }, "geometry": { "type": "Point", "coordinates": [ 284655.5, 4159299.5 ] } },
{ "type": "Feature", "properties": { "id": "lidar-tree:284608:4159300", "name": null, "kind": "tree", "species": null, "source": "lidar2025", "tree_height": 7.8, "crown_radius": 5.4, "height_source": "lidar2025" }, "geometry": { "type": "Point", "coordinates": [ 284608.5, 4159300.5 ] } },
{ "type": "Feature", "properties": { "id": "lidar-tree:284676:4159302", "name": null, "kind": "tree", "species": null, "source": "lidar2025", "tree_height": 12.5, "crown_radius": 6.0, "height_source": "lidar2025" }, "geometry": { "type": "Point", "coordinates": [ 284675.5, 4159302.5 ] } },
{ "type": "Feature", "properties": { "id": "lidar-tree:284666:4159306", "name": null, "kind": "tree", "species": null, "source": "lidar2025", "tree_height": 11.3, "crown_radius": 6.0, "height_source": "lidar2025" }, "geometry": { "type": "Point", "coordinates": [ 284666.5, 4159306.5 ] } },
{ "type": "Feature", "properties": { "id": "lidar-tree:284632:4159310", "name": null, "kind": "tree", "species": null, "source": "lidar2025", "tree_height": 4.2, "crown_radius": 2.6, "height_source": "lidar2025" }, "geometry": { "type": "Point", "coordinates": [ 284632.5, 4159310.5 ] } },
{ "type": "Feature", "properties": { "id": "lidar-tree:284698:4159284", "name": null, "kind": "tree", "species": null, "source": "lidar2025", "tree_height": 25.3, "crown_radius": 6.0, "height_source": "lidar2025" }, "geometry": { "type": "Point", "coordinates": [ 284698.5, 4159283.5 ] } },
{ "type": "Feature", "properties": { "id": "lidar-tree:284740:4159286", "name": null, "kind": "tree", "species": null, "source": "lidar2025", "tree_height": 20.7, "crown_radius": 6.0, "height_source": "lidar2025" }, "geometry": { "type": "Point", "coordinates": [ 284739.5, 4159285.5 ] } },
{ "type": "Feature", "properties": { "id": "lidar-tree:284738:4159296", "name": null, "kind": "tree", "species": null, "source": "lidar2025", "tree_height": 24.1, "crown_radius": 6.0, "height_source": "lidar2025" }, "geometry": { "type": "Point", "coordinates": [ 284737.5, 4159295.5 ] } },
{ "type": "Feature", "properties": { "id": "lidar-tree:284688:4159300", "name": null, "kind": "tree", "species": null, "source": "lidar2025", "tree_height": 16.9, "crown_radius": 6.0, "height_source": "lidar2025" }, "geometry": { "type": "Point", "coordinates": [ 284688.5, 4159300.5 ] } },
{ "type": "Feature", "properties": { "id": "lidar-tree:284708:4159302", "name": null, "kind": "tree", "species": null, "source": "lidar2025", "tree_height": 11.5, "crown_radius": 6.0, "height_source": "lidar2025" }, "geometry": { "type": "Point", "coordinates": [ 284708.5, 4159301.5 ] } },
{ "type": "Feature", "properties": { "id": "lidar-tree:284718:4159304", "name": null, "kind": "tree", "species": null, "source": "lidar2025", "tree_height": 11.1, "crown_radius": 5.7, "height_source": "lidar2025" }, "geometry": { "type": "Point", "coordinates": [ 284717.5, 4159303.5 ] } },
{ "type": "Feature", "properties": { "id": "lidar-tree:284744:4159308", "name": null, "kind": "tree", "species": null, "source": "lidar2025", "tree_height": 20.5, "crown_radius": 6.0, "height_source": "lidar2025" }, "geometry": { "type": "Point", "coordinates": [ 284743.5, 4159307.5 ] } },
{ "type": "Feature", "properties": { "id": "lidar-tree:284706:4159312", "name": null, "kind": "tree", "species": null, "source": "lidar2025", "tree_height": 15.9, "crown_radius": 3.0, "height_source": "lidar2025" }, "geometry": { "type": "Point", "coordinates": [ 284705.5, 4159312.5 ] } },
{ "type": "Feature", "properties": { "id": "lidar-tree:284588:4159280", "name": null, "kind": "tree", "species": null, "source": "lidar2025", "tree_height": 28.1, "crown_radius": 6.0, "height_source": "lidar2025" }, "geometry": { "type": "Point", "coordinates": [ 284588.5, 4159280.5 ] } },
{ "type": "Feature", "properties": { "id": "lidar-tree:284576:4159280", "name": null, "kind": "tree", "species": null, "source": "lidar2025", "tree_height": 26.3, "crown_radius": 6.0, "height_source": "lidar2025" }, "geometry": { "type": "Point", "coordinates": [ 284575.5, 4159280.5 ] } },
{ "type": "Feature", "properties": { "id": "lidar-tree:284530:4159282", "name": null, "kind": "tree", "species": null, "source": "lidar2025", "tree_height": 13.9, "crown_radius": 3.7, "height_source": "lidar2025" }, "geometry": { "type": "Point", "coordinates": [ 284529.5, 4159281.5 ] } },
{ "type": "Feature", "properties": { "id": "lidar-tree:284540:4159282", "name": null, "kind": "tree", "species": null, "source": "lidar2025", "tree_height": 8.9, "crown_radius": 4.2, "height_source": "lidar2025" }, "geometry": { "type": "Point", "coordinates": [ 284539.5, 4159281.5 ] } },
{ "type": "Feature", "properties": { "id": "lidar-tree:284596:4159296", "name": null, "kind": "tree", "species": null, "source": "lidar2025", "tree_height": 18.5, "crown_radius": 6.0, "height_source": "lidar2025" }, "geometry": { "type": "Point", "coordinates": [ 284595.5, 4159295.5 ] } },
{ "type": "Feature", "properties": { "id": "lidar-tree:284548:4159300", "name": null, "kind": "tree", "species": null, "source": "lidar2025", "tree_height": 7.2, "crown_radius": 4.3, "height_source": "lidar2025" }, "geometry": { "type": "Point", "coordinates": [ 284547.5, 4159299.5 ] } },
{ "type": "Feature", "properties": { "id": "lidar-tree:284558:4159302", "name": null, "kind": "tree", "species": null, "source": "lidar2025", "tree_height": 6.7, "crown_radius": 5.0, "height_source": "lidar2025" }, "geometry": { "type": "Point", "coordinates": [ 284557.5, 4159302.5 ] } },
{ "type": "Feature", "properties": { "id": "lidar-tree:284596:4159312", "name": null, "kind": "tree", "species": null, "source": "lidar2025", "tree_height": 4.7, "crown_radius": 3.1, "height_source": "lidar2025" }, "geometry": { "type": "Point", "coordinates": [ 284595.5, 4159311.5 ] } },
{ "type": "Feature", "properties": { "id": "lidar-tree:284522:4159324", "name": null, "kind": "tree", "species": null, "source": "lidar2025", "tree_height": 11.8, "crown_radius": 3.7, "height_source": "lidar2025" }, "geometry": { "type": "Point", "coordinates": [ 284522.5, 4159323.5 ] } },
{ "type": "Feature", "properties": { "id": "lidar-tree:284530:4159326", "name": null, "kind": "tree", "species": null, "source": "lidar2025", "tree_height": 10.6, "crown_radius": 3.2, "height_source": "lidar2025" }, "geometry": { "type": "Point", "coordinates": [ 284529.5, 4159325.5 ] } },
{ "type": "Feature", "properties": { "id": "lidar-tree:284740:4159316", "name": null, "kind": "tree", "species": null, "source": "lidar2025", "tree_height": 20.3, "crown_radius": 6.0, "height_source": "lidar2025" }, "geometry": { "type": "Point", "coordinates": [ 284740.5, 4159315.5 ] } },
{ "type": "Feature", "properties": { "id": "lidar-tree:284714:4159320", "name": null, "kind": "tree", "species": null, "source": "lidar2025", "tree_height": 17.9, "crown_radius": 3.9, "height_source": "lidar2025" }, "geometry": { "type": "Point", "coordinates": [ 284714.5, 4159320.5 ] } },
{ "type": "Feature", "properties": { "id": "lidar-tree:284698:4159322", "name": null, "kind": "tree", "species": null, "source": "lidar2025", "tree_height": 16.9, "crown_radius": 5.3, "height_source": "lidar2025" }, "geometry": { "type": "Point", "coordinates": [ 284698.5, 4159321.5 ] } },
{ "type": "Feature", "properties": { "id": "lidar-tree:284746:4159328", "name": null, "kind": "tree", "species": null, "source": "lidar2025", "tree_height": 14.5, "crown_radius": 6.0, "height_source": "lidar2025" }, "geometry": { "type": "Point", "coordinates": [ 284746.5, 4159327.5 ] } },
{ "type": "Feature", "properties": { "id": "lidar-tree:284718:4159328", "name": null, "kind": "tree", "species": null, "source": "lidar2025", "tree_height": 16.3, "crown_radius": 4.4, "height_source": "lidar2025" }, "geometry": { "type": "Point", "coordinates": [ 284717.5, 4159328.5 ] } },
{ "type": "Feature", "properties": { "id": "lidar-tree:284730:4159332", "name": null, "kind": "tree", "species": null, "source": "lidar2025", "tree_height": 7.7, "crown_radius": 4.5, "height_source": "lidar2025" }, "geometry": { "type": "Point", "coordinates": [ 284729.5, 4159331.5 ] } },
{ "type": "Feature", "properties": { "id": "lidar-tree:284724:4159332", "name": null, "kind": "tree", "species": null, "source": "lidar2025", "tree_height": 16.5, "crown_radius": 3.9, "height_source": "lidar2025" }, "geometry": { "type": "Point", "coordinates": [ 284723.5, 4159332.5 ] } },
{ "type": "Feature", "properties": { "id": "lidar-tree:284626:4159310", "name": null, "kind": "tree", "species": null, "source": "lidar2025", "tree_height": 5.1, "crown_radius": 2.9, "height_source": "lidar2025" }, "geometry": { "type": "Point", "coordinates": [ 284625.5, 4159310.5 ] } },
{ "type": "Feature", "properties": { "id": "lidar-tree:284614:4159312", "name": null, "kind": "tree", "species": null, "source": "lidar2025", "tree_height": 4.5, "crown_radius": 2.9, "height_source": "lidar2025" }, "geometry": { "type": "Point", "coordinates": [ 284614.5, 4159311.5 ] } },
{ "type": "Feature", "properties": { "id": "lidar-tree:284608:4159312", "name": null, "kind": "tree", "species": null, "source": "lidar2025", "tree_height": 4.5, "crown_radius": 2.7, "height_source": "lidar2025" }, "geometry": { "type": "Point", "coordinates": [ 284607.5, 4159312.5 ] } },
{ "type": "Feature", "properties": { "id": "lidar-tree:284680:4159316", "name": null, "kind": "tree", "species": null, "source": "lidar2025", "tree_height": 11.4, "crown_radius": 4.2, "height_source": "lidar2025" }, "geometry": { "type": "Point", "coordinates": [ 284679.5, 4159316.5 ] } },
{ "type": "Feature", "properties": { "id": "lidar-tree:284644:4159318", "name": null, "kind": "tree", "species": null, "source": "lidar2025", "tree_height": 6.2, "crown_radius": 3.4, "height_source": "lidar2025" }, "geometry": { "type": "Point", "coordinates": [ 284644.5, 4159317.5 ] } },
{ "type": "Feature", "properties": { "id": "lidar-tree:284672:4159346", "name": null, "kind": "tree", "species": null, "source": "lidar2025", "tree_height": 5.8, "crown_radius": 4.3, "height_source": "lidar2025" }, "geometry": { "type": "Point", "coordinates": [ 284671.5, 4159346.5 ] } },
{ "type": "Feature", "properties": { "id": "lidar-tree:284658:4159350", "name": null, "kind": "tree", "species": null, "source": "lidar2025", "tree_height": 7.1, "crown_radius": 3.2, "height_source": "lidar2025" }, "geometry": { "type": "Point", "coordinates": [ 284658.5, 4159350.5 ] } },
{ "type": "Feature", "properties": { "id": "lidar-tree:284650:4159352", "name": null, "kind": "tree", "species": null, "source": "lidar2025", "tree_height": 8.5, "crown_radius": 3.7, "height_source": "lidar2025" }, "geometry": { "type": "Point", "coordinates": [ 284650.5, 4159351.5 ] } },
{ "type": "Feature", "properties": { "id": "lidar-tree:284682:4159356", "name": null, "kind": "tree", "species": null, "source": "lidar2025", "tree_height": 7.2, "crown_radius": 5.5, "height_source": "lidar2025" }, "geometry": { "type": "Point", "coordinates": [ 284681.5, 4159356.5 ] } },
{ "type": "Feature", "properties": { "id": "lidar-tree:284636:4159358", "name": null, "kind": "tree", "species": null, "source": "lidar2025", "tree_height": 6.0, "crown_radius": 3.0, "height_source": "lidar2025" }, "geometry": { "type": "Point", "coordinates": [ 284635.5, 4159358.5 ] } },
{ "type": "Feature", "properties": { "id": "lidar-tree:284578:4159330", "name": null, "kind": "tree", "species": null, "source": "lidar2025", "tree_height": 4.8, "crown_radius": 2.9, "height_source": "lidar2025" }, "geometry": { "type": "Point", "coordinates": [ 284577.5, 4159330.5 ] } },
{ "type": "Feature", "properties": { "id": "lidar-tree:284558:4159332", "name": null, "kind": "tree", "species": null, "source": "lidar2025", "tree_height": 6.7, "crown_radius": 3.3, "height_source": "lidar2025" }, "geometry": { "type": "Point", "coordinates": [ 284558.5, 4159332.5 ] } },
{ "type": "Feature", "properties": { "id": "lidar-tree:284572:4159332", "name": null, "kind": "tree", "species": null, "source": "lidar2025", "tree_height": 4.5, "crown_radius": 2.8, "height_source": "lidar2025" }, "geometry": { "type": "Point", "coordinates": [ 284571.5, 4159332.5 ] } },
{ "type": "Feature", "properties": { "id": "lidar-tree:284534:4159336", "name": null, "kind": "tree", "species": null, "source": "lidar2025", "tree_height": 4.8, "crown_radius": 2.9, "height_source": "lidar2025" }, "geometry": { "type": "Point", "coordinates": [ 284533.5, 4159335.5 ] } },
{ "type": "Feature", "properties": { "id": "lidar-tree:284572:4159344", "name": null, "kind": "tree", "species": null, "source": "lidar2025", "tree_height": 5.7, "crown_radius": 2.9, "height_source": "lidar2025" }, "geometry": { "type": "Point", "coordinates": [ 284572.5, 4159343.5 ] } },
{ "type": "Feature", "properties": { "id": "lidar-tree:284536:4159344", "name": null, "kind": "tree", "species": null, "source": "lidar2025", "tree_height": 13.8, "crown_radius": 3.4, "height_source": "lidar2025" }, "geometry": { "type": "Point", "coordinates": [ 284535.5, 4159343.5 ] } },
{ "type": "Feature", "properties": { "id": "lidar-tree:284528:4159350", "name": null, "kind": "tree", "species": null, "source": "lidar2025", "tree_height": 10.6, "crown_radius": 4.6, "height_source": "lidar2025" }, "geometry": { "type": "Point", "coordinates": [ 284527.5, 4159349.5 ] } },
{ "type": "Feature", "properties": { "id": "lidar-tree:284520:4159350", "name": null, "kind": "tree", "species": null, "source": "lidar2025", "tree_height": 8.9, "crown_radius": 3.6, "height_source": "lidar2025" }, "geometry": { "type": "Point", "coordinates": [ 284519.5, 4159350.5 ] } },
{ "type": "Feature", "properties": { "id": "lidar-tree:284536:4159358", "name": null, "kind": "tree", "species": null, "source": "lidar2025", "tree_height": 5.4, "crown_radius": 4.3, "height_source": "lidar2025" }, "geometry": { "type": "Point", "coordinates": [ 284536.5, 4159357.5 ] } },
{ "type": "Feature", "properties": { "id": "lidar-tree:284598:4159360", "name": null, "kind": "tree", "species": null, "source": "lidar2025", "tree_height": 4.9, "crown_radius": 2.9, "height_source": "lidar2025" }, "geometry": { "type": "Point", "coordinates": [ 284597.5, 4159359.5 ] } },
{ "type": "Feature", "properties": { "id": "lidar-tree:284708:4159332", "name": null, "kind": "tree", "species": null, "source": "lidar2025", "tree_height": 15.2, "crown_radius": 5.2, "height_source": "lidar2025" }, "geometry": { "type": "Point", "coordinates": [ 284708.5, 4159332.5 ] } },
{ "type": "Feature", "properties": { "id": "lidar-tree:284700:4159340", "name": null, "kind": "tree", "species": null, "source": "lidar2025", "tree_height": 11.6, "crown_radius": 5.2, "height_source": "lidar2025" }, "geometry": { "type": "Point", "coordinates": [ 284699.5, 4159339.5 ] } },
{ "type": "Feature", "properties": { "id": "lidar-tree:284710:4159344", "name": null, "kind": "tree", "species": null, "source": "lidar2025", "tree_height": 6.1, "crown_radius": 5.1, "height_source": "lidar2025" }, "geometry": { "type": "Point", "coordinates": [ 284710.5, 4159344.5 ] } },
{ "type": "Feature", "properties": { "id": "lidar-tree:284728:4159356", "name": null, "kind": "tree", "species": null, "source": "lidar2025", "tree_height": 10.4, "crown_radius": 4.9, "height_source": "lidar2025" }, "geometry": { "type": "Point", "coordinates": [ 284727.5, 4159356.5 ] } },
{ "type": "Feature", "properties": { "id": "lidar-tree:284748:4159358", "name": null, "kind": "tree", "species": null, "source": "lidar2025", "tree_height": 8.1, "crown_radius": 5.6, "height_source": "lidar2025" }, "geometry": { "type": "Point", "coordinates": [ 284748.5, 4159357.5 ] } },
{ "type": "Feature", "properties": { "id": "lidar-tree:284718:4159360", "name": null, "kind": "tree", "species": null, "source": "lidar2025", "tree_height": 11.8, "crown_radius": 5.8, "height_source": "lidar2025" }, "geometry": { "type": "Point", "coordinates": [ 284718.5, 4159359.5 ] } },
{ "type": "Feature", "properties": { "id": "lidar-tree:284704:4159360", "name": null, "kind": "tree", "species": null, "source": "lidar2025", "tree_height": 10.0, "crown_radius": 5.4, "height_source": "lidar2025" }, "geometry": { "type": "Point", "coordinates": [ 284703.5, 4159359.5 ] } },
{ "type": "Feature", "properties": { "id": "lidar-tree:284738:4159362", "name": null, "kind": "tree", "species": null, "source": "lidar2025", "tree_height": 11.2, "crown_radius": 4.3, "height_source": "lidar2025" }, "geometry": { "type": "Point", "coordinates": [ 284738.5, 4159361.5 ] } },
{ "type": "Feature", "properties": { "id": "lidar-tree:284610:4159360", "name": null, "kind": "tree", "species": null, "source": "lidar2025", "tree_height": 5.2, "crown_radius": 3.0, "height_source": "lidar2025" }, "geometry": { "type": "Point", "coordinates": [ 284610.5, 4159359.5 ] } },
{ "type": "Feature", "properties": { "id": "lidar-tree:284650:4159360", "name": null, "kind": "tree", "species": null, "source": "lidar2025", "tree_height": 6.5, "crown_radius": 4.4, "height_source": "lidar2025" }, "geometry": { "type": "Point", "coordinates": [ 284649.5, 4159359.5 ] } },
{ "type": "Feature", "properties": { "id": "lidar-tree:284654:4159368", "name": null, "kind": "tree", "species": null, "source": "lidar2025", "tree_height": 7.7, "crown_radius": 3.4, "height_source": "lidar2025" }, "geometry": { "type": "Point", "coordinates": [ 284653.5, 4159368.5 ] } },
{ "type": "Feature", "properties": { "id": "lidar-tree:284640:4159368", "name": null, "kind": "tree", "species": null, "source": "lidar2025", "tree_height": 6.8, "crown_radius": 3.5, "height_source": "lidar2025" }, "geometry": { "type": "Point", "coordinates": [ 284639.5, 4159368.5 ] } },
{ "type": "Feature", "properties": { "id": "lidar-tree:284670:4159370", "name": null, "kind": "tree", "species": null, "source": "lidar2025", "tree_height": 7.2, "crown_radius": 3.7, "height_source": "lidar2025" }, "geometry": { "type": "Point", "coordinates": [ 284670.5, 4159369.5 ] } },
{ "type": "Feature", "properties": { "id": "lidar-tree:284612:4159372", "name": null, "kind": "tree", "species": null, "source": "lidar2025", "tree_height": 8.1, "crown_radius": 4.1, "height_source": "lidar2025" }, "geometry": { "type": "Point", "coordinates": [ 284612.5, 4159371.5 ] } },
{ "type": "Feature", "properties": { "id": "lidar-tree:284654:4159380", "name": null, "kind": "tree", "species": null, "source": "lidar2025", "tree_height": 6.4, "crown_radius": 3.2, "height_source": "lidar2025" }, "geometry": { "type": "Point", "coordinates": [ 284654.5, 4159379.5 ] } },
{ "type": "Feature", "properties": { "id": "lidar-tree:284682:4159382", "name": null, "kind": "tree", "species": null, "source": "lidar2025", "tree_height": 7.9, "crown_radius": 3.5, "height_source": "lidar2025" }, "geometry": { "type": "Point", "coordinates": [ 284682.5, 4159382.5 ] } },
{ "type": "Feature", "properties": { "id": "lidar-tree:284668:4159384", "name": null, "kind": "tree", "species": null, "source": "lidar2025", "tree_height": 7.2, "crown_radius": 2.9, "height_source": "lidar2025" }, "geometry": { "type": "Point", "coordinates": [ 284668.5, 4159384.5 ] } },
{ "type": "Feature", "properties": { "id": "lidar-tree:284656:4159390", "name": null, "kind": "tree", "species": null, "source": "lidar2025", "tree_height": 5.4, "crown_radius": 3.2, "height_source": "lidar2025" }, "geometry": { "type": "Point", "coordinates": [ 284656.5, 4159390.5 ] } },
{ "type": "Feature", "properties": { "id": "lidar-tree:284592:4159360", "name": null, "kind": "tree", "species": null, "source": "lidar2025", "tree_height": 4.9, "crown_radius": 3.1, "height_source": "lidar2025" }, "geometry": { "type": "Point", "coordinates": [ 284592.5, 4159360.5 ] } },
{ "type": "Feature", "properties": { "id": "lidar-tree:284534:4159364", "name": null, "kind": "tree", "species": null, "source": "lidar2025", "tree_height": 6.4, "crown_radius": 3.9, "height_source": "lidar2025" }, "geometry": { "type": "Point", "coordinates": [ 284534.5, 4159363.5 ] } },
{ "type": "Feature", "properties": { "id": "lidar-tree:284560:4159366", "name": null, "kind": "tree", "species": null, "source": "lidar2025", "tree_height": 6.7, "crown_radius": 4.6, "height_source": "lidar2025" }, "geometry": { "type": "Point", "coordinates": [ 284559.5, 4159365.5 ] } },
{ "type": "Feature", "properties": { "id": "lidar-tree:284578:4159372", "name": null, "kind": "tree", "species": null, "source": "lidar2025", "tree_height": 7.2, "crown_radius": 5.2, "height_source": "lidar2025" }, "geometry": { "type": "Point", "coordinates": [ 284578.5, 4159372.5 ] } },
{ "type": "Feature", "properties": { "id": "lidar-tree:284526:4159372", "name": null, "kind": "tree", "species": null, "source": "lidar2025", "tree_height": 10.8, "crown_radius": 1.7, "height_source": "lidar2025" }, "geometry": { "type": "Point", "coordinates": [ 284525.5, 4159372.5 ] } },
{ "type": "Feature", "properties": { "id": "lidar-tree:284574:4159378", "name": null, "kind": "tree", "species": null, "source": "lidar2025", "tree_height": 11.2, "crown_radius": 3.0, "height_source": "lidar2025" }, "geometry": { "type": "Point", "coordinates": [ 284574.5, 4159378.5 ] } },
{ "type": "Feature", "properties": { "id": "lidar-tree:284574:4159388", "name": null, "kind": "tree", "species": null, "source": "lidar2025", "tree_height": 12.3, "crown_radius": 2.4, "height_source": "lidar2025" }, "geometry": { "type": "Point", "coordinates": [ 284574.5, 4159387.5 ] } },
{ "type": "Feature", "properties": { "id": "lidar-tree:284574:4159396", "name": null, "kind": "tree", "species": null, "source": "lidar2025", "tree_height": 12.7, "crown_radius": 3.5, "height_source": "lidar2025" }, "geometry": { "type": "Point", "coordinates": [ 284574.5, 4159395.5 ] } },
{ "type": "Feature", "properties": { "id": "lidar-tree:284574:4159402", "name": null, "kind": "tree", "species": null, "source": "lidar2025", "tree_height": 13.6, "crown_radius": 3.9, "height_source": "lidar2025" }, "geometry": { "type": "Point", "coordinates": [ 284574.5, 4159402.5 ] } },
{ "type": "Feature", "properties": { "id": "lidar-tree:284576:4159410", "name": null, "kind": "tree", "species": null, "source": "lidar2025", "tree_height": 14.1, "crown_radius": 3.7, "height_source": "lidar2025" }, "geometry": { "type": "Point", "coordinates": [ 284575.5, 4159409.5 ] } },
{ "type": "Feature", "properties": { "id": "lidar-tree:284514:4159272", "name": null, "kind": "tree", "species": null, "source": "lidar2025", "tree_height": 25.8, "crown_radius": 6.0, "height_source": "lidar2025" }, "geometry": { "type": "Point", "coordinates": [ 284514.5, 4159271.5 ] } },
{ "type": "Feature", "properties": { "id": "lidar-tree:284512:4159286", "name": null, "kind": "tree", "species": null, "source": "lidar2025", "tree_height": 17.2, "crown_radius": 5.6, "height_source": "lidar2025" }, "geometry": { "type": "Point", "coordinates": [ 284512.5, 4159286.5 ] } },
{ "type": "Feature", "properties": { "id": "lidar-tree:284510:4159302", "name": null, "kind": "tree", "species": null, "source": "lidar2025", "tree_height": 6.7, "crown_radius": 3.6, "height_source": "lidar2025" }, "geometry": { "type": "Point", "coordinates": [ 284510.5, 4159301.5 ] } },
{ "type": "Feature", "properties": { "id": "lidar-tree:284508:4159310", "name": null, "kind": "tree", "species": null, "source": "lidar2025", "tree_height": 5.5, "crown_radius": 4.1, "height_source": "lidar2025" }, "geometry": { "type": "Point", "coordinates": [ 284507.5, 4159309.5 ] } },
{ "type": "Feature", "properties": { "id": "lidar-tree:284504:4159316", "name": null, "kind": "tree", "species": null, "source": "lidar2025", "tree_height": 5.4, "crown_radius": 4.3, "height_source": "lidar2025" }, "geometry": { "type": "Point", "coordinates": [ 284504.5, 4159315.5 ] } },
{ "type": "Feature", "properties": { "id": "lidar-tree:284516:4159324", "name": null, "kind": "tree", "species": null, "source": "lidar2025", "tree_height": 12.7, "crown_radius": 4.3, "height_source": "lidar2025" }, "geometry": { "type": "Point", "coordinates": [ 284516.5, 4159324.5 ] } },
{ "type": "Feature", "properties": { "id": "lidar-tree:284510:4159328", "name": null, "kind": "tree", "species": null, "source": "lidar2025", "tree_height": 11.5, "crown_radius": 5.2, "height_source": "lidar2025" }, "geometry": { "type": "Point", "coordinates": [ 284510.5, 4159327.5 ] } },
{ "type": "Feature", "properties": { "id": "lidar-tree:284506:4159334", "name": null, "kind": "tree", "species": null, "source": "lidar2025", "tree_height": 7.7, "crown_radius": 4.1, "height_source": "lidar2025" }, "geometry": { "type": "Point", "coordinates": [ 284506.5, 4159334.5 ] } },
{ "type": "Feature", "properties": { "id": "lidar-tree:284506:4159340", "name": null, "kind": "tree", "species": null, "source": "lidar2025", "tree_height": 9.4, "crown_radius": 4.2, "height_source": "lidar2025" }, "geometry": { "type": "Point", "coordinates": [ 284506.5, 4159340.5 ] } },
{ "type": "Feature", "properties": { "id": "lidar-tree:284510:4159346", "name": null, "kind": "tree", "species": null, "source": "lidar2025", "tree_height": 8.7, "crown_radius": 3.8, "height_source": "lidar2025" }, "geometry": { "type": "Point", "coordinates": [ 284509.5, 4159346.5 ] } },
{ "type": "Feature", "properties": { "id": "lidar-tree:284516:4159374", "name": null, "kind": "tree", "species": null, "source": "lidar2025", "tree_height": 12.6, "crown_radius": 2.7, "height_source": "lidar2025" }, "geometry": { "type": "Point", "coordinates": [ 284516.5, 4159373.5 ] } },
{ "type": "Feature", "properties": { "id": "rva-tree:87424", "name": "Magnolia x soulangiana", "kind": "tree", "species": "Magnolia x soulangiana", "source": "city_inventory", "tree_height": 13.2, "crown_radius": 2.7, "height_source": "lidar2025" }, "geometry": { "type": "Point", "coordinates": [ 284504.76, 4159376.04 ] } },
{ "type": "Feature", "properties": { "id": "lidar-tree:284514:4159390", "name": null, "kind": "tree", "species": null, "source": "lidar2025", "tree_height": 13.4, "crown_radius": 6.0, "height_source": "lidar2025" }, "geometry": { "type": "Point", "coordinates": [ 284514.5, 4159389.5 ] } },
{ "type": "Feature", "properties": { "id": "lidar-tree:284504:4159392", "name": null, "kind": "tree", "species": null, "source": "lidar2025", "tree_height": 11.4, "crown_radius": 5.7, "height_source": "lidar2025" }, "geometry": { "type": "Point", "coordinates": [ 284504.5, 4159392.5 ] } },
{ "type": "Feature", "properties": { "id": "lidar-tree:284516:4159410", "name": null, "kind": "tree", "species": null, "source": "lidar2025", "tree_height": 16.1, "crown_radius": 6.0, "height_source": "lidar2025" }, "geometry": { "type": "Point", "coordinates": [ 284516.5, 4159410.5 ] } },
{ "type": "Feature", "properties": { "id": "lidar-tree:284506:4159412", "name": null, "kind": "tree", "species": null, "source": "lidar2025", "tree_height": 16.9, "crown_radius": 6.0, "height_source": "lidar2025" }, "geometry": { "type": "Point", "coordinates": [ 284506.5, 4159411.5 ] } },
{ "type": "Feature", "properties": { "id": "lidar-tree:284510:4159424", "name": null, "kind": "tree", "species": null, "source": "lidar2025", "tree_height": 9.8, "crown_radius": 3.6, "height_source": "lidar2025" }, "geometry": { "type": "Point", "coordinates": [ 284509.5, 4159424.5 ] } },
{ "type": "Feature", "properties": { "id": "lidar-tree:284690:4159434", "name": null, "kind": "tree", "species": null, "source": "lidar2025", "tree_height": 9.3, "crown_radius": 1.5, "height_source": "lidar2025" }, "geometry": { "type": "Point", "coordinates": [ 284689.5, 4159433.5 ] } },
{ "type": "Feature", "properties": { "id": "lidar-tree:284686:4159434", "name": null, "kind": "tree", "species": null, "source": "lidar2025", "tree_height": 9.9, "crown_radius": 1.5, "height_source": "lidar2025" }, "geometry": { "type": "Point", "coordinates": [ 284685.5, 4159433.5 ] } },
{ "type": "Feature", "properties": { "id": "lidar-tree:284746:4159434", "name": null, "kind": "tree", "species": null, "source": "lidar2025", "tree_height": 4.3, "crown_radius": 2.4, "height_source": "lidar2025" }, "geometry": { "type": "Point", "coordinates": [ 284745.5, 4159434.5 ] } },
{ "type": "Feature", "properties": { "id": "lidar-tree:284712:4159436", "name": null, "kind": "tree", "species": null, "source": "lidar2025", "tree_height": 9.7, "crown_radius": 4.4, "height_source": "lidar2025" }, "geometry": { "type": "Point", "coordinates": [ 284712.5, 4159435.5 ] } },
{ "type": "Feature", "properties": { "id": "lidar-tree:284642:4159394", "name": null, "kind": "tree", "species": null, "source": "lidar2025", "tree_height": 7.9, "crown_radius": 4.7, "height_source": "lidar2025" }, "geometry": { "type": "Point", "coordinates": [ 284642.5, 4159393.5 ] } },
{ "type": "Feature", "properties": { "id": "lidar-tree:284600:4159396", "name": null, "kind": "tree", "species": null, "source": "lidar2025", "tree_height": 9.2, "crown_radius": 4.8, "height_source": "lidar2025" }, "geometry": { "type": "Point", "coordinates": [ 284599.5, 4159396.5 ] } },
{ "type": "Feature", "properties": { "id": "lidar-tree:284682:4159398", "name": null, "kind": "tree", "species": null, "source": "lidar2025", "tree_height": 4.8, "crown_radius": 2.3, "height_source": "lidar2025" }, "geometry": { "type": "Point", "coordinates": [ 284681.5, 4159397.5 ] } },
{ "type": "Feature", "properties": { "id": "lidar-tree:284650:4159406", "name": null, "kind": "tree", "species": null, "source": "lidar2025", "tree_height": 5.3, "crown_radius": 4.2, "height_source": "lidar2025" }, "geometry": { "type": "Point", "coordinates": [ 284650.5, 4159405.5 ] } },
{ "type": "Feature", "properties": { "id": "lidar-tree:284668:4159410", "name": null, "kind": "tree", "species": null, "source": "lidar2025", "tree_height": 5.3, "crown_radius": 2.2, "height_source": "lidar2025" }, "geometry": { "type": "Point", "coordinates": [ 284668.5, 4159410.5 ] } },
{ "type": "Feature", "properties": { "id": "lidar-tree:284612:4159412", "name": null, "kind": "tree", "species": null, "source": "lidar2025", "tree_height": 5.6, "crown_radius": 3.7, "height_source": "lidar2025" }, "geometry": { "type": "Point", "coordinates": [ 284611.5, 4159411.5 ] } },
{ "type": "Feature", "properties": { "id": "lidar-tree:284632:4159414", "name": null, "kind": "tree", "species": null, "source": "lidar2025", "tree_height": 6.1, "crown_radius": 4.0, "height_source": "lidar2025" }, "geometry": { "type": "Point", "coordinates": [ 284632.5, 4159413.5 ] } },
{ "type": "Feature", "properties": { "id": "lidar-tree:284626:4159414", "name": null, "kind": "tree", "species": null, "source": "lidar2025", "tree_height": 5.6, "crown_radius": 4.3, "height_source": "lidar2025" }, "geometry": { "type": "Point", "coordinates": [ 284626.5, 4159413.5 ] } },
{ "type": "Feature", "properties": { "id": "lidar-tree:284620:4159414", "name": null, "kind": "tree", "species": null, "source": "lidar2025", "tree_height": 6.3, "crown_radius": 4.7, "height_source": "lidar2025" }, "geometry": { "type": "Point", "coordinates": [ 284619.5, 4159414.5 ] } },
{ "type": "Feature", "properties": { "id": "lidar-tree:284684:4159418", "name": null, "kind": "tree", "species": null, "source": "lidar2025", "tree_height": 4.1, "crown_radius": 1.8, "height_source": "lidar2025" }, "geometry": { "type": "Point", "coordinates": [ 284683.5, 4159418.5 ] } },
{ "type": "Feature", "properties": { "id": "lidar-tree:284732:4159440", "name": null, "kind": "tree", "species": null, "source": "lidar2025", "tree_height": 5.1, "crown_radius": 4.6, "height_source": "lidar2025" }, "geometry": { "type": "Point", "coordinates": [ 284732.5, 4159440.5 ] } },
{ "type": "Feature", "properties": { "id": "lidar-tree:284708:4159442", "name": null, "kind": "tree", "species": null, "source": "lidar2025", "tree_height": 9.9, "crown_radius": 5.0, "height_source": "lidar2025" }, "geometry": { "type": "Point", "coordinates": [ 284707.5, 4159441.5 ] } },
{ "type": "Feature", "properties": { "id": "lidar-tree:284686:4159446", "name": null, "kind": "tree", "species": null, "source": "lidar2025", "tree_height": 9.3, "crown_radius": 2.5, "height_source": "lidar2025" }, "geometry": { "type": "Point", "coordinates": [ 284685.5, 4159446.5 ] } },
{ "type": "Feature", "properties": { "id": "lidar-tree:284694:4159448", "name": null, "kind": "tree", "species": null, "source": "lidar2025", "tree_height": 10.2, "crown_radius": 3.8, "height_source": "lidar2025" }, "geometry": { "type": "Point", "coordinates": [ 284694.5, 4159448.5 ] } },
{ "type": "Feature", "properties": { "id": "lidar-tree:284716:4159450", "name": null, "kind": "tree", "species": null, "source": "lidar2025", "tree_height": 10.0, "crown_radius": 5.6, "height_source": "lidar2025" }, "geometry": { "type": "Point", "coordinates": [ 284715.5, 4159450.5 ] } },
{ "type": "Feature", "properties": { "id": "lidar-tree:284684:4159452", "name": null, "kind": "tree", "species": null, "source": "lidar2025", "tree_height": 9.9, "crown_radius": 3.0, "height_source": "lidar2025" }, "geometry": { "type": "Point", "coordinates": [ 284684.5, 4159451.5 ] } },
{ "type": "Feature", "properties": { "id": "lidar-tree:284736:4159454", "name": null, "kind": "tree", "species": null, "source": "lidar2025", "tree_height": 11.5, "crown_radius": 6.0, "height_source": "lidar2025" }, "geometry": { "type": "Point", "coordinates": [ 284736.5, 4159454.5 ] } },
{ "type": "Feature", "properties": { "id": "lidar-tree:284696:4159454", "name": null, "kind": "tree", "species": null, "source": "lidar2025", "tree_height": 9.6, "crown_radius": 4.0, "height_source": "lidar2025" }, "geometry": { "type": "Point", "coordinates": [ 284695.5, 4159454.5 ] } },
{ "type": "Feature", "properties": { "id": "lidar-tree:284576:4159418", "name": null, "kind": "tree", "species": null, "source": "lidar2025", "tree_height": 14.6, "crown_radius": 3.4, "height_source": "lidar2025" }, "geometry": { "type": "Point", "coordinates": [ 284576.5, 4159417.5 ] } },
{ "type": "Feature", "properties": { "id": "lidar-tree:284590:4159422", "name": null, "kind": "tree", "species": null, "source": "lidar2025", "tree_height": 5.6, "crown_radius": 3.0, "height_source": "lidar2025" }, "geometry": { "type": "Point", "coordinates": [ 284589.5, 4159422.5 ] } },
{ "type": "Feature", "properties": { "id": "lidar-tree:284522:4159426", "name": null, "kind": "tree", "species": null, "source": "lidar2025", "tree_height": 18.9, "crown_radius": 6.0, "height_source": "lidar2025" }, "geometry": { "type": "Point", "coordinates": [ 284521.5, 4159426.5 ] } },
{ "type": "Feature", "properties": { "id": "lidar-tree:284576:4159426", "name": null, "kind": "tree", "species": null, "source": "lidar2025", "tree_height": 9.8, "crown_radius": 2.9, "height_source": "lidar2025" }, "geometry": { "type": "Point", "coordinates": [ 284575.5, 4159426.5 ] } },
{ "type": "Feature", "properties": { "id": "lidar-tree:284560:4159428", "name": null, "kind": "tree", "species": null, "source": "lidar2025", "tree_height": 16.8, "crown_radius": 6.0, "height_source": "lidar2025" }, "geometry": { "type": "Point", "coordinates": [ 284560.5, 4159428.5 ] } },
{ "type": "Feature", "properties": { "id": "lidar-tree:284596:4159434", "name": null, "kind": "tree", "species": null, "source": "lidar2025", "tree_height": 10.8, "crown_radius": 5.3, "height_source": "lidar2025" }, "geometry": { "type": "Point", "coordinates": [ 284595.5, 4159433.5 ] } },
{ "type": "Feature", "properties": { "id": "lidar-tree:284584:4159434", "name": null, "kind": "tree", "species": null, "source": "lidar2025", "tree_height": 6.3, "crown_radius": 4.3, "height_source": "lidar2025" }, "geometry": { "type": "Point", "coordinates": [ 284584.5, 4159434.5 ] } },
{ "type": "Feature", "properties": { "id": "lidar-tree:284578:4159436", "name": null, "kind": "tree", "species": null, "source": "lidar2025", "tree_height": 5.4, "crown_radius": 4.0, "height_source": "lidar2025" }, "geometry": { "type": "Point", "coordinates": [ 284577.5, 4159436.5 ] } },
{ "type": "Feature", "properties": { "id": "lidar-tree:284536:4159478", "name": null, "kind": "tree", "species": null, "source": "lidar2025", "tree_height": 4.1, "crown_radius": 2.0, "height_source": "lidar2025" }, "geometry": { "type": "Point", "coordinates": [ 284536.5, 4159477.5 ] } },
{ "type": "Feature", "properties": { "id": "lidar-tree:284562:4159484", "name": null, "kind": "tree", "species": null, "source": "lidar2025", "tree_height": 4.2, "crown_radius": 1.9, "height_source": "lidar2025" }, "geometry": { "type": "Point", "coordinates": [ 284562.5, 4159484.5 ] } },
{ "type": "Feature", "properties": { "id": "lidar-tree:284650:4159422", "name": null, "kind": "tree", "species": null, "source": "lidar2025", "tree_height": 5.7, "crown_radius": 3.5, "height_source": "lidar2025" }, "geometry": { "type": "Point", "coordinates": [ 284649.5, 4159422.5 ] } },
{ "type": "Feature", "properties": { "id": "lidar-tree:284660:4159424", "name": null, "kind": "tree", "species": null, "source": "lidar2025", "tree_height": 6.0, "crown_radius": 3.5, "height_source": "lidar2025" }, "geometry": { "type": "Point", "coordinates": [ 284660.5, 4159424.5 ] } },
{ "type": "Feature", "properties": { "id": "lidar-tree:284622:4159426", "name": null, "kind": "tree", "species": null, "source": "lidar2025", "tree_height": 5.9, "crown_radius": 3.1, "height_source": "lidar2025" }, "geometry": { "type": "Point", "coordinates": [ 284621.5, 4159426.5 ] } },
{ "type": "Feature", "properties": { "id": "lidar-tree:284602:4159428", "name": null, "kind": "tree", "species": null, "source": "lidar2025", "tree_height": 8.1, "crown_radius": 5.1, "height_source": "lidar2025" }, "geometry": { "type": "Point", "coordinates": [ 284602.5, 4159427.5 ] } },
{ "type": "Feature", "properties": { "id": "lidar-tree:284672:4159432", "name": null, "kind": "tree", "species": null, "source": "lidar2025", "tree_height": 4.6, "crown_radius": 2.8, "height_source": "lidar2025" }, "geometry": { "type": "Point", "coordinates": [ 284671.5, 4159432.5 ] } },
{ "type": "Feature", "properties": { "id": "lidar-tree:284676:4159458", "name": null, "kind": "tree", "species": null, "source": "lidar2025", "tree_height": 12.6, "crown_radius": 4.1, "height_source": "lidar2025" }, "geometry": { "type": "Point", "coordinates": [ 284675.5, 4159458.5 ] } },
{ "type": "Feature", "properties": { "id": "lidar-tree:284674:4159466", "name": null, "kind": "tree", "species": null, "source": "lidar2025", "tree_height": 6.4, "crown_radius": 3.9, "height_source": "lidar2025" }, "geometry": { "type": "Point", "coordinates": [ 284674.5, 4159465.5 ] } },
{ "type": "Feature", "properties": { "id": "lidar-tree:284670:4159472", "name": null, "kind": "tree", "species": null, "source": "lidar2025", "tree_height": 9.0, "crown_radius": 4.3, "height_source": "lidar2025" }, "geometry": { "type": "Point", "coordinates": [ 284670.5, 4159472.5 ] } },
{ "type": "Feature", "properties": { "id": "lidar-tree:284670:4159480", "name": null, "kind": "tree", "species": null, "source": "lidar2025", "tree_height": 8.7, "crown_radius": 4.4, "height_source": "lidar2025" }, "geometry": { "type": "Point", "coordinates": [ 284669.5, 4159479.5 ] } },
{ "type": "Feature", "properties": { "id": "lidar-tree:284630:4159484", "name": null, "kind": "tree", "species": null, "source": "lidar2025", "tree_height": 14.9, "crown_radius": 5.9, "height_source": "lidar2025" }, "geometry": { "type": "Point", "coordinates": [ 284629.5, 4159484.5 ] } },
{ "type": "Feature", "properties": { "id": "lidar-tree:284704:4159456", "name": null, "kind": "tree", "species": null, "source": "lidar2025", "tree_height": 10.6, "crown_radius": 4.4, "height_source": "lidar2025" }, "geometry": { "type": "Point", "coordinates": [ 284703.5, 4159455.5 ] } },
{ "type": "Feature", "properties": { "id": "lidar-tree:284744:4159456", "name": null, "kind": "tree", "species": null, "source": "lidar2025", "tree_height": 8.7, "crown_radius": 5.7, "height_source": "lidar2025" }, "geometry": { "type": "Point", "coordinates": [ 284744.5, 4159456.5 ] } },
{ "type": "Feature", "properties": { "id": "lidar-tree:284716:4159460", "name": null, "kind": "tree", "species": null, "source": "lidar2025", "tree_height": 11.8, "crown_radius": 5.4, "height_source": "lidar2025" }, "geometry": { "type": "Point", "coordinates": [ 284716.5, 4159460.5 ] } },
{ "type": "Feature", "properties": { "id": "lidar-tree:284694:4159462", "name": null, "kind": "tree", "species": null, "source": "lidar2025", "tree_height": 12.3, "crown_radius": 4.0, "height_source": "lidar2025" }, "geometry": { "type": "Point", "coordinates": [ 284694.5, 4159462.5 ] } },
{ "type": "Feature", "properties": { "id": "lidar-tree:284704:4159464", "name": null, "kind": "tree", "species": null, "source": "lidar2025", "tree_height": 9.0, "crown_radius": 4.5, "height_source": "lidar2025" }, "geometry": { "type": "Point", "coordinates": [ 284703.5, 4159463.5 ] } },
{ "type": "Feature", "properties": { "id": "lidar-tree:284734:4159466", "name": null, "kind": "tree", "species": null, "source": "lidar2025", "tree_height": 8.4, "crown_radius": 5.1, "height_source": "lidar2025" }, "geometry": { "type": "Point", "coordinates": [ 284733.5, 4159466.5 ] } },
{ "type": "Feature", "properties": { "id": "lidar-tree:284718:4159470", "name": null, "kind": "tree", "species": null, "source": "lidar2025", "tree_height": 7.4, "crown_radius": 4.1, "height_source": "lidar2025" }, "geometry": { "type": "Point", "coordinates": [ 284717.5, 4159470.5 ] } },
{ "type": "Feature", "properties": { "id": "lidar-tree:284700:4159472", "name": null, "kind": "tree", "species": null, "source": "lidar2025", "tree_height": 7.6, "crown_radius": 4.5, "height_source": "lidar2025" }, "geometry": { "type": "Point", "coordinates": [ 284699.5, 4159471.5 ] } },
{ "type": "Feature", "properties": { "id": "lidar-tree:284708:4159472", "name": null, "kind": "tree", "species": null, "source": "lidar2025", "tree_height": 5.4, "crown_radius": 4.0, "height_source": "lidar2025" }, "geometry": { "type": "Point", "coordinates": [ 284707.5, 4159472.5 ] } },
{ "type": "Feature", "properties": { "id": "lidar-tree:284690:4159476", "name": null, "kind": "tree", "species": null, "source": "lidar2025", "tree_height": 5.7, "crown_radius": 2.5, "height_source": "lidar2025" }, "geometry": { "type": "Point", "coordinates": [ 284689.5, 4159476.5 ] } },
{ "type": "Feature", "properties": { "id": "lidar-tree:284750:4159484", "name": null, "kind": "tree", "species": null, "source": "lidar2025", "tree_height": 6.1, "crown_radius": 2.9, "height_source": "lidar2025" }, "geometry": { "type": "Point", "coordinates": [ 284749.5, 4159484.5 ] } },
{ "type": "Feature", "properties": { "id": "lidar-tree:284668:4159486", "name": null, "kind": "tree", "species": null, "source": "lidar2025", "tree_height": 5.5, "crown_radius": 4.2, "height_source": "lidar2025" }, "geometry": { "type": "Point", "coordinates": [ 284668.5, 4159485.5 ] } },
{ "type": "Feature", "properties": { "id": "lidar-tree:284606:4159488", "name": null, "kind": "tree", "species": null, "source": "lidar2025", "tree_height": 17.9, "crown_radius": 6.0, "height_source": "lidar2025" }, "geometry": { "type": "Point", "coordinates": [ 284606.5, 4159487.5 ] } },
{ "type": "Feature", "properties": { "id": "lidar-tree:284668:4159492", "name": null, "kind": "tree", "species": null, "source": "lidar2025", "tree_height": 7.9, "crown_radius": 3.5, "height_source": "lidar2025" }, "geometry": { "type": "Point", "coordinates": [ 284668.5, 4159492.5 ] } },
{ "type": "Feature", "properties": { "id": "lidar-tree:284628:4159500", "name": null, "kind": "tree", "species": null, "source": "lidar2025", "tree_height": 5.2, "crown_radius": 2.6, "height_source": "lidar2025" }, "geometry": { "type": "Point", "coordinates": [ 284627.5, 4159499.5 ] } },
{ "type": "Feature", "properties": { "id": "lidar-tree:284738:4159496", "name": null, "kind": "tree", "species": null, "source": "lidar2025", "tree_height": 8.8, "crown_radius": 4.3, "height_source": "lidar2025" }, "geometry": { "type": "Point", "coordinates": [ 284737.5, 4159496.5 ] } },
{ "type": "Feature", "properties": { "id": "lidar-tree:284510:4159448", "name": null, "kind": "tree", "species": null, "source": "lidar2025", "tree_height": 13.4, "crown_radius": 5.0, "height_source": "lidar2025" }, "geometry": { "type": "Point", "coordinates": [ 284509.5, 4159447.5 ] } }
]
}
