{
"type": "FeatureCollection",
"name": "buildings",
"crs": { "type": "name", "properties": { "name": "urn:ogc:def:crs:EPSG::32618" } },
"xy_coordinate_resolution": 0.01,
"features": [
{ "type": "Feature", "properties": { "id": "osm:way/755574620", "name": null, "height": 3.89, "min_height": 0.0, "levels": null, "height_source": "lidar", "roof_shape": "gable", "roof_height": 3.19, "roof_azimuth": 109.7, "roof_source": "lod2", "roof_color": "concrete", "roof_color_source": "ortho", "lod2_roof": { "v": [ [ 286443.08, 4160505.27, 0.0 ], [ 286445.98, 4160503.26, 1.24 ], [ 286446.81, 4160510.65, 0.0 ], [ 286443.82, 4160500.14, 1.25 ], [ 286443.04, 4160499.02, 0.57 ], [ 286455.64, 4160494.44, 0.0 ], [ 286455.89, 4160494.81, 0.0 ], [ 286453.9, 4160495.65, 0.0 ], [ 286457.18, 4160500.51, 0.0 ], [ 286459.16, 4160503.37, 0.0 ], [ 286457.77, 4160497.51, 1.34 ], [ 286458.51, 4160498.59, 0.64 ], [ 286455.89, 4160494.81, 0.0 ], [ 286454.74, 4160499.32, 1.58 ], [ 286454.74, 4160499.32, 0.48 ], [ 286453.42, 4160497.93, 0.65 ], [ 286453.42, 4160497.93, 0.65 ], [ 286456.71, 4160499.83, 0.71 ], [ 286457.18, 4160500.51, 0.27 ], [ 286449.56, 4160508.73, 1.16 ], [ 286449.62, 4160508.82, 1.16 ], [ 286457.28, 4160504.67, 0.9 ], [ 286450.15, 4160509.6, 0.84 ], [ 286455.96, 4160500.63, 0.62 ], [ 286455.96, 4160500.63, 0.32 ], [ 286451.89, 4160492.76, 0.0 ], [ 286451.2, 4160493.25, 0.28 ], [ 286449.62, 4160508.82, 1.35 ], [ 286449.95, 4160508.67, 1.32 ], [ 286451.4, 4160503.53, 3.17 ], [ 286449.73, 4160501.07, 3.19 ] ], "f": [ [ [ 18, 23, 13, 10, 11, 17 ] ], [ [ 6, 15, 14, 24, 8, 9, 21, 29, 30, 26, 25, 7, 5 ] ], [ [ 30, 3, 4, 26 ] ], [ [ 27, 28, 29, 21, 22 ] ], [ [ 28, 20, 19, 2, 0, 1, 3, 30, 29 ] ], [ [ 16, 12, 10, 13 ] ], [ [ 13, 14, 15, 16 ] ], [ [ 23, 24, 14, 13 ] ], [ [ 18, 8, 24, 23 ] ], [ [ 27, 20, 28 ] ], [ [ 16, 15, 6, 12 ] ] ] }, "roof_props": null, "wall_color": "cream", "type": "yes", "landmark": null, "footprint_source": "osm", "source_updated": null, "is_part": false, "parent": null, "hidden": false, "addr": "2806 4th Avenue", "wikidata": null, "website": null, "zoning": "R-6", "lidar_p90": 6.49, "ground_z": 49.5 }, "geometry": { "type": "Polygon", "coordinates": [ [ [ 286449.56, 4160508.73 ], [ 286450.15, 4160509.6 ], [ 286459.16, 4160503.37 ], [ 286456.71, 4160499.83 ], [ 286458.51, 4160498.59 ], [ 286455.64, 4160494.44 ], [ 286453.9, 4160495.65 ], [ 286451.44, 4160492.11 ], [ 286442.57, 4160498.33 ], [ 286445.98, 4160503.26 ], [ 286443.08, 4160505.27 ], [ 286446.81, 4160510.65 ], [ 286449.56, 4160508.73 ] ] ] } },
{ "type": "Feature", "properties": { "id": "osm:way/755574278", "name": null, "height": 7.07, "min_height": 0.0, "levels": null, "height_source": "lidar", "roof_shape": "hip", "roof_height": 3.12, "roof_azimuth": 123.2, "roof_source": "lod2", "roof_color": "roof_flat", "roof_color_source": "ortho", "lod2_roof": { "v": [ [ 286320.97, 4160507.78, 0.0 ], [ 286314.91, 4160511.75, 0.0 ], [ 286307.73, 4160497.97, 0.33 ], [ 286306.87, 4160496.66, 0.0 ], [ 286314.26, 4160510.76, 0.0 ], [ 286306.45, 4160498.81, 0.35 ], [ 286311.0, 4160493.96, 0.0 ], [ 286311.86, 4160495.27, 0.23 ], [ 286313.63, 4160495.22, 0.17 ], [ 286320.76, 4160506.24, 0.2 ], [ 286313.01, 4160495.41, 0.52 ], [ 286319.76, 4160506.93, 0.0 ], [ 286319.76, 4160506.93, 0.47 ], [ 286319.76, 4160506.93, 0.87 ], [ 286313.09, 4160494.46, 0.2 ], [ 286318.79, 4160506.25, 1.12 ], [ 286318.79, 4160506.25, 1.07 ], [ 286317.42, 4160505.94, 1.63 ], [ 286317.42, 4160505.94, 1.66 ], [ 286316.67, 4160507.84, 1.0 ], [ 286316.67, 4160507.84, 2.58 ], [ 286315.89, 4160507.57, 2.86 ], [ 286315.89, 4160507.57, 2.86 ], [ 286316.67, 4160507.84, 3.12 ], [ 286316.26, 4160508.89, 0.65 ], [ 286316.26, 4160508.89, 2.61 ], [ 286314.26, 4160510.76, 0.41 ], [ 286313.46, 4160509.54, 1.2 ], [ 286313.78, 4160507.84, 1.87 ], [ 286307.88, 4160501.0, 1.45 ], [ 286312.4, 4160502.48, 2.94 ] ], "f": [ [ [ 4, 11, 0, 1 ] ], [ [ 30, 29, 5, 2, 3, 6, 7, 14, 10 ] ], [ [ 22, 30, 10, 8, 9, 13, 15, 18, 20 ] ], [ [ 30, 21, 23, 25, 28, 27, 29 ] ], [ [ 12, 26, 27, 28, 24, 19, 17, 16 ] ], [ [ 15, 16, 17, 18 ] ], [ [ 18, 17, 19, 20 ] ], [ [ 21, 22, 20, 23 ] ], [ [ 13, 12, 16, 15 ] ], [ [ 23, 20, 19, 24, 25 ] ], [ [ 25, 24, 28 ] ], [ [ 22, 21, 30 ] ], [ [ 12, 11, 4, 26 ] ] ] }, "roof_props": null, "wall_color": "cream", "type": "yes", "landmark": null, "footprint_source": "osm", "source_updated": null, "is_part": false, "parent": null, "hidden": false, "addr": "1319 Victor Street", "wikidata": null, "website": null, "zoning": "R-6", "lidar_p90": 9.44, "ground_z": 50.0 }, "geometry": { "type": "Polygon", "coordinates": [ [ [ 286314.31, 4160493.66 ], [ 286311.86, 4160495.27 ], [ 286311.0, 4160493.96 ], [ 286306.87, 4160496.66 ], [ 286307.73, 4160497.97 ], [ 286306.45, 4160498.81 ], [ 286314.91, 4160511.75 ], [ 286321.72, 4160507.29 ], [ 286320.68, 4160505.7 ], [ 286321.72, 4160505.02 ], [ 286314.31, 4160493.66 ] ] ] } },
{ "type": "Feature", "properties": { "id": "osm:way/755573856", "name": null, "height": 8.01, "min_height": 0.0, "levels": null, "height_source": "lidar", "roof_shape": "flat", "roof_height": 1.43, "roof_azimuth": null, "roof_source": "lod2", "roof_color": "concrete", "roof_color_source": "ortho", "lod2_roof": { "v": [ [ 286378.11, 4160517.35, 0.02 ], [ 286378.11, 4160517.35, 0.0 ], [ 286378.11, 4160517.35, 0.0 ], [ 286375.11, 4160516.79, 0.0 ], [ 286375.11, 4160516.79, 0.0 ], [ 286374.62, 4160516.04, 0.0 ], [ 286381.01, 4160513.18, 0.74 ], [ 286381.01, 4160513.18, 0.0 ], [ 286381.11, 4160513.14, 0.0 ], [ 286381.11, 4160513.14, 0.71 ], [ 286381.42, 4160513.6, 0.71 ], [ 286381.42, 4160513.6, 0.0 ], [ 286385.11, 4160517.31, 1.43 ], [ 286385.11, 4160517.31, 0.58 ], [ 286384.45, 4160517.59, 0.77 ], [ 286384.45, 4160517.59, 1.06 ], [ 286384.45, 4160517.59, 1.39 ], [ 286378.13, 4160518.97, 0.0 ], [ 286378.13, 4160518.97, 0.0 ], [ 286385.64, 4160508.85, 0.0 ], [ 286385.46, 4160521.97, 0.93 ], [ 286385.46, 4160521.97, 0.0 ], [ 286384.63, 4160518.37, 0.8 ], [ 286382.89, 4160518.25, 0.9 ], [ 286382.89, 4160518.25, 1.29 ], [ 286380.73, 4160525.42, 0.0 ], [ 286379.33, 4160523.28, 0.0 ], [ 286379.33, 4160523.28, 0.0 ], [ 286380.37, 4160521.59, 0.0 ], [ 286380.37, 4160521.59, 0.0 ], [ 286380.0, 4160522.19, 0.0 ], [ 286381.95, 4160524.62, 0.0 ], [ 286381.95, 4160524.62, 0.0 ], [ 286380.37, 4160521.59, 0.0 ], [ 286379.4, 4160519.75, 0.55 ], [ 286379.4, 4160519.75, 0.0 ], [ 286379.77, 4160520.45, 0.88 ], [ 286379.77, 4160520.45, 0.31 ], [ 286379.77, 4160520.45, 0.0 ], [ 286386.25, 4160509.73, 0.0 ], [ 286386.25, 4160509.73, 0.0 ], [ 286386.76, 4160510.46, 0.0 ], [ 286386.76, 4160510.46, 0.0 ], [ 286385.77, 4160512.39, 0.0 ], [ 286384.38, 4160522.69, 0.0 ], [ 286384.33, 4160523.07, 0.0 ], [ 286385.53, 4160522.29, 0.94 ], [ 286392.03, 4160518.06, 0.0 ], [ 286392.03, 4160518.06, 0.0 ], [ 286382.75, 4160513.29, 0.24 ], [ 286382.75, 4160513.29, 0.0 ], [ 286382.9, 4160513.67, 0.0 ], [ 286382.9, 4160513.67, 0.28 ], [ 286382.49, 4160511.94, 0.02 ], [ 286382.49, 4160511.94, 0.0 ], [ 286381.76, 4160518.04, 0.99 ], [ 286381.76, 4160518.04, 0.56 ], [ 286381.81, 4160518.05, 1.01 ], [ 286381.76, 4160518.04, 1.01 ], [ 286380.92, 4160512.87, 0.0 ], [ 286380.92, 4160512.87, 0.7 ], [ 286382.17, 4160514.69, 0.0 ], [ 286382.17, 4160514.69, 0.73 ], [ 286388.08, 4160508.65, 0.0 ], [ 286393.48, 4160517.11, 0.0 ], [ 286380.88, 4160519.11, 0.7 ] ], "f": [ [ [ 32, 25, 27, 30, 29 ] ], [ [ 24, 57, 55, 0, 4, 5, 19, 39, 42, 43, 12, 16 ], [ 11, 61, 51, 50, 54, 59, 8, 7 ] ], [ [ 56, 65, 36, 34, 17, 1 ] ], [ [ 62, 10, 6, 9, 60, 53, 49, 52 ] ], [ [ 48, 41, 40, 63, 64 ] ], [ [ 38, 28, 30, 26, 3, 2, 18, 35 ] ], [ [ 33, 37, 65, 58, 57, 23, 15, 22, 21, 44, 45, 31 ] ], [ [ 42, 47, 46, 20, 22, 14, 13, 43 ] ], [ [ 0, 1, 2, 3, 4 ] ], [ [ 6, 7, 8, 9 ] ], [ [ 10, 11, 7, 6 ] ], [ [ 12, 13, 14, 15, 16 ] ], [ [ 17, 18, 2, 1 ] ], [ [ 20, 21, 22 ] ], [ [ 15, 14, 22 ] ], [ [ 16, 15, 23, 24 ] ], [ [ 28, 29, 30 ] ], [ [ 27, 26, 30 ] ], [ [ 31, 32, 29, 28, 33 ] ], [ [ 34, 35, 18, 17 ] ], [ [ 36, 37, 38, 35, 34 ] ], [ [ 39, 40, 41, 42 ] ], [ [ 13, 12, 43 ] ], [ [ 49, 50, 51, 52 ] ], [ [ 53, 54, 50, 49 ] ], [ [ 55, 56, 1, 0 ] ], [ [ 24, 23, 57 ] ], [ [ 58, 55, 57 ] ], [ [ 9, 8, 59, 60 ] ], [ [ 60, 59, 54, 53 ] ], [ [ 52, 51, 61, 62 ] ], [ [ 62, 61, 11, 10 ] ], [ [ 56, 55, 58, 65 ] ], [ [ 37, 36, 65 ] ], [ [ 33, 28, 38, 37 ] ], [ [ 42, 41, 48, 47 ] ] ] }, "roof_props": null, "wall_color": "concrete", "type": "yes", "landmark": null, "footprint_source": "osm", "source_updated": null, "is_part": false, "parent": null, "hidden": false, "addr": "2801 3rd Avenue", "wikidata": null, "website": null, "zoning": "R-6", "lidar_p90": 8.74, "ground_z": 50.0 }, "geometry": { "type": "Polygon", "coordinates": [ [ [ 286388.28, 4160507.13 ], [ 286374.62, 4160516.04 ], [ 286380.73, 4160525.42 ], [ 286394.39, 4160516.52 ], [ 286388.28, 4160507.13 ] ] ] } },
{ "type": "Feature", "properties": { "id": "richmond_structure:291251", "name": null, "height": 7.5, "min_height": 0.0, "levels": null, "height_source": "zoning", "roof_shape": "flat", "roof_height": 3.36, "roof_azimuth": null, "roof_source": "lod2", "roof_color": "roof_flat", "roof_color_source": "heuristic", "lod2_roof": { "v": [ [ 286459.11, 4160526.63, 0.57 ], [ 286458.13, 4160525.1, 1.11 ], [ 286458.13, 4160525.1, 1.66 ], [ 286456.15, 4160525.68, 0.54 ], [ 286455.16, 4160524.13, 1.45 ], [ 286458.28, 4160525.04, 1.64 ], [ 286458.28, 4160525.04, 1.2 ], [ 286459.01, 4160523.4, 2.2 ], [ 286459.17, 4160523.04, 2.42 ], [ 286459.17, 4160523.04, 2.33 ], [ 286453.99, 4160522.32, 0.63 ], [ 286455.09, 4160521.61, 0.81 ], [ 286455.09, 4160521.61, 0.86 ], [ 286460.1, 4160522.1, 2.56 ], [ 286460.1, 4160522.1, 2.48 ], [ 286460.89, 4160521.81, 2.36 ], [ 286460.89, 4160521.81, 2.99 ], [ 286464.22, 4160511.85, 0.0 ], [ 286469.45, 4160520.0, 0.0 ], [ 286457.48, 4160524.82, 0.71 ], [ 286455.21, 4160521.98, 0.99 ], [ 286455.21, 4160521.98, 0.74 ], [ 286455.93, 4160521.77, 1.19 ], [ 286457.21, 4160521.39, 2.01 ], [ 286457.21, 4160521.39, 1.56 ], [ 286457.33, 4160522.98, 1.48 ], [ 286457.33, 4160522.98, 1.6 ], [ 286457.33, 4160522.98, 1.96 ], [ 286457.27, 4160522.15, 1.76 ], [ 286461.77, 4160523.63, 2.79 ], [ 286461.77, 4160523.63, 1.16 ], [ 286460.64, 4160524.09, 1.31 ], [ 286460.64, 4160524.09, 2.17 ], [ 286457.87, 4160520.04, 3.09 ], [ 286457.87, 4160520.04, 2.86 ], [ 286457.87, 4160520.04, 2.53 ], [ 286456.74, 4160517.33, 0.84 ], [ 286456.74, 4160517.33, 2.54 ], [ 286461.46, 4160521.59, 2.27 ], [ 286461.46, 4160521.59, 2.75 ], [ 286462.55, 4160512.93, 0.0 ], [ 286454.72, 4160519.92, 1.47 ], [ 286454.72, 4160519.92, 1.25 ], [ 286453.83, 4160518.52, 0.5 ], [ 286455.6, 4160521.28, 1.2 ], [ 286458.49, 4160520.58, 3.19 ], [ 286458.49, 4160520.58, 2.98 ], [ 286458.05, 4160520.47, 2.79 ], [ 286458.05, 4160520.47, 3.17 ], [ 286458.72, 4160521.4, 3.36 ], [ 286458.72, 4160521.4, 3.3 ], [ 286458.72, 4160521.4, 2.8 ], [ 286461.02, 4160513.91, 0.51 ], [ 286461.02, 4160513.91, 1.06 ], [ 286461.56, 4160514.6, 1.02 ], [ 286459.1, 4160522.78, 2.48 ], [ 286455.94, 4160519.96, 1.88 ], [ 286459.47, 4160520.81, 3.22 ], [ 286459.47, 4160520.81, 3.33 ], [ 286458.98, 4160521.19, 3.31 ], [ 286464.17, 4160517.91, 2.51 ], [ 286464.17, 4160517.91, 2.8 ], [ 286463.18, 4160518.7, 2.7 ], [ 286462.58, 4160519.18, 2.63 ], [ 286462.58, 4160519.18, 2.81 ], [ 286463.37, 4160516.9, 2.31 ], [ 286463.37, 4160516.9, 0.91 ], [ 286464.17, 4160517.91, 0.85 ], [ 286463.44, 4160522.96, 2.08 ], [ 286463.44, 4160522.96, 0.93 ], [ 286467.41, 4160521.31, 0.0 ], [ 286457.82, 4160524.6, 1.12 ], [ 286457.48, 4160524.82, 0.87 ], [ 286457.4, 4160523.78, 1.21 ], [ 286460.29, 4160521.01, 2.96 ], [ 286460.29, 4160521.01, 3.24 ], [ 286461.44, 4160520.09, 3.03 ], [ 286461.8, 4160519.8, 2.96 ], [ 286461.8, 4160519.8, 3.05 ], [ 286460.91, 4160517.44, 2.48 ], [ 286460.91, 4160517.44, 2.22 ], [ 286458.47, 4160516.11, 2.24 ], [ 286458.47, 4160516.11, 0.79 ], [ 286460.41, 4160517.56, 2.11 ], [ 286460.41, 4160517.56, 2.51 ], [ 286462.4, 4160519.89, 2.96 ], [ 286462.4, 4160519.89, 2.8 ], [ 286462.02, 4160519.83, 2.96 ], [ 286455.99, 4160523.49, 1.6 ], [ 286459.7, 4160520.87, 3.23 ], [ 286462.72, 4160519.28, 2.53 ], [ 286462.72, 4160519.28, 2.83 ], [ 286462.4, 4160519.89, 2.3 ], [ 286463.56, 4160520.07, 1.81 ], [ 286463.56, 4160520.07, 2.32 ], [ 286466.21, 4160520.48, 1.22 ], [ 286466.21, 4160520.48, 0.71 ], [ 286466.21, 4160520.48, 0.0 ], [ 286466.26, 4160520.57, 0.0 ], [ 286466.26, 4160520.57, 1.16 ], [ 286462.55, 4160512.93, 0.04 ], [ 286464.6, 4160518.46, 2.36 ], [ 286464.6, 4160518.46, 0.82 ], [ 286466.76, 4160521.21, 0.68 ], [ 286466.76, 4160521.21, 0.0 ], [ 286467.41, 4160521.31, 0.41 ], [ 286462.8, 4160522.13, 2.27 ], [ 286462.8, 4160522.13, 1.55 ] ], "f": [ [ [ 32, 13, 16, 29 ] ], [ [ 71, 72, 73, 25, 28, 23, 22, 21, 11, 44, 42, 56, 34, 47, 46, 51, 55, 8, 7, 6, 1 ] ], [ [ 88, 26, 73, 19, 3, 4 ] ], [ [ 27, 88, 4, 10, 12, 20, 22, 24, 28 ] ], [ [ 91, 85, 87, 77, 76, 75, 89, 57, 59, 49, 45, 48, 33, 37, 81, 84, 79, 65, 60, 62, 64 ] ], [ [ 43, 52, 54, 80, 83, 82, 36, 35, 56, 41 ] ], [ [ 100, 96, 93, 102, 67, 66, 80, 54, 53 ] ], [ [ 39, 106, 68, 29, 16 ] ], [ [ 105, 0, 2, 5, 7, 9, 55, 50, 59, 58, 89, 74, 76, 78, 87, 86, 94, 95, 99, 103 ], [ 107, 38, 15, 14, 31, 30, 69 ] ], [ [ 61, 101, 93, 92, 90, 63, 62 ] ], [ [ 97, 40, 17, 18, 70, 104, 98 ] ], [ [ 5, 6, 7 ] ], [ [ 8, 9, 7 ] ], [ [ 13, 14, 15, 16 ] ], [ [ 2, 1, 6, 5 ] ], [ [ 20, 21, 22 ] ], [ [ 23, 24, 22 ] ], [ [ 25, 26, 27, 28 ] ], [ [ 24, 23, 28 ] ], [ [ 29, 30, 31, 32 ] ], [ [ 33, 34, 35, 36, 37 ] ], [ [ 16, 15, 38, 39 ] ], [ [ 12, 11, 21, 20 ] ], [ [ 45, 46, 47, 48 ] ], [ [ 49, 50, 51, 46, 45 ] ], [ [ 52, 53, 54 ] ], [ [ 9, 8, 55 ] ], [ [ 51, 50, 55 ] ], [ [ 42, 41, 56 ] ], [ [ 35, 34, 56 ] ], [ [ 57, 58, 59 ] ], [ [ 50, 49, 59 ] ], [ [ 60, 61, 62 ] ], [ [ 63, 64, 62 ] ], [ [ 65, 66, 67, 60 ] ], [ [ 32, 31, 14, 13 ] ], [ [ 68, 69, 30, 29 ] ], [ [ 48, 47, 34, 33 ] ], [ [ 72, 19, 73 ] ], [ [ 26, 25, 73 ] ], [ [ 74, 75, 76 ] ], [ [ 77, 78, 76 ] ], [ [ 79, 80, 66, 65 ] ], [ [ 81, 82, 83, 84 ] ], [ [ 37, 36, 82, 81 ] ], [ [ 85, 86, 87 ] ], [ [ 78, 77, 87 ] ], [ [ 84, 83, 80, 79 ] ], [ [ 27, 26, 88 ] ], [ [ 58, 57, 89 ] ], [ [ 75, 74, 89 ] ], [ [ 64, 63, 90, 91 ] ], [ [ 91, 90, 92, 86, 85 ] ], [ [ 86, 92, 93, 94 ] ], [ [ 95, 96, 97, 98, 99 ] ], [ [ 101, 102, 93 ] ], [ [ 94, 93, 96, 95 ] ], [ [ 103, 104, 70, 105 ] ], [ [ 99, 98, 104, 103 ] ], [ [ 106, 107, 69, 68 ] ], [ [ 39, 38, 107, 106 ] ], [ [ 61, 60, 67, 102, 101 ] ], [ [ 100, 40, 97, 96 ] ] ] }, "roof_props": null, "wall_color": "terracotta", "type": "yes", "landmark": null, "footprint_source": "richmond_structures", "source_updated": "2026-09-08T12:07:13.637000Z", "is_part": false, "parent": null, "hidden": false, "addr": "2808 4th Ave", "wikidata": null, "website": null, "zoning": "R-6", "lidar_p90": null, "ground_z": 47.49 }, "geometry": { "type": "Polygon", "coordinates": [ [ [ 286469.45, 4160520.0 ], [ 286464.22, 4160511.85 ], [ 286453.83, 4160518.52 ], [ 286455.6, 4160521.28 ], [ 286453.99, 4160522.32 ], [ 286456.15, 4160525.68 ], [ 286457.82, 4160524.6 ], [ 286459.12, 4160526.63 ], [ 286469.45, 4160520.0 ] ] ] } },
{ "type": "Feature", "properties": { "id": "osm:way/755574570", "name": null, "height": 9.1, "min_height": 0.0, "levels": null, "height_source": "lidar", "roof_shape": "flat", "roof_height": 0.0, "roof_azimuth": null, "roof_source": "heuristic", "roof_color": "concrete", "roof_color_source": "ortho", "lod2_roof": null, "roof_props": null, "wall_color": "concrete", "type": "yes", "landmark": null, "footprint_source": "osm", "source_updated": null, "is_part": false, "parent": null, "hidden": false, "addr": "2803 3rd Avenue", "wikidata": null, "website": null, "zoning": "R-6", "lidar_p90": 9.6, "ground_z": 49.99 }, "geometry": { "type": "Polygon", "coordinates": [ [ [ 286396.98, 4160519.94 ], [ 286383.5, 4160528.66 ], [ 286388.69, 4160536.69 ], [ 286402.17, 4160527.97 ], [ 286396.98, 4160519.94 ] ] ] } },
{ "type": "Feature", "properties": { "id": "osm:way/755574830", "name": null, "height": 2.66, "min_height": 0.0, "levels": null, "height_source": "lidar", "roof_shape": "skillion", "roof_height": 1.48, "roof_azimuth": 31.9, "roof_source": "lod2", "roof_color": "roof_flat", "roof_color_source": "ortho", "lod2_roof": { "v": [ [ 286427.75, 4160535.61, 0.05 ], [ 286428.36, 4160535.06, 0.0 ], [ 286428.8, 4160535.78, 0.0 ], [ 286425.6, 4160537.72, 1.48 ], [ 286421.42, 4160531.12, 1.47 ], [ 286424.18, 4160529.39, 0.0 ], [ 286423.43, 4160539.03, 0.2 ], [ 286419.39, 4160532.4, 0.27 ], [ 286420.66, 4160531.6, 1.02 ], [ 286421.17, 4160530.72, 1.47 ] ], "f": [ [ [ 5, 0, 1, 2, 3, 4 ] ], [ [ 9, 4, 3, 6, 7, 8 ] ] ] }, "roof_props": null, "wall_color": "sand", "type": "yes", "landmark": null, "footprint_source": "osm", "source_updated": null, "is_part": false, "parent": null, "hidden": false, "addr": null, "wikidata": null, "website": null, "zoning": "R-6", "lidar_p90": 3.98, "ground_z": 49.94 }, "geometry": { "type": "Polygon", "coordinates": [ [ [ 286424.04, 4160527.93 ], [ 286418.66, 4160531.19 ], [ 286423.43, 4160539.03 ], [ 286428.8, 4160535.78 ], [ 286424.04, 4160527.93 ] ] ] } },
{ "type": "Feature", "properties": { "id": "osm:way/755574399", "name": null, "height": 8.34, "min_height": 0.0, "levels": null, "height_source": "lidar", "roof_shape": "flat", "roof_height": 1.59, "roof_azimuth": null, "roof_source": "lod2", "roof_color": "roof_flat", "roof_color_source": "ortho", "lod2_roof": { "v": [ [ 286405.32, 4160544.74, 0.0 ], [ 286405.38, 4160544.82, 0.0 ], [ 286408.8, 4160542.46, 0.0 ], [ 286408.2, 4160542.86, 0.0 ], [ 286397.38, 4160549.95, 0.0 ], [ 286396.62, 4160550.45, 0.0 ], [ 286403.45, 4160535.1, 0.0 ], [ 286397.95, 4160549.88, 0.0 ], [ 286397.95, 4160549.88, 0.0 ], [ 286395.43, 4160545.91, 0.0 ], [ 286395.43, 4160545.91, 1.43 ], [ 286403.95, 4160545.8, 0.0 ], [ 286403.95, 4160545.8, 0.0 ], [ 286398.3, 4160551.35, 0.0 ], [ 286391.65, 4160542.87, 0.0 ], [ 286395.43, 4160545.91, 1.43 ], [ 286392.95, 4160542.01, 0.0 ], [ 286392.95, 4160542.01, 0.0 ], [ 286392.79, 4160541.76, 0.0 ], [ 286403.29, 4160534.88, 0.0 ], [ 286403.45, 4160535.1, 0.0 ], [ 286403.34, 4160535.18, 0.0 ], [ 286404.66, 4160547.17, 0.0 ], [ 286402.24, 4160541.39, 1.59 ] ], "f": [ [ [ 21, 23, 15, 17, 18, 19, 20 ] ], [ [ 22, 13, 4, 5, 14, 16, 9, 8, 12 ] ], [ [ 10, 23, 3, 0, 1, 11, 7 ] ], [ [ 23, 21, 6, 2, 3 ] ], [ [ 7, 8, 9, 10 ] ], [ [ 11, 12, 8, 7 ] ], [ [ 15, 10, 9, 16, 17 ] ], [ [ 20, 6, 21 ] ], [ [ 10, 15, 23 ] ] ] }, "roof_props": null, "wall_color": "cream", "type": "yes", "landmark": null, "footprint_source": "osm", "source_updated": null, "is_part": false, "parent": null, "hidden": false, "addr": "2805 3rd Avenue", "wikidata": null, "website": null, "zoning": "R-6", "lidar_p90": 9.35, "ground_z": 50.02 }, "geometry": { "type": "Polygon", "coordinates": [ [ [ 286406.24, 4160546.14 ], [ 286405.32, 4160544.74 ], [ 286410.48, 4160541.36 ], [ 286405.35, 4160533.53 ], [ 286391.49, 4160542.62 ], [ 286396.62, 4160550.45 ], [ 286397.38, 4160549.95 ], [ 286398.3, 4160551.35 ], [ 286406.24, 4160546.14 ] ] ] } },
{ "type": "Feature", "properties": { "id": "richmond_structure:288343", "name": null, "height": 7.5, "min_height": 0.0, "levels": null, "height_source": "zoning", "roof_shape": "flat", "roof_height": 2.94, "roof_azimuth": null, "roof_source": "lod2", "roof_color": "roof_flat", "roof_color_source": "heuristic", "lod2_roof": { "v": [ [ 286466.78, 4160541.93, 2.49 ], [ 286466.78, 4160541.93, 2.49 ], [ 286467.88, 4160543.65, 2.48 ], [ 286464.98, 4160543.12, 0.71 ], [ 286469.6, 4160550.23, 0.7 ], [ 286468.34, 4160551.06, 0.0 ], [ 286464.96, 4160545.93, 0.0 ], [ 286466.27, 4160545.06, 0.72 ], [ 286469.36, 4160540.24, 0.0 ], [ 286469.62, 4160540.07, 0.0 ], [ 286480.82, 4160538.92, 2.44 ], [ 286482.36, 4160541.26, 0.63 ], [ 286478.38, 4160535.22, 0.0 ], [ 286480.82, 4160538.92, 2.44 ], [ 286470.04, 4160540.72, 0.0 ], [ 286481.57, 4160541.78, 0.62 ], [ 286482.11, 4160542.6, 0.0 ], [ 286469.51, 4160546.19, 2.45 ], [ 286469.51, 4160546.19, 2.45 ], [ 286471.71, 4160549.45, 2.51 ], [ 286473.4, 4160548.34, 0.0 ], [ 286469.88, 4160550.65, 0.7 ], [ 286473.4, 4160548.34, 0.42 ], [ 286469.7, 4160545.94, 2.52 ], [ 286469.7, 4160545.94, 2.14 ], [ 286469.63, 4160545.98, 2.21 ], [ 286469.63, 4160545.98, 2.52 ], [ 286469.38, 4160544.94, 1.88 ], [ 286469.38, 4160544.94, 2.94 ], [ 286469.38, 4160545.64, 2.26 ], [ 286469.38, 4160545.64, 2.62 ], [ 286469.51, 4160546.05, 2.52 ], [ 286469.51, 4160546.05, 2.36 ], [ 286469.63, 4160545.98, 2.64 ], [ 286471.3, 4160546.97, 1.39 ] ], "f": [ [ [ 30, 33, 31, 17, 19, 21, 4, 5, 6, 7, 3, 0, 2, 28 ] ], [ [ 27, 2, 1, 8 ] ], [ [ 24, 34, 22, 19, 18, 32, 25 ] ], [ [ 13, 23, 26, 29, 27, 8, 9, 14, 12 ] ], [ [ 23, 10, 11, 15, 16, 20, 34 ] ], [ [ 0, 1, 2 ] ], [ [ 17, 18, 19 ] ], [ [ 23, 24, 25, 26 ] ], [ [ 27, 28, 2 ] ], [ [ 28, 27, 29, 30 ] ], [ [ 31, 32, 18, 17 ] ], [ [ 33, 26, 25, 32, 31 ] ], [ [ 30, 29, 26, 33 ] ], [ [ 24, 23, 34 ] ], [ [ 20, 22, 34 ] ], [ [ 13, 10, 23 ] ] ] }, "roof_props": null, "wall_color": "terracotta", "type": "yes", "landmark": null, "footprint_source": "richmond_structures", "source_updated": "2026-09-08T12:07:13.637000Z", "is_part": false, "parent": null, "hidden": false, "addr": "2812 4th Ave", "wikidata": null, "website": null, "zoning": "R-6", "lidar_p90": null, "ground_z": 47.49 }, "geometry": { "type": "Polygon", "coordinates": [ [ [ 286469.61, 4160550.23 ], [ 286469.88, 4160550.65 ], [ 286482.11, 4160542.6 ], [ 286481.57, 4160541.78 ], [ 286482.36, 4160541.26 ], [ 286478.38, 4160535.22 ], [ 286470.04, 4160540.72 ], [ 286469.62, 4160540.07 ], [ 286464.98, 4160543.12 ], [ 286466.27, 4160545.06 ], [ 286464.96, 4160545.93 ], [ 286468.34, 4160551.06 ], [ 286469.61, 4160550.23 ] ] ] } },
{ "type": "Feature", "properties": { "id": "osm:way/755574016", "name": null, "height": 3.41, "min_height": 0.0, "levels": null, "height_source": "lidar", "roof_shape": "gable", "roof_height": 2.03, "roof_azimuth": 122.9, "roof_source": "lod2", "roof_color": "roof_flat", "roof_color_source": "ortho", "lod2_roof": { "v": [ [ 286262.57, 4160504.78, 0.0 ], [ 286263.12, 4160504.42, 0.0 ], [ 286260.5, 4160509.13, 1.01 ], [ 286259.72, 4160507.95, 0.2 ], [ 286262.95, 4160506.15, 0.28 ], [ 286264.18, 4160506.11, 0.28 ], [ 286268.1, 4160512.36, 0.33 ], [ 286264.31, 4160514.95, 0.75 ], [ 286264.02, 4160514.51, 1.03 ], [ 286264.18, 4160506.11, 0.63 ], [ 286267.4, 4160512.84, 0.83 ], [ 286263.65, 4160506.52, 0.67 ], [ 286262.94, 4160509.73, 2.03 ], [ 286264.45, 4160512.07, 2.03 ] ], "f": [ [ [ 8, 2, 12, 13 ] ], [ [ 13, 10, 7, 8 ] ], [ [ 11, 5, 6, 10, 13, 12 ] ], [ [ 4, 0, 1, 9, 11, 12, 2, 3 ] ], [ [ 9, 5, 11 ] ] ] }, "roof_props": null, "wall_color": "sand", "type": "yes", "landmark": null, "footprint_source": "osm", "source_updated": null, "is_part": false, "parent": null, "hidden": false, "addr": null, "wikidata": null, "website": null, "zoning": "R-5", "lidar_p90": 5.11, "ground_z": 49.76 }, "geometry": { "type": "Polygon", "coordinates": [ [ [ 286264.33, 4160503.63 ], [ 286259.11, 4160507.01 ], [ 286264.31, 4160514.95 ], [ 286269.34, 4160511.51 ], [ 286264.33, 4160503.63 ] ] ] } },
{ "type": "Feature", "properties": { "id": "osm:way/755574123", "name": null, "height": 8.26, "min_height": 0.0, "levels": null, "height_source": "lidar", "roof_shape": "flat", "roof_height": 1.73, "roof_azimuth": null, "roof_source": "lod2", "roof_color": "roof_flat", "roof_color_source": "ortho", "lod2_roof": { "v": [ [ 286275.19, 4160534.29, 0.0 ], [ 286270.46, 4160537.5, 0.0 ], [ 286276.96, 4160531.93, 0.0 ], [ 286277.03, 4160532.04, 0.0 ], [ 286277.03, 4160532.04, 0.0 ], [ 286274.48, 4160533.62, 0.0 ], [ 286274.48, 4160533.62, 0.0 ], [ 286269.97, 4160521.67, 0.0 ], [ 286270.1, 4160521.58, 0.0 ], [ 286270.66, 4160522.42, 0.0 ], [ 286262.95, 4160526.4, 0.0 ], [ 286265.88, 4160524.41, 0.0 ], [ 286264.79, 4160522.81, 0.0 ], [ 286268.87, 4160520.04, 0.0 ], [ 286273.49, 4160534.24, 0.47 ], [ 286273.49, 4160534.24, 0.0 ], [ 286273.49, 4160534.24, 0.0 ], [ 286271.61, 4160535.41, 0.0 ], [ 286271.61, 4160535.41, 0.0 ], [ 286271.61, 4160535.41, 0.51 ], [ 286263.41, 4160527.08, 0.0 ], [ 286264.2, 4160528.24, 0.0 ], [ 286263.41, 4160527.08, 0.0 ], [ 286269.14, 4160535.55, 0.0 ], [ 286270.66, 4160522.42, 0.0 ], [ 286276.57, 4160531.12, 0.0 ], [ 286276.46, 4160531.19, 0.0 ], [ 286270.71, 4160522.48, 0.0 ], [ 286274.48, 4160533.62, 0.0 ], [ 286275.19, 4160534.29, 0.0 ], [ 286271.23, 4160535.0, 0.63 ], [ 286271.23, 4160535.0, 0.0 ], [ 286271.15, 4160534.29, 0.0 ], [ 286271.15, 4160534.29, 0.78 ], [ 286270.4, 4160532.46, 0.76 ], [ 286270.4, 4160532.46, 1.22 ], [ 286271.42, 4160534.94, 0.62 ], [ 286271.42, 4160534.94, 0.0 ], [ 286269.95, 4160536.75, 0.0 ], [ 286269.95, 4160536.75, 0.0 ], [ 286270.73, 4160535.95, 0.0 ], [ 286270.73, 4160535.95, 0.0 ], [ 286272.61, 4160532.17, 0.16 ], [ 286272.61, 4160532.17, 0.97 ], [ 286272.9, 4160532.85, 0.0 ], [ 286272.9, 4160532.85, 0.81 ], [ 286277.5, 4160532.73, 0.0 ], [ 286273.16, 4160533.47, 0.66 ], [ 286273.16, 4160533.47, 0.0 ], [ 286273.51, 4160533.12, 0.68 ], [ 286273.51, 4160533.12, 0.0 ], [ 286269.32, 4160529.51, 1.73 ], [ 286270.03, 4160530.6, 1.73 ] ], "f": [ [ [ 21, 51, 52, 23 ] ], [ [ 9, 20, 10, 11, 12, 13, 7, 8 ] ], [ [ 26, 2, 52, 51, 27, 25 ] ], [ [ 24, 27, 51, 21, 22 ] ], [ [ 3, 46, 29, 5 ] ], [ [ 45, 49, 47, 14, 19, 36, 30, 33, 35, 43 ] ], [ [ 41, 17, 16, 28, 0, 1, 39 ] ], [ [ 50, 44, 42, 34, 32, 31, 37, 18, 40, 38, 23, 52, 2, 4, 6, 15, 48 ] ], [ [ 4, 3, 5, 6 ] ], [ [ 14, 15, 16, 17, 18, 19 ] ], [ [ 22, 20, 9, 24 ] ], [ [ 6, 5, 28, 16, 15 ] ], [ [ 29, 0, 28, 5 ] ], [ [ 30, 31, 32, 33 ] ], [ [ 33, 32, 34, 35 ] ], [ [ 36, 37, 31, 30 ] ], [ [ 19, 18, 37, 36 ] ], [ [ 40, 41, 39, 38 ] ], [ [ 35, 34, 42, 43 ] ], [ [ 43, 42, 44, 45 ] ], [ [ 47, 48, 15, 14 ] ], [ [ 49, 50, 48, 47 ] ], [ [ 18, 17, 41, 40 ] ], [ [ 45, 44, 50, 49 ] ] ] }, "roof_props": null, "wall_color": "concrete", "type": "yes", "landmark": null, "footprint_source": "osm", "source_updated": null, "is_part": false, "parent": null, "hidden": false, "addr": "1303 Victor Street", "wikidata": null, "website": null, "zoning": "R-5", "lidar_p90": 9.32, "ground_z": 49.34 }, "geometry": { "type": "Polygon", "coordinates": [ [ [ 286269.97, 4160521.67 ], [ 286268.87, 4160520.04 ], [ 286264.79, 4160522.81 ], [ 286265.88, 4160524.41 ], [ 286262.95, 4160526.4 ], [ 286270.46, 4160537.5 ], [ 286277.5, 4160532.73 ], [ 286276.46, 4160531.19 ], [ 286277.62, 4160530.41 ], [ 286271.15, 4160520.87 ], [ 286269.97, 4160521.67 ] ] ] } },
{ "type": "Feature", "properties": { "id": "osm:way/755574696", "name": null, "height": 8.34, "min_height": 0.0, "levels": null, "height_source": "lidar", "roof_shape": "flat", "roof_height": 2.29, "roof_azimuth": null, "roof_source": "lod2", "roof_color": "roof_flat", "roof_color_source": "ortho", "lod2_roof": { "v": [ [ 286257.96, 4160543.09, 0.75 ], [ 286257.96, 4160543.09, 0.0 ], [ 286256.87, 4160543.82, 0.0 ], [ 286256.87, 4160543.82, 0.0 ], [ 286256.87, 4160543.82, 0.73 ], [ 286252.42, 4160529.2, 0.0 ], [ 286252.59, 4160529.09, 0.0 ], [ 286262.92, 4160539.28, 0.0 ], [ 286261.55, 4160540.23, 0.0 ], [ 286262.13, 4160541.07, 0.0 ], [ 286262.13, 4160541.07, 0.0 ], [ 286263.12, 4160542.51, 0.0 ], [ 286252.19, 4160528.87, 0.0 ], [ 286258.21, 4160536.43, 0.0 ], [ 286258.21, 4160536.43, 0.6 ], [ 286258.21, 4160536.43, 0.68 ], [ 286258.59, 4160537.41, 0.11 ], [ 286258.45, 4160536.38, 0.64 ], [ 286251.2, 4160527.44, 0.0 ], [ 286251.53, 4160527.91, 0.0 ], [ 286246.31, 4160532.83, 0.0 ], [ 286245.39, 4160531.51, 0.0 ], [ 286251.55, 4160528.52, 0.0 ], [ 286251.55, 4160528.52, 0.0 ], [ 286251.69, 4160532.53, 0.0 ], [ 286251.69, 4160532.53, 0.0 ], [ 286251.69, 4160532.53, 0.0 ], [ 286248.0, 4160532.74, 0.0 ], [ 286248.0, 4160532.74, 0.0 ], [ 286255.51, 4160530.68, 0.0 ], [ 286257.69, 4160535.05, 0.0 ], [ 286249.53, 4160537.48, 0.0 ], [ 286249.53, 4160537.48, 0.52 ], [ 286251.07, 4160536.97, 0.76 ], [ 286254.85, 4160545.17, 0.0 ], [ 286254.85, 4160545.17, 0.0 ], [ 286254.21, 4160544.25, 0.0 ], [ 286254.21, 4160544.25, 0.2 ], [ 286256.28, 4160547.24, 0.0 ], [ 286248.28, 4160535.68, 0.0 ], [ 286261.06, 4160537.31, 0.0 ], [ 286260.99, 4160537.33, 0.0 ], [ 286260.99, 4160537.33, 0.0 ], [ 286261.14, 4160538.56, 0.0 ], [ 286258.62, 4160533.67, 0.0 ], [ 286258.62, 4160533.67, 0.0 ], [ 286260.23, 4160535.36, 0.61 ], [ 286251.83, 4160533.23, 0.0 ], [ 286251.83, 4160533.23, 0.0 ], [ 286255.51, 4160530.68, 0.0 ], [ 286255.96, 4160530.93, 0.0 ], [ 286248.76, 4160535.35, 0.0 ], [ 286248.76, 4160535.35, 0.0 ], [ 286254.51, 4160544.08, 0.18 ], [ 286258.45, 4160542.08, 1.01 ], [ 286258.45, 4160542.08, 0.0 ], [ 286259.45, 4160542.49, 0.0 ], [ 286259.45, 4160542.49, 0.61 ], [ 286258.19, 4160541.3, 1.38 ], [ 286258.19, 4160541.3, 0.34 ], [ 286260.98, 4160536.14, 0.02 ], [ 286257.03, 4160541.3, 1.67 ], [ 286257.03, 4160541.3, 0.73 ], [ 286260.39, 4160542.11, 0.0 ], [ 286260.39, 4160542.11, 0.0 ], [ 286259.45, 4160542.49, 0.0 ], [ 286261.04, 4160542.64, 0.0 ], [ 286261.04, 4160542.64, 0.0 ], [ 286261.51, 4160540.72, 0.0 ], [ 286261.51, 4160540.72, 0.0 ], [ 286261.4, 4160540.79, 0.0 ], [ 286261.4, 4160540.79, 0.0 ], [ 286256.95, 4160531.92, 0.0 ], [ 286257.03, 4160531.51, 0.0 ], [ 286257.83, 4160534.33, 0.0 ], [ 286259.5, 4160537.66, 0.0 ], [ 286261.51, 4160540.72, 0.0 ], [ 286261.13, 4160540.39, 0.0 ], [ 286262.09, 4160541.2, 0.0 ], [ 286262.09, 4160541.2, 0.0 ], [ 286261.61, 4160542.66, 0.0 ], [ 286261.61, 4160542.66, 0.0 ], [ 286261.49, 4160543.01, 0.0 ], [ 286251.71, 4160533.29, 0.0 ], [ 286251.71, 4160533.29, 0.0 ], [ 286251.71, 4160533.29, 0.0 ], [ 286261.61, 4160542.66, 0.0 ], [ 286261.91, 4160543.35, 0.0 ], [ 286254.54, 4160537.74, 2.29 ], [ 286255.49, 4160539.21, 2.29 ] ], "f": [ [ [ 74, 44, 46, 17, 14, 30 ] ], [ [ 48, 83, 24, 23, 12, 5, 6, 29 ] ], [ [ 19, 22, 26, 28, 20, 21, 18 ] ], [ [ 88, 89, 53, 36, 31, 33 ] ], [ [ 52, 85, 47, 49, 50, 88, 33, 32, 39 ] ], [ [ 84, 51, 27, 25 ] ], [ [ 71, 86, 66, 63, 56, 55, 59, 62, 3, 34, 37, 53, 89, 77, 68 ] ], [ [ 57, 0, 4, 61, 58, 54 ] ], [ [ 11, 87, 82, 81, 70, 69, 79, 9 ] ], [ [ 87, 38, 35, 2, 1, 65, 64, 67, 80, 82 ] ], [ [ 60, 40, 42, 75, 16, 15, 17, 46 ] ], [ [ 89, 88, 50, 73, 72, 45, 74, 30, 13, 16, 75, 41, 43, 7, 8, 10, 78, 76, 77 ] ], [ [ 0, 1, 2, 3, 4 ] ], [ [ 13, 14, 15, 16 ] ], [ [ 15, 14, 17 ] ], [ [ 22, 23, 24, 25, 26 ] ], [ [ 26, 25, 27, 28 ] ], [ [ 14, 13, 30 ] ], [ [ 31, 32, 33 ] ], [ [ 47, 48, 29, 49 ] ], [ [ 37, 36, 53 ] ], [ [ 54, 55, 56, 57 ] ], [ [ 58, 59, 55, 54 ] ], [ [ 61, 62, 59, 58 ] ], [ [ 63, 64, 65, 56 ] ], [ [ 66, 67, 64, 63 ] ], [ [ 68, 69, 70, 71 ] ], [ [ 45, 44, 74 ] ], [ [ 42, 41, 75 ] ], [ [ 3, 2, 35, 34 ] ], [ [ 4, 3, 62, 61 ] ], [ [ 76, 68, 77 ] ], [ [ 78, 79, 69, 68, 76 ] ], [ [ 10, 9, 79, 78 ] ], [ [ 80, 81, 82 ] ], [ [ 25, 24, 83, 84 ] ], [ [ 85, 84, 83, 48, 47 ] ], [ [ 52, 51, 84, 85 ] ], [ [ 86, 80, 67, 66 ] ], [ [ 71, 70, 81, 80, 86 ] ], [ [ 57, 56, 65, 1, 0 ] ] ] }, "roof_props": null, "wall_color": "cream", "type": "yes", "landmark": null, "footprint_source": "osm", "source_updated": null, "is_part": false, "parent": null, "hidden": false, "addr": "1301 Victor Street", "wikidata": null, "website": null, "zoning": "R-5", "lidar_p90": 9.7, "ground_z": 48.89 }, "geometry": { "type": "Polygon", "coordinates": [ [ [ 286259.38, 4160531.49 ], [ 286258.58, 4160532.04 ], [ 286256.51, 4160529.06 ], [ 286255.28, 4160529.92 ], [ 286254.02, 4160528.11 ], [ 286252.42, 4160529.2 ], [ 286250.27, 4160526.1 ], [ 286244.45, 4160530.14 ], [ 286256.28, 4160547.24 ], [ 286263.12, 4160542.51 ], [ 286261.55, 4160540.23 ], [ 286263.15, 4160539.12 ], [ 286261.14, 4160536.22 ], [ 286262.17, 4160535.51 ], [ 286259.38, 4160531.49 ] ] ] } },
{ "type": "Feature", "properties": { "id": "osm:way/755574461", "name": null, "height": 8.9, "min_height": 0.0, "levels": null, "height_source": "lidar", "roof_shape": "flat", "roof_height": 0.93, "roof_azimuth": null, "roof_source": "lod2", "roof_color": "roof_flat", "roof_color_source": "ortho", "lod2_roof": { "v": [ [ 286406.43, 4160551.22, 0.0 ], [ 286406.43, 4160551.22, 0.0 ], [ 286407.74, 4160552.1, 0.0 ], [ 286408.92, 4160552.9, 0.09 ], [ 286408.92, 4160552.9, 0.82 ], [ 286405.63, 4160561.27, 0.0 ], [ 286404.33, 4160562.1, 0.0 ], [ 286406.63, 4160559.57, 0.89 ], [ 286406.63, 4160559.57, 0.84 ], [ 286407.23, 4160559.14, 0.84 ], [ 286407.23, 4160559.14, 0.93 ], [ 286406.39, 4160559.31, 0.5 ], [ 286406.39, 4160559.31, 0.84 ], [ 286411.66, 4160559.83, 0.0 ], [ 286408.52, 4160561.84, 0.0 ], [ 286407.42, 4160560.12, 0.04 ], [ 286400.01, 4160555.32, 0.0 ], [ 286412.03, 4160556.18, 0.83 ], [ 286412.03, 4160556.18, 0.83 ], [ 286412.03, 4160556.18, 0.83 ], [ 286411.96, 4160556.08, 0.83 ], [ 286411.43, 4160556.57, 0.19 ], [ 286411.43, 4160556.57, 0.83 ], [ 286413.62, 4160558.58, 0.8 ], [ 286411.66, 4160559.83, 0.0 ], [ 286408.04, 4160550.2, 0.82 ], [ 286408.04, 4160550.2, 0.84 ], [ 286410.2, 4160548.82, 0.0 ], [ 286407.4, 4160559.15, 0.84 ], [ 286409.56, 4160552.47, 0.82 ], [ 286409.56, 4160552.47, 0.82 ], [ 286413.49, 4160558.32, 0.8 ], [ 286413.49, 4160558.32, 0.84 ], [ 286401.35, 4160554.98, 0.0 ], [ 286401.35, 4160554.98, 0.0 ], [ 286401.56, 4160554.84, 0.0 ], [ 286401.35, 4160554.98, 0.0 ], [ 286401.1, 4160554.62, 0.0 ], [ 286401.1, 4160554.62, 0.0 ], [ 286405.63, 4160561.27, 0.05 ], [ 286412.31, 4160547.48, 0.0 ], [ 286415.57, 4160557.04, 0.0 ], [ 286417.93, 4160555.83, 0.0 ], [ 286402.73, 4160557.01, 0.0 ], [ 286402.73, 4160557.01, 0.0 ], [ 286402.4, 4160557.22, 0.0 ], [ 286402.4, 4160557.22, 0.0 ], [ 286411.55, 4160558.26, 0.0 ], [ 286406.24, 4160558.8, 0.02 ], [ 286406.24, 4160558.8, 0.24 ], [ 286406.24, 4160558.8, 0.83 ], [ 286405.94, 4160558.91, 0.0 ], [ 286409.23, 4160551.98, 0.82 ], [ 286403.73, 4160558.47, 0.0 ], [ 286403.73, 4160558.47, 0.0 ], [ 286415.71, 4160557.25, 0.0 ], [ 286405.65, 4160556.72, 0.83 ], [ 286405.86, 4160560.13, 0.84 ], [ 286405.16, 4160560.58, 0.84 ], [ 286405.16, 4160560.58, 0.79 ], [ 286405.16, 4160560.58, 0.0 ], [ 286403.73, 4160558.47, 0.0 ], [ 286403.2, 4160557.7, 0.0 ], [ 286403.2, 4160557.7, 0.0 ], [ 286404.9, 4160555.56, 0.83 ] ], "f": [ [ [ 32, 23, 24, 47, 21, 18 ] ], [ [ 38, 0, 2, 4, 64, 35, 34 ] ], [ [ 26, 52, 29, 3, 2, 1 ] ], [ [ 41, 27, 40, 42, 55 ] ], [ [ 50, 56, 64, 4, 30, 20, 19, 22, 28, 9, 8, 12 ] ], [ [ 59, 53, 51, 48, 11, 8, 57 ] ], [ [ 54, 62, 45, 43, 33, 35, 64, 56, 49, 51 ] ], [ [ 39, 58, 57, 7, 10, 28, 22, 47, 13, 14, 15 ] ], [ [ 63, 61, 60, 5, 6, 16, 37, 36, 44, 46 ] ], [ [ 27, 41, 31, 17, 20, 30, 52, 25 ] ], [ [ 0, 1, 2 ] ], [ [ 3, 4, 2 ] ], [ [ 7, 8, 9, 10 ] ], [ [ 11, 12, 8 ] ], [ [ 17, 18, 19, 20 ] ], [ [ 19, 18, 21, 22 ] ], [ [ 10, 9, 28 ] ], [ [ 4, 3, 29, 30 ] ], [ [ 18, 17, 31, 32 ] ], [ [ 33, 34, 35 ] ], [ [ 34, 33, 36, 37, 38 ] ], [ [ 43, 44, 36, 33 ] ], [ [ 45, 46, 44, 43 ] ], [ [ 22, 21, 47 ] ], [ [ 24, 13, 47 ] ], [ [ 12, 11, 48, 49, 50 ] ], [ [ 49, 48, 51 ] ], [ [ 30, 29, 52 ] ], [ [ 26, 25, 52 ] ], [ [ 53, 54, 51 ] ], [ [ 50, 49, 56 ] ], [ [ 8, 7, 57 ] ], [ [ 58, 59, 57 ] ], [ [ 59, 60, 61, 54, 53 ] ], [ [ 39, 5, 60, 59, 58 ] ], [ [ 62, 63, 46, 45 ] ], [ [ 54, 61, 63, 62 ] ] ] }, "roof_props": null, "wall_color": "concrete", "type": "yes", "landmark": null, "footprint_source": "osm", "source_updated": null, "is_part": false, "parent": null, "hidden": false, "addr": "2807 3rd Avenue", "wikidata": null, "website": null, "zoning": "R-6", "lidar_p90": 9.6, "ground_z": 50.19 }, "geometry": { "type": "Polygon", "coordinates": [ [ [ 286414.5, 4160546.08 ], [ 286400.01, 4160555.32 ], [ 286404.33, 4160562.1 ], [ 286407.42, 4160560.12 ], [ 286408.52, 4160561.84 ], [ 286419.91, 4160554.57 ], [ 286414.5, 4160546.08 ] ] ] } },
{ "type": "Feature", "properties": { "id": "richmond_structure:290002", "name": null, "height": 7.5, "min_height": 0.0, "levels": null, "height_source": "zoning", "roof_shape": "flat", "roof_height": 0.0, "roof_azimuth": null, "roof_source": "heuristic", "roof_color": "roof_flat", "roof_color_source": "heuristic", "lod2_roof": null, "roof_props": null, "wall_color": "concrete", "type": "yes", "landmark": null, "footprint_source": "richmond_structures", "source_updated": "2026-09-08T12:07:13.637000Z", "is_part": false, "parent": null, "hidden": false, "addr": "2814 4th Ave", "wikidata": null, "website": null, "zoning": "R-6", "lidar_p90": null, "ground_z": 47.49 }, "geometry": { "type": "Polygon", "coordinates": [ [ [ 286482.99, 4160559.97 ], [ 286484.0, 4160561.42 ], [ 286493.34, 4160554.93 ], [ 286488.6, 4160548.11 ], [ 286479.33, 4160554.55 ], [ 286480.16, 4160555.74 ], [ 286475.96, 4160558.66 ], [ 286478.86, 4160562.83 ], [ 286482.99, 4160559.97 ] ] ] } },
{ "type": "Feature", "properties": { "id": "richmond_structure:290347", "name": null, "height": 7.5, "min_height": 0.0, "levels": null, "height_source": "zoning", "roof_shape": "flat", "roof_height": 0.0, "roof_azimuth": null, "roof_source": "heuristic", "roof_color": "concrete", "roof_color_source": "heuristic", "lod2_roof": null, "roof_props": null, "wall_color": "brick", "type": "yes", "landmark": null, "footprint_source": "richmond_structures", "source_updated": "2026-09-08T12:07:13.637000Z", "is_part": false, "parent": null, "hidden": false, "addr": "2816 4th Ave", "wikidata": null, "website": null, "zoning": "R-6", "lidar_p90": null, "ground_z": 47.49 }, "geometry": { "type": "Polygon", "coordinates": [ [ [ 286489.57, 4160574.33 ], [ 286498.81, 4160568.06 ], [ 286498.37, 4160567.4 ], [ 286500.31, 4160566.07 ], [ 286496.71, 4160560.77 ], [ 286495.2, 4160561.79 ], [ 286493.6, 4160559.44 ], [ 286483.92, 4160566.02 ], [ 286489.57, 4160574.33 ] ] ] } },
{ "type": "Feature", "properties": { "id": "osm:way/755574478", "name": null, "height": 7.17, "min_height": 0.0, "levels": null, "height_source": "lidar", "roof_shape": "gable", "roof_height": 2.75, "roof_azimuth": 122.3, "roof_source": "lod2", "roof_color": "concrete", "roof_color_source": "ortho", "lod2_roof": { "v": [ [ 286408.54, 4160567.97, 0.0 ], [ 286409.48, 4160567.38, 0.0 ], [ 286411.05, 4160569.44, 0.19 ], [ 286411.05, 4160569.44, 0.0 ], [ 286409.48, 4160567.38, 0.02 ], [ 286417.28, 4160574.45, 2.53 ], [ 286416.82, 4160574.74, 2.01 ], [ 286411.75, 4160565.94, 2.62 ], [ 286414.03, 4160564.51, 0.0 ], [ 286415.95, 4160573.34, 2.05 ], [ 286414.27, 4160574.4, 0.0 ], [ 286414.27, 4160574.4, 0.13 ], [ 286420.18, 4160560.63, 0.27 ], [ 286420.18, 4160560.63, 0.02 ], [ 286420.85, 4160560.2, 0.0 ], [ 286420.43, 4160561.06, 0.29 ], [ 286414.29, 4160570.07, 2.46 ], [ 286414.29, 4160570.07, 2.46 ], [ 286414.29, 4160570.2, 2.39 ], [ 286414.29, 4160570.2, 2.59 ], [ 286425.94, 4160568.21, 0.08 ], [ 286425.94, 4160568.21, 0.0 ], [ 286426.3, 4160568.76, 0.0 ], [ 286425.84, 4160568.28, 0.08 ], [ 286419.71, 4160572.92, 0.0 ], [ 286417.28, 4160574.45, 2.65 ], [ 286416.02, 4160570.89, 1.73 ], [ 286416.02, 4160570.89, 1.73 ], [ 286413.77, 4160568.94, 2.45 ], [ 286413.77, 4160568.94, 2.64 ], [ 286413.71, 4160569.02, 2.55 ], [ 286411.23, 4160572.22, 0.0 ], [ 286413.77, 4160568.94, 1.81 ], [ 286414.49, 4160570.07, 2.52 ], [ 286414.49, 4160570.07, 2.62 ], [ 286414.28, 4160568.24, 1.65 ], [ 286414.28, 4160573.66, 0.53 ], [ 286414.28, 4160573.66, 0.0 ], [ 286412.32, 4160573.96, 0.0 ], [ 286412.32, 4160573.96, 0.0 ], [ 286412.26, 4160571.02, 2.35 ], [ 286412.26, 4160571.02, 0.0 ], [ 286413.11, 4160570.98, 1.02 ], [ 286413.11, 4160570.98, 2.75 ], [ 286415.23, 4160571.22, 1.82 ], [ 286415.23, 4160571.22, 2.56 ], [ 286415.23, 4160571.22, 2.6 ], [ 286416.02, 4160570.89, 1.73 ], [ 286413.08, 4160575.16, 0.0 ], [ 286411.23, 4160572.22, 0.0 ], [ 286412.38, 4160570.85, 2.25 ], [ 286412.38, 4160570.85, 0.0 ], [ 286413.11, 4160570.98, 0.0 ], [ 286415.73, 4160572.01, 2.58 ], [ 286419.55, 4160566.72, 2.52 ] ], "f": [ [ [ 35, 8, 13, 15, 54, 33, 32 ] ], [ [ 14, 21, 23, 54, 15, 12 ] ], [ [ 22, 24, 27, 47, 44, 33, 54, 23, 20 ] ], [ [ 48, 38, 37, 10 ] ], [ [ 2, 16, 19, 43, 50, 40 ] ], [ [ 8, 35, 28, 30, 7 ] ], [ [ 25, 53, 45, 47, 26, 24 ] ], [ [ 52, 31, 0, 1, 3, 41, 51 ] ], [ [ 49, 42, 18, 17, 2, 4, 7, 30, 29, 34, 46, 53, 5, 6, 9, 11, 36, 39 ] ], [ [ 2, 3, 1, 4 ] ], [ [ 13, 12, 15 ] ], [ [ 16, 17, 18, 19 ] ], [ [ 21, 20, 23 ] ], [ [ 26, 27, 24 ] ], [ [ 28, 29, 30 ] ], [ [ 29, 28, 32, 33, 34 ] ], [ [ 32, 28, 35 ] ], [ [ 36, 37, 38, 39 ] ], [ [ 11, 10, 37, 36 ] ], [ [ 40, 41, 3, 2 ] ], [ [ 19, 18, 42, 43 ] ], [ [ 34, 33, 44, 45, 46 ] ], [ [ 27, 26, 47 ] ], [ [ 45, 44, 47 ] ], [ [ 50, 51, 41, 40 ] ], [ [ 43, 42, 52, 51, 50 ] ], [ [ 46, 45, 53 ] ], [ [ 25, 5, 53 ] ], [ [ 17, 16, 2 ] ], [ [ 49, 31, 52, 42 ] ] ] }, "roof_props": null, "wall_color": "concrete", "type": "yes", "landmark": null, "footprint_source": "osm", "source_updated": null, "is_part": false, "parent": null, "hidden": false, "addr": "2809 3rd Avenue", "wikidata": null, "website": null, "zoning": "R-6", "lidar_p90": 9.49, "ground_z": 50.33 }, "geometry": { "type": "Polygon", "coordinates": [ [ [ 286415.95, 4160573.34 ], [ 286416.82, 4160574.74 ], [ 286428.42, 4160567.42 ], [ 286423.0, 4160558.84 ], [ 286408.54, 4160567.97 ], [ 286413.08, 4160575.16 ], [ 286415.95, 4160573.34 ] ] ] } },
{ "type": "Feature", "properties": { "id": "osm:way/755574004", "name": "Fifth Street Baptist Church", "height": 10.99, "min_height": 0.0, "levels": null, "height_source": "lidar", "roof_shape": "flat", "roof_height": 0.0, "roof_azimuth": null, "roof_source": "heuristic", "roof_color": "roof_flat", "roof_color_source": "ortho", "lod2_roof": null, "roof_props": null, "wall_color": "sand", "type": "yes", "landmark": null, "footprint_source": "osm", "source_updated": null, "is_part": false, "parent": null, "hidden": false, "addr": "2800 3rd Avenue", "wikidata": null, "website": null, "zoning": "R-6", "lidar_p90": 16.21, "ground_z": 50.2 }, "geometry": { "type": "Polygon", "coordinates": [ [ [ 286326.64, 4160567.82 ], [ 286335.49, 4160562.13 ], [ 286347.99, 4160581.56 ], [ 286362.27, 4160572.37 ], [ 286363.25, 4160573.89 ], [ 286340.13, 4160588.76 ], [ 286350.35, 4160604.64 ], [ 286381.17, 4160584.83 ], [ 286370.89, 4160568.65 ], [ 286367.23, 4160571.01 ], [ 286359.77, 4160559.78 ], [ 286361.64, 4160558.58 ], [ 286356.07, 4160549.8 ], [ 286357.94, 4160548.6 ], [ 286352.12, 4160539.49 ], [ 286350.82, 4160540.33 ], [ 286347.63, 4160535.37 ], [ 286342.72, 4160538.53 ], [ 286340.6, 4160535.22 ], [ 286329.76, 4160542.19 ], [ 286331.82, 4160545.4 ], [ 286328.48, 4160547.55 ], [ 286331.12, 4160551.67 ], [ 286327.42, 4160554.05 ], [ 286330.89, 4160559.45 ], [ 286328.67, 4160560.87 ], [ 286326.47, 4160557.44 ], [ 286322.19, 4160560.2 ], [ 286326.64, 4160567.82 ] ] ] } },
{ "type": "Feature", "properties": { "id": "richmond_structure:388464", "name": null, "height": 3.07, "min_height": 0.0, "levels": null, "height_source": "lidar", "roof_shape": "flat", "roof_height": 0.33, "roof_azimuth": null, "roof_source": "lod2", "roof_color": "roof_flat", "roof_color_source": "heuristic", "lod2_roof": { "v": [ [ 286451.52, 4160579.8, 0.0 ], [ 286450.2, 4160577.63, 0.2 ], [ 286449.88, 4160577.82, 0.2 ], [ 286449.88, 4160577.82, 0.33 ], [ 286448.81, 4160578.48, 0.32 ], [ 286447.09, 4160575.67, 0.0 ], [ 286449.63, 4160577.67, 0.25 ], [ 286451.61, 4160572.91, 0.0 ], [ 286453.09, 4160575.48, 0.27 ], [ 286454.76, 4160577.82, 0.0 ], [ 286453.45, 4160575.26, 0.27 ] ], "f": [ [ [ 8, 6, 3, 4, 5, 7, 10 ] ], [ [ 6, 8, 9, 0, 1, 2 ] ], [ [ 2, 3, 6 ] ] ] }, "roof_props": null, "wall_color": "concrete", "type": "yes", "landmark": null, "footprint_source": "richmond_structures", "source_updated": "2026-09-08T12:07:13.637000Z", "is_part": false, "parent": null, "hidden": false, "addr": null, "wikidata": null, "website": null, "zoning": "R-6", "lidar_p90": 3.13, "ground_z": 47.49 }, "geometry": { "type": "Polygon", "coordinates": [ [ [ 286452.77, 4160572.2 ], [ 286447.09, 4160575.67 ], [ 286448.81, 4160578.48 ], [ 286450.2, 4160577.63 ], [ 286451.52, 4160579.8 ], [ 286455.81, 4160577.18 ], [ 286452.77, 4160572.2 ] ] ] } },
{ "type": "Feature", "properties": { "id": "osm:way/755574291", "name": null, "height": 8.66, "min_height": 0.0, "levels": null, "height_source": "lidar", "roof_shape": "gable", "roof_height": 5.91, "roof_azimuth": 32.9, "roof_source": "lod2", "roof_color": "roof_flat", "roof_color_source": "ortho", "lod2_roof": { "v": [ [ 286320.69, 4160571.45, 0.0 ], [ 286320.69, 4160571.45, 0.0 ], [ 286330.44, 4160586.23, 0.0 ], [ 286294.12, 4160567.71, 2.03 ], [ 286294.12, 4160567.71, 0.37 ], [ 286300.74, 4160563.53, 5.91 ], [ 286298.31, 4160574.08, 2.03 ], [ 286298.31, 4160574.08, 0.37 ], [ 286320.08, 4160593.09, 5.89 ], [ 286310.42, 4160599.49, 0.13 ], [ 286291.12, 4160569.6, 0.19 ], [ 286295.17, 4160575.87, 0.19 ], [ 286318.26, 4160567.92, 0.0 ], [ 286318.26, 4160567.92, 0.0 ], [ 286318.12, 4160569.16, 0.0 ], [ 286318.12, 4160569.16, 0.19 ], [ 286310.95, 4160557.09, 2.01 ], [ 286312.42, 4160559.26, 0.01 ], [ 286312.42, 4160559.26, 2.01 ], [ 286326.64, 4160567.82, 0.0 ], [ 286320.62, 4160571.34, 0.0 ], [ 286324.34, 4160564.24, 0.0 ], [ 286307.57, 4160559.22, 1.89 ], [ 286308.1, 4160560.06, 2.02 ], [ 286308.1, 4160560.06, 1.89 ], [ 286307.57, 4160559.22, 2.02 ], [ 286315.52, 4160563.85, 0.0 ], [ 286315.52, 4160563.85, 0.08 ], [ 286311.89, 4160566.05, 1.95 ], [ 286311.89, 4160566.05, 0.4 ], [ 286315.02, 4160564.15, 0.12 ], [ 286310.18, 4160559.41, 0.14 ], [ 286310.18, 4160559.41, 2.02 ], [ 286295.17, 4160575.87, 0.24 ], [ 286319.87, 4160572.03, 0.0 ], [ 286319.87, 4160572.03, 0.24 ], [ 286308.1, 4160560.06, 0.29 ] ], "f": [ [ [ 7, 11, 10, 4 ] ], [ [ 36, 31, 17, 27, 30, 29 ] ], [ [ 20, 1, 34, 14, 13, 21, 19 ] ], [ [ 5, 8, 9, 33, 6, 3 ] ], [ [ 32, 23, 25, 16, 18 ] ], [ [ 8, 5, 22, 24, 28, 30, 26, 12, 15, 35, 0, 2 ] ], [ [ 6, 7, 4, 3 ] ], [ [ 12, 13, 14, 15 ] ], [ [ 23, 24, 22, 25 ] ], [ [ 28, 29, 30 ] ], [ [ 27, 26, 30 ] ], [ [ 18, 17, 31, 32 ] ], [ [ 33, 11, 7, 6 ] ], [ [ 15, 14, 34, 35 ] ], [ [ 35, 34, 1, 0 ] ], [ [ 24, 36, 29, 28 ] ], [ [ 32, 31, 36, 24, 23 ] ] ] }, "roof_props": null, "wall_color": "concrete", "type": "yes", "landmark": null, "footprint_source": "osm", "source_updated": null, "is_part": false, "parent": null, "hidden": false, "addr": "1302 Victor Street", "wikidata": null, "website": null, "zoning": "R-5", "lidar_p90": 13.75, "ground_z": 49.44 }, "geometry": { "type": "Polygon", "coordinates": [ [ [ 286324.34, 4160564.24 ], [ 286318.29, 4160567.96 ], [ 286310.95, 4160557.09 ], [ 286291.12, 4160569.6 ], [ 286310.42, 4160599.49 ], [ 286330.44, 4160586.23 ], [ 286320.62, 4160571.34 ], [ 286326.64, 4160567.82 ], [ 286324.34, 4160564.24 ] ] ] } },
{ "type": "Feature", "properties": { "id": "richmond_structure:288171", "name": null, "height": 7.5, "min_height": 0.0, "levels": null, "height_source": "zoning", "roof_shape": "flat", "roof_height": 0.0, "roof_azimuth": null, "roof_source": "heuristic", "roof_color": "roof_flat", "roof_color_source": "heuristic", "lod2_roof": null, "roof_props": null, "wall_color": "cream", "type": "yes", "landmark": null, "footprint_source": "richmond_structures", "source_updated": "2026-09-08T12:07:13.637000Z", "is_part": false, "parent": null, "hidden": false, "addr": "2818 4th Ave", "wikidata": null, "website": null, "zoning": "R-6", "lidar_p90": null, "ground_z": 47.49 }, "geometry": { "type": "Polygon", "coordinates": [ [ [ 286508.42, 4160578.12 ], [ 286504.14, 4160571.62 ], [ 286489.28, 4160581.4 ], [ 286490.47, 4160583.19 ], [ 286491.37, 4160582.65 ], [ 286492.68, 4160584.64 ], [ 286493.73, 4160583.95 ], [ 286496.24, 4160587.75 ], [ 286500.42, 4160585.0 ], [ 286499.68, 4160583.88 ], [ 286508.42, 4160578.12 ] ] ] } },
{ "type": "Feature", "properties": { "id": "osm:way/755574035", "name": null, "height": 7.79, "min_height": 0.0, "levels": null, "height_source": "lidar", "roof_shape": "flat", "roof_height": 1.43, "roof_azimuth": null, "roof_source": "lod2", "roof_color": "roof_flat", "roof_color_source": "ortho", "lod2_roof": { "v": [ [ 286432.69, 4160582.64, 0.0 ], [ 286428.75, 4160585.24, 0.0 ], [ 286422.68, 4160587.08, 0.0 ], [ 286422.68, 4160587.08, 0.0 ], [ 286418.66, 4160581.12, 0.0 ], [ 286418.66, 4160581.12, 0.0 ], [ 286423.17, 4160587.81, 0.0 ], [ 286421.41, 4160588.97, 0.0 ], [ 286423.55, 4160587.56, 0.0 ], [ 286423.17, 4160587.81, 0.0 ], [ 286422.83, 4160587.3, 0.0 ], [ 286422.83, 4160587.3, 0.0 ], [ 286417.35, 4160583.04, 0.0 ], [ 286418.52, 4160580.91, 0.0 ], [ 286428.37, 4160574.61, 0.0 ], [ 286429.62, 4160573.8, 0.0 ], [ 286434.61, 4160581.36, 0.0 ], [ 286422.07, 4160583.64, 0.0 ], [ 286422.07, 4160583.64, 1.17 ], [ 286423.97, 4160585.19, 0.24 ], [ 286418.91, 4160581.05, 0.0 ], [ 286418.66, 4160581.12, 0.0 ], [ 286418.73, 4160581.01, 0.0 ], [ 286428.24, 4160584.46, 0.0 ], [ 286422.54, 4160587.46, 0.0 ], [ 286422.54, 4160587.46, 0.0 ], [ 286427.47, 4160580.5, 1.43 ] ], "f": [ [ [ 26, 14, 15, 16, 0 ] ], [ [ 25, 2, 5, 22, 20, 17, 19, 8, 9, 11 ] ], [ [ 21, 13, 14, 26, 18, 20, 22 ] ], [ [ 3, 24, 10, 6, 7, 12, 4 ] ], [ [ 23, 8, 19, 18, 26, 0, 1 ] ], [ [ 2, 3, 4, 5 ] ], [ [ 9, 6, 10, 11 ] ], [ [ 17, 18, 19 ] ], [ [ 18, 17, 20 ] ], [ [ 5, 21, 22 ] ], [ [ 11, 10, 24, 25 ] ], [ [ 25, 24, 3, 2 ] ] ] }, "roof_props": null, "wall_color": "concrete", "type": "yes", "landmark": null, "footprint_source": "osm", "source_updated": null, "is_part": false, "parent": null, "hidden": false, "addr": "2811 3rd Avenue", "wikidata": null, "website": null, "zoning": "R-6", "lidar_p90": 8.75, "ground_z": 50.33 }, "geometry": { "type": "Polygon", "coordinates": [ [ [ 286428.75, 4160585.24 ], [ 286434.61, 4160581.36 ], [ 286428.88, 4160572.68 ], [ 286415.57, 4160581.48 ], [ 286420.79, 4160589.38 ], [ 286428.24, 4160584.46 ], [ 286428.75, 4160585.24 ] ] ] } },
{ "type": "Feature", "properties": { "id": "osm:way/755574826", "name": null, "height": 7.92, "min_height": 0.0, "levels": null, "height_source": "lidar", "roof_shape": "flat", "roof_height": 1.57, "roof_azimuth": null, "roof_source": "lod2", "roof_color": "roof_dark", "roof_color_source": "heuristic", "lod2_roof": { "v": [ [ 286438.42, 4160587.82, 0.0 ], [ 286442.36, 4160594.73, 0.0 ], [ 286438.0, 4160587.08, 0.0 ], [ 286438.16, 4160587.36, 0.0 ], [ 286441.68, 4160595.17, 0.0 ], [ 286436.88, 4160594.11, 1.57 ], [ 286436.88, 4160594.11, 1.57 ], [ 286432.7, 4160600.89, 0.0 ], [ 286431.86, 4160601.43, 0.0 ], [ 286431.86, 4160601.43, 0.0 ], [ 286438.02, 4160588.08, 0.0 ], [ 286426.26, 4160595.85, 0.0 ], [ 286426.94, 4160595.4, 0.0 ], [ 286427.42, 4160595.08, 0.0 ], [ 286427.79, 4160594.84, 0.0 ], [ 286427.16, 4160594.7, 0.0 ], [ 286433.72, 4160596.16, 1.54 ], [ 286427.73, 4160595.53, 0.0 ], [ 286427.73, 4160595.53, 0.0 ], [ 286430.35, 4160602.39, 0.0 ], [ 286426.81, 4160594.21, 0.0 ] ], "f": [ [ [ 16, 5, 4, 7 ] ], [ [ 10, 0, 1, 4, 6 ] ], [ [ 15, 20, 2, 3, 10, 6, 16, 14 ] ], [ [ 9, 17, 13, 14, 16, 7 ] ], [ [ 8, 19, 11, 12, 18 ] ], [ [ 5, 6, 4 ] ], [ [ 6, 5, 16 ] ], [ [ 9, 8, 18, 17 ] ] ] }, "roof_props": null, "wall_color": "terracotta", "type": "yes", "landmark": null, "footprint_source": "osm", "source_updated": null, "is_part": false, "parent": null, "hidden": false, "addr": "2815 3rd Avenue", "wikidata": null, "website": null, "zoning": "R-6", "lidar_p90": 8.97, "ground_z": 50.46 }, "geometry": { "type": "Polygon", "coordinates": [ [ [ 286438.72, 4160586.62 ], [ 286424.51, 4160595.67 ], [ 286429.25, 4160603.09 ], [ 286443.45, 4160594.04 ], [ 286438.72, 4160586.62 ] ] ] } },
{ "type": "Feature", "properties": { "id": "osm:way/755572066", "name": null, "height": 8.28, "min_height": 0.0, "levels": null, "height_source": "lidar", "roof_shape": "flat", "roof_height": 0.96, "roof_azimuth": null, "roof_source": "lod2", "roof_color": "roof_flat", "roof_color_source": "ortho", "lod2_roof": { "v": [ [ 286253.35, 4160608.91, 0.0 ], [ 286252.81, 4160608.06, 0.0 ], [ 286256.58, 4160606.81, 0.95 ], [ 286248.91, 4160605.19, 0.0 ], [ 286250.41, 4160604.22, 0.0 ], [ 286251.36, 4160608.99, 0.0 ], [ 286248.52, 4160601.29, 0.0 ], [ 286248.42, 4160601.12, 0.0 ], [ 286251.57, 4160599.07, 0.0 ], [ 286251.57, 4160599.07, 0.0 ], [ 286252.15, 4160599.97, 0.0 ], [ 286252.36, 4160600.3, 0.0 ], [ 286252.36, 4160600.3, 0.0 ], [ 286251.84, 4160600.62, 0.69 ], [ 286251.84, 4160600.62, 0.0 ], [ 286252.36, 4160600.3, 0.96 ], [ 286257.98, 4160596.73, 0.0 ], [ 286262.14, 4160603.2, 0.0 ], [ 286255.56, 4160596.47, 0.0 ], [ 286256.4, 4160597.74, 0.0 ], [ 286256.4, 4160597.74, 0.0 ], [ 286260.68, 4160604.15, 0.0 ], [ 286260.68, 4160604.15, 0.0 ], [ 286248.52, 4160601.29, 0.0 ] ], "f": [ [ [ 18, 19, 11, 10, 9 ] ], [ [ 22, 19, 16, 17 ] ], [ [ 20, 21, 2, 15 ] ], [ [ 14, 6, 7, 8, 10, 12 ] ], [ [ 4, 23, 13, 15, 2, 0, 1, 5, 3 ] ], [ [ 8, 9, 10 ] ], [ [ 11, 12, 10 ] ], [ [ 13, 14, 12, 11, 15 ] ], [ [ 15, 11, 19, 20 ] ], [ [ 20, 19, 22, 21 ] ], [ [ 23, 6, 14, 13 ] ] ] }, "roof_props": null, "wall_color": "concrete", "type": "yes", "landmark": null, "footprint_source": "osm", "source_updated": null, "is_part": false, "parent": null, "hidden": false, "addr": "2802 2nd Avenue", "wikidata": null, "website": null, "zoning": "R-5", "lidar_p90": 9.04, "ground_z": 48.06 }, "geometry": { "type": "Polygon", "coordinates": [ [ [ 286252.81, 4160608.06 ], [ 286253.35, 4160608.91 ], [ 286262.14, 4160603.2 ], [ 286257.15, 4160595.44 ], [ 286248.42, 4160601.12 ], [ 286250.41, 4160604.22 ], [ 286248.91, 4160605.19 ], [ 286251.36, 4160608.99 ], [ 286252.81, 4160608.06 ] ] ] } },
{ "type": "Feature", "properties": { "id": "osm:way/755571890", "name": null, "height": 8.09, "min_height": 0.0, "levels": null, "height_source": "lidar", "roof_shape": "flat", "roof_height": 1.39, "roof_azimuth": null, "roof_source": "lod2", "roof_color": "roof_flat", "roof_color_source": "ortho", "lod2_roof": { "v": [ [ 286257.73, 4160608.18, 1.38 ], [ 286258.27, 4160608.99, 1.38 ], [ 286254.68, 4160610.22, 0.0 ], [ 286264.29, 4160605.54, 0.0 ], [ 286268.24, 4160611.53, 0.0 ], [ 286266.39, 4160612.76, 0.0 ], [ 286256.35, 4160612.75, 0.0 ], [ 286255.33, 4160613.42, 0.0 ], [ 286266.39, 4160612.76, 0.0 ], [ 286262.48, 4160615.36, 1.39 ], [ 286255.65, 4160613.94, 0.0 ], [ 286255.65, 4160613.94, 0.0 ], [ 286253.17, 4160615.84, 0.0 ], [ 286258.29, 4160618.13, 0.0 ], [ 286258.29, 4160618.13, 0.0 ], [ 286255.77, 4160619.81, 0.0 ], [ 286262.74, 4160606.43, 0.0 ], [ 286262.74, 4160606.43, 0.0 ], [ 286264.05, 4160605.68, 0.0 ], [ 286262.64, 4160606.27, 0.0 ] ], "f": [ [ [ 14, 10, 7, 6, 2, 0, 1, 9 ] ], [ [ 11, 13, 15, 12 ] ], [ [ 17, 19, 18, 3, 4, 5 ] ], [ [ 1, 16, 8, 9 ] ], [ [ 16, 17, 5, 8 ] ], [ [ 14, 13, 11, 10 ] ] ] }, "roof_props": null, "wall_color": "cream", "type": "yes", "landmark": null, "footprint_source": "osm", "source_updated": null, "is_part": false, "parent": null, "hidden": false, "addr": "2804 2nd Avenue", "wikidata": null, "website": null, "zoning": "R-5", "lidar_p90": 8.92, "ground_z": 48.24 }, "geometry": { "type": "Polygon", "coordinates": [ [ [ 286263.5, 4160604.33 ], [ 286254.68, 4160610.22 ], [ 286256.35, 4160612.75 ], [ 286252.7, 4160615.13 ], [ 286255.77, 4160619.81 ], [ 286268.24, 4160611.53 ], [ 286263.5, 4160604.33 ] ] ] } },
{ "type": "Feature", "properties": { "id": "osm:way/755571891", "name": null, "height": 3.71, "min_height": 0.0, "levels": null, "height_source": "lidar", "roof_shape": "gable", "roof_height": 5.84, "roof_azimuth": 32.3, "roof_source": "lod2", "roof_color": "roof_flat", "roof_color_source": "ortho", "lod2_roof": { "v": [ [ 286263.46, 4160623.56, 0.79 ], [ 286261.18, 4160625.01, 0.1 ], [ 286264.61, 4160622.83, 3.69 ], [ 286263.46, 4160623.56, 2.75 ], [ 286261.62, 4160620.97, 0.74 ], [ 286261.62, 4160620.97, 2.67 ], [ 286272.19, 4160616.17, 0.0 ], [ 286274.83, 4160620.33, 0.09 ], [ 286268.78, 4160616.02, 3.01 ], [ 286268.78, 4160616.02, 0.75 ], [ 286272.73, 4160621.65, 0.79 ], [ 286272.73, 4160621.65, 2.85 ], [ 286269.05, 4160623.97, 5.83 ], [ 286265.11, 4160617.95, 5.84 ], [ 286264.43, 4160616.91, 5.84 ], [ 286261.09, 4160620.22, 2.65 ], [ 286266.4, 4160625.65, 3.66 ], [ 286259.43, 4160622.24, 0.09 ], [ 286267.87, 4160614.73, 3.04 ] ], "f": [ [ [ 17, 4, 0, 1 ] ], [ [ 5, 15, 13, 12, 16, 2, 3 ] ], [ [ 18, 8, 11, 12, 13, 14 ] ], [ [ 7, 10, 9, 6 ] ], [ [ 3, 0, 4, 5 ] ], [ [ 8, 9, 10, 11 ] ] ] }, "roof_props": null, "wall_color": "cream", "type": "yes", "landmark": null, "footprint_source": "osm", "source_updated": null, "is_part": false, "parent": null, "hidden": false, "addr": "2806 2nd Avenue", "wikidata": null, "website": null, "zoning": "R-5", "lidar_p90": 9.03, "ground_z": 48.55 }, "geometry": { "type": "Polygon", "coordinates": [ [ [ 286274.83, 4160620.33 ], [ 286270.31, 4160613.19 ], [ 286258.45, 4160620.69 ], [ 286261.18, 4160625.01 ], [ 286264.61, 4160622.83 ], [ 286266.4, 4160625.65 ], [ 286274.83, 4160620.33 ] ] ] } },
{ "type": "Feature", "properties": { "id": "osm:way/755572090", "name": null, "height": 8.29, "min_height": 0.0, "levels": null, "height_source": "lidar", "roof_shape": "flat", "roof_height": 1.02, "roof_azimuth": null, "roof_source": "lod2", "roof_color": "roof_flat", "roof_color_source": "ortho", "lod2_roof": { "v": [ [ 286269.79, 4160634.68, 0.0 ], [ 286269.53, 4160634.85, 0.0 ], [ 286271.69, 4160633.49, 0.11 ], [ 286269.79, 4160634.68, 0.12 ], [ 286269.82, 4160634.14, 0.0 ], [ 286269.82, 4160634.14, 0.31 ], [ 286281.39, 4160629.42, 0.0 ], [ 286279.09, 4160630.87, 0.0 ], [ 286278.21, 4160628.58, 0.37 ], [ 286278.21, 4160628.58, 0.0 ], [ 286279.09, 4160630.87, 0.0 ], [ 286272.61, 4160634.96, 0.0 ], [ 286268.25, 4160631.77, 0.43 ], [ 286268.25, 4160631.77, 0.0 ], [ 286267.87, 4160631.19, 0.13 ], [ 286268.01, 4160632.45, 0.0 ], [ 286269.56, 4160630.12, 0.14 ], [ 286268.21, 4160627.98, 0.0 ], [ 286268.97, 4160632.85, 1.0 ], [ 286268.97, 4160632.85, 0.0 ], [ 286277.7, 4160628.69, 0.45 ], [ 286277.7, 4160628.69, 0.0 ], [ 286278.63, 4160626.54, 0.0 ], [ 286278.63, 4160626.54, 0.0 ], [ 286278.99, 4160627.04, 0.0 ], [ 286277.02, 4160627.59, 0.0 ], [ 286277.02, 4160627.59, 0.0 ], [ 286274.73, 4160623.88, 0.0 ], [ 286274.73, 4160623.88, 0.0 ], [ 286277.02, 4160627.59, 1.02 ], [ 286279.57, 4160626.53, 0.0 ], [ 286276.07, 4160623.04, 0.0 ] ], "f": [ [ [ 19, 4, 0, 1, 15, 13 ] ], [ [ 24, 30, 6, 7, 9, 21, 25, 22 ] ], [ [ 18, 29, 20, 8, 10, 11, 2, 3, 5 ] ], [ [ 31, 23, 26, 28 ] ], [ [ 29, 18, 12, 14, 16, 17, 27 ] ], [ [ 3, 0, 4, 5 ] ], [ [ 8, 9, 7, 10 ] ], [ [ 18, 19, 13, 12 ] ], [ [ 20, 21, 9, 8 ] ], [ [ 25, 26, 23, 22 ] ], [ [ 27, 28, 26, 25, 29 ] ], [ [ 29, 25, 21, 20 ] ], [ [ 5, 4, 19, 18 ] ] ] }, "roof_props": null, "wall_color": "concrete", "type": "yes", "landmark": null, "footprint_source": "osm", "source_updated": null, "is_part": false, "parent": null, "hidden": false, "addr": "2808 2nd Avenue", "wikidata": null, "website": null, "zoning": "R-5", "lidar_p90": 8.95, "ground_z": 48.76 }, "geometry": { "type": "Polygon", "coordinates": [ [ [ 286281.39, 4160629.42 ], [ 286276.48, 4160621.63 ], [ 286267.7, 4160627.17 ], [ 286269.56, 4160630.12 ], [ 286267.41, 4160631.49 ], [ 286269.53, 4160634.85 ], [ 286271.69, 4160633.49 ], [ 286272.61, 4160634.96 ], [ 286281.39, 4160629.42 ] ] ] } },
{ "type": "Feature", "properties": { "id": "osm:way/755573854", "name": null, "height": 3.82, "min_height": 0.0, "levels": null, "height_source": "lidar", "roof_shape": "gable", "roof_height": 3.12, "roof_azimuth": 47.8, "roof_source": "lod2", "roof_color": "roof_flat", "roof_color_source": "ortho", "lod2_roof": { "v": [ [ 286307.75, 4160611.17, 0.43 ], [ 286304.38, 4160605.94, 0.47 ], [ 286306.81, 4160604.37, 1.42 ], [ 286309.81, 4160614.37, 3.12 ], [ 286307.75, 4160611.17, 1.77 ], [ 286317.07, 4160613.19, 2.32 ], [ 286311.41, 4160616.84, 2.32 ], [ 286311.37, 4160603.35, 0.02 ], [ 286313.86, 4160607.2, 0.0 ], [ 286313.04, 4160607.73, 0.31 ], [ 286315.71, 4160610.54, 3.12 ], [ 286315.34, 4160610.78, 3.12 ], [ 286307.62, 4160605.63, 1.42 ], [ 286310.19, 4160609.58, 1.77 ], [ 286310.19, 4160609.58, 1.4 ], [ 286313.04, 4160607.73, 1.78 ] ], "f": [ [ [ 11, 5, 6, 3 ] ], [ [ 9, 14, 12, 7, 8 ] ], [ [ 14, 0, 1, 2, 12 ] ], [ [ 15, 10, 11, 3, 4, 13 ] ], [ [ 13, 14, 9, 15 ] ], [ [ 4, 0, 14, 13 ] ] ] }, "roof_props": null, "wall_color": "brick", "type": "yes", "landmark": null, "footprint_source": "osm", "source_updated": null, "is_part": false, "parent": null, "hidden": false, "addr": "2803 2nd Avenue", "wikidata": null, "website": null, "zoning": "R-5", "lidar_p90": 6.49, "ground_z": 50.13 }, "geometry": { "type": "Polygon", "coordinates": [ [ [ 286311.23, 4160601.52 ], [ 286304.38, 4160605.94 ], [ 286311.41, 4160616.84 ], [ 286318.26, 4160612.42 ], [ 286311.23, 4160601.52 ] ] ] } },
{ "type": "Feature", "properties": { "id": "richmond_structure:289849", "name": null, "height": 7.5, "min_height": 0.0, "levels": null, "height_source": "zoning", "roof_shape": "flat", "roof_height": 0.0, "roof_azimuth": null, "roof_source": "heuristic", "roof_color": "concrete", "roof_color_source": "heuristic", "lod2_roof": null, "roof_props": null, "wall_color": "sand", "type": "yes", "landmark": null, "footprint_source": "richmond_structures", "source_updated": "2026-09-08T12:07:13.637000Z", "is_part": false, "parent": null, "hidden": false, "addr": null, "wikidata": null, "website": null, "zoning": "R-6", "lidar_p90": null, "ground_z": 47.49 }, "geometry": { "type": "Polygon", "coordinates": [ [ [ 286492.29, 4160613.32 ], [ 286488.98, 4160615.42 ], [ 286492.28, 4160620.62 ], [ 286495.6, 4160618.51 ], [ 286492.29, 4160613.32 ] ] ] } },
{ "type": "Feature", "properties": { "id": "osm:way/755574424", "name": null, "height": 9.04, "min_height": 0.0, "levels": null, "height_source": "lidar", "roof_shape": "flat", "roof_height": 0.0, "roof_azimuth": null, "roof_source": "heuristic", "roof_color": "roof_flat", "roof_color_source": "ortho", "lod2_roof": null, "roof_props": null, "wall_color": "terracotta", "type": "yes", "landmark": null, "footprint_source": "osm", "source_updated": null, "is_part": false, "parent": null, "hidden": false, "addr": "2805 2nd Avenue", "wikidata": null, "website": null, "zoning": "R-5", "lidar_p90": 9.78, "ground_z": 50.16 }, "geometry": { "type": "Polygon", "coordinates": [ [ [ 286326.13, 4160616.95 ], [ 286324.92, 4160615.04 ], [ 286319.58, 4160618.41 ], [ 286319.17, 4160617.75 ], [ 286314.28, 4160620.83 ], [ 286315.51, 4160622.79 ], [ 286313.26, 4160624.21 ], [ 286316.96, 4160630.07 ], [ 286319.17, 4160628.68 ], [ 286319.95, 4160629.9 ], [ 286330.53, 4160623.23 ], [ 286330.01, 4160622.41 ], [ 286330.85, 4160621.88 ], [ 286327.29, 4160616.22 ], [ 286326.13, 4160616.95 ] ] ] } },
{ "type": "Feature", "properties": { "id": "richmond_structure:287776", "name": null, "height": 7.5, "min_height": 0.0, "levels": null, "height_source": "zoning", "roof_shape": "flat", "roof_height": 0.0, "roof_azimuth": null, "roof_source": "heuristic", "roof_color": "concrete", "roof_color_source": "heuristic", "lod2_roof": null, "roof_props": null, "wall_color": "concrete", "type": "yes", "landmark": null, "footprint_source": "richmond_structures", "source_updated": "2026-09-08T12:07:13.637000Z", "is_part": false, "parent": null, "hidden": false, "addr": null, "wikidata": null, "website": null, "zoning": "R-6", "lidar_p90": null, "ground_z": 47.49 }, "geometry": { "type": "Polygon", "coordinates": [ [ [ 286498.65, 4160619.46 ], [ 286493.73, 4160622.79 ], [ 286497.23, 4160627.98 ], [ 286502.16, 4160624.65 ], [ 286498.65, 4160619.46 ] ] ] } },
{ "type": "Feature", "properties": { "id": "osm:way/755574398", "name": null, "height": 7.5, "min_height": 0.0, "levels": null, "height_source": "zoning", "roof_shape": "flat", "roof_height": 0.0, "roof_azimuth": null, "roof_source": "heuristic", "roof_color": "concrete", "roof_color_source": "heuristic", "lod2_roof": null, "roof_props": null, "wall_color": "brick", "type": "yes", "landmark": null, "footprint_source": "osm", "source_updated": null, "is_part": false, "parent": null, "hidden": false, "addr": null, "wikidata": null, "website": null, "zoning": "R-5", "lidar_p90": 2.14, "ground_z": 50.66 }, "geometry": { "type": "Polygon", "coordinates": [ [ [ 286356.65, 4160625.11 ], [ 286351.97, 4160628.31 ], [ 286355.33, 4160633.22 ], [ 286360.01, 4160630.02 ], [ 286356.65, 4160625.11 ] ] ] } },
{ "type": "Feature", "properties": { "id": "richmond_structure:388479", "name": null, "height": 7.5, "min_height": 0.0, "levels": null, "height_source": "zoning", "roof_shape": "flat", "roof_height": 0.0, "roof_azimuth": null, "roof_source": "heuristic", "roof_color": "roof_flat", "roof_color_source": "heuristic", "lod2_roof": null, "roof_props": null, "wall_color": "cream", "type": "yes", "landmark": null, "footprint_source": "richmond_structures", "source_updated": "2026-09-08T12:07:13.637000Z", "is_part": false, "parent": null, "hidden": false, "addr": null, "wikidata": null, "website": null, "zoning": "R-6", "lidar_p90": null, "ground_z": 47.49 }, "geometry": { "type": "Polygon", "coordinates": [ [ [ 286487.54, 4160627.16 ], [ 286484.67, 4160629.0 ], [ 286487.07, 4160632.73 ], [ 286489.94, 4160630.88 ], [ 286487.54, 4160627.16 ] ] ] } },
{ "type": "Feature", "properties": { "id": "osm:way/755574590", "name": null, "height": 6.05, "min_height": 0.0, "levels": null, "height_source": "lidar", "roof_shape": "flat", "roof_height": 1.77, "roof_azimuth": null, "roof_source": "lod2", "roof_color": "roof_flat", "roof_color_source": "ortho", "lod2_roof": { "v": [ [ 286326.66, 4160639.52, 0.0 ], [ 286324.59, 4160636.29, 0.0 ], [ 286327.3, 4160639.11, 0.0 ], [ 286334.78, 4160630.41, 0.0 ], [ 286333.96, 4160630.94, 0.0 ], [ 286332.27, 4160626.46, 0.0 ], [ 286333.26, 4160632.47, 0.0 ], [ 286335.8, 4160637.45, 0.0 ], [ 286331.94, 4160639.91, 1.77 ], [ 286334.47, 4160631.75, 0.0 ], [ 286329.0, 4160641.78, 0.0 ], [ 286322.98, 4160632.39, 0.0 ], [ 286323.89, 4160631.73, 0.0 ], [ 286323.89, 4160631.73, 0.0 ], [ 286327.32, 4160632.06, 1.43 ], [ 286327.32, 4160632.06, 0.0 ], [ 286325.83, 4160630.31, 0.0 ], [ 286325.83, 4160630.31, 1.66 ], [ 286327.38, 4160629.58, 0.32 ], [ 286327.21, 4160629.3, 0.31 ], [ 286324.71, 4160632.96, 0.0 ], [ 286324.71, 4160632.96, 0.0 ], [ 286326.95, 4160632.21, 0.0 ], [ 286326.95, 4160632.21, 1.74 ], [ 286327.23, 4160632.12, 0.0 ], [ 286327.23, 4160632.12, 1.52 ], [ 286325.22, 4160635.89, 0.0 ] ], "f": [ [ [ 15, 24, 22, 20, 12, 16 ] ], [ [ 25, 14, 17, 19, 18, 5, 3, 4, 9, 6, 7, 8, 23 ] ], [ [ 1, 26, 11, 13, 21, 23, 8, 10, 2, 0 ] ], [ [ 14, 15, 16, 17 ] ], [ [ 13, 12, 20, 21 ] ], [ [ 21, 20, 22, 23 ] ], [ [ 23, 22, 24, 25 ] ], [ [ 25, 24, 15, 14 ] ] ] }, "roof_props": null, "wall_color": "concrete", "type": "yes", "landmark": null, "footprint_source": "osm", "source_updated": null, "is_part": false, "parent": null, "hidden": false, "addr": "2809 2nd Avenue", "wikidata": null, "website": null, "zoning": "R-5", "lidar_p90": 7.54, "ground_z": 50.33 }, "geometry": { "type": "Polygon", "coordinates": [ [ [ 286334.78, 4160630.41 ], [ 286332.27, 4160626.46 ], [ 286327.38, 4160629.58 ], [ 286326.04, 4160627.47 ], [ 286321.64, 4160630.28 ], [ 286325.22, 4160635.89 ], [ 286324.59, 4160636.29 ], [ 286326.66, 4160639.52 ], [ 286327.3, 4160639.11 ], [ 286329.0, 4160641.78 ], [ 286337.45, 4160636.4 ], [ 286333.96, 4160630.94 ], [ 286334.78, 4160630.41 ] ] ] } },
{ "type": "Feature", "properties": { "id": "richmond_structure:289099", "name": null, "height": 7.5, "min_height": 0.0, "levels": null, "height_source": "zoning", "roof_shape": "flat", "roof_height": 0.0, "roof_azimuth": null, "roof_source": "heuristic", "roof_color": "roof_dark", "roof_color_source": "heuristic", "lod2_roof": null, "roof_props": null, "wall_color": "brick", "type": "yes", "landmark": null, "footprint_source": "richmond_structures", "source_updated": "2026-09-08T12:07:13.637000Z", "is_part": false, "parent": null, "hidden": false, "addr": null, "wikidata": null, "website": null, "zoning": "R-6", "lidar_p90": null, "ground_z": 47.49 }, "geometry": { "type": "Polygon", "coordinates": [ [ [ 286491.93, 4160631.41 ], [ 286486.33, 4160634.97 ], [ 286490.37, 4160641.34 ], [ 286495.97, 4160637.78 ], [ 286491.93, 4160631.41 ] ] ] } },
{ "type": "Feature", "properties": { "id": "richmond_structure:291347", "name": null, "height": 7.5, "min_height": 0.0, "levels": null, "height_source": "zoning", "roof_shape": "flat", "roof_height": 0.0, "roof_azimuth": null, "roof_source": "heuristic", "roof_color": "roof_dark", "roof_color_source": "heuristic", "lod2_roof": null, "roof_props": null, "wall_color": "cream", "type": "yes", "landmark": null, "footprint_source": "richmond_structures", "source_updated": "2026-09-08T12:07:13.637000Z", "is_part": false, "parent": null, "hidden": false, "addr": null, "wikidata": null, "website": null, "zoning": "R-6", "lidar_p90": null, "ground_z": 47.49 }, "geometry": { "type": "Polygon", "coordinates": [ [ [ 286470.04, 4160641.76 ], [ 286475.49, 4160638.16 ], [ 286473.28, 4160634.82 ], [ 286474.94, 4160633.72 ], [ 286471.73, 4160628.87 ], [ 286463.36, 4160634.4 ], [ 286462.9, 4160633.7 ], [ 286454.57, 4160639.74 ], [ 286454.24, 4160639.24 ], [ 286452.36, 4160640.48 ], [ 286459.04, 4160650.59 ], [ 286471.1, 4160643.37 ], [ 286470.04, 4160641.76 ] ] ] } },
{ "type": "Feature", "properties": { "id": "osm:way/755572093", "name": null, "height": 3.73, "min_height": 0.0, "levels": null, "height_source": "lidar", "roof_shape": "gable", "roof_height": 3.87, "roof_azimuth": 122.5, "roof_source": "lod2", "roof_color": "roof_flat", "roof_color_source": "ortho", "lod2_roof": { "v": [ [ 286275.39, 4160646.68, 1.11 ], [ 286273.52, 4160643.74, 3.86 ], [ 286282.13, 4160638.13, 3.87 ], [ 286282.13, 4160638.13, 3.87 ], [ 286283.9, 4160638.46, 2.89 ], [ 286283.9, 4160638.46, 0.71 ], [ 286284.28, 4160639.19, 0.78 ], [ 286284.28, 4160639.19, 2.25 ], [ 286284.47, 4160636.6, 0.09 ], [ 286286.43, 4160639.66, 0.25 ], [ 286285.36, 4160640.34, 0.74 ], [ 286285.36, 4160640.34, 1.03 ], [ 286281.09, 4160632.98, 0.05 ], [ 286282.65, 4160636.02, 2.72 ], [ 286273.52, 4160643.74, 3.86 ], [ 286270.85, 4160639.56, 0.0 ], [ 286283.33, 4160637.34, 0.61 ], [ 286283.33, 4160637.34, 2.81 ] ], "f": [ [ [ 5, 16, 8, 9, 10, 6 ] ], [ [ 17, 4, 3, 13 ] ], [ [ 2, 14, 15, 12, 13 ] ], [ [ 1, 2, 4, 7, 11, 0 ] ], [ [ 2, 3, 4 ] ], [ [ 4, 5, 6, 7 ] ], [ [ 7, 6, 10, 11 ] ], [ [ 3, 2, 13 ] ], [ [ 17, 16, 5, 4 ] ], [ [ 1, 14, 2 ] ] ] }, "roof_props": null, "wall_color": "brick", "type": "yes", "landmark": null, "footprint_source": "osm", "source_updated": null, "is_part": false, "parent": null, "hidden": false, "addr": "2810 2nd Avenue", "wikidata": null, "website": null, "zoning": "R-5", "lidar_p90": 7.08, "ground_z": 48.61 }, "geometry": { "type": "Polygon", "coordinates": [ [ [ 286275.39, 4160646.68 ], [ 286286.43, 4160639.66 ], [ 286281.24, 4160631.52 ], [ 286270.2, 4160638.54 ], [ 286275.39, 4160646.68 ] ] ] } }
]
}
