{
"type": "FeatureCollection",
"name": "roads",
"crs": { "type": "name", "properties": { "name": "urn:ogc:def:crs:EPSG::32618" } },
"xy_coordinate_resolution": 0.01,
"features": [
{ "type": "Feature", "properties": { "id": "osm:way/1481632728", "name": null, "highway": "footway", "lanes": null, "width": 2.0, "oneway": false, "surface": "asphalt", "footway": null, "sidewalk_left": false, "sidewalk_right": false, "generated_sidewalk": false, "bus_lanes": null, "bus_lane_side": null, "bus_only": false, "sidewalk": false, "bridge": false, "ramp": false, "tunnel": false, "layer": 0, "deck": null }, "geometry": { "type": "LineString", "coordinates": [ [ 283750.0, 4156291.23 ], [ 283748.91, 4156291.67 ], [ 283748.66, 4156293.18 ], [ 283749.42, 4156294.8 ], [ 283750.0, 4156295.29 ] ] } },
{ "type": "Feature", "properties": { "id": "osm:way/289785192", "name": null, "highway": "footway", "lanes": null, "width": 2.0, "oneway": false, "surface": "asphalt", "footway": null, "sidewalk_left": false, "sidewalk_right": false, "generated_sidewalk": false, "bus_lanes": null, "bus_lane_side": null, "bus_only": false, "sidewalk": false, "bridge": false, "ramp": true, "tunnel": false, "layer": 0, "deck": [ 283850.25, 4156442.03, 15.28, 283809.77, 4156295.53, 16.37 ] }, "geometry": { "type": "LineString", "coordinates": [ [ 283750.0, 4156322.38 ], [ 283747.16, 4156318.42 ], [ 283740.77, 4156311.56 ], [ 283732.28, 4156304.94 ], [ 283725.01, 4156299.64 ], [ 283717.17, 4156293.7 ], [ 283713.72, 4156289.92 ], [ 283711.51, 4156286.64 ], [ 283710.21, 4156283.25 ], [ 283709.4, 4156279.12 ], [ 283709.52, 4156275.48 ], [ 283710.55, 4156272.27 ], [ 283712.54, 4156269.11 ], [ 283715.3, 4156266.69 ], [ 283718.79, 4156264.94 ], [ 283723.51, 4156263.76 ], [ 283730.34, 4156263.75 ], [ 283747.74, 4156267.24 ], [ 283750.0, 4156268.05 ] ] } },
{ "type": "Feature", "properties": { "id": "osm:way/300842043", "name": null, "highway": "path", "lanes": null, "width": 1.5, "oneway": false, "surface": "dirt", "footway": null, "sidewalk_left": false, "sidewalk_right": false, "generated_sidewalk": false, "bus_lanes": null, "bus_lane_side": null, "bus_only": false, "sidewalk": false, "bridge": false, "ramp": false, "tunnel": false, "layer": 0, "deck": null }, "geometry": { "type": "LineString", "coordinates": [ [ 283506.63, 4156374.92 ], [ 283509.34, 4156373.17 ], [ 283514.4, 4156367.87 ], [ 283518.39, 4156365.22 ], [ 283522.93, 4156362.29 ] ] } },
{ "type": "Feature", "properties": { "id": "osm:way/1304198810", "name": null, "highway": "path", "lanes": null, "width": 1.5, "oneway": false, "surface": "dirt", "footway": null, "sidewalk_left": false, "sidewalk_right": false, "generated_sidewalk": false, "bus_lanes": null, "bus_lane_side": null, "bus_only": false, "sidewalk": false, "bridge": false, "ramp": false, "tunnel": false, "layer": 0, "deck": null }, "geometry": { "type": "LineString", "coordinates": [ [ 283523.33, 4156400.57 ], [ 283538.34, 4156393.47 ] ] } },
{ "type": "Feature", "properties": { "id": "osm:way/281467420", "name": null, "highway": "path", "lanes": null, "width": 1.5, "oneway": false, "surface": "dirt", "footway": null, "sidewalk_left": false, "sidewalk_right": false, "generated_sidewalk": false, "bus_lanes": null, "bus_lane_side": null, "bus_only": false, "sidewalk": false, "bridge": false, "ramp": false, "tunnel": false, "layer": 0, "deck": null }, "geometry": { "type": "LineString", "coordinates": [ [ 283565.04, 4156500.0 ], [ 283565.01, 4156499.85 ], [ 283565.64, 4156496.03 ], [ 283565.13, 4156493.33 ], [ 283563.55, 4156491.27 ], [ 283558.18, 4156486.81 ], [ 283555.63, 4156483.96 ], [ 283554.22, 4156481.6 ], [ 283551.61, 4156470.38 ], [ 283549.99, 4156466.49 ], [ 283545.53, 4156457.6 ], [ 283542.52, 4156453.21 ], [ 283540.88, 4156451.41 ], [ 283538.47, 4156450.22 ], [ 283535.66, 4156449.64 ], [ 283533.22, 4156449.71 ], [ 283530.37, 4156450.76 ], [ 283528.2, 4156450.95 ], [ 283526.7, 4156450.03 ], [ 283525.68, 4156448.65 ], [ 283524.28, 4156445.13 ], [ 283524.07, 4156442.25 ], [ 283525.13, 4156439.65 ], [ 283527.03, 4156435.27 ], [ 283527.75, 4156430.52 ], [ 283527.34, 4156423.39 ], [ 283528.41, 4156417.84 ], [ 283525.96, 4156411.32 ], [ 283524.44, 4156405.13 ], [ 283523.33, 4156400.57 ], [ 283521.01, 4156395.18 ], [ 283519.55, 4156387.66 ], [ 283517.13, 4156384.71 ], [ 283513.28, 4156381.84 ], [ 283508.91, 4156378.87 ], [ 283506.63, 4156374.92 ], [ 283503.61, 4156373.01 ], [ 283500.26, 4156371.47 ], [ 283500.0, 4156371.25 ] ] } },
{ "type": "Feature", "properties": { "id": "osm:way/1304198804", "name": null, "highway": "path", "lanes": null, "width": 1.5, "oneway": false, "surface": "dirt", "footway": null, "sidewalk_left": false, "sidewalk_right": false, "generated_sidewalk": false, "bus_lanes": null, "bus_lane_side": null, "bus_only": false, "sidewalk": false, "bridge": false, "ramp": false, "tunnel": false, "layer": 0, "deck": null }, "geometry": { "type": "LineString", "coordinates": [ [ 283500.0, 4156342.6 ], [ 283500.06, 4156342.65 ], [ 283504.68, 4156345.44 ], [ 283513.47, 4156356.79 ], [ 283515.82, 4156358.54 ], [ 283518.79, 4156359.3 ], [ 283521.39, 4156360.8 ], [ 283522.93, 4156362.29 ], [ 283524.62, 4156363.73 ], [ 283527.62, 4156365.45 ], [ 283528.56, 4156366.86 ], [ 283530.74, 4156376.74 ], [ 283535.64, 4156384.71 ], [ 283538.34, 4156393.47 ], [ 283543.58, 4156401.16 ], [ 283547.68, 4156404.36 ], [ 283550.8, 4156406.9 ], [ 283554.04, 4156410.73 ], [ 283554.65, 4156412.96 ], [ 283554.57, 4156415.32 ], [ 283555.51, 4156417.36 ], [ 283558.53, 4156421.57 ], [ 283563.57, 4156425.3 ], [ 283565.94, 4156429.33 ], [ 283567.86, 4156433.7 ], [ 283571.41, 4156437.15 ], [ 283572.99, 4156439.27 ], [ 283574.88, 4156448.0 ], [ 283578.09, 4156455.79 ], [ 283579.55, 4156458.93 ], [ 283583.3, 4156464.49 ], [ 283585.34, 4156468.4 ], [ 283586.43, 4156469.38 ], [ 283587.92, 4156469.47 ], [ 283589.57, 4156469.15 ], [ 283591.64, 4156468.64 ], [ 283593.57, 4156468.5 ], [ 283595.11, 4156469.11 ], [ 283595.89, 4156470.55 ], [ 283595.97, 4156471.58 ], [ 283595.49, 4156473.05 ], [ 283595.13, 4156476.7 ], [ 283596.37, 4156480.4 ], [ 283598.18, 4156483.42 ], [ 283598.35, 4156486.48 ], [ 283600.44, 4156489.0 ], [ 283602.43, 4156495.17 ], [ 283603.95, 4156498.48 ], [ 283603.84, 4156500.0 ] ] } },
{ "type": "Feature", "properties": { "id": "osm:way/1304198805", "name": null, "highway": "path", "lanes": null, "width": 1.5, "oneway": false, "surface": "dirt", "footway": null, "sidewalk_left": false, "sidewalk_right": false, "generated_sidewalk": false, "bus_lanes": null, "bus_lane_side": null, "bus_only": false, "sidewalk": false, "bridge": false, "ramp": false, "tunnel": false, "layer": 0, "deck": null }, "geometry": { "type": "LineString", "coordinates": [ [ 283554.22, 4156481.6 ], [ 283547.3, 4156484.93 ], [ 283542.06, 4156486.1 ], [ 283536.41, 4156489.49 ], [ 283534.17, 4156490.21 ], [ 283531.83, 4156488.99 ], [ 283525.11, 4156482.76 ], [ 283522.19, 4156481.22 ], [ 283514.08, 4156476.93 ] ] } },
{ "type": "Feature", "properties": { "id": "osm:way/1305136968", "name": null, "highway": "path", "lanes": null, "width": 1.5, "oneway": false, "surface": "ground", "footway": null, "sidewalk_left": false, "sidewalk_right": false, "generated_sidewalk": false, "bus_lanes": null, "bus_lane_side": null, "bus_only": false, "sidewalk": false, "bridge": false, "ramp": false, "tunnel": false, "layer": 0, "deck": null }, "geometry": { "type": "LineString", "coordinates": [ [ 283536.41, 4156489.49 ], [ 283538.5, 4156495.72 ], [ 283537.74, 4156500.0 ] ] } }
]
}
