{
"type": "FeatureCollection",
"name": "pois",
"crs": { "type": "name", "properties": { "name": "urn:ogc:def:crs:EPSG::32618" } },
"xy_coordinate_resolution": 0.01,
"features": [
{ "type": "Feature", "properties": { "id": "lidar-tree:281986:4156526", "name": null, "kind": "tree", "species": null, "source": "lidar2025", "tree_height": 15.8, "crown_radius": 6.0, "height_source": "lidar2025" }, "geometry": { "type": "Point", "coordinates": [ 281985.5, 4156526.5 ] } },
{ "type": "Feature", "properties": { "id": "lidar-tree:282000:4156526", "name": null, "kind": "tree", "species": null, "source": "lidar2025", "tree_height": 22.0, "crown_radius": 6.0, "height_source": "lidar2025" }, "geometry": { "type": "Point", "coordinates": [ 281999.5, 4156526.5 ] } },
{ "type": "Feature", "properties": { "id": "lidar-tree:281976:4156562", "name": null, "kind": "tree", "species": null, "source": "lidar2025", "tree_height": 26.5, "crown_radius": 6.0, "height_source": "lidar2025" }, "geometry": { "type": "Point", "coordinates": [ 281975.5, 4156562.5 ] } },
{ "type": "Feature", "properties": { "id": "lidar-tree:281984:4156584", "name": null, "kind": "tree", "species": null, "source": "lidar2025", "tree_height": 26.9, "crown_radius": 6.0, "height_source": "lidar2025" }, "geometry": { "type": "Point", "coordinates": [ 281983.5, 4156584.5 ] } },
{ "type": "Feature", "properties": { "id": "lidar-tree:281992:4156590", "name": null, "kind": "tree", "species": null, "source": "lidar2025", "tree_height": 30.7, "crown_radius": 6.0, "height_source": "lidar2025" }, "geometry": { "type": "Point", "coordinates": [ 281992.5, 4156589.5 ] } },
{ "type": "Feature", "properties": { "id": "lidar-tree:281954:4156500", "name": null, "kind": "tree", "species": null, "source": "lidar2025", "tree_height": 19.2, "crown_radius": 6.0, "height_source": "lidar2025" }, "geometry": { "type": "Point", "coordinates": [ 281953.5, 4156500.5 ] } },
{ "type": "Feature", "properties": { "id": "lidar-tree:281984:4156510", "name": null, "kind": "tree", "species": null, "source": "lidar2025", "tree_height": 20.1, "crown_radius": 6.0, "height_source": "lidar2025" }, "geometry": { "type": "Point", "coordinates": [ 281983.5, 4156509.5 ] } },
{ "type": "Feature", "properties": { "id": "lidar-tree:281994:4156516", "name": null, "kind": "tree", "species": null, "source": "lidar2025", "tree_height": 18.7, "crown_radius": 6.0, "height_source": "lidar2025" }, "geometry": { "type": "Point", "coordinates": [ 281993.5, 4156515.5 ] } },
{ "type": "Feature", "properties": { "id": "lidar-tree:281900:4156506", "name": null, "kind": "tree", "species": null, "source": "lidar2025", "tree_height": 25.5, "crown_radius": 6.0, "height_source": "lidar2025" }, "geometry": { "type": "Point", "coordinates": [ 281900.5, 4156505.5 ] } },
{ "type": "Feature", "properties": { "id": "lidar-tree:281892:4156508", "name": null, "kind": "tree", "species": null, "source": "lidar2025", "tree_height": 7.2, "crown_radius": 4.4, "height_source": "lidar2025" }, "geometry": { "type": "Point", "coordinates": [ 281892.5, 4156508.5 ] } },
{ "type": "Feature", "properties": { "id": "lidar-tree:281872:4156540", "name": null, "kind": "tree", "species": null, "source": "lidar2025", "tree_height": 13.3, "crown_radius": 6.0, "height_source": "lidar2025" }, "geometry": { "type": "Point", "coordinates": [ 281871.5, 4156540.5 ] } },
{ "type": "Feature", "properties": { "id": "lidar-tree:281902:4156540", "name": null, "kind": "tree", "species": null, "source": "lidar2025", "tree_height": 17.7, "crown_radius": 4.7, "height_source": "lidar2025" }, "geometry": { "type": "Point", "coordinates": [ 281901.5, 4156540.5 ] } },
{ "type": "Feature", "properties": { "id": "lidar-tree:281822:4156502", "name": null, "kind": "tree", "species": null, "source": "lidar2025", "tree_height": 14.4, "crown_radius": 5.4, "height_source": "lidar2025" }, "geometry": { "type": "Point", "coordinates": [ 281821.5, 4156501.5 ] } },
{ "type": "Feature", "properties": { "id": "lidar-tree:281836:4156534", "name": null, "kind": "tree", "species": null, "source": "lidar2025", "tree_height": 27.8, "crown_radius": 6.0, "height_source": "lidar2025" }, "geometry": { "type": "Point", "coordinates": [ 281835.5, 4156534.5 ] } },
{ "type": "Feature", "properties": { "id": "lidar-tree:281810:4156536", "name": null, "kind": "tree", "species": null, "source": "lidar2025", "tree_height": 29.4, "crown_radius": 6.0, "height_source": "lidar2025" }, "geometry": { "type": "Point", "coordinates": [ 281810.5, 4156535.5 ] } },
{ "type": "Feature", "properties": { "id": "lidar-tree:281808:4156544", "name": null, "kind": "tree", "species": null, "source": "lidar2025", "tree_height": 28.5, "crown_radius": 6.0, "height_source": "lidar2025" }, "geometry": { "type": "Point", "coordinates": [ 281808.5, 4156544.5 ] } },
{ "type": "Feature", "properties": { "id": "lidar-tree:281852:4156548", "name": null, "kind": "tree", "species": null, "source": "lidar2025", "tree_height": 35.1, "crown_radius": 6.0, "height_source": "lidar2025" }, "geometry": { "type": "Point", "coordinates": [ 281851.5, 4156547.5 ] } },
{ "type": "Feature", "properties": { "id": "lidar-tree:281918:4156504", "name": null, "kind": "tree", "species": null, "source": "lidar2025", "tree_height": 16.2, "crown_radius": 6.0, "height_source": "lidar2025" }, "geometry": { "type": "Point", "coordinates": [ 281917.5, 4156503.5 ] } },
{ "type": "Feature", "properties": { "id": "lidar-tree:281966:4156508", "name": null, "kind": "tree", "species": null, "source": "lidar2025", "tree_height": 23.2, "crown_radius": 6.0, "height_source": "lidar2025" }, "geometry": { "type": "Point", "coordinates": [ 281965.5, 4156507.5 ] } },
{ "type": "Feature", "properties": { "id": "lidar-tree:281936:4156508", "name": null, "kind": "tree", "species": null, "source": "lidar2025", "tree_height": 19.0, "crown_radius": 6.0, "height_source": "lidar2025" }, "geometry": { "type": "Point", "coordinates": [ 281936.5, 4156508.5 ] } },
{ "type": "Feature", "properties": { "id": "lidar-tree:281954:4156518", "name": null, "kind": "tree", "species": null, "source": "lidar2025", "tree_height": 24.7, "crown_radius": 6.0, "height_source": "lidar2025" }, "geometry": { "type": "Point", "coordinates": [ 281954.5, 4156517.5 ] } },
{ "type": "Feature", "properties": { "id": "lidar-tree:281970:4156522", "name": null, "kind": "tree", "species": null, "source": "lidar2025", "tree_height": 20.5, "crown_radius": 6.0, "height_source": "lidar2025" }, "geometry": { "type": "Point", "coordinates": [ 281969.5, 4156521.5 ] } },
{ "type": "Feature", "properties": { "id": "lidar-tree:281922:4156548", "name": null, "kind": "tree", "species": null, "source": "lidar2025", "tree_height": 14.9, "crown_radius": 5.0, "height_source": "lidar2025" }, "geometry": { "type": "Point", "coordinates": [ 281922.5, 4156548.5 ] } },
{ "type": "Feature", "properties": { "id": "lidar-tree:281930:4156558", "name": null, "kind": "tree", "species": null, "source": "lidar2025", "tree_height": 25.5, "crown_radius": 6.0, "height_source": "lidar2025" }, "geometry": { "type": "Point", "coordinates": [ 281929.5, 4156557.5 ] } },
{ "type": "Feature", "properties": { "id": "lidar-tree:281940:4156566", "name": null, "kind": "tree", "species": null, "source": "lidar2025", "tree_height": 18.8, "crown_radius": 6.0, "height_source": "lidar2025" }, "geometry": { "type": "Point", "coordinates": [ 281939.5, 4156565.5 ] } },
{ "type": "Feature", "properties": { "id": "lidar-tree:281958:4156568", "name": null, "kind": "tree", "species": null, "source": "lidar2025", "tree_height": 20.3, "crown_radius": 6.0, "height_source": "lidar2025" }, "geometry": { "type": "Point", "coordinates": [ 281957.5, 4156567.5 ] } },
{ "type": "Feature", "properties": { "id": "lidar-tree:281918:4156570", "name": null, "kind": "tree", "species": null, "source": "lidar2025", "tree_height": 26.2, "crown_radius": 6.0, "height_source": "lidar2025" }, "geometry": { "type": "Point", "coordinates": [ 281917.5, 4156570.5 ] } },
{ "type": "Feature", "properties": { "id": "lidar-tree:281886:4156546", "name": null, "kind": "tree", "species": null, "source": "lidar2025", "tree_height": 26.4, "crown_radius": 6.0, "height_source": "lidar2025" }, "geometry": { "type": "Point", "coordinates": [ 281886.5, 4156546.5 ] } },
{ "type": "Feature", "properties": { "id": "lidar-tree:281910:4156552", "name": null, "kind": "tree", "species": null, "source": "lidar2025", "tree_height": 27.4, "crown_radius": 5.8, "height_source": "lidar2025" }, "geometry": { "type": "Point", "coordinates": [ 281909.5, 4156551.5 ] } },
{ "type": "Feature", "properties": { "id": "lidar-tree:281898:4156558", "name": null, "kind": "tree", "species": null, "source": "lidar2025", "tree_height": 29.1, "crown_radius": 6.0, "height_source": "lidar2025" }, "geometry": { "type": "Point", "coordinates": [ 281898.5, 4156557.5 ] } },
{ "type": "Feature", "properties": { "id": "lidar-tree:281874:4156562", "name": null, "kind": "tree", "species": null, "source": "lidar2025", "tree_height": 24.6, "crown_radius": 6.0, "height_source": "lidar2025" }, "geometry": { "type": "Point", "coordinates": [ 281873.5, 4156562.5 ] } },
{ "type": "Feature", "properties": { "id": "lidar-tree:281908:4156568", "name": null, "kind": "tree", "species": null, "source": "lidar2025", "tree_height": 24.6, "crown_radius": 6.0, "height_source": "lidar2025" }, "geometry": { "type": "Point", "coordinates": [ 281908.5, 4156568.5 ] } },
{ "type": "Feature", "properties": { "id": "lidar-tree:281884:4156568", "name": null, "kind": "tree", "species": null, "source": "lidar2025", "tree_height": 22.0, "crown_radius": 6.0, "height_source": "lidar2025" }, "geometry": { "type": "Point", "coordinates": [ 281884.5, 4156568.5 ] } },
{ "type": "Feature", "properties": { "id": "lidar-tree:281862:4156568", "name": null, "kind": "tree", "species": null, "source": "lidar2025", "tree_height": 27.0, "crown_radius": 6.0, "height_source": "lidar2025" }, "geometry": { "type": "Point", "coordinates": [ 281862.5, 4156568.5 ] } },
{ "type": "Feature", "properties": { "id": "lidar-tree:281894:4156574", "name": null, "kind": "tree", "species": null, "source": "lidar2025", "tree_height": 24.8, "crown_radius": 6.0, "height_source": "lidar2025" }, "geometry": { "type": "Point", "coordinates": [ 281893.5, 4156574.5 ] } },
{ "type": "Feature", "properties": { "id": "lidar-tree:281872:4156574", "name": null, "kind": "tree", "species": null, "source": "lidar2025", "tree_height": 26.8, "crown_radius": 6.0, "height_source": "lidar2025" }, "geometry": { "type": "Point", "coordinates": [ 281872.5, 4156574.5 ] } },
{ "type": "Feature", "properties": { "id": "lidar-tree:281858:4156576", "name": null, "kind": "tree", "species": null, "source": "lidar2025", "tree_height": 22.6, "crown_radius": 6.0, "height_source": "lidar2025" }, "geometry": { "type": "Point", "coordinates": [ 281858.5, 4156576.5 ] } },
{ "type": "Feature", "properties": { "id": "lidar-tree:281832:4156552", "name": null, "kind": "tree", "species": null, "source": "lidar2025", "tree_height": 38.0, "crown_radius": 6.0, "height_source": "lidar2025" }, "geometry": { "type": "Point", "coordinates": [ 281831.5, 4156551.5 ] } },
{ "type": "Feature", "properties": { "id": "lidar-tree:281858:4156558", "name": null, "kind": "tree", "species": null, "source": "lidar2025", "tree_height": 30.6, "crown_radius": 6.0, "height_source": "lidar2025" }, "geometry": { "type": "Point", "coordinates": [ 281857.5, 4156558.5 ] } },
{ "type": "Feature", "properties": { "id": "lidar-tree:281804:4156564", "name": null, "kind": "tree", "species": null, "source": "lidar2025", "tree_height": 26.2, "crown_radius": 6.0, "height_source": "lidar2025" }, "geometry": { "type": "Point", "coordinates": [ 281804.5, 4156563.5 ] } },
{ "type": "Feature", "properties": { "id": "lidar-tree:281836:4156564", "name": null, "kind": "tree", "species": null, "source": "lidar2025", "tree_height": 37.8, "crown_radius": 6.0, "height_source": "lidar2025" }, "geometry": { "type": "Point", "coordinates": [ 281836.5, 4156564.5 ] } },
{ "type": "Feature", "properties": { "id": "lidar-tree:281826:4156568", "name": null, "kind": "tree", "species": null, "source": "lidar2025", "tree_height": 32.1, "crown_radius": 6.0, "height_source": "lidar2025" }, "geometry": { "type": "Point", "coordinates": [ 281825.5, 4156567.5 ] } },
{ "type": "Feature", "properties": { "id": "lidar-tree:281834:4156576", "name": null, "kind": "tree", "species": null, "source": "lidar2025", "tree_height": 35.9, "crown_radius": 6.0, "height_source": "lidar2025" }, "geometry": { "type": "Point", "coordinates": [ 281833.5, 4156575.5 ] } },
{ "type": "Feature", "properties": { "id": "lidar-tree:281810:4156580", "name": null, "kind": "tree", "species": null, "source": "lidar2025", "tree_height": 26.3, "crown_radius": 6.0, "height_source": "lidar2025" }, "geometry": { "type": "Point", "coordinates": [ 281810.5, 4156579.5 ] } },
{ "type": "Feature", "properties": { "id": "lidar-tree:281840:4156580", "name": null, "kind": "tree", "species": null, "source": "lidar2025", "tree_height": 31.4, "crown_radius": 6.0, "height_source": "lidar2025" }, "geometry": { "type": "Point", "coordinates": [ 281840.5, 4156580.5 ] } },
{ "type": "Feature", "properties": { "id": "lidar-tree:281826:4156586", "name": null, "kind": "tree", "species": null, "source": "lidar2025", "tree_height": 32.1, "crown_radius": 6.0, "height_source": "lidar2025" }, "geometry": { "type": "Point", "coordinates": [ 281825.5, 4156585.5 ] } },
{ "type": "Feature", "properties": { "id": "lidar-tree:281812:4156588", "name": null, "kind": "tree", "species": null, "source": "lidar2025", "tree_height": 28.3, "crown_radius": 6.0, "height_source": "lidar2025" }, "geometry": { "type": "Point", "coordinates": [ 281811.5, 4156588.5 ] } },
{ "type": "Feature", "properties": { "id": "lidar-tree:281968:4156572", "name": null, "kind": "tree", "species": null, "source": "lidar2025", "tree_height": 23.4, "crown_radius": 6.0, "height_source": "lidar2025" }, "geometry": { "type": "Point", "coordinates": [ 281967.5, 4156571.5 ] } },
{ "type": "Feature", "properties": { "id": "lidar-tree:281934:4156574", "name": null, "kind": "tree", "species": null, "source": "lidar2025", "tree_height": 25.9, "crown_radius": 6.0, "height_source": "lidar2025" }, "geometry": { "type": "Point", "coordinates": [ 281933.5, 4156574.5 ] } },
{ "type": "Feature", "properties": { "id": "lidar-tree:281924:4156578", "name": null, "kind": "tree", "species": null, "source": "lidar2025", "tree_height": 25.7, "crown_radius": 6.0, "height_source": "lidar2025" }, "geometry": { "type": "Point", "coordinates": [ 281923.5, 4156577.5 ] } },
{ "type": "Feature", "properties": { "id": "lidar-tree:281942:4156582", "name": null, "kind": "tree", "species": null, "source": "lidar2025", "tree_height": 24.2, "crown_radius": 6.0, "height_source": "lidar2025" }, "geometry": { "type": "Point", "coordinates": [ 281941.5, 4156581.5 ] } },
{ "type": "Feature", "properties": { "id": "lidar-tree:281966:4156586", "name": null, "kind": "tree", "species": null, "source": "lidar2025", "tree_height": 25.9, "crown_radius": 6.0, "height_source": "lidar2025" }, "geometry": { "type": "Point", "coordinates": [ 281966.5, 4156586.5 ] } },
{ "type": "Feature", "properties": { "id": "lidar-tree:281956:4156590", "name": null, "kind": "tree", "species": null, "source": "lidar2025", "tree_height": 28.0, "crown_radius": 6.0, "height_source": "lidar2025" }, "geometry": { "type": "Point", "coordinates": [ 281956.5, 4156590.5 ] } },
{ "type": "Feature", "properties": { "id": "lidar-tree:281944:4156592", "name": null, "kind": "tree", "species": null, "source": "lidar2025", "tree_height": 25.4, "crown_radius": 6.0, "height_source": "lidar2025" }, "geometry": { "type": "Point", "coordinates": [ 281943.5, 4156591.5 ] } },
{ "type": "Feature", "properties": { "id": "lidar-tree:281970:4156602", "name": null, "kind": "tree", "species": null, "source": "lidar2025", "tree_height": 27.3, "crown_radius": 6.0, "height_source": "lidar2025" }, "geometry": { "type": "Point", "coordinates": [ 281969.5, 4156601.5 ] } },
{ "type": "Feature", "properties": { "id": "lidar-tree:281930:4156604", "name": null, "kind": "tree", "species": null, "source": "lidar2025", "tree_height": 24.5, "crown_radius": 6.0, "height_source": "lidar2025" }, "geometry": { "type": "Point", "coordinates": [ 281930.5, 4156604.5 ] } },
{ "type": "Feature", "properties": { "id": "lidar-tree:281920:4156606", "name": null, "kind": "tree", "species": null, "source": "lidar2025", "tree_height": 23.9, "crown_radius": 6.0, "height_source": "lidar2025" }, "geometry": { "type": "Point", "coordinates": [ 281920.5, 4156605.5 ] } },
{ "type": "Feature", "properties": { "id": "lidar-tree:281906:4156580", "name": null, "kind": "tree", "species": null, "source": "lidar2025", "tree_height": 26.4, "crown_radius": 6.0, "height_source": "lidar2025" }, "geometry": { "type": "Point", "coordinates": [ 281906.5, 4156579.5 ] } },
{ "type": "Feature", "properties": { "id": "lidar-tree:281916:4156584", "name": null, "kind": "tree", "species": null, "source": "lidar2025", "tree_height": 25.6, "crown_radius": 6.0, "height_source": "lidar2025" }, "geometry": { "type": "Point", "coordinates": [ 281915.5, 4156584.5 ] } },
{ "type": "Feature", "properties": { "id": "lidar-tree:281898:4156588", "name": null, "kind": "tree", "species": null, "source": "lidar2025", "tree_height": 24.9, "crown_radius": 6.0, "height_source": "lidar2025" }, "geometry": { "type": "Point", "coordinates": [ 281897.5, 4156588.5 ] } },
{ "type": "Feature", "properties": { "id": "lidar-tree:281858:4156590", "name": null, "kind": "tree", "species": null, "source": "lidar2025", "tree_height": 24.7, "crown_radius": 6.0, "height_source": "lidar2025" }, "geometry": { "type": "Point", "coordinates": [ 281858.5, 4156590.5 ] } },
{ "type": "Feature", "properties": { "id": "lidar-tree:281892:4156600", "name": null, "kind": "tree", "species": null, "source": "lidar2025", "tree_height": 26.3, "crown_radius": 6.0, "height_source": "lidar2025" }, "geometry": { "type": "Point", "coordinates": [ 281891.5, 4156600.5 ] } },
{ "type": "Feature", "properties": { "id": "lidar-tree:281858:4156600", "name": null, "kind": "tree", "species": null, "source": "lidar2025", "tree_height": 26.6, "crown_radius": 6.0, "height_source": "lidar2025" }, "geometry": { "type": "Point", "coordinates": [ 281858.5, 4156600.5 ] } },
{ "type": "Feature", "properties": { "id": "lidar-tree:281906:4156602", "name": null, "kind": "tree", "species": null, "source": "lidar2025", "tree_height": 23.9, "crown_radius": 6.0, "height_source": "lidar2025" }, "geometry": { "type": "Point", "coordinates": [ 281905.5, 4156601.5 ] } },
{ "type": "Feature", "properties": { "id": "lidar-tree:281874:4156606", "name": null, "kind": "tree", "species": null, "source": "lidar2025", "tree_height": 24.4, "crown_radius": 6.0, "height_source": "lidar2025" }, "geometry": { "type": "Point", "coordinates": [ 281874.5, 4156605.5 ] } },
{ "type": "Feature", "properties": { "id": "lidar-tree:281904:4156612", "name": null, "kind": "tree", "species": null, "source": "lidar2025", "tree_height": 21.4, "crown_radius": 6.0, "height_source": "lidar2025" }, "geometry": { "type": "Point", "coordinates": [ 281904.5, 4156612.5 ] } },
{ "type": "Feature", "properties": { "id": "lidar-tree:281860:4156620", "name": null, "kind": "tree", "species": null, "source": "lidar2025", "tree_height": 20.2, "crown_radius": 6.0, "height_source": "lidar2025" }, "geometry": { "type": "Point", "coordinates": [ 281860.5, 4156619.5 ] } },
{ "type": "Feature", "properties": { "id": "lidar-tree:281914:4156622", "name": null, "kind": "tree", "species": null, "source": "lidar2025", "tree_height": 22.1, "crown_radius": 6.0, "height_source": "lidar2025" }, "geometry": { "type": "Point", "coordinates": [ 281914.5, 4156621.5 ] } },
{ "type": "Feature", "properties": { "id": "lidar-tree:281888:4156622", "name": null, "kind": "tree", "species": null, "source": "lidar2025", "tree_height": 18.7, "crown_radius": 6.0, "height_source": "lidar2025" }, "geometry": { "type": "Point", "coordinates": [ 281888.5, 4156622.5 ] } },
{ "type": "Feature", "properties": { "id": "lidar-tree:281906:4156624", "name": null, "kind": "tree", "species": null, "source": "lidar2025", "tree_height": 20.0, "crown_radius": 6.0, "height_source": "lidar2025" }, "geometry": { "type": "Point", "coordinates": [ 281905.5, 4156624.5 ] } },
{ "type": "Feature", "properties": { "id": "lidar-tree:281898:4156630", "name": null, "kind": "tree", "species": null, "source": "lidar2025", "tree_height": 23.8, "crown_radius": 6.0, "height_source": "lidar2025" }, "geometry": { "type": "Point", "coordinates": [ 281898.5, 4156630.5 ] } },
{ "type": "Feature", "properties": { "id": "lidar-tree:281912:4156632", "name": null, "kind": "tree", "species": null, "source": "lidar2025", "tree_height": 22.5, "crown_radius": 6.0, "height_source": "lidar2025" }, "geometry": { "type": "Point", "coordinates": [ 281911.5, 4156631.5 ] } },
{ "type": "Feature", "properties": { "id": "lidar-tree:281890:4156632", "name": null, "kind": "tree", "species": null, "source": "lidar2025", "tree_height": 20.0, "crown_radius": 6.0, "height_source": "lidar2025" }, "geometry": { "type": "Point", "coordinates": [ 281889.5, 4156632.5 ] } },
{ "type": "Feature", "properties": { "id": "lidar-tree:281874:4156638", "name": null, "kind": "tree", "species": null, "source": "lidar2025", "tree_height": 23.4, "crown_radius": 6.0, "height_source": "lidar2025" }, "geometry": { "type": "Point", "coordinates": [ 281874.5, 4156638.5 ] } },
{ "type": "Feature", "properties": { "id": "lidar-tree:281904:4156640", "name": null, "kind": "tree", "species": null, "source": "lidar2025", "tree_height": 22.9, "crown_radius": 6.0, "height_source": "lidar2025" }, "geometry": { "type": "Point", "coordinates": [ 281904.5, 4156639.5 ] } },
{ "type": "Feature", "properties": { "id": "lidar-tree:281886:4156644", "name": null, "kind": "tree", "species": null, "source": "lidar2025", "tree_height": 23.5, "crown_radius": 6.0, "height_source": "lidar2025" }, "geometry": { "type": "Point", "coordinates": [ 281885.5, 4156644.5 ] } },
{ "type": "Feature", "properties": { "id": "lidar-tree:281892:4156654", "name": null, "kind": "tree", "species": null, "source": "lidar2025", "tree_height": 17.8, "crown_radius": 6.0, "height_source": "lidar2025" }, "geometry": { "type": "Point", "coordinates": [ 281892.5, 4156654.5 ] } },
{ "type": "Feature", "properties": { "id": "lidar-tree:281962:4156612", "name": null, "kind": "tree", "species": null, "source": "lidar2025", "tree_height": 32.2, "crown_radius": 6.0, "height_source": "lidar2025" }, "geometry": { "type": "Point", "coordinates": [ 281961.5, 4156612.5 ] } },
{ "type": "Feature", "properties": { "id": "lidar-tree:281950:4156618", "name": null, "kind": "tree", "species": null, "source": "lidar2025", "tree_height": 32.5, "crown_radius": 6.0, "height_source": "lidar2025" }, "geometry": { "type": "Point", "coordinates": [ 281949.5, 4156617.5 ] } },
{ "type": "Feature", "properties": { "id": "lidar-tree:281942:4156622", "name": null, "kind": "tree", "species": null, "source": "lidar2025", "tree_height": 30.5, "crown_radius": 6.0, "height_source": "lidar2025" }, "geometry": { "type": "Point", "coordinates": [ 281941.5, 4156622.5 ] } },
{ "type": "Feature", "properties": { "id": "lidar-tree:281926:4156630", "name": null, "kind": "tree", "species": null, "source": "lidar2025", "tree_height": 22.0, "crown_radius": 6.0, "height_source": "lidar2025" }, "geometry": { "type": "Point", "coordinates": [ 281925.5, 4156629.5 ] } },
{ "type": "Feature", "properties": { "id": "lidar-tree:281966:4156634", "name": null, "kind": "tree", "species": null, "source": "lidar2025", "tree_height": 26.8, "crown_radius": 6.0, "height_source": "lidar2025" }, "geometry": { "type": "Point", "coordinates": [ 281965.5, 4156633.5 ] } },
{ "type": "Feature", "properties": { "id": "lidar-tree:281954:4156636", "name": null, "kind": "tree", "species": null, "source": "lidar2025", "tree_height": 26.7, "crown_radius": 6.0, "height_source": "lidar2025" }, "geometry": { "type": "Point", "coordinates": [ 281953.5, 4156636.5 ] } },
{ "type": "Feature", "properties": { "id": "lidar-tree:281964:4156644", "name": null, "kind": "tree", "species": null, "source": "lidar2025", "tree_height": 26.7, "crown_radius": 6.0, "height_source": "lidar2025" }, "geometry": { "type": "Point", "coordinates": [ 281963.5, 4156644.5 ] } },
{ "type": "Feature", "properties": { "id": "lidar-tree:281950:4156646", "name": null, "kind": "tree", "species": null, "source": "lidar2025", "tree_height": 24.1, "crown_radius": 6.0, "height_source": "lidar2025" }, "geometry": { "type": "Point", "coordinates": [ 281949.5, 4156645.5 ] } },
{ "type": "Feature", "properties": { "id": "lidar-tree:281926:4156646", "name": null, "kind": "tree", "species": null, "source": "lidar2025", "tree_height": 19.6, "crown_radius": 6.0, "height_source": "lidar2025" }, "geometry": { "type": "Point", "coordinates": [ 281925.5, 4156646.5 ] } },
{ "type": "Feature", "properties": { "id": "lidar-tree:281940:4156664", "name": null, "kind": "tree", "species": null, "source": "lidar2025", "tree_height": 13.5, "crown_radius": 6.0, "height_source": "lidar2025" }, "geometry": { "type": "Point", "coordinates": [ 281940.5, 4156663.5 ] } },
{ "type": "Feature", "properties": { "id": "lidar-tree:281820:4156604", "name": null, "kind": "tree", "species": null, "source": "lidar2025", "tree_height": 21.6, "crown_radius": 6.0, "height_source": "lidar2025" }, "geometry": { "type": "Point", "coordinates": [ 281820.5, 4156603.5 ] } },
{ "type": "Feature", "properties": { "id": "lidar-tree:281832:4156610", "name": null, "kind": "tree", "species": null, "source": "lidar2025", "tree_height": 21.9, "crown_radius": 6.0, "height_source": "lidar2025" }, "geometry": { "type": "Point", "coordinates": [ 281832.5, 4156609.5 ] } },
{ "type": "Feature", "properties": { "id": "lidar-tree:281808:4156614", "name": null, "kind": "tree", "species": null, "source": "lidar2025", "tree_height": 29.2, "crown_radius": 6.0, "height_source": "lidar2025" }, "geometry": { "type": "Point", "coordinates": [ 281807.5, 4156614.5 ] } },
{ "type": "Feature", "properties": { "id": "lidar-tree:281812:4156630", "name": null, "kind": "tree", "species": null, "source": "lidar2025", "tree_height": 17.7, "crown_radius": 6.0, "height_source": "lidar2025" }, "geometry": { "type": "Point", "coordinates": [ 281812.5, 4156630.5 ] } },
{ "type": "Feature", "properties": { "id": "lidar-tree:281842:4156640", "name": null, "kind": "tree", "species": null, "source": "lidar2025", "tree_height": 25.3, "crown_radius": 6.0, "height_source": "lidar2025" }, "geometry": { "type": "Point", "coordinates": [ 281842.5, 4156639.5 ] } },
{ "type": "Feature", "properties": { "id": "lidar-tree:281802:4156642", "name": null, "kind": "tree", "species": null, "source": "lidar2025", "tree_height": 15.8, "crown_radius": 3.3, "height_source": "lidar2025" }, "geometry": { "type": "Point", "coordinates": [ 281801.5, 4156642.5 ] } },
{ "type": "Feature", "properties": { "id": "lidar-tree:281858:4156646", "name": null, "kind": "tree", "species": null, "source": "lidar2025", "tree_height": 29.3, "crown_radius": 6.0, "height_source": "lidar2025" }, "geometry": { "type": "Point", "coordinates": [ 281857.5, 4156646.5 ] } },
{ "type": "Feature", "properties": { "id": "lidar-tree:281838:4156658", "name": null, "kind": "tree", "species": null, "source": "lidar2025", "tree_height": 27.3, "crown_radius": 6.0, "height_source": "lidar2025" }, "geometry": { "type": "Point", "coordinates": [ 281838.5, 4156658.5 ] } },
{ "type": "Feature", "properties": { "id": "rva-tree:9473", "name": "Fraxinus pennsylvanica", "kind": "tree", "species": "Fraxinus pennsylvanica", "source": "city_inventory", "tree_height": 24.7, "crown_radius": 6.0, "height_source": "lidar2025" }, "geometry": { "type": "Point", "coordinates": [ 281840.99, 4156670.21 ] } },
{ "type": "Feature", "properties": { "id": "lidar-tree:281840:4156680", "name": null, "kind": "tree", "species": null, "source": "lidar2025", "tree_height": 23.3, "crown_radius": 6.0, "height_source": "lidar2025" }, "geometry": { "type": "Point", "coordinates": [ 281839.5, 4156680.5 ] } },
{ "type": "Feature", "properties": { "id": "lidar-tree:281910:4156656", "name": null, "kind": "tree", "species": null, "source": "lidar2025", "tree_height": 14.8, "crown_radius": 5.2, "height_source": "lidar2025" }, "geometry": { "type": "Point", "coordinates": [ 281910.5, 4156655.5 ] } },
{ "type": "Feature", "properties": { "id": "lidar-tree:281900:4156660", "name": null, "kind": "tree", "species": null, "source": "lidar2025", "tree_height": 15.7, "crown_radius": 6.0, "height_source": "lidar2025" }, "geometry": { "type": "Point", "coordinates": [ 281899.5, 4156660.5 ] } },
{ "type": "Feature", "properties": { "id": "lidar-tree:281872:4156666", "name": null, "kind": "tree", "species": null, "source": "lidar2025", "tree_height": 21.0, "crown_radius": 6.0, "height_source": "lidar2025" }, "geometry": { "type": "Point", "coordinates": [ 281871.5, 4156665.5 ] } },
{ "type": "Feature", "properties": { "id": "lidar-tree:281912:4156666", "name": null, "kind": "tree", "species": null, "source": "lidar2025", "tree_height": 10.6, "crown_radius": 6.0, "height_source": "lidar2025" }, "geometry": { "type": "Point", "coordinates": [ 281911.5, 4156666.5 ] } },
{ "type": "Feature", "properties": { "id": "lidar-tree:281862:4156670", "name": null, "kind": "tree", "species": null, "source": "lidar2025", "tree_height": 5.4, "crown_radius": 3.0, "height_source": "lidar2025" }, "geometry": { "type": "Point", "coordinates": [ 281861.5, 4156669.5 ] } },
{ "type": "Feature", "properties": { "id": "lidar-tree:281900:4156672", "name": null, "kind": "tree", "species": null, "source": "lidar2025", "tree_height": 13.1, "crown_radius": 6.0, "height_source": "lidar2025" }, "geometry": { "type": "Point", "coordinates": [ 281900.5, 4156671.5 ] } },
{ "type": "Feature", "properties": { "id": "lidar-tree:281898:4156686", "name": null, "kind": "tree", "species": null, "source": "lidar2025", "tree_height": 13.4, "crown_radius": 5.4, "height_source": "lidar2025" }, "geometry": { "type": "Point", "coordinates": [ 281897.5, 4156685.5 ] } },
{ "type": "Feature", "properties": { "id": "lidar-tree:281860:4156686", "name": null, "kind": "tree", "species": null, "source": "lidar2025", "tree_height": 27.2, "crown_radius": 6.0, "height_source": "lidar2025" }, "geometry": { "type": "Point", "coordinates": [ 281859.5, 4156686.5 ] } },
{ "type": "Feature", "properties": { "id": "lidar-tree:281862:4156694", "name": null, "kind": "tree", "species": null, "source": "lidar2025", "tree_height": 24.4, "crown_radius": 6.0, "height_source": "lidar2025" }, "geometry": { "type": "Point", "coordinates": [ 281862.5, 4156694.5 ] } },
{ "type": "Feature", "properties": { "id": "rva-tree:30116", "name": "Populus deltoides", "kind": "tree", "species": "Populus deltoides", "source": "city_inventory", "tree_height": 15.3, "crown_radius": 4.6, "height_source": "lidar2025" }, "geometry": { "type": "Point", "coordinates": [ 281878.74, 4156698.13 ] } },
{ "type": "Feature", "properties": { "id": "lidar-tree:281952:4156666", "name": null, "kind": "tree", "species": null, "source": "lidar2025", "tree_height": 15.1, "crown_radius": 6.0, "height_source": "lidar2025" }, "geometry": { "type": "Point", "coordinates": [ 281952.5, 4156665.5 ] } },
{ "type": "Feature", "properties": { "id": "lidar-tree:281934:4156668", "name": null, "kind": "tree", "species": null, "source": "lidar2025", "tree_height": 12.6, "crown_radius": 6.0, "height_source": "lidar2025" }, "geometry": { "type": "Point", "coordinates": [ 281933.5, 4156668.5 ] } },
{ "type": "Feature", "properties": { "id": "lidar-tree:281968:4156672", "name": null, "kind": "tree", "species": null, "source": "lidar2025", "tree_height": 17.0, "crown_radius": 6.0, "height_source": "lidar2025" }, "geometry": { "type": "Point", "coordinates": [ 281967.5, 4156671.5 ] } },
{ "type": "Feature", "properties": { "id": "lidar-tree:281946:4156674", "name": null, "kind": "tree", "species": null, "source": "lidar2025", "tree_height": 14.7, "crown_radius": 6.0, "height_source": "lidar2025" }, "geometry": { "type": "Point", "coordinates": [ 281945.5, 4156674.5 ] } },
{ "type": "Feature", "properties": { "id": "lidar-tree:281960:4156678", "name": null, "kind": "tree", "species": null, "source": "lidar2025", "tree_height": 15.8, "crown_radius": 6.0, "height_source": "lidar2025" }, "geometry": { "type": "Point", "coordinates": [ 281960.5, 4156678.5 ] } },
{ "type": "Feature", "properties": { "id": "lidar-tree:281938:4156682", "name": null, "kind": "tree", "species": null, "source": "lidar2025", "tree_height": 12.8, "crown_radius": 6.0, "height_source": "lidar2025" }, "geometry": { "type": "Point", "coordinates": [ 281938.5, 4156682.5 ] } },
{ "type": "Feature", "properties": { "id": "lidar-tree:281974:4156686", "name": null, "kind": "tree", "species": null, "source": "lidar2025", "tree_height": 14.4, "crown_radius": 6.0, "height_source": "lidar2025" }, "geometry": { "type": "Point", "coordinates": [ 281973.5, 4156685.5 ] } },
{ "type": "Feature", "properties": { "id": "lidar-tree:281926:4156686", "name": null, "kind": "tree", "species": null, "source": "lidar2025", "tree_height": 15.7, "crown_radius": 6.0, "height_source": "lidar2025" }, "geometry": { "type": "Point", "coordinates": [ 281926.5, 4156685.5 ] } },
{ "type": "Feature", "properties": { "id": "lidar-tree:281964:4156692", "name": null, "kind": "tree", "species": null, "source": "lidar2025", "tree_height": 13.2, "crown_radius": 6.0, "height_source": "lidar2025" }, "geometry": { "type": "Point", "coordinates": [ 281963.5, 4156691.5 ] } },
{ "type": "Feature", "properties": { "id": "lidar-tree:281954:4156692", "name": null, "kind": "tree", "species": null, "source": "lidar2025", "tree_height": 16.7, "crown_radius": 6.0, "height_source": "lidar2025" }, "geometry": { "type": "Point", "coordinates": [ 281953.5, 4156691.5 ] } },
{ "type": "Feature", "properties": { "id": "lidar-tree:281926:4156696", "name": null, "kind": "tree", "species": null, "source": "lidar2025", "tree_height": 12.1, "crown_radius": 6.0, "height_source": "lidar2025" }, "geometry": { "type": "Point", "coordinates": [ 281926.5, 4156695.5 ] } },
{ "type": "Feature", "properties": { "id": "lidar-tree:281972:4156698", "name": null, "kind": "tree", "species": null, "source": "lidar2025", "tree_height": 13.3, "crown_radius": 6.0, "height_source": "lidar2025" }, "geometry": { "type": "Point", "coordinates": [ 281971.5, 4156697.5 ] } },
{ "type": "Feature", "properties": { "id": "lidar-tree:281940:4156704", "name": null, "kind": "tree", "species": null, "source": "lidar2025", "tree_height": 16.5, "crown_radius": 6.0, "height_source": "lidar2025" }, "geometry": { "type": "Point", "coordinates": [ 281940.5, 4156703.5 ] } },
{ "type": "Feature", "properties": { "id": "lidar-tree:281956:4156706", "name": null, "kind": "tree", "species": null, "source": "lidar2025", "tree_height": 13.3, "crown_radius": 6.0, "height_source": "lidar2025" }, "geometry": { "type": "Point", "coordinates": [ 281956.5, 4156706.5 ] } },
{ "type": "Feature", "properties": { "id": "lidar-tree:281968:4156708", "name": null, "kind": "tree", "species": null, "source": "lidar2025", "tree_height": 13.0, "crown_radius": 6.0, "height_source": "lidar2025" }, "geometry": { "type": "Point", "coordinates": [ 281967.5, 4156707.5 ] } },
{ "type": "Feature", "properties": { "id": "lidar-tree:281930:4156712", "name": null, "kind": "tree", "species": null, "source": "lidar2025", "tree_height": 15.3, "crown_radius": 6.0, "height_source": "lidar2025" }, "geometry": { "type": "Point", "coordinates": [ 281930.5, 4156712.5 ] } },
{ "type": "Feature", "properties": { "id": "lidar-tree:281968:4156716", "name": null, "kind": "tree", "species": null, "source": "lidar2025", "tree_height": 10.4, "crown_radius": 6.0, "height_source": "lidar2025" }, "geometry": { "type": "Point", "coordinates": [ 281967.5, 4156716.5 ] } },
{ "type": "Feature", "properties": { "id": "lidar-tree:281948:4156718", "name": null, "kind": "tree", "species": null, "source": "lidar2025", "tree_height": 12.6, "crown_radius": 6.0, "height_source": "lidar2025" }, "geometry": { "type": "Point", "coordinates": [ 281948.5, 4156718.5 ] } },
{ "type": "Feature", "properties": { "id": "lidar-tree:281932:4156722", "name": null, "kind": "tree", "species": null, "source": "lidar2025", "tree_height": 12.6, "crown_radius": 6.0, "height_source": "lidar2025" }, "geometry": { "type": "Point", "coordinates": [ 281931.5, 4156721.5 ] } },
{ "type": "Feature", "properties": { "id": "lidar-tree:281968:4156728", "name": null, "kind": "tree", "species": null, "source": "lidar2025", "tree_height": 8.7, "crown_radius": 6.0, "height_source": "lidar2025" }, "geometry": { "type": "Point", "coordinates": [ 281967.5, 4156728.5 ] } },
{ "type": "Feature", "properties": { "id": "lidar-tree:281940:4156728", "name": null, "kind": "tree", "species": null, "source": "lidar2025", "tree_height": 13.1, "crown_radius": 6.0, "height_source": "lidar2025" }, "geometry": { "type": "Point", "coordinates": [ 281939.5, 4156728.5 ] } },
{ "type": "Feature", "properties": { "id": "lidar-tree:281950:4156732", "name": null, "kind": "tree", "species": null, "source": "lidar2025", "tree_height": 13.2, "crown_radius": 6.0, "height_source": "lidar2025" }, "geometry": { "type": "Point", "coordinates": [ 281949.5, 4156731.5 ] } },
{ "type": "Feature", "properties": { "id": "lidar-tree:281974:4156738", "name": null, "kind": "tree", "species": null, "source": "lidar2025", "tree_height": 12.8, "crown_radius": 6.0, "height_source": "lidar2025" }, "geometry": { "type": "Point", "coordinates": [ 281973.5, 4156737.5 ] } },
{ "type": "Feature", "properties": { "id": "lidar-tree:281944:4156740", "name": null, "kind": "tree", "species": null, "source": "lidar2025", "tree_height": 12.0, "crown_radius": 6.0, "height_source": "lidar2025" }, "geometry": { "type": "Point", "coordinates": [ 281943.5, 4156739.5 ] } },
{ "type": "Feature", "properties": { "id": "lidar-tree:281958:4156744", "name": null, "kind": "tree", "species": null, "source": "lidar2025", "tree_height": 12.4, "crown_radius": 6.0, "height_source": "lidar2025" }, "geometry": { "type": "Point", "coordinates": [ 281958.5, 4156744.5 ] } },
{ "type": "Feature", "properties": { "id": "lidar-tree:281992:4156600", "name": null, "kind": "tree", "species": null, "source": "lidar2025", "tree_height": 30.3, "crown_radius": 6.0, "height_source": "lidar2025" }, "geometry": { "type": "Point", "coordinates": [ 281991.5, 4156600.5 ] } },
{ "type": "Feature", "properties": { "id": "lidar-tree:281978:4156620", "name": null, "kind": "tree", "species": null, "source": "lidar2025", "tree_height": 33.7, "crown_radius": 6.0, "height_source": "lidar2025" }, "geometry": { "type": "Point", "coordinates": [ 281978.5, 4156619.5 ] } },
{ "type": "Feature", "properties": { "id": "lidar-tree:281992:4156624", "name": null, "kind": "tree", "species": null, "source": "lidar2025", "tree_height": 29.0, "crown_radius": 6.0, "height_source": "lidar2025" }, "geometry": { "type": "Point", "coordinates": [ 281992.5, 4156623.5 ] } },
{ "type": "Feature", "properties": { "id": "lidar-tree:281992:4156634", "name": null, "kind": "tree", "species": null, "source": "lidar2025", "tree_height": 27.8, "crown_radius": 6.0, "height_source": "lidar2025" }, "geometry": { "type": "Point", "coordinates": [ 281991.5, 4156634.5 ] } },
{ "type": "Feature", "properties": { "id": "lidar-tree:281980:4156636", "name": null, "kind": "tree", "species": null, "source": "lidar2025", "tree_height": 26.8, "crown_radius": 6.0, "height_source": "lidar2025" }, "geometry": { "type": "Point", "coordinates": [ 281979.5, 4156636.5 ] } },
{ "type": "Feature", "properties": { "id": "lidar-tree:281996:4156648", "name": null, "kind": "tree", "species": null, "source": "lidar2025", "tree_height": 24.0, "crown_radius": 6.0, "height_source": "lidar2025" }, "geometry": { "type": "Point", "coordinates": [ 281995.5, 4156648.5 ] } },
{ "type": "Feature", "properties": { "id": "lidar-tree:281982:4156656", "name": null, "kind": "tree", "species": null, "source": "lidar2025", "tree_height": 23.7, "crown_radius": 6.0, "height_source": "lidar2025" }, "geometry": { "type": "Point", "coordinates": [ 281982.5, 4156655.5 ] } },
{ "type": "Feature", "properties": { "id": "lidar-tree:281990:4156670", "name": null, "kind": "tree", "species": null, "source": "lidar2025", "tree_height": 15.4, "crown_radius": 6.0, "height_source": "lidar2025" }, "geometry": { "type": "Point", "coordinates": [ 281990.5, 4156669.5 ] } },
{ "type": "Feature", "properties": { "id": "lidar-tree:281984:4156674", "name": null, "kind": "tree", "species": null, "source": "lidar2025", "tree_height": 17.7, "crown_radius": 6.0, "height_source": "lidar2025" }, "geometry": { "type": "Point", "coordinates": [ 281983.5, 4156674.5 ] } },
{ "type": "Feature", "properties": { "id": "lidar-tree:281990:4156692", "name": null, "kind": "tree", "species": null, "source": "lidar2025", "tree_height": 14.0, "crown_radius": 6.0, "height_source": "lidar2025" }, "geometry": { "type": "Point", "coordinates": [ 281990.5, 4156692.5 ] } },
{ "type": "Feature", "properties": { "id": "lidar-tree:282000:4156694", "name": null, "kind": "tree", "species": null, "source": "lidar2025", "tree_height": 14.1, "crown_radius": 6.0, "height_source": "lidar2025" }, "geometry": { "type": "Point", "coordinates": [ 281999.5, 4156693.5 ] } },
{ "type": "Feature", "properties": { "id": "lidar-tree:281982:4156698", "name": null, "kind": "tree", "species": null, "source": "lidar2025", "tree_height": 13.1, "crown_radius": 6.0, "height_source": "lidar2025" }, "geometry": { "type": "Point", "coordinates": [ 281981.5, 4156698.5 ] } },
{ "type": "Feature", "properties": { "id": "lidar-tree:281988:4156710", "name": null, "kind": "tree", "species": null, "source": "lidar2025", "tree_height": 8.1, "crown_radius": 5.4, "height_source": "lidar2025" }, "geometry": { "type": "Point", "coordinates": [ 281987.5, 4156709.5 ] } },
{ "type": "Feature", "properties": { "id": "lidar-tree:281998:4156716", "name": null, "kind": "tree", "species": null, "source": "lidar2025", "tree_height": 11.3, "crown_radius": 5.3, "height_source": "lidar2025" }, "geometry": { "type": "Point", "coordinates": [ 281998.5, 4156715.5 ] } },
{ "type": "Feature", "properties": { "id": "lidar-tree:281988:4156718", "name": null, "kind": "tree", "species": null, "source": "lidar2025", "tree_height": 8.3, "crown_radius": 4.5, "height_source": "lidar2025" }, "geometry": { "type": "Point", "coordinates": [ 281987.5, 4156717.5 ] } },
{ "type": "Feature", "properties": { "id": "lidar-tree:281984:4156730", "name": null, "kind": "tree", "species": null, "source": "lidar2025", "tree_height": 10.8, "crown_radius": 6.0, "height_source": "lidar2025" }, "geometry": { "type": "Point", "coordinates": [ 281983.5, 4156730.5 ] } },
{ "type": "Feature", "properties": { "id": "lidar-tree:281994:4156732", "name": null, "kind": "tree", "species": null, "source": "lidar2025", "tree_height": 9.4, "crown_radius": 6.0, "height_source": "lidar2025" }, "geometry": { "type": "Point", "coordinates": [ 281994.5, 4156732.5 ] } },
{ "type": "Feature", "properties": { "id": "lidar-tree:281836:4156700", "name": null, "kind": "tree", "species": null, "source": "lidar2025", "tree_height": 25.1, "crown_radius": 6.0, "height_source": "lidar2025" }, "geometry": { "type": "Point", "coordinates": [ 281836.5, 4156699.5 ] } },
{ "type": "Feature", "properties": { "id": "rva-tree:9467", "name": "Fraxinus pennsylvanica", "kind": "tree", "species": "Fraxinus pennsylvanica", "source": "city_inventory", "tree_height": 8.0, "crown_radius": 2.5, "height_source": "estimated" }, "geometry": { "type": "Point", "coordinates": [ 281816.66, 4156708.6 ] } },
{ "type": "Feature", "properties": { "id": "lidar-tree:281806:4156714", "name": null, "kind": "tree", "species": null, "source": "lidar2025", "tree_height": 22.3, "crown_radius": 6.0, "height_source": "lidar2025" }, "geometry": { "type": "Point", "coordinates": [ 281806.5, 4156714.5 ] } },
{ "type": "Feature", "properties": { "id": "lidar-tree:281832:4156716", "name": null, "kind": "tree", "species": null, "source": "lidar2025", "tree_height": 16.6, "crown_radius": 6.0, "height_source": "lidar2025" }, "geometry": { "type": "Point", "coordinates": [ 281831.5, 4156716.5 ] } },
{ "type": "Feature", "properties": { "id": "lidar-tree:281808:4156724", "name": null, "kind": "tree", "species": null, "source": "lidar2025", "tree_height": 22.8, "crown_radius": 6.0, "height_source": "lidar2025" }, "geometry": { "type": "Point", "coordinates": [ 281807.5, 4156723.5 ] } },
{ "type": "Feature", "properties": { "id": "lidar-tree:281828:4156736", "name": null, "kind": "tree", "species": null, "source": "lidar2025", "tree_height": 4.8, "crown_radius": 3.1, "height_source": "lidar2025" }, "geometry": { "type": "Point", "coordinates": [ 281827.5, 4156736.5 ] } },
{ "type": "Feature", "properties": { "id": "lidar-tree:281988:4156742", "name": null, "kind": "tree", "species": null, "source": "lidar2025", "tree_height": 7.7, "crown_radius": 5.9, "height_source": "lidar2025" }, "geometry": { "type": "Point", "coordinates": [ 281987.5, 4156742.5 ] } },
{ "type": "Feature", "properties": { "id": "lidar-tree:281974:4156748", "name": null, "kind": "tree", "species": null, "source": "lidar2025", "tree_height": 10.1, "crown_radius": 6.0, "height_source": "lidar2025" }, "geometry": { "type": "Point", "coordinates": [ 281974.5, 4156747.5 ] } },
{ "type": "Feature", "properties": { "id": "lidar-tree:281858:4156704", "name": null, "kind": "tree", "species": null, "source": "lidar2025", "tree_height": 21.1, "crown_radius": 6.0, "height_source": "lidar2025" }, "geometry": { "type": "Point", "coordinates": [ 281858.5, 4156703.5 ] } },
{ "type": "Feature", "properties": { "id": "lidar-tree:281860:4156714", "name": null, "kind": "tree", "species": null, "source": "lidar2025", "tree_height": 21.1, "crown_radius": 6.0, "height_source": "lidar2025" }, "geometry": { "type": "Point", "coordinates": [ 281859.5, 4156714.5 ] } },
{ "type": "Feature", "properties": { "id": "lidar-tree:281888:4156728", "name": null, "kind": "tree", "species": null, "source": "lidar2025", "tree_height": 12.3, "crown_radius": 4.5, "height_source": "lidar2025" }, "geometry": { "type": "Point", "coordinates": [ 281888.5, 4156728.5 ] } },
{ "type": "Feature", "properties": { "id": "lidar-tree:281774:4156530", "name": null, "kind": "tree", "species": null, "source": "lidar2025", "tree_height": 24.6, "crown_radius": 6.0, "height_source": "lidar2025" }, "geometry": { "type": "Point", "coordinates": [ 281773.5, 4156530.5 ] } },
{ "type": "Feature", "properties": { "id": "lidar-tree:281788:4156536", "name": null, "kind": "tree", "species": null, "source": "lidar2025", "tree_height": 35.1, "crown_radius": 6.0, "height_source": "lidar2025" }, "geometry": { "type": "Point", "coordinates": [ 281788.5, 4156535.5 ] } },
{ "type": "Feature", "properties": { "id": "lidar-tree:281764:4156540", "name": null, "kind": "tree", "species": null, "source": "lidar2025", "tree_height": 32.7, "crown_radius": 6.0, "height_source": "lidar2025" }, "geometry": { "type": "Point", "coordinates": [ 281764.5, 4156540.5 ] } },
{ "type": "Feature", "properties": { "id": "lidar-tree:281756:4156542", "name": null, "kind": "tree", "species": null, "source": "lidar2025", "tree_height": 32.5, "crown_radius": 6.0, "height_source": "lidar2025" }, "geometry": { "type": "Point", "coordinates": [ 281755.5, 4156541.5 ] } },
{ "type": "Feature", "properties": { "id": "lidar-tree:281798:4156550", "name": null, "kind": "tree", "species": null, "source": "lidar2025", "tree_height": 20.2, "crown_radius": 5.5, "height_source": "lidar2025" }, "geometry": { "type": "Point", "coordinates": [ 281798.5, 4156549.5 ] } },
{ "type": "Feature", "properties": { "id": "lidar-tree:281756:4156554", "name": null, "kind": "tree", "species": null, "source": "lidar2025", "tree_height": 26.7, "crown_radius": 6.0, "height_source": "lidar2025" }, "geometry": { "type": "Point", "coordinates": [ 281756.5, 4156553.5 ] } },
{ "type": "Feature", "properties": { "id": "lidar-tree:281768:4156558", "name": null, "kind": "tree", "species": null, "source": "lidar2025", "tree_height": 29.4, "crown_radius": 6.0, "height_source": "lidar2025" }, "geometry": { "type": "Point", "coordinates": [ 281768.5, 4156558.5 ] } },
{ "type": "Feature", "properties": { "id": "lidar-tree:281792:4156560", "name": null, "kind": "tree", "species": null, "source": "lidar2025", "tree_height": 27.0, "crown_radius": 6.0, "height_source": "lidar2025" }, "geometry": { "type": "Point", "coordinates": [ 281791.5, 4156559.5 ] } },
{ "type": "Feature", "properties": { "id": "lidar-tree:281782:4156562", "name": null, "kind": "tree", "species": null, "source": "lidar2025", "tree_height": 29.1, "crown_radius": 6.0, "height_source": "lidar2025" }, "geometry": { "type": "Point", "coordinates": [ 281781.5, 4156561.5 ] } },
{ "type": "Feature", "properties": { "id": "lidar-tree:281792:4156570", "name": null, "kind": "tree", "species": null, "source": "lidar2025", "tree_height": 27.1, "crown_radius": 6.0, "height_source": "lidar2025" }, "geometry": { "type": "Point", "coordinates": [ 281791.5, 4156569.5 ] } },
{ "type": "Feature", "properties": { "id": "lidar-tree:281786:4156576", "name": null, "kind": "tree", "species": null, "source": "lidar2025", "tree_height": 27.2, "crown_radius": 6.0, "height_source": "lidar2025" }, "geometry": { "type": "Point", "coordinates": [ 281785.5, 4156575.5 ] } },
{ "type": "Feature", "properties": { "id": "lidar-tree:281762:4156576", "name": null, "kind": "tree", "species": null, "source": "lidar2025", "tree_height": 32.4, "crown_radius": 6.0, "height_source": "lidar2025" }, "geometry": { "type": "Point", "coordinates": [ 281761.5, 4156576.5 ] } },
{ "type": "Feature", "properties": { "id": "lidar-tree:281798:4156582", "name": null, "kind": "tree", "species": null, "source": "lidar2025", "tree_height": 27.3, "crown_radius": 6.0, "height_source": "lidar2025" }, "geometry": { "type": "Point", "coordinates": [ 281797.5, 4156581.5 ] } },
{ "type": "Feature", "properties": { "id": "lidar-tree:281762:4156586", "name": null, "kind": "tree", "species": null, "source": "lidar2025", "tree_height": 31.0, "crown_radius": 6.0, "height_source": "lidar2025" }, "geometry": { "type": "Point", "coordinates": [ 281761.5, 4156585.5 ] } },
{ "type": "Feature", "properties": { "id": "lidar-tree:281780:4156586", "name": null, "kind": "tree", "species": null, "source": "lidar2025", "tree_height": 30.1, "crown_radius": 6.0, "height_source": "lidar2025" }, "geometry": { "type": "Point", "coordinates": [ 281780.5, 4156585.5 ] } },
{ "type": "Feature", "properties": { "id": "lidar-tree:281792:4156590", "name": null, "kind": "tree", "species": null, "source": "lidar2025", "tree_height": 27.0, "crown_radius": 6.0, "height_source": "lidar2025" }, "geometry": { "type": "Point", "coordinates": [ 281791.5, 4156590.5 ] } },
{ "type": "Feature", "properties": { "id": "lidar-tree:281768:4156596", "name": null, "kind": "tree", "species": null, "source": "lidar2025", "tree_height": 29.4, "crown_radius": 6.0, "height_source": "lidar2025" }, "geometry": { "type": "Point", "coordinates": [ 281768.5, 4156596.5 ] } },
{ "type": "Feature", "properties": { "id": "lidar-tree:281792:4156604", "name": null, "kind": "tree", "species": null, "source": "lidar2025", "tree_height": 29.2, "crown_radius": 6.0, "height_source": "lidar2025" }, "geometry": { "type": "Point", "coordinates": [ 281792.5, 4156604.5 ] } },
{ "type": "Feature", "properties": { "id": "lidar-tree:281778:4156606", "name": null, "kind": "tree", "species": null, "source": "lidar2025", "tree_height": 28.0, "crown_radius": 6.0, "height_source": "lidar2025" }, "geometry": { "type": "Point", "coordinates": [ 281778.5, 4156606.5 ] } },
{ "type": "Feature", "properties": { "id": "lidar-tree:281768:4156608", "name": null, "kind": "tree", "species": null, "source": "lidar2025", "tree_height": 28.3, "crown_radius": 6.0, "height_source": "lidar2025" }, "geometry": { "type": "Point", "coordinates": [ 281767.5, 4156607.5 ] } },
{ "type": "Feature", "properties": { "id": "lidar-tree:281750:4156608", "name": null, "kind": "tree", "species": null, "source": "lidar2025", "tree_height": 35.8, "crown_radius": 6.0, "height_source": "lidar2025" }, "geometry": { "type": "Point", "coordinates": [ 281750.5, 4156608.5 ] } },
{ "type": "Feature", "properties": { "id": "lidar-tree:281772:4156620", "name": null, "kind": "tree", "species": null, "source": "lidar2025", "tree_height": 23.6, "crown_radius": 6.0, "height_source": "lidar2025" }, "geometry": { "type": "Point", "coordinates": [ 281771.5, 4156619.5 ] } },
{ "type": "Feature", "properties": { "id": "lidar-tree:281752:4156624", "name": null, "kind": "tree", "species": null, "source": "lidar2025", "tree_height": 31.9, "crown_radius": 6.0, "height_source": "lidar2025" }, "geometry": { "type": "Point", "coordinates": [ 281751.5, 4156624.5 ] } },
{ "type": "Feature", "properties": { "id": "lidar-tree:281774:4156628", "name": null, "kind": "tree", "species": null, "source": "lidar2025", "tree_height": 27.2, "crown_radius": 6.0, "height_source": "lidar2025" }, "geometry": { "type": "Point", "coordinates": [ 281773.5, 4156628.5 ] } },
{ "type": "Feature", "properties": { "id": "lidar-tree:281784:4156642", "name": null, "kind": "tree", "species": null, "source": "lidar2025", "tree_height": 24.2, "crown_radius": 6.0, "height_source": "lidar2025" }, "geometry": { "type": "Point", "coordinates": [ 281783.5, 4156642.5 ] } },
{ "type": "Feature", "properties": { "id": "rva-tree:9460", "name": "Zelkova serrata", "kind": "tree", "species": "Zelkova serrata", "source": "city_inventory", "tree_height": 12.2, "crown_radius": 5.7, "height_source": "lidar2025" }, "geometry": { "type": "Point", "coordinates": [ 281772.5, 4156655.61 ] } },
{ "type": "Feature", "properties": { "id": "rva-tree:9461", "name": "Zelkova serrata", "kind": "tree", "species": "Zelkova serrata", "source": "city_inventory", "tree_height": 15.4, "crown_radius": 6.0, "height_source": "lidar2025" }, "geometry": { "type": "Point", "coordinates": [ 281776.06, 4156667.83 ] } },
{ "type": "Feature", "properties": { "id": "rva-tree:9577", "name": "Zelkova serrata", "kind": "tree", "species": "Zelkova serrata", "source": "city_inventory", "tree_height": 8.0, "crown_radius": 2.5, "height_source": "estimated" }, "geometry": { "type": "Point", "coordinates": [ 281765.45, 4156670.19 ] } },
{ "type": "Feature", "properties": { "id": "lidar-tree:281792:4156670", "name": null, "kind": "tree", "species": null, "source": "lidar2025", "tree_height": 24.7, "crown_radius": 6.0, "height_source": "lidar2025" }, "geometry": { "type": "Point", "coordinates": [ 281791.5, 4156670.5 ] } },
{ "type": "Feature", "properties": { "id": "rva-tree:9462", "name": "Zelkova serrata", "kind": "tree", "species": "Zelkova serrata", "source": "city_inventory", "tree_height": 16.4, "crown_radius": 6.0, "height_source": "lidar2025" }, "geometry": { "type": "Point", "coordinates": [ 281779.2, 4156680.5 ] } },
{ "type": "Feature", "properties": { "id": "rva-tree:9576", "name": "Zelkova serrata", "kind": "tree", "species": "Zelkova serrata", "source": "city_inventory", "tree_height": 17.1, "crown_radius": 6.0, "height_source": "lidar2025" }, "geometry": { "type": "Point", "coordinates": [ 281768.27, 4156683.87 ] } },
{ "type": "Feature", "properties": { "id": "rva-tree:9463", "name": "Zelkova serrata", "kind": "tree", "species": "Zelkova serrata", "source": "city_inventory", "tree_height": 14.3, "crown_radius": 5.8, "height_source": "lidar2025" }, "geometry": { "type": "Point", "coordinates": [ 281782.56, 4156694.59 ] } },
{ "type": "Feature", "properties": { "id": "lidar-tree:281788:4156708", "name": null, "kind": "tree", "species": null, "source": "lidar2025", "tree_height": 15.6, "crown_radius": 6.0, "height_source": "lidar2025" }, "geometry": { "type": "Point", "coordinates": [ 281787.5, 4156708.5 ] } },
{ "type": "Feature", "properties": { "id": "rva-tree:9574", "name": "Zelkova serrata", "kind": "tree", "species": "Zelkova serrata", "source": "city_inventory", "tree_height": 13.4, "crown_radius": 6.0, "height_source": "lidar2025" }, "geometry": { "type": "Point", "coordinates": [ 281774.23, 4156710.04 ] } },
{ "type": "Feature", "properties": { "id": "rva-tree:9465", "name": "Zelkova serrata", "kind": "tree", "species": "Zelkova serrata", "source": "city_inventory", "tree_height": 8.0, "crown_radius": 2.5, "height_source": "estimated" }, "geometry": { "type": "Point", "coordinates": [ 281787.97, 4156720.68 ] } },
{ "type": "Feature", "properties": { "id": "lidar-tree:281796:4156722", "name": null, "kind": "tree", "species": null, "source": "lidar2025", "tree_height": 22.3, "crown_radius": 6.0, "height_source": "lidar2025" }, "geometry": { "type": "Point", "coordinates": [ 281795.5, 4156722.5 ] } },
{ "type": "Feature", "properties": { "id": "rva-tree:9573", "name": "Zelkova serrata", "kind": "tree", "species": "Zelkova serrata", "source": "city_inventory", "tree_height": 11.5, "crown_radius": 6.0, "height_source": "lidar2025" }, "geometry": { "type": "Point", "coordinates": [ 281777.41, 4156724.05 ] } }
]
}
