{
"type": "FeatureCollection",
"name": "wires",
"crs": { "type": "name", "properties": { "name": "urn:ogc:def:crs:EPSG::32618" } },
"xy_coordinate_resolution": 0.01,
"features": [
{ "type": "Feature", "properties": { "id": "wire:8361-8363", "h0": 8.84, "h1": 8.84, "z0": 33.43, "z1": 30.58 }, "geometry": { "type": "LineString", "coordinates": [ [ 286015.38, 4158800.34 ], [ 286002.54, 4158773.14 ] ] } },
{ "type": "Feature", "properties": { "id": "wire:8342-8343", "h0": 10.0, "h1": 10.0, "z0": 42.13, "z1": 42.68 }, "geometry": { "type": "LineString", "coordinates": [ [ 286082.17, 4158827.0 ], [ 286111.31, 4158832.18 ] ] } },
{ "type": "Feature", "properties": { "id": "wire:8341-8343", "h0": 10.0, "h1": 10.0, "z0": 42.31, "z1": 42.68 }, "geometry": { "type": "LineString", "coordinates": [ [ 286139.73, 4158835.68 ], [ 286111.31, 4158832.18 ] ] } },
{ "type": "Feature", "properties": { "id": "wire:8340-8341", "h0": 10.0, "h1": 10.0, "z0": 40.9, "z1": 42.31 }, "geometry": { "type": "LineString", "coordinates": [ [ 286168.89, 4158840.14 ], [ 286139.73, 4158835.68 ] ] } },
{ "type": "Feature", "properties": { "id": "wire:8339-8340", "h0": 10.0, "h1": 10.0, "z0": 39.79, "z1": 40.9 }, "geometry": { "type": "LineString", "coordinates": [ [ 286198.62, 4158843.91 ], [ 286168.89, 4158840.14 ] ] } },
{ "type": "Feature", "properties": { "id": "wire:8359-8361", "h0": 8.84, "h1": 8.84, "z0": 36.54, "z1": 33.43 }, "geometry": { "type": "LineString", "coordinates": [ [ 286026.27, 4158830.13 ], [ 286015.38, 4158800.34 ] ] } },
{ "type": "Feature", "properties": { "id": "wire:8342-8344", "h0": 10.0, "h1": 11.73, "z0": 42.13, "z1": 41.65 }, "geometry": { "type": "LineString", "coordinates": [ [ 286082.17, 4158827.0 ], [ 286067.25, 4158824.0 ] ] } },
{ "type": "Feature", "properties": { "id": "wire:8357-8359", "h0": 10.0, "h1": 8.84, "z0": 39.62, "z1": 36.54 }, "geometry": { "type": "LineString", "coordinates": [ [ 286037.12, 4158858.66 ], [ 286026.27, 4158830.13 ] ] } },
{ "type": "Feature", "properties": { "id": "wire:8345-8357", "h0": 11.73, "h1": 10.0, "z0": 42.53, "z1": 39.62 }, "geometry": { "type": "LineString", "coordinates": [ [ 286054.17, 4158865.84 ], [ 286037.12, 4158858.66 ] ] } },
{ "type": "Feature", "properties": { "id": "wire:8345-8346", "h0": 11.73, "h1": 10.0, "z0": 42.53, "z1": 42.88 }, "geometry": { "type": "LineString", "coordinates": [ [ 286054.17, 4158865.84 ], [ 286063.87, 4158866.52 ] ] } },
{ "type": "Feature", "properties": { "id": "wire:8336-8346", "h0": 10.0, "h1": 10.0, "z0": 44.07, "z1": 42.88 }, "geometry": { "type": "LineString", "coordinates": [ [ 286097.39, 4158876.71 ], [ 286063.87, 4158866.52 ] ] } },
{ "type": "Feature", "properties": { "id": "wire:8347-8355", "h0": 10.0, "h1": 10.0, "z0": 42.88, "z1": 42.2 }, "geometry": { "type": "LineString", "coordinates": [ [ 286059.83, 4158896.02 ], [ 286050.19, 4158894.75 ] ] } },
{ "type": "Feature", "properties": { "id": "wire:8338-8339", "h0": 10.0, "h1": 10.0, "z0": 38.55, "z1": 39.79 }, "geometry": { "type": "LineString", "coordinates": [ [ 286226.35, 4158847.01 ], [ 286198.62, 4158843.91 ] ] } },
{ "type": "Feature", "properties": { "id": "wire:8337-8338", "h0": 10.0, "h1": 10.0, "z0": 38.32, "z1": 38.55 }, "geometry": { "type": "LineString", "coordinates": [ [ 286235.16, 4158848.47 ], [ 286226.35, 4158847.01 ] ] } },
{ "type": "Feature", "properties": { "id": "wire:8334-8335", "h0": 10.0, "h1": 10.0, "z0": 44.02, "z1": 44.69 }, "geometry": { "type": "LineString", "coordinates": [ [ 286177.2, 4158887.28 ], [ 286137.93, 4158882.08 ] ] } },
{ "type": "Feature", "properties": { "id": "wire:8218-8219", "h0": 10.0, "h1": 11.73, "z0": 44.85, "z1": 43.69 }, "geometry": { "type": "LineString", "coordinates": [ [ 286116.99, 4158921.83 ], [ 286083.11, 4158915.93 ] ] } },
{ "type": "Feature", "properties": { "id": "wire:8218-8220", "h0": 10.0, "h1": 10.0, "z0": 44.85, "z1": 45.63 }, "geometry": { "type": "LineString", "coordinates": [ [ 286116.99, 4158921.83 ], [ 286152.82, 4158925.15 ] ] } },
{ "type": "Feature", "properties": { "id": "wire:8220-8222", "h0": 10.0, "h1": 10.0, "z0": 45.63, "z1": 44.57 }, "geometry": { "type": "LineString", "coordinates": [ [ 286152.82, 4158925.15 ], [ 286200.88, 4158931.53 ] ] } },
{ "type": "Feature", "properties": { "id": "wire:8222-8223", "h0": 10.0, "h1": 10.0, "z0": 44.57, "z1": 44.02 }, "geometry": { "type": "LineString", "coordinates": [ [ 286200.88, 4158931.53 ], [ 286217.14, 4158934.5 ] ] } },
{ "type": "Feature", "properties": { "id": "wire:8223-8224", "h0": 10.0, "h1": 10.0, "z0": 44.02, "z1": 43.32 }, "geometry": { "type": "LineString", "coordinates": [ [ 286217.14, 4158934.5 ], [ 286249.62, 4158938.33 ] ] } },
{ "type": "Feature", "properties": { "id": "wire:8324-8327", "h0": 10.0, "h1": 10.0, "z0": 44.89, "z1": 45.29 }, "geometry": { "type": "LineString", "coordinates": [ [ 286173.2, 4158983.08 ], [ 286211.72, 4158985.9 ] ] } },
{ "type": "Feature", "properties": { "id": "wire:8327-8328", "h0": 10.0, "h1": 10.0, "z0": 45.29, "z1": 45.23 }, "geometry": { "type": "LineString", "coordinates": [ [ 286211.72, 4158985.9 ], [ 286224.73, 4158993.61 ] ] } },
{ "type": "Feature", "properties": { "id": "wire:8221-8347", "h0": 10.0, "h1": 10.0, "z0": 43.69, "z1": 42.88 }, "geometry": { "type": "LineString", "coordinates": [ [ 286083.1, 4158915.51 ], [ 286059.83, 4158896.02 ] ] } },
{ "type": "Feature", "properties": { "id": "wire:8351-8352", "h0": 10.36, "h1": 10.0, "z0": 42.43, "z1": 42.61 }, "geometry": { "type": "LineString", "coordinates": [ [ 286031.92, 4158971.05 ], [ 286037.05, 4158934.48 ] ] } },
{ "type": "Feature", "properties": { "id": "wire:8350-8351", "h0": 11.73, "h1": 10.36, "z0": 41.87, "z1": 42.43 }, "geometry": { "type": "LineString", "coordinates": [ [ 286025.65, 4159015.69 ], [ 286031.92, 4158971.05 ] ] } },
{ "type": "Feature", "properties": { "id": "wire:8319-8328", "h0": 8.84, "h1": 10.0, "z0": 44.47, "z1": 45.23 }, "geometry": { "type": "LineString", "coordinates": [ [ 286261.3, 4158991.92 ], [ 286224.73, 4158993.61 ] ] } }
]
}
