{
"type": "FeatureCollection",
"name": "roads",
"crs": { "type": "name", "properties": { "name": "urn:ogc:def:crs:EPSG::32618" } },
"xy_coordinate_resolution": 0.01,
"features": [
{ "type": "Feature", "properties": { "id": "osm:way/323697237", "name": null, "highway": "service", "lanes": null, "width": 4.5, "oneway": false, "surface": null, "footway": null, "sidewalk_left": false, "sidewalk_right": false, "generated_sidewalk": false, "bus_lanes": null, "bus_lane_side": null, "bus_only": false, "sidewalk": false, "bridge": false, "ramp": false, "tunnel": false, "layer": 0, "deck": null }, "geometry": { "type": "LineString", "coordinates": [ [ 283947.58, 4155500.0 ], [ 283975.31, 4155521.47 ], [ 283986.06, 4155529.93 ], [ 284000.0, 4155540.92 ] ] } },
{ "type": "Feature", "properties": { "id": "osm:way/1418844999", "name": null, "highway": "footway", "lanes": null, "width": 2.0, "oneway": false, "surface": null, "footway": "sidewalk", "sidewalk_left": false, "sidewalk_right": false, "generated_sidewalk": false, "bus_lanes": null, "bus_lane_side": null, "bus_only": false, "sidewalk": false, "bridge": false, "ramp": false, "tunnel": false, "layer": 0, "deck": null }, "geometry": { "type": "LineString", "coordinates": [ [ 283857.5, 4155519.37 ], [ 283856.79, 4155518.83 ], [ 283848.13, 4155512.16 ] ] } },
{ "type": "Feature", "properties": { "id": "osm:way/1418845000", "name": null, "highway": "footway", "lanes": null, "width": 2.0, "oneway": false, "surface": "asphalt", "footway": "crossing", "sidewalk_left": false, "sidewalk_right": false, "generated_sidewalk": false, "bus_lanes": null, "bus_lane_side": null, "bus_only": false, "sidewalk": false, "bridge": false, "ramp": false, "tunnel": false, "layer": 0, "deck": null }, "geometry": { "type": "LineString", "coordinates": [ [ 283863.1, 4155523.19 ], [ 283859.65, 4155520.84 ], [ 283857.5, 4155519.37 ] ] } },
{ "type": "Feature", "properties": { "id": "osm:way/132598129", "name": "Bainbridge Street", "highway": "tertiary", "lanes": null, "width": 8.0, "oneway": false, "surface": null, "footway": null, "sidewalk_left": true, "sidewalk_right": null, "generated_sidewalk": true, "bus_lanes": null, "bus_lane_side": null, "bus_only": false, "sidewalk": false, "bridge": false, "ramp": false, "tunnel": false, "layer": 0, "deck": null }, "geometry": { "type": "LineString", "coordinates": [ [ 283847.2, 4155500.0 ], [ 283865.17, 4155513.54 ], [ 283939.16, 4155569.74 ], [ 283952.13, 4155579.53 ], [ 283974.28, 4155596.26 ], [ 284000.0, 4155615.67 ] ] } },
{ "type": "Feature", "properties": { "id": "osm:way/1418845001", "name": null, "highway": "footway", "lanes": null, "width": 2.0, "oneway": false, "surface": null, "footway": "sidewalk", "sidewalk_left": false, "sidewalk_right": false, "generated_sidewalk": false, "bus_lanes": null, "bus_lane_side": null, "bus_only": false, "sidewalk": false, "bridge": false, "ramp": false, "tunnel": false, "layer": 0, "deck": null }, "geometry": { "type": "LineString", "coordinates": [ [ 283928.84, 4155576.54 ], [ 283930.08, 4155574.52 ], [ 283930.04, 4155572.94 ], [ 283864.77, 4155524.32 ], [ 283863.1, 4155523.19 ] ] } },
{ "type": "Feature", "properties": { "id": "osm:way/822389392", "name": null, "highway": "service", "lanes": null, "width": 4.5, "oneway": false, "surface": null, "footway": null, "sidewalk_left": false, "sidewalk_right": false, "generated_sidewalk": false, "bus_lanes": null, "bus_lane_side": null, "bus_only": false, "sidewalk": false, "bridge": false, "ramp": false, "tunnel": false, "layer": 0, "deck": null }, "geometry": { "type": "LineString", "coordinates": [ [ 283842.76, 4155543.21 ], [ 283913.45, 4155596.94 ], [ 283916.56, 4155599.31 ] ] } },
{ "type": "Feature", "properties": { "id": "osm:way/819741511", "name": null, "highway": "service", "lanes": null, "width": 4.5, "oneway": false, "surface": null, "footway": null, "sidewalk_left": false, "sidewalk_right": false, "generated_sidewalk": false, "bus_lanes": null, "bus_lane_side": null, "bus_only": false, "sidewalk": false, "bridge": false, "ramp": false, "tunnel": false, "layer": 0, "deck": null }, "geometry": { "type": "LineString", "coordinates": [ [ 283812.79, 4155582.88 ], [ 283884.38, 4155635.45 ], [ 283887.39, 4155637.65 ] ] } },
{ "type": "Feature", "properties": { "id": "osm:way/6039181", "name": "West 12th Street", "highway": "residential", "lanes": null, "width": 7.0, "oneway": true, "surface": null, "footway": null, "sidewalk_left": false, "sidewalk_right": false, "generated_sidewalk": true, "bus_lanes": null, "bus_lane_side": null, "bus_only": false, "sidewalk": false, "bridge": false, "ramp": false, "tunnel": false, "layer": 0, "deck": null }, "geometry": { "type": "LineString", "coordinates": [ [ 283803.38, 4155750.0 ], [ 283822.08, 4155725.91 ], [ 283829.12, 4155716.29 ], [ 283837.78, 4155704.5 ], [ 283860.47, 4155673.57 ], [ 283865.15, 4155667.19 ], [ 283871.3, 4155659.02 ], [ 283887.39, 4155637.65 ], [ 283895.47, 4155626.92 ], [ 283898.6, 4155622.81 ], [ 283916.56, 4155599.31 ], [ 283939.16, 4155569.74 ], [ 283975.31, 4155521.47 ], [ 283991.69, 4155500.0 ] ] } },
{ "type": "Feature", "properties": { "id": "osm:way/1418845005", "name": null, "highway": "footway", "lanes": null, "width": 2.0, "oneway": false, "surface": null, "footway": "sidewalk", "sidewalk_left": false, "sidewalk_right": false, "generated_sidewalk": false, "bus_lanes": null, "bus_lane_side": null, "bus_only": false, "sidewalk": false, "bridge": false, "ramp": false, "tunnel": false, "layer": 0, "deck": null }, "geometry": { "type": "LineString", "coordinates": [ [ 283866.41, 4155658.99 ], [ 283868.34, 4155656.71 ], [ 283884.38, 4155635.45 ], [ 283913.45, 4155596.94 ], [ 283928.84, 4155576.54 ] ] } },
{ "type": "Feature", "properties": { "id": "osm:way/1418844995", "name": null, "highway": "footway", "lanes": null, "width": 2.0, "oneway": false, "surface": null, "footway": "crossing", "sidewalk_left": false, "sidewalk_right": false, "generated_sidewalk": false, "bus_lanes": null, "bus_lane_side": null, "bus_only": false, "sidewalk": false, "bridge": false, "ramp": false, "tunnel": false, "layer": 0, "deck": null }, "geometry": { "type": "LineString", "coordinates": [ [ 283905.63, 4155620.74 ], [ 283902.33, 4155625.17 ], [ 283900.18, 4155628.04 ] ] } },
{ "type": "Feature", "properties": { "id": "osm:way/1418844998", "name": null, "highway": "footway", "lanes": null, "width": 2.0, "oneway": false, "surface": null, "footway": "sidewalk", "sidewalk_left": false, "sidewalk_right": false, "generated_sidewalk": false, "bus_lanes": null, "bus_lane_side": null, "bus_only": false, "sidewalk": false, "bridge": false, "ramp": false, "tunnel": false, "layer": 0, "deck": null }, "geometry": { "type": "LineString", "coordinates": [ [ 283848.13, 4155512.16 ], [ 283831.88, 4155500.0 ] ] } },
{ "type": "Feature", "properties": { "id": "osm:way/1418844980", "name": null, "highway": "footway", "lanes": null, "width": 2.0, "oneway": false, "surface": null, "footway": "sidewalk", "sidewalk_left": false, "sidewalk_right": false, "generated_sidewalk": false, "bus_lanes": null, "bus_lane_side": null, "bus_only": false, "sidewalk": false, "bridge": false, "ramp": false, "tunnel": false, "layer": 0, "deck": null }, "geometry": { "type": "LineString", "coordinates": [ [ 283757.07, 4155500.0 ], [ 283750.0, 4155509.34 ] ] } },
{ "type": "Feature", "properties": { "id": "osm:way/323697241", "name": null, "highway": "service", "lanes": null, "width": 4.5, "oneway": false, "surface": null, "footway": null, "sidewalk_left": false, "sidewalk_right": false, "generated_sidewalk": false, "bus_lanes": null, "bus_lane_side": null, "bus_only": false, "sidewalk": false, "bridge": false, "ramp": false, "tunnel": false, "layer": 0, "deck": null }, "geometry": { "type": "LineString", "coordinates": [ [ 283755.33, 4155508.69 ], [ 283825.78, 4155560.59 ], [ 283828.26, 4155562.41 ] ] } },
{ "type": "Feature", "properties": { "id": "osm:way/1418843057", "name": null, "highway": "footway", "lanes": null, "width": 2.0, "oneway": false, "surface": null, "footway": "sidewalk", "sidewalk_left": false, "sidewalk_right": false, "generated_sidewalk": false, "bus_lanes": null, "bus_lane_side": null, "bus_only": false, "sidewalk": false, "bridge": false, "ramp": false, "tunnel": false, "layer": 0, "deck": null }, "geometry": { "type": "LineString", "coordinates": [ [ 283750.0, 4155568.07 ], [ 283793.36, 4155601.0 ], [ 283794.32, 4155601.6 ] ] } },
{ "type": "Feature", "properties": { "id": "osm:way/6038761", "name": "Porter Street", "highway": "residential", "lanes": null, "width": 7.0, "oneway": false, "surface": "paved", "footway": null, "sidewalk_left": true, "sidewalk_right": true, "generated_sidewalk": true, "bus_lanes": null, "bus_lane_side": null, "bus_only": false, "sidewalk": false, "bridge": false, "ramp": false, "tunnel": false, "layer": 0, "deck": null }, "geometry": { "type": "LineString", "coordinates": [ [ 283974.81, 4155750.0 ], [ 283941.22, 4155724.63 ], [ 283937.62, 4155721.91 ], [ 283933.86, 4155719.08 ], [ 283868.86, 4155669.99 ], [ 283865.15, 4155667.19 ], [ 283862.13, 4155664.86 ], [ 283791.87, 4155610.57 ], [ 283769.85, 4155593.38 ], [ 283755.17, 4155581.92 ], [ 283750.0, 4155578.07 ] ] } },
{ "type": "Feature", "properties": { "id": "osm:way/1418843045", "name": null, "highway": "footway", "lanes": null, "width": 2.0, "oneway": false, "surface": null, "footway": "crossing", "sidewalk_left": false, "sidewalk_right": false, "generated_sidewalk": false, "bus_lanes": null, "bus_lane_side": null, "bus_only": false, "sidewalk": false, "bridge": false, "ramp": false, "tunnel": false, "layer": 0, "deck": null }, "geometry": { "type": "LineString", "coordinates": [ [ 283750.0, 4155590.41 ], [ 283752.01, 4155591.93 ], [ 283753.82, 4155593.31 ] ] } },
{ "type": "Feature", "properties": { "id": "osm:way/6033562", "name": "West 14th Street", "highway": "residential", "lanes": null, "width": 7.0, "oneway": true, "surface": null, "footway": null, "sidewalk_left": false, "sidewalk_right": false, "generated_sidewalk": true, "bus_lanes": null, "bus_lane_side": null, "bus_only": false, "sidewalk": false, "bridge": false, "ramp": false, "tunnel": false, "layer": 0, "deck": null }, "geometry": { "type": "LineString", "coordinates": [ [ 283750.0, 4155515.75 ], [ 283755.33, 4155508.69 ], [ 283761.86, 4155500.0 ] ] } },
{ "type": "Feature", "properties": { "id": "osm:way/1418843056", "name": null, "highway": "footway", "lanes": null, "width": 2.0, "oneway": false, "surface": "asphalt", "footway": "crossing", "sidewalk_left": false, "sidewalk_right": false, "generated_sidewalk": false, "bus_lanes": null, "bus_lane_side": null, "bus_only": false, "sidewalk": false, "bridge": false, "ramp": false, "tunnel": false, "layer": 0, "deck": null }, "geometry": { "type": "LineString", "coordinates": [ [ 283794.32, 4155601.6 ], [ 283797.1, 4155603.65 ], [ 283800.01, 4155605.8 ] ] } },
{ "type": "Feature", "properties": { "id": "osm:way/1418843044", "name": null, "highway": "footway", "lanes": null, "width": 2.0, "oneway": false, "surface": null, "footway": "sidewalk", "sidewalk_left": false, "sidewalk_right": false, "generated_sidewalk": false, "bus_lanes": null, "bus_lane_side": null, "bus_only": false, "sidewalk": false, "bridge": false, "ramp": false, "tunnel": false, "layer": 0, "deck": null }, "geometry": { "type": "LineString", "coordinates": [ [ 283753.82, 4155593.31 ], [ 283764.19, 4155600.95 ], [ 283783.59, 4155615.27 ] ] } },
{ "type": "Feature", "properties": { "id": "osm:way/819741513", "name": null, "highway": "service", "lanes": null, "width": 4.5, "oneway": false, "surface": null, "footway": null, "sidewalk_left": false, "sidewalk_right": false, "generated_sidewalk": false, "bus_lanes": null, "bus_lane_side": null, "bus_only": false, "sidewalk": false, "bridge": false, "ramp": false, "tunnel": false, "layer": 0, "deck": null }, "geometry": { "type": "LineString", "coordinates": [ [ 283750.0, 4155597.68 ], [ 283750.32, 4155597.26 ], [ 283752.01, 4155591.93 ], [ 283755.17, 4155581.92 ] ] } },
{ "type": "Feature", "properties": { "id": "osm:way/908425216", "name": null, "highway": "service", "lanes": null, "width": 4.5, "oneway": false, "surface": null, "footway": null, "sidewalk_left": false, "sidewalk_right": false, "generated_sidewalk": false, "bus_lanes": null, "bus_lane_side": null, "bus_only": false, "sidewalk": false, "bridge": false, "ramp": false, "tunnel": false, "layer": 0, "deck": null }, "geometry": { "type": "LineString", "coordinates": [ [ 283952.13, 4155579.53 ], [ 283986.06, 4155529.93 ] ] } },
{ "type": "Feature", "properties": { "id": "osm:way/1418844993", "name": null, "highway": "footway", "lanes": null, "width": 2.0, "oneway": false, "surface": null, "footway": "sidewalk", "sidewalk_left": false, "sidewalk_right": false, "generated_sidewalk": false, "bus_lanes": null, "bus_lane_side": null, "bus_only": false, "sidewalk": false, "bridge": false, "ramp": false, "tunnel": false, "layer": 0, "deck": null }, "geometry": { "type": "LineString", "coordinates": [ [ 283936.23, 4155580.72 ], [ 283937.62, 4155579.99 ], [ 283941.38, 4155581.62 ], [ 283967.8, 4155601.73 ] ] } },
{ "type": "Feature", "properties": { "id": "osm:way/1418844994", "name": null, "highway": "footway", "lanes": null, "width": 2.0, "oneway": false, "surface": null, "footway": "sidewalk", "sidewalk_left": false, "sidewalk_right": false, "generated_sidewalk": false, "bus_lanes": null, "bus_lane_side": null, "bus_only": false, "sidewalk": false, "bridge": false, "ramp": false, "tunnel": false, "layer": 0, "deck": null }, "geometry": { "type": "LineString", "coordinates": [ [ 283936.23, 4155580.72 ], [ 283905.63, 4155620.74 ] ] } },
{ "type": "Feature", "properties": { "id": "osm:way/1418844992", "name": null, "highway": "footway", "lanes": null, "width": 2.0, "oneway": false, "surface": null, "footway": "crossing", "sidewalk_left": false, "sidewalk_right": false, "generated_sidewalk": false, "bus_lanes": null, "bus_lane_side": null, "bus_only": false, "sidewalk": false, "bridge": false, "ramp": false, "tunnel": false, "layer": 0, "deck": null }, "geometry": { "type": "LineString", "coordinates": [ [ 283967.8, 4155601.73 ], [ 283969.54, 4155603.1 ], [ 283972.82, 4155605.68 ] ] } },
{ "type": "Feature", "properties": { "id": "osm:way/865413283", "name": null, "highway": "service", "lanes": null, "width": 4.5, "oneway": true, "surface": null, "footway": null, "sidewalk_left": false, "sidewalk_right": false, "generated_sidewalk": false, "bus_lanes": null, "bus_lane_side": null, "bus_only": false, "sidewalk": false, "bridge": false, "ramp": false, "tunnel": false, "layer": 0, "deck": null }, "geometry": { "type": "LineString", "coordinates": [ [ 283938.41, 4155648.02 ], [ 283969.54, 4155603.1 ], [ 283974.28, 4155596.26 ] ] } },
{ "type": "Feature", "properties": { "id": "osm:way/1418844991", "name": null, "highway": "footway", "lanes": null, "width": 2.0, "oneway": false, "surface": null, "footway": "sidewalk", "sidewalk_left": false, "sidewalk_right": false, "generated_sidewalk": false, "bus_lanes": null, "bus_lane_side": null, "bus_only": false, "sidewalk": false, "bridge": false, "ramp": false, "tunnel": false, "layer": 0, "deck": null }, "geometry": { "type": "MultiLineString", "coordinates": [ [ [ 283972.82, 4155605.68 ], [ 284000.0, 4155626.55 ] ], [ [ 284000.0, 4155631.75 ], [ 283971.41, 4155670.26 ] ] ] } },
{ "type": "Feature", "properties": { "id": "osm:way/865413282", "name": null, "highway": "service", "lanes": null, "width": 4.5, "oneway": false, "surface": null, "footway": null, "sidewalk_left": false, "sidewalk_right": false, "generated_sidewalk": false, "bus_lanes": null, "bus_lane_side": null, "bus_only": false, "sidewalk": false, "bridge": false, "ramp": false, "tunnel": false, "layer": 0, "deck": null }, "geometry": { "type": "LineString", "coordinates": [ [ 283898.6, 4155622.81 ], [ 283902.33, 4155625.17 ], [ 283938.41, 4155648.02 ], [ 283948.14, 4155657.42 ], [ 283972.77, 4155675.0 ] ] } },
{ "type": "Feature", "properties": { "id": "osm:way/1418843053", "name": null, "highway": "footway", "lanes": null, "width": 2.0, "oneway": false, "surface": null, "footway": "sidewalk", "sidewalk_left": false, "sidewalk_right": false, "generated_sidewalk": false, "bus_lanes": null, "bus_lane_side": null, "bus_only": false, "sidewalk": false, "bridge": false, "ramp": false, "tunnel": false, "layer": 0, "deck": null }, "geometry": { "type": "LineString", "coordinates": [ [ 283874.12, 4155661.28 ], [ 283875.07, 4155662.1 ], [ 283917.19, 4155693.98 ], [ 283939.59, 4155711.41 ], [ 283940.51, 4155712.12 ] ] } },
{ "type": "Feature", "properties": { "id": "osm:way/887794498", "name": null, "highway": "service", "lanes": null, "width": 4.5, "oneway": false, "surface": null, "footway": null, "sidewalk_left": false, "sidewalk_right": false, "generated_sidewalk": false, "bus_lanes": null, "bus_lane_side": null, "bus_only": false, "sidewalk": false, "bridge": false, "ramp": false, "tunnel": false, "layer": 0, "deck": null }, "geometry": { "type": "LineString", "coordinates": [ [ 284000.0, 4155692.34 ], [ 283973.91, 4155673.49 ] ] } },
{ "type": "Feature", "properties": { "id": "osm:way/1418843027", "name": null, "highway": "footway", "lanes": null, "width": 2.0, "oneway": false, "surface": null, "footway": "sidewalk", "sidewalk_left": false, "sidewalk_right": false, "generated_sidewalk": false, "bus_lanes": null, "bus_lane_side": null, "bus_only": false, "sidewalk": false, "bridge": false, "ramp": false, "tunnel": false, "layer": 0, "deck": null }, "geometry": { "type": "LineString", "coordinates": [ [ 283938.68, 4155712.79 ], [ 283939.59, 4155711.41 ] ] } },
{ "type": "Feature", "properties": { "id": "osm:way/1418843043", "name": null, "highway": "footway", "lanes": null, "width": 2.0, "oneway": false, "surface": "asphalt", "footway": "crossing", "sidewalk_left": false, "sidewalk_right": false, "generated_sidewalk": false, "bus_lanes": null, "bus_lane_side": null, "bus_only": false, "sidewalk": false, "bridge": false, "ramp": false, "tunnel": false, "layer": 0, "deck": null }, "geometry": { "type": "LineString", "coordinates": [ [ 283783.59, 4155615.27 ], [ 283786.66, 4155617.46 ], [ 283790.05, 4155619.87 ] ] } },
{ "type": "Feature", "properties": { "id": "osm:way/819741512", "name": null, "highway": "service", "lanes": null, "width": 4.5, "oneway": false, "surface": null, "footway": null, "sidewalk_left": false, "sidewalk_right": false, "generated_sidewalk": false, "bus_lanes": null, "bus_lane_side": null, "bus_only": false, "sidewalk": false, "bridge": false, "ramp": false, "tunnel": false, "layer": 0, "deck": null }, "geometry": { "type": "LineString", "coordinates": [ [ 283769.85, 4155593.38 ], [ 283764.19, 4155600.95 ], [ 283750.0, 4155619.96 ] ] } },
{ "type": "Feature", "properties": { "id": "osm:way/323697207", "name": null, "highway": "service", "lanes": null, "width": 4.5, "oneway": false, "surface": null, "footway": null, "sidewalk_left": false, "sidewalk_right": false, "generated_sidewalk": false, "bus_lanes": null, "bus_lane_side": null, "bus_only": false, "sidewalk": false, "bridge": false, "ramp": false, "tunnel": false, "layer": 0, "deck": null }, "geometry": { "type": "LineString", "coordinates": [ [ 283829.12, 4155716.29 ], [ 283825.44, 4155713.39 ], [ 283755.71, 4155658.44 ], [ 283750.0, 4155654.15 ] ] } },
{ "type": "Feature", "properties": { "id": "osm:way/1418843055", "name": null, "highway": "footway", "lanes": null, "width": 2.0, "oneway": false, "surface": null, "footway": "sidewalk", "sidewalk_left": false, "sidewalk_right": false, "generated_sidewalk": false, "bus_lanes": null, "bus_lane_side": null, "bus_only": false, "sidewalk": false, "bridge": false, "ramp": false, "tunnel": false, "layer": 0, "deck": null }, "geometry": { "type": "LineString", "coordinates": [ [ 283800.01, 4155605.8 ], [ 283801.44, 4155606.86 ], [ 283868.34, 4155656.71 ], [ 283869.11, 4155657.28 ] ] } },
{ "type": "Feature", "properties": { "id": "osm:way/1418843042", "name": null, "highway": "footway", "lanes": null, "width": 2.0, "oneway": false, "surface": null, "footway": "sidewalk", "sidewalk_left": false, "sidewalk_right": false, "generated_sidewalk": false, "bus_lanes": null, "bus_lane_side": null, "bus_only": false, "sidewalk": false, "bridge": false, "ramp": false, "tunnel": false, "layer": 0, "deck": null }, "geometry": { "type": "LineString", "coordinates": [ [ 283790.05, 4155619.87 ], [ 283823.76, 4155645.7 ] ] } },
{ "type": "Feature", "properties": { "id": "osm:way/6036884", "name": "West 13th Street", "highway": "residential", "lanes": null, "width": 7.0, "oneway": true, "surface": "asphalt", "footway": null, "sidewalk_left": false, "sidewalk_right": false, "generated_sidewalk": true, "bus_lanes": null, "bus_lane_side": null, "bus_only": false, "sidewalk": false, "bridge": false, "ramp": false, "tunnel": false, "layer": 0, "deck": null }, "geometry": { "type": "LineString", "coordinates": [ [ 283875.4, 4155500.0 ], [ 283865.17, 4155513.54 ], [ 283859.65, 4155520.84 ], [ 283842.76, 4155543.21 ], [ 283828.26, 4155562.41 ], [ 283812.79, 4155582.88 ], [ 283797.1, 4155603.65 ], [ 283791.87, 4155610.57 ], [ 283786.66, 4155617.46 ], [ 283755.71, 4155658.44 ], [ 283750.0, 4155666.0 ] ] } },
{ "type": "Feature", "properties": { "id": "osm:way/1418843041", "name": null, "highway": "footway", "lanes": null, "width": 2.0, "oneway": false, "surface": null, "footway": "sidewalk", "sidewalk_left": false, "sidewalk_right": false, "generated_sidewalk": false, "bus_lanes": null, "bus_lane_side": null, "bus_only": false, "sidewalk": false, "bridge": false, "ramp": false, "tunnel": false, "layer": 0, "deck": null }, "geometry": { "type": "LineString", "coordinates": [ [ 283823.76, 4155645.7 ], [ 283857.0, 4155671.29 ], [ 283858.08, 4155671.97 ] ] } },
{ "type": "Feature", "properties": { "id": "osm:way/1418845007", "name": null, "highway": "footway", "lanes": null, "width": 2.0, "oneway": false, "surface": null, "footway": "sidewalk", "sidewalk_left": false, "sidewalk_right": false, "generated_sidewalk": false, "bus_lanes": null, "bus_lane_side": null, "bus_only": false, "sidewalk": false, "bridge": false, "ramp": false, "tunnel": false, "layer": 0, "deck": null }, "geometry": { "type": "LineString", "coordinates": [ [ 283797.68, 4155750.0 ], [ 283815.7, 4155726.18 ], [ 283825.44, 4155713.39 ], [ 283840.78, 4155693.23 ], [ 283857.0, 4155671.29 ], [ 283859.14, 4155668.94 ] ] } },
{ "type": "Feature", "properties": { "id": "osm:way/1418845009", "name": null, "highway": "footway", "lanes": null, "width": 2.0, "oneway": false, "surface": null, "footway": "sidewalk", "sidewalk_left": false, "sidewalk_right": false, "generated_sidewalk": false, "bus_lanes": null, "bus_lane_side": null, "bus_only": false, "sidewalk": false, "bridge": false, "ramp": false, "tunnel": false, "layer": 0, "deck": null }, "geometry": { "type": "LineString", "coordinates": [ [ 283750.0, 4155720.33 ], [ 283760.83, 4155728.6 ], [ 283789.52, 4155750.0 ] ] } },
{ "type": "Feature", "properties": { "id": "osm:way/1453476540", "name": "Perry Street", "highway": "residential", "lanes": null, "width": 7.0, "oneway": false, "surface": "asphalt", "footway": null, "sidewalk_left": null, "sidewalk_right": false, "generated_sidewalk": true, "bus_lanes": null, "bus_lane_side": null, "bus_only": false, "sidewalk": false, "bridge": false, "ramp": false, "tunnel": false, "layer": 0, "deck": null }, "geometry": { "type": "LineString", "coordinates": [ [ 283750.0, 4155728.84 ], [ 283778.08, 4155750.0 ] ] } },
{ "type": "Feature", "properties": { "id": "osm:way/1418843052", "name": null, "highway": "footway", "lanes": null, "width": 2.0, "oneway": false, "surface": null, "footway": "crossing", "sidewalk_left": false, "sidewalk_right": false, "generated_sidewalk": false, "bus_lanes": null, "bus_lane_side": null, "bus_only": false, "sidewalk": false, "bridge": false, "ramp": false, "tunnel": false, "layer": 0, "deck": null }, "geometry": { "type": "LineString", "coordinates": [ [ 283940.51, 4155712.12 ], [ 283943.42, 4155714.18 ], [ 283946.07, 4155716.06 ] ] } },
{ "type": "Feature", "properties": { "id": "osm:way/1418843028", "name": null, "highway": "footway", "lanes": null, "width": 2.0, "oneway": false, "surface": "paved", "footway": "crossing", "sidewalk_left": false, "sidewalk_right": false, "generated_sidewalk": false, "bus_lanes": null, "bus_lane_side": null, "bus_only": false, "sidewalk": false, "bridge": false, "ramp": false, "tunnel": false, "layer": 0, "deck": null }, "geometry": { "type": "LineString", "coordinates": [ [ 283930.57, 4155723.36 ], [ 283933.86, 4155719.08 ], [ 283938.68, 4155712.79 ] ] } },
{ "type": "Feature", "properties": { "id": "osm:way/1418843026", "name": null, "highway": "footway", "lanes": null, "width": 2.0, "oneway": false, "surface": "paved", "footway": "crossing", "sidewalk_left": false, "sidewalk_right": false, "generated_sidewalk": false, "bus_lanes": null, "bus_lane_side": null, "bus_only": false, "sidewalk": false, "bridge": false, "ramp": false, "tunnel": false, "layer": 0, "deck": null }, "geometry": { "type": "LineString", "coordinates": [ [ 283947.08, 4155716.82 ], [ 283941.22, 4155724.63 ], [ 283938.02, 4155728.89 ] ] } },
{ "type": "Feature", "properties": { "id": "osm:way/1418843038", "name": null, "highway": "footway", "lanes": null, "width": 2.0, "oneway": false, "surface": null, "footway": "crossing", "sidewalk_left": false, "sidewalk_right": false, "generated_sidewalk": false, "bus_lanes": null, "bus_lane_side": null, "bus_only": false, "sidewalk": false, "bridge": false, "ramp": false, "tunnel": false, "layer": 0, "deck": null }, "geometry": { "type": "LineString", "coordinates": [ [ 283930.5, 4155726.07 ], [ 283933.08, 4155727.98 ], [ 283935.34, 4155729.64 ] ] } },
{ "type": "Feature", "properties": { "id": "osm:way/1418843025", "name": null, "highway": "footway", "lanes": null, "width": 2.0, "oneway": false, "surface": null, "footway": "sidewalk", "sidewalk_left": false, "sidewalk_right": false, "generated_sidewalk": false, "bus_lanes": null, "bus_lane_side": null, "bus_only": false, "sidewalk": false, "bridge": false, "ramp": false, "tunnel": false, "layer": 0, "deck": null }, "geometry": { "type": "LineString", "coordinates": [ [ 283938.02, 4155728.89 ], [ 283936.17, 4155730.29 ] ] } },
{ "type": "Feature", "properties": { "id": "osm:way/1418843029", "name": null, "highway": "footway", "lanes": null, "width": 2.0, "oneway": false, "surface": null, "footway": "sidewalk", "sidewalk_left": false, "sidewalk_right": false, "generated_sidewalk": false, "bus_lanes": null, "bus_lane_side": null, "bus_only": false, "sidewalk": false, "bridge": false, "ramp": false, "tunnel": false, "layer": 0, "deck": null }, "geometry": { "type": "LineString", "coordinates": [ [ 283910.83, 4155750.0 ], [ 283929.34, 4155725.26 ], [ 283930.57, 4155723.36 ] ] } },
{ "type": "Feature", "properties": { "id": "osm:way/1418843051", "name": null, "highway": "footway", "lanes": null, "width": 2.0, "oneway": false, "surface": null, "footway": "sidewalk", "sidewalk_left": false, "sidewalk_right": false, "generated_sidewalk": false, "bus_lanes": null, "bus_lane_side": null, "bus_only": false, "sidewalk": false, "bridge": false, "ramp": false, "tunnel": false, "layer": 0, "deck": null }, "geometry": { "type": "LineString", "coordinates": [ [ 283946.07, 4155716.06 ], [ 283947.08, 4155716.82 ], [ 283991.23, 4155750.0 ] ] } },
{ "type": "Feature", "properties": { "id": "osm:way/1418843037", "name": null, "highway": "footway", "lanes": null, "width": 2.0, "oneway": false, "surface": null, "footway": "sidewalk", "sidewalk_left": false, "sidewalk_right": false, "generated_sidewalk": false, "bus_lanes": null, "bus_lane_side": null, "bus_only": false, "sidewalk": false, "bridge": false, "ramp": false, "tunnel": false, "layer": 0, "deck": null }, "geometry": { "type": "LineString", "coordinates": [ [ 283935.34, 4155729.64 ], [ 283936.17, 4155730.29 ], [ 283962.03, 4155750.0 ] ] } },
{ "type": "Feature", "properties": { "id": "osm:way/1418845004", "name": null, "highway": "footway", "lanes": null, "width": 2.0, "oneway": false, "surface": null, "footway": "sidewalk", "sidewalk_left": false, "sidewalk_right": false, "generated_sidewalk": false, "bus_lanes": null, "bus_lane_side": null, "bus_only": false, "sidewalk": false, "bridge": false, "ramp": false, "tunnel": false, "layer": 0, "deck": null }, "geometry": { "type": "LineString", "coordinates": [ [ 283900.18, 4155628.04 ], [ 283891.38, 4155639.69 ], [ 283875.07, 4155662.1 ], [ 283873.08, 4155664.34 ] ] } },
{ "type": "Feature", "properties": { "id": "osm:way/1418843054", "name": null, "highway": "footway", "lanes": null, "width": 2.0, "oneway": false, "surface": null, "footway": "crossing", "sidewalk_left": false, "sidewalk_right": false, "generated_sidewalk": false, "bus_lanes": null, "bus_lane_side": null, "bus_only": false, "sidewalk": false, "bridge": false, "ramp": false, "tunnel": false, "layer": 0, "deck": null }, "geometry": { "type": "LineString", "coordinates": [ [ 283869.11, 4155657.28 ], [ 283871.3, 4155659.02 ], [ 283874.12, 4155661.28 ] ] } },
{ "type": "Feature", "properties": { "id": "osm:way/1418845006", "name": null, "highway": "footway", "lanes": null, "width": 2.0, "oneway": false, "surface": "paved", "footway": "crossing", "sidewalk_left": false, "sidewalk_right": false, "generated_sidewalk": false, "bus_lanes": null, "bus_lane_side": null, "bus_only": false, "sidewalk": false, "bridge": false, "ramp": false, "tunnel": false, "layer": 0, "deck": null }, "geometry": { "type": "LineString", "coordinates": [ [ 283859.14, 4155668.94 ], [ 283862.13, 4155664.86 ], [ 283866.41, 4155658.99 ] ] } },
{ "type": "Feature", "properties": { "id": "osm:way/1418845003", "name": null, "highway": "footway", "lanes": null, "width": 2.0, "oneway": false, "surface": "paved", "footway": "crossing", "sidewalk_left": false, "sidewalk_right": false, "generated_sidewalk": false, "bus_lanes": null, "bus_lane_side": null, "bus_only": false, "sidewalk": false, "bridge": false, "ramp": false, "tunnel": false, "layer": 0, "deck": null }, "geometry": { "type": "LineString", "coordinates": [ [ 283873.08, 4155664.34 ], [ 283868.86, 4155669.99 ], [ 283865.69, 4155674.21 ] ] } },
{ "type": "Feature", "properties": { "id": "osm:way/1418843040", "name": null, "highway": "footway", "lanes": null, "width": 2.0, "oneway": false, "surface": null, "footway": "crossing", "sidewalk_left": false, "sidewalk_right": false, "generated_sidewalk": false, "bus_lanes": null, "bus_lane_side": null, "bus_only": false, "sidewalk": false, "bridge": false, "ramp": false, "tunnel": false, "layer": 0, "deck": null }, "geometry": { "type": "LineString", "coordinates": [ [ 283858.08, 4155671.97 ], [ 283860.47, 4155673.57 ], [ 283863.24, 4155675.42 ] ] } },
{ "type": "Feature", "properties": { "id": "osm:way/1418845002", "name": null, "highway": "footway", "lanes": null, "width": 2.0, "oneway": false, "surface": null, "footway": "sidewalk", "sidewalk_left": false, "sidewalk_right": false, "generated_sidewalk": false, "bus_lanes": null, "bus_lane_side": null, "bus_only": false, "sidewalk": false, "bridge": false, "ramp": false, "tunnel": false, "layer": 0, "deck": null }, "geometry": { "type": "LineString", "coordinates": [ [ 283865.69, 4155674.21 ], [ 283864.23, 4155676.16 ] ] } },
{ "type": "Feature", "properties": { "id": "osm:way/1418843039", "name": null, "highway": "footway", "lanes": null, "width": 2.0, "oneway": false, "surface": null, "footway": "sidewalk", "sidewalk_left": false, "sidewalk_right": false, "generated_sidewalk": false, "bus_lanes": null, "bus_lane_side": null, "bus_only": false, "sidewalk": false, "bridge": false, "ramp": false, "tunnel": false, "layer": 0, "deck": null }, "geometry": { "type": "LineString", "coordinates": [ [ 283863.24, 4155675.42 ], [ 283864.23, 4155676.16 ], [ 283929.34, 4155725.26 ], [ 283930.5, 4155726.07 ] ] } },
{ "type": "Feature", "properties": { "id": "osm:way/819741526", "name": null, "highway": "service", "lanes": null, "width": 4.5, "oneway": false, "surface": "gravel", "footway": null, "sidewalk_left": false, "sidewalk_right": false, "generated_sidewalk": false, "bus_lanes": null, "bus_lane_side": null, "bus_only": false, "sidewalk": false, "bridge": false, "ramp": false, "tunnel": false, "layer": 0, "deck": null }, "geometry": { "type": "LineString", "coordinates": [ [ 283837.78, 4155704.5 ], [ 283870.19, 4155728.16 ], [ 283888.73, 4155742.31 ], [ 283897.39, 4155750.0 ] ] } },
{ "type": "Feature", "properties": { "id": "osm:way/323697185", "name": null, "highway": "service", "lanes": null, "width": 4.5, "oneway": false, "surface": "gravel", "footway": null, "sidewalk_left": false, "sidewalk_right": false, "generated_sidewalk": false, "bus_lanes": null, "bus_lane_side": null, "bus_only": false, "sidewalk": false, "bridge": false, "ramp": false, "tunnel": false, "layer": 0, "deck": null }, "geometry": { "type": "LineString", "coordinates": [ [ 283822.08, 4155725.91 ], [ 283853.63, 4155750.0 ] ] } },
{ "type": "Feature", "properties": { "id": "osm:way/6033107", "name": "West 11th Street", "highway": "residential", "lanes": null, "width": 7.0, "oneway": true, "surface": null, "footway": null, "sidewalk_left": false, "sidewalk_right": false, "generated_sidewalk": true, "bus_lanes": null, "bus_lane_side": null, "bus_only": false, "sidewalk": false, "bridge": false, "ramp": false, "tunnel": false, "layer": 0, "deck": null }, "geometry": { "type": "LineString", "coordinates": [ [ 284000.0, 4155638.66 ], [ 283973.91, 4155673.49 ], [ 283972.77, 4155675.0 ], [ 283943.42, 4155714.18 ], [ 283937.62, 4155721.91 ], [ 283933.08, 4155727.98 ], [ 283916.62, 4155750.0 ] ] } }
]
}
