{
"type": "FeatureCollection",
"name": "pois",
"crs": { "type": "name", "properties": { "name": "urn:ogc:def:crs:EPSG::32618" } },
"xy_coordinate_resolution": 0.01,
"features": [
{ "type": "Feature", "properties": { "id": "lidar-tree:282748:4159506", "name": null, "kind": "tree", "species": null, "source": "lidar2025", "tree_height": 8.2, "crown_radius": 4.4, "height_source": "lidar2025" }, "geometry": { "type": "Point", "coordinates": [ 282747.5, 4159505.5 ] } },
{ "type": "Feature", "properties": { "id": "osm:node/7022361300", "name": null, "kind": "traffic_signals", "species": null, "source": null, "tree_height": null, "crown_radius": null, "height_source": null }, "geometry": { "type": "Point", "coordinates": [ 282662.74, 4159504.96 ] } },
{ "type": "Feature", "properties": { "id": "osm:node/13614832129", "name": null, "kind": "tree", "species": null, "source": null, "tree_height": null, "crown_radius": null, "height_source": null }, "geometry": { "type": "Point", "coordinates": [ 282609.03, 4159506.17 ] } },
{ "type": "Feature", "properties": { "id": "lidar-tree:282648:4159512", "name": null, "kind": "tree", "species": null, "source": "lidar2025", "tree_height": 5.3, "crown_radius": 1.7, "height_source": "lidar2025" }, "geometry": { "type": "Point", "coordinates": [ 282647.5, 4159511.5 ] } },
{ "type": "Feature", "properties": { "id": "osm:node/13614832130", "name": null, "kind": "tree", "species": null, "source": null, "tree_height": null, "crown_radius": null, "height_source": null }, "geometry": { "type": "Point", "coordinates": [ 282589.75, 4159521.4 ] } },
{ "type": "Feature", "properties": { "id": "lidar-tree:282538:4159528", "name": null, "kind": "tree", "species": null, "source": "lidar2025", "tree_height": 10.1, "crown_radius": 4.4, "height_source": "lidar2025" }, "geometry": { "type": "Point", "coordinates": [ 282538.5, 4159527.5 ] } },
{ "type": "Feature", "properties": { "id": "rva-tree:29315", "name": "Quercus phellos", "kind": "tree", "species": "Quercus phellos", "source": "city_inventory", "tree_height": 11.2, "crown_radius": 3.7, "height_source": "lidar2025" }, "geometry": { "type": "Point", "coordinates": [ 282579.66, 4159530.26 ] } },
{ "type": "Feature", "properties": { "id": "osm:node/13614832132", "name": null, "kind": "tree", "species": null, "source": null, "tree_height": null, "crown_radius": null, "height_source": null }, "geometry": { "type": "Point", "coordinates": [ 282568.67, 4159538.16 ] } },
{ "type": "Feature", "properties": { "id": "lidar-tree:282598:4159552", "name": null, "kind": "tree", "species": null, "source": "lidar2025", "tree_height": 7.9, "crown_radius": 2.2, "height_source": "lidar2025" }, "geometry": { "type": "Point", "coordinates": [ 282597.5, 4159551.5 ] } },
{ "type": "Feature", "properties": { "id": "lidar-tree:282588:4159560", "name": null, "kind": "tree", "species": null, "source": "lidar2025", "tree_height": 8.9, "crown_radius": 2.4, "height_source": "lidar2025" }, "geometry": { "type": "Point", "coordinates": [ 282587.5, 4159559.5 ] } },
{ "type": "Feature", "properties": { "id": "lidar-tree:282578:4159568", "name": null, "kind": "tree", "species": null, "source": "lidar2025", "tree_height": 8.2, "crown_radius": 2.5, "height_source": "lidar2025" }, "geometry": { "type": "Point", "coordinates": [ 282577.5, 4159567.5 ] } },
{ "type": "Feature", "properties": { "id": "osm:node/7022705933", "name": "Allison Street Eastbound Pulse Stop", "kind": "bus_stop", "species": null, "source": null, "tree_height": null, "crown_radius": null, "height_source": null }, "geometry": { "type": "Point", "coordinates": [ 282544.69, 4159573.33 ] } },
{ "type": "Feature", "properties": { "id": "lidar-tree:282568:4159576", "name": null, "kind": "tree", "species": null, "source": "lidar2025", "tree_height": 8.8, "crown_radius": 2.3, "height_source": "lidar2025" }, "geometry": { "type": "Point", "coordinates": [ 282567.5, 4159575.5 ] } },
{ "type": "Feature", "properties": { "id": "lidar-tree:282528:4159504", "name": null, "kind": "tree", "species": null, "source": "lidar2025", "tree_height": 15.3, "crown_radius": 5.4, "height_source": "lidar2025" }, "geometry": { "type": "Point", "coordinates": [ 282528.5, 4159503.5 ] } },
{ "type": "Feature", "properties": { "id": "lidar-tree:282516:4159518", "name": null, "kind": "tree", "species": null, "source": "lidar2025", "tree_height": 19.7, "crown_radius": 6.0, "height_source": "lidar2025" }, "geometry": { "type": "Point", "coordinates": [ 282516.5, 4159517.5 ] } },
{ "type": "Feature", "properties": { "id": "osm:way/334127256", "name": "The Savory Grain Restaurant & Tap House", "kind": "restaurant", "species": null, "source": null, "tree_height": null, "crown_radius": null, "height_source": null }, "geometry": { "type": "Point", "coordinates": [ 282511.92, 4159567.77 ] } },
{ "type": "Feature", "properties": { "id": "lidar-tree:282682:4159502", "name": null, "kind": "tree", "species": null, "source": "lidar2025", "tree_height": 5.9, "crown_radius": 3.6, "height_source": "lidar2025" }, "geometry": { "type": "Point", "coordinates": [ 282681.5, 4159502.5 ] } },
{ "type": "Feature", "properties": { "id": "lidar-tree:282706:4159532", "name": null, "kind": "tree", "species": null, "source": "lidar2025", "tree_height": 4.8, "crown_radius": 4.5, "height_source": "lidar2025" }, "geometry": { "type": "Point", "coordinates": [ 282706.5, 4159532.5 ] } },
{ "type": "Feature", "properties": { "id": "lidar-tree:282730:4159538", "name": null, "kind": "tree", "species": null, "source": "lidar2025", "tree_height": 9.2, "crown_radius": 4.1, "height_source": "lidar2025" }, "geometry": { "type": "Point", "coordinates": [ 282730.5, 4159537.5 ] } },
{ "type": "Feature", "properties": { "id": "rva-tree:20100", "name": "Ulmus parvifolia", "kind": "tree", "species": "Ulmus parvifolia", "source": "city_inventory", "tree_height": 8.0, "crown_radius": 5.0, "height_source": "lidar2025" }, "geometry": { "type": "Point", "coordinates": [ 282709.62, 4159539.19 ] } },
{ "type": "Feature", "properties": { "id": "lidar-tree:282736:4159544", "name": null, "kind": "tree", "species": null, "source": "lidar2025", "tree_height": 9.9, "crown_radius": 3.5, "height_source": "lidar2025" }, "geometry": { "type": "Point", "coordinates": [ 282735.5, 4159543.5 ] } },
{ "type": "Feature", "properties": { "id": "rva-tree:20101", "name": "Ulmus parvifolia", "kind": "tree", "species": "Ulmus parvifolia", "source": "city_inventory", "tree_height": 7.7, "crown_radius": 4.3, "height_source": "lidar2025" }, "geometry": { "type": "Point", "coordinates": [ 282715.16, 4159551.33 ] } },
{ "type": "Feature", "properties": { "id": "lidar-tree:282742:4159516", "name": null, "kind": "tree", "species": null, "source": "lidar2025", "tree_height": 8.2, "crown_radius": 3.5, "height_source": "lidar2025" }, "geometry": { "type": "Point", "coordinates": [ 282741.5, 4159515.5 ] } },
{ "type": "Feature", "properties": { "id": "lidar-tree:282748:4159524", "name": null, "kind": "tree", "species": null, "source": "lidar2025", "tree_height": 9.4, "crown_radius": 3.9, "height_source": "lidar2025" }, "geometry": { "type": "Point", "coordinates": [ 282747.5, 4159523.5 ] } },
{ "type": "Feature", "properties": { "id": "lidar-tree:282748:4159548", "name": null, "kind": "tree", "species": null, "source": "lidar2025", "tree_height": 8.5, "crown_radius": 4.5, "height_source": "lidar2025" }, "geometry": { "type": "Point", "coordinates": [ 282747.5, 4159547.5 ] } },
{ "type": "Feature", "properties": { "id": "lidar-tree:282740:4159554", "name": null, "kind": "tree", "species": null, "source": "lidar2025", "tree_height": 8.8, "crown_radius": 3.9, "height_source": "lidar2025" }, "geometry": { "type": "Point", "coordinates": [ 282739.5, 4159554.5 ] } },
{ "type": "Feature", "properties": { "id": "rva-tree:20096", "name": "Ulmus pumila", "kind": "tree", "species": "Ulmus pumila", "source": "city_inventory", "tree_height": 8.7, "crown_radius": 5.2, "height_source": "lidar2025" }, "geometry": { "type": "Point", "coordinates": [ 282742.54, 4159561.4 ] } },
{ "type": "Feature", "properties": { "id": "lidar-tree:282638:4159518", "name": null, "kind": "tree", "species": null, "source": "lidar2025", "tree_height": 8.5, "crown_radius": 2.3, "height_source": "lidar2025" }, "geometry": { "type": "Point", "coordinates": [ 282638.5, 4159518.5 ] } },
{ "type": "Feature", "properties": { "id": "rva-tree:20114", "name": "Quercus phellos", "kind": "tree", "species": "Quercus phellos", "source": "city_inventory", "tree_height": 8.0, "crown_radius": 2.5, "height_source": "estimated" }, "geometry": { "type": "Point", "coordinates": [ 282633.49, 4159523.58 ] } },
{ "type": "Feature", "properties": { "id": "lidar-tree:282658:4159524", "name": null, "kind": "tree", "species": null, "source": "lidar2025", "tree_height": 7.3, "crown_radius": 4.3, "height_source": "lidar2025" }, "geometry": { "type": "Point", "coordinates": [ 282658.5, 4159524.5 ] } },
{ "type": "Feature", "properties": { "id": "lidar-tree:282648:4159530", "name": null, "kind": "tree", "species": null, "source": "lidar2025", "tree_height": 6.0, "crown_radius": 5.9, "height_source": "lidar2025" }, "geometry": { "type": "Point", "coordinates": [ 282648.5, 4159530.5 ] } },
{ "type": "Feature", "properties": { "id": "lidar-tree:282618:4159534", "name": null, "kind": "tree", "species": null, "source": "lidar2025", "tree_height": 9.3, "crown_radius": 2.8, "height_source": "lidar2025" }, "geometry": { "type": "Point", "coordinates": [ 282618.5, 4159534.5 ] } },
{ "type": "Feature", "properties": { "id": "lidar-tree:282642:4159536", "name": null, "kind": "tree", "species": null, "source": "lidar2025", "tree_height": 7.2, "crown_radius": 3.9, "height_source": "lidar2025" }, "geometry": { "type": "Point", "coordinates": [ 282642.5, 4159536.5 ] } },
{ "type": "Feature", "properties": { "id": "lidar-tree:282610:4159542", "name": null, "kind": "tree", "species": null, "source": "lidar2025", "tree_height": 9.1, "crown_radius": 2.2, "height_source": "lidar2025" }, "geometry": { "type": "Point", "coordinates": [ 282609.5, 4159541.5 ] } },
{ "type": "Feature", "properties": { "id": "lidar-tree:282666:4159640", "name": null, "kind": "tree", "species": null, "source": "lidar2025", "tree_height": 7.4, "crown_radius": 3.4, "height_source": "lidar2025" }, "geometry": { "type": "Point", "coordinates": [ 282666.5, 4159640.5 ] } },
{ "type": "Feature", "properties": { "id": "lidar-tree:282640:4159644", "name": null, "kind": "tree", "species": null, "source": "lidar2025", "tree_height": 5.3, "crown_radius": 1.9, "height_source": "lidar2025" }, "geometry": { "type": "Point", "coordinates": [ 282639.5, 4159644.5 ] } },
{ "type": "Feature", "properties": { "id": "lidar-tree:282656:4159648", "name": null, "kind": "tree", "species": null, "source": "lidar2025", "tree_height": 7.0, "crown_radius": 3.0, "height_source": "lidar2025" }, "geometry": { "type": "Point", "coordinates": [ 282656.5, 4159648.5 ] } },
{ "type": "Feature", "properties": { "id": "rva-tree:20109", "name": "Lagerstroemia indica", "kind": "tree", "species": "Lagerstroemia indica", "source": "city_inventory", "tree_height": 6.4, "crown_radius": 4.1, "height_source": "lidar2025" }, "geometry": { "type": "Point", "coordinates": [ 282705.21, 4159557.57 ] } },
{ "type": "Feature", "properties": { "id": "lidar-tree:282720:4159558", "name": null, "kind": "tree", "species": null, "source": "lidar2025", "tree_height": 7.6, "crown_radius": 4.9, "height_source": "lidar2025" }, "geometry": { "type": "Point", "coordinates": [ 282720.5, 4159558.5 ] } },
{ "type": "Feature", "properties": { "id": "rva-tree:20110", "name": "Lagerstroemia indica", "kind": "tree", "species": "Lagerstroemia indica", "source": "city_inventory", "tree_height": 5.2, "crown_radius": 4.6, "height_source": "lidar2025" }, "geometry": { "type": "Point", "coordinates": [ 282705.42, 4159563.11 ] } },
{ "type": "Feature", "properties": { "id": "rva-tree:20102", "name": "Ulmus parvifolia", "kind": "tree", "species": "Ulmus parvifolia", "source": "city_inventory", "tree_height": 8.0, "crown_radius": 2.5, "height_source": "estimated" }, "geometry": { "type": "Point", "coordinates": [ 282715.65, 4159564.43 ] } },
{ "type": "Feature", "properties": { "id": "rva-tree:20095", "name": "Ulmus pumila", "kind": "tree", "species": "Ulmus pumila", "source": "city_inventory", "tree_height": 9.1, "crown_radius": 6.0, "height_source": "lidar2025" }, "geometry": { "type": "Point", "coordinates": [ 282732.79, 4159568.57 ] } },
{ "type": "Feature", "properties": { "id": "rva-tree:20111", "name": "Lagerstroemia indica", "kind": "tree", "species": "Lagerstroemia indica", "source": "city_inventory", "tree_height": 5.2, "crown_radius": 4.6, "height_source": "lidar2025" }, "geometry": { "type": "Point", "coordinates": [ 282705.18, 4159569.14 ] } },
{ "type": "Feature", "properties": { "id": "rva-tree:20112", "name": "Lagerstroemia indica", "kind": "tree", "species": "Lagerstroemia indica", "source": "city_inventory", "tree_height": 4.1, "crown_radius": 3.4, "height_source": "lidar2025" }, "geometry": { "type": "Point", "coordinates": [ 282704.91, 4159574.55 ] } },
{ "type": "Feature", "properties": { "id": "rva-tree:20113", "name": "Lagerstroemia indica", "kind": "tree", "species": "Lagerstroemia indica", "source": "city_inventory", "tree_height": 4.1, "crown_radius": 3.4, "height_source": "lidar2025" }, "geometry": { "type": "Point", "coordinates": [ 282704.97, 4159580.26 ] } },
{ "type": "Feature", "properties": { "id": "lidar-tree:282676:4159632", "name": null, "kind": "tree", "species": null, "source": "lidar2025", "tree_height": 6.5, "crown_radius": 2.5, "height_source": "lidar2025" }, "geometry": { "type": "Point", "coordinates": [ 282676.5, 4159632.5 ] } },
{ "type": "Feature", "properties": { "id": "lidar-tree:282694:4159634", "name": null, "kind": "tree", "species": null, "source": "lidar2025", "tree_height": 8.5, "crown_radius": 3.3, "height_source": "lidar2025" }, "geometry": { "type": "Point", "coordinates": [ 282693.5, 4159633.5 ] } },
{ "type": "Feature", "properties": { "id": "lidar-tree:282646:4159656", "name": null, "kind": "tree", "species": null, "source": "lidar2025", "tree_height": 7.9, "crown_radius": 3.1, "height_source": "lidar2025" }, "geometry": { "type": "Point", "coordinates": [ 282646.5, 4159656.5 ] } },
{ "type": "Feature", "properties": { "id": "lidar-tree:282630:4159670", "name": null, "kind": "tree", "species": null, "source": "lidar2025", "tree_height": 5.4, "crown_radius": 2.5, "height_source": "lidar2025" }, "geometry": { "type": "Point", "coordinates": [ 282629.5, 4159670.5 ] } },
{ "type": "Feature", "properties": { "id": "lidar-tree:282636:4159674", "name": null, "kind": "tree", "species": null, "source": "lidar2025", "tree_height": 5.5, "crown_radius": 2.0, "height_source": "lidar2025" }, "geometry": { "type": "Point", "coordinates": [ 282636.5, 4159673.5 ] } },
{ "type": "Feature", "properties": { "id": "lidar-tree:282620:4159678", "name": null, "kind": "tree", "species": null, "source": "lidar2025", "tree_height": 6.1, "crown_radius": 3.5, "height_source": "lidar2025" }, "geometry": { "type": "Point", "coordinates": [ 282619.5, 4159678.5 ] } },
{ "type": "Feature", "properties": { "id": "lidar-tree:282624:4159680", "name": null, "kind": "tree", "species": null, "source": "lidar2025", "tree_height": 6.3, "crown_radius": 3.2, "height_source": "lidar2025" }, "geometry": { "type": "Point", "coordinates": [ 282624.5, 4159680.5 ] } },
{ "type": "Feature", "properties": { "id": "lidar-tree:282646:4159686", "name": null, "kind": "tree", "species": null, "source": "lidar2025", "tree_height": 6.5, "crown_radius": 2.1, "height_source": "lidar2025" }, "geometry": { "type": "Point", "coordinates": [ 282645.5, 4159685.5 ] } },
{ "type": "Feature", "properties": { "id": "lidar-tree:282608:4159686", "name": null, "kind": "tree", "species": null, "source": "lidar2025", "tree_height": 5.7, "crown_radius": 2.8, "height_source": "lidar2025" }, "geometry": { "type": "Point", "coordinates": [ 282608.5, 4159686.5 ] } },
{ "type": "Feature", "properties": { "id": "osm:node/13614832252", "name": null, "kind": "streetlight", "species": null, "source": null, "tree_height": null, "crown_radius": null, "height_source": null }, "geometry": { "type": "Point", "coordinates": [ 282643.08, 4159686.65 ] } },
{ "type": "Feature", "properties": { "id": "lidar-tree:282634:4159694", "name": null, "kind": "tree", "species": null, "source": "lidar2025", "tree_height": 6.1, "crown_radius": 2.0, "height_source": "lidar2025" }, "geometry": { "type": "Point", "coordinates": [ 282634.5, 4159694.5 ] } },
{ "type": "Feature", "properties": { "id": "lidar-tree:282664:4159696", "name": null, "kind": "tree", "species": null, "source": "lidar2025", "tree_height": 4.9, "crown_radius": 3.5, "height_source": "lidar2025" }, "geometry": { "type": "Point", "coordinates": [ 282663.5, 4159696.5 ] } },
{ "type": "Feature", "properties": { "id": "lidar-tree:282694:4159646", "name": null, "kind": "tree", "species": null, "source": "lidar2025", "tree_height": 8.6, "crown_radius": 2.9, "height_source": "lidar2025" }, "geometry": { "type": "Point", "coordinates": [ 282693.5, 4159646.5 ] } },
{ "type": "Feature", "properties": { "id": "lidar-tree:282694:4159658", "name": null, "kind": "tree", "species": null, "source": "lidar2025", "tree_height": 8.0, "crown_radius": 3.2, "height_source": "lidar2025" }, "geometry": { "type": "Point", "coordinates": [ 282693.5, 4159658.5 ] } },
{ "type": "Feature", "properties": { "id": "rva-tree:20057", "name": "Platanus x acerifolia", "kind": "tree", "species": "Platanus x acerifolia", "source": "city_inventory", "tree_height": 8.0, "crown_radius": 2.5, "height_source": "estimated" }, "geometry": { "type": "Point", "coordinates": [ 282705.32, 4159702.69 ] } },
{ "type": "Feature", "properties": { "id": "lidar-tree:282694:4159704", "name": null, "kind": "tree", "species": null, "source": "lidar2025", "tree_height": 7.4, "crown_radius": 3.2, "height_source": "lidar2025" }, "geometry": { "type": "Point", "coordinates": [ 282693.5, 4159703.5 ] } },
{ "type": "Feature", "properties": { "id": "rva-tree:20058", "name": "Platanus x acerifolia", "kind": "tree", "species": "Platanus x acerifolia", "source": "city_inventory", "tree_height": 8.0, "crown_radius": 2.5, "height_source": "estimated" }, "geometry": { "type": "Point", "coordinates": [ 282704.95, 4159715.39 ] } },
{ "type": "Feature", "properties": { "id": "lidar-tree:282692:4159716", "name": null, "kind": "tree", "species": null, "source": "lidar2025", "tree_height": 8.8, "crown_radius": 3.0, "height_source": "lidar2025" }, "geometry": { "type": "Point", "coordinates": [ 282692.5, 4159716.5 ] } },
{ "type": "Feature", "properties": { "id": "lidar-tree:282692:4159728", "name": null, "kind": "tree", "species": null, "source": "lidar2025", "tree_height": 8.0, "crown_radius": 3.3, "height_source": "lidar2025" }, "geometry": { "type": "Point", "coordinates": [ 282692.5, 4159728.5 ] } },
{ "type": "Feature", "properties": { "id": "lidar-tree:282694:4159742", "name": null, "kind": "tree", "species": null, "source": "lidar2025", "tree_height": 9.2, "crown_radius": 3.8, "height_source": "lidar2025" }, "geometry": { "type": "Point", "coordinates": [ 282693.5, 4159741.5 ] } },
{ "type": "Feature", "properties": { "id": "lidar-tree:282660:4159700", "name": null, "kind": "tree", "species": null, "source": "lidar2025", "tree_height": 5.7, "crown_radius": 4.0, "height_source": "lidar2025" }, "geometry": { "type": "Point", "coordinates": [ 282659.5, 4159700.5 ] } },
{ "type": "Feature", "properties": { "id": "lidar-tree:282654:4159704", "name": null, "kind": "tree", "species": null, "source": "lidar2025", "tree_height": 4.9, "crown_radius": 4.0, "height_source": "lidar2025" }, "geometry": { "type": "Point", "coordinates": [ 282654.5, 4159703.5 ] } },
{ "type": "Feature", "properties": { "id": "lidar-tree:282650:4159708", "name": null, "kind": "tree", "species": null, "source": "lidar2025", "tree_height": 4.8, "crown_radius": 3.7, "height_source": "lidar2025" }, "geometry": { "type": "Point", "coordinates": [ 282649.5, 4159707.5 ] } },
{ "type": "Feature", "properties": { "id": "lidar-tree:282644:4159712", "name": null, "kind": "tree", "species": null, "source": "lidar2025", "tree_height": 5.0, "crown_radius": 3.7, "height_source": "lidar2025" }, "geometry": { "type": "Point", "coordinates": [ 282644.5, 4159711.5 ] } },
{ "type": "Feature", "properties": { "id": "lidar-tree:282640:4159716", "name": null, "kind": "tree", "species": null, "source": "lidar2025", "tree_height": 5.0, "crown_radius": 3.3, "height_source": "lidar2025" }, "geometry": { "type": "Point", "coordinates": [ 282640.5, 4159715.5 ] } },
{ "type": "Feature", "properties": { "id": "lidar-tree:282630:4159718", "name": null, "kind": "tree", "species": null, "source": "lidar2025", "tree_height": 7.6, "crown_radius": 2.5, "height_source": "lidar2025" }, "geometry": { "type": "Point", "coordinates": [ 282629.5, 4159717.5 ] } },
{ "type": "Feature", "properties": { "id": "lidar-tree:282624:4159728", "name": null, "kind": "tree", "species": null, "source": "lidar2025", "tree_height": 3.9, "crown_radius": 2.3, "height_source": "lidar2025" }, "geometry": { "type": "Point", "coordinates": [ 282623.5, 4159727.5 ] } },
{ "type": "Feature", "properties": { "id": "lidar-tree:282614:4159736", "name": null, "kind": "tree", "species": null, "source": "lidar2025", "tree_height": 4.2, "crown_radius": 2.6, "height_source": "lidar2025" }, "geometry": { "type": "Point", "coordinates": [ 282614.5, 4159735.5 ] } },
{ "type": "Feature", "properties": { "id": "lidar-tree:282636:4159740", "name": null, "kind": "tree", "species": null, "source": "lidar2025", "tree_height": 7.6, "crown_radius": 2.8, "height_source": "lidar2025" }, "geometry": { "type": "Point", "coordinates": [ 282636.5, 4159740.5 ] } },
{ "type": "Feature", "properties": { "id": "lidar-tree:282656:4159748", "name": null, "kind": "tree", "species": null, "source": "lidar2025", "tree_height": 5.0, "crown_radius": 2.8, "height_source": "lidar2025" }, "geometry": { "type": "Point", "coordinates": [ 282655.5, 4159748.5 ] } },
{ "type": "Feature", "properties": { "id": "lidar-tree:282744:4159706", "name": null, "kind": "tree", "species": null, "source": "lidar2025", "tree_height": 11.2, "crown_radius": 5.2, "height_source": "lidar2025" }, "geometry": { "type": "Point", "coordinates": [ 282744.5, 4159705.5 ] } },
{ "type": "Feature", "properties": { "id": "rva-tree:29314", "name": "Quercus phellos", "kind": "tree", "species": "Quercus phellos", "source": "city_inventory", "tree_height": 17.3, "crown_radius": 6.0, "height_source": "lidar2025" }, "geometry": { "type": "Point", "coordinates": [ 282512.3, 4159583.78 ] } },
{ "type": "Feature", "properties": { "id": "lidar-tree:282528:4159608", "name": null, "kind": "tree", "species": null, "source": "lidar2025", "tree_height": 7.5, "crown_radius": 2.8, "height_source": "lidar2025" }, "geometry": { "type": "Point", "coordinates": [ 282527.5, 4159607.5 ] } },
{ "type": "Feature", "properties": { "id": "osm:node/13614832241", "name": null, "kind": "streetlight", "species": null, "source": null, "tree_height": null, "crown_radius": null, "height_source": null }, "geometry": { "type": "Point", "coordinates": [ 282531.7, 4159609.4 ] } },
{ "type": "Feature", "properties": { "id": "osm:node/5499974448", "name": null, "kind": "traffic_signals", "species": null, "source": null, "tree_height": null, "crown_radius": null, "height_source": null }, "geometry": { "type": "Point", "coordinates": [ 282514.9, 4159610.6 ] } },
{ "type": "Feature", "properties": { "id": "lidar-tree:282518:4159614", "name": null, "kind": "tree", "species": null, "source": "lidar2025", "tree_height": 7.6, "crown_radius": 2.3, "height_source": "lidar2025" }, "geometry": { "type": "Point", "coordinates": [ 282517.5, 4159614.5 ] } },
{ "type": "Feature", "properties": { "id": "osm:node/13614832242", "name": null, "kind": "streetlight", "species": null, "source": null, "tree_height": null, "crown_radius": null, "height_source": null }, "geometry": { "type": "Point", "coordinates": [ 282521.39, 4159617.27 ] } },
{ "type": "Feature", "properties": { "id": "lidar-tree:282556:4159584", "name": null, "kind": "tree", "species": null, "source": "lidar2025", "tree_height": 8.2, "crown_radius": 2.2, "height_source": "lidar2025" }, "geometry": { "type": "Point", "coordinates": [ 282556.5, 4159583.5 ] } },
{ "type": "Feature", "properties": { "id": "lidar-tree:282538:4159600", "name": null, "kind": "tree", "species": null, "source": "lidar2025", "tree_height": 9.3, "crown_radius": 3.0, "height_source": "lidar2025" }, "geometry": { "type": "Point", "coordinates": [ 282537.5, 4159599.5 ] } },
{ "type": "Feature", "properties": { "id": "osm:node/13614832240", "name": null, "kind": "streetlight", "species": null, "source": null, "tree_height": null, "crown_radius": null, "height_source": null }, "geometry": { "type": "Point", "coordinates": [ 282543.06, 4159600.25 ] } },
{ "type": "Feature", "properties": { "id": "lidar-tree:282548:4159604", "name": null, "kind": "tree", "species": null, "source": "lidar2025", "tree_height": 6.7, "crown_radius": 3.1, "height_source": "lidar2025" }, "geometry": { "type": "Point", "coordinates": [ 282548.5, 4159603.5 ] } },
{ "type": "Feature", "properties": { "id": "osm:way/252997411", "name": "Whole Foods Market", "kind": "shop", "species": null, "source": null, "tree_height": null, "crown_radius": null, "height_source": null }, "geometry": { "type": "Point", "coordinates": [ 282600.46, 4159608.67 ] } },
{ "type": "Feature", "properties": { "id": "lidar-tree:282556:4159614", "name": null, "kind": "tree", "species": null, "source": "lidar2025", "tree_height": 4.9, "crown_radius": 2.2, "height_source": "lidar2025" }, "geometry": { "type": "Point", "coordinates": [ 282556.5, 4159614.5 ] } },
{ "type": "Feature", "properties": { "id": "osm:node/13614832239", "name": null, "kind": "streetlight", "species": null, "source": null, "tree_height": null, "crown_radius": null, "height_source": null }, "geometry": { "type": "Point", "coordinates": [ 282555.04, 4159615.24 ] } },
{ "type": "Feature", "properties": { "id": "osm:node/13614832238", "name": null, "kind": "streetlight", "species": null, "source": null, "tree_height": null, "crown_radius": null, "height_source": null }, "geometry": { "type": "Point", "coordinates": [ 282543.16, 4159624.84 ] } },
{ "type": "Feature", "properties": { "id": "osm:node/13614832234", "name": null, "kind": "streetlight", "species": null, "source": null, "tree_height": null, "crown_radius": null, "height_source": null }, "geometry": { "type": "Point", "coordinates": [ 282566.46, 4159629.25 ] } },
{ "type": "Feature", "properties": { "id": "lidar-tree:282568:4159630", "name": null, "kind": "tree", "species": null, "source": "lidar2025", "tree_height": 5.9, "crown_radius": 2.1, "height_source": "lidar2025" }, "geometry": { "type": "Point", "coordinates": [ 282568.5, 4159629.5 ] } },
{ "type": "Feature", "properties": { "id": "lidar-tree:282518:4159622", "name": null, "kind": "tree", "species": null, "source": "lidar2025", "tree_height": 7.3, "crown_radius": 2.3, "height_source": "lidar2025" }, "geometry": { "type": "Point", "coordinates": [ 282518.5, 4159621.5 ] } },
{ "type": "Feature", "properties": { "id": "osm:node/3412061168", "name": null, "kind": "traffic_signals", "species": null, "source": null, "tree_height": null, "crown_radius": null, "height_source": null }, "geometry": { "type": "Point", "coordinates": [ 282508.5, 4159627.81 ] } },
{ "type": "Feature", "properties": { "id": "osm:node/13614832237", "name": null, "kind": "streetlight", "species": null, "source": null, "tree_height": null, "crown_radius": null, "height_source": null }, "geometry": { "type": "Point", "coordinates": [ 282531.73, 4159634.36 ] } },
{ "type": "Feature", "properties": { "id": "lidar-tree:282506:4159638", "name": null, "kind": "tree", "species": null, "source": "lidar2025", "tree_height": 3.8, "crown_radius": 2.0, "height_source": "lidar2025" }, "geometry": { "type": "Point", "coordinates": [ 282506.5, 4159637.5 ] } },
{ "type": "Feature", "properties": { "id": "osm:node/13614832243", "name": null, "kind": "streetlight", "species": null, "source": null, "tree_height": null, "crown_radius": null, "height_source": null }, "geometry": { "type": "Point", "coordinates": [ 282512.19, 4159639.98 ] } },
{ "type": "Feature", "properties": { "id": "osm:node/13614832244", "name": null, "kind": "streetlight", "species": null, "source": null, "tree_height": null, "crown_radius": null, "height_source": null }, "geometry": { "type": "Point", "coordinates": [ 282528.81, 4159660.21 ] } },
{ "type": "Feature", "properties": { "id": "osm:node/13614832235", "name": null, "kind": "streetlight", "species": null, "source": null, "tree_height": null, "crown_radius": null, "height_source": null }, "geometry": { "type": "Point", "coordinates": [ 282554.76, 4159638.78 ] } },
{ "type": "Feature", "properties": { "id": "lidar-tree:282580:4159644", "name": null, "kind": "tree", "species": null, "source": "lidar2025", "tree_height": 5.7, "crown_radius": 1.9, "height_source": "lidar2025" }, "geometry": { "type": "Point", "coordinates": [ 282579.5, 4159643.5 ] } },
{ "type": "Feature", "properties": { "id": "osm:node/13614832233", "name": null, "kind": "streetlight", "species": null, "source": null, "tree_height": null, "crown_radius": null, "height_source": null }, "geometry": { "type": "Point", "coordinates": [ 282578.34, 4159643.7 ] } },
{ "type": "Feature", "properties": { "id": "osm:node/13614832236", "name": null, "kind": "streetlight", "species": null, "source": null, "tree_height": null, "crown_radius": null, "height_source": null }, "geometry": { "type": "Point", "coordinates": [ 282542.52, 4159648.49 ] } },
{ "type": "Feature", "properties": { "id": "osm:node/13614832232", "name": null, "kind": "streetlight", "species": null, "source": null, "tree_height": null, "crown_radius": null, "height_source": null }, "geometry": { "type": "Point", "coordinates": [ 282565.83, 4159653.33 ] } },
{ "type": "Feature", "properties": { "id": "lidar-tree:282592:4159658", "name": null, "kind": "tree", "species": null, "source": "lidar2025", "tree_height": 5.2, "crown_radius": 2.5, "height_source": "lidar2025" }, "geometry": { "type": "Point", "coordinates": [ 282591.5, 4159657.5 ] } },
{ "type": "Feature", "properties": { "id": "osm:node/13614832228", "name": null, "kind": "streetlight", "species": null, "source": null, "tree_height": null, "crown_radius": null, "height_source": null }, "geometry": { "type": "Point", "coordinates": [ 282588.94, 4159657.56 ] } },
{ "type": "Feature", "properties": { "id": "osm:node/13614832231", "name": null, "kind": "streetlight", "species": null, "source": null, "tree_height": null, "crown_radius": null, "height_source": null }, "geometry": { "type": "Point", "coordinates": [ 282553.77, 4159662.95 ] } },
{ "type": "Feature", "properties": { "id": "osm:node/13614832227", "name": null, "kind": "streetlight", "species": null, "source": null, "tree_height": null, "crown_radius": null, "height_source": null }, "geometry": { "type": "Point", "coordinates": [ 282576.72, 4159667.72 ] } },
{ "type": "Feature", "properties": { "id": "osm:node/13614832229", "name": null, "kind": "streetlight", "species": null, "source": null, "tree_height": null, "crown_radius": null, "height_source": null }, "geometry": { "type": "Point", "coordinates": [ 282600.2, 4159672.48 ] } },
{ "type": "Feature", "properties": { "id": "lidar-tree:282604:4159672", "name": null, "kind": "tree", "species": null, "source": "lidar2025", "tree_height": 5.4, "crown_radius": 2.0, "height_source": "lidar2025" }, "geometry": { "type": "Point", "coordinates": [ 282603.5, 4159672.5 ] } },
{ "type": "Feature", "properties": { "id": "osm:node/13614832246", "name": null, "kind": "streetlight", "species": null, "source": null, "tree_height": null, "crown_radius": null, "height_source": null }, "geometry": { "type": "Point", "coordinates": [ 282536.96, 4159676.28 ] } },
{ "type": "Feature", "properties": { "id": "osm:node/13614832226", "name": null, "kind": "streetlight", "species": null, "source": null, "tree_height": null, "crown_radius": null, "height_source": null }, "geometry": { "type": "Point", "coordinates": [ 282565.28, 4159676.97 ] } },
{ "type": "Feature", "properties": { "id": "osm:node/13614832230", "name": null, "kind": "streetlight", "species": null, "source": null, "tree_height": null, "crown_radius": null, "height_source": null }, "geometry": { "type": "Point", "coordinates": [ 282588.42, 4159682.18 ] } },
{ "type": "Feature", "properties": { "id": "osm:node/13614832247", "name": null, "kind": "streetlight", "species": null, "source": null, "tree_height": null, "crown_radius": null, "height_source": null }, "geometry": { "type": "Point", "coordinates": [ 282547.76, 4159690.57 ] } },
{ "type": "Feature", "properties": { "id": "osm:node/13614832225", "name": null, "kind": "streetlight", "species": null, "source": null, "tree_height": null, "crown_radius": null, "height_source": null }, "geometry": { "type": "Point", "coordinates": [ 282576.71, 4159691.07 ] } },
{ "type": "Feature", "properties": { "id": "lidar-tree:282600:4159694", "name": null, "kind": "tree", "species": null, "source": "lidar2025", "tree_height": 6.0, "crown_radius": 2.3, "height_source": "lidar2025" }, "geometry": { "type": "Point", "coordinates": [ 282599.5, 4159694.5 ] } },
{ "type": "Feature", "properties": { "id": "lidar-tree:282588:4159702", "name": null, "kind": "tree", "species": null, "source": "lidar2025", "tree_height": 6.2, "crown_radius": 2.6, "height_source": "lidar2025" }, "geometry": { "type": "Point", "coordinates": [ 282588.5, 4159702.5 ] } },
{ "type": "Feature", "properties": { "id": "osm:node/13614832249", "name": null, "kind": "streetlight", "species": null, "source": null, "tree_height": null, "crown_radius": null, "height_source": null }, "geometry": { "type": "Point", "coordinates": [ 282546.15, 4159714.87 ] } },
{ "type": "Feature", "properties": { "id": "osm:node/13614832251", "name": null, "kind": "streetlight", "species": null, "source": null, "tree_height": null, "crown_radius": null, "height_source": null }, "geometry": { "type": "Point", "coordinates": [ 282599.53, 4159718.66 ] } },
{ "type": "Feature", "properties": { "id": "osm:way/334113943", "name": "Lee's Famous Recipe Chicken", "kind": "restaurant", "species": null, "source": null, "tree_height": null, "crown_radius": null, "height_source": null }, "geometry": { "type": "Point", "coordinates": [ 282510.85, 4159663.91 ] } },
{ "type": "Feature", "properties": { "id": "osm:node/13614832245", "name": null, "kind": "streetlight", "species": null, "source": null, "tree_height": null, "crown_radius": null, "height_source": null }, "geometry": { "type": "Point", "coordinates": [ 282524.3, 4159686.81 ] } },
{ "type": "Feature", "properties": { "id": "osm:node/13614832248", "name": null, "kind": "streetlight", "species": null, "source": null, "tree_height": null, "crown_radius": null, "height_source": null }, "geometry": { "type": "Point", "coordinates": [ 282534.48, 4159701.66 ] } },
{ "type": "Feature", "properties": { "id": "lidar-tree:282532:4159706", "name": null, "kind": "tree", "species": null, "source": "lidar2025", "tree_height": 6.1, "crown_radius": 2.8, "height_source": "lidar2025" }, "geometry": { "type": "Point", "coordinates": [ 282531.5, 4159705.5 ] } },
{ "type": "Feature", "properties": { "id": "lidar-tree:282574:4159720", "name": null, "kind": "tree", "species": null, "source": "lidar2025", "tree_height": 6.7, "crown_radius": 1.4, "height_source": "lidar2025" }, "geometry": { "type": "Point", "coordinates": [ 282574.5, 4159720.5 ] } },
{ "type": "Feature", "properties": { "id": "lidar-tree:282542:4159720", "name": null, "kind": "tree", "species": null, "source": "lidar2025", "tree_height": 6.5, "crown_radius": 3.3, "height_source": "lidar2025" }, "geometry": { "type": "Point", "coordinates": [ 282542.5, 4159720.5 ] } },
{ "type": "Feature", "properties": { "id": "lidar-tree:282564:4159722", "name": null, "kind": "tree", "species": null, "source": "lidar2025", "tree_height": 5.4, "crown_radius": 3.0, "height_source": "lidar2025" }, "geometry": { "type": "Point", "coordinates": [ 282564.5, 4159721.5 ] } },
{ "type": "Feature", "properties": { "id": "lidar-tree:282558:4159728", "name": null, "kind": "tree", "species": null, "source": "lidar2025", "tree_height": 5.7, "crown_radius": 3.0, "height_source": "lidar2025" }, "geometry": { "type": "Point", "coordinates": [ 282557.5, 4159727.5 ] } },
{ "type": "Feature", "properties": { "id": "lidar-tree:282536:4159730", "name": null, "kind": "tree", "species": null, "source": "lidar2025", "tree_height": 4.6, "crown_radius": 2.0, "height_source": "lidar2025" }, "geometry": { "type": "Point", "coordinates": [ 282535.5, 4159730.5 ] } },
{ "type": "Feature", "properties": { "id": "lidar-tree:282556:4159736", "name": null, "kind": "tree", "species": null, "source": "lidar2025", "tree_height": 6.3, "crown_radius": 3.0, "height_source": "lidar2025" }, "geometry": { "type": "Point", "coordinates": [ 282555.5, 4159736.5 ] } },
{ "type": "Feature", "properties": { "id": "osm:node/13614832250", "name": null, "kind": "streetlight", "species": null, "source": null, "tree_height": null, "crown_radius": null, "height_source": null }, "geometry": { "type": "Point", "coordinates": [ 282569.14, 4159745.49 ] } },
{ "type": "Feature", "properties": { "id": "lidar-tree:282548:4159746", "name": null, "kind": "tree", "species": null, "source": "lidar2025", "tree_height": 4.8, "crown_radius": 1.9, "height_source": "lidar2025" }, "geometry": { "type": "Point", "coordinates": [ 282548.5, 4159746.5 ] } },
{ "type": "Feature", "properties": { "id": "lidar-tree:282566:4159748", "name": null, "kind": "tree", "species": null, "source": "lidar2025", "tree_height": 6.2, "crown_radius": 3.1, "height_source": "lidar2025" }, "geometry": { "type": "Point", "coordinates": [ 282565.5, 4159748.5 ] } },
{ "type": "Feature", "properties": { "id": "osm:node/13614832219", "name": null, "kind": "streetlight", "species": null, "source": null, "tree_height": null, "crown_radius": null, "height_source": null }, "geometry": { "type": "Point", "coordinates": [ 282594.12, 4159749.22 ] } }
]
}
