{
"type": "FeatureCollection",
"name": "roads",
"crs": { "type": "name", "properties": { "name": "urn:ogc:def:crs:EPSG::32618" } },
"xy_coordinate_resolution": 0.01,
"features": [
{ "type": "Feature", "properties": { "id": "osm:way/6033469", "name": "North Lombardy Street", "highway": "secondary", "lanes": null, "width": 9.5, "oneway": false, "surface": null, "footway": null, "sidewalk_left": false, "sidewalk_right": false, "generated_sidewalk": true, "bus_lanes": null, "bus_lane_side": null, "bus_only": false, "sidewalk": false, "bridge": false, "ramp": false, "tunnel": false, "layer": 0, "deck": null }, "geometry": { "type": "LineString", "coordinates": [ [ 282741.82, 4158750.0 ], [ 282746.16, 4158759.0 ], [ 282750.0, 4158767.22 ] ] } },
{ "type": "Feature", "properties": { "id": "osm:way/1135320949", "name": null, "highway": "footway", "lanes": null, "width": 2.0, "oneway": false, "surface": null, "footway": "sidewalk", "sidewalk_left": false, "sidewalk_right": false, "generated_sidewalk": false, "bus_lanes": null, "bus_lane_side": null, "bus_only": false, "sidewalk": false, "bridge": false, "ramp": false, "tunnel": false, "layer": 0, "deck": null }, "geometry": { "type": "LineString", "coordinates": [ [ 282643.27, 4158806.55 ], [ 282618.21, 4158754.55 ], [ 282627.86, 4158750.0 ] ] } },
{ "type": "Feature", "properties": { "id": "osm:way/1135320996", "name": null, "highway": "footway", "lanes": null, "width": 2.0, "oneway": false, "surface": null, "footway": "sidewalk", "sidewalk_left": false, "sidewalk_right": false, "generated_sidewalk": false, "bus_lanes": null, "bus_lane_side": null, "bus_only": false, "sidewalk": false, "bridge": false, "ramp": false, "tunnel": false, "layer": 0, "deck": null }, "geometry": { "type": "LineString", "coordinates": [ [ 282748.55, 4158750.0 ], [ 282750.0, 4158753.02 ] ] } },
{ "type": "Feature", "properties": { "id": "osm:way/1417994430", "name": null, "highway": "footway", "lanes": null, "width": 2.0, "oneway": false, "surface": null, "footway": "sidewalk", "sidewalk_left": false, "sidewalk_right": false, "generated_sidewalk": false, "bus_lanes": null, "bus_lane_side": null, "bus_only": false, "sidewalk": false, "bridge": false, "ramp": false, "tunnel": false, "layer": 0, "deck": null }, "geometry": { "type": "LineString", "coordinates": [ [ 282733.67, 4158750.0 ], [ 282739.48, 4158762.34 ], [ 282747.66, 4158777.17 ], [ 282750.0, 4158782.45 ] ] } },
{ "type": "Feature", "properties": { "id": "osm:way/268503273", "name": null, "highway": "service", "lanes": null, "width": 4.5, "oneway": false, "surface": null, "footway": null, "sidewalk_left": false, "sidewalk_right": false, "generated_sidewalk": false, "bus_lanes": null, "bus_lane_side": null, "bus_only": false, "sidewalk": false, "bridge": false, "ramp": false, "tunnel": false, "layer": 0, "deck": null }, "geometry": { "type": "LineString", "coordinates": [ [ 282645.79, 4158826.12 ], [ 282651.43, 4158823.41 ], [ 282747.66, 4158777.17 ], [ 282750.0, 4158776.01 ] ] } },
{ "type": "Feature", "properties": { "id": "osm:way/1225823029", "name": null, "highway": "footway", "lanes": null, "width": 2.0, "oneway": false, "surface": null, "footway": "sidewalk", "sidewalk_left": false, "sidewalk_right": false, "generated_sidewalk": false, "bus_lanes": null, "bus_lane_side": null, "bus_only": false, "sidewalk": false, "bridge": false, "ramp": false, "tunnel": false, "layer": 0, "deck": null }, "geometry": { "type": "LineString", "coordinates": [ [ 282650.46, 4158821.53 ], [ 282644.91, 4158809.96 ] ] } },
{ "type": "Feature", "properties": { "id": "osm:way/1225823028", "name": null, "highway": "footway", "lanes": null, "width": 2.0, "oneway": false, "surface": null, "footway": "crossing", "sidewalk_left": false, "sidewalk_right": false, "generated_sidewalk": false, "bus_lanes": null, "bus_lane_side": null, "bus_only": false, "sidewalk": false, "bridge": false, "ramp": false, "tunnel": false, "layer": 0, "deck": null }, "geometry": { "type": "LineString", "coordinates": [ [ 282652.48, 4158825.43 ], [ 282651.43, 4158823.41 ], [ 282650.46, 4158821.53 ] ] } },
{ "type": "Feature", "properties": { "id": "osm:way/1135320984", "name": null, "highway": "footway", "lanes": null, "width": 2.0, "oneway": false, "surface": null, "footway": "sidewalk", "sidewalk_left": false, "sidewalk_right": false, "generated_sidewalk": false, "bus_lanes": null, "bus_lane_side": null, "bus_only": false, "sidewalk": false, "bridge": false, "ramp": false, "tunnel": false, "layer": 0, "deck": null }, "geometry": { "type": "LineString", "coordinates": [ [ 282667.61, 4158862.18 ], [ 282669.05, 4158861.49 ], [ 282750.0, 4158822.56 ] ] } },
{ "type": "Feature", "properties": { "id": "osm:way/1417994413", "name": null, "highway": "footway", "lanes": null, "width": 2.0, "oneway": false, "surface": null, "footway": "sidewalk", "sidewalk_left": false, "sidewalk_right": false, "generated_sidewalk": false, "bus_lanes": null, "bus_lane_side": null, "bus_only": false, "sidewalk": false, "bridge": false, "ramp": false, "tunnel": false, "layer": 0, "deck": null }, "geometry": { "type": "LineString", "coordinates": [ [ 282652.48, 4158825.43 ], [ 282669.05, 4158861.49 ], [ 282669.7, 4158862.88 ] ] } },
{ "type": "Feature", "properties": { "id": "osm:way/1417994412", "name": null, "highway": "footway", "lanes": null, "width": 2.0, "oneway": false, "surface": "concrete", "footway": "sidewalk", "sidewalk_left": false, "sidewalk_right": false, "generated_sidewalk": false, "bus_lanes": null, "bus_lane_side": null, "bus_only": false, "sidewalk": false, "bridge": false, "ramp": false, "tunnel": false, "layer": 0, "deck": null }, "geometry": { "type": "LineString", "coordinates": [ [ 282658.28, 4158868.64 ], [ 282657.08, 4158867.22 ], [ 282642.73, 4158836.55 ] ] } },
{ "type": "Feature", "properties": { "id": "osm:way/1135320954", "name": null, "highway": "footway", "lanes": null, "width": 2.0, "oneway": false, "surface": null, "footway": "sidewalk", "sidewalk_left": false, "sidewalk_right": false, "generated_sidewalk": false, "bus_lanes": null, "bus_lane_side": null, "bus_only": false, "sidewalk": false, "bridge": false, "ramp": false, "tunnel": false, "layer": 0, "deck": null }, "geometry": { "type": "LineString", "coordinates": [ [ 282503.65, 4158792.12 ], [ 282503.12, 4158790.92 ], [ 282500.0, 4158784.22 ] ] } },
{ "type": "Feature", "properties": { "id": "osm:way/1452862074", "name": null, "highway": "footway", "lanes": null, "width": 2.0, "oneway": false, "surface": null, "footway": "sidewalk", "sidewalk_left": false, "sidewalk_right": false, "generated_sidewalk": false, "bus_lanes": null, "bus_lane_side": null, "bus_only": false, "sidewalk": false, "bridge": false, "ramp": false, "tunnel": false, "layer": 0, "deck": null }, "geometry": { "type": "LineString", "coordinates": [ [ 282587.67, 4158750.0 ], [ 282503.12, 4158790.92 ], [ 282501.86, 4158791.49 ] ] } },
{ "type": "Feature", "properties": { "id": "osm:way/1135320961", "name": null, "highway": "footway", "lanes": null, "width": 2.0, "oneway": false, "surface": null, "footway": "crossing", "sidewalk_left": false, "sidewalk_right": false, "generated_sidewalk": false, "bus_lanes": null, "bus_lane_side": null, "bus_only": false, "sidewalk": false, "bridge": false, "ramp": false, "tunnel": false, "layer": 0, "deck": null }, "geometry": { "type": "LineString", "coordinates": [ [ 282500.0, 4158792.27 ], [ 282501.86, 4158791.49 ] ] } },
{ "type": "Feature", "properties": { "id": "osm:way/6040199", "name": "North Allen Avenue", "highway": "residential", "lanes": null, "width": 7.0, "oneway": false, "surface": "asphalt", "footway": null, "sidewalk_left": false, "sidewalk_right": false, "generated_sidewalk": true, "bus_lanes": null, "bus_lane_side": null, "bus_only": false, "sidewalk": false, "bridge": false, "ramp": false, "tunnel": false, "layer": 0, "deck": null }, "geometry": { "type": "LineString", "coordinates": [ [ 282500.0, 4158798.06 ], [ 282501.42, 4158801.03 ], [ 282504.97, 4158808.61 ], [ 282524.14, 4158848.83 ], [ 282530.43, 4158861.79 ], [ 282538.49, 4158877.87 ], [ 282556.27, 4158916.35 ], [ 282559.42, 4158923.17 ], [ 282563.51, 4158931.67 ], [ 282589.28, 4158985.22 ], [ 282596.27, 4159000.0 ] ] } },
{ "type": "Feature", "properties": { "id": "osm:way/1135320960", "name": null, "highway": "footway", "lanes": null, "width": 2.0, "oneway": false, "surface": null, "footway": "crossing", "sidewalk_left": false, "sidewalk_right": false, "generated_sidewalk": false, "bus_lanes": null, "bus_lane_side": null, "bus_only": false, "sidewalk": false, "bridge": false, "ramp": false, "tunnel": false, "layer": 0, "deck": null }, "geometry": { "type": "LineString", "coordinates": [ [ 282509.33, 4158804.2 ], [ 282506.62, 4158798.43 ], [ 282503.65, 4158792.12 ] ] } },
{ "type": "Feature", "properties": { "id": "osm:way/1135320965", "name": null, "highway": "footway", "lanes": null, "width": 2.0, "oneway": false, "surface": null, "footway": "crossing", "sidewalk_left": false, "sidewalk_right": false, "generated_sidewalk": false, "bus_lanes": null, "bus_lane_side": null, "bus_only": false, "sidewalk": false, "bridge": false, "ramp": false, "tunnel": false, "layer": 0, "deck": null }, "geometry": { "type": "LineString", "coordinates": [ [ 282500.81, 4158810.78 ], [ 282504.97, 4158808.61 ], [ 282509.0, 4158806.5 ] ] } },
{ "type": "Feature", "properties": { "id": "osm:way/1452862073", "name": null, "highway": "footway", "lanes": null, "width": 2.0, "oneway": false, "surface": "concrete", "footway": "sidewalk", "sidewalk_left": false, "sidewalk_right": false, "generated_sidewalk": false, "bus_lanes": null, "bus_lane_side": null, "bus_only": false, "sidewalk": false, "bridge": false, "ramp": false, "tunnel": false, "layer": 0, "deck": null }, "geometry": { "type": "LineString", "coordinates": [ [ 282509.33, 4158804.2 ], [ 282510.21, 4158805.93 ], [ 282528.73, 4158843.94 ] ] } },
{ "type": "Feature", "properties": { "id": "osm:way/1135320966", "name": null, "highway": "footway", "lanes": null, "width": 2.0, "oneway": false, "surface": null, "footway": "sidewalk", "sidewalk_left": false, "sidewalk_right": false, "generated_sidewalk": false, "bus_lanes": null, "bus_lane_side": null, "bus_only": false, "sidewalk": false, "bridge": false, "ramp": false, "tunnel": false, "layer": 0, "deck": null }, "geometry": { "type": "LineString", "coordinates": [ [ 282500.81, 4158810.78 ], [ 282500.0, 4158811.18 ] ] } },
{ "type": "Feature", "properties": { "id": "osm:way/866319077", "name": null, "highway": "service", "lanes": null, "width": 4.5, "oneway": false, "surface": null, "footway": null, "sidewalk_left": false, "sidewalk_right": false, "generated_sidewalk": false, "bus_lanes": null, "bus_lane_side": null, "bus_only": false, "sidewalk": false, "bridge": false, "ramp": false, "tunnel": false, "layer": 0, "deck": null }, "geometry": { "type": "LineString", "coordinates": [ [ 282524.14, 4158848.83 ], [ 282529.86, 4158846.11 ], [ 282563.97, 4158829.96 ], [ 282576.58, 4158823.99 ], [ 282580.27, 4158825.11 ], [ 282585.29, 4158835.89 ] ] } },
{ "type": "Feature", "properties": { "id": "osm:way/1225823034", "name": null, "highway": "footway", "lanes": null, "width": 2.0, "oneway": false, "surface": null, "footway": "crossing", "sidewalk_left": false, "sidewalk_right": false, "generated_sidewalk": false, "bus_lanes": null, "bus_lane_side": null, "bus_only": false, "sidewalk": false, "bridge": false, "ramp": false, "tunnel": false, "layer": 0, "deck": null }, "geometry": { "type": "LineString", "coordinates": [ [ 282528.73, 4158843.94 ], [ 282529.86, 4158846.11 ], [ 282530.74, 4158847.8 ] ] } },
{ "type": "Feature", "properties": { "id": "osm:way/1135320952", "name": null, "highway": "footway", "lanes": null, "width": 2.0, "oneway": false, "surface": "asphalt", "footway": "crossing", "sidewalk_left": false, "sidewalk_right": false, "generated_sidewalk": false, "bus_lanes": null, "bus_lane_side": null, "bus_only": false, "sidewalk": false, "bridge": false, "ramp": false, "tunnel": false, "layer": 0, "deck": null }, "geometry": { "type": "LineString", "coordinates": [ [ 282616.87, 4158754.09 ], [ 282614.97, 4158750.0 ] ] } },
{ "type": "Feature", "properties": { "id": "osm:way/1135320951", "name": null, "highway": "footway", "lanes": null, "width": 2.0, "oneway": false, "surface": "asphalt", "footway": "crossing", "sidewalk_left": false, "sidewalk_right": false, "generated_sidewalk": false, "bus_lanes": null, "bus_lane_side": null, "bus_only": false, "sidewalk": false, "bridge": false, "ramp": false, "tunnel": false, "layer": 0, "deck": null }, "geometry": { "type": "LineString", "coordinates": [ [ 282606.49, 4158758.94 ], [ 282603.55, 4158751.84 ], [ 282602.79, 4158750.0 ] ] } },
{ "type": "Feature", "properties": { "id": "osm:way/1417994428", "name": null, "highway": "footway", "lanes": null, "width": 2.0, "oneway": false, "surface": "concrete", "footway": "sidewalk", "sidewalk_left": false, "sidewalk_right": false, "generated_sidewalk": false, "bus_lanes": null, "bus_lane_side": null, "bus_only": false, "sidewalk": false, "bridge": false, "ramp": false, "tunnel": false, "layer": 0, "deck": null }, "geometry": { "type": "LineString", "coordinates": [ [ 282616.87, 4158754.09 ], [ 282618.21, 4158754.55 ] ] } },
{ "type": "Feature", "properties": { "id": "osm:way/1135320950", "name": null, "highway": "footway", "lanes": null, "width": 2.0, "oneway": false, "surface": "asphalt", "footway": "crossing", "sidewalk_left": false, "sidewalk_right": false, "generated_sidewalk": false, "bus_lanes": null, "bus_lane_side": null, "bus_only": false, "sidewalk": false, "bridge": false, "ramp": false, "tunnel": false, "layer": 0, "deck": null }, "geometry": { "type": "LineString", "coordinates": [ [ 282616.87, 4158754.09 ], [ 282612.75, 4158756.01 ], [ 282606.49, 4158758.94 ] ] } },
{ "type": "Feature", "properties": { "id": "osm:way/1417994429", "name": null, "highway": "footway", "lanes": null, "width": 2.0, "oneway": false, "surface": "concrete", "footway": "sidewalk", "sidewalk_left": false, "sidewalk_right": false, "generated_sidewalk": false, "bus_lanes": null, "bus_lane_side": null, "bus_only": false, "sidewalk": false, "bridge": false, "ramp": false, "tunnel": false, "layer": 0, "deck": null }, "geometry": { "type": "LineString", "coordinates": [ [ 282606.14, 4158760.63 ], [ 282606.49, 4158758.94 ] ] } },
{ "type": "Feature", "properties": { "id": "osm:way/1225823033", "name": null, "highway": "footway", "lanes": null, "width": 2.0, "oneway": false, "surface": "concrete", "footway": "sidewalk", "sidewalk_left": false, "sidewalk_right": false, "generated_sidewalk": false, "bus_lanes": null, "bus_lane_side": null, "bus_only": false, "sidewalk": false, "bridge": false, "ramp": false, "tunnel": false, "layer": 0, "deck": null }, "geometry": { "type": "LineString", "coordinates": [ [ 282631.3, 4158811.77 ], [ 282606.14, 4158760.63 ], [ 282551.93, 4158787.09 ], [ 282510.21, 4158805.93 ], [ 282509.0, 4158806.5 ] ] } },
{ "type": "Feature", "properties": { "id": "osm:way/6035872", "name": "North Vine Street", "highway": "residential", "lanes": null, "width": 7.0, "oneway": false, "surface": "asphalt", "footway": null, "sidewalk_left": false, "sidewalk_right": false, "generated_sidewalk": true, "bus_lanes": null, "bus_lane_side": null, "bus_only": false, "sidewalk": false, "bridge": false, "ramp": false, "tunnel": false, "layer": 0, "deck": null }, "geometry": { "type": "LineString", "coordinates": [ [ 282609.77, 4158750.0 ], [ 282612.75, 4158756.01 ], [ 282638.21, 4158811.32 ], [ 282645.79, 4158826.12 ], [ 282647.9, 4158830.68 ], [ 282663.56, 4158864.13 ], [ 282667.17, 4158871.89 ], [ 282671.1, 4158880.32 ], [ 282685.02, 4158909.49 ], [ 282696.26, 4158932.9 ], [ 282709.65, 4158959.17 ], [ 282713.5, 4158966.73 ] ] } },
{ "type": "Feature", "properties": { "id": "osm:way/1225823030", "name": null, "highway": "footway", "lanes": null, "width": 2.0, "oneway": false, "surface": null, "footway": "crossing", "sidewalk_left": false, "sidewalk_right": false, "generated_sidewalk": false, "bus_lanes": null, "bus_lane_side": null, "bus_only": false, "sidewalk": false, "bridge": false, "ramp": false, "tunnel": false, "layer": 0, "deck": null }, "geometry": { "type": "LineString", "coordinates": [ [ 282644.91, 4158809.96 ], [ 282644.17, 4158808.42 ], [ 282643.27, 4158806.55 ] ] } },
{ "type": "Feature", "properties": { "id": "osm:way/1225823032", "name": null, "highway": "footway", "lanes": null, "width": 2.0, "oneway": false, "surface": null, "footway": "crossing", "sidewalk_left": false, "sidewalk_right": false, "generated_sidewalk": false, "bus_lanes": null, "bus_lane_side": null, "bus_only": false, "sidewalk": false, "bridge": false, "ramp": false, "tunnel": false, "layer": 0, "deck": null }, "geometry": { "type": "LineString", "coordinates": [ [ 282632.61, 4158816.68 ], [ 282631.95, 4158814.22 ], [ 282631.3, 4158811.77 ] ] } },
{ "type": "Feature", "properties": { "id": "osm:way/1225823031", "name": null, "highway": "footway", "lanes": null, "width": 2.0, "oneway": false, "surface": null, "footway": "sidewalk", "sidewalk_left": false, "sidewalk_right": false, "generated_sidewalk": false, "bus_lanes": null, "bus_lane_side": null, "bus_only": false, "sidewalk": false, "bridge": false, "ramp": false, "tunnel": false, "layer": 0, "deck": null }, "geometry": { "type": "LineString", "coordinates": [ [ 282640.59, 4158832.67 ], [ 282632.61, 4158816.68 ] ] } },
{ "type": "Feature", "properties": { "id": "osm:way/1417994416", "name": null, "highway": "footway", "lanes": null, "width": 2.0, "oneway": false, "surface": null, "footway": "sidewalk", "sidewalk_left": false, "sidewalk_right": false, "generated_sidewalk": false, "bus_lanes": null, "bus_lane_side": null, "bus_only": false, "sidewalk": false, "bridge": false, "ramp": false, "tunnel": false, "layer": 0, "deck": null }, "geometry": { "type": "LineString", "coordinates": [ [ 282530.74, 4158847.8 ], [ 282535.33, 4158856.87 ] ] } },
{ "type": "Feature", "properties": { "id": "osm:way/1417994417", "name": null, "highway": "footway", "lanes": null, "width": 2.0, "oneway": false, "surface": "paving_stones", "footway": "crossing", "sidewalk_left": false, "sidewalk_right": false, "generated_sidewalk": false, "bus_lanes": null, "bus_lane_side": null, "bus_only": false, "sidewalk": false, "bridge": false, "ramp": false, "tunnel": false, "layer": 0, "deck": null }, "geometry": { "type": "LineString", "coordinates": [ [ 282535.33, 4158856.87 ], [ 282536.34, 4158858.99 ], [ 282537.52, 4158861.46 ] ] } },
{ "type": "Feature", "properties": { "id": "osm:way/1417994418", "name": null, "highway": "footway", "lanes": null, "width": 2.0, "oneway": false, "surface": null, "footway": "sidewalk", "sidewalk_left": false, "sidewalk_right": false, "generated_sidewalk": false, "bus_lanes": null, "bus_lane_side": null, "bus_only": false, "sidewalk": false, "bridge": false, "ramp": false, "tunnel": false, "layer": 0, "deck": null }, "geometry": { "type": "LineString", "coordinates": [ [ 282537.52, 4158861.46 ], [ 282543.55, 4158873.43 ] ] } },
{ "type": "Feature", "properties": { "id": "osm:way/1417994419", "name": null, "highway": "footway", "lanes": null, "width": 2.0, "oneway": false, "surface": null, "footway": "crossing", "sidewalk_left": false, "sidewalk_right": false, "generated_sidewalk": false, "bus_lanes": null, "bus_lane_side": null, "bus_only": false, "sidewalk": false, "bridge": false, "ramp": false, "tunnel": false, "layer": 0, "deck": null }, "geometry": { "type": "LineString", "coordinates": [ [ 282543.55, 4158873.43 ], [ 282544.43, 4158875.46 ], [ 282545.13, 4158877.04 ] ] } },
{ "type": "Feature", "properties": { "id": "osm:way/1135320964", "name": null, "highway": "footway", "lanes": null, "width": 2.0, "oneway": false, "surface": "concrete", "footway": "sidewalk", "sidewalk_left": false, "sidewalk_right": false, "generated_sidewalk": false, "bus_lanes": null, "bus_lane_side": null, "bus_only": false, "sidewalk": false, "bridge": false, "ramp": false, "tunnel": false, "layer": 0, "deck": null }, "geometry": { "type": "LineString", "coordinates": [ [ 282500.0, 4158942.79 ], [ 282549.93, 4158918.87 ], [ 282532.08, 4158880.47 ], [ 282524.63, 4158864.55 ], [ 282500.0, 4158812.97 ] ] } },
{ "type": "Feature", "properties": { "id": "osm:way/268503277", "name": null, "highway": "service", "lanes": null, "width": 4.5, "oneway": false, "surface": null, "footway": null, "sidewalk_left": false, "sidewalk_right": false, "generated_sidewalk": false, "bus_lanes": null, "bus_lane_side": null, "bus_only": false, "sidewalk": false, "bridge": false, "ramp": false, "tunnel": false, "layer": 0, "deck": null }, "geometry": { "type": "LineString", "coordinates": [ [ 282500.0, 4158896.06 ], [ 282532.08, 4158880.47 ], [ 282538.49, 4158877.87 ] ] } },
{ "type": "Feature", "properties": { "id": "osm:way/265143028", "name": "Grove Avenue", "highway": "tertiary", "lanes": 2.0, "width": 8.0, "oneway": false, "surface": "asphalt", "footway": null, "sidewalk_left": null, "sidewalk_right": null, "generated_sidewalk": true, "bus_lanes": null, "bus_lane_side": null, "bus_only": false, "sidewalk": false, "bridge": false, "ramp": false, "tunnel": false, "layer": 0, "deck": null }, "geometry": { "type": "LineString", "coordinates": [ [ 282607.36, 4158750.0 ], [ 282603.55, 4158751.84 ], [ 282506.62, 4158798.43 ], [ 282501.42, 4158801.03 ], [ 282500.0, 4158801.7 ] ] } },
{ "type": "Feature", "properties": { "id": "osm:way/154071474", "name": "Trouvaille Alley", "highway": "service", "lanes": null, "width": 4.5, "oneway": false, "surface": null, "footway": null, "sidewalk_left": false, "sidewalk_right": false, "generated_sidewalk": false, "bus_lanes": null, "bus_lane_side": null, "bus_only": false, "sidewalk": false, "bridge": false, "ramp": false, "tunnel": false, "layer": 0, "deck": null }, "geometry": { "type": "LineString", "coordinates": [ [ 282750.0, 4158757.08 ], [ 282746.16, 4158759.0 ], [ 282739.48, 4158762.34 ], [ 282644.17, 4158808.42 ], [ 282638.21, 4158811.32 ], [ 282631.95, 4158814.22 ], [ 282585.29, 4158835.89 ], [ 282536.34, 4158858.99 ], [ 282530.43, 4158861.79 ], [ 282524.63, 4158864.55 ], [ 282500.0, 4158876.31 ] ] } },
{ "type": "Feature", "properties": { "id": "osm:way/1135320976", "name": null, "highway": "footway", "lanes": null, "width": 2.0, "oneway": false, "surface": null, "footway": "crossing", "sidewalk_left": false, "sidewalk_right": false, "generated_sidewalk": false, "bus_lanes": null, "bus_lane_side": null, "bus_only": false, "sidewalk": false, "bridge": false, "ramp": false, "tunnel": false, "layer": 0, "deck": null }, "geometry": { "type": "LineString", "coordinates": [ [ 282549.93, 4158918.87 ], [ 282556.27, 4158916.35 ], [ 282561.02, 4158914.16 ] ] } },
{ "type": "Feature", "properties": { "id": "osm:way/1135320972", "name": null, "highway": "footway", "lanes": null, "width": 2.0, "oneway": false, "surface": null, "footway": "crossing", "sidewalk_left": false, "sidewalk_right": false, "generated_sidewalk": false, "bus_lanes": null, "bus_lane_side": null, "bus_only": false, "sidewalk": false, "bridge": false, "ramp": false, "tunnel": false, "layer": 0, "deck": null }, "geometry": { "type": "LineString", "coordinates": [ [ 282549.93, 4158918.87 ], [ 282553.67, 4158926.02 ], [ 282557.36, 4158934.28 ] ] } },
{ "type": "Feature", "properties": { "id": "osm:way/1225823022", "name": null, "highway": "footway", "lanes": null, "width": 2.0, "oneway": false, "surface": null, "footway": "crossing", "sidewalk_left": false, "sidewalk_right": false, "generated_sidewalk": false, "bus_lanes": null, "bus_lane_side": null, "bus_only": false, "sidewalk": false, "bridge": false, "ramp": false, "tunnel": false, "layer": 0, "deck": null }, "geometry": { "type": "LineString", "coordinates": [ [ 282642.73, 4158836.55 ], [ 282641.28, 4158833.92 ], [ 282640.59, 4158832.67 ] ] } },
{ "type": "Feature", "properties": { "id": "osm:way/268503275", "name": null, "highway": "service", "lanes": null, "width": 4.5, "oneway": false, "surface": null, "footway": null, "sidewalk_left": false, "sidewalk_right": false, "generated_sidewalk": false, "bus_lanes": null, "bus_lane_side": null, "bus_only": false, "sidewalk": false, "bridge": false, "ramp": false, "tunnel": false, "layer": 0, "deck": null }, "geometry": { "type": "LineString", "coordinates": [ [ 282647.9, 4158830.68 ], [ 282641.28, 4158833.92 ], [ 282605.1, 4158851.61 ] ] } },
{ "type": "Feature", "properties": { "id": "osm:way/268503276", "name": null, "highway": "service", "lanes": null, "width": 4.5, "oneway": false, "surface": null, "footway": null, "sidewalk_left": false, "sidewalk_right": false, "generated_sidewalk": false, "bus_lanes": null, "bus_lane_side": null, "bus_only": false, "sidewalk": false, "bridge": false, "ramp": false, "tunnel": false, "layer": 0, "deck": null }, "geometry": { "type": "LineString", "coordinates": [ [ 282605.1, 4158851.61 ], [ 282602.66, 4158846.53 ], [ 282548.24, 4158873.93 ], [ 282544.43, 4158875.46 ], [ 282538.49, 4158877.87 ] ] } },
{ "type": "Feature", "properties": { "id": "osm:way/1225823021", "name": null, "highway": "footway", "lanes": null, "width": 2.0, "oneway": false, "surface": "concrete", "footway": "sidewalk", "sidewalk_left": false, "sidewalk_right": false, "generated_sidewalk": false, "bus_lanes": null, "bus_lane_side": null, "bus_only": false, "sidewalk": false, "bridge": false, "ramp": false, "tunnel": false, "layer": 0, "deck": null }, "geometry": { "type": "LineString", "coordinates": [ [ 282545.13, 4158877.04 ], [ 282557.11, 4158902.6 ], [ 282561.9, 4158913.13 ], [ 282651.96, 4158869.29 ], [ 282657.08, 4158867.22 ], [ 282658.64, 4158866.51 ] ] } },
{ "type": "Feature", "properties": { "id": "osm:way/1225823023", "name": null, "highway": "footway", "lanes": null, "width": 2.0, "oneway": false, "surface": "concrete", "footway": "sidewalk", "sidewalk_left": false, "sidewalk_right": false, "generated_sidewalk": false, "bus_lanes": null, "bus_lane_side": null, "bus_only": false, "sidewalk": false, "bridge": false, "ramp": false, "tunnel": false, "layer": 0, "deck": null }, "geometry": { "type": "LineString", "coordinates": [ [ 282561.02, 4158914.16 ], [ 282561.9, 4158913.13 ] ] } },
{ "type": "Feature", "properties": { "id": "osm:way/1135320975", "name": null, "highway": "footway", "lanes": null, "width": 2.0, "oneway": false, "surface": null, "footway": "crossing", "sidewalk_left": false, "sidewalk_right": false, "generated_sidewalk": false, "bus_lanes": null, "bus_lane_side": null, "bus_only": false, "sidewalk": false, "bridge": false, "ramp": false, "tunnel": false, "layer": 0, "deck": null }, "geometry": { "type": "LineString", "coordinates": [ [ 282568.0, 4158929.31 ], [ 282564.08, 4158921.15 ], [ 282561.02, 4158914.16 ] ] } },
{ "type": "Feature", "properties": { "id": "osm:way/1225823020", "name": null, "highway": "footway", "lanes": null, "width": 2.0, "oneway": false, "surface": "concrete", "footway": "sidewalk", "sidewalk_left": false, "sidewalk_right": false, "generated_sidewalk": false, "bus_lanes": null, "bus_lane_side": null, "bus_only": false, "sidewalk": false, "bridge": false, "ramp": false, "tunnel": false, "layer": 0, "deck": null }, "geometry": { "type": "LineString", "coordinates": [ [ 282568.0, 4158929.31 ], [ 282569.19, 4158929.67 ] ] } },
{ "type": "Feature", "properties": { "id": "osm:way/1135320974", "name": null, "highway": "footway", "lanes": null, "width": 2.0, "oneway": false, "surface": null, "footway": "crossing", "sidewalk_left": false, "sidewalk_right": false, "generated_sidewalk": false, "bus_lanes": null, "bus_lane_side": null, "bus_only": false, "sidewalk": false, "bridge": false, "ramp": false, "tunnel": false, "layer": 0, "deck": null }, "geometry": { "type": "LineString", "coordinates": [ [ 282557.36, 4158934.28 ], [ 282563.51, 4158931.67 ], [ 282568.0, 4158929.31 ] ] } },
{ "type": "Feature", "properties": { "id": "osm:way/1417994414", "name": null, "highway": "footway", "lanes": null, "width": 2.0, "oneway": false, "surface": "concrete", "footway": "sidewalk", "sidewalk_left": false, "sidewalk_right": false, "generated_sidewalk": false, "bus_lanes": null, "bus_lane_side": null, "bus_only": false, "sidewalk": false, "bridge": false, "ramp": false, "tunnel": false, "layer": 0, "deck": null }, "geometry": { "type": "LineString", "coordinates": [ [ 282594.34, 4158982.74 ], [ 282569.19, 4158929.67 ], [ 282665.05, 4158882.93 ], [ 282666.42, 4158882.26 ] ] } },
{ "type": "Feature", "properties": { "id": "osm:way/1225823019", "name": null, "highway": "footway", "lanes": null, "width": 2.0, "oneway": false, "surface": "concrete", "footway": "sidewalk", "sidewalk_left": false, "sidewalk_right": false, "generated_sidewalk": false, "bus_lanes": null, "bus_lane_side": null, "bus_only": false, "sidewalk": false, "bridge": false, "ramp": false, "tunnel": false, "layer": 0, "deck": null }, "geometry": { "type": "LineString", "coordinates": [ [ 282557.77, 4158935.32 ], [ 282557.36, 4158934.28 ] ] } },
{ "type": "Feature", "properties": { "id": "osm:way/1135320982", "name": null, "highway": "footway", "lanes": null, "width": 2.0, "oneway": false, "surface": null, "footway": "crossing", "sidewalk_left": false, "sidewalk_right": false, "generated_sidewalk": false, "bus_lanes": null, "bus_lane_side": null, "bus_only": false, "sidewalk": false, "bridge": false, "ramp": false, "tunnel": false, "layer": 0, "deck": null }, "geometry": { "type": "LineString", "coordinates": [ [ 282658.64, 4158866.51 ], [ 282663.56, 4158864.13 ], [ 282667.61, 4158862.18 ] ] } },
{ "type": "Feature", "properties": { "id": "osm:way/1135320983", "name": null, "highway": "footway", "lanes": null, "width": 2.0, "oneway": false, "surface": null, "footway": "crossing", "sidewalk_left": false, "sidewalk_right": false, "generated_sidewalk": false, "bus_lanes": null, "bus_lane_side": null, "bus_only": false, "sidewalk": false, "bridge": false, "ramp": false, "tunnel": false, "layer": 0, "deck": null }, "geometry": { "type": "LineString", "coordinates": [ [ 282675.77, 4158876.48 ], [ 282672.58, 4158869.33 ], [ 282669.7, 4158862.88 ] ] } },
{ "type": "Feature", "properties": { "id": "osm:way/1135320981", "name": null, "highway": "footway", "lanes": null, "width": 2.0, "oneway": false, "surface": null, "footway": "crossing", "sidewalk_left": false, "sidewalk_right": false, "generated_sidewalk": false, "bus_lanes": null, "bus_lane_side": null, "bus_only": false, "sidewalk": false, "bridge": false, "ramp": false, "tunnel": false, "layer": 0, "deck": null }, "geometry": { "type": "LineString", "coordinates": [ [ 282658.28, 4158868.64 ], [ 282661.16, 4158874.74 ], [ 282664.33, 4158881.45 ] ] } },
{ "type": "Feature", "properties": { "id": "osm:way/1135320980", "name": null, "highway": "footway", "lanes": null, "width": 2.0, "oneway": false, "surface": null, "footway": "crossing", "sidewalk_left": false, "sidewalk_right": false, "generated_sidewalk": false, "bus_lanes": null, "bus_lane_side": null, "bus_only": false, "sidewalk": false, "bridge": false, "ramp": false, "tunnel": false, "layer": 0, "deck": null }, "geometry": { "type": "LineString", "coordinates": [ [ 282666.42, 4158882.26 ], [ 282671.1, 4158880.32 ], [ 282675.03, 4158878.69 ] ] } },
{ "type": "Feature", "properties": { "id": "osm:way/1135320979", "name": null, "highway": "footway", "lanes": null, "width": 2.0, "oneway": false, "surface": null, "footway": "sidewalk", "sidewalk_left": false, "sidewalk_right": false, "generated_sidewalk": false, "bus_lanes": null, "bus_lane_side": null, "bus_only": false, "sidewalk": false, "bridge": false, "ramp": false, "tunnel": false, "layer": 0, "deck": null }, "geometry": { "type": "MultiLineString", "coordinates": [ [ [ 282715.31, 4158953.43 ], [ 282750.0, 4158915.33 ] ], [ [ 282750.0, 4158842.43 ], [ 282676.53, 4158877.97 ], [ 282675.03, 4158878.69 ] ] ] } },
{ "type": "Feature", "properties": { "id": "osm:way/268503274", "name": null, "highway": "service", "lanes": null, "width": 4.5, "oneway": false, "surface": null, "footway": null, "sidewalk_left": false, "sidewalk_right": false, "generated_sidewalk": false, "bus_lanes": null, "bus_lane_side": null, "bus_only": false, "sidewalk": false, "bridge": false, "ramp": false, "tunnel": false, "layer": 0, "deck": null }, "geometry": { "type": "LineString", "coordinates": [ [ 282685.02, 4158909.49 ], [ 282691.1, 4158906.62 ], [ 282733.77, 4158886.49 ] ] } },
{ "type": "Feature", "properties": { "id": "osm:way/1417994415", "name": null, "highway": "footway", "lanes": null, "width": 2.0, "oneway": false, "surface": null, "footway": "sidewalk", "sidewalk_left": false, "sidewalk_right": false, "generated_sidewalk": false, "bus_lanes": null, "bus_lane_side": null, "bus_only": false, "sidewalk": false, "bridge": false, "ramp": false, "tunnel": false, "layer": 0, "deck": null }, "geometry": { "type": "LineString", "coordinates": [ [ 282675.77, 4158876.48 ], [ 282676.53, 4158877.97 ], [ 282691.1, 4158906.62 ], [ 282711.65, 4158949.4 ], [ 282713.91, 4158953.1 ], [ 282715.31, 4158953.43 ] ] } },
{ "type": "Feature", "properties": { "id": "osm:way/1135320977", "name": null, "highway": "footway", "lanes": null, "width": 2.0, "oneway": false, "surface": "concrete", "footway": "sidewalk", "sidewalk_left": false, "sidewalk_right": false, "generated_sidewalk": false, "bus_lanes": null, "bus_lane_side": null, "bus_only": false, "sidewalk": false, "bridge": false, "ramp": false, "tunnel": false, "layer": 0, "deck": null }, "geometry": { "type": "MultiLineString", "coordinates": [ [ [ 282664.33, 4158881.45 ], [ 282665.05, 4158882.93 ], [ 282690.59, 4158935.68 ], [ 282704.27, 4158964.61 ], [ 282655.31, 4159000.0 ] ], [ [ 282602.63, 4159000.0 ], [ 282594.34, 4158982.74 ] ] ] } },
{ "type": "Feature", "properties": { "id": "osm:way/1418797481", "name": null, "highway": "footway", "lanes": null, "width": 2.0, "oneway": false, "surface": null, "footway": "crossing", "sidewalk_left": false, "sidewalk_right": false, "generated_sidewalk": false, "bus_lanes": null, "bus_lane_side": null, "bus_only": false, "sidewalk": false, "bridge": false, "ramp": false, "tunnel": false, "layer": 0, "deck": null }, "geometry": { "type": "LineString", "coordinates": [ [ 282704.27, 4158964.61 ], [ 282709.65, 4158959.17 ], [ 282715.31, 4158953.43 ] ] } },
{ "type": "Feature", "properties": { "id": "osm:way/1484685849", "name": "Park Avenue", "highway": "residential", "lanes": 2.0, "width": 7.0, "oneway": false, "surface": "asphalt", "footway": null, "sidewalk_left": false, "sidewalk_right": false, "generated_sidewalk": true, "bus_lanes": null, "bus_lane_side": null, "bus_only": false, "sidewalk": true, "bridge": false, "ramp": false, "tunnel": false, "layer": 0, "deck": null }, "geometry": { "type": "LineString", "coordinates": [ [ 282750.0, 4158926.89 ], [ 282713.5, 4158966.73 ], [ 282668.79, 4159000.0 ] ] } },
{ "type": "Feature", "properties": { "id": "osm:way/1135320978", "name": null, "highway": "footway", "lanes": null, "width": 2.0, "oneway": false, "surface": "concrete", "footway": "sidewalk", "sidewalk_left": false, "sidewalk_right": false, "generated_sidewalk": false, "bus_lanes": null, "bus_lane_side": null, "bus_only": false, "sidewalk": false, "bridge": false, "ramp": false, "tunnel": false, "layer": 0, "deck": null }, "geometry": { "type": "LineString", "coordinates": [ [ 282683.53, 4159000.0 ], [ 282714.28, 4158977.4 ], [ 282717.47, 4158974.52 ], [ 282724.27, 4158967.49 ], [ 282733.67, 4158956.71 ], [ 282750.0, 4158938.77 ] ] } },
{ "type": "Feature", "properties": { "id": "osm:way/6033818", "name": "Hanover Avenue", "highway": "residential", "lanes": null, "width": 7.0, "oneway": false, "surface": "asphalt", "footway": null, "sidewalk_left": true, "sidewalk_right": true, "generated_sidewalk": true, "bus_lanes": null, "bus_lane_side": null, "bus_only": false, "sidewalk": false, "bridge": false, "ramp": false, "tunnel": false, "layer": 0, "deck": null }, "geometry": { "type": "LineString", "coordinates": [ [ 282750.0, 4158832.59 ], [ 282672.58, 4158869.33 ], [ 282667.17, 4158871.89 ], [ 282661.16, 4158874.74 ], [ 282564.08, 4158921.15 ], [ 282559.42, 4158923.17 ], [ 282553.67, 4158926.02 ], [ 282500.0, 4158951.6 ] ] } },
{ "type": "Feature", "properties": { "id": "osm:way/1225823005", "name": null, "highway": "footway", "lanes": null, "width": 2.0, "oneway": false, "surface": "concrete", "footway": "sidewalk", "sidewalk_left": false, "sidewalk_right": false, "generated_sidewalk": false, "bus_lanes": null, "bus_lane_side": null, "bus_only": false, "sidewalk": false, "bridge": false, "ramp": false, "tunnel": false, "layer": 0, "deck": null }, "geometry": { "type": "LineString", "coordinates": [ [ 282576.03, 4158972.55 ], [ 282557.77, 4158935.32 ], [ 282503.29, 4158960.82 ], [ 282500.0, 4158962.39 ] ] } },
{ "type": "Feature", "properties": { "id": "osm:way/154071473", "name": null, "highway": "service", "lanes": null, "width": 4.5, "oneway": false, "surface": null, "footway": null, "sidewalk_left": false, "sidewalk_right": false, "generated_sidewalk": false, "bus_lanes": null, "bus_lane_side": null, "bus_only": false, "sidewalk": false, "bridge": false, "ramp": false, "tunnel": false, "layer": 0, "deck": null }, "geometry": { "type": "LineString", "coordinates": [ [ 282557.76, 4159000.0 ], [ 282583.66, 4158987.85 ], [ 282589.28, 4158985.22 ], [ 282594.34, 4158982.74 ], [ 282690.59, 4158935.68 ], [ 282696.26, 4158932.9 ] ] } },
{ "type": "Feature", "properties": { "id": "osm:way/1225799565", "name": null, "highway": "footway", "lanes": null, "width": 2.0, "oneway": false, "surface": null, "footway": "sidewalk", "sidewalk_left": false, "sidewalk_right": false, "generated_sidewalk": false, "bus_lanes": null, "bus_lane_side": null, "bus_only": false, "sidewalk": false, "bridge": false, "ramp": false, "tunnel": false, "layer": 0, "deck": null }, "geometry": { "type": "LineString", "coordinates": [ [ 282581.46, 4158984.0 ], [ 282576.03, 4158972.55 ] ] } },
{ "type": "Feature", "properties": { "id": "osm:way/1225799564", "name": null, "highway": "footway", "lanes": null, "width": 2.0, "oneway": false, "surface": null, "footway": "crossing", "sidewalk_left": false, "sidewalk_right": false, "generated_sidewalk": false, "bus_lanes": null, "bus_lane_side": null, "bus_only": false, "sidewalk": false, "bridge": false, "ramp": false, "tunnel": false, "layer": 0, "deck": null }, "geometry": { "type": "LineString", "coordinates": [ [ 282584.64, 4158989.56 ], [ 282583.66, 4158987.85 ], [ 282581.46, 4158984.0 ] ] } },
{ "type": "Feature", "properties": { "id": "osm:way/1225799552", "name": null, "highway": "footway", "lanes": null, "width": 2.0, "oneway": false, "surface": null, "footway": "sidewalk", "sidewalk_left": false, "sidewalk_right": false, "generated_sidewalk": false, "bus_lanes": null, "bus_lane_side": null, "bus_only": false, "sidewalk": false, "bridge": false, "ramp": false, "tunnel": false, "layer": 0, "deck": null }, "geometry": { "type": "LineString", "coordinates": [ [ 282584.64, 4158989.56 ], [ 282589.55, 4159000.0 ] ] } }
]
}
