{
"type": "FeatureCollection",
"name": "roads",
"crs": { "type": "name", "properties": { "name": "urn:ogc:def:crs:EPSG::32618" } },
"xy_coordinate_resolution": 0.01,
"features": [
{ "type": "Feature", "properties": { "id": "osm:way/204540604", "name": "Perry Street", "highway": "residential", "lanes": null, "width": 7.0, "oneway": false, "surface": null, "footway": null, "sidewalk_left": false, "sidewalk_right": false, "generated_sidewalk": true, "bus_lanes": null, "bus_lane_side": null, "bus_only": false, "sidewalk": false, "bridge": false, "ramp": false, "tunnel": false, "layer": 0, "deck": null }, "geometry": { "type": "LineString", "coordinates": [ [ 283000.0, 4155290.22 ], [ 282934.8, 4155262.33 ], [ 282905.97, 4155250.0 ] ] } },
{ "type": "Feature", "properties": { "id": "osm:way/323697242", "name": null, "highway": "service", "lanes": null, "width": 4.5, "oneway": false, "surface": null, "footway": null, "sidewalk_left": false, "sidewalk_right": false, "generated_sidewalk": false, "bus_lanes": null, "bus_lane_side": null, "bus_only": false, "sidewalk": false, "bridge": false, "ramp": false, "tunnel": false, "layer": 0, "deck": null }, "geometry": { "type": "LineString", "coordinates": [ [ 282750.0, 4155367.66 ], [ 282782.57, 4155382.63 ], [ 282825.99, 4155403.18 ], [ 282833.45, 4155406.02 ] ] } },
{ "type": "Feature", "properties": { "id": "osm:way/6037049", "name": "McDonough Street", "highway": "residential", "lanes": null, "width": 7.0, "oneway": false, "surface": null, "footway": null, "sidewalk_left": null, "sidewalk_right": null, "generated_sidewalk": true, "bus_lanes": null, "bus_lane_side": null, "bus_only": false, "sidewalk": false, "bridge": false, "ramp": false, "tunnel": false, "layer": 0, "deck": null }, "geometry": { "type": "LineString", "coordinates": [ [ 282946.08, 4155396.6 ], [ 282908.51, 4155379.48 ], [ 282873.92, 4155361.14 ], [ 282857.02, 4155353.74 ], [ 282849.86, 4155350.71 ], [ 282805.79, 4155332.08 ], [ 282754.93, 4155308.62 ], [ 282750.0, 4155306.26 ] ] } },
{ "type": "Feature", "properties": { "id": "osm:way/887743896", "name": null, "highway": "service", "lanes": null, "width": 4.5, "oneway": false, "surface": null, "footway": null, "sidewalk_left": false, "sidewalk_right": false, "generated_sidewalk": false, "bus_lanes": null, "bus_lane_side": null, "bus_only": false, "sidewalk": false, "bridge": false, "ramp": false, "tunnel": false, "layer": 0, "deck": null }, "geometry": { "type": "LineString", "coordinates": [ [ 282805.79, 4155332.08 ], [ 282798.52, 4155347.05 ], [ 282789.55, 4155366.21 ], [ 282782.57, 4155382.63 ] ] } },
{ "type": "Feature", "properties": { "id": "osm:way/1426544228", "name": null, "highway": "footway", "lanes": null, "width": 2.0, "oneway": false, "surface": "concrete", "footway": "sidewalk", "sidewalk_left": false, "sidewalk_right": false, "generated_sidewalk": false, "bus_lanes": null, "bus_lane_side": null, "bus_only": false, "sidewalk": false, "bridge": false, "ramp": false, "tunnel": false, "layer": 0, "deck": null }, "geometry": { "type": "LineString", "coordinates": [ [ 282848.22, 4155354.56 ], [ 282827.38, 4155400.43 ], [ 282825.99, 4155403.18 ], [ 282805.42, 4155446.08 ], [ 282750.0, 4155420.76 ] ] } },
{ "type": "Feature", "properties": { "id": "osm:way/1426544224", "name": null, "highway": "footway", "lanes": null, "width": 2.0, "oneway": false, "surface": "concrete", "footway": "sidewalk", "sidewalk_left": false, "sidewalk_right": false, "generated_sidewalk": false, "bus_lanes": null, "bus_lane_side": null, "bus_only": false, "sidewalk": false, "bridge": false, "ramp": false, "tunnel": false, "layer": 0, "deck": null }, "geometry": { "type": "LineString", "coordinates": [ [ 282805.96, 4155448.42 ], [ 282805.42, 4155446.08 ] ] } },
{ "type": "Feature", "properties": { "id": "osm:way/1426544237", "name": null, "highway": "footway", "lanes": null, "width": 2.0, "oneway": false, "surface": "concrete", "footway": "sidewalk", "sidewalk_left": false, "sidewalk_right": false, "generated_sidewalk": false, "bus_lanes": null, "bus_lane_side": null, "bus_only": false, "sidewalk": false, "bridge": false, "ramp": false, "tunnel": false, "layer": 0, "deck": null }, "geometry": { "type": "LineString", "coordinates": [ [ 282798.06, 4155468.55 ], [ 282795.53, 4155468.78 ], [ 282750.0, 4155447.71 ] ] } },
{ "type": "Feature", "properties": { "id": "osm:way/1426544235", "name": null, "highway": "footway", "lanes": null, "width": 2.0, "oneway": false, "surface": null, "footway": "crossing", "sidewalk_left": false, "sidewalk_right": false, "generated_sidewalk": false, "bus_lanes": null, "bus_lane_side": null, "bus_only": false, "sidewalk": false, "bridge": false, "ramp": false, "tunnel": false, "layer": 0, "deck": null }, "geometry": { "type": "LineString", "coordinates": [ [ 282798.06, 4155468.55 ], [ 282800.6, 4155462.08 ], [ 282803.83, 4155453.86 ], [ 282805.96, 4155448.42 ] ] } },
{ "type": "Feature", "properties": { "id": "osm:way/1367640910", "name": "Semmes Avenue", "highway": "primary", "lanes": 2.0, "width": 11.0, "oneway": true, "surface": "asphalt", "footway": null, "sidewalk_left": null, "sidewalk_right": false, "generated_sidewalk": true, "bus_lanes": null, "bus_lane_side": null, "bus_only": false, "sidewalk": false, "bridge": false, "ramp": false, "tunnel": false, "layer": 0, "deck": null }, "geometry": { "type": "LineString", "coordinates": [ [ 282882.57, 4155500.0 ], [ 282811.68, 4155467.19 ], [ 282806.39, 4155464.75 ], [ 282800.6, 4155462.08 ], [ 282750.0, 4155438.74 ] ] } },
{ "type": "Feature", "properties": { "id": "osm:way/1426544249", "name": null, "highway": "footway", "lanes": null, "width": 2.0, "oneway": false, "surface": null, "footway": "crossing", "sidewalk_left": false, "sidewalk_right": false, "generated_sidewalk": false, "bus_lanes": null, "bus_lane_side": null, "bus_only": false, "sidewalk": false, "bridge": false, "ramp": false, "tunnel": false, "layer": 0, "deck": null }, "geometry": { "type": "LineString", "coordinates": [ [ 282798.06, 4155468.55 ], [ 282803.6, 4155471.05 ], [ 282809.0, 4155473.48 ] ] } },
{ "type": "Feature", "properties": { "id": "osm:way/266877968", "name": null, "highway": "service", "lanes": null, "width": 4.5, "oneway": false, "surface": null, "footway": null, "sidewalk_left": false, "sidewalk_right": false, "generated_sidewalk": false, "bus_lanes": null, "bus_lane_side": null, "bus_only": false, "sidewalk": false, "bridge": false, "ramp": false, "tunnel": false, "layer": 0, "deck": null }, "geometry": { "type": "LineString", "coordinates": [ [ 282934.8, 4155262.33 ], [ 282940.91, 4155250.0 ] ] } },
{ "type": "Feature", "properties": { "id": "osm:way/866137168", "name": null, "highway": "service", "lanes": null, "width": 4.5, "oneway": false, "surface": null, "footway": null, "sidewalk_left": false, "sidewalk_right": false, "generated_sidewalk": false, "bus_lanes": null, "bus_lane_side": null, "bus_only": false, "sidewalk": false, "bridge": false, "ramp": false, "tunnel": false, "layer": 0, "deck": null }, "geometry": { "type": "LineString", "coordinates": [ [ 282805.79, 4155332.08 ], [ 282810.63, 4155322.27 ], [ 282813.43, 4155316.87 ], [ 282817.05, 4155311.55 ], [ 282820.66, 4155307.1 ], [ 282824.11, 4155301.96 ], [ 282829.44, 4155292.46 ], [ 282835.04, 4155280.31 ] ] } },
{ "type": "Feature", "properties": { "id": "osm:way/1013628904", "name": null, "highway": "service", "lanes": null, "width": 4.5, "oneway": false, "surface": "asphalt", "footway": null, "sidewalk_left": false, "sidewalk_right": false, "generated_sidewalk": false, "bus_lanes": null, "bus_lane_side": null, "bus_only": false, "sidewalk": false, "bridge": false, "ramp": false, "tunnel": false, "layer": 0, "deck": null }, "geometry": { "type": "LineString", "coordinates": [ [ 282890.2, 4155283.31 ], [ 282942.15, 4155307.37 ], [ 282946.3, 4155309.41 ], [ 282948.83, 4155310.9 ], [ 282952.11, 4155313.29 ], [ 282959.75, 4155318.92 ], [ 282967.69, 4155323.99 ], [ 282973.8, 4155327.38 ], [ 282980.17, 4155330.29 ], [ 283000.0, 4155339.24 ] ] } },
{ "type": "Feature", "properties": { "id": "osm:way/1013628905", "name": null, "highway": "service", "lanes": null, "width": 4.5, "oneway": false, "surface": "asphalt", "footway": null, "sidewalk_left": false, "sidewalk_right": false, "generated_sidewalk": false, "bus_lanes": null, "bus_lane_side": null, "bus_only": false, "sidewalk": false, "bridge": false, "ramp": false, "tunnel": false, "layer": 0, "deck": null }, "geometry": { "type": "LineString", "coordinates": [ [ 282928.73, 4155336.13 ], [ 282952.4, 4155346.65 ] ] } },
{ "type": "Feature", "properties": { "id": "osm:way/1013628903", "name": null, "highway": "service", "lanes": null, "width": 4.5, "oneway": false, "surface": "asphalt", "footway": null, "sidewalk_left": false, "sidewalk_right": false, "generated_sidewalk": false, "bus_lanes": null, "bus_lane_side": null, "bus_only": false, "sidewalk": false, "bridge": false, "ramp": false, "tunnel": false, "layer": 0, "deck": null }, "geometry": { "type": "LineString", "coordinates": [ [ 282908.51, 4155379.48 ], [ 282928.73, 4155336.13 ], [ 282942.15, 4155307.37 ] ] } },
{ "type": "Feature", "properties": { "id": "osm:way/1426544239", "name": null, "highway": "footway", "lanes": null, "width": 2.0, "oneway": false, "surface": "grass", "footway": "link", "sidewalk_left": false, "sidewalk_right": false, "generated_sidewalk": false, "bus_lanes": null, "bus_lane_side": null, "bus_only": false, "sidewalk": false, "bridge": false, "ramp": false, "tunnel": false, "layer": 0, "deck": null }, "geometry": { "type": "LineString", "coordinates": [ [ 282851.56, 4155346.69 ], [ 282852.86, 4155343.6 ] ] } },
{ "type": "Feature", "properties": { "id": "osm:way/1426544238", "name": null, "highway": "footway", "lanes": null, "width": 2.0, "oneway": false, "surface": null, "footway": "crossing", "sidewalk_left": false, "sidewalk_right": false, "generated_sidewalk": false, "bus_lanes": null, "bus_lane_side": null, "bus_only": false, "sidewalk": false, "bridge": false, "ramp": false, "tunnel": false, "layer": 0, "deck": null }, "geometry": { "type": "LineString", "coordinates": [ [ 282848.22, 4155354.56 ], [ 282849.86, 4155350.71 ], [ 282851.56, 4155346.69 ] ] } },
{ "type": "Feature", "properties": { "id": "osm:way/1426544225", "name": null, "highway": "footway", "lanes": null, "width": 2.0, "oneway": false, "surface": null, "footway": "crossing", "sidewalk_left": false, "sidewalk_right": false, "generated_sidewalk": false, "bus_lanes": null, "bus_lane_side": null, "bus_only": false, "sidewalk": false, "bridge": false, "ramp": false, "tunnel": false, "layer": 0, "deck": null }, "geometry": { "type": "LineString", "coordinates": [ [ 282805.96, 4155448.42 ], [ 282812.76, 4155451.3 ], [ 282817.57, 4155453.33 ] ] } },
{ "type": "Feature", "properties": { "id": "osm:way/899572739", "name": "Semmes Avenue", "highway": "primary", "lanes": 2.0, "width": 11.0, "oneway": true, "surface": "asphalt", "footway": null, "sidewalk_left": null, "sidewalk_right": false, "generated_sidewalk": true, "bus_lanes": null, "bus_lane_side": null, "bus_only": false, "sidewalk": false, "bridge": false, "ramp": false, "tunnel": false, "layer": 0, "deck": null }, "geometry": { "type": "LineString", "coordinates": [ [ 282750.0, 4155429.09 ], [ 282803.83, 4155453.86 ], [ 282810.25, 4155456.82 ], [ 282815.12, 4155459.08 ], [ 282903.18, 4155500.0 ] ] } },
{ "type": "Feature", "properties": { "id": "osm:way/1426544234", "name": null, "highway": "footway", "lanes": null, "width": 2.0, "oneway": false, "surface": null, "footway": "crossing", "sidewalk_left": false, "sidewalk_right": false, "generated_sidewalk": false, "bus_lanes": null, "bus_lane_side": null, "bus_only": false, "sidewalk": false, "bridge": false, "ramp": false, "tunnel": false, "layer": 0, "deck": null }, "geometry": { "type": "LineString", "coordinates": [ [ 282817.57, 4155453.33 ], [ 282815.12, 4155459.08 ], [ 282811.68, 4155467.19 ], [ 282809.0, 4155473.48 ] ] } },
{ "type": "Feature", "properties": { "id": "osm:way/6040806", "name": "West 25th Street", "highway": "residential", "lanes": null, "width": 7.0, "oneway": false, "surface": null, "footway": null, "sidewalk_left": null, "sidewalk_right": null, "generated_sidewalk": true, "bus_lanes": null, "bus_lane_side": null, "bus_only": false, "sidewalk": false, "bridge": false, "ramp": false, "tunnel": false, "layer": 0, "deck": null }, "geometry": { "type": "LineString", "coordinates": [ [ 282780.73, 4155250.0 ], [ 282754.93, 4155308.62 ], [ 282750.0, 4155319.22 ] ] } },
{ "type": "Feature", "properties": { "id": "osm:way/1426544245", "name": null, "highway": "footway", "lanes": null, "width": 2.0, "oneway": false, "surface": null, "footway": "sidewalk", "sidewalk_left": false, "sidewalk_right": false, "generated_sidewalk": false, "bus_lanes": null, "bus_lane_side": null, "bus_only": false, "sidewalk": false, "bridge": false, "ramp": false, "tunnel": false, "layer": 0, "deck": null }, "geometry": { "type": "LineString", "coordinates": [ [ 282781.12, 4155500.0 ], [ 282795.53, 4155468.78 ] ] } },
{ "type": "Feature", "properties": { "id": "osm:way/6034723", "name": "West 24th Street", "highway": "residential", "lanes": null, "width": 7.0, "oneway": false, "surface": null, "footway": null, "sidewalk_left": null, "sidewalk_right": null, "generated_sidewalk": true, "bus_lanes": null, "bus_lane_side": null, "bus_only": false, "sidewalk": false, "bridge": false, "ramp": false, "tunnel": false, "layer": 0, "deck": null }, "geometry": { "type": "LineString", "coordinates": [ [ 282905.5, 4155250.0 ], [ 282890.2, 4155283.31 ], [ 282857.02, 4155353.74 ], [ 282833.45, 4155406.02 ], [ 282814.08, 4155448.43 ], [ 282812.76, 4155451.3 ], [ 282810.25, 4155456.82 ], [ 282806.39, 4155464.75 ], [ 282803.6, 4155471.05 ], [ 282802.28, 4155474.0 ], [ 282790.33, 4155500.0 ] ] } },
{ "type": "Feature", "properties": { "id": "osm:way/1426544236", "name": null, "highway": "footway", "lanes": null, "width": 2.0, "oneway": false, "surface": "concrete", "footway": "sidewalk", "sidewalk_left": false, "sidewalk_right": false, "generated_sidewalk": false, "bus_lanes": null, "bus_lane_side": null, "bus_only": false, "sidewalk": false, "bridge": false, "ramp": false, "tunnel": false, "layer": 0, "deck": null }, "geometry": { "type": "LineString", "coordinates": [ [ 282809.0, 4155473.48 ], [ 282810.13, 4155475.51 ] ] } },
{ "type": "Feature", "properties": { "id": "osm:way/1426544226", "name": null, "highway": "footway", "lanes": null, "width": 2.0, "oneway": false, "surface": "concrete", "footway": "sidewalk", "sidewalk_left": false, "sidewalk_right": false, "generated_sidewalk": false, "bus_lanes": null, "bus_lane_side": null, "bus_only": false, "sidewalk": false, "bridge": false, "ramp": false, "tunnel": false, "layer": 0, "deck": null }, "geometry": { "type": "LineString", "coordinates": [ [ 282817.57, 4155453.33 ], [ 282820.37, 4155453.1 ], [ 282874.55, 4155479.58 ], [ 282918.64, 4155500.0 ] ] } },
{ "type": "Feature", "properties": { "id": "osm:way/1426544241", "name": null, "highway": "footway", "lanes": null, "width": 2.0, "oneway": false, "surface": "concrete", "footway": "sidewalk", "sidewalk_left": false, "sidewalk_right": false, "generated_sidewalk": false, "bus_lanes": null, "bus_lane_side": null, "bus_only": false, "sidewalk": false, "bridge": false, "ramp": false, "tunnel": false, "layer": 0, "deck": null }, "geometry": { "type": "LineString", "coordinates": [ [ 282798.97, 4155500.0 ], [ 282810.13, 4155475.51 ], [ 282863.11, 4155500.0 ] ] } }
]
}
