{
"type": "FeatureCollection",
"name": "buildings",
"crs": { "type": "name", "properties": { "name": "urn:ogc:def:crs:EPSG::32618" } },
"xy_coordinate_resolution": 0.01,
"features": [
{ "type": "Feature", "properties": { "id": "osm:way/207696516", "name": "McCurdy House", "height": 12.26, "min_height": 0.0, "levels": null, "height_source": "lidar", "roof_shape": "flat", "roof_height": 0.0, "roof_azimuth": null, "roof_source": "heuristic", "roof_color": "roof_flat", "roof_color_source": "ortho", "lod2_roof": null, "roof_props": null, "wall_color": "brick", "type": "yes", "landmark": null, "footprint_source": "osm", "source_updated": null, "is_part": false, "parent": null, "hidden": false, "addr": "1731 East Main Street", "wikidata": "Q141180323", "website": null, "zoning": "B-5", "lidar_p90": 13.8, "ground_z": 8.92 }, "geometry": { "type": "Polygon", "coordinates": [ [ [ 285471.01, 4156745.83 ], [ 285465.95, 4156749.98 ], [ 285477.55, 4156764.02 ], [ 285482.61, 4156759.87 ], [ 285471.01, 4156745.83 ] ] ] } },
{ "type": "Feature", "properties": { "id": "osm:way/207696523", "name": "Wonderland RVA", "height": 10.95, "min_height": 0.0, "levels": null, "height_source": "lidar", "roof_shape": "flat", "roof_height": 0.0, "roof_azimuth": null, "roof_source": "heuristic", "roof_color": "roof_flat", "roof_color_source": "ortho", "lod2_roof": null, "roof_props": null, "wall_color": "concrete", "type": "yes", "landmark": null, "footprint_source": "osm", "source_updated": null, "is_part": false, "parent": null, "hidden": false, "addr": "1727 East Main Street", "wikidata": null, "website": "http://www.facebook.com/pages/Wonderland-RVA/236078742848", "zoning": "B-5", "lidar_p90": 13.48, "ground_z": 8.9 }, "geometry": { "type": "Polygon", "coordinates": [ [ [ 285462.33, 4156745.59 ], [ 285453.84, 4156752.55 ], [ 285469.07, 4156770.97 ], [ 285477.55, 4156764.02 ], [ 285462.33, 4156745.59 ] ] ] } },
{ "type": "Feature", "properties": { "id": "osm:way/207696522", "name": "Sumo San Restaurant", "height": 8.59, "min_height": 0.0, "levels": null, "height_source": "lidar", "roof_shape": "flat", "roof_height": 8.47, "roof_azimuth": null, "roof_source": "lod2", "roof_color": "roof_flat", "roof_color_source": "ortho", "lod2_roof": { "v": [ [ 285455.36, 4156754.39, 8.47 ], [ 285455.36, 4156754.39, 0.0 ], [ 285469.07, 4156770.97, 1.08 ], [ 285468.27, 4156771.62, 0.61 ], [ 285463.84, 4156775.26, 0.62 ], [ 285468.27, 4156771.62, 0.78 ], [ 285454.29, 4156753.1, 0.0 ], [ 285457.48, 4156758.13, 0.0 ], [ 285457.48, 4156758.13, 6.8 ], [ 285449.32, 4156757.68, 0.0 ] ], "f": [ [ [ 8, 0, 2, 5 ] ], [ [ 9, 6, 1, 7, 3, 4 ] ], [ [ 5, 3, 7, 8 ] ], [ [ 8, 7, 1, 0 ] ] ] }, "roof_props": null, "wall_color": "cream", "type": "yes", "landmark": null, "footprint_source": "osm", "source_updated": null, "is_part": false, "parent": null, "hidden": false, "addr": "1725 East Main Street", "wikidata": null, "website": "http://www.sumosanrva.com", "zoning": "B-5", "lidar_p90": 8.95, "ground_z": 8.56 }, "geometry": { "type": "Polygon", "coordinates": [ [ [ 285448.62, 4156756.83 ], [ 285463.84, 4156775.26 ], [ 285469.07, 4156770.97 ], [ 285453.84, 4156752.55 ], [ 285448.62, 4156756.83 ] ] ] } },
{ "type": "Feature", "properties": { "id": "osm:way/207703640", "name": null, "height": 9.17, "min_height": 0.0, "levels": null, "height_source": "lidar", "roof_shape": "flat", "roof_height": 0.85, "roof_azimuth": null, "roof_source": "lod2", "roof_color": "roof_flat", "roof_color_source": "ortho", "lod2_roof": { "v": [ [ 285368.97, 4156769.23, 0.8 ], [ 285355.44, 4156780.31, 0.0 ], [ 285350.64, 4156774.52, 0.0 ], [ 285354.9, 4156771.02, 0.0 ], [ 285352.3, 4156752.71, 0.63 ], [ 285354.11, 4156751.23, 0.85 ], [ 285349.63, 4156764.63, 0.0 ] ], "f": [ [ [ 5, 0, 1, 2, 3, 6, 4 ] ] ] }, "roof_props": null, "wall_color": "sand", "type": "yes", "landmark": null, "footprint_source": "osm", "source_updated": null, "is_part": false, "parent": null, "hidden": false, "addr": "16 South 17th Street", "wikidata": null, "website": null, "zoning": "B-5", "lidar_p90": 9.75, "ground_z": 5.95 }, "geometry": { "type": "Polygon", "coordinates": [ [ [ 285354.11, 4156751.23 ], [ 285352.3, 4156752.71 ], [ 285349.63, 4156764.63 ], [ 285354.9, 4156771.02 ], [ 285350.64, 4156774.52 ], [ 285355.44, 4156780.31 ], [ 285368.97, 4156769.22 ], [ 285354.11, 4156751.23 ] ] ] } },
{ "type": "Feature", "properties": { "id": "osm:way/207696504", "name": null, "height": 8.06, "min_height": 0.0, "levels": null, "height_source": "lidar", "roof_shape": "skillion", "roof_height": 1.08, "roof_azimuth": 30.6, "roof_source": "lod2", "roof_color": "roof_flat", "roof_color_source": "ortho", "lod2_roof": { "v": [ [ 285463.84, 4156775.26, 1.08 ], [ 285459.45, 4156778.86, 0.85 ], [ 285448.62, 4156756.83, 0.18 ], [ 285444.22, 4156760.43, 0.0 ] ], "f": [ [ [ 1, 3, 2, 0 ] ] ] }, "roof_props": null, "wall_color": "terracotta", "type": "yes", "landmark": null, "footprint_source": "osm", "source_updated": null, "is_part": false, "parent": null, "hidden": false, "addr": "1721 East Main Street", "wikidata": null, "website": null, "zoning": "B-5", "lidar_p90": 9.33, "ground_z": 8.38 }, "geometry": { "type": "Polygon", "coordinates": [ [ [ 285444.22, 4156760.43 ], [ 285459.45, 4156778.86 ], [ 285463.84, 4156775.26 ], [ 285448.62, 4156756.83 ], [ 285444.22, 4156760.43 ] ] ] } },
{ "type": "Feature", "properties": { "id": "osm:way/207696503", "name": null, "height": 8.14, "min_height": 0.0, "levels": null, "height_source": "lidar", "roof_shape": "gable", "roof_height": 0.92, "roof_azimuth": 39.6, "roof_source": "lod2", "roof_color": "roof_flat", "roof_color_source": "ortho", "lod2_roof": { "v": [ [ 285459.45, 4156778.86, 0.92 ], [ 285455.45, 4156782.14, 0.87 ], [ 285444.22, 4156760.43, 0.05 ], [ 285440.23, 4156763.71, 0.0 ] ], "f": [ [ [ 1, 3, 2, 0 ] ] ] }, "roof_props": null, "wall_color": "brick", "type": "yes", "landmark": null, "footprint_source": "osm", "source_updated": null, "is_part": false, "parent": null, "hidden": false, "addr": "1719 East Main Street", "wikidata": null, "website": null, "zoning": "B-5", "lidar_p90": 9.37, "ground_z": 8.26 }, "geometry": { "type": "Polygon", "coordinates": [ [ [ 285440.23, 4156763.71 ], [ 285455.45, 4156782.14 ], [ 285459.45, 4156778.86 ], [ 285444.22, 4156760.43 ], [ 285440.23, 4156763.71 ] ] ] } },
{ "type": "Feature", "properties": { "id": "osm:way/207696499", "name": null, "height": 11.68, "min_height": 0.0, "levels": null, "height_source": "lidar", "roof_shape": "flat", "roof_height": 0.0, "roof_azimuth": null, "roof_source": "heuristic", "roof_color": "concrete", "roof_color_source": "ortho", "lod2_roof": null, "roof_props": null, "wall_color": "cream", "type": "yes", "landmark": null, "footprint_source": "osm", "source_updated": null, "is_part": false, "parent": null, "hidden": false, "addr": "1711 East Main Street", "wikidata": null, "website": null, "zoning": "B-5", "lidar_p90": 12.52, "ground_z": 7.36 }, "geometry": { "type": "Polygon", "coordinates": [ [ [ 285410.4, 4156751.25 ], [ 285406.25, 4156754.65 ], [ 285439.67, 4156795.08 ], [ 285443.81, 4156791.68 ], [ 285410.4, 4156751.25 ] ] ] } },
{ "type": "Feature", "properties": { "id": "osm:way/207696502", "name": null, "height": 8.88, "min_height": 0.0, "levels": null, "height_source": "lidar", "roof_shape": "flat", "roof_height": 2.64, "roof_azimuth": null, "roof_source": "lod2", "roof_color": "slate", "roof_color_source": "ortho", "lod2_roof": { "v": [ [ 285455.45, 4156782.14, 0.43 ], [ 285451.29, 4156785.54, 0.4 ], [ 285445.9, 4156774.26, 1.81 ], [ 285445.9, 4156774.26, 0.0 ], [ 285444.77, 4156774.77, 0.0 ], [ 285444.77, 4156774.77, 1.9 ], [ 285436.06, 4156767.13, 0.0 ], [ 285440.23, 4156763.71, 0.0 ], [ 285443.5, 4156773.09, 2.64 ], [ 285443.5, 4156773.09, 0.0 ], [ 285444.87, 4156772.36, 0.0 ], [ 285444.87, 4156772.36, 2.56 ] ], "f": [ [ [ 1, 6, 7, 0 ], [ 3, 10, 9, 4 ] ], [ [ 11, 2, 5, 8 ] ], [ [ 2, 3, 4, 5 ] ], [ [ 8, 9, 10, 11 ] ], [ [ 5, 4, 9, 8 ] ], [ [ 11, 10, 3, 2 ] ] ] }, "roof_props": null, "wall_color": "brick", "type": "yes", "landmark": null, "footprint_source": "osm", "source_updated": null, "is_part": false, "parent": null, "hidden": false, "addr": "1717 East Main Street", "wikidata": null, "website": null, "zoning": "B-5", "lidar_p90": 10.84, "ground_z": 8.11 }, "geometry": { "type": "Polygon", "coordinates": [ [ [ 285436.06, 4156767.12 ], [ 285451.29, 4156785.54 ], [ 285455.45, 4156782.14 ], [ 285440.23, 4156763.71 ], [ 285436.06, 4156767.12 ] ] ] } },
{ "type": "Feature", "properties": { "id": "osm:way/207703623", "name": null, "height": 19.84, "min_height": 0.0, "levels": null, "height_source": "lidar", "roof_shape": "flat", "roof_height": 0.0, "roof_azimuth": null, "roof_source": "heuristic", "roof_color": "concrete", "roof_color_source": "heuristic", "lod2_roof": null, "roof_props": null, "wall_color": "cream", "type": "yes", "landmark": null, "footprint_source": "osm", "source_updated": null, "is_part": false, "parent": null, "hidden": false, "addr": null, "wikidata": null, "website": null, "zoning": "B-5", "lidar_p90": 24.3, "ground_z": 5.92 }, "geometry": { "type": "Polygon", "coordinates": [ [ [ 285370.83, 4156772.19 ], [ 285366.52, 4156775.72 ], [ 285369.33, 4156779.12 ], [ 285373.64, 4156775.59 ], [ 285370.83, 4156772.19 ] ] ] } },
{ "type": "Feature", "properties": { "id": "osm:way/207696515", "name": "POSH", "height": 5.27, "min_height": 0.0, "levels": null, "height_source": "lidar", "roof_shape": "flat", "roof_height": 4.29, "roof_azimuth": null, "roof_source": "lod2", "roof_color": "roof_flat", "roof_color_source": "ortho", "lod2_roof": { "v": [ [ 285450.05, 4156786.56, 0.1 ], [ 285443.81, 4156791.68, 0.09 ], [ 285451.29, 4156785.54, 4.04 ], [ 285450.05, 4156786.56, 4.29 ], [ 285436.06, 4156767.13, 3.14 ], [ 285435.34, 4156767.71, 3.28 ], [ 285435.34, 4156767.71, 0.01 ], [ 285428.58, 4156773.26, 0.0 ] ], "f": [ [ [ 3, 5, 4, 2 ] ], [ [ 1, 7, 6, 0 ] ], [ [ 3, 0, 6, 5 ] ] ] }, "roof_props": null, "wall_color": "terracotta", "type": "yes", "landmark": null, "footprint_source": "osm", "source_updated": null, "is_part": false, "parent": null, "hidden": false, "addr": "1713 East Main Street", "wikidata": null, "website": "http://www.facebook.com/pages/POSH-Resturant-and-Nightlife/119499083416", "zoning": "B-5", "lidar_p90": 5.49, "ground_z": 8.01 }, "geometry": { "type": "Polygon", "coordinates": [ [ [ 285428.58, 4156773.26 ], [ 285443.81, 4156791.68 ], [ 285451.29, 4156785.54 ], [ 285436.06, 4156767.12 ], [ 285428.58, 4156773.26 ] ] ] } },
{ "type": "Feature", "properties": { "id": "osm:way/207696489", "name": null, "height": 9.37, "min_height": 0.0, "levels": null, "height_source": "lidar", "roof_shape": "flat", "roof_height": 3.11, "roof_azimuth": null, "roof_source": "lod2", "roof_color": "roof_flat", "roof_color_source": "ortho", "lod2_roof": { "v": [ [ 285439.67, 4156795.08, 2.99 ], [ 285437.94, 4156796.5, 0.81 ], [ 285437.94, 4156796.5, 3.11 ], [ 285422.51, 4156776.3, 0.02 ], [ 285422.51, 4156776.3, 2.66 ], [ 285417.58, 4156780.33, 0.0 ], [ 285423.48, 4156775.5, 2.6 ], [ 285433.77, 4156799.91, 0.79 ] ], "f": [ [ [ 4, 6, 0, 2 ] ], [ [ 1, 7, 5, 3 ] ], [ [ 2, 1, 3, 4 ] ] ] }, "roof_props": null, "wall_color": "terracotta", "type": "yes", "landmark": null, "footprint_source": "osm", "source_updated": null, "is_part": false, "parent": null, "hidden": false, "addr": "1707 East Main Street", "wikidata": null, "website": null, "zoning": "B-5", "lidar_p90": 11.91, "ground_z": 7.27 }, "geometry": { "type": "Polygon", "coordinates": [ [ [ 285423.48, 4156775.5 ], [ 285417.58, 4156780.33 ], [ 285433.77, 4156799.91 ], [ 285439.67, 4156795.08 ], [ 285423.48, 4156775.5 ] ] ] } },
{ "type": "Feature", "properties": { "id": "osm:way/207703637", "name": "Jackson Warehouse Lofts", "height": 20.73, "min_height": 0.0, "levels": null, "height_source": "osm_height", "roof_shape": "flat", "roof_height": 0.0, "roof_azimuth": null, "roof_source": "lidar", "roof_color": "roof_flat", "roof_color_source": "ortho", "lod2_roof": null, "roof_props": null, "wall_color": "cream", "type": "yes", "landmark": null, "footprint_source": "osm", "source_updated": null, "is_part": false, "parent": null, "hidden": false, "addr": "12 South 17th Street", "wikidata": null, "website": null, "zoning": "B-5", "lidar_p90": 20.98, "ground_z": 5.85 }, "geometry": { "type": "Polygon", "coordinates": [ [ [ 285373.64, 4156775.59 ], [ 285356.79, 4156789.39 ], [ 285366.31, 4156800.91 ], [ 285383.17, 4156787.1 ], [ 285373.64, 4156775.59 ] ] ] } },
{ "type": "Feature", "properties": { "id": "osm:way/207706411", "name": null, "height": 9.72, "min_height": 0.0, "levels": null, "height_source": "lidar", "roof_shape": "flat", "roof_height": 0.52, "roof_azimuth": null, "roof_source": "lod2", "roof_color": "roof_flat", "roof_color_source": "ortho", "lod2_roof": { "v": [ [ 285497.98, 4156778.11, 0.47 ], [ 285507.7, 4156790.34, 0.0 ], [ 285496.27, 4156799.33, 0.0 ], [ 285486.57, 4156787.09, 0.52 ] ], "f": [ [ [ 3, 0, 1, 2 ] ] ] }, "roof_props": null, "wall_color": "brick", "type": "yes", "landmark": null, "footprint_source": "osm", "source_updated": null, "is_part": false, "parent": null, "hidden": false, "addr": "26 East Main Street", "wikidata": null, "website": null, "zoning": "B-5", "lidar_p90": 10.4, "ground_z": 9.09 }, "geometry": { "type": "Polygon", "coordinates": [ [ [ 285496.27, 4156799.33 ], [ 285507.7, 4156790.34 ], [ 285497.98, 4156778.11 ], [ 285486.57, 4156787.08 ], [ 285496.27, 4156799.33 ] ] ] } },
{ "type": "Feature", "properties": { "id": "osm:way/207696498", "name": "VLR Law Office", "height": 12.85, "min_height": 0.0, "levels": null, "height_source": "lidar", "roof_shape": "flat", "roof_height": 0.0, "roof_azimuth": null, "roof_source": "heuristic", "roof_color": "roof_flat", "roof_color_source": "ortho", "lod2_roof": null, "roof_props": null, "wall_color": "brick", "type": "yes", "landmark": null, "footprint_source": "osm", "source_updated": null, "is_part": false, "parent": null, "hidden": false, "addr": "1705 East Main Street", "wikidata": null, "website": "http://www.4vlaw.com/", "zoning": "B-5", "lidar_p90": 13.58, "ground_z": 6.98 }, "geometry": { "type": "Polygon", "coordinates": [ [ [ 285415.95, 4156778.36 ], [ 285407.89, 4156784.96 ], [ 285425.7, 4156806.52 ], [ 285433.77, 4156799.91 ], [ 285415.95, 4156778.36 ] ] ] } },
{ "type": "Feature", "properties": { "id": "osm:way/207696490", "name": null, "height": 11.93, "min_height": 0.0, "levels": null, "height_source": "lidar", "roof_shape": "gable", "roof_height": 0.65, "roof_azimuth": 129.6, "roof_source": "lidar", "roof_color": "slate", "roof_color_source": "ortho", "lod2_roof": null, "roof_props": null, "wall_color": "cream", "type": "yes", "landmark": null, "footprint_source": "osm", "source_updated": null, "is_part": false, "parent": null, "hidden": false, "addr": "1701 East Main Street", "wikidata": null, "website": null, "zoning": "B-5", "lidar_p90": 14.25, "ground_z": 6.83 }, "geometry": { "type": "Polygon", "coordinates": [ [ [ 285402.94, 4156789.02 ], [ 285420.75, 4156810.57 ], [ 285425.7, 4156806.52 ], [ 285407.89, 4156784.96 ], [ 285402.94, 4156789.02 ] ] ] } },
{ "type": "Feature", "properties": { "id": "osm:way/207703639", "name": null, "height": 12.82, "min_height": 0.0, "levels": null, "height_source": "lidar", "roof_shape": "flat", "roof_height": 12.87, "roof_azimuth": null, "roof_source": "lod2", "roof_color": "roof_flat", "roof_color_source": "ortho", "lod2_roof": { "v": [ [ 285344.13, 4156819.09, 0.05 ], [ 285344.13, 4156819.09, 0.0 ], [ 285343.0, 4156820.01, 0.0 ], [ 285343.97, 4156818.76, 0.0 ], [ 285361.1, 4156794.6, 8.73 ], [ 285364.76, 4156799.02, 8.6 ], [ 285356.79, 4156789.39, 10.19 ], [ 285361.1, 4156794.6, 10.17 ], [ 285347.51, 4156807.53, 1.12 ], [ 285347.51, 4156807.53, 1.37 ], [ 285347.96, 4156807.82, 1.26 ], [ 285355.86, 4156790.16, 10.25 ], [ 285355.86, 4156790.16, 0.0 ], [ 285343.58, 4156802.93, 0.0 ], [ 285344.82, 4156805.81, 0.69 ], [ 285344.82, 4156805.81, 0.28 ], [ 285343.58, 4156802.93, 0.05 ], [ 285365.08, 4156801.92, 0.01 ], [ 285366.31, 4156800.91, 12.78 ], [ 285365.08, 4156801.92, 12.87 ], [ 285364.36, 4156800.37, 0.35 ], [ 285364.36, 4156800.37, 8.46 ], [ 285364.36, 4156800.37, 12.82 ], [ 285360.42, 4156795.71, 8.58 ], [ 285360.42, 4156795.71, 10.23 ], [ 285360.42, 4156795.71, 1.38 ], [ 285359.16, 4156797.52, 8.34 ], [ 285359.16, 4156797.52, 1.49 ], [ 285359.49, 4156797.24, 1.49 ], [ 285359.49, 4156797.24, 8.39 ], [ 285361.63, 4156801.39, 8.18 ], [ 285361.63, 4156801.39, 0.54 ], [ 285343.67, 4156800.15, 0.0 ], [ 285363.99, 4156799.57, 12.8 ], [ 285363.99, 4156799.57, 8.5 ], [ 285364.76, 4156799.02, 12.75 ] ], "f": [ [ [ 24, 11, 6, 7 ] ], [ [ 15, 8, 10, 3, 0, 2, 13 ] ], [ [ 31, 20, 17, 1, 3, 10, 9, 27 ] ], [ [ 32, 12, 25, 28, 27, 9, 14, 16 ] ], [ [ 34, 21, 30, 26, 29, 23, 4, 5 ] ], [ [ 35, 18, 19, 22, 33 ] ], [ [ 1, 0, 3 ] ], [ [ 8, 9, 10 ] ], [ [ 14, 15, 13, 16 ] ], [ [ 19, 17, 20, 21, 22 ] ], [ [ 7, 4, 23, 24 ] ], [ [ 24, 23, 25, 12, 11 ] ], [ [ 26, 27, 28, 29 ] ], [ [ 30, 31, 27, 26 ] ], [ [ 9, 8, 15, 14 ] ], [ [ 21, 20, 31, 30 ] ], [ [ 33, 34, 5, 35 ] ], [ [ 29, 28, 25, 23 ] ], [ [ 22, 21, 34, 33 ] ] ] }, "roof_props": null, "wall_color": "brick", "type": "yes", "landmark": null, "footprint_source": "osm", "source_updated": null, "is_part": false, "parent": null, "hidden": false, "addr": "14 South 17th Street", "wikidata": null, "website": null, "zoning": "B-5", "lidar_p90": 20.13, "ground_z": 5.37 }, "geometry": { "type": "Polygon", "coordinates": [ [ [ 285343.67, 4156800.15 ], [ 285343.0, 4156820.01 ], [ 285366.31, 4156800.91 ], [ 285356.79, 4156789.39 ], [ 285343.67, 4156800.15 ] ] ] } },
{ "type": "Feature", "properties": { "id": "osm:way/207703631", "name": null, "height": 10.0, "min_height": 0.0, "levels": null, "height_source": "lidar", "roof_shape": "flat", "roof_height": 1.15, "roof_azimuth": null, "roof_source": "lod2", "roof_color": "roof_flat", "roof_color_source": "ortho", "lod2_roof": { "v": [ [ 285477.87, 4156793.94, 1.0 ], [ 285495.21, 4156815.8, 0.0 ], [ 285490.76, 4156819.29, 0.0 ], [ 285473.42, 4156797.43, 1.15 ] ], "f": [ [ [ 3, 0, 1, 2 ] ] ] }, "roof_props": null, "wall_color": "terracotta", "type": "yes", "landmark": null, "footprint_source": "osm", "source_updated": null, "is_part": false, "parent": null, "hidden": false, "addr": "1716 East Main Street", "wikidata": null, "website": null, "zoning": "B-5", "lidar_p90": 11.16, "ground_z": 8.11 }, "geometry": { "type": "Polygon", "coordinates": [ [ [ 285490.76, 4156819.29 ], [ 285495.21, 4156815.8 ], [ 285477.87, 4156793.94 ], [ 285473.42, 4156797.43 ], [ 285490.76, 4156819.29 ] ] ] } },
{ "type": "Feature", "properties": { "id": "osm:way/207703626", "name": null, "height": 9.0, "min_height": 0.0, "levels": null, "height_source": "lidar", "roof_shape": "flat", "roof_height": 0.0, "roof_azimuth": null, "roof_source": "heuristic", "roof_color": "roof_flat", "roof_color_source": "ortho", "lod2_roof": null, "roof_props": null, "wall_color": "cream", "type": "yes", "landmark": null, "footprint_source": "osm", "source_updated": null, "is_part": false, "parent": null, "hidden": false, "addr": "1722 East Main Street", "wikidata": null, "website": null, "zoning": "B-5", "lidar_p90": 10.2, "ground_z": 8.8 }, "geometry": { "type": "Polygon", "coordinates": [ [ [ 285511.44, 4156826.53 ], [ 285515.4, 4156823.42 ], [ 285486.57, 4156787.08 ], [ 285482.62, 4156790.2 ], [ 285511.44, 4156826.53 ] ] ] } },
{ "type": "Feature", "properties": { "id": "osm:way/207703629", "name": null, "height": 8.89, "min_height": 0.0, "levels": null, "height_source": "lidar", "roof_shape": "flat", "roof_height": 0.0, "roof_azimuth": null, "roof_source": "heuristic", "roof_color": "roof_flat", "roof_color_source": "ortho", "lod2_roof": null, "roof_props": null, "wall_color": "brick", "type": "yes", "landmark": null, "footprint_source": "osm", "source_updated": null, "is_part": false, "parent": null, "hidden": false, "addr": "1720 East Main Street", "wikidata": null, "website": null, "zoning": "B-5", "lidar_p90": 10.63, "ground_z": 8.33 }, "geometry": { "type": "Polygon", "coordinates": [ [ [ 285482.62, 4156790.2 ], [ 285477.87, 4156793.94 ], [ 285506.7, 4156830.27 ], [ 285511.44, 4156826.53 ], [ 285482.62, 4156790.2 ] ] ] } },
{ "type": "Feature", "properties": { "id": "osm:way/207703627", "name": null, "height": 8.43, "min_height": 0.0, "levels": null, "height_source": "lidar", "roof_shape": "flat", "roof_height": 2.85, "roof_azimuth": null, "roof_source": "lod2", "roof_color": "roof_flat", "roof_color_source": "ortho", "lod2_roof": { "v": [ [ 285489.92, 4156819.95, 0.0 ], [ 285484.13, 4156824.51, 0.0 ], [ 285490.76, 4156819.29, 1.56 ], [ 285489.92, 4156819.95, 0.0 ], [ 285473.65, 4156799.07, 2.0 ], [ 285473.65, 4156799.07, 0.83 ], [ 285471.75, 4156799.76, 0.87 ], [ 285471.75, 4156799.76, 2.0 ], [ 285471.75, 4156799.76, 0.0 ], [ 285472.92, 4156798.86, 0.0 ], [ 285472.92, 4156798.86, 2.0 ], [ 285467.24, 4156803.22, 0.0 ], [ 285466.79, 4156802.65, 0.0 ], [ 285472.41, 4156798.22, 0.0 ], [ 285481.7, 4156815.2, 0.0 ], [ 285481.7, 4156815.2, 0.0 ], [ 285478.53, 4156817.46, 0.0 ], [ 285478.53, 4156817.46, 0.0 ], [ 285485.66, 4156816.3, 0.0 ], [ 285485.66, 4156816.3, 0.0 ], [ 285487.1, 4156815.38, 0.0 ], [ 285487.1, 4156815.38, 1.14 ], [ 285473.28, 4156798.59, 2.0 ], [ 285473.65, 4156799.07, 2.77 ], [ 285473.28, 4156798.59, 2.81 ], [ 285472.92, 4156798.14, 2.85 ], [ 285487.47, 4156815.14, 1.26 ], [ 285487.47, 4156815.14, 1.8 ], [ 285487.19, 4156815.32, 1.3 ], [ 285487.1, 4156815.38, 1.31 ], [ 285467.24, 4156803.22, 0.87 ], [ 285483.65, 4156817.59, 0.0 ], [ 285483.65, 4156817.59, 0.0 ], [ 285482.11, 4156815.3, 0.0 ], [ 285482.11, 4156815.3, 0.0 ], [ 285482.11, 4156815.3, 0.0 ], [ 285481.93, 4156815.04, 0.0 ], [ 285481.93, 4156815.04, 0.0 ], [ 285485.66, 4156816.3, 0.0 ], [ 285473.43, 4156797.45, 2.78 ], [ 285484.41, 4156813.24, 0.0 ], [ 285484.41, 4156813.24, 0.0 ], [ 285484.41, 4156813.24, 1.61 ], [ 285484.6, 4156813.01, 0.0 ], [ 285484.6, 4156813.01, 1.59 ], [ 285484.35, 4156813.32, 0.0 ], [ 285484.35, 4156813.32, 0.0 ] ], "f": [ [ [ 22, 4, 7, 10 ] ], [ [ 8, 11, 12, 13, 9 ] ], [ [ 3, 18, 21, 28, 27, 2 ] ], [ [ 46, 40, 20, 19, 31, 34, 37 ] ], [ [ 32, 38, 0, 1, 16, 15, 33 ] ], [ [ 44, 23, 24, 25, 39, 26, 28, 29, 42 ] ], [ [ 5, 43, 41, 45, 36, 35, 14, 17, 30, 6 ] ], [ [ 4, 5, 6, 7 ] ], [ [ 7, 6, 8, 9, 10 ] ], [ [ 14, 15, 16, 17 ] ], [ [ 18, 19, 20, 21 ] ], [ [ 23, 4, 22, 24 ] ], [ [ 26, 27, 28 ] ], [ [ 21, 29, 28 ] ], [ [ 31, 32, 33, 34 ] ], [ [ 35, 34, 33, 15, 14 ] ], [ [ 30, 11, 8, 6 ] ], [ [ 36, 37, 34, 35 ] ], [ [ 3, 0, 38, 19, 18 ] ], [ [ 29, 21, 20, 40, 41, 42 ] ], [ [ 42, 41, 43, 44 ] ], [ [ 19, 38, 32, 31 ] ], [ [ 45, 46, 37, 36 ] ], [ [ 41, 40, 46, 45 ] ], [ [ 44, 43, 5, 4, 23 ] ] ] }, "roof_props": null, "wall_color": "concrete", "type": "yes", "landmark": null, "footprint_source": "osm", "source_updated": null, "is_part": false, "parent": null, "hidden": false, "addr": "1714 East Main Street", "wikidata": null, "website": null, "zoning": "B-5", "lidar_p90": 9.85, "ground_z": 7.85 }, "geometry": { "type": "Polygon", "coordinates": [ [ [ 285473.42, 4156797.43 ], [ 285466.79, 4156802.65 ], [ 285484.13, 4156824.51 ], [ 285490.76, 4156819.29 ], [ 285473.42, 4156797.43 ] ] ] } },
{ "type": "Feature", "properties": { "id": "osm:way/207703636", "name": null, "height": 12.8, "min_height": 0.0, "levels": 4.0, "height_source": "osm_levels", "roof_shape": "flat", "roof_height": 0.0, "roof_azimuth": null, "roof_source": "heuristic", "roof_color": "roof_flat", "roof_color_source": "ortho", "lod2_roof": null, "roof_props": null, "wall_color": "sand", "type": "yes", "landmark": null, "footprint_source": "osm", "source_updated": null, "is_part": false, "parent": null, "hidden": false, "addr": "1551-1561 East Main Street", "wikidata": null, "website": null, "zoning": "B-5", "lidar_p90": 13.64, "ground_z": 6.7 }, "geometry": { "type": "Polygon", "coordinates": [ [ [ 285390.06, 4156795.44 ], [ 285359.63, 4156820.38 ], [ 285378.87, 4156843.67 ], [ 285409.29, 4156818.73 ], [ 285390.06, 4156795.44 ] ] ] } },
{ "type": "Feature", "properties": { "id": "osm:way/207703625", "name": null, "height": 8.82, "min_height": 0.0, "levels": null, "height_source": "lidar", "roof_shape": "flat", "roof_height": 2.04, "roof_azimuth": null, "roof_source": "lod2", "roof_color": "roof_flat", "roof_color_source": "ortho", "lod2_roof": { "v": [ [ 285476.9, 4156826.98, 1.06 ], [ 285479.69, 4156830.5, 0.7 ], [ 285476.36, 4156827.37, 1.12 ], [ 285476.36, 4156827.37, 1.05 ], [ 285476.36, 4156827.37, 0.0 ], [ 285460.67, 4156808.5, 1.33 ], [ 285460.67, 4156808.5, 1.76 ], [ 285475.87, 4156827.73, 1.04 ], [ 285475.87, 4156827.73, 0.0 ], [ 285453.52, 4156814.19, 1.29 ], [ 285460.15, 4156807.88, 1.78 ], [ 285452.89, 4156813.58, 1.36 ], [ 285452.98, 4156813.51, 1.36 ], [ 285468.41, 4156833.15, 0.0 ], [ 285468.41, 4156833.15, 0.0 ], [ 285471.46, 4156836.99, 0.0 ], [ 285479.02, 4156831.03, 0.68 ], [ 285479.02, 4156831.03, 0.0 ], [ 285475.87, 4156827.73, 0.0 ], [ 285461.13, 4156807.11, 2.04 ], [ 285476.9, 4156826.98, 1.26 ] ], "f": [ [ [ 20, 2, 6, 10, 19 ] ], [ [ 1, 16, 7, 3, 0 ] ], [ [ 8, 13, 11, 12, 9, 5, 4 ] ], [ [ 17, 15, 14, 18 ] ], [ [ 2, 3, 4, 5, 6 ] ], [ [ 7, 8, 4, 3 ] ], [ [ 16, 17, 18, 8, 7 ] ], [ [ 20, 0, 3, 2 ] ], [ [ 8, 18, 14, 13 ] ] ] }, "roof_props": null, "wall_color": "sand", "type": "yes", "landmark": null, "footprint_source": "osm", "source_updated": null, "is_part": false, "parent": null, "hidden": false, "addr": "1708 East Main Street", "wikidata": null, "website": null, "zoning": "B-5", "lidar_p90": 9.55, "ground_z": 7.64 }, "geometry": { "type": "Polygon", "coordinates": [ [ [ 285471.46, 4156836.99 ], [ 285479.69, 4156830.5 ], [ 285461.13, 4156807.11 ], [ 285452.89, 4156813.58 ], [ 285471.46, 4156836.99 ] ] ] } },
{ "type": "Feature", "properties": { "id": "osm:way/207703630", "name": null, "height": 9.6, "min_height": 0.0, "levels": 3.0, "height_source": "osm_levels", "roof_shape": "flat", "roof_height": 0.81, "roof_azimuth": null, "roof_source": "lod2", "roof_color": "roof_flat", "roof_color_source": "ortho", "lod2_roof": { "v": [ [ 285452.89, 4156813.58, 0.81 ], [ 285461.96, 4156825.02, 0.0 ], [ 285453.58, 4156831.3, 0.02 ], [ 285444.67, 4156820.06, 0.81 ] ], "f": [ [ [ 3, 0, 1, 2 ] ] ] }, "roof_props": null, "wall_color": "concrete", "type": "yes", "landmark": null, "footprint_source": "osm", "source_updated": null, "is_part": false, "parent": null, "hidden": false, "addr": "1704, 1706 East Main Street", "wikidata": null, "website": null, "zoning": "B-5", "lidar_p90": 10.18, "ground_z": 7.49 }, "geometry": { "type": "Polygon", "coordinates": [ [ [ 285453.58, 4156831.3 ], [ 285461.96, 4156825.02 ], [ 285452.89, 4156813.58 ], [ 285444.67, 4156820.06 ], [ 285453.58, 4156831.3 ] ] ] } },
{ "type": "Feature", "properties": { "id": "osm:way/207703632", "name": null, "height": 9.28, "min_height": 0.0, "levels": null, "height_source": "lidar", "roof_shape": "flat", "roof_height": 0.0, "roof_azimuth": null, "roof_source": "heuristic", "roof_color": "roof_flat", "roof_color_source": "ortho", "lod2_roof": null, "roof_props": null, "wall_color": "cream", "type": "yes", "landmark": null, "footprint_source": "osm", "source_updated": null, "is_part": false, "parent": null, "hidden": false, "addr": "1712 East Main Street", "wikidata": null, "website": null, "zoning": "B-5", "lidar_p90": 10.3, "ground_z": 7.7 }, "geometry": { "type": "Polygon", "coordinates": [ [ [ 285489.96, 4156843.44 ], [ 285495.62, 4156838.99 ], [ 285466.79, 4156802.65 ], [ 285461.13, 4156807.11 ], [ 285489.96, 4156843.44 ] ] ] } },
{ "type": "Feature", "properties": { "id": "osm:way/207703642", "name": null, "height": 6.4, "min_height": 0.0, "levels": 2.0, "height_source": "osm_levels", "roof_shape": "flat", "roof_height": 0.0, "roof_azimuth": null, "roof_source": "heuristic", "roof_color": "roof_flat", "roof_color_source": "ortho", "lod2_roof": null, "roof_props": null, "wall_color": "brick", "type": "yes", "landmark": null, "footprint_source": "osm", "source_updated": null, "is_part": false, "parent": null, "hidden": false, "addr": "1700 East Main Street", "wikidata": null, "website": null, "zoning": "B-5", "lidar_p90": 9.49, "ground_z": 7.16 }, "geometry": { "type": "Polygon", "coordinates": [ [ [ 285441.65, 4156837.81 ], [ 285452.19, 4156829.53 ], [ 285444.67, 4156820.06 ], [ 285434.13, 4156828.35 ], [ 285441.65, 4156837.81 ] ] ] } },
{ "type": "Feature", "properties": { "id": "richmond_structure:310862", "name": null, "height": 3.25, "min_height": 0.0, "levels": null, "height_source": "lidar", "roof_shape": "flat", "roof_height": 5.85, "roof_azimuth": null, "roof_source": "lod2", "roof_color": "roof_flat", "roof_color_source": "ortho", "lod2_roof": { "v": [ [ 285480.75, 4156833.36, 0.0 ], [ 285475.47, 4156837.38, 0.0 ], [ 285482.08, 4156832.35, 3.55 ], [ 285480.75, 4156833.36, 5.85 ], [ 285479.83, 4156831.83, 0.85 ], [ 285479.83, 4156831.83, 0.07 ], [ 285473.98, 4156835.24, 0.29 ], [ 285473.98, 4156835.24, 0.95 ], [ 285473.42, 4156834.44, 1.04 ], [ 285481.34, 4156831.46, 3.6 ], [ 285479.74, 4156829.52, 5.18 ], [ 285481.34, 4156831.46, 3.83 ], [ 285479.97, 4156831.75, 5.35 ], [ 285479.97, 4156831.75, 4.08 ], [ 285481.14, 4156831.5, 3.87 ], [ 285478.85, 4156830.22, 1.04 ], [ 285479.83, 4156831.83, 4.08 ], [ 285478.85, 4156830.22, 5.11 ], [ 285479.83, 4156831.83, 5.58 ] ], "f": [ [ [ 15, 4, 7, 8 ] ], [ [ 5, 0, 1, 6 ] ], [ [ 18, 12, 14, 9, 2, 3 ] ], [ [ 13, 16, 17, 10, 11, 14 ] ], [ [ 4, 5, 6, 7 ] ], [ [ 12, 13, 14 ] ], [ [ 11, 9, 14 ] ], [ [ 16, 4, 15, 17 ] ], [ [ 3, 0, 5, 4, 16, 18 ] ], [ [ 18, 16, 13, 12 ] ] ] }, "roof_props": null, "wall_color": "sand", "type": "yes", "landmark": null, "footprint_source": "richmond_structures", "source_updated": "2026-09-08T12:07:13.637000Z", "is_part": false, "parent": null, "hidden": false, "addr": null, "wikidata": null, "website": null, "zoning": "B-5", "lidar_p90": 7.65, "ground_z": 7.66 }, "geometry": { "type": "Polygon", "coordinates": [ [ [ 285479.74, 4156829.52 ], [ 285473.42, 4156834.44 ], [ 285475.47, 4156837.38 ], [ 285482.08, 4156832.35 ], [ 285479.74, 4156829.52 ] ] ] } },
{ "type": "Feature", "properties": { "id": "osm:way/207703652", "name": null, "height": 9.6, "min_height": 0.0, "levels": 3.0, "height_source": "osm_levels", "roof_shape": "gable", "roof_height": 0.21, "roof_azimuth": 143.2, "roof_source": "lidar", "roof_color": "roof_flat", "roof_color_source": "ortho", "lod2_roof": null, "roof_props": null, "wall_color": "terracotta", "type": "yes", "landmark": null, "footprint_source": "osm", "source_updated": null, "is_part": false, "parent": null, "hidden": false, "addr": "3 North 17th Street", "wikidata": null, "website": null, "zoning": "B-5", "lidar_p90": 11.65, "ground_z": 7.05 }, "geometry": { "type": "Polygon", "coordinates": [ [ [ 285445.95, 4156843.24 ], [ 285456.49, 4156834.95 ], [ 285452.19, 4156829.53 ], [ 285441.65, 4156837.81 ], [ 285445.95, 4156843.24 ] ] ] } },
{ "type": "Feature", "properties": { "id": "osm:way/207703648", "name": null, "height": 3.2, "min_height": 0.0, "levels": 1.0, "height_source": "osm_levels", "roof_shape": "flat", "roof_height": 2.52, "roof_azimuth": null, "roof_source": "lod2", "roof_color": "roof_flat", "roof_color_source": "ortho", "lod2_roof": { "v": [ [ 285469.53, 4156837.74, 0.0 ], [ 285468.51, 4156838.55, 0.15 ], [ 285464.18, 4156831.8, 0.81 ], [ 285464.18, 4156831.8, 0.11 ], [ 285468.51, 4156838.55, 0.81 ], [ 285452.33, 4156851.28, 1.21 ], [ 285446.55, 4156844.01, 1.23 ], [ 285463.76, 4156830.47, 0.8 ], [ 285460.7, 4156838.22, 2.46 ], [ 285460.7, 4156838.22, 0.94 ], [ 285462.01, 4156836.73, 0.9 ], [ 285462.01, 4156836.73, 2.52 ], [ 285464.58, 4156831.5, 0.05 ], [ 285464.58, 4156831.5, 0.8 ], [ 285463.11, 4156837.86, 0.89 ], [ 285463.11, 4156837.86, 2.47 ], [ 285462.06, 4156838.99, 0.92 ], [ 285462.06, 4156838.99, 2.43 ] ], "f": [ [ [ 13, 2, 4, 5, 6, 7 ], [ 9, 16, 14, 10 ] ], [ [ 12, 0, 1, 3 ] ], [ [ 17, 8, 11, 15 ] ], [ [ 2, 3, 1, 4 ] ], [ [ 8, 9, 10, 11 ] ], [ [ 13, 12, 3, 2 ] ], [ [ 11, 10, 14, 15 ] ], [ [ 15, 14, 16, 17 ] ], [ [ 17, 16, 9, 8 ] ] ] }, "roof_props": null, "wall_color": "concrete", "type": "yes", "landmark": null, "footprint_source": "osm", "source_updated": null, "is_part": false, "parent": null, "hidden": false, "addr": "7 North 17th Street", "wikidata": null, "website": null, "zoning": "B-5", "lidar_p90": 5.69, "ground_z": 7.05 }, "geometry": { "type": "Polygon", "coordinates": [ [ [ 285452.33, 4156851.27 ], [ 285469.54, 4156837.74 ], [ 285463.76, 4156830.47 ], [ 285446.55, 4156844.01 ], [ 285452.33, 4156851.27 ] ] ] } },
{ "type": "Feature", "properties": { "id": "osm:way/207703614", "name": "Addis Ethiopian Restaurant", "height": 3.2, "min_height": 0.0, "levels": 1.0, "height_source": "osm_levels", "roof_shape": "flat", "roof_height": 0.0, "roof_azimuth": null, "roof_source": "lidar", "roof_color": "roof_flat", "roof_color_source": "ortho", "lod2_roof": null, "roof_props": null, "wall_color": "cream", "type": "yes", "landmark": null, "footprint_source": "osm", "source_updated": null, "is_part": false, "parent": null, "hidden": false, "addr": "9 North 17th Street", "wikidata": null, "website": "http://addisrichmond.com", "zoning": "B-5", "lidar_p90": 5.39, "ground_z": 6.84 }, "geometry": { "type": "Polygon", "coordinates": [ [ [ 285458.48, 4156859.03 ], [ 285475.69, 4156845.5 ], [ 285469.54, 4156837.74 ], [ 285452.33, 4156851.27 ], [ 285458.48, 4156859.03 ] ] ] } },
{ "type": "Feature", "properties": { "id": "osm:way/822799798", "name": null, "height": 6.4, "min_height": 0.0, "levels": 2.0, "height_source": "osm_levels", "roof_shape": "flat", "roof_height": 0.44, "roof_azimuth": null, "roof_source": "lod2", "roof_color": "roof_flat", "roof_color_source": "ortho", "lod2_roof": { "v": [ [ 285501.17, 4156850.04, 0.44 ], [ 285496.88, 4156853.31, 0.02 ], [ 285492.91, 4156848.49, 0.0 ], [ 285496.94, 4156845.19, 0.41 ], [ 285497.55, 4156846.22, 0.4 ], [ 285498.0, 4156845.98, 0.44 ] ], "f": [ [ [ 4, 5, 0, 1, 2, 3 ] ] ] }, "roof_props": null, "wall_color": "brick", "type": "yes", "landmark": null, "footprint_source": "osm", "source_updated": null, "is_part": false, "parent": null, "hidden": false, "addr": null, "wikidata": null, "website": null, "zoning": "B-5", "lidar_p90": 6.3, "ground_z": 7.59 }, "geometry": { "type": "Polygon", "coordinates": [ [ [ 285501.17, 4156850.04 ], [ 285497.21, 4156844.96 ], [ 285492.91, 4156848.49 ], [ 285496.88, 4156853.31 ], [ 285501.17, 4156850.04 ] ] ] } },
{ "type": "Feature", "properties": { "id": "osm:way/822799797", "name": null, "height": 3.24, "min_height": 0.0, "levels": null, "height_source": "lidar", "roof_shape": "flat", "roof_height": 3.3, "roof_azimuth": null, "roof_source": "lod2", "roof_color": "roof_flat", "roof_color_source": "ortho", "lod2_roof": { "v": [ [ 285496.36, 4156853.74, 3.16 ], [ 285496.36, 4156853.74, 0.0 ], [ 285493.04, 4156849.09, 0.04 ], [ 285493.04, 4156849.09, 3.25 ], [ 285496.88, 4156853.31, 3.27 ], [ 285487.33, 4156861.2, 0.04 ], [ 285483.35, 4156856.18, 0.09 ], [ 285492.91, 4156848.49, 0.05 ], [ 285493.26, 4156848.92, 0.04 ], [ 285493.26, 4156848.92, 3.3 ] ], "f": [ [ [ 9, 4, 0, 3 ] ], [ [ 7, 8, 2, 1, 5, 6 ] ], [ [ 0, 1, 2, 3 ] ], [ [ 3, 2, 8, 9 ] ] ] }, "roof_props": null, "wall_color": "terracotta", "type": "yes", "landmark": null, "footprint_source": "osm", "source_updated": null, "is_part": false, "parent": null, "hidden": false, "addr": null, "wikidata": null, "website": null, "zoning": "B-5", "lidar_p90": 4.04, "ground_z": 7.23 }, "geometry": { "type": "Polygon", "coordinates": [ [ [ 285496.88, 4156853.31 ], [ 285492.91, 4156848.49 ], [ 285483.35, 4156856.18 ], [ 285487.33, 4156861.2 ], [ 285496.88, 4156853.31 ] ] ] } },
{ "type": "Feature", "properties": { "id": "osm:way/207703638", "name": "Alex's Thai Cuisine", "height": 6.4, "min_height": 0.0, "levels": 2.0, "height_source": "osm_levels", "roof_shape": "flat", "roof_height": 1.6, "roof_azimuth": null, "roof_source": "lod2", "roof_color": "roof_flat", "roof_color_source": "ortho", "lod2_roof": { "v": [ [ 285479.52, 4156851.65, 0.12 ], [ 285462.96, 4156864.68, 1.6 ], [ 285477.07, 4156846.34, 0.0 ], [ 285478.38, 4156847.99, 0.01 ], [ 285477.69, 4156848.35, 0.06 ], [ 285459.42, 4156860.22, 1.58 ] ], "f": [ [ [ 4, 0, 1, 5, 2, 3 ] ] ] }, "roof_props": null, "wall_color": "concrete", "type": "yes", "landmark": null, "footprint_source": "osm", "source_updated": null, "is_part": false, "parent": null, "hidden": false, "addr": "13 North 17th Street", "wikidata": null, "website": null, "zoning": "B-5", "lidar_p90": 8.47, "ground_z": 6.8 }, "geometry": { "type": "Polygon", "coordinates": [ [ [ 285462.96, 4156864.68 ], [ 285480.6, 4156850.8 ], [ 285477.07, 4156846.34 ], [ 285459.42, 4156860.22 ], [ 285462.96, 4156864.68 ] ] ] } },
{ "type": "Feature", "properties": { "id": "osm:way/1318909351", "name": null, "height": 3.64, "min_height": 0.0, "levels": null, "height_source": "lidar", "roof_shape": "flat", "roof_height": 0.0, "roof_azimuth": null, "roof_source": "heuristic", "roof_color": "roof_flat", "roof_color_source": "heuristic", "lod2_roof": null, "roof_props": null, "wall_color": "sand", "type": "yes", "landmark": null, "footprint_source": "osm", "source_updated": null, "is_part": false, "parent": null, "hidden": false, "addr": null, "wikidata": null, "website": null, "zoning": "B-5", "lidar_p90": 3.79, "ground_z": 6.49 }, "geometry": { "type": "Polygon", "coordinates": [ [ [ 285358.66, 4156862.86 ], [ 285372.54, 4156851.28 ], [ 285370.89, 4156849.2 ], [ 285356.86, 4156860.89 ], [ 285358.66, 4156862.86 ] ] ] } },
{ "type": "Feature", "properties": { "id": "osm:way/207703616", "name": "C'est le Vin Wine Bar", "height": 6.4, "min_height": 0.0, "levels": 2.0, "height_source": "osm_levels", "roof_shape": "flat", "roof_height": 1.84, "roof_azimuth": null, "roof_source": "lod2", "roof_color": "roof_flat", "roof_color_source": "ortho", "lod2_roof": { "v": [ [ 285487.33, 4156861.2, 0.0 ], [ 285485.74, 4156862.59, 0.0 ], [ 285466.65, 4156869.33, 1.84 ], [ 285476.27, 4156861.75, 0.56 ], [ 285476.27, 4156861.75, 1.15 ], [ 285483.07, 4156856.4, 0.0 ], [ 285483.35, 4156856.18, 0.0 ], [ 285485.67, 4156862.65, 0.92 ], [ 285486.15, 4156863.23, 0.0 ], [ 285486.15, 4156863.23, 0.96 ], [ 285485.74, 4156862.59, 0.91 ], [ 285483.07, 4156856.4, 0.5 ], [ 285486.04, 4156863.28, 0.96 ], [ 285486.04, 4156863.28, 0.78 ], [ 285483.4, 4156864.49, 0.94 ], [ 285481.05, 4156865.57, 1.08 ], [ 285481.05, 4156865.57, 0.92 ], [ 285486.04, 4156863.28, 0.0 ], [ 285488.57, 4156866.17, 0.0 ], [ 285487.63, 4156866.95, 0.84 ], [ 285487.63, 4156866.95, 0.0 ], [ 285473.93, 4156878.18, 1.84 ], [ 285477.57, 4156863.95, 0.72 ], [ 285477.57, 4156863.95, 1.17 ] ], "f": [ [ [ 1, 5, 6, 0 ] ], [ [ 20, 17, 8, 18 ] ], [ [ 23, 15, 14, 13, 19, 21, 2, 4 ] ], [ [ 16, 22, 3, 11, 10, 7, 9, 12, 14 ] ], [ [ 11, 5, 1, 10 ] ], [ [ 12, 13, 14 ] ], [ [ 15, 16, 14 ] ], [ [ 9, 8, 17, 13, 12 ] ], [ [ 13, 17, 20, 19 ] ], [ [ 4, 3, 22, 23 ] ], [ [ 23, 22, 16, 15 ] ] ] }, "roof_props": null, "wall_color": "terracotta", "type": "yes", "landmark": null, "footprint_source": "osm", "source_updated": null, "is_part": false, "parent": null, "hidden": false, "addr": "15-17 North 17th Street", "wikidata": null, "website": "https://www.cestlevinrva.com/", "zoning": "B-5", "lidar_p90": 8.23, "ground_z": 6.71 }, "geometry": { "type": "Polygon", "coordinates": [ [ [ 285466.65, 4156869.33 ], [ 285473.93, 4156878.18 ], [ 285488.57, 4156866.17 ], [ 285485.67, 4156862.65 ], [ 285487.33, 4156861.2 ], [ 285483.35, 4156856.18 ], [ 285466.65, 4156869.33 ] ] ] } },
{ "type": "Feature", "properties": { "id": "osm:way/207703641", "name": null, "height": 6.4, "min_height": 0.0, "levels": 2.0, "height_source": "osm_levels", "roof_shape": "flat", "roof_height": 0.94, "roof_azimuth": null, "roof_source": "lod2", "roof_color": "roof_flat", "roof_color_source": "heuristic", "lod2_roof": { "v": [ [ 285488.57, 4156866.17, 0.0 ], [ 285490.93, 4156869.02, 0.0 ], [ 285476.28, 4156881.03, 0.94 ], [ 285473.93, 4156878.18, 0.94 ] ], "f": [ [ [ 2, 3, 0, 1 ] ] ] }, "roof_props": null, "wall_color": "sand", "type": "yes", "landmark": null, "footprint_source": "osm", "source_updated": null, "is_part": false, "parent": null, "hidden": false, "addr": "1 -1/2 North 17th Street", "wikidata": null, "website": null, "zoning": "B-5", "lidar_p90": 8.01, "ground_z": 6.76 }, "geometry": { "type": "Polygon", "coordinates": [ [ [ 285490.93, 4156869.02 ], [ 285488.57, 4156866.17 ], [ 285473.93, 4156878.18 ], [ 285476.28, 4156881.03 ], [ 285490.93, 4156869.02 ] ] ] } },
{ "type": "Feature", "properties": { "id": "osm:way/207703643", "name": null, "height": 6.4, "min_height": 0.0, "levels": 2.0, "height_source": "osm_levels", "roof_shape": "skillion", "roof_height": 1.02, "roof_azimuth": 149.2, "roof_source": "lod2", "roof_color": "roof_flat", "roof_color_source": "ortho", "lod2_roof": { "v": [ [ 285490.93, 4156869.02, 0.04 ], [ 285493.7, 4156872.37, 0.0 ], [ 285479.05, 4156884.39, 0.98 ], [ 285476.28, 4156881.03, 1.02 ] ], "f": [ [ [ 2, 3, 0, 1 ] ] ] }, "roof_props": null, "wall_color": "concrete", "type": "yes", "landmark": null, "footprint_source": "osm", "source_updated": null, "is_part": false, "parent": null, "hidden": false, "addr": "19 North 17th Street", "wikidata": null, "website": null, "zoning": "B-5", "lidar_p90": 8.03, "ground_z": 6.85 }, "geometry": { "type": "Polygon", "coordinates": [ [ [ 285493.7, 4156872.37 ], [ 285490.93, 4156869.02 ], [ 285476.28, 4156881.03 ], [ 285479.05, 4156884.39 ], [ 285493.7, 4156872.37 ] ] ] } },
{ "type": "Feature", "properties": { "id": "osm:way/207703635", "name": null, "height": 16.0, "min_height": 0.0, "levels": 5.0, "height_source": "osm_levels", "roof_shape": "flat", "roof_height": 0.0, "roof_azimuth": null, "roof_source": "heuristic", "roof_color": "roof_flat", "roof_color_source": "ortho", "lod2_roof": null, "roof_props": null, "wall_color": "brick", "type": "yes", "landmark": null, "footprint_source": "osm", "source_updated": null, "is_part": false, "parent": null, "hidden": false, "addr": "1548 E Main St", "wikidata": null, "website": null, "zoning": "B-5", "lidar_p90": 19.47, "ground_z": 6.15 }, "geometry": { "type": "Polygon", "coordinates": [ [ [ 285421.48, 4156900.94 ], [ 285435.73, 4156889.27 ], [ 285408.44, 4156856.24 ], [ 285394.19, 4156867.92 ], [ 285421.48, 4156900.94 ] ] ] } },
{ "type": "Feature", "properties": { "id": "osm:way/207703646", "name": "Lulu's", "height": 7.64, "min_height": 0.0, "levels": null, "height_source": "lidar", "roof_shape": "flat", "roof_height": 1.16, "roof_azimuth": null, "roof_source": "lod2", "roof_color": "roof_flat", "roof_color_source": "ortho", "lod2_roof": { "v": [ [ 285493.7, 4156872.37, 0.0 ], [ 285494.35, 4156873.15, 0.0 ], [ 285494.35, 4156873.15, 0.0 ], [ 285493.68, 4156873.72, 0.0 ], [ 285493.68, 4156873.72, 0.0 ], [ 285482.65, 4156888.74, 0.41 ], [ 285479.05, 4156884.39, 0.4 ], [ 285494.99, 4156878.69, 0.0 ], [ 285497.34, 4156876.77, 0.0 ], [ 285497.06, 4156877.0, 0.0 ], [ 285497.06, 4156877.0, 0.0 ], [ 285496.6, 4156877.37, 0.0 ], [ 285496.6, 4156877.37, 1.16 ], [ 285494.99, 4156878.69, 1.13 ], [ 285494.63, 4156876.51, 0.0 ], [ 285494.63, 4156876.51, 1.14 ] ], "f": [ [ [ 15, 12, 13 ] ], [ [ 4, 10, 11, 14, 7, 5, 6, 0, 2 ] ], [ [ 9, 3, 1, 8 ] ], [ [ 2, 1, 3, 4 ] ], [ [ 13, 7, 14, 15 ] ], [ [ 15, 14, 11, 12 ] ], [ [ 4, 3, 9, 10 ] ] ] }, "roof_props": null, "wall_color": "brick", "type": "yes", "landmark": null, "footprint_source": "osm", "source_updated": null, "is_part": false, "parent": null, "hidden": false, "addr": "21 North 17th Street", "wikidata": null, "website": "https://www.lulusrichmond.com/", "zoning": "B-5", "lidar_p90": 8.28, "ground_z": 6.97 }, "geometry": { "type": "Polygon", "coordinates": [ [ [ 285497.34, 4156876.77 ], [ 285493.7, 4156872.37 ], [ 285479.05, 4156884.39 ], [ 285482.65, 4156888.73 ], [ 285497.34, 4156876.77 ] ] ] } },
{ "type": "Feature", "properties": { "id": "osm:way/207703644", "name": null, "height": 6.4, "min_height": 0.0, "levels": 2.0, "height_source": "osm_levels", "roof_shape": "gable", "roof_height": 1.55, "roof_azimuth": 144.3, "roof_source": "lod2", "roof_color": "roof_flat", "roof_color_source": "ortho", "lod2_roof": { "v": [ [ 285487.12, 4156894.15, 0.01 ], [ 285482.65, 4156888.74, 0.0 ], [ 285498.02, 4156885.23, 1.55 ], [ 285493.6, 4156879.76, 1.55 ] ], "f": [ [ [ 3, 2, 0, 1 ] ] ] }, "roof_props": null, "wall_color": "brick", "type": "yes", "landmark": null, "footprint_source": "osm", "source_updated": null, "is_part": false, "parent": null, "hidden": false, "addr": "23 North 17th Street", "wikidata": null, "website": null, "zoning": "B-5", "lidar_p90": 8.78, "ground_z": 6.7 }, "geometry": { "type": "Polygon", "coordinates": [ [ [ 285498.02, 4156885.23 ], [ 285493.6, 4156879.76 ], [ 285482.65, 4156888.73 ], [ 285487.12, 4156894.15 ], [ 285498.02, 4156885.23 ] ] ] } },
{ "type": "Feature", "properties": { "id": "osm:way/207703617", "name": "Charles C Cosby", "height": 6.4, "min_height": 0.0, "levels": 2.0, "height_source": "osm_levels", "roof_shape": "gable", "roof_height": 1.66, "roof_azimuth": 128.8, "roof_source": "lod2", "roof_color": "roof_flat", "roof_color_source": "ortho", "lod2_roof": { "v": [ [ 285498.02, 4156885.23, 1.62 ], [ 285503.27, 4156891.76, 1.66 ], [ 285491.97, 4156900.07, 0.04 ], [ 285487.12, 4156894.15, 0.0 ] ], "f": [ [ [ 2, 3, 0, 1 ] ] ] }, "roof_props": null, "wall_color": "brick", "type": "yes", "landmark": null, "footprint_source": "osm", "source_updated": null, "is_part": false, "parent": null, "hidden": false, "addr": "27 North 17th Street", "wikidata": null, "website": "https://www.charlesccosby.com/", "zoning": "B-5", "lidar_p90": 9.14, "ground_z": 6.78 }, "geometry": { "type": "Polygon", "coordinates": [ [ [ 285503.27, 4156891.76 ], [ 285498.02, 4156885.23 ], [ 285487.12, 4156894.15 ], [ 285491.97, 4156900.06 ], [ 285503.27, 4156891.76 ] ] ] } },
{ "type": "Feature", "properties": { "id": "osm:way/207703653", "name": "The Whitley Gallery", "height": 9.6, "min_height": 0.0, "levels": 3.0, "height_source": "osm_levels", "roof_shape": "flat", "roof_height": 2.53, "roof_azimuth": null, "roof_source": "lod2", "roof_color": "roof_flat", "roof_color_source": "ortho", "lod2_roof": { "v": [ [ 285496.74, 4156906.02, 2.53 ], [ 285493.4, 4156901.85, 0.0 ], [ 285493.4, 4156901.85, 1.9 ], [ 285496.61, 4156898.51, 0.0 ], [ 285496.61, 4156898.51, 1.76 ], [ 285491.97, 4156900.07, 0.0 ], [ 285495.95, 4156897.14, 0.0 ], [ 285495.95, 4156897.14, 1.58 ], [ 285507.72, 4156897.27, 2.32 ], [ 285503.27, 4156891.76, 1.49 ] ], "f": [ [ [ 9, 8, 0, 2, 4, 7 ] ], [ [ 1, 5, 6, 3 ] ], [ [ 2, 1, 3, 4 ] ], [ [ 4, 3, 6, 7 ] ] ] }, "roof_props": null, "wall_color": "terracotta", "type": "yes", "landmark": null, "footprint_source": "osm", "source_updated": null, "is_part": false, "parent": null, "hidden": false, "addr": "29 North 17th Street", "wikidata": null, "website": null, "zoning": "B-5", "lidar_p90": 12.47, "ground_z": 6.68 }, "geometry": { "type": "Polygon", "coordinates": [ [ [ 285507.72, 4156897.27 ], [ 285503.27, 4156891.76 ], [ 285491.97, 4156900.06 ], [ 285496.74, 4156906.02 ], [ 285507.72, 4156897.27 ] ] ] } },
{ "type": "Feature", "properties": { "id": "richmond_structure:393225", "name": null, "height": 20.0, "min_height": 0.0, "levels": null, "height_source": "zoning", "roof_shape": "flat", "roof_height": 0.0, "roof_azimuth": null, "roof_source": "heuristic", "roof_color": "roof_flat", "roof_color_source": "heuristic", "lod2_roof": null, "roof_props": null, "wall_color": "concrete", "type": "yes", "landmark": null, "footprint_source": "richmond_structures", "source_updated": "2026-09-08T12:07:13.637000Z", "is_part": false, "parent": null, "hidden": false, "addr": null, "wikidata": null, "website": null, "zoning": "B-5", "lidar_p90": 1.5, "ground_z": 5.78 }, "geometry": { "type": "Polygon", "coordinates": [ [ [ 285453.9, 4156906.91 ], [ 285447.69, 4156899.34 ], [ 285445.38, 4156901.23 ], [ 285451.58, 4156908.81 ], [ 285453.9, 4156906.91 ] ] ] } },
{ "type": "Feature", "properties": { "id": "osm:way/207703645", "name": "Havana 59", "height": 12.8, "min_height": 0.0, "levels": 4.0, "height_source": "osm_levels", "roof_shape": "flat", "roof_height": 0.0, "roof_azimuth": null, "roof_source": "heuristic", "roof_color": "roof_flat", "roof_color_source": "ortho", "lod2_roof": null, "roof_props": null, "wall_color": "sand", "type": "yes", "landmark": null, "footprint_source": "osm", "source_updated": null, "is_part": false, "parent": null, "hidden": false, "addr": "16 North 17th Street", "wikidata": null, "website": "https://www.havana59.net/", "zoning": "B-5", "lidar_p90": 13.03, "ground_z": 5.9 }, "geometry": { "type": "Polygon", "coordinates": [ [ [ 285424.81, 4156905.58 ], [ 285437.07, 4156920.4 ], [ 285450.38, 4156909.5 ], [ 285438.13, 4156894.67 ], [ 285424.81, 4156905.58 ] ] ] } },
{ "type": "Feature", "properties": { "id": "osm:way/823972543", "name": null, "height": 8.0, "min_height": 0.0, "levels": null, "height_source": "zoning", "roof_shape": "flat", "roof_height": 0.0, "roof_azimuth": null, "roof_source": "heuristic", "roof_color": "roof_flat", "roof_color_source": "heuristic", "lod2_roof": null, "roof_props": null, "wall_color": "terracotta", "type": "yes", "landmark": null, "footprint_source": "osm", "source_updated": null, "is_part": false, "parent": null, "hidden": false, "addr": null, "wikidata": null, "website": null, "zoning": "M-1", "lidar_p90": 3.69, "ground_z": 5.84 }, "geometry": { "type": "Polygon", "coordinates": [ [ [ 285472.19, 4156921.81 ], [ 285476.29, 4156918.55 ], [ 285474.53, 4156916.31 ], [ 285470.4, 4156919.52 ], [ 285472.19, 4156921.81 ] ] ] } },
{ "type": "Feature", "properties": { "id": "osm:way/225586226", "name": null, "height": 8.39, "min_height": 0.0, "levels": null, "height_source": "lidar", "roof_shape": "skillion", "roof_height": 1.36, "roof_azimuth": 35.9, "roof_source": "lidar", "roof_color": "roof_flat", "roof_color_source": "ortho", "lod2_roof": null, "roof_props": null, "wall_color": "sand", "type": "yes", "landmark": null, "footprint_source": "osm", "source_updated": null, "is_part": false, "parent": null, "hidden": false, "addr": "1509 East Main Street", "wikidata": null, "website": null, "zoning": "B-4", "lidar_p90": 9.69, "ground_z": 7.39 }, "geometry": { "type": "Polygon", "coordinates": [ [ [ 285279.67, 4156921.76 ], [ 285262.08, 4156900.93 ], [ 285258.57, 4156903.85 ], [ 285276.04, 4156924.69 ], [ 285279.67, 4156921.76 ] ] ] } },
{ "type": "Feature", "properties": { "id": "osm:way/225586224", "name": null, "height": 11.54, "min_height": 0.0, "levels": null, "height_source": "lidar", "roof_shape": "flat", "roof_height": 0.77, "roof_azimuth": null, "roof_source": "lod2", "roof_color": "roof_flat", "roof_color_source": "heuristic", "lod2_roof": { "v": [ [ 285261.09, 4156913.57, 0.63 ], [ 285261.09, 4156913.57, 0.0 ], [ 285263.25, 4156911.82, 0.0 ], [ 285263.25, 4156911.82, 0.77 ], [ 285272.68, 4156927.44, 0.0 ], [ 285268.8, 4156922.8, 0.0 ], [ 285269.89, 4156921.14, 0.71 ], [ 285269.89, 4156921.14, 0.0 ], [ 285268.8, 4156922.8, 0.62 ], [ 285276.04, 4156924.69, 0.0 ], [ 285255.67, 4156907.09, 0.0 ], [ 285258.75, 4156904.52, 0.0 ], [ 285258.33, 4156904.05, 0.0 ], [ 285271.87, 4156919.71, 0.0 ], [ 285271.87, 4156919.71, 0.0 ], [ 285270.82, 4156920.47, 0.0 ], [ 285270.82, 4156920.47, 0.0 ], [ 285258.57, 4156903.85, 0.0 ], [ 285270.82, 4156920.47, 0.76 ] ], "f": [ [ [ 18, 6, 8, 0, 3 ] ], [ [ 7, 15, 14, 9, 4, 5 ] ], [ [ 17, 13, 16, 2, 1, 10, 11, 12 ] ], [ [ 0, 1, 2, 3 ] ], [ [ 6, 7, 5, 8 ] ], [ [ 13, 14, 15, 16 ] ], [ [ 3, 2, 16, 18 ] ], [ [ 18, 16, 15, 7, 6 ] ] ] }, "roof_props": null, "wall_color": "sand", "type": "yes", "landmark": null, "footprint_source": "osm", "source_updated": null, "is_part": false, "parent": null, "hidden": false, "addr": "1507 E Main St", "wikidata": null, "website": null, "zoning": "B-4", "lidar_p90": 11.75, "ground_z": 7.63 }, "geometry": { "type": "Polygon", "coordinates": [ [ [ 285276.04, 4156924.69 ], [ 285258.57, 4156903.85 ], [ 285255.26, 4156906.6 ], [ 285272.68, 4156927.44 ], [ 285276.04, 4156924.69 ] ] ] } },
{ "type": "Feature", "properties": { "id": "osm:way/225586223", "name": null, "height": 8.97, "min_height": 0.0, "levels": null, "height_source": "lidar", "roof_shape": "flat", "roof_height": 3.05, "roof_azimuth": null, "roof_source": "lod2", "roof_color": "concrete", "roof_color_source": "heuristic", "lod2_roof": { "v": [ [ 285268.62, 4156922.58, 3.05 ], [ 285268.62, 4156922.58, 0.01 ], [ 285267.58, 4156923.89, 0.0 ], [ 285267.58, 4156923.89, 2.94 ], [ 285259.96, 4156915.0, 0.0 ], [ 285259.96, 4156915.0, 2.9 ], [ 285272.68, 4156927.44, 0.15 ], [ 285255.68, 4156907.1, 0.0 ], [ 285261.08, 4156913.56, 0.0 ], [ 285269.53, 4156929.99, 0.0 ], [ 285261.08, 4156913.56, 3.03 ], [ 285253.07, 4156910.11, 0.0 ] ], "f": [ [ [ 10, 0, 3, 5 ] ], [ [ 11, 7, 8, 4, 2, 1, 6, 9 ] ], [ [ 0, 1, 2, 3 ] ], [ [ 3, 2, 4, 5 ] ], [ [ 5, 4, 8, 10 ] ] ] }, "roof_props": null, "wall_color": "terracotta", "type": "yes", "landmark": null, "footprint_source": "osm", "source_updated": null, "is_part": false, "parent": null, "hidden": false, "addr": "1505 East Main Street", "wikidata": null, "website": null, "zoning": "B-4", "lidar_p90": 11.4, "ground_z": 7.78 }, "geometry": { "type": "Polygon", "coordinates": [ [ [ 285272.68, 4156927.44 ], [ 285255.26, 4156906.6 ], [ 285252.2, 4156909.06 ], [ 285269.53, 4156929.99 ], [ 285272.68, 4156927.44 ] ] ] } },
{ "type": "Feature", "properties": { "id": "osm:way/366226942", "name": null, "height": 20.35, "min_height": 0.0, "levels": null, "height_source": "osm_height", "roof_shape": "flat", "roof_height": 0.0, "roof_azimuth": null, "roof_source": "heuristic", "roof_color": "roof_flat", "roof_color_source": "landmark", "lod2_roof": null, "roof_props": null, "wall_color": "cream", "type": "train_station", "landmark": "main-street-station", "footprint_source": "osm", "source_updated": null, "is_part": true, "parent": "osm:way/113030476", "hidden": false, "addr": null, "wikidata": null, "website": null, "zoning": "M-1", "lidar_p90": 39.31, "ground_z": 9.19 }, "geometry": { "type": "Polygon", "coordinates": [ [ [ 285331.22, 4156927.84 ], [ 285336.06, 4156924.11 ], [ 285331.86, 4156918.7 ], [ 285327.02, 4156922.48 ], [ 285331.22, 4156927.84 ] ] ] } },
{ "type": "Feature", "properties": { "id": "osm:way/225586222", "name": null, "height": 11.51, "min_height": 0.0, "levels": null, "height_source": "lidar", "roof_shape": "flat", "roof_height": 0.0, "roof_azimuth": null, "roof_source": "heuristic", "roof_color": "roof_flat", "roof_color_source": "ortho", "lod2_roof": null, "roof_props": null, "wall_color": "cream", "type": "yes", "landmark": null, "footprint_source": "osm", "source_updated": null, "is_part": false, "parent": null, "hidden": false, "addr": "3 S 15th St Fl 3", "wikidata": null, "website": null, "zoning": "B-4", "lidar_p90": 12.41, "ground_z": 8.26 }, "geometry": { "type": "Polygon", "coordinates": [ [ [ 285269.53, 4156929.99 ], [ 285252.2, 4156909.06 ], [ 285241.98, 4156917.45 ], [ 285259.31, 4156938.38 ], [ 285269.53, 4156929.99 ] ] ] } },
{ "type": "Feature", "properties": { "id": "osm:way/366226941", "name": null, "height": 18.0, "min_height": 0.0, "levels": null, "height_source": "osm_height", "roof_shape": "flat", "roof_height": 0.0, "roof_azimuth": null, "roof_source": "heuristic", "roof_color": "roof_flat", "roof_color_source": "landmark", "lod2_roof": null, "roof_props": null, "wall_color": "cream", "type": "train_station", "landmark": "main-street-station", "footprint_source": "osm", "source_updated": null, "is_part": true, "parent": "osm:way/113030476", "hidden": false, "addr": null, "wikidata": null, "website": null, "zoning": "M-1", "lidar_p90": 31.57, "ground_z": 9.22 }, "geometry": { "type": "Polygon", "coordinates": [ [ [ 285363.29, 4156919.19 ], [ 285351.12, 4156903.7 ], [ 285327.02, 4156922.48 ], [ 285339.19, 4156937.98 ], [ 285363.29, 4156919.19 ] ] ] } },
{ "type": "Feature", "properties": { "id": "osm:way/207703619", "name": null, "height": 9.6, "min_height": 0.0, "levels": 3.0, "height_source": "osm_levels", "roof_shape": "flat", "roof_height": 0.85, "roof_azimuth": null, "roof_source": "lod2", "roof_color": "roof_flat", "roof_color_source": "ortho", "lod2_roof": { "v": [ [ 285444.42, 4156914.39, 0.75 ], [ 285449.75, 4156910.02, 0.0 ], [ 285461.08, 4156934.55, 0.0 ], [ 285459.89, 4156933.11, 0.14 ], [ 285453.46, 4156918.8, 0.47 ], [ 285453.46, 4156918.8, 0.12 ], [ 285452.0, 4156918.86, 0.29 ], [ 285452.0, 4156918.86, 0.59 ], [ 285466.15, 4156930.4, 0.0 ], [ 285462.42, 4156933.46, 0.0 ], [ 285462.42, 4156933.46, 0.35 ], [ 285452.0, 4156917.24, 0.15 ], [ 285452.0, 4156917.24, 0.85 ], [ 285453.74, 4156916.52, 0.0 ], [ 285453.74, 4156916.52, 0.81 ], [ 285454.41, 4156918.33, 0.0 ], [ 285454.41, 4156918.33, 0.46 ], [ 285459.89, 4156933.11, 0.6 ], [ 285461.63, 4156932.81, 0.0 ], [ 285461.63, 4156932.81, 0.38 ] ], "f": [ [ [ 16, 4, 7, 12, 14 ] ], [ [ 19, 17, 0, 1, 8, 10 ], [ 5, 15, 13, 11, 6 ] ], [ [ 3, 18, 9, 2 ] ], [ [ 4, 5, 6, 7 ] ], [ [ 7, 6, 11, 12 ] ], [ [ 12, 11, 13, 14 ] ], [ [ 14, 13, 15, 16 ] ], [ [ 16, 15, 5, 4 ] ], [ [ 10, 9, 18, 19 ] ], [ [ 19, 18, 3, 17 ] ] ] }, "roof_props": null, "wall_color": "concrete", "type": "yes", "landmark": null, "footprint_source": "osm", "source_updated": null, "is_part": false, "parent": null, "hidden": false, "addr": "1617 E Franklin St", "wikidata": null, "website": null, "zoning": "B-5", "lidar_p90": 10.19, "ground_z": 5.98 }, "geometry": { "type": "Polygon", "coordinates": [ [ [ 285444.42, 4156914.38 ], [ 285461.08, 4156934.55 ], [ 285467.04, 4156929.67 ], [ 285450.38, 4156909.5 ], [ 285444.42, 4156914.38 ] ] ] } },
{ "type": "Feature", "properties": { "id": "osm:way/207703634", "name": null, "height": 4.89, "min_height": 0.0, "levels": null, "height_source": "lidar", "roof_shape": "flat", "roof_height": 5.67, "roof_azimuth": null, "roof_source": "lod2", "roof_color": "roof_flat", "roof_color_source": "ortho", "lod2_roof": { "v": [ [ 285441.53, 4156950.57, 0.87 ], [ 285412.61, 4156915.57, 0.01 ], [ 285424.81, 4156905.58, 0.0 ], [ 285437.07, 4156920.41, 0.37 ], [ 285444.42, 4156914.39, 0.36 ], [ 285461.08, 4156934.55, 4.74 ], [ 285460.24, 4156935.25, 0.86 ], [ 285460.24, 4156935.25, 5.67 ], [ 285450.14, 4156921.31, 0.53 ], [ 285450.14, 4156921.31, 5.5 ] ], "f": [ [ [ 9, 5, 7 ] ], [ [ 4, 8, 6, 0, 1, 2, 3 ] ], [ [ 7, 6, 8, 9 ] ] ] }, "roof_props": null, "wall_color": "concrete", "type": "yes", "landmark": null, "footprint_source": "osm", "source_updated": null, "is_part": false, "parent": null, "hidden": false, "addr": "1609 East Franklin Street", "wikidata": null, "website": null, "zoning": "B-5", "lidar_p90": 5.18, "ground_z": 6.21 }, "geometry": { "type": "Polygon", "coordinates": [ [ [ 285441.53, 4156950.57 ], [ 285461.08, 4156934.55 ], [ 285444.42, 4156914.38 ], [ 285437.07, 4156920.4 ], [ 285424.81, 4156905.58 ], [ 285412.61, 4156915.57 ], [ 285441.53, 4156950.57 ] ] ] } },
{ "type": "Feature", "properties": { "id": "richmond_structure:305117", "name": null, "height": 5.88, "min_height": 0.0, "levels": null, "height_source": "lidar", "roof_shape": "gable", "roof_height": 1.84, "roof_azimuth": 53.7, "roof_source": "lod2", "roof_color": "concrete", "roof_color_source": "ortho", "lod2_roof": { "v": [ [ 285490.22, 4156947.01, 0.32 ], [ 285486.28, 4156942.09, 0.36 ], [ 285486.28, 4156942.09, 0.86 ], [ 285485.27, 4156940.84, 0.0 ], [ 285490.69, 4156947.6, 0.26 ], [ 285490.22, 4156947.01, 0.77 ], [ 285490.73, 4156946.71, 0.71 ], [ 285488.34, 4156938.56, 0.02 ], [ 285489.24, 4156938.88, 0.53 ], [ 285493.67, 4156945.2, 0.84 ], [ 285493.67, 4156945.2, 0.27 ], [ 285492.6, 4156944.51, 1.09 ], [ 285489.56, 4156938.08, 0.06 ], [ 285493.98, 4156944.02, 0.22 ], [ 285495.01, 4156944.13, 0.0 ], [ 285489.28, 4156938.34, 0.29 ], [ 285487.05, 4156941.63, 0.95 ], [ 285488.29, 4156938.42, 0.0 ], [ 285494.74, 4156943.79, 0.0 ], [ 285491.01, 4156944.4, 1.83 ], [ 285488.98, 4156941.89, 1.84 ] ], "f": [ [ [ 6, 19, 11, 10, 4, 5 ] ], [ [ 17, 7, 8, 20, 16, 2, 3 ] ], [ [ 19, 6, 0, 1, 16, 20 ] ], [ [ 8, 15, 12, 13, 18, 14, 9, 11, 19, 20 ] ], [ [ 5, 0, 6 ] ], [ [ 9, 10, 11 ] ], [ [ 1, 2, 16 ] ] ] }, "roof_props": null, "wall_color": "terracotta", "type": "yes", "landmark": null, "footprint_source": "richmond_structures", "source_updated": "2026-09-08T12:07:13.637000Z", "is_part": false, "parent": null, "hidden": false, "addr": "100 N 17th St", "wikidata": null, "website": null, "zoning": "M-1", "lidar_p90": 7.36, "ground_z": 6.28 }, "geometry": { "type": "Polygon", "coordinates": [ [ [ 285489.6, 4156937.37 ], [ 285485.27, 4156940.83 ], [ 285490.69, 4156947.59 ], [ 285495.01, 4156944.13 ], [ 285489.6, 4156937.37 ] ] ] } },
{ "type": "Feature", "properties": { "id": "osm:way/113030476", "name": "Main Street Station", "height": 34.0, "min_height": 0.0, "levels": 5.0, "height_source": "landmark_hint", "roof_shape": "flat", "roof_height": 0.0, "roof_azimuth": null, "roof_source": "heuristic", "roof_color": "roof_flat", "roof_color_source": "landmark", "lod2_roof": null, "roof_props": null, "wall_color": "cream", "type": "train_station", "landmark": "main-street-station", "footprint_source": "osm", "source_updated": null, "is_part": false, "parent": null, "hidden": false, "addr": "1520 East Main Street", "wikidata": "Q141093771", "website": "http://www.richmondgov.com/MainStreetStation/index.aspx", "zoning": "M-1", "lidar_p90": 23.91, "ground_z": 8.59 }, "geometry": { "type": "Polygon", "coordinates": [ [ [ 285339.19, 4156937.98 ], [ 285341.49, 4156936.19 ], [ 285347.74, 4156945.0 ], [ 285346.03, 4156958.16 ], [ 285438.65, 4157074.47 ], [ 285473.5, 4157047.01 ], [ 285380.61, 4156930.3 ], [ 285366.99, 4156929.58 ], [ 285360.78, 4156921.14 ], [ 285363.29, 4156919.19 ], [ 285351.12, 4156903.7 ], [ 285327.02, 4156922.48 ], [ 285339.19, 4156937.98 ] ] ] } }
]
}
