{
"type": "FeatureCollection",
"name": "landuse",
"crs": { "type": "name", "properties": { "name": "urn:ogc:def:crs:EPSG::32618" } },
"xy_coordinate_resolution": 0.01,
"features": [
{ "type": "Feature", "properties": { "id": "imagery:groundcover_paved:2792", "name": null, "kind": "groundcover_paved", "sport": null, "surface": null, "pitch_layout": null, "source": "vgin_vbmp+naip+lidar2025", "source_updated": null, "base_z": null, "top_z": null }, "geometry": { "type": "MultiPolygon", "coordinates": [ [ [ [ 281538.0, 4159507.76 ], [ 281536.83, 4159505.12 ], [ 281534.74, 4159500.83 ], [ 281534.54, 4159500.37 ], [ 281534.42, 4159500.0 ], [ 281532.83, 4159500.0 ], [ 281537.02, 4159508.74 ], [ 281538.0, 4159507.76 ] ] ], [ [ [ 281742.61, 4159515.5 ], [ 281745.1, 4159517.18 ], [ 281745.23, 4159516.98 ], [ 281745.54, 4159516.6 ], [ 281745.88, 4159516.25 ], [ 281746.26, 4159515.94 ], [ 281746.67, 4159515.66 ], [ 281747.1, 4159515.43 ], [ 281750.0, 4159514.04 ], [ 281750.0, 4159508.85 ], [ 281742.15, 4159512.74 ], [ 281742.61, 4159515.5 ] ] ], [ [ [ 281501.63, 4159500.85 ], [ 281503.14, 4159501.78 ], [ 281502.31, 4159500.0 ], [ 281500.0, 4159500.0 ], [ 281500.0, 4159500.63 ], [ 281500.86, 4159500.63 ], [ 281501.63, 4159500.85 ] ] ], [ [ [ 281512.13, 4159527.65 ], [ 281511.8, 4159528.57 ], [ 281510.05, 4159530.71 ], [ 281509.21, 4159531.21 ], [ 281502.62, 4159532.53 ], [ 281503.5, 4159533.86 ], [ 281503.61, 4159534.04 ], [ 281506.5, 4159539.72 ], [ 281506.73, 4159539.63 ], [ 281509.29, 4159539.63 ], [ 281510.18, 4159539.93 ], [ 281512.23, 4159541.53 ], [ 281518.91, 4159538.39 ], [ 281519.45, 4159536.52 ], [ 281512.13, 4159520.93 ], [ 281512.13, 4159527.65 ] ] ], [ [ [ 281748.58, 4159541.72 ], [ 281740.13, 4159545.8 ], [ 281740.13, 4159546.35 ], [ 281739.91, 4159547.13 ], [ 281738.69, 4159549.1 ], [ 281738.1, 4159549.64 ], [ 281735.79, 4159550.8 ], [ 281734.13, 4159553.48 ], [ 281734.13, 4159557.99 ], [ 281733.86, 4159558.85 ], [ 281732.36, 4159560.93 ], [ 281731.63, 4159561.46 ], [ 281729.15, 4159562.29 ], [ 281746.79, 4159598.66 ], [ 281746.98, 4159599.11 ], [ 281747.13, 4159599.58 ], [ 281747.23, 4159600.06 ], [ 281747.28, 4159600.55 ], [ 281747.29, 4159601.04 ], [ 281747.24, 4159601.53 ], [ 281747.15, 4159602.01 ], [ 281747.01, 4159602.49 ], [ 281746.83, 4159602.94 ], [ 281746.6, 4159603.38 ], [ 281746.33, 4159603.79 ], [ 281746.02, 4159604.17 ], [ 281745.68, 4159604.52 ], [ 281745.3, 4159604.84 ], [ 281744.89, 4159605.11 ], [ 281744.46, 4159605.35 ], [ 281738.82, 4159608.06 ], [ 281738.34, 4159613.32 ], [ 281750.0, 4159607.83 ], [ 281750.0, 4159602.57 ], [ 281749.69, 4159602.37 ], [ 281749.31, 4159602.07 ], [ 281748.96, 4159601.73 ], [ 281748.64, 4159601.35 ], [ 281748.36, 4159600.95 ], [ 281748.12, 4159600.52 ], [ 281741.14, 4159586.43 ], [ 281740.94, 4159585.98 ], [ 281740.79, 4159585.51 ], [ 281740.69, 4159585.03 ], [ 281740.63, 4159584.54 ], [ 281740.62, 4159584.05 ], [ 281740.66, 4159583.56 ], [ 281740.75, 4159583.08 ], [ 281740.88, 4159582.6 ], [ 281741.06, 4159582.15 ], [ 281741.1, 4159582.09 ], [ 281739.45, 4159578.76 ], [ 281739.25, 4159578.31 ], [ 281739.1, 4159577.84 ], [ 281739.0, 4159577.36 ], [ 281738.94, 4159576.87 ], [ 281738.94, 4159576.38 ], [ 281738.98, 4159575.89 ], [ 281739.06, 4159575.41 ], [ 281739.2, 4159574.93 ], [ 281739.38, 4159574.48 ], [ 281739.54, 4159574.16 ], [ 281739.14, 4159574.0 ], [ 281738.71, 4159573.77 ], [ 281738.3, 4159573.5 ], [ 281737.92, 4159573.19 ], [ 281737.57, 4159572.85 ], [ 281737.26, 4159572.47 ], [ 281736.98, 4159572.06 ], [ 281736.75, 4159571.63 ], [ 281735.34, 4159568.69 ], [ 281735.15, 4159568.24 ], [ 281735.01, 4159567.77 ], [ 281734.91, 4159567.29 ], [ 281734.86, 4159566.8 ], [ 281734.86, 4159566.31 ], [ 281734.9, 4159565.82 ], [ 281735.0, 4159565.34 ], [ 281735.14, 4159564.87 ], [ 281735.32, 4159564.41 ], [ 281735.55, 4159563.98 ], [ 281735.82, 4159563.57 ], [ 281736.13, 4159563.19 ], [ 281736.48, 4159562.84 ], [ 281736.85, 4159562.53 ], [ 281737.26, 4159562.25 ], [ 281737.69, 4159562.02 ], [ 281741.68, 4159560.11 ], [ 281742.13, 4159559.92 ], [ 281742.6, 4159559.78 ], [ 281743.08, 4159559.68 ], [ 281743.57, 4159559.63 ], [ 281744.06, 4159559.62 ], [ 281744.55, 4159559.67 ], [ 281745.03, 4159559.76 ], [ 281745.5, 4159559.9 ], [ 281745.96, 4159560.09 ], [ 281746.39, 4159560.32 ], [ 281746.8, 4159560.59 ], [ 281747.18, 4159560.9 ], [ 281747.53, 4159561.24 ], [ 281747.84, 4159561.62 ], [ 281748.12, 4159562.03 ], [ 281748.35, 4159562.46 ], [ 281749.76, 4159565.4 ], [ 281749.95, 4159565.85 ], [ 281750.0, 4159566.02 ], [ 281750.0, 4159543.23 ], [ 281749.19, 4159542.69 ], [ 281748.58, 4159541.72 ] ] ], [ [ [ 281746.13, 4159625.84 ], [ 281747.58, 4159624.75 ], [ 281747.99, 4159624.48 ], [ 281748.42, 4159624.24 ], [ 281748.87, 4159624.05 ], [ 281749.34, 4159623.91 ], [ 281749.82, 4159623.81 ], [ 281750.0, 4159623.79 ], [ 281750.0, 4159617.33 ], [ 281737.44, 4159623.25 ], [ 281737.36, 4159624.07 ], [ 281739.56, 4159627.16 ], [ 281740.65, 4159626.31 ], [ 281741.05, 4159626.02 ], [ 281741.47, 4159625.78 ], [ 281741.91, 4159625.58 ], [ 281742.38, 4159625.42 ], [ 281742.85, 4159625.31 ], [ 281743.34, 4159625.25 ], [ 281743.83, 4159625.23 ], [ 281744.31, 4159625.26 ], [ 281744.8, 4159625.34 ], [ 281745.27, 4159625.47 ], [ 281745.73, 4159625.64 ], [ 281746.13, 4159625.84 ] ] ], [ [ [ 281549.41, 4159600.43 ], [ 281549.21, 4159600.52 ], [ 281555.47, 4159614.31 ], [ 281554.35, 4159614.69 ], [ 281554.7, 4159622.51 ], [ 281553.34, 4159623.87 ], [ 281553.18, 4159624.35 ], [ 281552.82, 4159624.93 ], [ 281550.49, 4159627.27 ], [ 281550.81, 4159628.1 ], [ 281548.76, 4159629.0 ], [ 281546.22, 4159631.54 ], [ 281545.74, 4159631.86 ], [ 281544.16, 4159632.51 ], [ 281543.59, 4159632.63 ], [ 281540.46, 4159632.63 ], [ 281536.21, 4159634.48 ], [ 281535.95, 4159633.93 ], [ 281534.06, 4159636.35 ], [ 281534.98, 4159640.0 ], [ 281561.7, 4159627.02 ], [ 281549.41, 4159600.43 ] ] ], [ [ [ 281555.25, 4159637.5 ], [ 281561.27, 4159637.55 ], [ 281568.77, 4159642.39 ], [ 281572.61, 4159650.47 ], [ 281572.9, 4159650.83 ], [ 281563.22, 4159630.28 ], [ 281535.89, 4159643.56 ], [ 281537.1, 4159645.27 ], [ 281541.86, 4159648.45 ], [ 281542.89, 4159648.09 ], [ 281541.29, 4159644.72 ], [ 281555.25, 4159637.5 ] ] ], [ [ [ 281570.22, 4159706.9 ], [ 281570.6, 4159706.59 ], [ 281571.01, 4159706.31 ], [ 281571.44, 4159706.08 ], [ 281585.84, 4159699.16 ], [ 281586.29, 4159698.97 ], [ 281586.76, 4159698.83 ], [ 281587.24, 4159698.73 ], [ 281587.73, 4159698.68 ], [ 281588.22, 4159698.67 ], [ 281588.71, 4159698.72 ], [ 281589.19, 4159698.81 ], [ 281589.66, 4159698.95 ], [ 281590.11, 4159699.13 ], [ 281590.54, 4159699.36 ], [ 281590.95, 4159699.63 ], [ 281591.33, 4159699.93 ], [ 281591.68, 4159700.28 ], [ 281592.0, 4159700.65 ], [ 281592.27, 4159701.06 ], [ 281592.51, 4159701.49 ], [ 281593.57, 4159703.67 ], [ 281595.57, 4159705.18 ], [ 281596.13, 4159706.31 ], [ 281596.13, 4159708.96 ], [ 281597.8, 4159712.4 ], [ 281597.99, 4159712.85 ], [ 281598.14, 4159713.32 ], [ 281598.24, 4159713.8 ], [ 281598.29, 4159714.29 ], [ 281598.29, 4159714.35 ], [ 281602.63, 4159715.79 ], [ 281603.36, 4159716.32 ], [ 281604.86, 4159718.4 ], [ 281605.13, 4159719.26 ], [ 281605.13, 4159722.85 ], [ 281605.44, 4159723.23 ], [ 281605.72, 4159723.63 ], [ 281605.95, 4159724.06 ], [ 281609.06, 4159730.51 ], [ 281609.25, 4159730.96 ], [ 281609.39, 4159731.43 ], [ 281609.49, 4159731.91 ], [ 281609.54, 4159732.39 ], [ 281609.55, 4159732.88 ], [ 281609.5, 4159733.37 ], [ 281609.41, 4159733.85 ], [ 281609.28, 4159734.32 ], [ 281608.67, 4159736.07 ], [ 281609.4, 4159737.63 ], [ 281614.35, 4159737.63 ], [ 281595.4, 4159696.86 ], [ 281594.11, 4159694.4 ], [ 281559.61, 4159710.93 ], [ 281559.96, 4159710.93 ], [ 281560.45, 4159710.97 ], [ 281560.93, 4159711.06 ], [ 281561.4, 4159711.2 ], [ 281561.86, 4159711.38 ], [ 281562.29, 4159711.6 ], [ 281562.7, 4159711.87 ], [ 281563.09, 4159712.18 ], [ 281563.44, 4159712.52 ], [ 281563.75, 4159712.89 ], [ 281564.03, 4159713.3 ], [ 281564.27, 4159713.73 ], [ 281566.17, 4159717.62 ], [ 281570.35, 4159716.92 ], [ 281570.89, 4159716.46 ], [ 281569.1, 4159712.77 ], [ 281568.91, 4159712.31 ], [ 281568.76, 4159711.84 ], [ 281568.66, 4159711.36 ], [ 281568.61, 4159710.87 ], [ 281568.61, 4159710.38 ], [ 281568.65, 4159709.89 ], [ 281568.74, 4159709.41 ], [ 281568.88, 4159708.94 ], [ 281569.07, 4159708.48 ], [ 281569.3, 4159708.05 ], [ 281569.57, 4159707.64 ], [ 281569.88, 4159707.25 ], [ 281570.22, 4159706.9 ] ] ], [ [ [ 281514.78, 4159736.41 ], [ 281514.93, 4159735.94 ], [ 281515.12, 4159735.49 ], [ 281515.36, 4159735.06 ], [ 281515.63, 4159734.66 ], [ 281515.95, 4159734.28 ], [ 281516.3, 4159733.94 ], [ 281516.68, 4159733.63 ], [ 281517.09, 4159733.36 ], [ 281517.53, 4159733.13 ], [ 281520.9, 4159731.58 ], [ 281520.93, 4159731.57 ], [ 281520.95, 4159731.55 ], [ 281525.92, 4159729.33 ], [ 281526.37, 4159729.16 ], [ 281526.84, 4159729.02 ], [ 281527.32, 4159728.94 ], [ 281527.81, 4159728.9 ], [ 281528.29, 4159728.91 ], [ 281528.78, 4159728.97 ], [ 281529.25, 4159729.07 ], [ 281529.28, 4159729.08 ], [ 281528.25, 4159725.97 ], [ 281507.16, 4159736.08 ], [ 281500.0, 4159739.52 ], [ 281500.0, 4159745.6 ], [ 281502.06, 4159750.0 ], [ 281502.82, 4159750.0 ], [ 281503.73, 4159749.63 ], [ 281504.89, 4159749.63 ], [ 281507.01, 4159744.5 ], [ 281506.55, 4159744.05 ], [ 281506.13, 4159743.03 ], [ 281506.13, 4159741.22 ], [ 281506.55, 4159740.2 ], [ 281508.71, 4159738.05 ], [ 281509.73, 4159737.63 ], [ 281514.4, 4159737.63 ], [ 281514.57, 4159737.54 ], [ 281514.63, 4159737.51 ], [ 281514.63, 4159737.38 ], [ 281514.68, 4159736.89 ], [ 281514.78, 4159736.41 ] ] ], [ [ [ 281512.13, 4159746.63 ], [ 281510.37, 4159746.63 ], [ 281508.98, 4159750.0 ], [ 281514.8, 4159750.0 ], [ 281514.2, 4159748.7 ], [ 281512.13, 4159746.63 ] ] ] ] } },
{ "type": "Feature", "properties": { "id": "richmond_structure:409482", "name": null, "kind": "deck", "sport": null, "surface": null, "pitch_layout": null, "source": "richmond_structures", "source_updated": "2026-09-08T12:07:13.637000Z", "base_z": null, "top_z": null }, "geometry": { "type": "Polygon", "coordinates": [ [ [ 281750.0, 4159561.87 ], [ 281750.0, 4159561.81 ], [ 281749.98, 4159561.82 ], [ 281750.0, 4159561.87 ] ] ] } },
{ "type": "Feature", "properties": { "id": "richmond_structure:409481", "name": null, "kind": "deck", "sport": null, "surface": null, "pitch_layout": null, "source": "richmond_structures", "source_updated": "2026-09-08T12:07:13.637000Z", "base_z": null, "top_z": null }, "geometry": { "type": "Polygon", "coordinates": [ [ [ 281739.46, 4159570.33 ], [ 281741.26, 4159569.47 ], [ 281739.22, 4159565.21 ], [ 281737.42, 4159566.07 ], [ 281739.46, 4159570.33 ] ] ] } },
{ "type": "Feature", "properties": { "id": "richmond_structure:409483", "name": null, "kind": "deck", "sport": null, "surface": null, "pitch_layout": null, "source": "richmond_structures", "source_updated": "2026-09-08T12:07:13.637000Z", "base_z": null, "top_z": null }, "geometry": { "type": "Polygon", "coordinates": [ [ [ 281747.2, 4159564.29 ], [ 281747.69, 4159565.31 ], [ 281745.5, 4159566.36 ], [ 281748.62, 4159572.93 ], [ 281750.0, 4159572.27 ], [ 281750.0, 4159563.38 ], [ 281749.84, 4159563.04 ], [ 281747.2, 4159564.29 ] ] ] } },
{ "type": "Feature", "properties": { "id": "richmond_structure:409484", "name": null, "kind": "deck", "sport": null, "surface": null, "pitch_layout": null, "source": "richmond_structures", "source_updated": "2026-09-08T12:07:13.637000Z", "base_z": null, "top_z": null }, "geometry": { "type": "Polygon", "coordinates": [ [ [ 281745.1, 4159567.63 ], [ 281742.05, 4159569.09 ], [ 281743.6, 4159572.34 ], [ 281740.97, 4159573.6 ], [ 281743.41, 4159578.69 ], [ 281744.21, 4159578.31 ], [ 281742.93, 4159575.63 ], [ 281747.8, 4159573.32 ], [ 281745.1, 4159567.63 ] ] ] } },
{ "type": "Feature", "properties": { "id": "richmond_structure:408693", "name": null, "kind": "deck", "sport": null, "surface": null, "pitch_layout": null, "source": "richmond_structures", "source_updated": "2026-09-08T12:07:13.637000Z", "base_z": null, "top_z": null }, "geometry": { "type": "Polygon", "coordinates": [ [ [ 281717.06, 4159591.11 ], [ 281722.16, 4159588.74 ], [ 281720.47, 4159585.09 ], [ 281715.36, 4159587.46 ], [ 281717.06, 4159591.11 ] ] ] } },
{ "type": "Feature", "properties": { "id": "richmond_structure:424848", "name": null, "kind": "deck", "sport": null, "surface": null, "pitch_layout": null, "source": "richmond_structures", "source_updated": "2026-09-08T12:07:13.637000Z", "base_z": null, "top_z": null }, "geometry": { "type": "Polygon", "coordinates": [ [ [ 281750.0, 4159654.26 ], [ 281750.0, 4159651.0 ], [ 281748.55, 4159649.06 ], [ 281745.85, 4159651.07 ], [ 281748.85, 4159655.11 ], [ 281750.0, 4159654.26 ] ] ] } },
{ "type": "Feature", "properties": { "id": "richmond_structure:409488", "name": null, "kind": "deck", "sport": null, "surface": null, "pitch_layout": null, "source": "richmond_structures", "source_updated": "2026-09-08T12:07:13.637000Z", "base_z": null, "top_z": null }, "geometry": { "type": "Polygon", "coordinates": [ [ [ 281739.16, 4159659.2 ], [ 281743.35, 4159656.09 ], [ 281741.19, 4159653.18 ], [ 281737.0, 4159656.3 ], [ 281739.16, 4159659.2 ] ] ] } },
{ "type": "Feature", "properties": { "id": "imagery:groundcover_lawn:940", "name": null, "kind": "groundcover_lawn", "sport": null, "surface": null, "pitch_layout": null, "source": "vgin_vbmp+naip+lidar2025", "source_updated": null, "base_z": null, "top_z": null }, "geometry": { "type": "Polygon", "coordinates": [ [ [ 281745.78, 4159665.61 ], [ 281745.75, 4159665.52 ], [ 281745.72, 4159665.43 ], [ 281745.7, 4159665.33 ], [ 281745.69, 4159665.23 ], [ 281745.69, 4159665.14 ], [ 281745.7, 4159665.04 ], [ 281745.72, 4159664.94 ], [ 281745.75, 4159664.85 ], [ 281745.79, 4159664.76 ], [ 281745.83, 4159664.67 ], [ 281745.89, 4159664.59 ], [ 281745.95, 4159664.51 ], [ 281746.02, 4159664.44 ], [ 281746.1, 4159664.38 ], [ 281746.18, 4159664.33 ], [ 281746.35, 4159664.23 ], [ 281743.99, 4159659.63 ], [ 281743.74, 4159659.63 ], [ 281743.5, 4159659.61 ], [ 281742.79, 4159659.49 ], [ 281742.55, 4159659.43 ], [ 281729.53, 4159655.09 ], [ 281742.47, 4159671.1 ], [ 281742.71, 4159671.14 ], [ 281746.13, 4159668.17 ], [ 281746.13, 4159666.21 ], [ 281745.83, 4159665.7 ], [ 281745.78, 4159665.61 ] ] ] } },
{ "type": "Feature", "properties": { "id": "imagery:groundcover_paved:970", "name": null, "kind": "groundcover_paved", "sport": null, "surface": null, "pitch_layout": null, "source": "vgin_vbmp+naip+lidar2025", "source_updated": null, "base_z": null, "top_z": null }, "geometry": { "type": "MultiPolygon", "coordinates": [ [ [ [ 281727.81, 4159668.57 ], [ 281725.99, 4159666.09 ], [ 281725.74, 4159665.0 ], [ 281725.86, 4159664.24 ], [ 281721.4, 4159658.71 ], [ 281721.56, 4159659.11 ], [ 281721.71, 4159659.58 ], [ 281721.81, 4159660.07 ], [ 281721.85, 4159660.56 ], [ 281721.86, 4159661.05 ], [ 281721.81, 4159661.54 ], [ 281721.71, 4159662.02 ], [ 281721.57, 4159662.49 ], [ 281721.4, 4159662.89 ], [ 281722.26, 4159664.67 ], [ 281722.45, 4159665.13 ], [ 281722.59, 4159665.6 ], [ 281722.69, 4159666.08 ], [ 281722.74, 4159666.57 ], [ 281722.74, 4159667.06 ], [ 281722.69, 4159667.55 ], [ 281722.6, 4159668.03 ], [ 281722.45, 4159668.5 ], [ 281722.27, 4159668.96 ], [ 281722.04, 4159669.39 ], [ 281721.76, 4159669.8 ], [ 281721.45, 4159670.18 ], [ 281721.1, 4159670.53 ], [ 281720.72, 4159670.84 ], [ 281720.32, 4159671.12 ], [ 281719.88, 4159671.35 ], [ 281716.16, 4159673.11 ], [ 281716.24, 4159673.54 ], [ 281716.29, 4159674.02 ], [ 281716.3, 4159674.51 ], [ 281716.25, 4159675.0 ], [ 281716.15, 4159675.48 ], [ 281716.01, 4159675.95 ], [ 281715.83, 4159676.41 ], [ 281715.82, 4159676.42 ], [ 281715.85, 4159676.73 ], [ 281715.85, 4159677.23 ], [ 281715.8, 4159677.72 ], [ 281715.71, 4159678.2 ], [ 281715.57, 4159678.67 ], [ 281715.38, 4159679.12 ], [ 281715.14, 4159679.56 ], [ 281714.97, 4159679.82 ], [ 281714.96, 4159679.97 ], [ 281714.86, 4159680.45 ], [ 281714.72, 4159680.92 ], [ 281714.53, 4159681.37 ], [ 281714.3, 4159681.81 ], [ 281714.03, 4159682.22 ], [ 281713.81, 4159682.49 ], [ 281721.46, 4159679.02 ], [ 281733.4, 4159673.55 ], [ 281729.97, 4159669.32 ], [ 281728.77, 4159669.15 ], [ 281727.81, 4159668.57 ] ] ], [ [ [ 281749.52, 4159693.5 ], [ 281740.7, 4159682.59 ], [ 281737.35, 4159678.45 ], [ 281727.65, 4159682.9 ], [ 281739.44, 4159696.86 ], [ 281749.52, 4159693.5 ] ] ] ] } },
{ "type": "Feature", "properties": { "id": "imagery:groundcover_lawn:1122", "name": null, "kind": "groundcover_lawn", "sport": null, "surface": null, "pitch_layout": null, "source": "vgin_vbmp+naip+lidar2025", "source_updated": null, "base_z": null, "top_z": null }, "geometry": { "type": "MultiPolygon", "coordinates": [ [ [ [ 281687.42, 4159506.63 ], [ 281693.64, 4159503.73 ], [ 281693.73, 4159503.69 ], [ 281693.82, 4159503.66 ], [ 281693.92, 4159503.64 ], [ 281694.01, 4159503.63 ], [ 281694.11, 4159503.63 ], [ 281694.2, 4159503.64 ], [ 281694.3, 4159503.66 ], [ 281694.39, 4159503.69 ], [ 281694.48, 4159503.72 ], [ 281694.56, 4159503.77 ], [ 281694.65, 4159503.82 ], [ 281694.72, 4159503.88 ], [ 281694.79, 4159503.95 ], [ 281694.85, 4159504.02 ], [ 281694.91, 4159504.1 ], [ 281694.96, 4159504.18 ], [ 281696.3, 4159506.85 ], [ 281696.43, 4159506.89 ], [ 281698.48, 4159508.31 ], [ 281699.02, 4159509.0 ], [ 281699.49, 4159510.25 ], [ 281704.73, 4159510.95 ], [ 281705.91, 4159509.32 ], [ 281706.63, 4159508.79 ], [ 281708.5, 4159508.17 ], [ 281708.92, 4159508.24 ], [ 281708.68, 4159507.74 ], [ 281705.28, 4159505.13 ], [ 281705.06, 4159504.94 ], [ 281704.85, 4159504.73 ], [ 281704.67, 4159504.5 ], [ 281704.51, 4159504.25 ], [ 281704.37, 4159503.99 ], [ 281702.53, 4159500.0 ], [ 281683.39, 4159500.0 ], [ 281682.19, 4159500.12 ], [ 281669.73, 4159506.01 ], [ 281669.1, 4159509.81 ], [ 281673.4, 4159512.99 ], [ 281685.34, 4159507.02 ], [ 281685.67, 4159506.9 ], [ 281686.67, 4159506.67 ], [ 281687.01, 4159506.63 ], [ 281687.42, 4159506.63 ] ] ], [ [ [ 281737.54, 4159540.27 ], [ 281737.95, 4159540.07 ], [ 281740.13, 4159537.28 ], [ 281740.13, 4159528.22 ], [ 281740.55, 4159527.2 ], [ 281742.71, 4159525.05 ], [ 281743.77, 4159524.61 ], [ 281745.58, 4159521.34 ], [ 281744.0, 4159511.82 ], [ 281737.58, 4159515.01 ], [ 281737.3, 4159515.13 ], [ 281737.02, 4159515.22 ], [ 281736.72, 4159515.28 ], [ 281736.42, 4159515.32 ], [ 281736.12, 4159515.32 ], [ 281735.82, 4159515.3 ], [ 281735.53, 4159515.24 ], [ 281735.24, 4159515.16 ], [ 281734.96, 4159515.05 ], [ 281734.69, 4159514.91 ], [ 281734.44, 4159514.75 ], [ 281734.21, 4159514.56 ], [ 281733.99, 4159514.35 ], [ 281733.8, 4159514.12 ], [ 281733.63, 4159513.88 ], [ 281733.48, 4159513.61 ], [ 281726.83, 4159500.0 ], [ 281714.23, 4159500.0 ], [ 281714.31, 4159500.15 ], [ 281714.43, 4159500.42 ], [ 281714.52, 4159500.7 ], [ 281714.59, 4159500.99 ], [ 281714.62, 4159501.28 ], [ 281714.63, 4159501.57 ], [ 281714.61, 4159501.87 ], [ 281714.23, 4159505.2 ], [ 281726.44, 4159529.68 ], [ 281726.56, 4159529.96 ], [ 281726.66, 4159530.26 ], [ 281726.72, 4159530.57 ], [ 281726.76, 4159530.88 ], [ 281726.76, 4159531.19 ], [ 281726.72, 4159531.93 ], [ 281727.27, 4159532.59 ], [ 281727.52, 4159533.04 ], [ 281728.04, 4159534.47 ], [ 281728.13, 4159534.97 ], [ 281728.13, 4159538.78 ], [ 281731.86, 4159541.69 ], [ 281737.54, 4159540.27 ] ] ] ] } },
{ "type": "Feature", "properties": { "id": "imagery:groundcover_paved:1063", "name": null, "kind": "groundcover_paved", "sport": null, "surface": null, "pitch_layout": null, "source": "vgin_vbmp+naip+lidar2025", "source_updated": null, "base_z": null, "top_z": null }, "geometry": { "type": "MultiPolygon", "coordinates": [ [ [ [ 281704.95, 4159513.16 ], [ 281706.46, 4159516.79 ], [ 281708.1, 4159517.61 ], [ 281708.29, 4159517.78 ], [ 281711.46, 4159518.02 ], [ 281710.41, 4159520.48 ], [ 281710.13, 4159520.48 ], [ 281710.13, 4159525.33 ], [ 281712.78, 4159530.57 ], [ 281712.98, 4159531.02 ], [ 281713.14, 4159531.48 ], [ 281713.24, 4159531.95 ], [ 281713.31, 4159532.43 ], [ 281713.32, 4159532.91 ], [ 281713.29, 4159533.4 ], [ 281713.21, 4159533.88 ], [ 281713.09, 4159534.34 ], [ 281712.92, 4159534.8 ], [ 281712.71, 4159535.23 ], [ 281712.45, 4159535.65 ], [ 281712.16, 4159536.03 ], [ 281711.83, 4159536.39 ], [ 281711.52, 4159536.67 ], [ 281711.52, 4159536.68 ], [ 281711.52, 4159537.15 ], [ 281711.47, 4159537.63 ], [ 281711.38, 4159538.09 ], [ 281711.24, 4159538.55 ], [ 281711.19, 4159538.68 ], [ 281720.49, 4159534.24 ], [ 281720.62, 4159531.68 ], [ 281713.79, 4159517.99 ], [ 281712.11, 4159517.66 ], [ 281712.71, 4159515.83 ], [ 281708.68, 4159507.74 ], [ 281708.23, 4159507.39 ], [ 281706.45, 4159508.68 ], [ 281704.95, 4159513.16 ] ] ], [ [ [ 281727.9, 4159534.98 ], [ 281727.25, 4159532.57 ], [ 281726.72, 4159531.93 ], [ 281726.49, 4159536.36 ], [ 281726.47, 4159536.66 ], [ 281726.41, 4159536.95 ], [ 281726.32, 4159537.24 ], [ 281726.21, 4159537.51 ], [ 281726.07, 4159537.77 ], [ 281725.9, 4159538.02 ], [ 281725.71, 4159538.25 ], [ 281725.5, 4159538.46 ], [ 281725.27, 4159538.65 ], [ 281725.02, 4159538.82 ], [ 281724.76, 4159538.96 ], [ 281705.86, 4159547.99 ], [ 281705.35, 4159548.35 ], [ 281704.56, 4159548.61 ], [ 281703.78, 4159548.98 ], [ 281701.13, 4159551.63 ], [ 281701.13, 4159552.28 ], [ 281703.4, 4159555.19 ], [ 281705.54, 4159555.73 ], [ 281726.1, 4159545.8 ], [ 281727.9, 4159534.98 ] ] ] ] } },
{ "type": "Feature", "properties": { "id": "richmond_structure:409487", "name": null, "kind": "deck", "sport": null, "surface": null, "pitch_layout": null, "source": "richmond_structures", "source_updated": "2026-09-08T12:07:13.637000Z", "base_z": null, "top_z": null }, "geometry": { "type": "Polygon", "coordinates": [ [ [ 281664.02, 4159572.8 ], [ 281661.37, 4159574.13 ], [ 281662.95, 4159577.48 ], [ 281668.08, 4159575.07 ], [ 281665.4, 4159569.31 ], [ 281662.91, 4159570.44 ], [ 281664.02, 4159572.8 ] ] ] } },
{ "type": "Feature", "properties": { "id": "richmond_structure:262524", "name": null, "kind": "deck", "sport": null, "surface": null, "pitch_layout": null, "source": "richmond_structures", "source_updated": "2026-09-08T12:07:13.637000Z", "base_z": null, "top_z": null }, "geometry": { "type": "Polygon", "coordinates": [ [ [ 281705.84, 4159575.37 ], [ 281708.04, 4159579.92 ], [ 281712.07, 4159578.11 ], [ 281710.0, 4159573.5 ], [ 281705.84, 4159575.37 ] ] ] } },
{ "type": "Feature", "properties": { "id": "richmond_structure:409485", "name": null, "kind": "deck", "sport": null, "surface": null, "pitch_layout": null, "source": "richmond_structures", "source_updated": "2026-09-08T12:07:13.637000Z", "base_z": null, "top_z": null }, "geometry": { "type": "Polygon", "coordinates": [ [ [ 281645.34, 4159579.16 ], [ 281639.51, 4159581.9 ], [ 281642.36, 4159587.89 ], [ 281649.38, 4159584.61 ], [ 281643.97, 4159573.09 ], [ 281642.76, 4159573.66 ], [ 281645.34, 4159579.16 ] ] ] } },
{ "type": "Feature", "properties": { "id": "richmond_structure:260648", "name": null, "kind": "deck", "sport": null, "surface": null, "pitch_layout": null, "source": "richmond_structures", "source_updated": "2026-09-08T12:07:13.637000Z", "base_z": null, "top_z": null }, "geometry": { "type": "Polygon", "coordinates": [ [ [ 281714.54, 4159582.44 ], [ 281712.51, 4159577.91 ], [ 281708.04, 4159579.92 ], [ 281710.07, 4159584.44 ], [ 281714.54, 4159582.44 ] ] ] } },
{ "type": "Feature", "properties": { "id": "richmond_structure:408694", "name": null, "kind": "deck", "sport": null, "surface": null, "pitch_layout": null, "source": "richmond_structures", "source_updated": "2026-09-08T12:07:13.637000Z", "base_z": null, "top_z": null }, "geometry": { "type": "Polygon", "coordinates": [ [ [ 281715.23, 4159587.17 ], [ 281710.41, 4159589.4 ], [ 281712.28, 4159593.41 ], [ 281712.6, 4159593.26 ], [ 281713.7, 4159595.63 ], [ 281714.9, 4159595.07 ], [ 281713.8, 4159592.7 ], [ 281717.09, 4159591.18 ], [ 281715.23, 4159587.17 ] ] ] } },
{ "type": "Feature", "properties": { "id": "richmond_structure:262511", "name": null, "kind": "deck", "sport": null, "surface": null, "pitch_layout": null, "source": "richmond_structures", "source_updated": "2026-09-08T12:07:13.637000Z", "base_z": null, "top_z": null }, "geometry": { "type": "Polygon", "coordinates": [ [ [ 281659.61, 4159599.96 ], [ 281664.19, 4159597.89 ], [ 281660.25, 4159589.19 ], [ 281655.67, 4159591.26 ], [ 281659.61, 4159599.96 ] ] ] } },
{ "type": "Feature", "properties": { "id": "richmond_structure:269603", "name": null, "kind": "deck", "sport": null, "surface": null, "pitch_layout": null, "source": "richmond_structures", "source_updated": "2026-09-08T12:07:13.637000Z", "base_z": null, "top_z": null }, "geometry": { "type": "Polygon", "coordinates": [ [ [ 281704.29, 4159603.04 ], [ 281707.99, 4159601.32 ], [ 281705.86, 4159596.73 ], [ 281702.16, 4159598.45 ], [ 281704.29, 4159603.04 ] ] ] } },
{ "type": "Feature", "properties": { "id": "richmond_structure:409486", "name": null, "kind": "deck", "sport": null, "surface": null, "pitch_layout": null, "source": "richmond_structures", "source_updated": "2026-09-08T12:07:13.637000Z", "base_z": null, "top_z": null }, "geometry": { "type": "Polygon", "coordinates": [ [ [ 281666.97, 4159612.1 ], [ 281673.22, 4159609.19 ], [ 281670.44, 4159603.25 ], [ 281664.19, 4159606.16 ], [ 281666.97, 4159612.1 ] ] ] } },
{ "type": "Feature", "properties": { "id": "richmond_structure:409475", "name": null, "kind": "deck", "sport": null, "surface": null, "pitch_layout": null, "source": "richmond_structures", "source_updated": "2026-09-08T12:07:13.637000Z", "base_z": null, "top_z": null }, "geometry": { "type": "Polygon", "coordinates": [ [ [ 281597.14, 4159500.0 ], [ 281594.08, 4159500.0 ], [ 281594.65, 4159501.19 ], [ 281597.14, 4159500.0 ] ] ] } },
{ "type": "Feature", "properties": { "id": "imagery:groundcover_paved:1077", "name": null, "kind": "groundcover_paved", "sport": null, "surface": null, "pitch_layout": null, "source": "vgin_vbmp+naip+lidar2025", "source_updated": null, "base_z": null, "top_z": null }, "geometry": { "type": "Polygon", "coordinates": [ [ [ 281637.68, 4159500.0 ], [ 281637.77, 4159500.21 ], [ 281637.91, 4159500.68 ], [ 281638.01, 4159501.16 ], [ 281638.06, 4159501.65 ], [ 281638.07, 4159502.14 ], [ 281638.02, 4159502.63 ], [ 281637.93, 4159503.12 ], [ 281637.79, 4159503.59 ], [ 281637.6, 4159504.04 ], [ 281637.37, 4159504.48 ], [ 281637.1, 4159504.89 ], [ 281636.79, 4159505.27 ], [ 281636.45, 4159505.62 ], [ 281636.07, 4159505.93 ], [ 281635.66, 4159506.21 ], [ 281635.23, 4159506.44 ], [ 281631.03, 4159508.45 ], [ 281630.08, 4159509.96 ], [ 281629.3, 4159510.57 ], [ 281625.18, 4159511.94 ], [ 281623.13, 4159514.79 ], [ 281623.13, 4159518.59 ], [ 281642.77, 4159509.25 ], [ 281638.36, 4159500.0 ], [ 281637.68, 4159500.0 ] ] ] } },
{ "type": "Feature", "properties": { "id": "imagery:groundcover_lawn:1059", "name": null, "kind": "groundcover_lawn", "sport": null, "surface": null, "pitch_layout": null, "source": "vgin_vbmp+naip+lidar2025", "source_updated": null, "base_z": null, "top_z": null }, "geometry": { "type": "Polygon", "coordinates": [ [ [ 281626.29, 4159536.16 ], [ 281626.38, 4159536.12 ], [ 281626.47, 4159536.09 ], [ 281626.57, 4159536.08 ], [ 281626.66, 4159536.07 ], [ 281626.76, 4159536.07 ], [ 281626.86, 4159536.08 ], [ 281626.96, 4159536.1 ], [ 281627.05, 4159536.13 ], [ 281627.14, 4159536.17 ], [ 281627.23, 4159536.21 ], [ 281627.31, 4159536.27 ], [ 281627.38, 4159536.33 ], [ 281627.45, 4159536.4 ], [ 281627.51, 4159536.48 ], [ 281627.57, 4159536.56 ], [ 281627.61, 4159536.65 ], [ 281628.08, 4159537.67 ], [ 281628.64, 4159537.42 ], [ 281628.74, 4159537.38 ], [ 281628.83, 4159537.35 ], [ 281628.93, 4159537.33 ], [ 281629.02, 4159537.33 ], [ 281629.12, 4159537.33 ], [ 281629.22, 4159537.34 ], [ 281629.31, 4159537.36 ], [ 281629.41, 4159537.39 ], [ 281629.5, 4159537.43 ], [ 281629.58, 4159537.47 ], [ 281629.66, 4159537.53 ], [ 281629.74, 4159537.59 ], [ 281629.81, 4159537.66 ], [ 281629.87, 4159537.74 ], [ 281629.92, 4159537.82 ], [ 281629.97, 4159537.91 ], [ 281630.96, 4159540.05 ], [ 281632.6, 4159541.06 ], [ 281633.15, 4159541.66 ], [ 281636.27, 4159547.9 ], [ 281641.07, 4159548.68 ], [ 281646.25, 4159543.5 ], [ 281646.43, 4159543.08 ], [ 281646.44, 4159543.03 ], [ 281646.47, 4159542.93 ], [ 281646.5, 4159542.84 ], [ 281646.55, 4159542.75 ], [ 281646.59, 4159542.7 ], [ 281647.13, 4159541.38 ], [ 281647.13, 4159521.63 ], [ 281644.13, 4159518.63 ], [ 281643.08, 4159518.63 ], [ 281642.68, 4159518.81 ], [ 281640.3, 4159520.28 ], [ 281639.15, 4159522.59 ], [ 281638.6, 4159523.19 ], [ 281636.63, 4159524.41 ], [ 281635.86, 4159524.63 ], [ 281630.46, 4159524.63 ], [ 281615.44, 4159531.77 ], [ 281614.71, 4159536.13 ], [ 281617.67, 4159539.63 ], [ 281618.75, 4159539.63 ], [ 281626.29, 4159536.16 ] ] ] } },
{ "type": "Feature", "properties": { "id": "imagery:groundcover_lawn:1045", "name": null, "kind": "groundcover_lawn", "sport": null, "surface": null, "pitch_layout": null, "source": "vgin_vbmp+naip+lidar2025", "source_updated": null, "base_z": null, "top_z": null }, "geometry": { "type": "Polygon", "coordinates": [ [ [ 281580.55, 4159554.17 ], [ 281580.61, 4159554.1 ], [ 281580.68, 4159554.03 ], [ 281580.76, 4159553.97 ], [ 281580.84, 4159553.91 ], [ 281580.93, 4159553.87 ], [ 281584.13, 4159552.38 ], [ 281592.14, 4159546.37 ], [ 281592.56, 4159546.15 ], [ 281593.9, 4159545.7 ], [ 281594.37, 4159545.63 ], [ 281594.92, 4159545.63 ], [ 281597.73, 4159541.56 ], [ 281597.36, 4159540.59 ], [ 281597.36, 4159540.27 ], [ 281569.57, 4159553.18 ], [ 281579.93, 4159554.48 ], [ 281580.45, 4159554.34 ], [ 281580.49, 4159554.25 ], [ 281580.55, 4159554.17 ] ] ] } },
{ "type": "Feature", "properties": { "id": "richmond_structure:260646", "name": null, "kind": "deck", "sport": null, "surface": null, "pitch_layout": null, "source": "richmond_structures", "source_updated": "2026-09-08T12:07:13.637000Z", "base_z": null, "top_z": null }, "geometry": { "type": "Polygon", "coordinates": [ [ [ 281501.82, 4159541.97 ], [ 281500.0, 4159542.79 ], [ 281500.0, 4159551.26 ], [ 281501.21, 4159553.92 ], [ 281506.2, 4159551.66 ], [ 281501.82, 4159541.97 ] ] ] } },
{ "type": "Feature", "properties": { "id": "imagery:groundcover_lawn:1067", "name": null, "kind": "groundcover_lawn", "sport": null, "surface": null, "pitch_layout": null, "source": "vgin_vbmp+naip+lidar2025", "source_updated": null, "base_z": null, "top_z": null }, "geometry": { "type": "MultiPolygon", "coordinates": [ [ [ [ 281509.72, 4159531.11 ], [ 281512.13, 4159528.17 ], [ 281512.13, 4159520.93 ], [ 281503.14, 4159501.78 ], [ 281501.28, 4159500.63 ], [ 281500.0, 4159500.63 ], [ 281500.0, 4159528.58 ], [ 281502.62, 4159532.53 ], [ 281509.72, 4159531.11 ] ] ], [ [ [ 281501.36, 4159597.82 ], [ 281504.59, 4159597.56 ], [ 281505.72, 4159597.97 ], [ 281506.5, 4159598.75 ], [ 281508.62, 4159599.63 ], [ 281512.86, 4159599.63 ], [ 281513.26, 4159599.74 ], [ 281514.85, 4159599.66 ], [ 281515.01, 4159599.65 ], [ 281520.82, 4159599.67 ], [ 281520.83, 4159599.67 ], [ 281528.75, 4159599.7 ], [ 281533.08, 4159598.1 ], [ 281534.69, 4159597.35 ], [ 281540.3, 4159594.54 ], [ 281541.95, 4159591.59 ], [ 281541.14, 4159582.75 ], [ 281521.6, 4159541.11 ], [ 281519.0, 4159542.33 ], [ 281515.67, 4159560.64 ], [ 281515.17, 4159561.5 ], [ 281515.04, 4159561.61 ], [ 281518.43, 4159574.39 ], [ 281518.46, 4159574.56 ], [ 281518.48, 4159574.74 ], [ 281518.49, 4159574.92 ], [ 281518.47, 4159575.09 ], [ 281518.44, 4159575.27 ], [ 281518.39, 4159575.44 ], [ 281518.32, 4159575.6 ], [ 281518.24, 4159575.76 ], [ 281518.15, 4159575.91 ], [ 281518.04, 4159576.04 ], [ 281517.91, 4159576.17 ], [ 281517.78, 4159576.28 ], [ 281517.63, 4159576.38 ], [ 281517.48, 4159576.47 ], [ 281517.32, 4159576.54 ], [ 281517.15, 4159576.59 ], [ 281516.98, 4159576.63 ], [ 281516.8, 4159576.65 ], [ 281516.62, 4159576.65 ], [ 281516.45, 4159576.64 ], [ 281516.27, 4159576.61 ], [ 281516.1, 4159576.56 ], [ 281515.94, 4159576.49 ], [ 281515.78, 4159576.41 ], [ 281515.63, 4159576.31 ], [ 281515.5, 4159576.2 ], [ 281515.37, 4159576.08 ], [ 281515.26, 4159575.95 ], [ 281515.16, 4159575.8 ], [ 281515.07, 4159575.65 ], [ 281515.0, 4159575.48 ], [ 281514.95, 4159575.31 ], [ 281511.85, 4159563.63 ], [ 281509.67, 4159563.63 ], [ 281506.78, 4159567.04 ], [ 281510.7, 4159575.55 ], [ 281510.74, 4159575.64 ], [ 281510.77, 4159575.73 ], [ 281510.79, 4159575.83 ], [ 281510.79, 4159575.93 ], [ 281510.79, 4159576.03 ], [ 281510.78, 4159576.13 ], [ 281510.76, 4159576.22 ], [ 281510.73, 4159576.32 ], [ 281510.69, 4159576.41 ], [ 281510.65, 4159576.49 ], [ 281510.59, 4159576.57 ], [ 281510.53, 4159576.65 ], [ 281510.46, 4159576.72 ], [ 281510.38, 4159576.78 ], [ 281510.3, 4159576.83 ], [ 281510.21, 4159576.88 ], [ 281508.47, 4159577.67 ], [ 281508.69, 4159578.97 ], [ 281508.55, 4159579.87 ], [ 281507.37, 4159582.19 ], [ 281506.72, 4159582.83 ], [ 281500.0, 4159586.19 ], [ 281500.0, 4159598.84 ], [ 281500.31, 4159598.41 ], [ 281501.36, 4159597.82 ] ] ] ] } },
{ "type": "Feature", "properties": { "id": "imagery:groundcover_lawn:1014", "name": null, "kind": "groundcover_lawn", "sport": null, "surface": null, "pitch_layout": null, "source": "vgin_vbmp+naip+lidar2025", "source_updated": null, "base_z": null, "top_z": null }, "geometry": { "type": "Polygon", "coordinates": [ [ [ 281603.37, 4159578.47 ], [ 281603.4, 4159578.57 ], [ 281603.42, 4159578.66 ], [ 281603.43, 4159578.76 ], [ 281603.43, 4159578.86 ], [ 281603.42, 4159578.96 ], [ 281603.4, 4159579.05 ], [ 281603.37, 4159579.15 ], [ 281603.34, 4159579.24 ], [ 281608.6, 4159595.05 ], [ 281612.68, 4159603.68 ], [ 281612.72, 4159603.77 ], [ 281612.75, 4159603.87 ], [ 281612.77, 4159603.96 ], [ 281612.78, 4159604.06 ], [ 281612.78, 4159604.16 ], [ 281612.77, 4159604.26 ], [ 281612.75, 4159604.35 ], [ 281612.72, 4159604.45 ], [ 281612.68, 4159604.54 ], [ 281612.63, 4159604.63 ], [ 281612.58, 4159604.71 ], [ 281612.52, 4159604.78 ], [ 281612.45, 4159604.85 ], [ 281612.37, 4159604.91 ], [ 281612.29, 4159604.97 ], [ 281612.2, 4159605.02 ], [ 281611.96, 4159605.13 ], [ 281612.29, 4159606.09 ], [ 281612.31, 4159606.09 ], [ 281612.4, 4159606.12 ], [ 281612.5, 4159606.16 ], [ 281612.58, 4159606.2 ], [ 281612.66, 4159606.26 ], [ 281612.74, 4159606.32 ], [ 281612.81, 4159606.39 ], [ 281612.87, 4159606.47 ], [ 281612.93, 4159606.55 ], [ 281612.97, 4159606.63 ], [ 281613.96, 4159608.73 ], [ 281617.23, 4159610.08 ], [ 281621.67, 4159607.85 ], [ 281619.68, 4159603.63 ], [ 281619.64, 4159603.54 ], [ 281619.61, 4159603.45 ], [ 281619.59, 4159603.35 ], [ 281619.58, 4159603.25 ], [ 281619.58, 4159603.16 ], [ 281619.59, 4159603.06 ], [ 281619.61, 4159602.96 ], [ 281619.64, 4159602.87 ], [ 281619.68, 4159602.78 ], [ 281619.72, 4159602.69 ], [ 281619.78, 4159602.61 ], [ 281619.84, 4159602.53 ], [ 281619.91, 4159602.46 ], [ 281619.98, 4159602.4 ], [ 281620.07, 4159602.35 ], [ 281620.15, 4159602.3 ], [ 281626.3, 4159599.4 ], [ 281626.39, 4159599.36 ], [ 281626.48, 4159599.33 ], [ 281626.58, 4159599.31 ], [ 281626.67, 4159599.3 ], [ 281626.77, 4159599.3 ], [ 281626.87, 4159599.31 ], [ 281626.97, 4159599.33 ], [ 281627.06, 4159599.36 ], [ 281627.15, 4159599.4 ], [ 281627.24, 4159599.44 ], [ 281627.32, 4159599.5 ], [ 281627.39, 4159599.56 ], [ 281627.46, 4159599.63 ], [ 281627.53, 4159599.71 ], [ 281627.58, 4159599.79 ], [ 281627.63, 4159599.87 ], [ 281629.54, 4159603.92 ], [ 281629.8, 4159603.79 ], [ 281631.31, 4159600.16 ], [ 281630.3, 4159597.14 ], [ 281630.65, 4159595.72 ], [ 281631.48, 4159594.91 ], [ 281626.71, 4159584.78 ], [ 281626.01, 4159584.54 ], [ 281625.96, 4159584.5 ], [ 281625.46, 4159584.63 ], [ 281625.6, 4159584.36 ], [ 281616.16, 4159579.64 ], [ 281615.57, 4159579.1 ], [ 281614.35, 4159577.13 ], [ 281614.13, 4159576.35 ], [ 281614.13, 4159569.63 ], [ 281611.13, 4159566.63 ], [ 281603.29, 4159566.63 ], [ 281600.45, 4159570.57 ], [ 281602.42, 4159576.48 ], [ 281603.33, 4159578.38 ], [ 281603.37, 4159578.47 ] ] ] } },
{ "type": "Feature", "properties": { "id": "osm:way/466512847", "name": null, "kind": "grass", "sport": null, "surface": null, "pitch_layout": null, "source": null, "source_updated": null, "base_z": null, "top_z": null }, "geometry": { "type": "Polygon", "coordinates": [ [ [ 281554.7, 4159622.51 ], [ 281554.35, 4159614.69 ], [ 281555.47, 4159614.31 ], [ 281548.85, 4159599.71 ], [ 281533.75, 4159607.17 ], [ 281527.33, 4159607.69 ], [ 281532.11, 4159619.02 ], [ 281532.38, 4159626.43 ], [ 281536.21, 4159634.48 ], [ 281550.81, 4159628.1 ], [ 281550.33, 4159626.87 ], [ 281554.7, 4159622.51 ] ] ] } },
{ "type": "Feature", "properties": { "id": "osm:way/1126612543", "name": null, "kind": "grass", "sport": null, "surface": null, "pitch_layout": null, "source": null, "source_updated": null, "base_z": null, "top_z": null }, "geometry": { "type": "Polygon", "coordinates": [ [ [ 281541.29, 4159644.72 ], [ 281553.97, 4159671.49 ], [ 281557.75, 4159674.19 ], [ 281566.6, 4159677.14 ], [ 281571.88, 4159676.59 ], [ 281578.84, 4159672.93 ], [ 281583.88, 4159674.22 ], [ 281568.77, 4159642.39 ], [ 281561.27, 4159637.55 ], [ 281555.25, 4159637.5 ], [ 281541.29, 4159644.72 ] ] ] } },
{ "type": "Feature", "properties": { "id": "imagery:groundcover_lawn:947", "name": null, "kind": "groundcover_lawn", "sport": null, "surface": null, "pitch_layout": null, "source": "vgin_vbmp+naip+lidar2025", "source_updated": null, "base_z": null, "top_z": null }, "geometry": { "type": "Polygon", "coordinates": [ [ [ 281553.78, 4159675.47 ], [ 281553.73, 4159676.02 ], [ 281549.22, 4159691.8 ], [ 281552.11, 4159695.63 ], [ 281554.83, 4159695.63 ], [ 281583.19, 4159682.03 ], [ 281584.13, 4159680.63 ], [ 281584.13, 4159675.63 ], [ 281583.64, 4159674.15 ], [ 281578.84, 4159672.93 ], [ 281571.88, 4159676.59 ], [ 281566.6, 4159677.14 ], [ 281557.75, 4159674.19 ], [ 281553.97, 4159671.49 ], [ 281543.28, 4159648.91 ], [ 281543.1, 4159649.18 ], [ 281542.91, 4159652.18 ], [ 281553.48, 4159673.33 ], [ 281553.64, 4159673.86 ], [ 281553.78, 4159675.47 ] ] ] } },
{ "type": "Feature", "properties": { "id": "imagery:groundcover_lawn:989", "name": null, "kind": "groundcover_lawn", "sport": null, "surface": null, "pitch_layout": null, "source": "vgin_vbmp+naip+lidar2025", "source_updated": null, "base_z": null, "top_z": null }, "geometry": { "type": "Polygon", "coordinates": [ [ [ 281660.06, 4159619.57 ], [ 281660.16, 4159619.58 ], [ 281660.26, 4159619.6 ], [ 281660.35, 4159619.63 ], [ 281660.44, 4159619.67 ], [ 281660.53, 4159619.72 ], [ 281660.61, 4159619.77 ], [ 281660.69, 4159619.84 ], [ 281660.76, 4159619.91 ], [ 281660.82, 4159619.99 ], [ 281660.87, 4159620.07 ], [ 281660.92, 4159620.16 ], [ 281661.95, 4159622.51 ], [ 281663.65, 4159623.49 ], [ 281664.81, 4159622.96 ], [ 281667.2, 4159619.9 ], [ 281665.64, 4159613.65 ], [ 281665.65, 4159612.9 ], [ 281665.86, 4159612.13 ], [ 281665.86, 4159612.11 ], [ 281665.84, 4159612.02 ], [ 281665.83, 4159611.92 ], [ 281665.83, 4159611.82 ], [ 281665.84, 4159611.72 ], [ 281665.86, 4159611.63 ], [ 281665.89, 4159611.53 ], [ 281665.93, 4159611.44 ], [ 281665.97, 4159611.36 ], [ 281666.03, 4159611.28 ], [ 281666.09, 4159611.2 ], [ 281666.13, 4159611.17 ], [ 281666.23, 4159610.8 ], [ 281666.8, 4159609.81 ], [ 281666.19, 4159609.46 ], [ 281665.4, 4159605.49 ], [ 281664.71, 4159605.2 ], [ 281662.55, 4159603.05 ], [ 281662.13, 4159602.03 ], [ 281662.13, 4159598.23 ], [ 281660.8, 4159595.74 ], [ 281656.67, 4159592.99 ], [ 281652.1, 4159594.76 ], [ 281651.17, 4159598.48 ], [ 281652.52, 4159601.39 ], [ 281660.08, 4159617.39 ], [ 281660.12, 4159617.48 ], [ 281660.15, 4159617.58 ], [ 281660.17, 4159617.68 ], [ 281660.18, 4159617.77 ], [ 281660.18, 4159617.87 ], [ 281660.17, 4159617.97 ], [ 281660.15, 4159618.07 ], [ 281660.12, 4159618.16 ], [ 281660.08, 4159618.25 ], [ 281660.03, 4159618.34 ], [ 281659.98, 4159618.42 ], [ 281659.91, 4159618.5 ], [ 281659.84, 4159618.57 ], [ 281659.76, 4159618.63 ], [ 281659.68, 4159618.68 ], [ 281659.59, 4159618.73 ], [ 281659.39, 4159618.82 ], [ 281659.82, 4159619.58 ], [ 281659.86, 4159619.57 ], [ 281659.96, 4159619.56 ], [ 281660.06, 4159619.57 ] ] ] } },
{ "type": "Feature", "properties": { "id": "imagery:groundcover_lawn:1004", "name": null, "kind": "groundcover_lawn", "sport": null, "surface": null, "pitch_layout": null, "source": "vgin_vbmp+naip+lidar2025", "source_updated": null, "base_z": null, "top_z": null }, "geometry": { "type": "MultiPolygon", "coordinates": [ [ [ [ 281699.44, 4159604.12 ], [ 281699.47, 4159604.02 ], [ 281699.5, 4159603.93 ], [ 281699.55, 4159603.84 ], [ 281699.6, 4159603.76 ], [ 281699.66, 4159603.69 ], [ 281699.73, 4159603.62 ], [ 281699.81, 4159603.55 ], [ 281699.89, 4159603.5 ], [ 281699.93, 4159603.48 ], [ 281700.6, 4159602.42 ], [ 281701.47, 4159601.79 ], [ 281705.65, 4159600.75 ], [ 281708.6, 4159599.41 ], [ 281708.69, 4159599.37 ], [ 281708.78, 4159599.34 ], [ 281708.88, 4159599.33 ], [ 281708.98, 4159599.32 ], [ 281709.07, 4159599.32 ], [ 281709.17, 4159599.33 ], [ 281709.26, 4159599.35 ], [ 281710.65, 4159598.06 ], [ 281711.6, 4159595.23 ], [ 281708.33, 4159591.31 ], [ 281695.13, 4159593.2 ], [ 281694.16, 4159592.99 ], [ 281691.79, 4159591.53 ], [ 281691.17, 4159590.75 ], [ 281687.01, 4159578.26 ], [ 281684.26, 4159576.75 ], [ 281699.29, 4159608.43 ], [ 281698.81, 4159606.0 ], [ 281699.0, 4159604.94 ], [ 281699.41, 4159604.29 ], [ 281699.42, 4159604.21 ], [ 281699.44, 4159604.12 ] ] ], [ [ [ 281733.47, 4159610.2 ], [ 281718.82, 4159616.47 ], [ 281717.61, 4159617.61 ], [ 281714.81, 4159619.84 ], [ 281713.64, 4159620.13 ], [ 281707.63, 4159618.92 ], [ 281707.42, 4159619.01 ], [ 281707.34, 4159619.05 ], [ 281707.24, 4159619.07 ], [ 281707.15, 4159619.09 ], [ 281707.05, 4159619.09 ], [ 281706.96, 4159619.09 ], [ 281706.86, 4159619.08 ], [ 281706.77, 4159619.06 ], [ 281706.68, 4159619.03 ], [ 281706.59, 4159618.99 ], [ 281706.51, 4159618.95 ], [ 281706.43, 4159618.89 ], [ 281706.36, 4159618.83 ], [ 281706.29, 4159618.76 ], [ 281706.23, 4159618.69 ], [ 281706.19, 4159618.64 ], [ 281704.72, 4159618.34 ], [ 281704.2, 4159618.77 ], [ 281707.93, 4159626.63 ], [ 281710.06, 4159626.63 ], [ 281737.75, 4159613.59 ], [ 281737.63, 4159612.58 ], [ 281733.47, 4159610.2 ] ] ], [ [ [ 281728.32, 4159641.8 ], [ 281730.6, 4159639.91 ], [ 281730.68, 4159639.85 ], [ 281730.76, 4159639.8 ], [ 281730.85, 4159639.75 ], [ 281730.94, 4159639.72 ], [ 281731.04, 4159639.7 ], [ 281731.13, 4159639.68 ], [ 281731.23, 4159639.68 ], [ 281731.33, 4159639.68 ], [ 281731.43, 4159639.69 ], [ 281731.52, 4159639.72 ], [ 281731.61, 4159639.75 ], [ 281731.7, 4159639.79 ], [ 281731.79, 4159639.84 ], [ 281731.87, 4159639.9 ], [ 281731.94, 4159639.96 ], [ 281732.0, 4159640.04 ], [ 281732.33, 4159640.43 ], [ 281734.13, 4159638.63 ], [ 281734.13, 4159637.9 ], [ 281734.35, 4159637.12 ], [ 281735.57, 4159635.15 ], [ 281736.16, 4159634.61 ], [ 281736.77, 4159634.31 ], [ 281738.63, 4159632.83 ], [ 281739.87, 4159630.52 ], [ 281738.87, 4159622.57 ], [ 281719.13, 4159631.86 ], [ 281719.13, 4159642.23 ], [ 281722.87, 4159646.86 ], [ 281724.9, 4159645.77 ], [ 281725.55, 4159644.2 ], [ 281727.71, 4159642.05 ], [ 281728.32, 4159641.8 ] ] ] ] } },
{ "type": "Feature", "properties": { "id": "richmond_structure:424864", "name": null, "kind": "deck", "sport": null, "surface": null, "pitch_layout": null, "source": "richmond_structures", "source_updated": "2026-09-08T12:07:13.637000Z", "base_z": null, "top_z": null }, "geometry": { "type": "Polygon", "coordinates": [ [ [ 281662.87, 4159626.19 ], [ 281665.5, 4159624.94 ], [ 281662.33, 4159618.25 ], [ 281659.69, 4159619.5 ], [ 281662.87, 4159626.19 ] ] ] } },
{ "type": "Feature", "properties": { "id": "imagery:groundcover_lawn:946", "name": null, "kind": "groundcover_lawn", "sport": null, "surface": null, "pitch_layout": null, "source": "vgin_vbmp+naip+lidar2025", "source_updated": null, "base_z": null, "top_z": null }, "geometry": { "type": "Polygon", "coordinates": [ [ [ 281683.16, 4159659.38 ], [ 281683.25, 4159659.34 ], [ 281683.35, 4159659.32 ], [ 281683.44, 4159659.3 ], [ 281683.54, 4159659.29 ], [ 281683.64, 4159659.29 ], [ 281683.74, 4159659.3 ], [ 281683.83, 4159659.32 ], [ 281683.93, 4159659.34 ], [ 281684.02, 4159659.38 ], [ 281684.1, 4159659.43 ], [ 281684.18, 4159659.48 ], [ 281684.26, 4159659.54 ], [ 281684.33, 4159659.61 ], [ 281684.39, 4159659.69 ], [ 281684.45, 4159659.77 ], [ 281684.49, 4159659.86 ], [ 281686.18, 4159663.4 ], [ 281686.72, 4159663.67 ], [ 281687.24, 4159664.11 ], [ 281692.22, 4159670.74 ], [ 281695.4, 4159670.9 ], [ 281695.4, 4159670.83 ], [ 281695.41, 4159670.73 ], [ 281695.42, 4159670.64 ], [ 281695.45, 4159670.54 ], [ 281695.49, 4159670.45 ], [ 281695.54, 4159670.36 ], [ 281695.59, 4159670.28 ], [ 281695.65, 4159670.21 ], [ 281695.72, 4159670.14 ], [ 281695.8, 4159670.07 ], [ 281695.88, 4159670.02 ], [ 281695.97, 4159669.97 ], [ 281699.83, 4159668.14 ], [ 281699.93, 4159668.1 ], [ 281700.02, 4159668.07 ], [ 281700.11, 4159668.05 ], [ 281700.21, 4159668.04 ], [ 281700.31, 4159668.04 ], [ 281700.41, 4159668.05 ], [ 281700.5, 4159668.07 ], [ 281700.6, 4159668.1 ], [ 281700.69, 4159668.14 ], [ 281700.78, 4159668.18 ], [ 281700.81, 4159668.21 ], [ 281703.41, 4159665.04 ], [ 281702.43, 4159660.11 ], [ 281700.53, 4159656.13 ], [ 281700.49, 4159656.04 ], [ 281700.46, 4159655.94 ], [ 281700.44, 4159655.85 ], [ 281700.43, 4159655.75 ], [ 281700.43, 4159655.65 ], [ 281700.44, 4159655.55 ], [ 281700.46, 4159655.46 ], [ 281700.49, 4159655.36 ], [ 281700.53, 4159655.27 ], [ 281700.57, 4159655.18 ], [ 281700.63, 4159655.1 ], [ 281700.69, 4159655.03 ], [ 281700.76, 4159654.96 ], [ 281700.84, 4159654.89 ], [ 281700.92, 4159654.84 ], [ 281701.0, 4159654.79 ], [ 281709.86, 4159650.61 ], [ 281709.95, 4159650.57 ], [ 281710.04, 4159650.54 ], [ 281710.14, 4159650.52 ], [ 281710.2, 4159650.52 ], [ 281710.96, 4159649.28 ], [ 281708.12, 4159643.61 ], [ 281704.95, 4159641.99 ], [ 281694.04, 4159643.81 ], [ 281683.42, 4159648.91 ], [ 281678.33, 4159652.73 ], [ 281677.13, 4159655.13 ], [ 281677.13, 4159659.63 ], [ 281678.9, 4159661.4 ], [ 281683.16, 4159659.38 ] ] ] } },
{ "type": "Feature", "properties": { "id": "imagery:groundcover_lawn:890", "name": null, "kind": "groundcover_lawn", "sport": null, "surface": null, "pitch_layout": null, "source": "vgin_vbmp+naip+lidar2025", "source_updated": null, "base_z": null, "top_z": null }, "geometry": { "type": "Polygon", "coordinates": [ [ [ 281506.32, 4159715.16 ], [ 281505.1, 4159719.46 ], [ 281538.88, 4159703.27 ], [ 281536.44, 4159701.25 ], [ 281506.32, 4159715.16 ] ] ] } },
{ "type": "Feature", "properties": { "id": "richmond_structure:409307", "name": null, "kind": "deck", "sport": null, "surface": null, "pitch_layout": null, "source": "richmond_structures", "source_updated": "2026-09-08T12:07:13.637000Z", "base_z": null, "top_z": null }, "geometry": { "type": "Polygon", "coordinates": [ [ [ 281575.51, 4159720.72 ], [ 281576.32, 4159720.45 ], [ 281575.52, 4159718.74 ], [ 281574.29, 4159719.31 ], [ 281573.69, 4159718.05 ], [ 281574.64, 4159715.8 ], [ 281573.98, 4159714.62 ], [ 281572.36, 4159714.22 ], [ 281570.91, 4159713.4 ], [ 281569.48, 4159713.29 ], [ 281567.71, 4159714.01 ], [ 281563.42, 4159716.59 ], [ 281563.1, 4159717.65 ], [ 281563.41, 4159719.03 ], [ 281565.38, 4159720.69 ], [ 281566.64, 4159721.29 ], [ 281569.77, 4159720.95 ], [ 281571.2, 4159721.37 ], [ 281573.35, 4159723.38 ], [ 281574.43, 4159723.58 ], [ 281575.03, 4159722.98 ], [ 281574.67, 4159721.5 ], [ 281575.51, 4159720.72 ] ] ] } },
{ "type": "Feature", "properties": { "id": "imagery:groundcover_lawn:928", "name": null, "kind": "groundcover_lawn", "sport": null, "surface": null, "pitch_layout": null, "source": "vgin_vbmp+naip+lidar2025", "source_updated": null, "base_z": null, "top_z": null }, "geometry": { "type": "MultiPolygon", "coordinates": [ [ [ [ 281615.61, 4159663.34 ], [ 281614.64, 4159662.51 ], [ 281614.1, 4159661.36 ], [ 281611.38, 4159659.63 ], [ 281611.13, 4159659.63 ], [ 281609.57, 4159661.19 ], [ 281612.96, 4159668.33 ], [ 281613.91, 4159667.91 ], [ 281613.99, 4159667.88 ], [ 281614.07, 4159667.84 ], [ 281614.16, 4159667.82 ], [ 281614.24, 4159667.8 ], [ 281614.33, 4159667.78 ], [ 281614.41, 4159667.77 ], [ 281614.42, 4159667.77 ], [ 281614.5, 4159667.76 ], [ 281614.59, 4159667.75 ], [ 281614.68, 4159667.75 ], [ 281614.77, 4159667.76 ], [ 281614.86, 4159667.77 ], [ 281614.89, 4159667.77 ], [ 281615.18, 4159667.57 ], [ 281615.21, 4159667.85 ], [ 281615.28, 4159667.87 ], [ 281615.36, 4159667.91 ], [ 281615.44, 4159667.94 ], [ 281615.45, 4159667.94 ], [ 281615.52, 4159667.99 ], [ 281615.6, 4159668.03 ], [ 281615.67, 4159668.08 ], [ 281615.74, 4159668.13 ], [ 281615.81, 4159668.19 ], [ 281615.88, 4159668.25 ], [ 281615.94, 4159668.31 ], [ 281616.0, 4159668.37 ], [ 281616.05, 4159668.44 ], [ 281616.11, 4159668.51 ], [ 281616.16, 4159668.59 ], [ 281616.2, 4159668.66 ], [ 281616.24, 4159668.74 ], [ 281616.28, 4159668.82 ], [ 281617.38, 4159671.29 ], [ 281630.23, 4159665.06 ], [ 281628.3, 4159663.26 ], [ 281617.62, 4159665.04 ], [ 281617.66, 4159665.27 ], [ 281616.27, 4159665.84 ], [ 281615.61, 4159663.34 ] ] ], [ [ [ 281654.93, 4159738.36 ], [ 281654.89, 4159738.27 ], [ 281654.86, 4159738.18 ], [ 281654.84, 4159738.08 ], [ 281654.83, 4159737.98 ], [ 281654.83, 4159737.88 ], [ 281654.84, 4159737.79 ], [ 281654.86, 4159737.69 ], [ 281654.89, 4159737.59 ], [ 281654.93, 4159737.5 ], [ 281654.97, 4159737.42 ], [ 281655.03, 4159737.33 ], [ 281655.09, 4159737.26 ], [ 281655.16, 4159737.19 ], [ 281655.23, 4159737.13 ], [ 281655.32, 4159737.07 ], [ 281655.4, 4159737.02 ], [ 281658.4, 4159735.6 ], [ 281659.25, 4159732.43 ], [ 281656.28, 4159730.8 ], [ 281653.68, 4159732.04 ], [ 281653.59, 4159732.07 ], [ 281653.49, 4159732.1 ], [ 281653.4, 4159732.12 ], [ 281653.3, 4159732.13 ], [ 281653.2, 4159732.13 ], [ 281653.1, 4159732.12 ], [ 281653.01, 4159732.1 ], [ 281652.91, 4159732.08 ], [ 281652.82, 4159732.04 ], [ 281652.74, 4159731.99 ], [ 281652.66, 4159731.94 ], [ 281652.58, 4159731.88 ], [ 281652.51, 4159731.81 ], [ 281652.45, 4159731.73 ], [ 281652.39, 4159731.65 ], [ 281652.35, 4159731.57 ], [ 281652.17, 4159731.2 ], [ 281651.65, 4159731.13 ], [ 281649.45, 4159730.18 ], [ 281648.81, 4159729.65 ], [ 281644.76, 4159723.57 ], [ 281644.57, 4159723.17 ], [ 281644.2, 4159721.93 ], [ 281644.13, 4159721.5 ], [ 281644.13, 4159714.43 ], [ 281642.49, 4159711.0 ], [ 281642.45, 4159710.91 ], [ 281642.42, 4159710.82 ], [ 281642.4, 4159710.72 ], [ 281642.39, 4159710.63 ], [ 281642.39, 4159710.53 ], [ 281642.4, 4159710.43 ], [ 281642.42, 4159710.33 ], [ 281642.45, 4159710.24 ], [ 281642.48, 4159710.15 ], [ 281642.53, 4159710.06 ], [ 281642.58, 4159709.98 ], [ 281642.65, 4159709.9 ], [ 281642.72, 4159709.83 ], [ 281642.79, 4159709.77 ], [ 281642.87, 4159709.72 ], [ 281642.96, 4159709.67 ], [ 281647.02, 4159707.74 ], [ 281647.13, 4159707.62 ], [ 281647.64, 4159704.06 ], [ 281644.36, 4159702.57 ], [ 281644.17, 4159702.62 ], [ 281640.91, 4159704.17 ], [ 281640.82, 4159704.2 ], [ 281640.73, 4159704.23 ], [ 281640.63, 4159704.25 ], [ 281640.54, 4159704.26 ], [ 281640.44, 4159704.26 ], [ 281640.34, 4159704.25 ], [ 281640.24, 4159704.23 ], [ 281640.15, 4159704.21 ], [ 281640.06, 4159704.17 ], [ 281639.97, 4159704.12 ], [ 281639.89, 4159704.07 ], [ 281639.82, 4159704.01 ], [ 281639.75, 4159703.94 ], [ 281639.68, 4159703.86 ], [ 281639.63, 4159703.78 ], [ 281639.58, 4159703.7 ], [ 281639.56, 4159703.64 ], [ 281639.45, 4159703.67 ], [ 281638.25, 4159703.39 ], [ 281635.66, 4159701.31 ], [ 281634.84, 4159699.59 ], [ 281634.64, 4159699.68 ], [ 281633.47, 4159697.8 ], [ 281631.37, 4159696.74 ], [ 281630.74, 4159696.15 ], [ 281629.54, 4159693.98 ], [ 281629.36, 4159693.14 ], [ 281630.28, 4159683.03 ], [ 281630.1, 4159682.67 ], [ 281630.06, 4159682.58 ], [ 281630.03, 4159682.49 ], [ 281630.01, 4159682.39 ], [ 281630.0, 4159682.29 ], [ 281630.0, 4159682.19 ], [ 281630.01, 4159682.1 ], [ 281630.03, 4159682.0 ], [ 281630.06, 4159681.9 ], [ 281630.09, 4159681.81 ], [ 281630.14, 4159681.73 ], [ 281630.19, 4159681.64 ], [ 281630.26, 4159681.57 ], [ 281630.33, 4159681.5 ], [ 281630.4, 4159681.44 ], [ 281630.42, 4159681.42 ], [ 281631.08, 4159674.21 ], [ 281620.89, 4159679.15 ], [ 281623.0, 4159683.88 ], [ 281623.02, 4159683.93 ], [ 281623.04, 4159683.98 ], [ 281623.05, 4159684.01 ], [ 281623.06, 4159684.04 ], [ 281623.08, 4159684.09 ], [ 281623.1, 4159684.15 ], [ 281623.1, 4159684.18 ], [ 281623.11, 4159684.21 ], [ 281623.12, 4159684.27 ], [ 281623.13, 4159684.32 ], [ 281623.14, 4159684.35 ], [ 281623.14, 4159684.39 ], [ 281623.15, 4159684.44 ], [ 281623.15, 4159684.49 ], [ 281623.15, 4159684.53 ], [ 281623.16, 4159684.56 ], [ 281623.15, 4159684.62 ], [ 281623.16, 4159684.67 ], [ 281623.15, 4159684.7 ], [ 281623.15, 4159684.74 ], [ 281623.15, 4159684.79 ], [ 281623.14, 4159684.85 ], [ 281623.14, 4159684.88 ], [ 281623.13, 4159684.91 ], [ 281623.12, 4159684.97 ], [ 281623.11, 4159685.02 ], [ 281623.1, 4159685.05 ], [ 281623.09, 4159685.09 ], [ 281623.08, 4159685.14 ], [ 281623.06, 4159685.19 ], [ 281623.05, 4159685.22 ], [ 281623.04, 4159685.25 ], [ 281623.02, 4159685.3 ], [ 281623.0, 4159685.35 ], [ 281622.98, 4159685.38 ], [ 281622.97, 4159685.42 ], [ 281622.94, 4159685.46 ], [ 281622.92, 4159685.51 ], [ 281622.9, 4159685.54 ], [ 281622.88, 4159685.57 ], [ 281622.85, 4159685.61 ], [ 281622.82, 4159685.66 ], [ 281622.8, 4159685.69 ], [ 281622.78, 4159685.71 ], [ 281622.74, 4159685.76 ], [ 281622.71, 4159685.8 ], [ 281622.69, 4159685.82 ], [ 281622.66, 4159685.85 ], [ 281622.62, 4159685.89 ], [ 281622.59, 4159685.93 ], [ 281622.56, 4159685.95 ], [ 281622.54, 4159685.97 ], [ 281622.49, 4159686.0 ], [ 281622.45, 4159686.04 ], [ 281622.42, 4159686.06 ], [ 281622.4, 4159686.08 ], [ 281622.35, 4159686.11 ], [ 281622.31, 4159686.14 ], [ 281622.28, 4159686.16 ], [ 281622.25, 4159686.17 ], [ 281622.2, 4159686.2 ], [ 281622.15, 4159686.23 ], [ 281621.46, 4159686.57 ], [ 281651.1, 4159750.0 ], [ 281656.13, 4159750.0 ], [ 281656.13, 4159740.87 ], [ 281654.93, 4159738.36 ] ] ], [ [ [ 281610.59, 4159737.32 ], [ 281608.61, 4159747.23 ], [ 281608.21, 4159747.98 ], [ 281606.48, 4159749.7 ], [ 281605.93, 4159750.0 ], [ 281620.1, 4159750.0 ], [ 281613.29, 4159735.35 ], [ 281610.59, 4159737.32 ] ] ] ] } },
{ "type": "Feature", "properties": { "id": "imagery:groundcover_lawn:884", "name": null, "kind": "groundcover_lawn", "sport": null, "surface": null, "pitch_layout": null, "source": "vgin_vbmp+naip+lidar2025", "source_updated": null, "base_z": null, "top_z": null }, "geometry": { "type": "MultiPolygon", "coordinates": [ [ [ [ 281601.2, 4159725.26 ], [ 281601.3, 4159725.25 ], [ 281601.39, 4159725.24 ], [ 281601.49, 4159725.23 ], [ 281601.59, 4159725.24 ], [ 281601.69, 4159725.26 ], [ 281601.78, 4159725.29 ], [ 281601.87, 4159725.33 ], [ 281601.96, 4159725.37 ], [ 281602.04, 4159725.43 ], [ 281602.11, 4159725.49 ], [ 281602.18, 4159725.56 ], [ 281602.25, 4159725.63 ], [ 281602.3, 4159725.71 ], [ 281602.35, 4159725.8 ], [ 281602.85, 4159726.84 ], [ 281605.13, 4159724.97 ], [ 281605.13, 4159718.79 ], [ 281603.08, 4159715.94 ], [ 281598.63, 4159714.46 ], [ 281597.53, 4159713.65 ], [ 281597.38, 4159713.84 ], [ 281594.37, 4159712.99 ], [ 281593.98, 4159713.69 ], [ 281594.2, 4159714.14 ], [ 281594.24, 4159714.23 ], [ 281594.27, 4159714.33 ], [ 281594.29, 4159714.42 ], [ 281594.3, 4159714.52 ], [ 281594.3, 4159714.62 ], [ 281594.29, 4159714.72 ], [ 281594.27, 4159714.81 ], [ 281594.24, 4159714.91 ], [ 281594.21, 4159715.0 ], [ 281594.16, 4159715.09 ], [ 281594.11, 4159715.17 ], [ 281594.04, 4159715.24 ], [ 281593.98, 4159715.31 ], [ 281593.9, 4159715.38 ], [ 281593.82, 4159715.43 ], [ 281593.73, 4159715.48 ], [ 281592.73, 4159715.96 ], [ 281592.57, 4159716.25 ], [ 281592.69, 4159716.97 ], [ 281592.55, 4159717.87 ], [ 281591.37, 4159720.19 ], [ 281590.6, 4159720.95 ], [ 281592.12, 4159726.02 ], [ 281597.37, 4159727.07 ], [ 281601.02, 4159725.33 ], [ 281601.11, 4159725.29 ], [ 281601.2, 4159725.26 ] ] ], [ [ [ 281563.7, 4159721.7 ], [ 281564.79, 4159723.45 ], [ 281567.1, 4159724.61 ], [ 281567.69, 4159725.15 ], [ 281568.91, 4159727.12 ], [ 281569.13, 4159727.9 ], [ 281569.13, 4159730.19 ], [ 281571.42, 4159734.86 ], [ 281571.46, 4159734.95 ], [ 281571.49, 4159735.04 ], [ 281571.51, 4159735.14 ], [ 281571.52, 4159735.24 ], [ 281571.52, 4159735.33 ], [ 281571.52, 4159735.43 ], [ 281571.5, 4159735.53 ], [ 281571.47, 4159735.62 ], [ 281571.43, 4159735.71 ], [ 281571.39, 4159735.8 ], [ 281571.33, 4159735.88 ], [ 281571.27, 4159735.96 ], [ 281571.2, 4159736.03 ], [ 281571.13, 4159736.09 ], [ 281571.05, 4159736.15 ], [ 281570.96, 4159736.2 ], [ 281569.13, 4159737.09 ], [ 281569.13, 4159741.28 ], [ 281570.8, 4159743.42 ], [ 281572.02, 4159742.83 ], [ 281572.11, 4159742.79 ], [ 281572.2, 4159742.76 ], [ 281572.3, 4159742.74 ], [ 281572.4, 4159742.73 ], [ 281572.5, 4159742.73 ], [ 281572.59, 4159742.74 ], [ 281572.69, 4159742.76 ], [ 281572.78, 4159742.79 ], [ 281572.87, 4159742.83 ], [ 281572.96, 4159742.87 ], [ 281573.04, 4159742.92 ], [ 281573.12, 4159742.99 ], [ 281573.19, 4159743.06 ], [ 281573.25, 4159743.13 ], [ 281573.31, 4159743.21 ], [ 281573.35, 4159743.3 ], [ 281574.11, 4159744.87 ], [ 281577.4, 4159745.69 ], [ 281581.13, 4159742.78 ], [ 281581.13, 4159741.29 ], [ 281580.72, 4159740.42 ], [ 281580.68, 4159740.33 ], [ 281580.65, 4159740.24 ], [ 281580.63, 4159740.14 ], [ 281580.62, 4159740.04 ], [ 281580.62, 4159739.95 ], [ 281580.63, 4159739.85 ], [ 281580.65, 4159739.75 ], [ 281580.68, 4159739.66 ], [ 281580.71, 4159739.57 ], [ 281580.76, 4159739.48 ], [ 281580.81, 4159739.4 ], [ 281580.88, 4159739.32 ], [ 281580.95, 4159739.25 ], [ 281581.02, 4159739.19 ], [ 281581.11, 4159739.13 ], [ 281581.13, 4159739.12 ], [ 281581.13, 4159737.72 ], [ 281580.43, 4159736.27 ], [ 281580.39, 4159736.18 ], [ 281580.36, 4159736.08 ], [ 281580.34, 4159735.99 ], [ 281580.33, 4159735.89 ], [ 281580.33, 4159735.79 ], [ 281580.34, 4159735.69 ], [ 281580.36, 4159735.6 ], [ 281580.39, 4159735.5 ], [ 281580.43, 4159735.41 ], [ 281580.47, 4159735.33 ], [ 281580.53, 4159735.24 ], [ 281580.59, 4159735.17 ], [ 281580.66, 4159735.1 ], [ 281580.73, 4159735.03 ], [ 281580.81, 4159734.98 ], [ 281580.9, 4159734.93 ], [ 281581.67, 4159734.57 ], [ 281581.9, 4159734.02 ], [ 281582.22, 4159733.54 ], [ 281588.31, 4159727.45 ], [ 281586.39, 4159722.33 ], [ 281585.8, 4159722.29 ], [ 281581.68, 4159721.26 ], [ 281579.32, 4159722.4 ], [ 281579.23, 4159722.44 ], [ 281579.14, 4159722.47 ], [ 281579.04, 4159722.49 ], [ 281578.94, 4159722.5 ], [ 281578.84, 4159722.5 ], [ 281578.75, 4159722.49 ], [ 281578.65, 4159722.47 ], [ 281578.56, 4159722.44 ], [ 281578.47, 4159722.4 ], [ 281578.38, 4159722.36 ], [ 281578.3, 4159722.31 ], [ 281578.22, 4159722.24 ], [ 281578.15, 4159722.18 ], [ 281578.09, 4159722.1 ], [ 281578.03, 4159722.02 ], [ 281577.99, 4159721.93 ], [ 281577.11, 4159720.12 ], [ 281566.86, 4159717.56 ], [ 281563.13, 4159720.47 ], [ 281563.13, 4159720.5 ], [ 281563.65, 4159721.55 ], [ 281563.68, 4159721.64 ], [ 281563.7, 4159721.7 ] ] ] ] } },
{ "type": "Feature", "properties": { "id": "richmond_structure:409489", "name": null, "kind": "deck", "sport": null, "surface": null, "pitch_layout": null, "source": "richmond_structures", "source_updated": "2026-09-08T12:07:13.637000Z", "base_z": null, "top_z": null }, "geometry": { "type": "Polygon", "coordinates": [ [ [ 281750.0, 4159714.32 ], [ 281748.5, 4159712.28 ], [ 281750.0, 4159711.17 ], [ 281750.0, 4159702.13 ], [ 281749.4, 4159701.32 ], [ 281739.22, 4159708.84 ], [ 281742.76, 4159713.63 ], [ 281741.77, 4159714.36 ], [ 281745.36, 4159719.23 ], [ 281744.74, 4159719.69 ], [ 281746.84, 4159722.54 ], [ 281748.72, 4159721.15 ], [ 281746.45, 4159718.07 ], [ 281750.0, 4159715.45 ], [ 281750.0, 4159714.32 ] ] ] } },
{ "type": "Feature", "properties": { "id": "imagery:groundcover_lawn:899", "name": null, "kind": "groundcover_lawn", "sport": null, "surface": null, "pitch_layout": null, "source": "vgin_vbmp+naip+lidar2025", "source_updated": null, "base_z": null, "top_z": null }, "geometry": { "type": "Polygon", "coordinates": [ [ [ 281744.19, 4159742.8 ], [ 281743.81, 4159742.74 ], [ 281741.48, 4159744.63 ], [ 281741.4, 4159744.69 ], [ 281741.31, 4159744.74 ], [ 281741.22, 4159744.78 ], [ 281741.13, 4159744.81 ], [ 281741.04, 4159744.84 ], [ 281740.94, 4159744.85 ], [ 281740.84, 4159744.85 ], [ 281740.74, 4159744.85 ], [ 281740.65, 4159744.83 ], [ 281740.55, 4159744.81 ], [ 281740.46, 4159744.78 ], [ 281740.37, 4159744.73 ], [ 281740.29, 4159744.68 ], [ 281740.21, 4159744.62 ], [ 281740.14, 4159744.56 ], [ 281740.07, 4159744.49 ], [ 281737.83, 4159741.74 ], [ 281734.16, 4159741.13 ], [ 281733.29, 4159740.64 ], [ 281731.48, 4159738.49 ], [ 281731.13, 4159737.55 ], [ 281731.13, 4159734.26 ], [ 281731.41, 4159733.4 ], [ 281732.91, 4159731.32 ], [ 281733.63, 4159730.79 ], [ 281738.71, 4159729.1 ], [ 281740.61, 4159727.2 ], [ 281744.67, 4159715.02 ], [ 281745.55, 4159714.12 ], [ 281748.74, 4159713.03 ], [ 281749.98, 4159713.19 ], [ 281750.0, 4159713.2 ], [ 281750.0, 4159694.09 ], [ 281748.74, 4159692.54 ], [ 281748.53, 4159692.63 ], [ 281747.99, 4159692.63 ], [ 281745.3, 4159694.28 ], [ 281744.15, 4159696.59 ], [ 281743.6, 4159697.19 ], [ 281741.63, 4159698.41 ], [ 281740.86, 4159698.63 ], [ 281740.5, 4159698.63 ], [ 281740.52, 4159698.7 ], [ 281740.57, 4159698.99 ], [ 281740.58, 4159699.29 ], [ 281740.57, 4159699.59 ], [ 281740.53, 4159699.89 ], [ 281740.47, 4159700.18 ], [ 281740.37, 4159700.46 ], [ 281740.25, 4159700.73 ], [ 281740.09, 4159700.99 ], [ 281739.92, 4159701.23 ], [ 281739.72, 4159701.46 ], [ 281739.5, 4159701.66 ], [ 281739.27, 4159701.84 ], [ 281739.01, 4159702.0 ], [ 281738.74, 4159702.13 ], [ 281738.46, 4159702.24 ], [ 281738.17, 4159702.32 ], [ 281737.88, 4159702.36 ], [ 281737.58, 4159702.38 ], [ 281737.28, 4159702.37 ], [ 281736.98, 4159702.33 ], [ 281736.69, 4159702.26 ], [ 281736.41, 4159702.17 ], [ 281736.14, 4159702.04 ], [ 281735.88, 4159701.89 ], [ 281735.63, 4159701.72 ], [ 281735.41, 4159701.52 ], [ 281735.21, 4159701.3 ], [ 281733.57, 4159699.37 ], [ 281733.25, 4159699.5 ], [ 281724.96, 4159707.8 ], [ 281725.15, 4159708.04 ], [ 281725.2, 4159708.12 ], [ 281725.25, 4159708.21 ], [ 281725.29, 4159708.3 ], [ 281725.32, 4159708.39 ], [ 281725.35, 4159708.49 ], [ 281725.36, 4159708.59 ], [ 281725.36, 4159708.68 ], [ 281725.35, 4159708.78 ], [ 281725.34, 4159708.88 ], [ 281725.31, 4159708.97 ], [ 281725.28, 4159709.07 ], [ 281725.23, 4159709.15 ], [ 281725.18, 4159709.24 ], [ 281725.12, 4159709.31 ], [ 281725.05, 4159709.39 ], [ 281724.98, 4159709.45 ], [ 281720.0, 4159713.35 ], [ 281719.99, 4159713.35 ], [ 281719.83, 4159713.47 ], [ 281719.27, 4159715.04 ], [ 281721.74, 4159739.69 ], [ 281721.37, 4159740.8 ], [ 281719.24, 4159743.15 ], [ 281718.18, 4159743.63 ], [ 281715.67, 4159743.63 ], [ 281712.71, 4159746.13 ], [ 281712.07, 4159750.0 ], [ 281744.44, 4159750.0 ], [ 281745.12, 4159748.66 ], [ 281745.91, 4159747.79 ], [ 281744.19, 4159742.8 ] ] ] } },
{ "type": "Feature", "properties": { "id": "richmond_structure:262515", "name": null, "kind": "deck", "sport": null, "surface": null, "pitch_layout": null, "source": "richmond_structures", "source_updated": "2026-09-08T12:07:13.637000Z", "base_z": null, "top_z": null }, "geometry": { "type": "Polygon", "coordinates": [ [ [ 281733.06, 4159735.65 ], [ 281738.39, 4159731.48 ], [ 281735.38, 4159727.65 ], [ 281730.06, 4159731.82 ], [ 281733.06, 4159735.65 ] ] ] } },
{ "type": "Feature", "properties": { "id": "imagery:groundcover_bare:859", "name": null, "kind": "groundcover_bare", "sport": null, "surface": null, "pitch_layout": null, "source": "vgin_vbmp+naip+lidar2025", "source_updated": null, "base_z": null, "top_z": null }, "geometry": { "type": "Polygon", "coordinates": [ [ [ 281722.13, 4159739.97 ], [ 281722.13, 4159733.48 ], [ 281720.47, 4159730.8 ], [ 281713.64, 4159727.38 ], [ 281709.36, 4159729.48 ], [ 281707.72, 4159737.68 ], [ 281710.07, 4159741.21 ], [ 281718.54, 4159742.91 ], [ 281722.13, 4159739.97 ] ] ] } }
]
}
