{
"type": "FeatureCollection",
"name": "roads",
"crs": { "type": "name", "properties": { "name": "urn:ogc:def:crs:EPSG::32618" } },
"xy_coordinate_resolution": 0.01,
"features": [
{ "type": "Feature", "properties": { "id": "osm:way/370506851", "name": "North Mulberry Street", "highway": "residential", "lanes": null, "width": 7.0, "oneway": true, "surface": "asphalt", "footway": null, "sidewalk_left": null, "sidewalk_right": null, "generated_sidewalk": true, "bus_lanes": null, "bus_lane_side": null, "bus_only": false, "sidewalk": false, "bridge": false, "ramp": false, "tunnel": false, "layer": 0, "deck": null }, "geometry": { "type": "LineString", "coordinates": [ [ 281706.27, 4159633.16 ], [ 281677.54, 4159572.63 ], [ 281648.5, 4159511.28 ], [ 281643.12, 4159500.0 ] ] } },
{ "type": "Feature", "properties": { "id": "osm:way/759611739", "name": null, "highway": "footway", "lanes": null, "width": 2.0, "oneway": false, "surface": null, "footway": null, "sidewalk_left": false, "sidewalk_right": false, "generated_sidewalk": false, "bus_lanes": null, "bus_lane_side": null, "bus_only": false, "sidewalk": false, "bridge": false, "ramp": false, "tunnel": false, "layer": 0, "deck": null }, "geometry": { "type": "LineString", "coordinates": [ [ 281529.57, 4159535.37 ], [ 281522.46, 4159538.71 ], [ 281512.08, 4159543.59 ] ] } },
{ "type": "Feature", "properties": { "id": "osm:way/759611738", "name": null, "highway": "steps", "lanes": null, "width": 2.0, "oneway": false, "surface": null, "footway": null, "sidewalk_left": false, "sidewalk_right": false, "generated_sidewalk": false, "bus_lanes": null, "bus_lane_side": null, "bus_only": false, "sidewalk": false, "bridge": false, "ramp": false, "tunnel": false, "layer": 0, "deck": null }, "geometry": { "type": "LineString", "coordinates": [ [ 281512.08, 4159543.59 ], [ 281509.71, 4159544.71 ] ] } },
{ "type": "Feature", "properties": { "id": "osm:way/759611740", "name": null, "highway": "footway", "lanes": null, "width": 2.0, "oneway": false, "surface": null, "footway": null, "sidewalk_left": false, "sidewalk_right": false, "generated_sidewalk": false, "bus_lanes": null, "bus_lane_side": null, "bus_only": false, "sidewalk": false, "bridge": false, "ramp": false, "tunnel": false, "layer": 0, "deck": null }, "geometry": { "type": "LineString", "coordinates": [ [ 281500.0, 4159531.84 ], [ 281502.0, 4159534.85 ], [ 281507.53, 4159545.73 ], [ 281511.46, 4159555.11 ], [ 281516.69, 4159574.85 ] ] } },
{ "type": "Feature", "properties": { "id": "osm:way/759611737", "name": null, "highway": "footway", "lanes": null, "width": 2.0, "oneway": false, "surface": null, "footway": null, "sidewalk_left": false, "sidewalk_right": false, "generated_sidewalk": false, "bus_lanes": null, "bus_lane_side": null, "bus_only": false, "sidewalk": false, "bridge": false, "ramp": false, "tunnel": false, "layer": 0, "deck": null }, "geometry": { "type": "LineString", "coordinates": [ [ 281509.71, 4159544.71 ], [ 281507.53, 4159545.73 ], [ 281504.06, 4159547.36 ] ] } },
{ "type": "Feature", "properties": { "id": "osm:way/759611736", "name": null, "highway": "steps", "lanes": null, "width": 2.0, "oneway": false, "surface": null, "footway": null, "sidewalk_left": false, "sidewalk_right": false, "generated_sidewalk": false, "bus_lanes": null, "bus_lane_side": null, "bus_only": false, "sidewalk": false, "bridge": false, "ramp": false, "tunnel": false, "layer": 0, "deck": null }, "geometry": { "type": "LineString", "coordinates": [ [ 281504.06, 4159547.36 ], [ 281500.68, 4159548.95 ] ] } },
{ "type": "Feature", "properties": { "id": "osm:way/1457956779", "name": "North Arthur Ashe Boulevard", "highway": "primary", "lanes": 2.0, "width": 11.0, "oneway": true, "surface": "asphalt", "footway": null, "sidewalk_left": null, "sidewalk_right": null, "generated_sidewalk": true, "bus_lanes": null, "bus_lane_side": null, "bus_only": false, "sidewalk": false, "bridge": false, "ramp": false, "tunnel": false, "layer": 0, "deck": null }, "geometry": { "type": "LineString", "coordinates": [ [ 281525.84, 4159500.0 ], [ 281552.69, 4159555.94 ], [ 281555.92, 4159563.0 ], [ 281607.98, 4159672.53 ], [ 281611.07, 4159679.0 ] ] } },
{ "type": "Feature", "properties": { "id": "osm:way/708342784", "name": "North Arthur Ashe Boulevard", "highway": "primary", "lanes": 2.0, "width": 11.0, "oneway": true, "surface": "asphalt", "footway": null, "sidewalk_left": false, "sidewalk_right": false, "generated_sidewalk": true, "bus_lanes": null, "bus_lane_side": null, "bus_only": false, "sidewalk": true, "bridge": false, "ramp": false, "tunnel": false, "layer": 0, "deck": null }, "geometry": { "type": "LineString", "coordinates": [ [ 281599.24, 4159685.4 ], [ 281595.88, 4159678.11 ], [ 281586.9, 4159658.14 ], [ 281555.78, 4159590.8 ], [ 281554.76, 4159589.32 ], [ 281543.54, 4159565.17 ], [ 281541.3, 4159560.49 ], [ 281529.57, 4159535.37 ], [ 281513.06, 4159500.0 ] ] } },
{ "type": "Feature", "properties": { "id": "osm:way/1247963769", "name": null, "highway": "footway", "lanes": null, "width": 2.0, "oneway": false, "surface": "concrete", "footway": "sidewalk", "sidewalk_left": false, "sidewalk_right": false, "generated_sidewalk": false, "bus_lanes": null, "bus_lane_side": null, "bus_only": false, "sidewalk": false, "bridge": false, "ramp": false, "tunnel": false, "layer": 0, "deck": null }, "geometry": { "type": "LineString", "coordinates": [ [ 281504.87, 4159721.57 ], [ 281589.17, 4159681.16 ], [ 281564.07, 4159627.86 ], [ 281550.29, 4159598.05 ], [ 281548.51, 4159594.21 ], [ 281522.46, 4159538.71 ], [ 281504.29, 4159500.0 ] ] } },
{ "type": "Feature", "properties": { "id": "osm:way/1246813511", "name": null, "highway": "service", "lanes": null, "width": 4.5, "oneway": false, "surface": "asphalt", "footway": null, "sidewalk_left": false, "sidewalk_right": false, "generated_sidewalk": false, "bus_lanes": null, "bus_lane_side": null, "bus_only": false, "sidewalk": false, "bridge": false, "ramp": false, "tunnel": false, "layer": 0, "deck": null }, "geometry": { "type": "LineString", "coordinates": [ [ 281555.78, 4159590.8 ], [ 281548.51, 4159594.21 ], [ 281534.26, 4159600.92 ], [ 281529.29, 4159602.75 ], [ 281520.82, 4159602.72 ], [ 281515.01, 4159602.7 ], [ 281507.06, 4159603.11 ], [ 281501.9, 4159603.86 ], [ 281500.0, 4159604.34 ] ] } },
{ "type": "Feature", "properties": { "id": "osm:way/6034495", "name": "Stuart Avenue", "highway": "residential", "lanes": 2.0, "width": 7.0, "oneway": false, "surface": "asphalt", "footway": null, "sidewalk_left": null, "sidewalk_right": null, "generated_sidewalk": true, "bus_lanes": null, "bus_lane_side": null, "bus_only": false, "sidewalk": false, "bridge": false, "ramp": false, "tunnel": false, "layer": 0, "deck": null }, "geometry": { "type": "LineString", "coordinates": [ [ 281541.3, 4159560.49 ], [ 281552.69, 4159555.94 ], [ 281561.82, 4159551.87 ], [ 281565.69, 4159550.24 ], [ 281605.18, 4159531.89 ], [ 281648.5, 4159511.28 ], [ 281672.38, 4159500.0 ] ] } },
{ "type": "Feature", "properties": { "id": "osm:way/368863078", "name": null, "highway": "service", "lanes": null, "width": 4.5, "oneway": false, "surface": "asphalt", "footway": null, "sidewalk_left": false, "sidewalk_right": false, "generated_sidewalk": false, "bus_lanes": null, "bus_lane_side": null, "bus_only": false, "sidewalk": false, "bridge": false, "ramp": false, "tunnel": false, "layer": 0, "deck": null }, "geometry": { "type": "LineString", "coordinates": [ [ 281730.22, 4159500.0 ], [ 281736.22, 4159512.27 ], [ 281750.0, 4159505.44 ] ] } },
{ "type": "Feature", "properties": { "id": "osm:way/866533699", "name": null, "highway": "service", "lanes": null, "width": 4.5, "oneway": true, "surface": null, "footway": null, "sidewalk_left": false, "sidewalk_right": false, "generated_sidewalk": false, "bus_lanes": null, "bus_lane_side": null, "bus_only": false, "sidewalk": false, "bridge": false, "ramp": false, "tunnel": false, "layer": 0, "deck": null }, "geometry": { "type": "LineString", "coordinates": [ [ 281710.82, 4159500.0 ], [ 281711.58, 4159501.52 ], [ 281711.09, 4159505.75 ], [ 281707.14, 4159502.71 ], [ 281705.89, 4159500.0 ] ] } },
{ "type": "Feature", "properties": { "id": "osm:way/154071472", "name": null, "highway": "service", "lanes": null, "width": 4.5, "oneway": false, "surface": "asphalt", "footway": null, "sidewalk_left": false, "sidewalk_right": false, "generated_sidewalk": false, "bus_lanes": null, "bus_lane_side": null, "bus_only": false, "sidewalk": false, "bridge": false, "ramp": false, "tunnel": false, "layer": 0, "deck": null }, "geometry": { "type": "LineString", "coordinates": [ [ 281634.53, 4159594.23 ], [ 281677.54, 4159572.63 ], [ 281750.0, 4159537.64 ] ] } },
{ "type": "Feature", "properties": { "id": "osm:way/866533700", "name": null, "highway": "service", "lanes": null, "width": 4.5, "oneway": false, "surface": null, "footway": null, "sidewalk_left": false, "sidewalk_right": false, "generated_sidewalk": false, "bus_lanes": null, "bus_lane_side": null, "bus_only": false, "sidewalk": false, "bridge": false, "ramp": false, "tunnel": false, "layer": 0, "deck": null }, "geometry": { "type": "LineString", "coordinates": [ [ 281711.09, 4159505.75 ], [ 281723.71, 4159531.04 ], [ 281723.45, 4159536.21 ], [ 281700.36, 4159547.23 ] ] } },
{ "type": "Feature", "properties": { "id": "osm:way/154071470", "name": null, "highway": "service", "lanes": null, "width": 4.5, "oneway": false, "surface": "asphalt", "footway": null, "sidewalk_left": false, "sidewalk_right": false, "generated_sidewalk": false, "bus_lanes": null, "bus_lane_side": null, "bus_only": false, "sidewalk": false, "bridge": false, "ramp": false, "tunnel": false, "layer": 0, "deck": null }, "geometry": { "type": "LineString", "coordinates": [ [ 281590.2, 4159500.0 ], [ 281605.18, 4159531.89 ], [ 281634.53, 4159594.23 ], [ 281662.7, 4159654.1 ], [ 281683.98, 4159699.34 ], [ 281707.81, 4159750.0 ] ] } },
{ "type": "Feature", "properties": { "id": "osm:way/370506852", "name": "Kensington Avenue", "highway": "residential", "lanes": null, "width": 7.0, "oneway": false, "surface": "asphalt", "footway": null, "sidewalk_left": true, "sidewalk_right": true, "generated_sidewalk": true, "bus_lanes": null, "bus_lane_side": null, "bus_only": false, "sidewalk": true, "bridge": false, "ramp": false, "tunnel": false, "layer": 0, "deck": null }, "geometry": { "type": "LineString", "coordinates": [ [ 281706.27, 4159633.16 ], [ 281750.0, 4159612.58 ] ] } },
{ "type": "Feature", "properties": { "id": "osm:way/297843665", "name": null, "highway": "service", "lanes": null, "width": 4.5, "oneway": false, "surface": "asphalt", "footway": null, "sidewalk_left": false, "sidewalk_right": false, "generated_sidewalk": false, "bus_lanes": null, "bus_lane_side": null, "bus_only": false, "sidewalk": false, "bridge": false, "ramp": false, "tunnel": false, "layer": 0, "deck": null }, "geometry": { "type": "LineString", "coordinates": [ [ 281744.04, 4159679.88 ], [ 281750.0, 4159676.26 ] ] } },
{ "type": "Feature", "properties": { "id": "osm:way/708342770", "name": "Kensington Avenue", "highway": "residential", "lanes": 2.0, "width": 7.0, "oneway": false, "surface": "asphalt", "footway": null, "sidewalk_left": null, "sidewalk_right": null, "generated_sidewalk": true, "bus_lanes": null, "bus_lane_side": null, "bus_only": false, "sidewalk": false, "bridge": false, "ramp": false, "tunnel": false, "layer": 0, "deck": null }, "geometry": { "type": "LineString", "coordinates": [ [ 281611.07, 4159679.0 ], [ 281617.51, 4159676.01 ], [ 281662.7, 4159654.1 ], [ 281706.27, 4159633.16 ] ] } },
{ "type": "Feature", "properties": { "id": "osm:way/1126612556", "name": null, "highway": "footway", "lanes": null, "width": 2.0, "oneway": false, "surface": "asphalt", "footway": "crossing", "sidewalk_left": false, "sidewalk_right": false, "generated_sidewalk": false, "bus_lanes": null, "bus_lane_side": null, "bus_only": false, "sidewalk": false, "bridge": false, "ramp": false, "tunnel": false, "layer": 0, "deck": null }, "geometry": { "type": "LineString", "coordinates": [ [ 281614.64, 4159669.55 ], [ 281617.51, 4159676.01 ], [ 281621.36, 4159684.61 ] ] } },
{ "type": "Feature", "properties": { "id": "osm:way/1249959100", "name": "Kensington Avenue", "highway": "secondary", "lanes": 2.0, "width": 9.5, "oneway": false, "surface": "asphalt", "footway": null, "sidewalk_left": true, "sidewalk_right": true, "generated_sidewalk": true, "bus_lanes": null, "bus_lane_side": null, "bus_only": false, "sidewalk": true, "bridge": false, "ramp": false, "tunnel": false, "layer": 0, "deck": null }, "geometry": { "type": "LineString", "coordinates": [ [ 281611.07, 4159679.0 ], [ 281599.24, 4159685.4 ], [ 281593.17, 4159688.7 ] ] } },
{ "type": "Feature", "properties": { "id": "osm:way/757208063", "name": null, "highway": "service", "lanes": null, "width": 4.5, "oneway": false, "surface": "gravel", "footway": null, "sidewalk_left": false, "sidewalk_right": false, "generated_sidewalk": false, "bus_lanes": null, "bus_lane_side": null, "bus_only": false, "sidewalk": false, "bridge": false, "ramp": false, "tunnel": false, "layer": 0, "deck": null }, "geometry": { "type": "LineString", "coordinates": [ [ 281739.41, 4159674.15 ], [ 281722.73, 4159681.8 ], [ 281683.98, 4159699.34 ] ] } },
{ "type": "Feature", "properties": { "id": "osm:way/1126612557", "name": null, "highway": "footway", "lanes": null, "width": 2.0, "oneway": false, "surface": "asphalt", "footway": "crossing", "sidewalk_left": false, "sidewalk_right": false, "generated_sidewalk": false, "bus_lanes": null, "bus_lane_side": null, "bus_only": false, "sidewalk": false, "bridge": false, "ramp": false, "tunnel": false, "layer": 0, "deck": null }, "geometry": { "type": "LineString", "coordinates": [ [ 281597.01, 4159696.07 ], [ 281602.88, 4159693.3 ], [ 281615.05, 4159687.72 ], [ 281621.36, 4159684.61 ] ] } },
{ "type": "Feature", "properties": { "id": "osm:way/1131826092", "name": null, "highway": "service", "lanes": null, "width": 4.5, "oneway": false, "surface": "asphalt", "footway": null, "sidewalk_left": false, "sidewalk_right": false, "generated_sidewalk": false, "bus_lanes": null, "bus_lane_side": null, "bus_only": false, "sidewalk": false, "bridge": false, "ramp": false, "tunnel": false, "layer": 0, "deck": null }, "geometry": { "type": "LineString", "coordinates": [ [ 281722.73, 4159681.8 ], [ 281737.54, 4159699.33 ] ] } },
{ "type": "Feature", "properties": { "id": "osm:way/842065667", "name": "North Mulberry Street", "highway": "residential", "lanes": null, "width": 7.0, "oneway": true, "surface": "asphalt", "footway": null, "sidewalk_left": null, "sidewalk_right": null, "generated_sidewalk": true, "bus_lanes": null, "bus_lane_side": null, "bus_only": false, "sidewalk": false, "bridge": false, "ramp": false, "tunnel": false, "layer": 0, "deck": null }, "geometry": { "type": "LineString", "coordinates": [ [ 281750.0, 4159687.25 ], [ 281744.04, 4159679.88 ], [ 281739.41, 4159674.15 ], [ 281706.27, 4159633.16 ] ] } },
{ "type": "Feature", "properties": { "id": "osm:way/708342782", "name": "North Arthur Ashe Boulevard", "highway": "primary", "lanes": 2.0, "width": 11.0, "oneway": true, "surface": "asphalt", "footway": null, "sidewalk_left": null, "sidewalk_right": null, "generated_sidewalk": true, "bus_lanes": null, "bus_lane_side": null, "bus_only": false, "sidewalk": false, "bridge": false, "ramp": false, "tunnel": false, "layer": 0, "deck": null }, "geometry": { "type": "LineString", "coordinates": [ [ 281611.07, 4159679.0 ], [ 281615.05, 4159687.72 ], [ 281644.15, 4159750.0 ] ] } },
{ "type": "Feature", "properties": { "id": "osm:way/708342777", "name": "North Arthur Ashe Boulevard", "highway": "primary", "lanes": 2.0, "width": 11.0, "oneway": true, "surface": "asphalt", "footway": null, "sidewalk_left": null, "sidewalk_right": false, "generated_sidewalk": true, "bus_lanes": null, "bus_lane_side": null, "bus_only": false, "sidewalk": false, "bridge": false, "ramp": false, "tunnel": false, "layer": 0, "deck": null }, "geometry": { "type": "LineString", "coordinates": [ [ 281629.58, 4159750.0 ], [ 281602.88, 4159693.3 ], [ 281599.24, 4159685.4 ] ] } },
{ "type": "Feature", "properties": { "id": "osm:way/1246737523", "name": null, "highway": "footway", "lanes": null, "width": 2.0, "oneway": false, "surface": "concrete", "footway": "sidewalk", "sidewalk_left": false, "sidewalk_right": false, "generated_sidewalk": false, "bus_lanes": null, "bus_lane_side": null, "bus_only": false, "sidewalk": false, "bridge": false, "ramp": false, "tunnel": false, "layer": 0, "deck": null }, "geometry": { "type": "LineString", "coordinates": [ [ 281597.01, 4159696.07 ], [ 281622.09, 4159750.0 ] ] } },
{ "type": "Feature", "properties": { "id": "osm:way/1126612544", "name": null, "highway": "footway", "lanes": null, "width": 2.0, "oneway": false, "surface": null, "footway": "sidewalk", "sidewalk_left": false, "sidewalk_right": false, "generated_sidewalk": false, "bus_lanes": null, "bus_lane_side": null, "bus_only": false, "sidewalk": false, "bridge": false, "ramp": false, "tunnel": false, "layer": 0, "deck": null }, "geometry": { "type": "LineString", "coordinates": [ [ 281550.29, 4159598.05 ], [ 281539.85, 4159602.77 ], [ 281532.08, 4159606.2 ], [ 281521.64, 4159606.04 ], [ 281513.03, 4159605.39 ], [ 281506.79, 4159605.99 ], [ 281500.0, 4159607.2 ] ] } },
{ "type": "Feature", "properties": { "id": "osm:way/1126612542", "name": null, "highway": "footway", "lanes": null, "width": 2.0, "oneway": false, "surface": null, "footway": null, "sidewalk_left": false, "sidewalk_right": false, "generated_sidewalk": false, "bus_lanes": null, "bus_lane_side": null, "bus_only": false, "sidewalk": false, "bridge": false, "ramp": false, "tunnel": false, "layer": 0, "deck": null }, "geometry": { "type": "LineString", "coordinates": [ [ 281522.09, 4159648.27 ], [ 281527.72, 4159645.53 ], [ 281564.07, 4159627.86 ] ] } },
{ "type": "Feature", "properties": { "id": "osm:way/1126612546", "name": null, "highway": "footway", "lanes": null, "width": 2.0, "oneway": false, "surface": null, "footway": null, "sidewalk_left": false, "sidewalk_right": false, "generated_sidewalk": false, "bus_lanes": null, "bus_lane_side": null, "bus_only": false, "sidewalk": false, "bridge": false, "ramp": false, "tunnel": false, "layer": 0, "deck": null }, "geometry": { "type": "LineString", "coordinates": [ [ 281521.64, 4159606.04 ], [ 281527.79, 4159618.76 ], [ 281517.25, 4159624.09 ], [ 281527.72, 4159645.53 ], [ 281543.59, 4159678.06 ] ] } },
{ "type": "Feature", "properties": { "id": "osm:way/1126612555", "name": null, "highway": "footway", "lanes": null, "width": 2.0, "oneway": false, "surface": "asphalt", "footway": "crossing", "sidewalk_left": false, "sidewalk_right": false, "generated_sidewalk": false, "bus_lanes": null, "bus_lane_side": null, "bus_only": false, "sidewalk": false, "bridge": false, "ramp": false, "tunnel": false, "layer": 0, "deck": null }, "geometry": { "type": "LineString", "coordinates": [ [ 281589.17, 4159681.16 ], [ 281595.88, 4159678.11 ], [ 281607.98, 4159672.53 ], [ 281614.64, 4159669.55 ] ] } },
{ "type": "Feature", "properties": { "id": "osm:way/1126612554", "name": null, "highway": "footway", "lanes": null, "width": 2.0, "oneway": false, "surface": "asphalt", "footway": "crossing", "sidewalk_left": false, "sidewalk_right": false, "generated_sidewalk": false, "bus_lanes": null, "bus_lane_side": null, "bus_only": false, "sidewalk": false, "bridge": false, "ramp": false, "tunnel": false, "layer": 0, "deck": null }, "geometry": { "type": "LineString", "coordinates": [ [ 281589.17, 4159681.16 ], [ 281593.17, 4159688.7 ], [ 281597.01, 4159696.07 ] ] } },
{ "type": "Feature", "properties": { "id": "osm:way/765639750", "name": null, "highway": "service", "lanes": null, "width": 4.5, "oneway": false, "surface": "asphalt", "footway": null, "sidewalk_left": false, "sidewalk_right": false, "generated_sidewalk": false, "bus_lanes": null, "bus_lane_side": null, "bus_only": false, "sidewalk": false, "bridge": false, "ramp": false, "tunnel": false, "layer": 0, "deck": null }, "geometry": { "type": "LineString", "coordinates": [ [ 281504.76, 4159731.08 ], [ 281501.44, 4159723.21 ], [ 281500.0, 4159719.82 ] ] } },
{ "type": "Feature", "properties": { "id": "osm:way/1247963766", "name": null, "highway": "footway", "lanes": null, "width": 2.0, "oneway": false, "surface": "asphalt", "footway": "crossing", "sidewalk_left": false, "sidewalk_right": false, "generated_sidewalk": false, "bus_lanes": null, "bus_lane_side": null, "bus_only": false, "sidewalk": false, "bridge": false, "ramp": false, "tunnel": false, "layer": 0, "deck": null }, "geometry": { "type": "LineString", "coordinates": [ [ 281500.0, 4159723.9 ], [ 281501.44, 4159723.21 ], [ 281504.87, 4159721.57 ] ] } },
{ "type": "Feature", "properties": { "id": "osm:way/646453473", "name": null, "highway": "service", "lanes": null, "width": 4.5, "oneway": false, "surface": null, "footway": null, "sidewalk_left": false, "sidewalk_right": false, "generated_sidewalk": false, "bus_lanes": null, "bus_lane_side": null, "bus_only": false, "sidewalk": false, "bridge": false, "ramp": false, "tunnel": false, "layer": 0, "deck": null }, "geometry": { "type": "LineString", "coordinates": [ [ 281549.41, 4159709.67 ], [ 281567.73, 4159750.0 ] ] } },
{ "type": "Feature", "properties": { "id": "osm:way/6039129", "name": "Kensington Avenue", "highway": "secondary", "lanes": 2.0, "width": 9.5, "oneway": false, "surface": "asphalt", "footway": null, "sidewalk_left": true, "sidewalk_right": true, "generated_sidewalk": true, "bus_lanes": null, "bus_lane_side": null, "bus_only": false, "sidewalk": true, "bridge": false, "ramp": false, "tunnel": false, "layer": 0, "deck": null }, "geometry": { "type": "LineString", "coordinates": [ [ 281593.17, 4159688.7 ], [ 281549.41, 4159709.67 ], [ 281504.76, 4159731.08 ], [ 281500.0, 4159733.36 ] ] } }
]
}
