{
"type": "FeatureCollection",
"name": "water",
"crs": { "type": "name", "properties": { "name": "urn:ogc:def:crs:EPSG::32618" } },
"xy_coordinate_resolution": 0.01,
"features": [
{ "type": "Feature", "properties": { "id": "osm:way/78940904", "name": "Reedy Creek", "kind": "canal", "water_z": 26.96, "source": null }, "geometry": { "type": "Polygon", "coordinates": [ [ [ 280775.75, 4154861.96 ], [ 280792.21, 4154861.53 ], [ 280804.88, 4154854.18 ], [ 280824.49, 4154854.99 ], [ 280842.11, 4154870.26 ], [ 280860.79, 4154877.7 ], [ 280874.47, 4154865.87 ], [ 280891.72, 4154861.95 ], [ 280906.96, 4154876.49 ], [ 280926.1, 4154861.96 ], [ 280946.39, 4154867.4 ], [ 280962.14, 4154866.03 ], [ 280977.23, 4154853.64 ], [ 280984.67, 4154851.37 ], [ 280999.79, 4154856.24 ], [ 281000.0, 4154856.44 ], [ 281000.0, 4154852.17 ], [ 280984.38, 4154847.31 ], [ 280975.0, 4154850.24 ], [ 280961.03, 4154862.12 ], [ 280946.83, 4154863.38 ], [ 280925.2, 4154857.86 ], [ 280907.15, 4154871.82 ], [ 280892.11, 4154857.77 ], [ 280872.66, 4154862.23 ], [ 280860.55, 4154873.38 ], [ 280844.3, 4154866.88 ], [ 280825.74, 4154851.07 ], [ 280804.08, 4154850.18 ], [ 280791.19, 4154857.59 ], [ 280776.81, 4154857.97 ], [ 280764.66, 4154847.82 ], [ 280750.0, 4154839.13 ], [ 280750.0, 4154843.73 ], [ 280762.34, 4154851.09 ], [ 280775.75, 4154861.96 ] ] ] } }
]
}
