{
"type": "FeatureCollection",
"name": "roads",
"crs": { "type": "name", "properties": { "name": "urn:ogc:def:crs:EPSG::32618" } },
"xy_coordinate_resolution": 0.01,
"features": [
{ "type": "Feature", "properties": { "id": "osm:way/749340918", "name": "Porter Street", "highway": "residential", "lanes": null, "width": 7.0, "oneway": false, "surface": "asphalt", "footway": null, "sidewalk_left": false, "sidewalk_right": null, "generated_sidewalk": true, "bus_lanes": null, "bus_lane_side": null, "bus_only": false, "sidewalk": false, "bridge": false, "ramp": false, "tunnel": false, "layer": 0, "deck": null }, "geometry": { "type": "LineString", "coordinates": [ [ 284306.59, 4156000.0 ], [ 284335.18, 4156021.96 ], [ 284347.92, 4156031.32 ] ] } },
{ "type": "Feature", "properties": { "id": "osm:way/1346664217", "name": null, "highway": "footway", "lanes": null, "width": 2.0, "oneway": false, "surface": null, "footway": "crossing", "sidewalk_left": false, "sidewalk_right": false, "generated_sidewalk": false, "bus_lanes": null, "bus_lane_side": null, "bus_only": false, "sidewalk": false, "bridge": false, "ramp": false, "tunnel": false, "layer": 0, "deck": null }, "geometry": { "type": "LineString", "coordinates": [ [ 284339.44, 4156016.57 ], [ 284335.18, 4156021.96 ], [ 284331.34, 4156026.84 ] ] } },
{ "type": "Feature", "properties": { "id": "osm:way/1346664219", "name": null, "highway": "footway", "lanes": null, "width": 2.0, "oneway": false, "surface": null, "footway": "sidewalk", "sidewalk_left": false, "sidewalk_right": false, "generated_sidewalk": false, "bus_lanes": null, "bus_lane_side": null, "bus_only": false, "sidewalk": false, "bridge": false, "ramp": false, "tunnel": false, "layer": 0, "deck": null }, "geometry": { "type": "LineString", "coordinates": [ [ 284331.34, 4156026.84 ], [ 284335.79, 4156030.11 ], [ 284341.01, 4156033.94 ] ] } },
{ "type": "Feature", "properties": { "id": "osm:way/1346664227", "name": null, "highway": "footway", "lanes": null, "width": 2.0, "oneway": false, "surface": null, "footway": "sidewalk", "sidewalk_left": false, "sidewalk_right": false, "generated_sidewalk": false, "bus_lanes": null, "bus_lane_side": null, "bus_only": false, "sidewalk": false, "bridge": false, "ramp": false, "tunnel": false, "layer": 0, "deck": null }, "geometry": { "type": "MultiLineString", "coordinates": [ [ [ 284331.34, 4156026.84 ], [ 284295.89, 4156000.0 ] ], [ [ 284266.67, 4156000.0 ], [ 284250.0, 4156022.45 ] ] ] } },
{ "type": "Feature", "properties": { "id": "osm:way/1346664218", "name": null, "highway": "footway", "lanes": null, "width": 2.0, "oneway": false, "surface": null, "footway": "crossing", "sidewalk_left": false, "sidewalk_right": false, "generated_sidewalk": false, "bus_lanes": null, "bus_lane_side": null, "bus_only": false, "sidewalk": false, "bridge": false, "ramp": false, "tunnel": false, "layer": 0, "deck": null }, "geometry": { "type": "LineString", "coordinates": [ [ 284341.01, 4156033.94 ], [ 284344.08, 4156036.19 ], [ 284348.19, 4156039.2 ] ] } },
{ "type": "Feature", "properties": { "id": "osm:way/776710417", "name": null, "highway": "service", "lanes": null, "width": 4.5, "oneway": false, "surface": null, "footway": null, "sidewalk_left": false, "sidewalk_right": false, "generated_sidewalk": false, "bus_lanes": null, "bus_lane_side": null, "bus_only": false, "sidewalk": false, "bridge": false, "ramp": false, "tunnel": false, "layer": 0, "deck": null }, "geometry": { "type": "LineString", "coordinates": [ [ 284250.0, 4156040.63 ], [ 284280.44, 4156000.75 ] ] } },
{ "type": "Feature", "properties": { "id": "osm:way/1346664226", "name": null, "highway": "footway", "lanes": null, "width": 2.0, "oneway": false, "surface": null, "footway": "sidewalk", "sidewalk_left": false, "sidewalk_right": false, "generated_sidewalk": false, "bus_lanes": null, "bus_lane_side": null, "bus_only": false, "sidewalk": false, "bridge": false, "ramp": false, "tunnel": false, "layer": 0, "deck": null }, "geometry": { "type": "LineString", "coordinates": [ [ 284348.19, 4156039.2 ], [ 284374.02, 4156060.1 ] ] } },
{ "type": "Feature", "properties": { "id": "osm:way/6037608", "name": "Skyline Park Drive", "highway": "residential", "lanes": null, "width": 7.0, "oneway": false, "surface": null, "footway": null, "sidewalk_left": null, "sidewalk_right": false, "generated_sidewalk": true, "bus_lanes": null, "bus_lane_side": null, "bus_only": false, "sidewalk": false, "bridge": false, "ramp": false, "tunnel": false, "layer": 0, "deck": null }, "geometry": { "type": "LineString", "coordinates": [ [ 284347.92, 4156031.32 ], [ 284344.08, 4156036.19 ], [ 284324.63, 4156060.75 ], [ 284317.65, 4156069.55 ] ] } },
{ "type": "Feature", "properties": { "id": "osm:way/1346664225", "name": null, "highway": "footway", "lanes": null, "width": 2.0, "oneway": false, "surface": null, "footway": "sidewalk", "sidewalk_left": false, "sidewalk_right": false, "generated_sidewalk": false, "bus_lanes": null, "bus_lane_side": null, "bus_only": false, "sidewalk": false, "bridge": false, "ramp": false, "tunnel": false, "layer": 0, "deck": null }, "geometry": { "type": "LineString", "coordinates": [ [ 284348.19, 4156039.2 ], [ 284328.87, 4156064.13 ] ] } },
{ "type": "Feature", "properties": { "id": "osm:way/1346664223", "name": null, "highway": "footway", "lanes": null, "width": 2.0, "oneway": false, "surface": null, "footway": "crossing", "sidewalk_left": false, "sidewalk_right": false, "generated_sidewalk": false, "bus_lanes": null, "bus_lane_side": null, "bus_only": false, "sidewalk": false, "bridge": false, "ramp": false, "tunnel": false, "layer": 0, "deck": null }, "geometry": { "type": "LineString", "coordinates": [ [ 284380.63, 4156064.95 ], [ 284384.88, 4156058.85 ], [ 284387.09, 4156055.68 ] ] } },
{ "type": "Feature", "properties": { "id": "osm:way/1346656341", "name": null, "highway": "footway", "lanes": null, "width": 2.0, "oneway": false, "surface": null, "footway": "sidewalk", "sidewalk_left": false, "sidewalk_right": false, "generated_sidewalk": false, "bus_lanes": null, "bus_lane_side": null, "bus_only": false, "sidewalk": false, "bridge": false, "ramp": false, "tunnel": false, "layer": 0, "deck": null }, "geometry": { "type": "LineString", "coordinates": [ [ 284398.95, 4156054.6 ], [ 284439.51, 4156000.0 ] ] } },
{ "type": "Feature", "properties": { "id": "osm:way/673647486", "name": null, "highway": "service", "lanes": null, "width": 4.5, "oneway": false, "surface": null, "footway": null, "sidewalk_left": false, "sidewalk_right": false, "generated_sidewalk": false, "bus_lanes": null, "bus_lane_side": null, "bus_only": false, "sidewalk": false, "bridge": false, "ramp": false, "tunnel": false, "layer": 0, "deck": null }, "geometry": { "type": "LineString", "coordinates": [ [ 284396.79, 4156067.72 ], [ 284404.12, 4156058.06 ], [ 284448.18, 4156000.0 ] ] } },
{ "type": "Feature", "properties": { "id": "osm:way/822389319", "name": null, "highway": "service", "lanes": null, "width": 4.5, "oneway": false, "surface": null, "footway": null, "sidewalk_left": false, "sidewalk_right": false, "generated_sidewalk": false, "bus_lanes": null, "bus_lane_side": null, "bus_only": false, "sidewalk": false, "bridge": false, "ramp": false, "tunnel": false, "layer": 0, "deck": null }, "geometry": { "type": "MultiLineString", "coordinates": [ [ [ 284468.95, 4156000.0 ], [ 284470.23, 4156001.03 ], [ 284465.14, 4156006.82 ] ], [ [ 284465.14, 4156006.82 ], [ 284435.81, 4156045.39 ], [ 284445.48, 4156052.7 ], [ 284475.33, 4156014.6 ], [ 284465.14, 4156006.82 ] ] ] } },
{ "type": "Feature", "properties": { "id": "osm:way/1346656340", "name": null, "highway": "footway", "lanes": null, "width": 2.0, "oneway": false, "surface": null, "footway": "sidewalk", "sidewalk_left": false, "sidewalk_right": false, "generated_sidewalk": false, "bus_lanes": null, "bus_lane_side": null, "bus_only": false, "sidewalk": false, "bridge": false, "ramp": false, "tunnel": false, "layer": 0, "deck": null }, "geometry": { "type": "LineString", "coordinates": [ [ 284453.92, 4156000.0 ], [ 284407.25, 4156060.17 ] ] } },
{ "type": "Feature", "properties": { "id": "osm:way/608507049", "name": "West 4th Street", "highway": "residential", "lanes": null, "width": 7.0, "oneway": false, "surface": "asphalt", "footway": null, "sidewalk_left": null, "sidewalk_right": null, "generated_sidewalk": true, "bus_lanes": null, "bus_lane_side": null, "bus_only": false, "sidewalk": false, "bridge": false, "ramp": false, "tunnel": false, "layer": 0, "deck": null }, "geometry": { "type": "LineString", "coordinates": [ [ 284500.0, 4156020.91 ], [ 284464.83, 4156067.34 ] ] } },
{ "type": "Feature", "properties": { "id": "osm:way/44748007", "name": "Porter Street", "highway": "residential", "lanes": null, "width": 7.0, "oneway": false, "surface": "asphalt", "footway": null, "sidewalk_left": null, "sidewalk_right": false, "generated_sidewalk": true, "bus_lanes": null, "bus_lane_side": null, "bus_only": false, "sidewalk": false, "bridge": false, "ramp": false, "tunnel": false, "layer": 0, "deck": null }, "geometry": { "type": "LineString", "coordinates": [ [ 284464.83, 4156067.34 ], [ 284403.49, 4156072.72 ], [ 284396.79, 4156067.72 ], [ 284384.88, 4156058.85 ], [ 284347.92, 4156031.32 ] ] } },
{ "type": "Feature", "properties": { "id": "osm:way/1346664220", "name": null, "highway": "footway", "lanes": null, "width": 2.0, "oneway": false, "surface": null, "footway": null, "sidewalk_left": false, "sidewalk_right": false, "generated_sidewalk": false, "bus_lanes": null, "bus_lane_side": null, "bus_only": false, "sidewalk": false, "bridge": false, "ramp": false, "tunnel": false, "layer": 0, "deck": null }, "geometry": { "type": "LineString", "coordinates": [ [ 284407.25, 4156060.17 ], [ 284408.57, 4156061.04 ], [ 284427.24, 4156052.62 ], [ 284435.81, 4156045.39 ] ] } },
{ "type": "Feature", "properties": { "id": "osm:way/1346664222", "name": null, "highway": "footway", "lanes": null, "width": 2.0, "oneway": false, "surface": null, "footway": "sidewalk", "sidewalk_left": false, "sidewalk_right": false, "generated_sidewalk": false, "bus_lanes": null, "bus_lane_side": null, "bus_only": false, "sidewalk": false, "bridge": false, "ramp": false, "tunnel": false, "layer": 0, "deck": null }, "geometry": { "type": "LineString", "coordinates": [ [ 284387.09, 4156055.68 ], [ 284398.95, 4156054.6 ] ] } },
{ "type": "Feature", "properties": { "id": "osm:way/1346664221", "name": null, "highway": "footway", "lanes": null, "width": 2.0, "oneway": false, "surface": null, "footway": "crossing", "sidewalk_left": false, "sidewalk_right": false, "generated_sidewalk": false, "bus_lanes": null, "bus_lane_side": null, "bus_only": false, "sidewalk": false, "bridge": false, "ramp": false, "tunnel": false, "layer": 0, "deck": null }, "geometry": { "type": "LineString", "coordinates": [ [ 284398.95, 4156054.6 ], [ 284404.12, 4156058.06 ], [ 284407.25, 4156060.17 ] ] } },
{ "type": "Feature", "properties": { "id": "osm:way/167824986", "name": "Manchester Floodwall Walk", "highway": "footway", "lanes": null, "width": 2.0, "oneway": false, "surface": "concrete", "footway": null, "sidewalk_left": false, "sidewalk_right": false, "generated_sidewalk": false, "bus_lanes": null, "bus_lane_side": null, "bus_only": false, "sidewalk": false, "bridge": false, "ramp": false, "tunnel": false, "layer": 0, "deck": null }, "geometry": { "type": "LineString", "coordinates": [ [ 284500.0, 4156126.81 ], [ 284484.15, 4156140.03 ], [ 284482.08, 4156141.25 ] ] } },
{ "type": "Feature", "properties": { "id": "osm:way/167824987", "name": "Manchester Floodwall Walk", "highway": "steps", "lanes": null, "width": 2.0, "oneway": false, "surface": "concrete", "footway": null, "sidewalk_left": false, "sidewalk_right": false, "generated_sidewalk": false, "bus_lanes": null, "bus_lane_side": null, "bus_only": false, "sidewalk": false, "bridge": false, "ramp": false, "tunnel": false, "layer": 0, "deck": null }, "geometry": { "type": "LineString", "coordinates": [ [ 284482.08, 4156141.25 ], [ 284478.96, 4156141.4 ], [ 284475.82, 4156140.65 ], [ 284468.96, 4156138.44 ], [ 284463.51, 4156135.67 ], [ 284459.81, 4156135.76 ] ] } },
{ "type": "Feature", "properties": { "id": "osm:way/167824984", "name": "Manchester Floodwall Walk", "highway": "footway", "lanes": null, "width": 2.0, "oneway": false, "surface": "concrete", "footway": null, "sidewalk_left": false, "sidewalk_right": false, "generated_sidewalk": false, "bus_lanes": null, "bus_lane_side": null, "bus_only": false, "sidewalk": false, "bridge": true, "ramp": false, "tunnel": false, "layer": 5, "deck": [ 284459.8, 4156135.8, 10.37, 284452.0, 4156145.5, 10.72 ] }, "geometry": { "type": "LineString", "coordinates": [ [ 284459.81, 4156135.76 ], [ 284452.04, 4156145.5 ] ] } },
{ "type": "Feature", "properties": { "id": "osm:way/167824983", "name": "Manchester Floodwall Walk", "highway": "steps", "lanes": null, "width": 2.0, "oneway": false, "surface": "concrete", "footway": null, "sidewalk_left": false, "sidewalk_right": false, "generated_sidewalk": false, "bus_lanes": null, "bus_lane_side": null, "bus_only": false, "sidewalk": false, "bridge": false, "ramp": false, "tunnel": false, "layer": 0, "deck": null }, "geometry": { "type": "LineString", "coordinates": [ [ 284452.04, 4156145.5 ], [ 284447.7, 4156146.75 ], [ 284441.68, 4156147.08 ] ] } },
{ "type": "Feature", "properties": { "id": "osm:way/822389318", "name": null, "highway": "path", "lanes": null, "width": 1.5, "oneway": false, "surface": null, "footway": null, "sidewalk_left": false, "sidewalk_right": false, "generated_sidewalk": false, "bus_lanes": null, "bus_lane_side": null, "bus_only": false, "sidewalk": false, "bridge": false, "ramp": false, "tunnel": false, "layer": 0, "deck": null }, "geometry": { "type": "LineString", "coordinates": [ [ 284324.63, 4156060.75 ], [ 284328.87, 4156064.13 ], [ 284330.2, 4156066.64 ], [ 284333.34, 4156068.91 ], [ 284337.5, 4156068.93 ], [ 284341.56, 4156065.51 ], [ 284345.37, 4156057.15 ], [ 284348.13, 4156053.54 ], [ 284351.54, 4156052.5 ], [ 284354.52, 4156053.13 ], [ 284356.71, 4156055.2 ], [ 284358.1, 4156058.71 ], [ 284357.26, 4156062.51 ], [ 284357.35, 4156066.29 ], [ 284358.49, 4156068.74 ], [ 284361.34, 4156069.25 ], [ 284365.71, 4156068.2 ], [ 284369.21, 4156065.98 ], [ 284374.02, 4156060.1 ], [ 284380.63, 4156064.95 ] ] } },
{ "type": "Feature", "properties": { "id": "osm:way/1346664228", "name": null, "highway": "footway", "lanes": null, "width": 2.0, "oneway": false, "surface": null, "footway": "sidewalk", "sidewalk_left": false, "sidewalk_right": false, "generated_sidewalk": false, "bus_lanes": null, "bus_lane_side": null, "bus_only": false, "sidewalk": false, "bridge": false, "ramp": false, "tunnel": false, "layer": 0, "deck": null }, "geometry": { "type": "LineString", "coordinates": [ [ 284250.0, 4156100.04 ], [ 284256.57, 4156104.86 ], [ 284258.93, 4156101.64 ], [ 284273.85, 4156111.48 ], [ 284335.79, 4156030.11 ] ] } },
{ "type": "Feature", "properties": { "id": "osm:way/749747698", "name": null, "highway": "residential", "lanes": null, "width": 7.0, "oneway": false, "surface": null, "footway": null, "sidewalk_left": null, "sidewalk_right": false, "generated_sidewalk": true, "bus_lanes": null, "bus_lane_side": null, "bus_only": false, "sidewalk": false, "bridge": false, "ramp": false, "tunnel": false, "layer": 0, "deck": null }, "geometry": { "type": "LineString", "coordinates": [ [ 284250.0, 4156106.62 ], [ 284261.38, 4156115.26 ] ] } },
{ "type": "Feature", "properties": { "id": "osm:way/167824988", "name": "Manchester Floodwall Walk", "highway": "footway", "lanes": null, "width": 2.0, "oneway": false, "surface": "compacted", "footway": null, "sidewalk_left": false, "sidewalk_right": false, "generated_sidewalk": false, "bus_lanes": null, "bus_lane_side": null, "bus_only": false, "sidewalk": false, "bridge": false, "ramp": false, "tunnel": false, "layer": 0, "deck": null }, "geometry": { "type": "LineString", "coordinates": [ [ 284441.68, 4156147.08 ], [ 284413.11, 4156151.34 ], [ 284406.89, 4156152.32 ], [ 284400.66, 4156153.67 ], [ 284396.36, 4156154.6 ], [ 284386.36, 4156157.82 ], [ 284370.44, 4156164.14 ], [ 284355.52, 4156171.61 ], [ 284342.39, 4156180.46 ], [ 284325.53, 4156194.83 ], [ 284308.85, 4156210.14 ], [ 284269.57, 4156246.24 ], [ 284265.48, 4156250.0 ] ] } }
]
}
