{
"type": "FeatureCollection",
"name": "landuse",
"crs": { "type": "name", "properties": { "name": "urn:ogc:def:crs:EPSG::32618" } },
"xy_coordinate_resolution": 0.01,
"features": [
{ "type": "Feature", "properties": { "id": "imagery:groundcover_lawn:3313", "name": null, "kind": "groundcover_lawn", "sport": null, "surface": null, "pitch_layout": null, "source": "vgin_vbmp+naip+lidar2025", "source_updated": null, "base_z": null, "top_z": null }, "geometry": { "type": "MultiPolygon", "coordinates": [ [ [ [ 284630.0, 4155250.0 ], [ 284622.73, 4155250.0 ], [ 284622.71, 4155250.05 ], [ 284620.55, 4155252.2 ], [ 284619.53, 4155252.63 ], [ 284618.9, 4155252.63 ], [ 284616.27, 4155254.17 ], [ 284603.18, 4155277.73 ], [ 284602.64, 4155278.29 ], [ 284600.71, 4155279.42 ], [ 284599.96, 4155279.63 ], [ 284599.13, 4155279.63 ], [ 284597.78, 4155280.98 ], [ 284596.61, 4155285.49 ], [ 284599.62, 4155288.04 ], [ 284601.55, 4155287.72 ], [ 284630.0, 4155250.0 ] ] ], [ [ [ 284636.89, 4155282.63 ], [ 284639.66, 4155280.77 ], [ 284639.01, 4155277.5 ], [ 284633.01, 4155271.5 ], [ 284630.89, 4155270.63 ], [ 284629.73, 4155270.63 ], [ 284628.71, 4155270.2 ], [ 284626.9, 4155268.39 ], [ 284620.96, 4155276.27 ], [ 284622.36, 4155275.94 ], [ 284623.54, 4155276.18 ], [ 284631.33, 4155282.03 ], [ 284633.13, 4155282.63 ], [ 284636.89, 4155282.63 ] ] ] ] } },
{ "type": "Feature", "properties": { "id": "imagery:groundcover_lawn:3283", "name": null, "kind": "groundcover_lawn", "sport": null, "surface": null, "pitch_layout": null, "source": "vgin_vbmp+naip+lidar2025", "source_updated": null, "base_z": null, "top_z": null }, "geometry": { "type": "Polygon", "coordinates": [ [ [ 284500.0, 4155253.33 ], [ 284500.0, 4155266.32 ], [ 284505.73, 4155257.73 ], [ 284500.0, 4155253.33 ] ] ] } },
{ "type": "Feature", "properties": { "id": "imagery:groundcover_lawn:3271", "name": null, "kind": "groundcover_lawn", "sport": null, "surface": null, "pitch_layout": null, "source": "vgin_vbmp+naip+lidar2025", "source_updated": null, "base_z": null, "top_z": null }, "geometry": { "type": "Polygon", "coordinates": [ [ [ 284750.0, 4155278.95 ], [ 284750.0, 4155264.63 ], [ 284742.29, 4155264.63 ], [ 284739.45, 4155266.68 ], [ 284737.95, 4155271.16 ], [ 284739.46, 4155274.79 ], [ 284747.79, 4155278.95 ], [ 284750.0, 4155278.95 ] ] ] } },
{ "type": "Feature", "properties": { "id": "imagery:groundcover_lawn:3265", "name": null, "kind": "groundcover_lawn", "sport": null, "surface": null, "pitch_layout": null, "source": "vgin_vbmp+naip+lidar2025", "source_updated": null, "base_z": null, "top_z": null }, "geometry": { "type": "MultiPolygon", "coordinates": [ [ [ [ 284521.13, 4155300.6 ], [ 284523.41, 4155303.51 ], [ 284526.78, 4155302.0 ], [ 284526.97, 4155301.65 ], [ 284528.11, 4155300.28 ], [ 284528.59, 4155299.9 ], [ 284537.08, 4155295.65 ], [ 284538.41, 4155293.94 ], [ 284539.13, 4155292.77 ], [ 284539.13, 4155283.87 ], [ 284538.58, 4155282.53 ], [ 284526.15, 4155273.74 ], [ 284525.71, 4155273.4 ], [ 284525.3, 4155273.01 ], [ 284525.12, 4155272.79 ], [ 284514.66, 4155271.05 ], [ 284511.32, 4155273.06 ], [ 284509.29, 4155279.16 ], [ 284509.13, 4155280.11 ], [ 284509.13, 4155282.1 ], [ 284509.14, 4155282.1 ], [ 284509.24, 4155282.1 ], [ 284509.33, 4155282.11 ], [ 284509.43, 4155282.13 ], [ 284509.52, 4155282.16 ], [ 284509.61, 4155282.2 ], [ 284509.7, 4155282.25 ], [ 284509.78, 4155282.3 ], [ 284512.12, 4155284.06 ], [ 284512.19, 4155283.99 ], [ 284512.27, 4155283.93 ], [ 284512.35, 4155283.88 ], [ 284512.44, 4155283.83 ], [ 284512.53, 4155283.79 ], [ 284512.62, 4155283.77 ], [ 284512.72, 4155283.75 ], [ 284512.82, 4155283.74 ], [ 284512.91, 4155283.74 ], [ 284513.01, 4155283.75 ], [ 284513.11, 4155283.77 ], [ 284513.2, 4155283.8 ], [ 284513.29, 4155283.84 ], [ 284513.38, 4155283.89 ], [ 284513.46, 4155283.94 ], [ 284520.16, 4155289.02 ], [ 284520.24, 4155289.08 ], [ 284520.31, 4155289.15 ], [ 284520.37, 4155289.23 ], [ 284520.42, 4155289.31 ], [ 284520.47, 4155289.4 ], [ 284520.5, 4155289.49 ], [ 284520.53, 4155289.58 ], [ 284520.55, 4155289.68 ], [ 284520.56, 4155289.78 ], [ 284520.56, 4155289.88 ], [ 284520.55, 4155289.97 ], [ 284520.53, 4155290.07 ], [ 284520.5, 4155290.16 ], [ 284520.46, 4155290.25 ], [ 284520.41, 4155290.34 ], [ 284520.36, 4155290.42 ], [ 284519.28, 4155291.85 ], [ 284520.5, 4155293.69 ], [ 284520.69, 4155294.08 ], [ 284521.07, 4155295.32 ], [ 284521.13, 4155295.75 ], [ 284521.13, 4155300.6 ] ] ], [ [ [ 284501.6, 4155308.48 ], [ 284501.64, 4155308.67 ], [ 284505.45, 4155311.53 ], [ 284505.53, 4155311.59 ], [ 284505.6, 4155311.66 ], [ 284505.66, 4155311.74 ], [ 284505.71, 4155311.82 ], [ 284505.76, 4155311.91 ], [ 284505.79, 4155312.0 ], [ 284505.82, 4155312.09 ], [ 284505.84, 4155312.19 ], [ 284505.85, 4155312.29 ], [ 284505.85, 4155312.38 ], [ 284505.84, 4155312.48 ], [ 284505.82, 4155312.58 ], [ 284505.79, 4155312.67 ], [ 284505.75, 4155312.76 ], [ 284505.71, 4155312.85 ], [ 284505.65, 4155312.93 ], [ 284504.7, 4155314.2 ], [ 284505.25, 4155314.75 ], [ 284507.37, 4155315.63 ], [ 284508.53, 4155315.63 ], [ 284509.55, 4155316.05 ], [ 284511.71, 4155318.2 ], [ 284512.36, 4155319.77 ], [ 284515.13, 4155321.63 ], [ 284516.92, 4155321.63 ], [ 284523.59, 4155313.04 ], [ 284525.15, 4155307.56 ], [ 284523.79, 4155304.15 ], [ 284520.14, 4155304.61 ], [ 284518.55, 4155306.2 ], [ 284517.53, 4155306.63 ], [ 284504.37, 4155306.63 ], [ 284501.6, 4155308.48 ] ] ], [ [ [ 284500.13, 4155299.58 ], [ 284500.0, 4155299.48 ], [ 284500.0, 4155303.63 ], [ 284500.13, 4155303.63 ], [ 284500.13, 4155299.58 ] ] ], [ [ [ 284500.13, 4155293.16 ], [ 284500.24, 4155292.6 ], [ 284500.9, 4155291.02 ], [ 284501.38, 4155290.29 ], [ 284500.0, 4155287.71 ], [ 284500.0, 4155293.35 ], [ 284500.13, 4155293.17 ], [ 284500.13, 4155293.16 ] ] ] ] } },
{ "type": "Feature", "properties": { "id": "richmond_structure:412894", "name": null, "kind": "deck", "sport": null, "surface": null, "pitch_layout": null, "source": "richmond_structures", "source_updated": "2026-09-08T12:07:13.637000Z", "base_z": null, "top_z": null }, "geometry": { "type": "Polygon", "coordinates": [ [ [ 284617.54, 4155356.11 ], [ 284616.54, 4155357.43 ], [ 284617.6, 4155358.24 ], [ 284623.53, 4155350.45 ], [ 284618.11, 4155346.18 ], [ 284613.37, 4155352.85 ], [ 284617.54, 4155356.11 ] ] ] } },
{ "type": "Feature", "properties": { "id": "imagery:groundcover_paved:3471", "name": null, "kind": "groundcover_paved", "sport": null, "surface": null, "pitch_layout": null, "source": "vgin_vbmp+naip+lidar2025", "source_updated": null, "base_z": null, "top_z": null }, "geometry": { "type": "MultiPolygon", "coordinates": [ [ [ [ 284521.55, 4155252.2 ], [ 284519.98, 4155252.85 ], [ 284518.35, 4155255.3 ], [ 284529.66, 4155263.3 ], [ 284530.19, 4155263.34 ], [ 284530.75, 4155263.44 ], [ 284531.29, 4155263.59 ], [ 284531.82, 4155263.8 ], [ 284532.32, 4155264.05 ], [ 284532.8, 4155264.36 ], [ 284553.53, 4155279.02 ], [ 284554.51, 4155279.72 ], [ 284554.73, 4155279.63 ], [ 284556.53, 4155279.63 ], [ 284557.55, 4155280.05 ], [ 284559.71, 4155282.2 ], [ 284560.13, 4155283.22 ], [ 284560.13, 4155283.69 ], [ 284563.76, 4155286.26 ], [ 284564.09, 4155285.29 ], [ 284564.16, 4155285.13 ], [ 284564.24, 4155284.97 ], [ 284564.33, 4155284.83 ], [ 284564.44, 4155284.69 ], [ 284564.56, 4155284.56 ], [ 284564.7, 4155284.45 ], [ 284564.84, 4155284.35 ], [ 284564.99, 4155284.26 ], [ 284565.15, 4155284.19 ], [ 284565.32, 4155284.14 ], [ 284565.49, 4155284.1 ], [ 284565.66, 4155284.08 ], [ 284565.84, 4155284.08 ], [ 284566.01, 4155284.09 ], [ 284566.18, 4155284.12 ], [ 284566.35, 4155284.16 ], [ 284566.52, 4155284.23 ], [ 284566.67, 4155284.3 ], [ 284566.82, 4155284.4 ], [ 284566.96, 4155284.5 ], [ 284568.68, 4155285.96 ], [ 284573.0, 4155271.39 ], [ 284575.67, 4155259.63 ], [ 284577.21, 4155250.0 ], [ 284523.73, 4155250.0 ], [ 284523.71, 4155250.05 ], [ 284521.55, 4155252.2 ] ] ], [ [ [ 284547.85, 4155298.76 ], [ 284548.04, 4155298.53 ], [ 284548.25, 4155298.31 ], [ 284548.47, 4155298.12 ], [ 284548.72, 4155297.95 ], [ 284548.98, 4155297.8 ], [ 284549.25, 4155297.68 ], [ 284549.54, 4155297.59 ], [ 284549.83, 4155297.53 ], [ 284550.13, 4155297.49 ], [ 284550.43, 4155297.49 ], [ 284550.73, 4155297.51 ], [ 284551.02, 4155297.56 ], [ 284551.31, 4155297.64 ], [ 284551.59, 4155297.75 ], [ 284551.85, 4155297.89 ], [ 284552.11, 4155298.05 ], [ 284552.34, 4155298.24 ], [ 284552.56, 4155298.45 ], [ 284552.75, 4155298.67 ], [ 284552.92, 4155298.92 ], [ 284553.07, 4155299.18 ], [ 284553.19, 4155299.45 ], [ 284553.28, 4155299.74 ], [ 284553.34, 4155300.03 ], [ 284553.38, 4155300.33 ], [ 284553.38, 4155300.63 ], [ 284553.36, 4155300.93 ], [ 284553.31, 4155301.22 ], [ 284553.22, 4155301.51 ], [ 284553.11, 4155301.79 ], [ 284552.98, 4155302.05 ], [ 284552.82, 4155302.31 ], [ 284518.44, 4155350.45 ], [ 284523.31, 4155353.78 ], [ 284532.02, 4155342.76 ], [ 284549.95, 4155317.2 ], [ 284556.99, 4155303.57 ], [ 284557.03, 4155303.5 ], [ 284559.03, 4155300.01 ], [ 284559.87, 4155297.58 ], [ 284550.75, 4155291.14 ], [ 284550.74, 4155291.14 ], [ 284549.17, 4155290.03 ], [ 284502.67, 4155349.93 ], [ 284500.0, 4155353.37 ], [ 284500.0, 4155364.91 ], [ 284511.69, 4155349.39 ], [ 284512.05, 4155348.91 ], [ 284547.85, 4155298.76 ] ] ], [ [ [ 284501.64, 4155323.04 ], [ 284501.16, 4155323.13 ], [ 284501.05, 4155323.15 ], [ 284501.05, 4155323.17 ], [ 284501.1, 4155323.66 ], [ 284501.09, 4155324.15 ], [ 284501.04, 4155324.64 ], [ 284500.95, 4155325.12 ], [ 284500.8, 4155325.59 ], [ 284500.61, 4155326.04 ], [ 284500.38, 4155326.48 ], [ 284500.1, 4155326.88 ], [ 284500.0, 4155327.02 ], [ 284500.0, 4155343.42 ], [ 284516.92, 4155321.63 ], [ 284515.73, 4155321.63 ], [ 284514.71, 4155321.2 ], [ 284512.55, 4155319.05 ], [ 284511.9, 4155317.48 ], [ 284509.13, 4155315.63 ], [ 284508.63, 4155315.63 ], [ 284504.46, 4155321.19 ], [ 284504.14, 4155321.56 ], [ 284503.79, 4155321.91 ], [ 284503.41, 4155322.22 ], [ 284503.0, 4155322.49 ], [ 284502.57, 4155322.72 ], [ 284502.11, 4155322.9 ], [ 284501.64, 4155323.04 ] ] ], [ [ [ 284500.52, 4155382.65 ], [ 284500.54, 4155382.61 ], [ 284519.52, 4155358.58 ], [ 284514.82, 4155355.37 ], [ 284500.0, 4155375.05 ], [ 284500.0, 4155383.36 ], [ 284500.49, 4155382.68 ], [ 284500.52, 4155382.65 ] ] ], [ [ [ 284599.2, 4155261.17 ], [ 284599.25, 4155261.0 ], [ 284599.32, 4155260.84 ], [ 284599.41, 4155260.68 ], [ 284599.51, 4155260.54 ], [ 284599.62, 4155260.4 ], [ 284599.75, 4155260.28 ], [ 284599.88, 4155260.17 ], [ 284600.03, 4155260.07 ], [ 284600.19, 4155259.99 ], [ 284600.35, 4155259.92 ], [ 284600.52, 4155259.87 ], [ 284600.69, 4155259.84 ], [ 284600.87, 4155259.82 ], [ 284601.05, 4155259.83 ], [ 284601.22, 4155259.84 ], [ 284601.4, 4155259.88 ], [ 284601.56, 4155259.93 ], [ 284601.73, 4155260.0 ], [ 284601.88, 4155260.09 ], [ 284602.03, 4155260.19 ], [ 284602.16, 4155260.3 ], [ 284602.29, 4155260.43 ], [ 284602.4, 4155260.56 ], [ 284602.49, 4155260.71 ], [ 284602.58, 4155260.87 ], [ 284602.64, 4155261.03 ], [ 284602.69, 4155261.2 ], [ 284602.73, 4155261.37 ], [ 284602.74, 4155261.55 ], [ 284602.74, 4155261.73 ], [ 284602.72, 4155261.9 ], [ 284602.69, 4155262.07 ], [ 284597.78, 4155280.98 ], [ 284598.71, 4155280.05 ], [ 284599.73, 4155279.63 ], [ 284600.37, 4155279.63 ], [ 284602.99, 4155278.08 ], [ 284616.08, 4155254.52 ], [ 284616.62, 4155253.97 ], [ 284618.55, 4155252.83 ], [ 284619.3, 4155252.63 ], [ 284620.13, 4155252.63 ], [ 284622.76, 4155250.0 ], [ 284600.66, 4155250.0 ], [ 284598.41, 4155264.23 ], [ 284599.2, 4155261.17 ] ] ], [ [ [ 284707.17, 4155250.15 ], [ 284706.69, 4155250.24 ], [ 284706.2, 4155250.27 ], [ 284705.8, 4155250.26 ], [ 284727.41, 4155266.82 ], [ 284728.24, 4155265.72 ], [ 284728.11, 4155265.69 ], [ 284727.64, 4155265.54 ], [ 284727.2, 4155265.34 ], [ 284726.77, 4155265.1 ], [ 284726.37, 4155264.82 ], [ 284720.2, 4155260.05 ], [ 284719.83, 4155259.73 ], [ 284719.49, 4155259.38 ], [ 284719.19, 4155258.99 ], [ 284718.92, 4155258.58 ], [ 284718.7, 4155258.14 ], [ 284718.52, 4155257.68 ], [ 284718.39, 4155257.2 ], [ 284718.3, 4155256.72 ], [ 284718.27, 4155256.23 ], [ 284718.28, 4155255.74 ], [ 284718.34, 4155255.25 ], [ 284718.44, 4155254.77 ], [ 284718.6, 4155254.3 ], [ 284718.8, 4155253.85 ], [ 284719.04, 4155253.42 ], [ 284719.32, 4155253.02 ], [ 284721.68, 4155250.0 ], [ 284707.69, 4155250.0 ], [ 284707.64, 4155250.02 ], [ 284707.17, 4155250.15 ] ] ], [ [ [ 284750.0, 4155283.93 ], [ 284750.0, 4155275.77 ], [ 284740.16, 4155274.13 ], [ 284739.29, 4155273.64 ], [ 284737.48, 4155271.49 ], [ 284737.16, 4155270.63 ], [ 284737.48, 4155269.76 ], [ 284739.29, 4155267.61 ], [ 284740.16, 4155267.12 ], [ 284750.0, 4155265.48 ], [ 284750.0, 4155251.31 ], [ 284734.25, 4155272.03 ], [ 284750.0, 4155283.93 ] ] ], [ [ [ 284599.13, 4155309.03 ], [ 284598.71, 4155310.05 ], [ 284598.14, 4155310.61 ], [ 284598.82, 4155311.14 ], [ 284624.39, 4155330.9 ], [ 284623.98, 4155328.87 ], [ 284624.28, 4155327.69 ], [ 284626.36, 4155325.15 ], [ 284627.41, 4155324.65 ], [ 284628.66, 4155322.67 ], [ 284628.9, 4155322.77 ], [ 284629.55, 4155321.2 ], [ 284631.71, 4155319.05 ], [ 284632.73, 4155318.63 ], [ 284635.29, 4155318.63 ], [ 284638.03, 4155316.85 ], [ 284638.61, 4155315.55 ], [ 284640.99, 4155313.42 ], [ 284642.1, 4155313.07 ], [ 284660.99, 4155315.17 ], [ 284648.71, 4155306.81 ], [ 284648.48, 4155306.63 ], [ 284648.26, 4155306.43 ], [ 284648.06, 4155306.21 ], [ 284647.88, 4155305.97 ], [ 284647.73, 4155305.72 ], [ 284647.61, 4155305.45 ], [ 284647.51, 4155305.17 ], [ 284647.44, 4155304.88 ], [ 284647.39, 4155304.58 ], [ 284647.38, 4155304.29 ], [ 284647.39, 4155303.99 ], [ 284647.44, 4155303.7 ], [ 284647.51, 4155303.41 ], [ 284647.61, 4155303.13 ], [ 284651.43, 4155293.88 ], [ 284651.55, 4155293.62 ], [ 284651.69, 4155293.38 ], [ 284679.99, 4155250.0 ], [ 284670.59, 4155250.0 ], [ 284670.72, 4155250.21 ], [ 284670.95, 4155250.64 ], [ 284671.13, 4155251.1 ], [ 284671.27, 4155251.57 ], [ 284671.36, 4155252.06 ], [ 284671.41, 4155252.55 ], [ 284671.4, 4155253.04 ], [ 284671.35, 4155253.53 ], [ 284671.25, 4155254.01 ], [ 284671.1, 4155254.48 ], [ 284670.91, 4155254.93 ], [ 284670.67, 4155255.36 ], [ 284670.39, 4155255.77 ], [ 284650.18, 4155282.35 ], [ 284649.87, 4155282.72 ], [ 284649.52, 4155283.06 ], [ 284649.14, 4155283.37 ], [ 284648.74, 4155283.64 ], [ 284648.31, 4155283.86 ], [ 284647.86, 4155284.04 ], [ 284647.39, 4155284.18 ], [ 284646.91, 4155284.28 ], [ 284646.43, 4155284.32 ], [ 284645.94, 4155284.32 ], [ 284645.46, 4155284.27 ], [ 284644.98, 4155284.18 ], [ 284644.52, 4155284.04 ], [ 284644.07, 4155283.85 ], [ 284643.64, 4155283.62 ], [ 284643.24, 4155283.35 ], [ 284642.25, 4155282.63 ], [ 284633.67, 4155282.63 ], [ 284633.1, 4155282.51 ], [ 284631.53, 4155281.86 ], [ 284631.04, 4155281.54 ], [ 284630.99, 4155281.48 ], [ 284626.07, 4155282.52 ], [ 284625.76, 4155283.32 ], [ 284623.8, 4155285.48 ], [ 284622.87, 4155285.95 ], [ 284612.9, 4155286.95 ], [ 284598.83, 4155305.61 ], [ 284599.13, 4155306.47 ], [ 284599.13, 4155309.03 ] ] ], [ [ [ 284688.95, 4155253.91 ], [ 284689.42, 4155253.78 ], [ 284689.9, 4155253.69 ], [ 284690.39, 4155253.65 ], [ 284690.88, 4155253.65 ], [ 284691.37, 4155253.71 ], [ 284691.84, 4155253.81 ], [ 284692.31, 4155253.96 ], [ 284692.76, 4155254.15 ], [ 284693.19, 4155254.39 ], [ 284693.59, 4155254.67 ], [ 284713.73, 4155270.01 ], [ 284714.11, 4155270.33 ], [ 284714.45, 4155270.68 ], [ 284714.76, 4155271.07 ], [ 284715.02, 4155271.48 ], [ 284715.25, 4155271.92 ], [ 284715.43, 4155272.38 ], [ 284715.57, 4155272.85 ], [ 284715.66, 4155273.33 ], [ 284715.7, 4155273.82 ], [ 284715.69, 4155274.31 ], [ 284715.63, 4155274.8 ], [ 284715.53, 4155275.28 ], [ 284715.38, 4155275.75 ], [ 284715.18, 4155276.2 ], [ 284714.94, 4155276.63 ], [ 284714.66, 4155277.04 ], [ 284701.13, 4155294.64 ], [ 284701.13, 4155294.99 ], [ 284700.86, 4155295.85 ], [ 284699.36, 4155297.93 ], [ 284698.63, 4155298.46 ], [ 284698.04, 4155298.66 ], [ 284688.24, 4155311.4 ], [ 284687.92, 4155311.78 ], [ 284687.57, 4155312.12 ], [ 284687.19, 4155312.42 ], [ 284686.78, 4155312.69 ], [ 284686.34, 4155312.91 ], [ 284685.89, 4155313.09 ], [ 284685.42, 4155313.22 ], [ 284684.94, 4155313.31 ], [ 284684.45, 4155313.35 ], [ 284683.96, 4155313.35 ], [ 284683.47, 4155313.29 ], [ 284682.99, 4155313.19 ], [ 284682.53, 4155313.04 ], [ 284682.08, 4155312.85 ], [ 284681.65, 4155312.61 ], [ 284681.25, 4155312.33 ], [ 284661.11, 4155296.99 ], [ 284660.73, 4155296.67 ], [ 284660.39, 4155296.32 ], [ 284660.08, 4155295.93 ], [ 284659.81, 4155295.52 ], [ 284659.59, 4155295.08 ], [ 284659.41, 4155294.62 ], [ 284659.27, 4155294.15 ], [ 284659.18, 4155293.67 ], [ 284659.14, 4155293.18 ], [ 284659.14, 4155293.12 ], [ 284656.96, 4155296.47 ], [ 284654.2, 4155303.16 ], [ 284682.43, 4155322.37 ], [ 284684.33, 4155323.66 ], [ 284722.21, 4155273.67 ], [ 284694.24, 4155252.24 ], [ 284691.29, 4155250.0 ], [ 284687.27, 4155250.0 ], [ 284666.97, 4155281.13 ], [ 284686.6, 4155255.6 ], [ 284686.91, 4155255.22 ], [ 284687.27, 4155254.88 ], [ 284687.65, 4155254.58 ], [ 284688.06, 4155254.31 ], [ 284688.5, 4155254.09 ], [ 284688.95, 4155253.91 ] ] ], [ [ [ 284747.88, 4155297.57 ], [ 284746.12, 4155300.03 ], [ 284750.0, 4155302.92 ], [ 284750.0, 4155294.71 ], [ 284749.91, 4155294.64 ], [ 284747.91, 4155297.53 ], [ 284747.88, 4155297.57 ] ] ], [ [ [ 284681.77, 4155353.94 ], [ 284681.83, 4155353.65 ], [ 284681.93, 4155353.36 ], [ 284682.05, 4155353.09 ], [ 284682.19, 4155352.83 ], [ 284682.36, 4155352.58 ], [ 284729.26, 4155291.39 ], [ 284729.45, 4155291.17 ], [ 284729.66, 4155290.96 ], [ 284729.89, 4155290.78 ], [ 284730.14, 4155290.61 ], [ 284730.4, 4155290.48 ], [ 284730.68, 4155290.37 ], [ 284730.96, 4155290.28 ], [ 284731.25, 4155290.23 ], [ 284731.54, 4155290.2 ], [ 284731.84, 4155290.2 ], [ 284732.13, 4155290.23 ], [ 284732.42, 4155290.29 ], [ 284732.7, 4155290.37 ], [ 284732.98, 4155290.48 ], [ 284733.24, 4155290.62 ], [ 284733.48, 4155290.78 ], [ 284741.2, 4155296.43 ], [ 284742.9, 4155294.05 ], [ 284745.03, 4155290.96 ], [ 284729.05, 4155278.88 ], [ 284689.47, 4155331.12 ], [ 284665.56, 4155362.68 ], [ 284679.27, 4155373.06 ], [ 284680.07, 4155371.97 ], [ 284680.24, 4155371.76 ], [ 284689.13, 4155361.59 ], [ 284682.93, 4155356.86 ], [ 284682.7, 4155356.67 ], [ 284682.49, 4155356.45 ], [ 284682.31, 4155356.22 ], [ 284682.14, 4155355.97 ], [ 284682.01, 4155355.7 ], [ 284681.9, 4155355.42 ], [ 284681.81, 4155355.13 ], [ 284681.76, 4155354.84 ], [ 284681.73, 4155354.54 ], [ 284681.74, 4155354.24 ], [ 284681.77, 4155353.94 ] ] ], [ [ [ 284689.06, 4155353.87 ], [ 284695.42, 4155358.72 ], [ 284697.22, 4155360.09 ], [ 284739.37, 4155302.65 ], [ 284732.29, 4155297.47 ], [ 284689.06, 4155353.87 ] ] ], [ [ [ 284649.12, 4155328.59 ], [ 284648.29, 4155326.95 ], [ 284644.66, 4155325.45 ], [ 284639.69, 4155327.1 ], [ 284637.73, 4155329.22 ], [ 284636.94, 4155332.37 ], [ 284640.58, 4155336.01 ], [ 284645.73, 4155334.73 ], [ 284646.95, 4155334.98 ], [ 284649.59, 4155337.04 ], [ 284650.13, 4155338.16 ], [ 284650.13, 4155342.03 ], [ 284649.71, 4155343.05 ], [ 284647.55, 4155345.2 ], [ 284646.53, 4155345.63 ], [ 284643.43, 4155345.63 ], [ 284653.13, 4155353.13 ], [ 284653.13, 4155349.22 ], [ 284653.55, 4155348.2 ], [ 284655.71, 4155346.05 ], [ 284656.73, 4155345.63 ], [ 284658.53, 4155345.63 ], [ 284659.55, 4155346.05 ], [ 284661.71, 4155348.2 ], [ 284662.13, 4155349.22 ], [ 284662.13, 4155352.96 ], [ 284680.64, 4155328.53 ], [ 284679.0, 4155327.41 ], [ 284664.37, 4155317.47 ], [ 284664.76, 4155317.9 ], [ 284665.13, 4155318.86 ], [ 284665.13, 4155323.09 ], [ 284665.02, 4155323.66 ], [ 284664.37, 4155325.23 ], [ 284664.04, 4155325.71 ], [ 284660.22, 4155329.54 ], [ 284659.74, 4155329.86 ], [ 284658.16, 4155330.51 ], [ 284657.59, 4155330.63 ], [ 284652.4, 4155330.63 ], [ 284651.63, 4155330.41 ], [ 284649.66, 4155329.19 ], [ 284649.12, 4155328.59 ] ] ], [ [ [ 284750.0, 4155310.53 ], [ 284744.28, 4155306.27 ], [ 284702.07, 4155363.8 ], [ 284711.9, 4155371.31 ], [ 284750.0, 4155322.92 ], [ 284750.0, 4155310.53 ] ] ], [ [ [ 284750.0, 4155332.78 ], [ 284716.75, 4155375.02 ], [ 284728.37, 4155383.9 ], [ 284746.96, 4155359.58 ], [ 284750.0, 4155355.6 ], [ 284750.0, 4155332.78 ] ] ], [ [ [ 284731.42, 4155389.95 ], [ 284722.3, 4155403.44 ], [ 284721.34, 4155404.86 ], [ 284729.46, 4155411.01 ], [ 284750.0, 4155384.52 ], [ 284750.0, 4155365.74 ], [ 284749.96, 4155365.7 ], [ 284731.42, 4155389.95 ] ] ], [ [ [ 284749.13, 4155405.03 ], [ 284749.13, 4155400.22 ], [ 284749.55, 4155399.2 ], [ 284750.0, 4155398.76 ], [ 284750.0, 4155398.56 ], [ 284736.3, 4155416.23 ], [ 284750.0, 4155426.78 ], [ 284750.0, 4155406.49 ], [ 284749.55, 4155406.05 ], [ 284749.13, 4155405.03 ] ] ], [ [ [ 284622.83, 4155467.2 ], [ 284603.65, 4155452.32 ], [ 284603.43, 4155452.13 ], [ 284603.22, 4155451.91 ], [ 284603.03, 4155451.67 ], [ 284602.87, 4155451.42 ], [ 284602.74, 4155451.16 ], [ 284602.63, 4155450.88 ], [ 284602.55, 4155450.59 ], [ 284602.5, 4155450.29 ], [ 284602.47, 4155450.0 ], [ 284602.48, 4155449.7 ], [ 284602.52, 4155449.4 ], [ 284602.58, 4155449.11 ], [ 284602.67, 4155448.82 ], [ 284602.8, 4155448.55 ], [ 284602.94, 4155448.29 ], [ 284603.11, 4155448.04 ], [ 284603.31, 4155447.81 ], [ 284603.52, 4155447.61 ], [ 284603.76, 4155447.42 ], [ 284604.01, 4155447.26 ], [ 284604.28, 4155447.13 ], [ 284604.56, 4155447.02 ], [ 284604.85, 4155446.94 ], [ 284605.14, 4155446.89 ], [ 284605.44, 4155446.86 ], [ 284605.74, 4155446.87 ], [ 284606.04, 4155446.91 ], [ 284606.33, 4155446.97 ], [ 284606.61, 4155447.06 ], [ 284606.89, 4155447.18 ], [ 284607.15, 4155447.33 ], [ 284607.39, 4155447.5 ], [ 284626.63, 4155462.43 ], [ 284645.43, 4155438.89 ], [ 284645.19, 4155438.94 ], [ 284644.7, 4155438.98 ], [ 284644.21, 4155438.98 ], [ 284643.73, 4155438.94 ], [ 284643.25, 4155438.84 ], [ 284642.78, 4155438.7 ], [ 284642.33, 4155438.51 ], [ 284641.89, 4155438.28 ], [ 284641.49, 4155438.01 ], [ 284637.31, 4155434.92 ], [ 284637.11, 4155434.81 ], [ 284636.5, 4155434.32 ], [ 284621.3, 4155423.08 ], [ 284620.92, 4155422.76 ], [ 284620.57, 4155422.42 ], [ 284620.54, 4155422.38 ], [ 284594.49, 4155456.95 ], [ 284615.58, 4155472.95 ], [ 284615.59, 4155472.96 ], [ 284617.29, 4155474.25 ], [ 284618.33, 4155472.83 ], [ 284618.41, 4155472.73 ], [ 284622.83, 4155467.2 ] ] ], [ [ [ 284677.94, 4155403.94 ], [ 284678.24, 4155404.02 ], [ 284682.02, 4155405.13 ], [ 284682.28, 4155405.22 ], [ 284682.53, 4155405.33 ], [ 284682.77, 4155405.46 ], [ 284682.99, 4155405.62 ], [ 284701.35, 4155419.44 ], [ 284701.59, 4155419.64 ], [ 284701.81, 4155419.87 ], [ 284702.0, 4155420.11 ], [ 284702.17, 4155420.38 ], [ 284702.31, 4155420.66 ], [ 284703.58, 4155423.56 ], [ 284703.68, 4155423.83 ], [ 284703.76, 4155424.11 ], [ 284703.81, 4155424.39 ], [ 284703.83, 4155424.68 ], [ 284703.83, 4155424.97 ], [ 284703.79, 4155425.26 ], [ 284703.73, 4155425.55 ], [ 284703.07, 4155428.12 ], [ 284702.98, 4155428.4 ], [ 284702.86, 4155428.67 ], [ 284702.72, 4155428.93 ], [ 284702.55, 4155429.18 ], [ 284657.04, 4155489.86 ], [ 284656.85, 4155490.09 ], [ 284656.64, 4155490.3 ], [ 284656.4, 4155490.49 ], [ 284656.15, 4155490.65 ], [ 284655.89, 4155490.79 ], [ 284655.61, 4155490.9 ], [ 284655.32, 4155490.99 ], [ 284655.03, 4155491.05 ], [ 284654.73, 4155491.07 ], [ 284654.43, 4155491.07 ], [ 284654.14, 4155491.04 ], [ 284653.84, 4155490.98 ], [ 284653.56, 4155490.89 ], [ 284653.28, 4155490.78 ], [ 284653.02, 4155490.63 ], [ 284652.77, 4155490.47 ], [ 284652.54, 4155490.28 ], [ 284652.33, 4155490.06 ], [ 284652.14, 4155489.83 ], [ 284651.97, 4155489.58 ], [ 284651.83, 4155489.32 ], [ 284651.72, 4155489.04 ], [ 284651.64, 4155488.75 ], [ 284651.58, 4155488.46 ], [ 284651.55, 4155488.16 ], [ 284651.55, 4155487.86 ], [ 284651.58, 4155487.56 ], [ 284651.64, 4155487.27 ], [ 284651.73, 4155486.98 ], [ 284651.85, 4155486.71 ], [ 284651.99, 4155486.44 ], [ 284652.16, 4155486.2 ], [ 284697.31, 4155426.0 ], [ 284697.56, 4155425.03 ], [ 284697.04, 4155423.84 ], [ 284679.76, 4155410.82 ], [ 284677.44, 4155410.14 ], [ 284675.72, 4155410.72 ], [ 284629.52, 4155468.59 ], [ 284623.22, 4155476.49 ], [ 284622.15, 4155477.95 ], [ 284651.2, 4155500.0 ], [ 284661.56, 4155500.0 ], [ 284694.64, 4155456.61 ], [ 284720.68, 4155422.45 ], [ 284681.32, 4155392.95 ], [ 284670.15, 4155407.92 ], [ 284671.51, 4155406.22 ], [ 284671.7, 4155406.0 ], [ 284671.92, 4155405.8 ], [ 284672.14, 4155405.62 ], [ 284672.39, 4155405.47 ], [ 284672.65, 4155405.34 ], [ 284672.92, 4155405.23 ], [ 284676.4, 4155404.05 ], [ 284676.7, 4155403.97 ], [ 284677.01, 4155403.91 ], [ 284677.32, 4155403.89 ], [ 284677.63, 4155403.9 ], [ 284677.94, 4155403.94 ] ] ], [ [ [ 284585.04, 4155476.75 ], [ 284601.17, 4155487.85 ], [ 284608.07, 4155478.05 ], [ 284590.27, 4155464.54 ], [ 284585.04, 4155476.75 ] ] ], [ [ [ 284741.74, 4155495.84 ], [ 284741.45, 4155495.78 ], [ 284741.16, 4155495.68 ], [ 284740.89, 4155495.56 ], [ 284740.63, 4155495.41 ], [ 284740.38, 4155495.24 ], [ 284740.16, 4155495.04 ], [ 284739.95, 4155494.83 ], [ 284739.77, 4155494.59 ], [ 284739.61, 4155494.34 ], [ 284739.48, 4155494.07 ], [ 284739.37, 4155493.79 ], [ 284739.29, 4155493.5 ], [ 284739.24, 4155493.21 ], [ 284739.22, 4155492.91 ], [ 284739.23, 4155492.61 ], [ 284739.26, 4155492.31 ], [ 284739.33, 4155492.02 ], [ 284739.42, 4155491.73 ], [ 284739.55, 4155491.46 ], [ 284739.69, 4155491.2 ], [ 284739.87, 4155490.96 ], [ 284750.0, 4155478.04 ], [ 284750.0, 4155472.4 ], [ 284749.94, 4155472.41 ], [ 284749.45, 4155472.45 ], [ 284748.96, 4155472.44 ], [ 284748.48, 4155472.39 ], [ 284748.0, 4155472.28 ], [ 284747.54, 4155472.13 ], [ 284747.09, 4155471.94 ], [ 284746.66, 4155471.71 ], [ 284746.26, 4155471.43 ], [ 284724.49, 4155454.85 ], [ 284716.09, 4155448.6 ], [ 284715.71, 4155448.29 ], [ 284715.36, 4155447.94 ], [ 284715.05, 4155447.56 ], [ 284714.78, 4155447.15 ], [ 284714.55, 4155446.72 ], [ 284714.36, 4155446.26 ], [ 284714.22, 4155445.79 ], [ 284714.12, 4155445.31 ], [ 284714.12, 4155445.24 ], [ 284703.17, 4155459.6 ], [ 284722.69, 4155476.44 ], [ 284722.91, 4155476.65 ], [ 284723.11, 4155476.88 ], [ 284723.28, 4155477.12 ], [ 284723.43, 4155477.38 ], [ 284723.55, 4155477.65 ], [ 284723.64, 4155477.94 ], [ 284723.71, 4155478.23 ], [ 284723.74, 4155478.53 ], [ 284723.75, 4155478.83 ], [ 284723.73, 4155479.13 ], [ 284723.68, 4155479.42 ], [ 284723.6, 4155479.71 ], [ 284723.49, 4155479.99 ], [ 284723.36, 4155480.26 ], [ 284723.2, 4155480.51 ], [ 284723.01, 4155480.74 ], [ 284722.8, 4155480.96 ], [ 284722.58, 4155481.16 ], [ 284722.33, 4155481.33 ], [ 284722.07, 4155481.48 ], [ 284721.8, 4155481.6 ], [ 284721.51, 4155481.69 ], [ 284721.22, 4155481.76 ], [ 284720.93, 4155481.79 ], [ 284720.63, 4155481.8 ], [ 284720.33, 4155481.78 ], [ 284720.03, 4155481.73 ], [ 284719.74, 4155481.65 ], [ 284719.47, 4155481.54 ], [ 284719.2, 4155481.41 ], [ 284718.95, 4155481.25 ], [ 284718.71, 4155481.06 ], [ 284699.47, 4155464.46 ], [ 284672.37, 4155500.0 ], [ 284713.04, 4155500.0 ], [ 284712.83, 4155499.85 ], [ 284712.3, 4155499.13 ], [ 284710.81, 4155494.68 ], [ 284707.97, 4155492.63 ], [ 284707.13, 4155492.63 ], [ 284704.58, 4155494.05 ], [ 284703.37, 4155496.01 ], [ 284700.09, 4155497.64 ], [ 284698.65, 4155497.51 ], [ 284695.71, 4155495.31 ], [ 284695.19, 4155494.57 ], [ 284694.76, 4155493.21 ], [ 284689.78, 4155491.98 ], [ 284689.55, 4155492.2 ], [ 284688.53, 4155492.63 ], [ 284688.02, 4155492.63 ], [ 284686.87, 4155492.04 ], [ 284684.87, 4155489.26 ], [ 284684.68, 4155487.99 ], [ 284685.3, 4155486.12 ], [ 284685.83, 4155485.4 ], [ 284687.91, 4155483.9 ], [ 284688.64, 4155483.67 ], [ 284689.55, 4155484.05 ], [ 284691.71, 4155486.2 ], [ 284692.13, 4155487.22 ], [ 284692.13, 4155487.37 ], [ 284696.09, 4155489.39 ], [ 284696.3, 4155490.05 ], [ 284697.6, 4155489.63 ], [ 284698.97, 4155489.63 ], [ 284701.81, 4155487.57 ], [ 284703.3, 4155483.12 ], [ 284703.83, 4155482.4 ], [ 284705.91, 4155480.9 ], [ 284706.77, 4155480.63 ], [ 284711.28, 4155480.63 ], [ 284711.94, 4155480.78 ], [ 284713.72, 4155481.67 ], [ 284714.24, 4155482.11 ], [ 284721.39, 4155491.63 ], [ 284721.61, 4155492.06 ], [ 284722.05, 4155493.4 ], [ 284722.13, 4155493.87 ], [ 284722.13, 4155498.03 ], [ 284721.71, 4155499.05 ], [ 284720.76, 4155500.0 ], [ 284750.0, 4155500.0 ], [ 284750.0, 4155487.92 ], [ 284744.67, 4155494.72 ], [ 284744.47, 4155494.95 ], [ 284744.25, 4155495.15 ], [ 284744.02, 4155495.34 ], [ 284743.76, 4155495.5 ], [ 284743.5, 4155495.63 ], [ 284743.22, 4155495.74 ], [ 284742.93, 4155495.82 ], [ 284742.63, 4155495.87 ], [ 284742.33, 4155495.89 ], [ 284742.03, 4155495.88 ], [ 284741.74, 4155495.84 ] ] ], [ [ [ 284583.12, 4155500.0 ], [ 284607.47, 4155500.0 ], [ 284600.14, 4155494.55 ], [ 284582.59, 4155482.46 ], [ 284577.0, 4155495.51 ], [ 284583.12, 4155500.0 ] ] ], [ [ [ 284636.98, 4155500.0 ], [ 284614.57, 4155482.99 ], [ 284612.93, 4155481.75 ], [ 284606.13, 4155491.4 ], [ 284617.69, 4155500.0 ], [ 284636.98, 4155500.0 ] ] ] ] } }
]
}
