{
"type": "FeatureCollection",
"name": "roads",
"crs": { "type": "name", "properties": { "name": "urn:ogc:def:crs:EPSG::32618" } },
"xy_coordinate_resolution": 0.01,
"features": [
{ "type": "Feature", "properties": { "id": "osm:way/1228975718", "name": null, "highway": "footway", "lanes": null, "width": 2.0, "oneway": false, "surface": null, "footway": null, "sidewalk_left": false, "sidewalk_right": false, "generated_sidewalk": false, "bus_lanes": null, "bus_lane_side": null, "bus_only": false, "sidewalk": false, "bridge": false, "ramp": false, "tunnel": false, "layer": 0, "deck": null }, "geometry": { "type": "LineString", "coordinates": [ [ 286017.85, 4157504.77 ], [ 286016.43, 4157500.0 ] ] } },
{ "type": "Feature", "properties": { "id": "osm:way/204590104", "name": null, "highway": "service", "lanes": null, "width": 4.5, "oneway": false, "surface": null, "footway": null, "sidewalk_left": false, "sidewalk_right": false, "generated_sidewalk": false, "bus_lanes": null, "bus_lane_side": null, "bus_only": false, "sidewalk": false, "bridge": false, "ramp": false, "tunnel": false, "layer": 0, "deck": null }, "geometry": { "type": "LineString", "coordinates": [ [ 286026.94, 4157500.0 ], [ 286028.06, 4157503.99 ], [ 286034.03, 4157508.18 ], [ 286042.63, 4157508.2 ], [ 286056.74, 4157504.02 ], [ 286066.11, 4157501.23 ], [ 286070.26, 4157500.0 ] ] } },
{ "type": "Feature", "properties": { "id": "osm:way/1271897075", "name": null, "highway": "footway", "lanes": null, "width": 2.0, "oneway": false, "surface": "concrete", "footway": null, "sidewalk_left": false, "sidewalk_right": false, "generated_sidewalk": false, "bus_lanes": null, "bus_lane_side": null, "bus_only": false, "sidewalk": false, "bridge": false, "ramp": false, "tunnel": false, "layer": 0, "deck": null }, "geometry": { "type": "LineString", "coordinates": [ [ 286000.98, 4157513.49 ], [ 286000.0, 4157510.14 ] ] } },
{ "type": "Feature", "properties": { "id": "osm:way/1271897067", "name": null, "highway": "footway", "lanes": null, "width": 2.0, "oneway": false, "surface": "asphalt", "footway": "crossing", "sidewalk_left": false, "sidewalk_right": false, "generated_sidewalk": false, "bus_lanes": null, "bus_lane_side": null, "bus_only": false, "sidewalk": false, "bridge": false, "ramp": false, "tunnel": false, "layer": 0, "deck": null }, "geometry": { "type": "LineString", "coordinates": [ [ 286104.63, 4157500.48 ], [ 286104.52, 4157500.0 ] ] } },
{ "type": "Feature", "properties": { "id": "osm:way/1271897068", "name": null, "highway": "footway", "lanes": null, "width": 2.0, "oneway": false, "surface": "asphalt", "footway": "link", "sidewalk_left": false, "sidewalk_right": false, "generated_sidewalk": false, "bus_lanes": null, "bus_lane_side": null, "bus_only": false, "sidewalk": false, "bridge": false, "ramp": false, "tunnel": false, "layer": 0, "deck": null }, "geometry": { "type": "LineString", "coordinates": [ [ 286055.76, 4157500.0 ], [ 286056.74, 4157504.02 ] ] } },
{ "type": "Feature", "properties": { "id": "osm:way/1228975726", "name": null, "highway": "footway", "lanes": null, "width": 2.0, "oneway": false, "surface": "ground", "footway": null, "sidewalk_left": false, "sidewalk_right": false, "generated_sidewalk": false, "bus_lanes": null, "bus_lane_side": null, "bus_only": false, "sidewalk": false, "bridge": false, "ramp": false, "tunnel": false, "layer": 0, "deck": null }, "geometry": { "type": "LineString", "coordinates": [ [ 286142.37, 4157517.38 ], [ 286152.62, 4157500.0 ] ] } },
{ "type": "Feature", "properties": { "id": "osm:way/1271897058", "name": null, "highway": "footway", "lanes": null, "width": 2.0, "oneway": false, "surface": null, "footway": "sidewalk", "sidewalk_left": false, "sidewalk_right": false, "generated_sidewalk": false, "bus_lanes": null, "bus_lane_side": null, "bus_only": false, "sidewalk": false, "bridge": false, "ramp": false, "tunnel": false, "layer": 0, "deck": null }, "geometry": { "type": "LineString", "coordinates": [ [ 286051.56, 4157516.26 ], [ 286100.83, 4157501.61 ], [ 286104.63, 4157500.48 ] ] } },
{ "type": "Feature", "properties": { "id": "osm:way/1271897070", "name": null, "highway": "footway", "lanes": null, "width": 2.0, "oneway": false, "surface": "asphalt", "footway": "link", "sidewalk_left": false, "sidewalk_right": false, "generated_sidewalk": false, "bus_lanes": null, "bus_lane_side": null, "bus_only": false, "sidewalk": false, "bridge": false, "ramp": false, "tunnel": false, "layer": 0, "deck": null }, "geometry": { "type": "LineString", "coordinates": [ [ 286120.87, 4157510.79 ], [ 286131.94, 4157509.2 ] ] } },
{ "type": "Feature", "properties": { "id": "osm:way/1271897062", "name": null, "highway": "footway", "lanes": null, "width": 2.0, "oneway": false, "surface": "concrete", "footway": null, "sidewalk_left": false, "sidewalk_right": false, "generated_sidewalk": false, "bus_lanes": null, "bus_lane_side": null, "bus_only": false, "sidewalk": false, "bridge": false, "ramp": false, "tunnel": false, "layer": 0, "deck": null }, "geometry": { "type": "LineString", "coordinates": [ [ 286053.32, 4157534.2 ], [ 286067.08, 4157530.45 ], [ 286068.83, 4157531.28 ], [ 286103.37, 4157521.62 ] ] } },
{ "type": "Feature", "properties": { "id": "osm:way/1271897061", "name": null, "highway": "footway", "lanes": null, "width": 2.0, "oneway": false, "surface": "concrete", "footway": null, "sidewalk_left": false, "sidewalk_right": false, "generated_sidewalk": false, "bus_lanes": null, "bus_lane_side": null, "bus_only": false, "sidewalk": false, "bridge": false, "ramp": false, "tunnel": false, "layer": 0, "deck": null }, "geometry": { "type": "LineString", "coordinates": [ [ 286109.28, 4157556.93 ], [ 286103.74, 4157524.47 ], [ 286103.37, 4157521.62 ], [ 286100.83, 4157501.61 ] ] } },
{ "type": "Feature", "properties": { "id": "osm:way/692841311", "name": "Mosby Street", "highway": "secondary", "lanes": null, "width": 9.5, "oneway": false, "surface": null, "footway": null, "sidewalk_left": null, "sidewalk_right": null, "generated_sidewalk": true, "bus_lanes": null, "bus_lane_side": null, "bus_only": false, "sidewalk": false, "bridge": false, "ramp": false, "tunnel": false, "layer": 0, "deck": null }, "geometry": { "type": "LineString", "coordinates": [ [ 286179.53, 4157500.0 ], [ 286188.33, 4157563.0 ], [ 286189.04, 4157567.93 ], [ 286191.76, 4157587.04 ] ] } },
{ "type": "Feature", "properties": { "id": "osm:way/1228365668", "name": null, "highway": "footway", "lanes": null, "width": 2.0, "oneway": false, "surface": "concrete", "footway": "sidewalk", "sidewalk_left": false, "sidewalk_right": false, "generated_sidewalk": false, "bus_lanes": null, "bus_lane_side": null, "bus_only": false, "sidewalk": false, "bridge": false, "ramp": false, "tunnel": false, "layer": 0, "deck": null }, "geometry": { "type": "LineString", "coordinates": [ [ 286189.18, 4157500.0 ], [ 286196.92, 4157554.23 ], [ 286198.41, 4157563.6 ], [ 286198.98, 4157564.96 ], [ 286200.1, 4157565.62 ], [ 286201.53, 4157565.94 ] ] } },
{ "type": "Feature", "properties": { "id": "osm:way/1228975725", "name": null, "highway": "footway", "lanes": null, "width": 2.0, "oneway": false, "surface": null, "footway": null, "sidewalk_left": false, "sidewalk_right": false, "generated_sidewalk": false, "bus_lanes": null, "bus_lane_side": null, "bus_only": false, "sidewalk": false, "bridge": false, "ramp": false, "tunnel": false, "layer": 0, "deck": null }, "geometry": { "type": "LineString", "coordinates": [ [ 286139.66, 4157500.0 ], [ 286142.37, 4157517.38 ], [ 286150.2, 4157567.46 ] ] } },
{ "type": "Feature", "properties": { "id": "osm:way/1228365640", "name": null, "highway": "footway", "lanes": null, "width": 2.0, "oneway": false, "surface": "concrete", "footway": "sidewalk", "sidewalk_left": false, "sidewalk_right": false, "generated_sidewalk": false, "bus_lanes": null, "bus_lane_side": null, "bus_only": false, "sidewalk": false, "bridge": false, "ramp": false, "tunnel": false, "layer": 0, "deck": null }, "geometry": { "type": "LineString", "coordinates": [ [ 286156.02, 4157593.89 ], [ 286175.53, 4157576.9 ], [ 286177.6, 4157574.65 ], [ 286179.77, 4157569.97 ], [ 286179.63, 4157567.71 ], [ 286179.38, 4157563.69 ], [ 286171.69, 4157511.92 ], [ 286169.91, 4157500.0 ] ] } },
{ "type": "Feature", "properties": { "id": "osm:way/1228975728", "name": null, "highway": "footway", "lanes": null, "width": 2.0, "oneway": false, "surface": null, "footway": null, "sidewalk_left": false, "sidewalk_right": false, "generated_sidewalk": false, "bus_lanes": null, "bus_lane_side": null, "bus_only": false, "sidewalk": false, "bridge": false, "ramp": false, "tunnel": false, "layer": 0, "deck": null }, "geometry": { "type": "LineString", "coordinates": [ [ 286169.84, 4157567.62 ], [ 286161.92, 4157513.3 ], [ 286169.7, 4157512.16 ] ] } },
{ "type": "Feature", "properties": { "id": "osm:way/1271897059", "name": null, "highway": "footway", "lanes": null, "width": 2.0, "oneway": false, "surface": null, "footway": null, "sidewalk_left": false, "sidewalk_right": false, "generated_sidewalk": false, "bus_lanes": null, "bus_lane_side": null, "bus_only": false, "sidewalk": false, "bridge": false, "ramp": false, "tunnel": false, "layer": 0, "deck": null }, "geometry": { "type": "LineString", "coordinates": [ [ 286150.2, 4157567.46 ], [ 286169.84, 4157567.62 ], [ 286177.79, 4157567.69 ], [ 286179.63, 4157567.71 ] ] } },
{ "type": "Feature", "properties": { "id": "osm:way/1228365665", "name": null, "highway": "footway", "lanes": null, "width": 2.0, "oneway": false, "surface": "asphalt", "footway": "crossing", "sidewalk_left": false, "sidewalk_right": false, "generated_sidewalk": false, "bus_lanes": null, "bus_lane_side": null, "bus_only": false, "sidewalk": false, "bridge": false, "ramp": false, "tunnel": false, "layer": 0, "deck": null }, "geometry": { "type": "LineString", "coordinates": [ [ 286197.03, 4157565.68 ], [ 286189.04, 4157567.93 ], [ 286181.87, 4157569.95 ] ] } },
{ "type": "Feature", "properties": { "id": "osm:way/1228365663", "name": null, "highway": "footway", "lanes": null, "width": 2.0, "oneway": false, "surface": "concrete", "footway": "sidewalk", "sidewalk_left": false, "sidewalk_right": false, "generated_sidewalk": false, "bus_lanes": null, "bus_lane_side": null, "bus_only": false, "sidewalk": false, "bridge": false, "ramp": false, "tunnel": false, "layer": 0, "deck": null }, "geometry": { "type": "LineString", "coordinates": [ [ 286179.77, 4157569.97 ], [ 286181.87, 4157569.95 ] ] } },
{ "type": "Feature", "properties": { "id": "osm:way/1228365662", "name": null, "highway": "footway", "lanes": null, "width": 2.0, "oneway": false, "surface": "asphalt", "footway": "crossing", "sidewalk_left": false, "sidewalk_right": false, "generated_sidewalk": false, "bus_lanes": null, "bus_lane_side": null, "bus_only": false, "sidewalk": false, "bridge": false, "ramp": false, "tunnel": false, "layer": 0, "deck": null }, "geometry": { "type": "LineString", "coordinates": [ [ 286183.9, 4157612.97 ], [ 286193.85, 4157600.42 ], [ 286200.22, 4157592.37 ] ] } },
{ "type": "Feature", "properties": { "id": "osm:way/374649617", "name": "Leigh Street Viaduct", "highway": "primary", "lanes": 2.0, "width": 11.0, "oneway": true, "surface": "paved", "footway": null, "sidewalk_left": false, "sidewalk_right": true, "generated_sidewalk": true, "bus_lanes": null, "bus_lane_side": null, "bus_only": false, "sidewalk": false, "bridge": false, "ramp": false, "tunnel": false, "layer": 0, "deck": null }, "geometry": { "type": "LineString", "coordinates": [ [ 286113.57, 4157636.2 ], [ 286116.91, 4157634.43 ], [ 286128.15, 4157628.16 ], [ 286140.29, 4157619.86 ], [ 286155.89, 4157608.47 ], [ 286163.75, 4157602.52 ], [ 286171.67, 4157596.76 ], [ 286181.71, 4157591.9 ], [ 286191.76, 4157587.04 ] ] } },
{ "type": "Feature", "properties": { "id": "osm:way/1228365667", "name": null, "highway": "service", "lanes": null, "width": 4.5, "oneway": false, "surface": "gravel", "footway": null, "sidewalk_left": false, "sidewalk_right": false, "generated_sidewalk": false, "bus_lanes": null, "bus_lane_side": null, "bus_only": false, "sidewalk": false, "bridge": false, "ramp": false, "tunnel": false, "layer": 0, "deck": null }, "geometry": { "type": "LineString", "coordinates": [ [ 286225.65, 4157514.06 ], [ 286232.86, 4157514.05 ], [ 286236.44, 4157522.05 ], [ 286238.21, 4157530.54 ], [ 286237.81, 4157536.46 ], [ 286238.31, 4157540.3 ], [ 286242.32, 4157545.9 ] ] } },
{ "type": "Feature", "properties": { "id": "osm:way/6039793", "name": "O Street", "highway": "residential", "lanes": null, "width": 7.0, "oneway": false, "surface": null, "footway": null, "sidewalk_left": null, "sidewalk_right": false, "generated_sidewalk": true, "bus_lanes": null, "bus_lane_side": null, "bus_only": false, "sidewalk": false, "bridge": false, "ramp": false, "tunnel": false, "layer": 0, "deck": null }, "geometry": { "type": "LineString", "coordinates": [ [ 286191.76, 4157587.04 ], [ 286199.91, 4157580.23 ], [ 286202.96, 4157577.7 ], [ 286211.4, 4157570.91 ], [ 286242.32, 4157545.9 ], [ 286250.0, 4157539.68 ] ] } },
{ "type": "Feature", "properties": { "id": "osm:way/1228365666", "name": null, "highway": "footway", "lanes": null, "width": 2.0, "oneway": false, "surface": "ground", "footway": "sidewalk", "sidewalk_left": false, "sidewalk_right": false, "generated_sidewalk": false, "bus_lanes": null, "bus_lane_side": null, "bus_only": false, "sidewalk": false, "bridge": false, "ramp": false, "tunnel": false, "layer": 0, "deck": null }, "geometry": { "type": "LineString", "coordinates": [ [ 286201.53, 4157565.94 ], [ 286205.52, 4157565.42 ], [ 286210.26, 4157563.2 ], [ 286238.31, 4157540.3 ] ] } },
{ "type": "Feature", "properties": { "id": "osm:way/1228365672", "name": null, "highway": "footway", "lanes": null, "width": 2.0, "oneway": false, "surface": null, "footway": "sidewalk", "sidewalk_left": false, "sidewalk_right": false, "generated_sidewalk": false, "bus_lanes": null, "bus_lane_side": null, "bus_only": false, "sidewalk": false, "bridge": false, "ramp": false, "tunnel": false, "layer": 0, "deck": null }, "geometry": { "type": "LineString", "coordinates": [ [ 286220.01, 4157576.98 ], [ 286248.99, 4157553.8 ], [ 286250.0, 4157552.99 ] ] } },
{ "type": "Feature", "properties": { "id": "osm:way/1228365671", "name": null, "highway": "footway", "lanes": null, "width": 2.0, "oneway": false, "surface": "concrete", "footway": "sidewalk", "sidewalk_left": false, "sidewalk_right": false, "generated_sidewalk": false, "bus_lanes": null, "bus_lane_side": null, "bus_only": false, "sidewalk": false, "bridge": false, "ramp": false, "tunnel": false, "layer": 0, "deck": null }, "geometry": { "type": "LineString", "coordinates": [ [ 286197.03, 4157565.68 ], [ 286198.98, 4157564.96 ] ] } },
{ "type": "Feature", "properties": { "id": "osm:way/1228365664", "name": null, "highway": "footway", "lanes": null, "width": 2.0, "oneway": false, "surface": "asphalt", "footway": "crossing", "sidewalk_left": false, "sidewalk_right": false, "generated_sidewalk": false, "bus_lanes": null, "bus_lane_side": null, "bus_only": false, "sidewalk": false, "bridge": false, "ramp": false, "tunnel": false, "layer": 0, "deck": null }, "geometry": { "type": "LineString", "coordinates": [ [ 286201.57, 4157588.56 ], [ 286199.91, 4157580.23 ], [ 286197.03, 4157565.68 ] ] } },
{ "type": "Feature", "properties": { "id": "osm:way/1228365659", "name": null, "highway": "footway", "lanes": null, "width": 2.0, "oneway": false, "surface": null, "footway": "crossing", "sidewalk_left": false, "sidewalk_right": false, "generated_sidewalk": false, "bus_lanes": null, "bus_lane_side": null, "bus_only": false, "sidewalk": false, "bridge": false, "ramp": false, "tunnel": false, "layer": 0, "deck": null }, "geometry": { "type": "LineString", "coordinates": [ [ 286215.92, 4157580.19 ], [ 286217.73, 4157578.76 ], [ 286220.01, 4157576.98 ] ] } },
{ "type": "Feature", "properties": { "id": "osm:way/1228365658", "name": null, "highway": "footway", "lanes": null, "width": 2.0, "oneway": false, "surface": null, "footway": "sidewalk", "sidewalk_left": false, "sidewalk_right": false, "generated_sidewalk": false, "bus_lanes": null, "bus_lane_side": null, "bus_only": false, "sidewalk": false, "bridge": false, "ramp": false, "tunnel": false, "layer": 0, "deck": null }, "geometry": { "type": "LineString", "coordinates": [ [ 286200.22, 4157592.37 ], [ 286202.26, 4157590.99 ], [ 286204.25, 4157589.63 ], [ 286215.92, 4157580.19 ] ] } },
{ "type": "Feature", "properties": { "id": "osm:way/1228367099", "name": null, "highway": "footway", "lanes": null, "width": 2.0, "oneway": false, "surface": null, "footway": null, "sidewalk_left": false, "sidewalk_right": false, "generated_sidewalk": false, "bus_lanes": null, "bus_lane_side": null, "bus_only": false, "sidewalk": false, "bridge": false, "ramp": false, "tunnel": false, "layer": 0, "deck": null }, "geometry": { "type": "LineString", "coordinates": [ [ 286250.0, 4157588.05 ], [ 286234.93, 4157600.07 ] ] } },
{ "type": "Feature", "properties": { "id": "osm:way/1228365674", "name": null, "highway": "footway", "lanes": null, "width": 2.0, "oneway": false, "surface": "concrete", "footway": null, "sidewalk_left": false, "sidewalk_right": false, "generated_sidewalk": false, "bus_lanes": null, "bus_lane_side": null, "bus_only": false, "sidewalk": false, "bridge": false, "ramp": false, "tunnel": false, "layer": 0, "deck": null }, "geometry": { "type": "LineString", "coordinates": [ [ 286248.99, 4157553.8 ], [ 286250.0, 4157555.06 ] ] } },
{ "type": "Feature", "properties": { "id": "osm:way/6031931", "name": null, "highway": "service", "lanes": null, "width": 4.5, "oneway": false, "surface": null, "footway": null, "sidewalk_left": false, "sidewalk_right": false, "generated_sidewalk": false, "bus_lanes": null, "bus_lane_side": null, "bus_only": false, "sidewalk": false, "bridge": false, "ramp": false, "tunnel": false, "layer": 0, "deck": null }, "geometry": { "type": "LineString", "coordinates": [ [ 286130.31, 4157500.0 ], [ 286131.31, 4157504.33 ], [ 286131.94, 4157509.2 ], [ 286136.38, 4157543.72 ], [ 286138.6, 4157566.06 ], [ 286135.51, 4157571.92 ], [ 286126.63, 4157575.38 ], [ 286113.02, 4157573.25 ], [ 286101.14, 4157566.1 ], [ 286089.25, 4157559.66 ], [ 286076.52, 4157556.79 ], [ 286000.0, 4157557.06 ] ] } },
{ "type": "Feature", "properties": { "id": "osm:way/1271897064", "name": null, "highway": "footway", "lanes": null, "width": 2.0, "oneway": false, "surface": "concrete", "footway": null, "sidewalk_left": false, "sidewalk_right": false, "generated_sidewalk": false, "bus_lanes": null, "bus_lane_side": null, "bus_only": false, "sidewalk": false, "bridge": false, "ramp": false, "tunnel": false, "layer": 0, "deck": null }, "geometry": { "type": "LineString", "coordinates": [ [ 286126.27, 4157551.77 ], [ 286125.42, 4157545.27 ], [ 286120.87, 4157510.79 ] ] } },
{ "type": "Feature", "properties": { "id": "osm:way/1271897060", "name": null, "highway": "footway", "lanes": null, "width": 2.0, "oneway": false, "surface": "concrete", "footway": null, "sidewalk_left": false, "sidewalk_right": false, "generated_sidewalk": false, "bus_lanes": null, "bus_lane_side": null, "bus_only": false, "sidewalk": false, "bridge": false, "ramp": false, "tunnel": false, "layer": 0, "deck": null }, "geometry": { "type": "LineString", "coordinates": [ [ 286078.09, 4157549.93 ], [ 286103.74, 4157524.47 ] ] } },
{ "type": "Feature", "properties": { "id": "osm:way/1271897066", "name": null, "highway": "footway", "lanes": null, "width": 2.0, "oneway": false, "surface": "asphalt", "footway": "link", "sidewalk_left": false, "sidewalk_right": false, "generated_sidewalk": false, "bus_lanes": null, "bus_lane_side": null, "bus_only": false, "sidewalk": false, "bridge": false, "ramp": false, "tunnel": false, "layer": 0, "deck": null }, "geometry": { "type": "LineString", "coordinates": [ [ 286131.15, 4157544.46 ], [ 286136.38, 4157543.72 ] ] } },
{ "type": "Feature", "properties": { "id": "osm:way/1271897065", "name": null, "highway": "footway", "lanes": null, "width": 2.0, "oneway": false, "surface": "concrete", "footway": null, "sidewalk_left": false, "sidewalk_right": false, "generated_sidewalk": false, "bus_lanes": null, "bus_lane_side": null, "bus_only": false, "sidewalk": false, "bridge": false, "ramp": false, "tunnel": false, "layer": 0, "deck": null }, "geometry": { "type": "LineString", "coordinates": [ [ 286125.42, 4157545.27 ], [ 286131.15, 4157544.46 ] ] } },
{ "type": "Feature", "properties": { "id": "osm:way/1271897063", "name": null, "highway": "footway", "lanes": null, "width": 2.0, "oneway": false, "surface": "asphalt", "footway": "link", "sidewalk_left": false, "sidewalk_right": false, "generated_sidewalk": false, "bus_lanes": null, "bus_lane_side": null, "bus_only": false, "sidewalk": false, "bridge": false, "ramp": false, "tunnel": false, "layer": 0, "deck": null }, "geometry": { "type": "LineString", "coordinates": [ [ 286078.09, 4157549.93 ], [ 286076.52, 4157556.79 ] ] } },
{ "type": "Feature", "properties": { "id": "osm:way/356033615", "name": null, "highway": "steps", "lanes": null, "width": 2.0, "oneway": false, "surface": null, "footway": null, "sidewalk_left": false, "sidewalk_right": false, "generated_sidewalk": false, "bus_lanes": null, "bus_lane_side": null, "bus_only": false, "sidewalk": false, "bridge": false, "ramp": true, "tunnel": false, "layer": 0, "deck": [ 286070.04, 4157641.31, 41.12, 286064.92, 4157641.01, 34.97 ] }, "geometry": { "type": "LineString", "coordinates": [ [ 286070.04, 4157641.31 ], [ 286069.77, 4157640.33 ], [ 286067.51, 4157632.56 ], [ 286062.97, 4157633.46 ], [ 286064.92, 4157641.01 ] ] } },
{ "type": "Feature", "properties": { "id": "osm:way/1156328228", "name": null, "highway": "steps", "lanes": null, "width": 2.0, "oneway": false, "surface": null, "footway": null, "sidewalk_left": false, "sidewalk_right": false, "generated_sidewalk": false, "bus_lanes": null, "bus_lane_side": null, "bus_only": false, "sidewalk": false, "bridge": false, "ramp": false, "tunnel": false, "layer": 0, "deck": null }, "geometry": { "type": "LineString", "coordinates": [ [ 286139.44, 4157652.49 ], [ 286137.16, 4157647.34 ], [ 286136.48, 4157645.74 ] ] } },
{ "type": "Feature", "properties": { "id": "osm:way/1228365622", "name": null, "highway": "footway", "lanes": null, "width": 2.0, "oneway": false, "surface": null, "footway": "crossing", "sidewalk_left": false, "sidewalk_right": false, "generated_sidewalk": false, "bus_lanes": null, "bus_lane_side": null, "bus_only": false, "sidewalk": false, "bridge": false, "ramp": false, "tunnel": false, "layer": 0, "deck": null }, "geometry": { "type": "LineString", "coordinates": [ [ 286139.44, 4157652.49 ], [ 286141.04, 4157656.14 ], [ 286143.16, 4157660.98 ] ] } },
{ "type": "Feature", "properties": { "id": "osm:way/573724518", "name": "O Street", "highway": "service", "lanes": null, "width": 4.5, "oneway": false, "surface": "asphalt", "footway": null, "sidewalk_left": false, "sidewalk_right": false, "generated_sidewalk": false, "bus_lanes": null, "bus_lane_side": null, "bus_only": false, "sidewalk": false, "bridge": false, "ramp": false, "tunnel": false, "layer": 0, "deck": null }, "geometry": { "type": "LineString", "coordinates": [ [ 286067.16, 4157684.46 ], [ 286066.11, 4157677.8 ], [ 286061.76, 4157666.85 ], [ 286050.21, 4157660.58 ], [ 286027.97, 4157660.64 ], [ 286000.0, 4157660.43 ] ] } },
{ "type": "Feature", "properties": { "id": "osm:way/47968091", "name": "Mosby Street", "highway": "primary", "lanes": null, "width": 11.0, "oneway": false, "surface": "asphalt", "footway": null, "sidewalk_left": null, "sidewalk_right": false, "generated_sidewalk": true, "bus_lanes": null, "bus_lane_side": null, "bus_only": false, "sidewalk": false, "bridge": false, "ramp": false, "tunnel": false, "layer": 0, "deck": null }, "geometry": { "type": "LineString", "coordinates": [ [ 286191.76, 4157587.04 ], [ 286193.85, 4157600.42 ], [ 286195.55, 4157608.14 ], [ 286197.52, 4157616.1 ], [ 286199.81, 4157623.96 ], [ 286202.38, 4157630.86 ], [ 286205.27, 4157637.5 ], [ 286208.82, 4157644.68 ], [ 286210.26, 4157647.01 ], [ 286213.92, 4157652.96 ] ] } },
{ "type": "Feature", "properties": { "id": "osm:way/1228365660", "name": null, "highway": "footway", "lanes": null, "width": 2.0, "oneway": false, "surface": "concrete", "footway": "sidewalk", "sidewalk_left": false, "sidewalk_right": false, "generated_sidewalk": false, "bus_lanes": null, "bus_lane_side": null, "bus_only": false, "sidewalk": false, "bridge": false, "ramp": false, "tunnel": false, "layer": 0, "deck": null }, "geometry": { "type": "LineString", "coordinates": [ [ 286201.57, 4157588.56 ], [ 286202.26, 4157590.99 ], [ 286202.82, 4157592.92 ], [ 286204.43, 4157605.49 ], [ 286207.11, 4157618.35 ], [ 286209.91, 4157627.04 ], [ 286216.48, 4157640.32 ], [ 286227.35, 4157655.98 ], [ 286244.84, 4157677.9 ], [ 286250.0, 4157684.23 ] ] } },
{ "type": "Feature", "properties": { "id": "osm:way/1451828145", "name": null, "highway": "cycleway", "lanes": null, "width": 2.5, "oneway": true, "surface": null, "footway": null, "sidewalk_left": false, "sidewalk_right": false, "generated_sidewalk": false, "bus_lanes": null, "bus_lane_side": null, "bus_only": false, "sidewalk": false, "bridge": false, "ramp": false, "tunnel": false, "layer": 0, "deck": null }, "geometry": { "type": "LineString", "coordinates": [ [ 286213.92, 4157652.96 ], [ 286227.22, 4157661.39 ] ] } },
{ "type": "Feature", "properties": { "id": "osm:way/1355612817", "name": "Mosby Street", "highway": "primary", "lanes": null, "width": 11.0, "oneway": false, "surface": "asphalt", "footway": null, "sidewalk_left": null, "sidewalk_right": null, "generated_sidewalk": true, "bus_lanes": null, "bus_lane_side": null, "bus_only": false, "sidewalk": false, "bridge": false, "ramp": false, "tunnel": false, "layer": 0, "deck": null }, "geometry": { "type": "LineString", "coordinates": [ [ 286213.92, 4157652.96 ], [ 286221.62, 4157663.47 ], [ 286222.89, 4157665.03 ] ] } },
{ "type": "Feature", "properties": { "id": "osm:way/1228365623", "name": null, "highway": "footway", "lanes": null, "width": 2.0, "oneway": false, "surface": "concrete", "footway": "sidewalk", "sidewalk_left": false, "sidewalk_right": false, "generated_sidewalk": false, "bus_lanes": null, "bus_lane_side": null, "bus_only": false, "sidewalk": false, "bridge": false, "ramp": false, "tunnel": false, "layer": 0, "deck": null }, "geometry": { "type": "LineString", "coordinates": [ [ 286244.14, 4157707.2 ], [ 286225.64, 4157683.51 ], [ 286207.98, 4157661.63 ], [ 286200.72, 4157649.57 ], [ 286196.84, 4157642.9 ], [ 286191.33, 4157629.95 ], [ 286187.82, 4157618.59 ], [ 286186.75, 4157616.14 ], [ 286185.45, 4157614.71 ], [ 286183.61, 4157613.83 ] ] } },
{ "type": "Feature", "properties": { "id": "osm:way/1451828144", "name": null, "highway": "cycleway", "lanes": null, "width": 2.5, "oneway": true, "surface": null, "footway": null, "sidewalk_left": false, "sidewalk_right": false, "generated_sidewalk": false, "bus_lanes": null, "bus_lane_side": null, "bus_only": false, "sidewalk": false, "bridge": false, "ramp": false, "tunnel": false, "layer": 0, "deck": null }, "geometry": { "type": "LineString", "coordinates": [ [ 286219.25, 4157671.71 ], [ 286213.92, 4157652.96 ] ] } },
{ "type": "Feature", "properties": { "id": "osm:way/1451828146", "name": null, "highway": "cycleway", "lanes": null, "width": 2.5, "oneway": true, "surface": "asphalt", "footway": null, "sidewalk_left": false, "sidewalk_right": false, "generated_sidewalk": false, "bus_lanes": null, "bus_lane_side": null, "bus_only": false, "sidewalk": false, "bridge": false, "ramp": false, "tunnel": false, "layer": 0, "deck": null }, "geometry": { "type": "LineString", "coordinates": [ [ 286227.22, 4157661.39 ], [ 286250.0, 4157689.48 ] ] } },
{ "type": "Feature", "properties": { "id": "osm:way/1355612818", "name": "Mosby Street", "highway": "primary", "lanes": 3.0, "width": 11.0, "oneway": false, "surface": "asphalt", "footway": null, "sidewalk_left": null, "sidewalk_right": null, "generated_sidewalk": true, "bus_lanes": null, "bus_lane_side": null, "bus_only": false, "sidewalk": false, "bridge": false, "ramp": false, "tunnel": false, "layer": 0, "deck": null }, "geometry": { "type": "LineString", "coordinates": [ [ 286222.89, 4157665.03 ], [ 286233.71, 4157678.41 ], [ 286249.91, 4157698.42 ], [ 286250.0, 4157698.53 ] ] } },
{ "type": "Feature", "properties": { "id": "osm:way/1451828143", "name": null, "highway": "cycleway", "lanes": null, "width": 2.5, "oneway": true, "surface": "asphalt", "footway": null, "sidewalk_left": false, "sidewalk_right": false, "generated_sidewalk": false, "bus_lanes": null, "bus_lane_side": null, "bus_only": false, "sidewalk": false, "bridge": false, "ramp": false, "tunnel": false, "layer": 0, "deck": null }, "geometry": { "type": "LineString", "coordinates": [ [ 286243.39, 4157702.73 ], [ 286219.25, 4157671.71 ] ] } },
{ "type": "Feature", "properties": { "id": "osm:way/1228367126", "name": null, "highway": "footway", "lanes": null, "width": 2.0, "oneway": false, "surface": null, "footway": "crossing", "sidewalk_left": false, "sidewalk_right": false, "generated_sidewalk": false, "bus_lanes": null, "bus_lane_side": null, "bus_only": false, "sidewalk": false, "bridge": false, "ramp": false, "tunnel": false, "layer": 0, "deck": null }, "geometry": { "type": "LineString", "coordinates": [ [ 286244.14, 4157707.2 ], [ 286245.86, 4157705.82 ], [ 286250.0, 4157702.48 ] ] } },
{ "type": "Feature", "properties": { "id": "osm:way/1228365661", "name": null, "highway": "footway", "lanes": null, "width": 2.0, "oneway": false, "surface": "concrete", "footway": "sidewalk", "sidewalk_left": false, "sidewalk_right": false, "generated_sidewalk": false, "bus_lanes": null, "bus_lane_side": null, "bus_only": false, "sidewalk": false, "bridge": false, "ramp": false, "tunnel": false, "layer": 0, "deck": null }, "geometry": { "type": "LineString", "coordinates": [ [ 286183.61, 4157613.83 ], [ 286183.9, 4157612.97 ] ] } },
{ "type": "Feature", "properties": { "id": "osm:way/37961290", "name": "Leigh Street Viaduct", "highway": "primary", "lanes": 2.0, "width": 11.0, "oneway": true, "surface": "paved", "footway": null, "sidewalk_left": false, "sidewalk_right": true, "generated_sidewalk": true, "bus_lanes": null, "bus_lane_side": null, "bus_only": false, "sidewalk": false, "bridge": false, "ramp": false, "tunnel": false, "layer": 0, "deck": null }, "geometry": { "type": "LineString", "coordinates": [ [ 286191.76, 4157587.04 ], [ 286182.28, 4157596.27 ], [ 286172.8, 4157605.48 ], [ 286169.2, 4157608.59 ], [ 286155.03, 4157620.68 ], [ 286152.44, 4157622.73 ], [ 286146.26, 4157627.63 ], [ 286137.08, 4157634.19 ], [ 286132.35, 4157637.03 ], [ 286124.68, 4157641.66 ], [ 286118.05, 4157645.35 ] ] } },
{ "type": "Feature", "properties": { "id": "osm:way/1228359900", "name": "Leigh Street Viaduct", "highway": "footway", "lanes": null, "width": 2.0, "oneway": false, "surface": "concrete", "footway": "sidewalk", "sidewalk_left": false, "sidewalk_right": false, "generated_sidewalk": false, "bus_lanes": null, "bus_lane_side": null, "bus_only": false, "sidewalk": false, "bridge": false, "ramp": false, "tunnel": false, "layer": 0, "deck": null }, "geometry": { "type": "LineString", "coordinates": [ [ 286183.61, 4157613.83 ], [ 286180.46, 4157613.31 ], [ 286177.61, 4157614.01 ], [ 286175.28, 4157615.36 ], [ 286158.65, 4157629.92 ], [ 286147.95, 4157637.9 ], [ 286136.48, 4157645.74 ], [ 286131.07, 4157648.92 ] ] } },
{ "type": "Feature", "properties": { "id": "osm:way/1156328226", "name": null, "highway": "footway", "lanes": null, "width": 2.0, "oneway": false, "surface": null, "footway": null, "sidewalk_left": false, "sidewalk_right": false, "generated_sidewalk": false, "bus_lanes": null, "bus_lane_side": null, "bus_only": false, "sidewalk": false, "bridge": false, "ramp": false, "tunnel": false, "layer": 0, "deck": null }, "geometry": { "type": "LineString", "coordinates": [ [ 286170.17, 4157658.02 ], [ 286171.11, 4157645.1 ], [ 286159.78, 4157631.38 ], [ 286158.65, 4157629.92 ] ] } },
{ "type": "Feature", "properties": { "id": "osm:way/1156328227", "name": null, "highway": "footway", "lanes": null, "width": 2.0, "oneway": false, "surface": null, "footway": null, "sidewalk_left": false, "sidewalk_right": false, "generated_sidewalk": false, "bus_lanes": null, "bus_lane_side": null, "bus_only": false, "sidewalk": false, "bridge": false, "ramp": false, "tunnel": false, "layer": 0, "deck": null }, "geometry": { "type": "LineString", "coordinates": [ [ 286171.11, 4157645.1 ], [ 286177.7, 4157648.67 ], [ 286187.62, 4157650.45 ], [ 286200.72, 4157649.57 ] ] } },
{ "type": "Feature", "properties": { "id": "osm:way/573750414", "name": null, "highway": "service", "lanes": null, "width": 4.5, "oneway": false, "surface": "asphalt", "footway": null, "sidewalk_left": false, "sidewalk_right": false, "generated_sidewalk": false, "bus_lanes": null, "bus_lane_side": null, "bus_only": false, "sidewalk": false, "bridge": false, "ramp": false, "tunnel": false, "layer": 0, "deck": null }, "geometry": { "type": "LineString", "coordinates": [ [ 286139.5, 4157717.99 ], [ 286184.44, 4157682.48 ] ] } },
{ "type": "Feature", "properties": { "id": "osm:way/573750416", "name": null, "highway": "service", "lanes": null, "width": 4.5, "oneway": false, "surface": "asphalt", "footway": null, "sidewalk_left": false, "sidewalk_right": false, "generated_sidewalk": false, "bus_lanes": null, "bus_lane_side": null, "bus_only": false, "sidewalk": false, "bridge": false, "ramp": false, "tunnel": false, "layer": 0, "deck": null }, "geometry": { "type": "LineString", "coordinates": [ [ 286150.87, 4157732.45 ], [ 286195.79, 4157696.75 ] ] } },
{ "type": "Feature", "properties": { "id": "osm:way/573750401", "name": null, "highway": "service", "lanes": null, "width": 4.5, "oneway": false, "surface": "asphalt", "footway": null, "sidewalk_left": false, "sidewalk_right": false, "generated_sidewalk": false, "bus_lanes": null, "bus_lane_side": null, "bus_only": false, "sidewalk": false, "bridge": false, "ramp": false, "tunnel": false, "layer": 0, "deck": null }, "geometry": { "type": "MultiLineString", "coordinates": [ [ [ 286250.0, 4157710.76 ], [ 286249.89, 4157710.84 ], [ 286247.33, 4157712.82 ], [ 286236.23, 4157721.38 ], [ 286230.4, 4157725.27 ], [ 286226.54, 4157727.22 ], [ 286223.35, 4157728.4 ], [ 286221.4, 4157728.9 ], [ 286218.27, 4157729.48 ], [ 286214.94, 4157730.35 ], [ 286211.2, 4157731.66 ], [ 286207.02, 4157733.69 ], [ 286204.11, 4157735.67 ], [ 286186.85, 4157750.0 ] ], [ [ 286164.79, 4157750.0 ], [ 286162.73, 4157747.3 ], [ 286150.87, 4157732.45 ], [ 286139.5, 4157717.99 ], [ 286131.53, 4157707.91 ], [ 286130.68, 4157705.7 ], [ 286130.78, 4157703.38 ], [ 286131.86, 4157701.76 ] ] ] } },
{ "type": "Feature", "properties": { "id": "osm:way/573750419", "name": null, "highway": "service", "lanes": null, "width": 4.5, "oneway": false, "surface": "asphalt", "footway": null, "sidewalk_left": false, "sidewalk_right": false, "generated_sidewalk": false, "bus_lanes": null, "bus_lane_side": null, "bus_only": false, "sidewalk": false, "bridge": false, "ramp": false, "tunnel": false, "layer": 0, "deck": null }, "geometry": { "type": "LineString", "coordinates": [ [ 286162.73, 4157747.3 ], [ 286170.32, 4157741.22 ], [ 286175.78, 4157736.86 ], [ 286207.53, 4157711.46 ] ] } },
{ "type": "Feature", "properties": { "id": "osm:way/1228365631", "name": null, "highway": "footway", "lanes": null, "width": 2.0, "oneway": false, "surface": "asphalt", "footway": "access_aisle", "sidewalk_left": false, "sidewalk_right": false, "generated_sidewalk": false, "bus_lanes": null, "bus_lane_side": null, "bus_only": false, "sidewalk": false, "bridge": false, "ramp": false, "tunnel": false, "layer": 0, "deck": null }, "geometry": { "type": "LineString", "coordinates": [ [ 286169.91, 4157729.76 ], [ 286173.41, 4157733.97 ] ] } },
{ "type": "Feature", "properties": { "id": "osm:way/356033616", "name": null, "highway": "footway", "lanes": null, "width": 2.0, "oneway": false, "surface": null, "footway": "sidewalk", "sidewalk_left": false, "sidewalk_right": false, "generated_sidewalk": false, "bus_lanes": null, "bus_lane_side": null, "bus_only": false, "sidewalk": false, "bridge": false, "ramp": false, "tunnel": false, "layer": 0, "deck": null }, "geometry": { "type": "LineString", "coordinates": [ [ 286221.31, 4157722.62 ], [ 286220.81, 4157721.57 ], [ 286178.8, 4157668.75 ], [ 286170.17, 4157658.02 ], [ 286165.37, 4157652.33 ], [ 286161.68, 4157649.54 ], [ 286157.18, 4157647.87 ], [ 286152.11, 4157647.87 ], [ 286144.71, 4157650.01 ], [ 286139.44, 4157652.49 ], [ 286119.46, 4157660.83 ], [ 286093.24, 4157671.65 ], [ 286080.16, 4157676.88 ], [ 286074.14, 4157677.88 ], [ 286071.16, 4157676.09 ], [ 286068.82, 4157668.01 ], [ 286067.79, 4157660.4 ], [ 286067.29, 4157653.15 ], [ 286064.92, 4157641.01 ] ] } },
{ "type": "Feature", "properties": { "id": "osm:way/573750403", "name": null, "highway": "service", "lanes": null, "width": 4.5, "oneway": false, "surface": "asphalt", "footway": null, "sidewalk_left": false, "sidewalk_right": false, "generated_sidewalk": false, "bus_lanes": null, "bus_lane_side": null, "bus_only": false, "sidewalk": false, "bridge": false, "ramp": false, "tunnel": false, "layer": 0, "deck": null }, "geometry": { "type": "LineString", "coordinates": [ [ 286131.86, 4157701.76 ], [ 286173.25, 4157668.42 ] ] } },
{ "type": "Feature", "properties": { "id": "osm:way/1228365621", "name": null, "highway": "footway", "lanes": null, "width": 2.0, "oneway": false, "surface": "asphalt", "footway": "link", "sidewalk_left": false, "sidewalk_right": false, "generated_sidewalk": false, "bus_lanes": null, "bus_lane_side": null, "bus_only": false, "sidewalk": false, "bridge": false, "ramp": false, "tunnel": false, "layer": 0, "deck": null }, "geometry": { "type": "LineString", "coordinates": [ [ 286073.19, 4157690.13 ], [ 286067.16, 4157684.46 ] ] } },
{ "type": "Feature", "properties": { "id": "osm:way/1228359898", "name": "Leigh Street Viaduct", "highway": "footway", "lanes": null, "width": 2.0, "oneway": false, "surface": "concrete", "footway": "sidewalk", "sidewalk_left": false, "sidewalk_right": false, "generated_sidewalk": false, "bus_lanes": null, "bus_lane_side": null, "bus_only": false, "sidewalk": false, "bridge": true, "ramp": false, "tunnel": false, "layer": 1, "deck": [ 285450.8, 4157780.7, 45.03, 286156.0, 4157593.9, 40.53 ] }, "geometry": { "type": "LineString", "coordinates": [ [ 286000.0, 4157644.79 ], [ 286037.0, 4157645.35 ], [ 286047.12, 4157644.81 ], [ 286060.22, 4157643.3 ], [ 286070.04, 4157641.31 ], [ 286077.05, 4157639.5 ], [ 286087.51, 4157636.45 ], [ 286101.47, 4157630.72 ], [ 286112.78, 4157625.15 ], [ 286125.8, 4157618.03 ], [ 286135.34, 4157611.43 ], [ 286143.26, 4157605.22 ], [ 286156.02, 4157593.89 ] ] } },
{ "type": "Feature", "properties": { "id": "osm:way/573750405", "name": null, "highway": "service", "lanes": null, "width": 4.5, "oneway": false, "surface": null, "footway": null, "sidewalk_left": false, "sidewalk_right": false, "generated_sidewalk": false, "bus_lanes": null, "bus_lane_side": null, "bus_only": false, "sidewalk": false, "bridge": false, "ramp": false, "tunnel": false, "layer": 0, "deck": null }, "geometry": { "type": "MultiLineString", "coordinates": [ [ [ 286221.4, 4157728.9 ], [ 286207.53, 4157711.46 ], [ 286195.79, 4157696.75 ], [ 286184.44, 4157682.48 ], [ 286173.25, 4157668.42 ], [ 286166.72, 4157660.22 ], [ 286162.74, 4157655.3 ], [ 286160.45, 4157653.22 ], [ 286157.3, 4157651.94 ], [ 286154.41, 4157651.7 ], [ 286151.71, 4157652.09 ], [ 286148.53, 4157653.05 ], [ 286141.04, 4157656.14 ], [ 286112.74, 4157667.83 ], [ 286086.02, 4157678.4 ], [ 286076.39, 4157681.91 ], [ 286067.16, 4157684.46 ], [ 286069.34, 4157705.48 ], [ 286071.69, 4157728.57 ] ], [ [ 286071.69, 4157728.57 ], [ 286069.54, 4157750.0 ] ], [ [ 286087.51, 4157750.0 ], [ 286071.69, 4157728.57 ] ] ] } },
{ "type": "Feature", "properties": { "id": "osm:way/37961294", "name": "Leigh Street Viaduct", "highway": "primary", "lanes": 2.0, "width": 11.0, "oneway": true, "surface": "paved", "footway": null, "sidewalk_left": false, "sidewalk_right": false, "generated_sidewalk": true, "bus_lanes": null, "bus_lane_side": null, "bus_only": false, "sidewalk": false, "bridge": true, "ramp": false, "tunnel": false, "layer": 1, "deck": [ 285451.1, 4157796.3, 45.68, 286113.6, 4157636.2, 40.45 ] }, "geometry": { "type": "LineString", "coordinates": [ [ 286000.0, 4157655.47 ], [ 286028.75, 4157655.74 ], [ 286040.89, 4157655.43 ], [ 286052.63, 4157654.58 ], [ 286064.97, 4157652.8 ], [ 286071.23, 4157651.48 ], [ 286072.77, 4157651.14 ], [ 286084.34, 4157648.23 ], [ 286095.33, 4157644.5 ], [ 286105.3, 4157640.25 ], [ 286113.57, 4157636.2 ] ] } },
{ "type": "Feature", "properties": { "id": "osm:way/37961291", "name": "Leigh Street Viaduct", "highway": "primary", "lanes": 2.0, "width": 11.0, "oneway": true, "surface": "paved", "footway": null, "sidewalk_left": false, "sidewalk_right": false, "generated_sidewalk": true, "bus_lanes": null, "bus_lane_side": null, "bus_only": false, "sidewalk": false, "bridge": true, "ramp": false, "tunnel": false, "layer": 1, "deck": [ 286118.0, 4157645.3, 40.61, 285456.9, 4157803.8, 45.7 ] }, "geometry": { "type": "LineString", "coordinates": [ [ 286118.05, 4157645.35 ], [ 286111.37, 4157648.51 ], [ 286100.27, 4157653.22 ], [ 286090.01, 4157656.86 ], [ 286079.25, 4157659.97 ], [ 286066.54, 4157662.65 ], [ 286055.09, 4157664.63 ], [ 286043.27, 4157665.85 ], [ 286028.55, 4157666.18 ], [ 286000.0, 4157665.92 ] ] } },
{ "type": "Feature", "properties": { "id": "osm:way/1228359901", "name": "Leigh Street Viaduct", "highway": "footway", "lanes": null, "width": 2.0, "oneway": false, "surface": "concrete", "footway": "sidewalk", "sidewalk_left": false, "sidewalk_right": false, "generated_sidewalk": false, "bus_lanes": null, "bus_lane_side": null, "bus_only": false, "sidewalk": false, "bridge": true, "ramp": false, "tunnel": false, "layer": 1, "deck": [ 286131.1, 4157648.9, 40.7, 285455.9, 4157816.1, 45.62 ] }, "geometry": { "type": "LineString", "coordinates": [ [ 286131.07, 4157648.92 ], [ 286124.25, 4157652.87 ], [ 286117.32, 4157656.45 ], [ 286101.4, 4157663.94 ], [ 286089.98, 4157667.71 ], [ 286075.22, 4157671.62 ], [ 286059.64, 4157674.49 ], [ 286046.17, 4157674.92 ], [ 286032.62, 4157675.54 ], [ 286000.0, 4157675.19 ] ] } },
{ "type": "Feature", "properties": { "id": "osm:way/1228365627", "name": null, "highway": "footway", "lanes": null, "width": 2.0, "oneway": false, "surface": "asphalt", "footway": "access_aisle", "sidewalk_left": false, "sidewalk_right": false, "generated_sidewalk": false, "bus_lanes": null, "bus_lane_side": null, "bus_only": false, "sidewalk": false, "bridge": false, "ramp": false, "tunnel": false, "layer": 0, "deck": null }, "geometry": { "type": "LineString", "coordinates": [ [ 286164.9, 4157733.79 ], [ 286168.19, 4157738.22 ] ] } },
{ "type": "Feature", "properties": { "id": "osm:way/1228365629", "name": null, "highway": "footway", "lanes": null, "width": 2.0, "oneway": false, "surface": "asphalt", "footway": "crossing", "sidewalk_left": false, "sidewalk_right": false, "generated_sidewalk": false, "bus_lanes": null, "bus_lane_side": null, "bus_only": false, "sidewalk": false, "bridge": false, "ramp": false, "tunnel": false, "layer": 0, "deck": null }, "geometry": { "type": "LineString", "coordinates": [ [ 286173.41, 4157733.97 ], [ 286175.78, 4157736.86 ], [ 286177.98, 4157739.52 ] ] } },
{ "type": "Feature", "properties": { "id": "osm:way/1228365625", "name": null, "highway": "footway", "lanes": null, "width": 2.0, "oneway": false, "surface": "concrete", "footway": null, "sidewalk_left": false, "sidewalk_right": false, "generated_sidewalk": false, "bus_lanes": null, "bus_lane_side": null, "bus_only": false, "sidewalk": false, "bridge": false, "ramp": false, "tunnel": false, "layer": 0, "deck": null }, "geometry": { "type": "LineString", "coordinates": [ [ 286175.76, 4157750.0 ], [ 286176.5, 4157749.41 ], [ 286179.73, 4157746.86 ], [ 286182.34, 4157744.81 ], [ 286208.49, 4157724.16 ] ] } },
{ "type": "Feature", "properties": { "id": "osm:way/1228365626", "name": null, "highway": "footway", "lanes": null, "width": 2.0, "oneway": false, "surface": "asphalt", "footway": "crossing", "sidewalk_left": false, "sidewalk_right": false, "generated_sidewalk": false, "bus_lanes": null, "bus_lane_side": null, "bus_only": false, "sidewalk": false, "bridge": false, "ramp": false, "tunnel": false, "layer": 0, "deck": null }, "geometry": { "type": "LineString", "coordinates": [ [ 286168.19, 4157738.22 ], [ 286170.32, 4157741.22 ], [ 286172.28, 4157743.97 ] ] } },
{ "type": "Feature", "properties": { "id": "osm:way/1228365630", "name": null, "highway": "footway", "lanes": null, "width": 2.0, "oneway": false, "surface": "asphalt", "footway": "access_aisle", "sidewalk_left": false, "sidewalk_right": false, "generated_sidewalk": false, "bus_lanes": null, "bus_lane_side": null, "bus_only": false, "sidewalk": false, "bridge": false, "ramp": false, "tunnel": false, "layer": 0, "deck": null }, "geometry": { "type": "LineString", "coordinates": [ [ 286177.98, 4157739.52 ], [ 286182.34, 4157744.81 ] ] } },
{ "type": "Feature", "properties": { "id": "osm:way/1228365628", "name": null, "highway": "footway", "lanes": null, "width": 2.0, "oneway": false, "surface": "asphalt", "footway": "access_aisle", "sidewalk_left": false, "sidewalk_right": false, "generated_sidewalk": false, "bus_lanes": null, "bus_lane_side": null, "bus_only": false, "sidewalk": false, "bridge": false, "ramp": false, "tunnel": false, "layer": 0, "deck": null }, "geometry": { "type": "LineString", "coordinates": [ [ 286172.28, 4157743.97 ], [ 286176.5, 4157749.41 ] ] } },
{ "type": "Feature", "properties": { "id": "osm:way/1228365632", "name": null, "highway": "footway", "lanes": null, "width": 2.0, "oneway": false, "surface": "concrete", "footway": null, "sidewalk_left": false, "sidewalk_right": false, "generated_sidewalk": false, "bus_lanes": null, "bus_lane_side": null, "bus_only": false, "sidewalk": false, "bridge": false, "ramp": false, "tunnel": false, "layer": 0, "deck": null }, "geometry": { "type": "LineString", "coordinates": [ [ 286181.86, 4157749.52 ], [ 286179.73, 4157746.86 ] ] } },
{ "type": "Feature", "properties": { "id": "osm:way/1228365633", "name": null, "highway": "footway", "lanes": null, "width": 2.0, "oneway": false, "surface": null, "footway": "crossing", "sidewalk_left": false, "sidewalk_right": false, "generated_sidewalk": false, "bus_lanes": null, "bus_lane_side": null, "bus_only": false, "sidewalk": false, "bridge": false, "ramp": false, "tunnel": false, "layer": 0, "deck": null }, "geometry": { "type": "LineString", "coordinates": [ [ 286181.86, 4157749.52 ], [ 286182.25, 4157750.0 ] ] } },
{ "type": "Feature", "properties": { "id": "osm:way/1451828142", "name": null, "highway": "cycleway", "lanes": null, "width": 2.5, "oneway": false, "surface": "asphalt", "footway": null, "sidewalk_left": false, "sidewalk_right": false, "generated_sidewalk": false, "bus_lanes": null, "bus_lane_side": null, "bus_only": false, "sidewalk": false, "bridge": false, "ramp": false, "tunnel": false, "layer": 0, "deck": null }, "geometry": { "type": "LineString", "coordinates": [ [ 286250.0, 4157710.98 ], [ 286249.89, 4157710.84 ], [ 286245.86, 4157705.82 ], [ 286243.39, 4157702.73 ] ] } },
{ "type": "Feature", "properties": { "id": "osm:way/1228365639", "name": null, "highway": "footway", "lanes": null, "width": 2.0, "oneway": false, "surface": null, "footway": "crossing", "sidewalk_left": false, "sidewalk_right": false, "generated_sidewalk": false, "bus_lanes": null, "bus_lane_side": null, "bus_only": false, "sidewalk": false, "bridge": false, "ramp": false, "tunnel": false, "layer": 0, "deck": null }, "geometry": { "type": "LineString", "coordinates": [ [ 286250.0, 4157717.51 ], [ 286247.33, 4157712.82 ], [ 286244.14, 4157707.2 ] ] } },
{ "type": "Feature", "properties": { "id": "osm:way/424974336", "name": null, "highway": "service", "lanes": null, "width": 4.5, "oneway": false, "surface": null, "footway": null, "sidewalk_left": false, "sidewalk_right": false, "generated_sidewalk": false, "bus_lanes": null, "bus_lane_side": null, "bus_only": false, "sidewalk": false, "bridge": false, "ramp": false, "tunnel": false, "layer": 0, "deck": null }, "geometry": { "type": "LineString", "coordinates": [ [ 286250.0, 4157618.74 ], [ 286234.93, 4157600.07 ], [ 286217.73, 4157578.76 ], [ 286211.4, 4157570.91 ] ] } },
{ "type": "Feature", "properties": { "id": "osm:way/1228365656", "name": null, "highway": "footway", "lanes": null, "width": 2.0, "oneway": false, "surface": null, "footway": "crossing", "sidewalk_left": false, "sidewalk_right": false, "generated_sidewalk": false, "bus_lanes": null, "bus_lane_side": null, "bus_only": false, "sidewalk": false, "bridge": false, "ramp": false, "tunnel": false, "layer": 0, "deck": null }, "geometry": { "type": "LineString", "coordinates": [ [ 286224.86, 4157732.72 ], [ 286223.35, 4157728.4 ], [ 286221.31, 4157722.62 ] ] } },
{ "type": "Feature", "properties": { "id": "osm:way/1228365657", "name": null, "highway": "footway", "lanes": null, "width": 2.0, "oneway": false, "surface": "concrete", "footway": "sidewalk", "sidewalk_left": false, "sidewalk_right": false, "generated_sidewalk": false, "bus_lanes": null, "bus_lane_side": null, "bus_only": false, "sidewalk": false, "bridge": false, "ramp": false, "tunnel": false, "layer": 0, "deck": null }, "geometry": { "type": "LineString", "coordinates": [ [ 286224.86, 4157732.72 ], [ 286225.52, 4157734.31 ] ] } },
{ "type": "Feature", "properties": { "id": "osm:way/1228365624", "name": null, "highway": "footway", "lanes": null, "width": 2.0, "oneway": false, "surface": null, "footway": null, "sidewalk_left": false, "sidewalk_right": false, "generated_sidewalk": false, "bus_lanes": null, "bus_lane_side": null, "bus_only": false, "sidewalk": false, "bridge": false, "ramp": false, "tunnel": false, "layer": 0, "deck": null }, "geometry": { "type": "LineString", "coordinates": [ [ 286218.57, 4157737.33 ], [ 286229.72, 4157750.0 ] ] } },
{ "type": "Feature", "properties": { "id": "osm:way/1228365619", "name": null, "highway": "footway", "lanes": null, "width": 2.0, "oneway": false, "surface": "concrete", "footway": "sidewalk", "sidewalk_left": false, "sidewalk_right": false, "generated_sidewalk": false, "bus_lanes": null, "bus_lane_side": null, "bus_only": false, "sidewalk": false, "bridge": false, "ramp": false, "tunnel": false, "layer": 0, "deck": null }, "geometry": { "type": "MultiLineString", "coordinates": [ [ [ 286072.56, 4157691.46 ], [ 286073.19, 4157690.13 ], [ 286074.81, 4157689.11 ], [ 286143.16, 4157660.98 ], [ 286145.92, 4157659.85 ], [ 286153.87, 4157670.49 ], [ 286125.17, 4157693.51 ], [ 286124.11, 4157695.4 ], [ 286123.84, 4157697.49 ], [ 286127.03, 4157718.93 ], [ 286152.0, 4157750.0 ] ], [ [ 286200.93, 4157750.0 ], [ 286202.62, 4157748.66 ], [ 286204.75, 4157746.1 ], [ 286205.88, 4157743.11 ], [ 286207.02, 4157740.68 ], [ 286209.93, 4157738.53 ], [ 286218.57, 4157737.33 ], [ 286225.52, 4157734.31 ], [ 286231.04, 4157731.55 ], [ 286237.63, 4157727.44 ], [ 286242.58, 4157723.81 ], [ 286246.02, 4157720.99 ], [ 286248.17, 4157719.42 ], [ 286250.0, 4157718.89 ] ] ] } }
]
}
