{
"type": "FeatureCollection",
"name": "wires",
"crs": { "type": "name", "properties": { "name": "urn:ogc:def:crs:EPSG::32618" } },
"xy_coordinate_resolution": 0.01,
"features": [
{ "type": "Feature", "properties": { "id": "wire:2945-3452", "h0": 10.0, "h1": 8.84, "z0": 60.88, "z1": 61.46 }, "geometry": { "type": "LineString", "coordinates": [ [ 282011.99, 4157742.99 ], [ 281992.39, 4157767.23 ] ] } },
{ "type": "Feature", "properties": { "id": "wire:2943-2944", "h0": 10.0, "h1": 10.0, "z0": 61.46, "z1": 60.98 }, "geometry": { "type": "LineString", "coordinates": [ [ 282027.77, 4157778.58 ], [ 282027.33, 4157753.63 ] ] } },
{ "type": "Feature", "properties": { "id": "wire:2939-3425", "h0": 13.11, "h1": 10.0, "z0": 61.41, "z1": 61.23 }, "geometry": { "type": "LineString", "coordinates": [ [ 282046.23, 4157793.53 ], [ 282063.32, 4157783.09 ] ] } },
{ "type": "Feature", "properties": { "id": "wire:3424-3427", "h0": 8.84, "h1": 10.0, "z0": 60.11, "z1": 57.97 }, "geometry": { "type": "LineString", "coordinates": [ [ 282094.96, 4157768.35 ], [ 282127.6, 4157752.24 ] ] } },
{ "type": "Feature", "properties": { "id": "wire:3005-3393", "h0": 11.73, "h1": 10.36, "z0": 54.82, "z1": 55.43 }, "geometry": { "type": "LineString", "coordinates": [ [ 282213.41, 4157754.94 ], [ 282180.13, 4157770.75 ] ] } },
{ "type": "Feature", "properties": { "id": "wire:3424-3425", "h0": 8.84, "h1": 10.0, "z0": 60.11, "z1": 61.23 }, "geometry": { "type": "LineString", "coordinates": [ [ 282094.96, 4157768.35 ], [ 282063.32, 4157783.09 ] ] } },
{ "type": "Feature", "properties": { "id": "wire:3393-3394", "h0": 10.36, "h1": 10.36, "z0": 55.43, "z1": 56.08 }, "geometry": { "type": "LineString", "coordinates": [ [ 282180.13, 4157770.75 ], [ 282157.37, 4157781.72 ] ] } },
{ "type": "Feature", "properties": { "id": "wire:3394-3395", "h0": 10.36, "h1": 8.84, "z0": 56.08, "z1": 56.31 }, "geometry": { "type": "LineString", "coordinates": [ [ 282157.37, 4157781.72 ], [ 282152.3, 4157793.95 ] ] } },
{ "type": "Feature", "properties": { "id": "wire:3399-3401", "h0": 11.73, "h1": 10.0, "z0": 57.88, "z1": 57.66 }, "geometry": { "type": "LineString", "coordinates": [ [ 282113.86, 4157802.72 ], [ 282122.34, 4157809.14 ] ] } },
{ "type": "Feature", "properties": { "id": "wire:2937-3400", "h0": 10.0, "h1": 7.62, "z0": 61.18, "z1": 60.16 }, "geometry": { "type": "LineString", "coordinates": [ [ 282061.9, 4157825.87 ], [ 282081.05, 4157829.29 ] ] } },
{ "type": "Feature", "properties": { "id": "wire:2939-3420", "h0": 13.11, "h1": 11.73, "z0": 61.41, "z1": 61.67 }, "geometry": { "type": "LineString", "coordinates": [ [ 282046.23, 4157793.53 ], [ 282033.54, 4157795.43 ] ] } },
{ "type": "Feature", "properties": { "id": "wire:3418-3420", "h0": 10.0, "h1": 11.73, "z0": 61.97, "z1": 61.67 }, "geometry": { "type": "LineString", "coordinates": [ [ 282006.73, 4157808.47 ], [ 282033.54, 4157795.43 ] ] } },
{ "type": "Feature", "properties": { "id": "wire:246-2941", "h0": 11.73, "h1": 10.0, "z0": 61.85, "z1": 61.2 }, "geometry": { "type": "LineString", "coordinates": [ [ 282031.29, 4157842.47 ], [ 282054.78, 4157830.82 ] ] } },
{ "type": "Feature", "properties": { "id": "wire:246-3402", "h0": 11.73, "h1": 13.11, "z0": 61.85, "z1": 62.36 }, "geometry": { "type": "LineString", "coordinates": [ [ 282031.29, 4157842.47 ], [ 281999.45, 4157856.0 ] ] } },
{ "type": "Feature", "properties": { "id": "wire:2937-2941", "h0": 10.0, "h1": 10.0, "z0": 61.18, "z1": 61.2 }, "geometry": { "type": "LineString", "coordinates": [ [ 282061.9, 4157825.87 ], [ 282054.78, 4157830.82 ] ] } },
{ "type": "Feature", "properties": { "id": "wire:3398-3404", "h0": 10.0, "h1": 8.84, "z0": 56.75, "z1": 57.26 }, "geometry": { "type": "LineString", "coordinates": [ [ 282185.8, 4157828.69 ], [ 282158.54, 4157835.35 ] ] } },
{ "type": "Feature", "properties": { "id": "wire:3404-3408", "h0": 8.84, "h1": 10.0, "z0": 57.26, "z1": 58.18 }, "geometry": { "type": "LineString", "coordinates": [ [ 282158.54, 4157835.35 ], [ 282148.02, 4157846.66 ] ] } },
{ "type": "Feature", "properties": { "id": "wire:2652-3370", "h0": 8.84, "h1": 10.0, "z0": 59.27, "z1": 58.87 }, "geometry": { "type": "LineString", "coordinates": [ [ 282229.18, 4157861.49 ], [ 282263.11, 4157835.17 ] ] } },
{ "type": "Feature", "properties": { "id": "wire:2936-2940", "h0": 13.11, "h1": 10.0, "z0": 60.89, "z1": 61.01 }, "geometry": { "type": "LineString", "coordinates": [ [ 282077.26, 4157858.37 ], [ 282061.9, 4157845.04 ] ] } },
{ "type": "Feature", "properties": { "id": "wire:245-3408", "h0": 10.0, "h1": 10.0, "z0": 59.47, "z1": 58.18 }, "geometry": { "type": "LineString", "coordinates": [ [ 282118.88, 4157860.53 ], [ 282148.02, 4157846.66 ] ] } },
{ "type": "Feature", "properties": { "id": "wire:2650-2652", "h0": 8.84, "h1": 8.84, "z0": 59.44, "z1": 59.27 }, "geometry": { "type": "LineString", "coordinates": [ [ 282206.39, 4157862.13 ], [ 282229.18, 4157861.49 ] ] } },
{ "type": "Feature", "properties": { "id": "wire:245-2935", "h0": 10.0, "h1": 13.11, "z0": 59.47, "z1": 60.71 }, "geometry": { "type": "LineString", "coordinates": [ [ 282118.88, 4157860.53 ], [ 282086.39, 4157877.68 ] ] } },
{ "type": "Feature", "properties": { "id": "wire:2650-2651", "h0": 8.84, "h1": 8.84, "z0": 59.44, "z1": 59.71 }, "geometry": { "type": "LineString", "coordinates": [ [ 282206.39, 4157862.13 ], [ 282174.4, 4157877.35 ] ] } },
{ "type": "Feature", "properties": { "id": "wire:2935-2938", "h0": 13.11, "h1": 10.0, "z0": 60.71, "z1": 60.79 }, "geometry": { "type": "LineString", "coordinates": [ [ 282086.39, 4157877.68 ], [ 282076.53, 4157880.69 ] ] } },
{ "type": "Feature", "properties": { "id": "wire:2938-3410", "h0": 10.0, "h1": 10.0, "z0": 60.79, "z1": 62.2 }, "geometry": { "type": "LineString", "coordinates": [ [ 282076.53, 4157880.69 ], [ 282051.19, 4157892.75 ] ] } },
{ "type": "Feature", "properties": { "id": "wire:2933-2934", "h0": 11.73, "h1": 10.0, "z0": 60.61, "z1": 60.45 }, "geometry": { "type": "LineString", "coordinates": [ [ 282092.09, 4157889.69 ], [ 282092.65, 4157911.59 ] ] } },
{ "type": "Feature", "properties": { "id": "wire:2647-2649", "h0": 10.0, "h1": 8.84, "z0": 60.37, "z1": 60.17 }, "geometry": { "type": "LineString", "coordinates": [ [ 282109.77, 4157907.85 ], [ 282125.67, 4157900.44 ] ] } },
{ "type": "Feature", "properties": { "id": "wire:2647-2930", "h0": 10.0, "h1": 10.0, "z0": 60.37, "z1": 60.32 }, "geometry": { "type": "LineString", "coordinates": [ [ 282109.77, 4157907.85 ], [ 282107.26, 4157921.71 ] ] } },
{ "type": "Feature", "properties": { "id": "wire:2648-2930", "h0": 13.11, "h1": 10.0, "z0": 60.5, "z1": 60.32 }, "geometry": { "type": "LineString", "coordinates": [ [ 282093.06, 4157927.25 ], [ 282107.26, 4157921.71 ] ] } },
{ "type": "Feature", "properties": { "id": "wire:2928-2932", "h0": 13.11, "h1": 10.0, "z0": 60.71, "z1": 60.76 }, "geometry": { "type": "LineString", "coordinates": [ [ 282121.06, 4157950.91 ], [ 282111.94, 4157952.59 ] ] } },
{ "type": "Feature", "properties": { "id": "wire:2370-2371", "h0": 10.0, "h1": 10.0, "z0": 62.42, "z1": 61.86 }, "geometry": { "type": "LineString", "coordinates": [ [ 282101.53, 4157967.27 ], [ 282088.18, 4157972.7 ] ] } },
{ "type": "Feature", "properties": { "id": "wire:2926-2929", "h0": 11.73, "h1": 10.0, "z0": 60.79, "z1": 61.09 }, "geometry": { "type": "LineString", "coordinates": [ [ 282132.16, 4157974.41 ], [ 282124.84, 4157981.48 ] ] } },
{ "type": "Feature", "properties": { "id": "wire:2369-2371", "h0": 10.0, "h1": 10.0, "z0": 63.61, "z1": 61.86 }, "geometry": { "type": "LineString", "coordinates": [ [ 282065.41, 4157985.62 ], [ 282088.18, 4157972.7 ] ] } },
{ "type": "Feature", "properties": { "id": "wire:2925-2927", "h0": 11.73, "h1": 10.0, "z0": 61.0, "z1": 61.3 }, "geometry": { "type": "LineString", "coordinates": [ [ 282142.86, 4157997.08 ], [ 282129.85, 4157992.37 ] ] } },
{ "type": "Feature", "properties": { "id": "wire:3411-3416", "h0": 10.0, "h1": 8.84, "z0": 62.63, "z1": 63.02 }, "geometry": { "type": "LineString", "coordinates": [ [ 282016.97, 4157909.04 ], [ 281987.92, 4157922.86 ] ] } },
{ "type": "Feature", "properties": { "id": "wire:244-2645", "h0": 13.11, "h1": 14.48, "z0": 60.82, "z1": 61.16 }, "geometry": { "type": "LineString", "coordinates": [ [ 282055.06, 4157944.34 ], [ 282021.75, 4157960.47 ] ] } },
{ "type": "Feature", "properties": { "id": "wire:243-2645", "h0": 13.11, "h1": 14.48, "z0": 61.4, "z1": 61.16 }, "geometry": { "type": "LineString", "coordinates": [ [ 281990.46, 4157976.12 ], [ 282021.75, 4157960.47 ] ] } },
{ "type": "Feature", "properties": { "id": "wire:2368-2369", "h0": 10.0, "h1": 10.0, "z0": 64.01, "z1": 63.61 }, "geometry": { "type": "LineString", "coordinates": [ [ 282025.82, 4158004.65 ], [ 282065.41, 4157985.62 ] ] } }
]
}
