{
"type": "FeatureCollection",
"name": "pois",
"crs": { "type": "name", "properties": { "name": "urn:ogc:def:crs:EPSG::32618" } },
"xy_coordinate_resolution": 0.01,
"features": [
{ "type": "Feature", "properties": { "id": "lidar-tree:283780:4160252", "name": null, "kind": "tree", "species": null, "source": "lidar2025", "tree_height": 4.8, "crown_radius": 2.9, "height_source": "lidar2025" }, "geometry": { "type": "Point", "coordinates": [ 283780.5, 4160252.5 ] } },
{ "type": "Feature", "properties": { "id": "lidar-tree:283764:4160272", "name": null, "kind": "tree", "species": null, "source": "lidar2025", "tree_height": 18.0, "crown_radius": 5.4, "height_source": "lidar2025" }, "geometry": { "type": "Point", "coordinates": [ 283763.5, 4160271.5 ] } },
{ "type": "Feature", "properties": { "id": "rva-tree:94025", "name": "Quercus palustris", "kind": "tree", "species": "Quercus palustris", "source": "city_inventory", "tree_height": 19.8, "crown_radius": 5.6, "height_source": "lidar2025" }, "geometry": { "type": "Point", "coordinates": [ 283770.19, 4160271.87 ] } },
{ "type": "Feature", "properties": { "id": "lidar-tree:283814:4160286", "name": null, "kind": "tree", "species": null, "source": "lidar2025", "tree_height": 9.1, "crown_radius": 2.2, "height_source": "lidar2025" }, "geometry": { "type": "Point", "coordinates": [ 283813.5, 4160286.5 ] } },
{ "type": "Feature", "properties": { "id": "lidar-tree:283888:4160294", "name": null, "kind": "tree", "species": null, "source": "lidar2025", "tree_height": 6.5, "crown_radius": 2.2, "height_source": "lidar2025" }, "geometry": { "type": "Point", "coordinates": [ 283887.5, 4160294.5 ] } },
{ "type": "Feature", "properties": { "id": "lidar-tree:283866:4160302", "name": null, "kind": "tree", "species": null, "source": "lidar2025", "tree_height": 8.2, "crown_radius": 2.0, "height_source": "lidar2025" }, "geometry": { "type": "Point", "coordinates": [ 283865.5, 4160301.5 ] } },
{ "type": "Feature", "properties": { "id": "lidar-tree:283876:4160304", "name": null, "kind": "tree", "species": null, "source": "lidar2025", "tree_height": 4.6, "crown_radius": 1.7, "height_source": "lidar2025" }, "geometry": { "type": "Point", "coordinates": [ 283876.5, 4160304.5 ] } },
{ "type": "Feature", "properties": { "id": "lidar-tree:283862:4160312", "name": null, "kind": "tree", "species": null, "source": "lidar2025", "tree_height": 5.9, "crown_radius": 1.5, "height_source": "lidar2025" }, "geometry": { "type": "Point", "coordinates": [ 283862.5, 4160312.5 ] } },
{ "type": "Feature", "properties": { "id": "lidar-tree:283844:4160328", "name": null, "kind": "tree", "species": null, "source": "lidar2025", "tree_height": 3.7, "crown_radius": 2.0, "height_source": "lidar2025" }, "geometry": { "type": "Point", "coordinates": [ 283843.5, 4160328.5 ] } },
{ "type": "Feature", "properties": { "id": "lidar-tree:283816:4160330", "name": null, "kind": "tree", "species": null, "source": "lidar2025", "tree_height": 6.2, "crown_radius": 2.6, "height_source": "lidar2025" }, "geometry": { "type": "Point", "coordinates": [ 283815.5, 4160329.5 ] } },
{ "type": "Feature", "properties": { "id": "lidar-tree:283890:4160338", "name": null, "kind": "tree", "species": null, "source": "lidar2025", "tree_height": 11.8, "crown_radius": 6.0, "height_source": "lidar2025" }, "geometry": { "type": "Point", "coordinates": [ 283890.5, 4160337.5 ] } },
{ "type": "Feature", "properties": { "id": "lidar-tree:283824:4160340", "name": null, "kind": "tree", "species": null, "source": "lidar2025", "tree_height": 5.3, "crown_radius": 4.5, "height_source": "lidar2025" }, "geometry": { "type": "Point", "coordinates": [ 283824.5, 4160339.5 ] } },
{ "type": "Feature", "properties": { "id": "rva-tree:74441", "name": "Pistacia chinensis", "kind": "tree", "species": "Pistacia chinensis", "source": "city_inventory", "tree_height": 5.8, "crown_radius": 3.4, "height_source": "lidar2025" }, "geometry": { "type": "Point", "coordinates": [ 283897.09, 4160271.16 ] } },
{ "type": "Feature", "properties": { "id": "rva-tree:81676", "name": "Pistacia chinensis", "kind": "tree", "species": "Pistacia chinensis", "source": "city_inventory", "tree_height": 8.0, "crown_radius": 2.5, "height_source": "estimated" }, "geometry": { "type": "Point", "coordinates": [ 283909.58, 4160286.27 ] } },
{ "type": "Feature", "properties": { "id": "rva-tree:91125", "name": "Pistacia chinensis", "kind": "tree", "species": "Pistacia chinensis", "source": "city_inventory", "tree_height": 7.9, "crown_radius": 4.1, "height_source": "lidar2025" }, "geometry": { "type": "Point", "coordinates": [ 283899.58, 4160294.41 ] } },
{ "type": "Feature", "properties": { "id": "rva-tree:96498", "name": "Pistacia chinensis", "kind": "tree", "species": "Pistacia chinensis", "source": "city_inventory", "tree_height": 8.0, "crown_radius": 2.5, "height_source": "estimated" }, "geometry": { "type": "Point", "coordinates": [ 283962.77, 4160303.79 ] } },
{ "type": "Feature", "properties": { "id": "rva-tree:93281", "name": "Pistacia chinensis", "kind": "tree", "species": "Pistacia chinensis", "source": "city_inventory", "tree_height": 4.3, "crown_radius": 2.7, "height_source": "lidar2025" }, "geometry": { "type": "Point", "coordinates": [ 283912.26, 4160309.79 ] } },
{ "type": "Feature", "properties": { "id": "rva-tree:93257", "name": "Pistacia chinensis", "kind": "tree", "species": "Pistacia chinensis", "source": "city_inventory", "tree_height": 6.0, "crown_radius": 3.1, "height_source": "lidar2025" }, "geometry": { "type": "Point", "coordinates": [ 283925.78, 4160327.53 ] } },
{ "type": "Feature", "properties": { "id": "rva-tree:93957", "name": "Pistacia chinensis", "kind": "tree", "species": "Pistacia chinensis", "source": "city_inventory", "tree_height": 7.2, "crown_radius": 4.1, "height_source": "lidar2025" }, "geometry": { "type": "Point", "coordinates": [ 283942.31, 4160349.93 ] } },
{ "type": "Feature", "properties": { "id": "lidar-tree:283920:4160358", "name": null, "kind": "tree", "species": null, "source": "lidar2025", "tree_height": 8.3, "crown_radius": 2.3, "height_source": "lidar2025" }, "geometry": { "type": "Point", "coordinates": [ 283919.5, 4160358.5 ] } },
{ "type": "Feature", "properties": { "id": "lidar-tree:283772:4160298", "name": null, "kind": "tree", "species": null, "source": "lidar2025", "tree_height": 3.6, "crown_radius": 3.5, "height_source": "lidar2025" }, "geometry": { "type": "Point", "coordinates": [ 283772.5, 4160297.5 ] } },
{ "type": "Feature", "properties": { "id": "rva-tree:94762", "name": "Quercus phellos", "kind": "tree", "species": "Quercus phellos", "source": "city_inventory", "tree_height": 16.2, "crown_radius": 5.9, "height_source": "lidar2025" }, "geometry": { "type": "Point", "coordinates": [ 283754.92, 4160298.33 ] } },
{ "type": "Feature", "properties": { "id": "lidar-tree:283780:4160298", "name": null, "kind": "tree", "species": null, "source": "lidar2025", "tree_height": 4.3, "crown_radius": 2.8, "height_source": "lidar2025" }, "geometry": { "type": "Point", "coordinates": [ 283779.5, 4160298.5 ] } },
{ "type": "Feature", "properties": { "id": "lidar-tree:283768:4160298", "name": null, "kind": "tree", "species": null, "source": "lidar2025", "tree_height": 5.3, "crown_radius": 2.9, "height_source": "lidar2025" }, "geometry": { "type": "Point", "coordinates": [ 283767.5, 4160298.5 ] } },
{ "type": "Feature", "properties": { "id": "lidar-tree:283804:4160300", "name": null, "kind": "tree", "species": null, "source": "lidar2025", "tree_height": 20.8, "crown_radius": 6.0, "height_source": "lidar2025" }, "geometry": { "type": "Point", "coordinates": [ 283804.5, 4160299.5 ] } },
{ "type": "Feature", "properties": { "id": "rva-tree:95736", "name": "Platanus x acerifolia", "kind": "tree", "species": "Platanus x acerifolia", "source": "city_inventory", "tree_height": 11.5, "crown_radius": 5.8, "height_source": "lidar2025" }, "geometry": { "type": "Point", "coordinates": [ 283765.56, 4160311.85 ] } },
{ "type": "Feature", "properties": { "id": "lidar-tree:283772:4160312", "name": null, "kind": "tree", "species": null, "source": "lidar2025", "tree_height": 11.5, "crown_radius": 5.8, "height_source": "lidar2025" }, "geometry": { "type": "Point", "coordinates": [ 283772.5, 4160312.5 ] } },
{ "type": "Feature", "properties": { "id": "lidar-tree:283754:4160314", "name": null, "kind": "tree", "species": null, "source": "lidar2025", "tree_height": 7.6, "crown_radius": 3.8, "height_source": "lidar2025" }, "geometry": { "type": "Point", "coordinates": [ 283753.5, 4160314.5 ] } },
{ "type": "Feature", "properties": { "id": "lidar-tree:283796:4160316", "name": null, "kind": "tree", "species": null, "source": "lidar2025", "tree_height": 20.4, "crown_radius": 6.0, "height_source": "lidar2025" }, "geometry": { "type": "Point", "coordinates": [ 283796.5, 4160315.5 ] } },
{ "type": "Feature", "properties": { "id": "rva-tree:93076", "name": "Platanus x acerifolia", "kind": "tree", "species": "Platanus x acerifolia", "source": "city_inventory", "tree_height": 11.8, "crown_radius": 6.0, "height_source": "lidar2025" }, "geometry": { "type": "Point", "coordinates": [ 283764.72, 4160323.19 ] } },
{ "type": "Feature", "properties": { "id": "lidar-tree:283794:4160330", "name": null, "kind": "tree", "species": null, "source": "lidar2025", "tree_height": 14.0, "crown_radius": 4.9, "height_source": "lidar2025" }, "geometry": { "type": "Point", "coordinates": [ 283794.5, 4160329.5 ] } },
{ "type": "Feature", "properties": { "id": "rva-tree:91322", "name": "Platanus x acerifolia", "kind": "tree", "species": "Platanus x acerifolia", "source": "city_inventory", "tree_height": 13.9, "crown_radius": 6.0, "height_source": "lidar2025" }, "geometry": { "type": "Point", "coordinates": [ 283761.96, 4160338.87 ] } },
{ "type": "Feature", "properties": { "id": "rva-tree:90396", "name": "Quercus palustris", "kind": "tree", "species": "Quercus palustris", "source": "city_inventory", "tree_height": 7.8, "crown_radius": 6.0, "height_source": "lidar2025" }, "geometry": { "type": "Point", "coordinates": [ 283761.19, 4160352.39 ] } },
{ "type": "Feature", "properties": { "id": "lidar-tree:283834:4160340", "name": null, "kind": "tree", "species": null, "source": "lidar2025", "tree_height": 5.4, "crown_radius": 3.9, "height_source": "lidar2025" }, "geometry": { "type": "Point", "coordinates": [ 283833.5, 4160340.5 ] } },
{ "type": "Feature", "properties": { "id": "lidar-tree:283816:4160342", "name": null, "kind": "tree", "species": null, "source": "lidar2025", "tree_height": 8.2, "crown_radius": 5.2, "height_source": "lidar2025" }, "geometry": { "type": "Point", "coordinates": [ 283816.5, 4160342.5 ] } },
{ "type": "Feature", "properties": { "id": "lidar-tree:283884:4160344", "name": null, "kind": "tree", "species": null, "source": "lidar2025", "tree_height": 13.7, "crown_radius": 6.0, "height_source": "lidar2025" }, "geometry": { "type": "Point", "coordinates": [ 283883.5, 4160344.5 ] } },
{ "type": "Feature", "properties": { "id": "rva-tree:90592", "name": "Quercus laurifolia", "kind": "tree", "species": "Quercus laurifolia", "source": "city_inventory", "tree_height": 8.0, "crown_radius": 2.5, "height_source": "estimated" }, "geometry": { "type": "Point", "coordinates": [ 283859.25, 4160345.66 ] } },
{ "type": "Feature", "properties": { "id": "lidar-tree:283874:4160350", "name": null, "kind": "tree", "species": null, "source": "lidar2025", "tree_height": 10.5, "crown_radius": 4.9, "height_source": "lidar2025" }, "geometry": { "type": "Point", "coordinates": [ 283874.5, 4160350.5 ] } },
{ "type": "Feature", "properties": { "id": "lidar-tree:283838:4160358", "name": null, "kind": "tree", "species": null, "source": "lidar2025", "tree_height": 5.6, "crown_radius": 3.0, "height_source": "lidar2025" }, "geometry": { "type": "Point", "coordinates": [ 283837.5, 4160357.5 ] } },
{ "type": "Feature", "properties": { "id": "rva-tree:90724", "name": "Quercus phellos", "kind": "tree", "species": "Quercus phellos", "source": "city_inventory", "tree_height": 25.3, "crown_radius": 6.0, "height_source": "lidar2025" }, "geometry": { "type": "Point", "coordinates": [ 283857.94, 4160360.81 ] } },
{ "type": "Feature", "properties": { "id": "lidar-tree:283886:4160370", "name": null, "kind": "tree", "species": null, "source": "lidar2025", "tree_height": 13.0, "crown_radius": 5.3, "height_source": "lidar2025" }, "geometry": { "type": "Point", "coordinates": [ 283885.5, 4160369.5 ] } },
{ "type": "Feature", "properties": { "id": "lidar-tree:283828:4160372", "name": null, "kind": "tree", "species": null, "source": "lidar2025", "tree_height": 12.4, "crown_radius": 4.8, "height_source": "lidar2025" }, "geometry": { "type": "Point", "coordinates": [ 283827.5, 4160372.5 ] } },
{ "type": "Feature", "properties": { "id": "rva-tree:90589", "name": "Quercus phellos", "kind": "tree", "species": "Quercus phellos", "source": "city_inventory", "tree_height": 24.5, "crown_radius": 6.0, "height_source": "lidar2025" }, "geometry": { "type": "Point", "coordinates": [ 283856.64, 4160376.11 ] } },
{ "type": "Feature", "properties": { "id": "lidar-tree:283902:4160358", "name": null, "kind": "tree", "species": null, "source": "lidar2025", "tree_height": 10.2, "crown_radius": 3.9, "height_source": "lidar2025" }, "geometry": { "type": "Point", "coordinates": [ 283902.5, 4160358.5 ] } },
{ "type": "Feature", "properties": { "id": "rva-tree:90674", "name": "Pistacia chinensis", "kind": "tree", "species": "Pistacia chinensis", "source": "city_inventory", "tree_height": 4.9, "crown_radius": 2.9, "height_source": "lidar2025" }, "geometry": { "type": "Point", "coordinates": [ 283953.47, 4160364.62 ] } },
{ "type": "Feature", "properties": { "id": "lidar-tree:283894:4160378", "name": null, "kind": "tree", "species": null, "source": "lidar2025", "tree_height": 17.5, "crown_radius": 6.0, "height_source": "lidar2025" }, "geometry": { "type": "Point", "coordinates": [ 283894.5, 4160378.5 ] } },
{ "type": "Feature", "properties": { "id": "lidar-tree:283912:4160380", "name": null, "kind": "tree", "species": null, "source": "lidar2025", "tree_height": 6.2, "crown_radius": 5.0, "height_source": "lidar2025" }, "geometry": { "type": "Point", "coordinates": [ 283911.5, 4160379.5 ] } },
{ "type": "Feature", "properties": { "id": "lidar-tree:283912:4160394", "name": null, "kind": "tree", "species": null, "source": "lidar2025", "tree_height": 4.3, "crown_radius": 2.0, "height_source": "lidar2025" }, "geometry": { "type": "Point", "coordinates": [ 283912.5, 4160394.5 ] } },
{ "type": "Feature", "properties": { "id": "lidar-tree:283914:4160410", "name": null, "kind": "tree", "species": null, "source": "lidar2025", "tree_height": 4.6, "crown_radius": 3.8, "height_source": "lidar2025" }, "geometry": { "type": "Point", "coordinates": [ 283914.5, 4160409.5 ] } },
{ "type": "Feature", "properties": { "id": "rva-tree:90599", "name": "Quercus palustris", "kind": "tree", "species": "Quercus palustris", "source": "city_inventory", "tree_height": 17.2, "crown_radius": 5.4, "height_source": "lidar2025" }, "geometry": { "type": "Point", "coordinates": [ 283908.42, 4160416.52 ] } },
{ "type": "Feature", "properties": { "id": "lidar-tree:283936:4160420", "name": null, "kind": "tree", "species": null, "source": "lidar2025", "tree_height": 12.9, "crown_radius": 4.8, "height_source": "lidar2025" }, "geometry": { "type": "Point", "coordinates": [ 283935.5, 4160420.5 ] } },
{ "type": "Feature", "properties": { "id": "rva-tree:90600", "name": "Quercus palustris", "kind": "tree", "species": "Quercus palustris", "source": "city_inventory", "tree_height": 8.0, "crown_radius": 2.5, "height_source": "estimated" }, "geometry": { "type": "Point", "coordinates": [ 283944.69, 4160420.77 ] } },
{ "type": "Feature", "properties": { "id": "rva-tree:91167", "name": "Quercus palustris", "kind": "tree", "species": "Quercus palustris", "source": "city_inventory", "tree_height": 8.0, "crown_radius": 2.5, "height_source": "estimated" }, "geometry": { "type": "Point", "coordinates": [ 283957.03, 4160422.02 ] } },
{ "type": "Feature", "properties": { "id": "lidar-tree:283760:4160366", "name": null, "kind": "tree", "species": null, "source": "lidar2025", "tree_height": 5.6, "crown_radius": 3.1, "height_source": "lidar2025" }, "geometry": { "type": "Point", "coordinates": [ 283759.5, 4160366.5 ] } },
{ "type": "Feature", "properties": { "id": "lidar-tree:283796:4160380", "name": null, "kind": "tree", "species": null, "source": "lidar2025", "tree_height": 7.2, "crown_radius": 3.9, "height_source": "lidar2025" }, "geometry": { "type": "Point", "coordinates": [ 283796.5, 4160379.5 ] } },
{ "type": "Feature", "properties": { "id": "rva-tree:90403", "name": "Quercus palustris", "kind": "tree", "species": "Quercus palustris", "source": "city_inventory", "tree_height": 10.2, "crown_radius": 6.0, "height_source": "lidar2025" }, "geometry": { "type": "Point", "coordinates": [ 283757.98, 4160380.78 ] } },
{ "type": "Feature", "properties": { "id": "lidar-tree:283766:4160382", "name": null, "kind": "tree", "species": null, "source": "lidar2025", "tree_height": 10.7, "crown_radius": 5.1, "height_source": "lidar2025" }, "geometry": { "type": "Point", "coordinates": [ 283766.5, 4160381.5 ] } },
{ "type": "Feature", "properties": { "id": "rva-tree:91829", "name": "Quercus palustris", "kind": "tree", "species": "Quercus palustris", "source": "city_inventory", "tree_height": 20.1, "crown_radius": 6.0, "height_source": "lidar2025" }, "geometry": { "type": "Point", "coordinates": [ 283786.8, 4160404.47 ] } },
{ "type": "Feature", "properties": { "id": "osm:node/7016276985", "name": null, "kind": "traffic_signals", "species": null, "source": null, "tree_height": null, "crown_radius": null, "height_source": null }, "geometry": { "type": "Point", "coordinates": [ 283759.32, 4160407.79 ] } },
{ "type": "Feature", "properties": { "id": "rva-tree:93547", "name": "Quercus palustris", "kind": "tree", "species": "Quercus palustris", "source": "city_inventory", "tree_height": 8.0, "crown_radius": 2.5, "height_source": "estimated" }, "geometry": { "type": "Point", "coordinates": [ 283765.42, 4160414.78 ] } },
{ "type": "Feature", "properties": { "id": "lidar-tree:283758:4160420", "name": null, "kind": "tree", "species": null, "source": "lidar2025", "tree_height": 22.7, "crown_radius": 5.7, "height_source": "lidar2025" }, "geometry": { "type": "Point", "coordinates": [ 283758.5, 4160420.5 ] } },
{ "type": "Feature", "properties": { "id": "lidar-tree:283990:4160252", "name": null, "kind": "tree", "species": null, "source": "lidar2025", "tree_height": 5.2, "crown_radius": 2.7, "height_source": "lidar2025" }, "geometry": { "type": "Point", "coordinates": [ 283989.5, 4160251.5 ] } },
{ "type": "Feature", "properties": { "id": "rva-tree:74442", "name": "Pistacia chinensis", "kind": "tree", "species": "Pistacia chinensis", "source": "city_inventory", "tree_height": 7.9, "crown_radius": 3.9, "height_source": "lidar2025" }, "geometry": { "type": "Point", "coordinates": [ 283995.48, 4160396.58 ] } },
{ "type": "Feature", "properties": { "id": "osm:node/11051579545", "name": null, "kind": "traffic_signals", "species": null, "source": null, "tree_height": null, "crown_radius": null, "height_source": null }, "geometry": { "type": "Point", "coordinates": [ 283998.33, 4160408.65 ] } },
{ "type": "Feature", "properties": { "id": "rva-tree:90637", "name": "Pistacia chinensis", "kind": "tree", "species": "Pistacia chinensis", "source": "city_inventory", "tree_height": 5.8, "crown_radius": 2.8, "height_source": "lidar2025" }, "geometry": { "type": "Point", "coordinates": [ 283989.0, 4160409.27 ] } },
{ "type": "Feature", "properties": { "id": "rva-tree:90608", "name": "Quercus palustris", "kind": "tree", "species": "Quercus palustris", "source": "city_inventory", "tree_height": 8.0, "crown_radius": 2.5, "height_source": "estimated" }, "geometry": { "type": "Point", "coordinates": [ 283981.17, 4160418.17 ] } },
{ "type": "Feature", "properties": { "id": "osm:node/11051579543", "name": null, "kind": "traffic_signals", "species": null, "source": null, "tree_height": null, "crown_radius": null, "height_source": null }, "geometry": { "type": "Point", "coordinates": [ 283995.07, 4160425.11 ] } },
{ "type": "Feature", "properties": { "id": "rva-tree:93485", "name": "Quercus palustris", "kind": "tree", "species": "Quercus palustris", "source": "city_inventory", "tree_height": 21.3, "crown_radius": 6.0, "height_source": "lidar2025" }, "geometry": { "type": "Point", "coordinates": [ 283928.78, 4160433.22 ] } },
{ "type": "Feature", "properties": { "id": "rva-tree:94149", "name": "Platanus x acerifolia", "kind": "tree", "species": "Platanus x acerifolia", "source": "city_inventory", "tree_height": 16.1, "crown_radius": 5.7, "height_source": "lidar2025" }, "geometry": { "type": "Point", "coordinates": [ 283950.79, 4160435.25 ] } },
{ "type": "Feature", "properties": { "id": "rva-tree:94148", "name": "Ginkgo biloba", "kind": "tree", "species": "Ginkgo biloba", "source": "city_inventory", "tree_height": 8.0, "crown_radius": 2.5, "height_source": "estimated" }, "geometry": { "type": "Point", "coordinates": [ 283962.23, 4160444.39 ] } },
{ "type": "Feature", "properties": { "id": "rva-tree:92412", "name": "Quercus palustris", "kind": "tree", "species": "Quercus palustris", "source": "city_inventory", "tree_height": 19.2, "crown_radius": 6.0, "height_source": "lidar2025" }, "geometry": { "type": "Point", "coordinates": [ 283958.67, 4160464.73 ] } },
{ "type": "Feature", "properties": { "id": "lidar-tree:283958:4160472", "name": null, "kind": "tree", "species": null, "source": "lidar2025", "tree_height": 18.2, "crown_radius": 6.0, "height_source": "lidar2025" }, "geometry": { "type": "Point", "coordinates": [ 283958.5, 4160472.5 ] } },
{ "type": "Feature", "properties": { "id": "lidar-tree:283978:4160478", "name": null, "kind": "tree", "species": null, "source": "lidar2025", "tree_height": 22.4, "crown_radius": 6.0, "height_source": "lidar2025" }, "geometry": { "type": "Point", "coordinates": [ 283978.5, 4160477.5 ] } },
{ "type": "Feature", "properties": { "id": "rva-tree:94636", "name": "Platanus x acerifolia", "kind": "tree", "species": "Platanus x acerifolia", "source": "city_inventory", "tree_height": 12.9, "crown_radius": 4.4, "height_source": "lidar2025" }, "geometry": { "type": "Point", "coordinates": [ 283958.16, 4160485.34 ] } },
{ "type": "Feature", "properties": { "id": "lidar-tree:283918:4160492", "name": null, "kind": "tree", "species": null, "source": "lidar2025", "tree_height": 4.2, "crown_radius": 4.8, "height_source": "lidar2025" }, "geometry": { "type": "Point", "coordinates": [ 283917.5, 4160491.5 ] } },
{ "type": "Feature", "properties": { "id": "rva-tree:22302", "name": "Lagerstroemia indica", "kind": "tree", "species": "Lagerstroemia indica", "source": "city_inventory", "tree_height": 4.8, "crown_radius": 4.0, "height_source": "lidar2025" }, "geometry": { "type": "Point", "coordinates": [ 283957.63, 4160494.76 ] } },
{ "type": "Feature", "properties": { "id": "rva-tree:91887", "name": "Ginkgo biloba", "kind": "tree", "species": "Ginkgo biloba", "source": "city_inventory", "tree_height": 8.0, "crown_radius": 2.5, "height_source": "estimated" }, "geometry": { "type": "Point", "coordinates": [ 283969.04, 4160498.43 ] } },
{ "type": "Feature", "properties": { "id": "lidar-tree:284000:4160480", "name": null, "kind": "tree", "species": null, "source": "lidar2025", "tree_height": 17.9, "crown_radius": 6.0, "height_source": "lidar2025" }, "geometry": { "type": "Point", "coordinates": [ 283999.5, 4160479.5 ] } },
{ "type": "Feature", "properties": { "id": "rva-tree:91147", "name": "Zelkova serrata", "kind": "tree", "species": "Zelkova serrata", "source": "city_inventory", "tree_height": 8.0, "crown_radius": 2.5, "height_source": "estimated" }, "geometry": { "type": "Point", "coordinates": [ 283868.91, 4160383.59 ] } },
{ "type": "Feature", "properties": { "id": "rva-tree:90588", "name": "Quercus phellos", "kind": "tree", "species": "Quercus phellos", "source": "city_inventory", "tree_height": 23.7, "crown_radius": 6.0, "height_source": "lidar2025" }, "geometry": { "type": "Point", "coordinates": [ 283855.32, 4160390.79 ] } },
{ "type": "Feature", "properties": { "id": "rva-tree:91149", "name": "Zelkova serrata", "kind": "tree", "species": "Zelkova serrata", "source": "city_inventory", "tree_height": 8.0, "crown_radius": 2.5, "height_source": "estimated" }, "geometry": { "type": "Point", "coordinates": [ 283868.09, 4160395.14 ] } },
{ "type": "Feature", "properties": { "id": "rva-tree:90587", "name": "Quercus phellos", "kind": "tree", "species": "Quercus phellos", "source": "city_inventory", "tree_height": 23.3, "crown_radius": 6.0, "height_source": "lidar2025" }, "geometry": { "type": "Point", "coordinates": [ 283853.65, 4160404.39 ] } },
{ "type": "Feature", "properties": { "id": "rva-tree:91166", "name": "Zelkova serrata", "kind": "tree", "species": "Zelkova serrata", "source": "city_inventory", "tree_height": 21.7, "crown_radius": 6.0, "height_source": "lidar2025" }, "geometry": { "type": "Point", "coordinates": [ 283866.85, 4160407.79 ] } },
{ "type": "Feature", "properties": { "id": "rva-tree:91834", "name": "Quercus palustris", "kind": "tree", "species": "Quercus palustris", "source": "city_inventory", "tree_height": 20.3, "crown_radius": 6.0, "height_source": "lidar2025" }, "geometry": { "type": "Point", "coordinates": [ 283833.67, 4160409.11 ] } },
{ "type": "Feature", "properties": { "id": "rva-tree:90598", "name": "Quercus palustris", "kind": "tree", "species": "Quercus palustris", "source": "city_inventory", "tree_height": 21.7, "crown_radius": 6.0, "height_source": "lidar2025" }, "geometry": { "type": "Point", "coordinates": [ 283873.43, 4160413.15 ] } },
{ "type": "Feature", "properties": { "id": "rva-tree:96929", "name": "Prunus spp.", "kind": "tree", "species": "Prunus spp.", "source": "city_inventory", "tree_height": 8.0, "crown_radius": 2.5, "height_source": "estimated" }, "geometry": { "type": "Point", "coordinates": [ 283866.11, 4160430.07 ] } },
{ "type": "Feature", "properties": { "id": "lidar-tree:283842:4160432", "name": null, "kind": "tree", "species": null, "source": "lidar2025", "tree_height": 5.7, "crown_radius": 3.3, "height_source": "lidar2025" }, "geometry": { "type": "Point", "coordinates": [ 283841.5, 4160431.5 ] } },
{ "type": "Feature", "properties": { "id": "rva-tree:91710", "name": "Acer saccharum", "kind": "tree", "species": "Acer saccharum", "source": "city_inventory", "tree_height": 8.0, "crown_radius": 2.5, "height_source": "estimated" }, "geometry": { "type": "Point", "coordinates": [ 283850.42, 4160431.65 ] } },
{ "type": "Feature", "properties": { "id": "lidar-tree:283780:4160420", "name": null, "kind": "tree", "species": null, "source": "lidar2025", "tree_height": 5.3, "crown_radius": 3.3, "height_source": "lidar2025" }, "geometry": { "type": "Point", "coordinates": [ 283780.5, 4160420.5 ] } },
{ "type": "Feature", "properties": { "id": "lidar-tree:283756:4160438", "name": null, "kind": "tree", "species": null, "source": "lidar2025", "tree_height": 14.4, "crown_radius": 5.1, "height_source": "lidar2025" }, "geometry": { "type": "Point", "coordinates": [ 283756.5, 4160438.5 ] } },
{ "type": "Feature", "properties": { "id": "lidar-tree:283798:4160440", "name": null, "kind": "tree", "species": null, "source": "lidar2025", "tree_height": 11.8, "crown_radius": 3.6, "height_source": "lidar2025" }, "geometry": { "type": "Point", "coordinates": [ 283797.5, 4160439.5 ] } },
{ "type": "Feature", "properties": { "id": "rva-tree:91783", "name": "Quercus palustris", "kind": "tree", "species": "Quercus palustris", "source": "city_inventory", "tree_height": 14.4, "crown_radius": 5.1, "height_source": "lidar2025" }, "geometry": { "type": "Point", "coordinates": [ 283750.9, 4160441.79 ] } },
{ "type": "Feature", "properties": { "id": "lidar-tree:283806:4160442", "name": null, "kind": "tree", "species": null, "source": "lidar2025", "tree_height": 23.4, "crown_radius": 6.0, "height_source": "lidar2025" }, "geometry": { "type": "Point", "coordinates": [ 283805.5, 4160442.5 ] } },
{ "type": "Feature", "properties": { "id": "lidar-tree:283764:4160446", "name": null, "kind": "tree", "species": null, "source": "lidar2025", "tree_height": 7.4, "crown_radius": 4.1, "height_source": "lidar2025" }, "geometry": { "type": "Point", "coordinates": [ 283763.5, 4160445.5 ] } },
{ "type": "Feature", "properties": { "id": "lidar-tree:283792:4160450", "name": null, "kind": "tree", "species": null, "source": "lidar2025", "tree_height": 5.2, "crown_radius": 3.3, "height_source": "lidar2025" }, "geometry": { "type": "Point", "coordinates": [ 283792.5, 4160450.5 ] } },
{ "type": "Feature", "properties": { "id": "lidar-tree:283758:4160456", "name": null, "kind": "tree", "species": null, "source": "lidar2025", "tree_height": 6.9, "crown_radius": 4.8, "height_source": "lidar2025" }, "geometry": { "type": "Point", "coordinates": [ 283757.5, 4160456.5 ] } },
{ "type": "Feature", "properties": { "id": "lidar-tree:283754:4160466", "name": null, "kind": "tree", "species": null, "source": "lidar2025", "tree_height": 16.2, "crown_radius": 4.7, "height_source": "lidar2025" }, "geometry": { "type": "Point", "coordinates": [ 283754.5, 4160466.5 ] } },
{ "type": "Feature", "properties": { "id": "lidar-tree:283800:4160468", "name": null, "kind": "tree", "species": null, "source": "lidar2025", "tree_height": 7.3, "crown_radius": 6.0, "height_source": "lidar2025" }, "geometry": { "type": "Point", "coordinates": [ 283800.5, 4160467.5 ] } },
{ "type": "Feature", "properties": { "id": "lidar-tree:283792:4160468", "name": null, "kind": "tree", "species": null, "source": "lidar2025", "tree_height": 18.9, "crown_radius": 5.6, "height_source": "lidar2025" }, "geometry": { "type": "Point", "coordinates": [ 283791.5, 4160468.5 ] } },
{ "type": "Feature", "properties": { "id": "lidar-tree:283754:4160476", "name": null, "kind": "tree", "species": null, "source": "lidar2025", "tree_height": 14.8, "crown_radius": 5.2, "height_source": "lidar2025" }, "geometry": { "type": "Point", "coordinates": [ 283753.5, 4160476.5 ] } },
{ "type": "Feature", "properties": { "id": "lidar-tree:283756:4160486", "name": null, "kind": "tree", "species": null, "source": "lidar2025", "tree_height": 15.6, "crown_radius": 5.6, "height_source": "lidar2025" }, "geometry": { "type": "Point", "coordinates": [ 283756.5, 4160485.5 ] } },
{ "type": "Feature", "properties": { "id": "lidar-tree:283766:4160488", "name": null, "kind": "tree", "species": null, "source": "lidar2025", "tree_height": 8.5, "crown_radius": 3.5, "height_source": "lidar2025" }, "geometry": { "type": "Point", "coordinates": [ 283766.5, 4160488.5 ] } },
{ "type": "Feature", "properties": { "id": "lidar-tree:283860:4160446", "name": null, "kind": "tree", "species": null, "source": "lidar2025", "tree_height": 5.9, "crown_radius": 2.0, "height_source": "lidar2025" }, "geometry": { "type": "Point", "coordinates": [ 283860.5, 4160446.5 ] } },
{ "type": "Feature", "properties": { "id": "lidar-tree:283848:4160450", "name": null, "kind": "tree", "species": null, "source": "lidar2025", "tree_height": 5.5, "crown_radius": 1.4, "height_source": "lidar2025" }, "geometry": { "type": "Point", "coordinates": [ 283848.5, 4160449.5 ] } },
{ "type": "Feature", "properties": { "id": "lidar-tree:283890:4160462", "name": null, "kind": "tree", "species": null, "source": "lidar2025", "tree_height": 4.8, "crown_radius": 2.7, "height_source": "lidar2025" }, "geometry": { "type": "Point", "coordinates": [ 283890.5, 4160461.5 ] } },
{ "type": "Feature", "properties": { "id": "rva-tree:93526", "name": "Acer saccharum", "kind": "tree", "species": "Acer saccharum", "source": "city_inventory", "tree_height": 6.6, "crown_radius": 2.8, "height_source": "lidar2025" }, "geometry": { "type": "Point", "coordinates": [ 283847.3, 4160463.12 ] } },
{ "type": "Feature", "properties": { "id": "lidar-tree:283816:4160464", "name": null, "kind": "tree", "species": null, "source": "lidar2025", "tree_height": 22.1, "crown_radius": 6.0, "height_source": "lidar2025" }, "geometry": { "type": "Point", "coordinates": [ 283816.5, 4160463.5 ] } },
{ "type": "Feature", "properties": { "id": "lidar-tree:283858:4160468", "name": null, "kind": "tree", "species": null, "source": "lidar2025", "tree_height": 5.7, "crown_radius": 3.4, "height_source": "lidar2025" }, "geometry": { "type": "Point", "coordinates": [ 283858.5, 4160468.5 ] } },
{ "type": "Feature", "properties": { "id": "lidar-tree:283824:4160470", "name": null, "kind": "tree", "species": null, "source": "lidar2025", "tree_height": 8.3, "crown_radius": 4.0, "height_source": "lidar2025" }, "geometry": { "type": "Point", "coordinates": [ 283823.5, 4160469.5 ] } },
{ "type": "Feature", "properties": { "id": "lidar-tree:283816:4160496", "name": null, "kind": "tree", "species": null, "source": "lidar2025", "tree_height": 6.4, "crown_radius": 4.3, "height_source": "lidar2025" }, "geometry": { "type": "Point", "coordinates": [ 283815.5, 4160495.5 ] } },
{ "type": "Feature", "properties": { "id": "rva-tree:96269", "name": "Lagerstroemia indica", "kind": "tree", "species": "Lagerstroemia indica", "source": "city_inventory", "tree_height": 8.0, "crown_radius": 2.5, "height_source": "estimated" }, "geometry": { "type": "Point", "coordinates": [ 283855.82, 4160499.6 ] } },
{ "type": "Feature", "properties": { "id": "lidar-tree:283924:4160500", "name": null, "kind": "tree", "species": null, "source": "lidar2025", "tree_height": 5.4, "crown_radius": 4.6, "height_source": "lidar2025" }, "geometry": { "type": "Point", "coordinates": [ 283923.5, 4160499.5 ] } }
]
}
