{
"type": "FeatureCollection",
"name": "pois",
"crs": { "type": "name", "properties": { "name": "urn:ogc:def:crs:EPSG::32618" } },
"xy_coordinate_resolution": 0.01,
"features": [
{ "type": "Feature", "properties": { "id": "rva-tree:4173", "name": "Quercus rubra", "kind": "tree", "species": "Quercus rubra", "source": "city_inventory", "tree_height": 8.0, "crown_radius": 2.5, "height_source": "estimated" }, "geometry": { "type": "Point", "coordinates": [ 282247.91, 4158763.62 ] } },
{ "type": "Feature", "properties": { "id": "rva-tree:4172", "name": "Zelkova serrata", "kind": "tree", "species": "Zelkova serrata", "source": "city_inventory", "tree_height": 8.0, "crown_radius": 2.5, "height_source": "estimated" }, "geometry": { "type": "Point", "coordinates": [ 282241.55, 4158766.69 ] } },
{ "type": "Feature", "properties": { "id": "lidar-tree:282168:4158752", "name": null, "kind": "tree", "species": null, "source": "lidar2025", "tree_height": 9.0, "crown_radius": 4.5, "height_source": "lidar2025" }, "geometry": { "type": "Point", "coordinates": [ 282167.5, 4158751.5 ] } },
{ "type": "Feature", "properties": { "id": "rva-tree:4550", "name": "Zelkova serrata", "kind": "tree", "species": "Zelkova serrata", "source": "city_inventory", "tree_height": 8.0, "crown_radius": 2.5, "height_source": "estimated" }, "geometry": { "type": "Point", "coordinates": [ 282206.67, 4158751.72 ] } },
{ "type": "Feature", "properties": { "id": "rva-tree:4549", "name": "Ulmus americana", "kind": "tree", "species": "Ulmus americana", "source": "city_inventory", "tree_height": 8.0, "crown_radius": 2.5, "height_source": "estimated" }, "geometry": { "type": "Point", "coordinates": [ 282209.74, 4158758.97 ] } },
{ "type": "Feature", "properties": { "id": "rva-tree:4548", "name": "Ulmus americana", "kind": "tree", "species": "Ulmus americana", "source": "city_inventory", "tree_height": 8.0, "crown_radius": 2.5, "height_source": "estimated" }, "geometry": { "type": "Point", "coordinates": [ 282212.89, 4158765.69 ] } },
{ "type": "Feature", "properties": { "id": "lidar-tree:282166:4158768", "name": null, "kind": "tree", "species": null, "source": "lidar2025", "tree_height": 6.8, "crown_radius": 4.0, "height_source": "lidar2025" }, "geometry": { "type": "Point", "coordinates": [ 282165.5, 4158768.5 ] } },
{ "type": "Feature", "properties": { "id": "rva-tree:4525", "name": "Zelkova serrata", "kind": "tree", "species": "Zelkova serrata", "source": "city_inventory", "tree_height": 8.0, "crown_radius": 2.5, "height_source": "estimated" }, "geometry": { "type": "Point", "coordinates": [ 282226.43, 4158768.77 ] } },
{ "type": "Feature", "properties": { "id": "rva-tree:4171", "name": "Quercus palustris", "kind": "tree", "species": "Quercus palustris", "source": "city_inventory", "tree_height": 20.2, "crown_radius": 6.0, "height_source": "lidar2025" }, "geometry": { "type": "Point", "coordinates": [ 282233.73, 4158770.8 ] } },
{ "type": "Feature", "properties": { "id": "rva-tree:4547", "name": "Zelkova serrata", "kind": "tree", "species": "Zelkova serrata", "source": "city_inventory", "tree_height": 11.0, "crown_radius": 6.0, "height_source": "lidar2025" }, "geometry": { "type": "Point", "coordinates": [ 282216.47, 4158772.61 ] } },
{ "type": "Feature", "properties": { "id": "osm:node/49615814", "name": null, "kind": "traffic_signals", "species": null, "source": null, "tree_height": null, "crown_radius": null, "height_source": null }, "geometry": { "type": "Point", "coordinates": [ 282226.03, 4158782.35 ] } },
{ "type": "Feature", "properties": { "id": "rva-tree:4170", "name": "Betula nigra", "kind": "tree", "species": "Betula nigra", "source": "city_inventory", "tree_height": 13.0, "crown_radius": 6.0, "height_source": "lidar2025" }, "geometry": { "type": "Point", "coordinates": [ 282240.91, 4158783.96 ] } },
{ "type": "Feature", "properties": { "id": "rva-tree:4526", "name": "Carpinus caroliniana", "kind": "tree", "species": "Carpinus caroliniana", "source": "city_inventory", "tree_height": 8.0, "crown_radius": 2.5, "height_source": "estimated" }, "geometry": { "type": "Point", "coordinates": [ 282239.01, 4158794.53 ] } },
{ "type": "Feature", "properties": { "id": "lidar-tree:282150:4158754", "name": null, "kind": "tree", "species": null, "source": "lidar2025", "tree_height": 15.8, "crown_radius": 6.0, "height_source": "lidar2025" }, "geometry": { "type": "Point", "coordinates": [ 282149.5, 4158754.5 ] } },
{ "type": "Feature", "properties": { "id": "lidar-tree:282102:4158760", "name": null, "kind": "tree", "species": null, "source": "lidar2025", "tree_height": 15.2, "crown_radius": 5.8, "height_source": "lidar2025" }, "geometry": { "type": "Point", "coordinates": [ 282102.5, 4158759.5 ] } },
{ "type": "Feature", "properties": { "id": "lidar-tree:282114:4158766", "name": null, "kind": "tree", "species": null, "source": "lidar2025", "tree_height": 26.5, "crown_radius": 5.3, "height_source": "lidar2025" }, "geometry": { "type": "Point", "coordinates": [ 282113.5, 4158765.5 ] } },
{ "type": "Feature", "properties": { "id": "rva-tree:4610", "name": "Zelkova serrata", "kind": "tree", "species": "Zelkova serrata", "source": "city_inventory", "tree_height": 14.1, "crown_radius": 5.6, "height_source": "lidar2025" }, "geometry": { "type": "Point", "coordinates": [ 282092.64, 4158766.19 ] } },
{ "type": "Feature", "properties": { "id": "lidar-tree:282128:4158770", "name": null, "kind": "tree", "species": null, "source": "lidar2025", "tree_height": 27.3, "crown_radius": 6.0, "height_source": "lidar2025" }, "geometry": { "type": "Point", "coordinates": [ 282127.5, 4158769.5 ] } },
{ "type": "Feature", "properties": { "id": "rva-tree:4611", "name": "Ulmus americana", "kind": "tree", "species": "Ulmus americana", "source": "city_inventory", "tree_height": 15.3, "crown_radius": 6.0, "height_source": "lidar2025" }, "geometry": { "type": "Point", "coordinates": [ 282097.87, 4158777.62 ] } },
{ "type": "Feature", "properties": { "id": "rva-tree:4684", "name": "Ulmus alata", "kind": "tree", "species": "Ulmus alata", "source": "city_inventory", "tree_height": 8.0, "crown_radius": 2.5, "height_source": "estimated" }, "geometry": { "type": "Point", "coordinates": [ 282091.36, 4158787.98 ] } },
{ "type": "Feature", "properties": { "id": "lidar-tree:282126:4158794", "name": null, "kind": "tree", "species": null, "source": "lidar2025", "tree_height": 4.8, "crown_radius": 2.9, "height_source": "lidar2025" }, "geometry": { "type": "Point", "coordinates": [ 282125.5, 4158794.5 ] } },
{ "type": "Feature", "properties": { "id": "rva-tree:4688", "name": "Zelkova serrata", "kind": "tree", "species": "Zelkova serrata", "source": "city_inventory", "tree_height": 16.2, "crown_radius": 6.0, "height_source": "lidar2025" }, "geometry": { "type": "Point", "coordinates": [ 282076.61, 4158757.58 ] } },
{ "type": "Feature", "properties": { "id": "rva-tree:4609", "name": "Zelkova serrata", "kind": "tree", "species": "Zelkova serrata", "source": "city_inventory", "tree_height": 8.0, "crown_radius": 2.5, "height_source": "estimated" }, "geometry": { "type": "Point", "coordinates": [ 282089.21, 4158758.46 ] } },
{ "type": "Feature", "properties": { "id": "rva-tree:4686", "name": "Ulmus alata", "kind": "tree", "species": "Ulmus alata", "source": "city_inventory", "tree_height": 8.0, "crown_radius": 2.5, "height_source": "estimated" }, "geometry": { "type": "Point", "coordinates": [ 282083.41, 4158771.18 ] } },
{ "type": "Feature", "properties": { "id": "rva-tree:4685", "name": "Zelkova serrata", "kind": "tree", "species": "Zelkova serrata", "source": "city_inventory", "tree_height": 12.9, "crown_radius": 6.0, "height_source": "lidar2025" }, "geometry": { "type": "Point", "coordinates": [ 282086.81, 4158778.8 ] } },
{ "type": "Feature", "properties": { "id": "rva-tree:63725", "name": "Betula nigra", "kind": "tree", "species": "Betula nigra", "source": "city_inventory", "tree_height": 15.4, "crown_radius": 6.0, "height_source": "lidar2025" }, "geometry": { "type": "Point", "coordinates": [ 282040.02, 4158782.4 ] } },
{ "type": "Feature", "properties": { "id": "rva-tree:63729", "name": "Morus alba", "kind": "tree", "species": "Morus alba", "source": "city_inventory", "tree_height": 15.4, "crown_radius": 6.0, "height_source": "lidar2025" }, "geometry": { "type": "Point", "coordinates": [ 282046.71, 4158787.96 ] } },
{ "type": "Feature", "properties": { "id": "lidar-tree:282066:4158788", "name": null, "kind": "tree", "species": null, "source": "lidar2025", "tree_height": 5.9, "crown_radius": 2.0, "height_source": "lidar2025" }, "geometry": { "type": "Point", "coordinates": [ 282065.5, 4158788.5 ] } },
{ "type": "Feature", "properties": { "id": "osm:node/13076325023", "name": null, "kind": "bench", "species": null, "source": null, "tree_height": null, "crown_radius": null, "height_source": null }, "geometry": { "type": "Point", "coordinates": [ 282045.58, 4158790.81 ] } },
{ "type": "Feature", "properties": { "id": "lidar-tree:282156:4158774", "name": null, "kind": "tree", "species": null, "source": "lidar2025", "tree_height": 3.9, "crown_radius": 2.8, "height_source": "lidar2025" }, "geometry": { "type": "Point", "coordinates": [ 282156.5, 4158774.5 ] } },
{ "type": "Feature", "properties": { "id": "rva-tree:4625", "name": "Ginkgo biloba", "kind": "tree", "species": "Ginkgo biloba", "source": "city_inventory", "tree_height": 15.4, "crown_radius": 6.0, "height_source": "lidar2025" }, "geometry": { "type": "Point", "coordinates": [ 282206.16, 4158784.25 ] } },
{ "type": "Feature", "properties": { "id": "rva-tree:4624", "name": "Ginkgo biloba", "kind": "tree", "species": "Ginkgo biloba", "source": "city_inventory", "tree_height": 16.0, "crown_radius": 6.0, "height_source": "lidar2025" }, "geometry": { "type": "Point", "coordinates": [ 282198.69, 4158787.14 ] } },
{ "type": "Feature", "properties": { "id": "rva-tree:4623", "name": "Zelkova serrata", "kind": "tree", "species": "Zelkova serrata", "source": "city_inventory", "tree_height": 12.8, "crown_radius": 6.0, "height_source": "lidar2025" }, "geometry": { "type": "Point", "coordinates": [ 282190.58, 4158790.98 ] } },
{ "type": "Feature", "properties": { "id": "rva-tree:4622", "name": "Ulmus americana", "kind": "tree", "species": "Ulmus americana", "source": "city_inventory", "tree_height": 13.5, "crown_radius": 6.0, "height_source": "lidar2025" }, "geometry": { "type": "Point", "coordinates": [ 282182.28, 4158795.06 ] } },
{ "type": "Feature", "properties": { "id": "rva-tree:4627", "name": "Zelkova serrata", "kind": "tree", "species": "Zelkova serrata", "source": "city_inventory", "tree_height": 12.2, "crown_radius": 6.0, "height_source": "lidar2025" }, "geometry": { "type": "Point", "coordinates": [ 282212.19, 4158797.52 ] } },
{ "type": "Feature", "properties": { "id": "rva-tree:4621", "name": "Zelkova serrata", "kind": "tree", "species": "Zelkova serrata", "source": "city_inventory", "tree_height": 8.0, "crown_radius": 2.5, "height_source": "estimated" }, "geometry": { "type": "Point", "coordinates": [ 282173.5, 4158798.93 ] } },
{ "type": "Feature", "properties": { "id": "rva-tree:4620", "name": "Zelkova serrata", "kind": "tree", "species": "Zelkova serrata", "source": "city_inventory", "tree_height": 15.6, "crown_radius": 6.0, "height_source": "lidar2025" }, "geometry": { "type": "Point", "coordinates": [ 282166.31, 4158802.65 ] } },
{ "type": "Feature", "properties": { "id": "rva-tree:4629", "name": "Zelkova serrata", "kind": "tree", "species": "Zelkova serrata", "source": "city_inventory", "tree_height": 12.0, "crown_radius": 4.9, "height_source": "lidar2025" }, "geometry": { "type": "Point", "coordinates": [ 282195.23, 4158805.31 ] } },
{ "type": "Feature", "properties": { "id": "rva-tree:4619", "name": "Zelkova serrata", "kind": "tree", "species": "Zelkova serrata", "source": "city_inventory", "tree_height": 12.5, "crown_radius": 6.0, "height_source": "lidar2025" }, "geometry": { "type": "Point", "coordinates": [ 282158.04, 4158806.91 ] } },
{ "type": "Feature", "properties": { "id": "lidar-tree:282018:4158778", "name": null, "kind": "tree", "species": null, "source": "lidar2025", "tree_height": 15.8, "crown_radius": 6.0, "height_source": "lidar2025" }, "geometry": { "type": "Point", "coordinates": [ 282018.5, 4158778.5 ] } },
{ "type": "Feature", "properties": { "id": "lidar-tree:282008:4158782", "name": null, "kind": "tree", "species": null, "source": "lidar2025", "tree_height": 20.9, "crown_radius": 6.0, "height_source": "lidar2025" }, "geometry": { "type": "Point", "coordinates": [ 282008.5, 4158782.5 ] } },
{ "type": "Feature", "properties": { "id": "rva-tree:63734", "name": "Lagerstroemia indica", "kind": "tree", "species": "Lagerstroemia indica", "source": "city_inventory", "tree_height": 8.0, "crown_radius": 2.5, "height_source": "estimated" }, "geometry": { "type": "Point", "coordinates": [ 282031.55, 4158787.98 ] } },
{ "type": "Feature", "properties": { "id": "rva-tree:63730", "name": "Lagerstroemia indica", "kind": "tree", "species": "Lagerstroemia indica", "source": "city_inventory", "tree_height": 8.0, "crown_radius": 2.5, "height_source": "estimated" }, "geometry": { "type": "Point", "coordinates": [ 282032.78, 4158791.47 ] } },
{ "type": "Feature", "properties": { "id": "lidar-tree:282018:4158796", "name": null, "kind": "tree", "species": null, "source": "lidar2025", "tree_height": 8.9, "crown_radius": 5.3, "height_source": "lidar2025" }, "geometry": { "type": "Point", "coordinates": [ 282018.5, 4158795.5 ] } },
{ "type": "Feature", "properties": { "id": "lidar-tree:282008:4158798", "name": null, "kind": "tree", "species": null, "source": "lidar2025", "tree_height": 9.0, "crown_radius": 5.6, "height_source": "lidar2025" }, "geometry": { "type": "Point", "coordinates": [ 282008.5, 4158798.5 ] } },
{ "type": "Feature", "properties": { "id": "lidar-tree:282018:4158812", "name": null, "kind": "tree", "species": null, "source": "lidar2025", "tree_height": 7.5, "crown_radius": 4.1, "height_source": "lidar2025" }, "geometry": { "type": "Point", "coordinates": [ 282018.5, 4158811.5 ] } },
{ "type": "Feature", "properties": { "id": "rva-tree:4734", "name": "Liriodendron tulipifera", "kind": "tree", "species": "Liriodendron tulipifera", "source": "city_inventory", "tree_height": 13.3, "crown_radius": 4.1, "height_source": "lidar2025" }, "geometry": { "type": "Point", "coordinates": [ 282022.74, 4158888.11 ] } },
{ "type": "Feature", "properties": { "id": "rva-tree:4735", "name": "Acer rubrum", "kind": "tree", "species": "Acer rubrum", "source": "city_inventory", "tree_height": 13.3, "crown_radius": 4.1, "height_source": "lidar2025" }, "geometry": { "type": "Point", "coordinates": [ 282021.73, 4158894.97 ] } },
{ "type": "Feature", "properties": { "id": "rva-tree:4967", "name": "Zelkova serrata", "kind": "tree", "species": "Zelkova serrata", "source": "city_inventory", "tree_height": 10.6, "crown_radius": 6.0, "height_source": "lidar2025" }, "geometry": { "type": "Point", "coordinates": [ 282005.63, 4158896.75 ] } },
{ "type": "Feature", "properties": { "id": "rva-tree:4736", "name": "Lagerstroemia indica", "kind": "tree", "species": "Lagerstroemia indica", "source": "city_inventory", "tree_height": 8.0, "crown_radius": 2.5, "height_source": "estimated" }, "geometry": { "type": "Point", "coordinates": [ 282025.8, 4158903.84 ] } },
{ "type": "Feature", "properties": { "id": "lidar-tree:282016:4158910", "name": null, "kind": "tree", "species": null, "source": "lidar2025", "tree_height": 5.6, "crown_radius": 3.0, "height_source": "lidar2025" }, "geometry": { "type": "Point", "coordinates": [ 282016.5, 4158909.5 ] } },
{ "type": "Feature", "properties": { "id": "rva-tree:63731", "name": "Lagerstroemia indica", "kind": "tree", "species": "Lagerstroemia indica", "source": "city_inventory", "tree_height": 8.0, "crown_radius": 2.5, "height_source": "estimated" }, "geometry": { "type": "Point", "coordinates": [ 282034.99, 4158794.34 ] } },
{ "type": "Feature", "properties": { "id": "lidar-tree:282088:4158800", "name": null, "kind": "tree", "species": null, "source": "lidar2025", "tree_height": 24.2, "crown_radius": 6.0, "height_source": "lidar2025" }, "geometry": { "type": "Point", "coordinates": [ 282087.5, 4158800.5 ] } },
{ "type": "Feature", "properties": { "id": "rva-tree:4832", "name": "Betula nigra", "kind": "tree", "species": "Betula nigra", "source": "city_inventory", "tree_height": 18.1, "crown_radius": 6.0, "height_source": "lidar2025" }, "geometry": { "type": "Point", "coordinates": [ 282042.08, 4158801.4 ] } },
{ "type": "Feature", "properties": { "id": "rva-tree:4831", "name": "Betula nigra", "kind": "tree", "species": "Betula nigra", "source": "city_inventory", "tree_height": 18.1, "crown_radius": 6.0, "height_source": "lidar2025" }, "geometry": { "type": "Point", "coordinates": [ 282034.56, 4158805.56 ] } },
{ "type": "Feature", "properties": { "id": "osm:node/13076325020", "name": null, "kind": "bench", "species": null, "source": null, "tree_height": null, "crown_radius": null, "height_source": null }, "geometry": { "type": "Point", "coordinates": [ 282040.82, 4158805.84 ] } },
{ "type": "Feature", "properties": { "id": "osm:node/13076325019", "name": null, "kind": "bench", "species": null, "source": null, "tree_height": null, "crown_radius": null, "height_source": null }, "geometry": { "type": "Point", "coordinates": [ 282036.44, 4158807.66 ] } },
{ "type": "Feature", "properties": { "id": "rva-tree:4833", "name": "Betula nigra", "kind": "tree", "species": "Betula nigra", "source": "city_inventory", "tree_height": 15.9, "crown_radius": 6.0, "height_source": "lidar2025" }, "geometry": { "type": "Point", "coordinates": [ 282045.03, 4158808.37 ] } },
{ "type": "Feature", "properties": { "id": "rva-tree:4822", "name": "Betula nigra", "kind": "tree", "species": "Betula nigra", "source": "city_inventory", "tree_height": 8.0, "crown_radius": 2.5, "height_source": "estimated" }, "geometry": { "type": "Point", "coordinates": [ 282037.63, 4158813.28 ] } },
{ "type": "Feature", "properties": { "id": "lidar-tree:282072:4158814", "name": null, "kind": "tree", "species": null, "source": "lidar2025", "tree_height": 14.9, "crown_radius": 5.7, "height_source": "lidar2025" }, "geometry": { "type": "Point", "coordinates": [ 282072.5, 4158813.5 ] } },
{ "type": "Feature", "properties": { "id": "lidar-tree:282056:4158822", "name": null, "kind": "tree", "species": null, "source": "lidar2025", "tree_height": 12.0, "crown_radius": 6.0, "height_source": "lidar2025" }, "geometry": { "type": "Point", "coordinates": [ 282056.5, 4158821.5 ] } },
{ "type": "Feature", "properties": { "id": "rva-tree:4683", "name": "Zelkova serrata", "kind": "tree", "species": "Zelkova serrata", "source": "city_inventory", "tree_height": 8.0, "crown_radius": 2.5, "height_source": "estimated" }, "geometry": { "type": "Point", "coordinates": [ 282094.92, 4158795.26 ] } },
{ "type": "Feature", "properties": { "id": "rva-tree:4613", "name": "Ulmus americana", "kind": "tree", "species": "Ulmus americana", "source": "city_inventory", "tree_height": 17.6, "crown_radius": 6.0, "height_source": "lidar2025" }, "geometry": { "type": "Point", "coordinates": [ 282108.19, 4158799.09 ] } },
{ "type": "Feature", "properties": { "id": "rva-tree:4682", "name": "Ulmus alata", "kind": "tree", "species": "Ulmus alata", "source": "city_inventory", "tree_height": 17.6, "crown_radius": 6.0, "height_source": "lidar2025" }, "geometry": { "type": "Point", "coordinates": [ 282098.39, 4158802.71 ] } },
{ "type": "Feature", "properties": { "id": "rva-tree:4614", "name": "Ulmus alata", "kind": "tree", "species": "Ulmus alata", "source": "city_inventory", "tree_height": 8.0, "crown_radius": 2.5, "height_source": "estimated" }, "geometry": { "type": "Point", "coordinates": [ 282111.63, 4158807.3 ] } },
{ "type": "Feature", "properties": { "id": "rva-tree:4681", "name": "Ulmus alata", "kind": "tree", "species": "Ulmus alata", "source": "city_inventory", "tree_height": 8.0, "crown_radius": 2.5, "height_source": "estimated" }, "geometry": { "type": "Point", "coordinates": [ 282102.52, 4158810.65 ] } },
{ "type": "Feature", "properties": { "id": "rva-tree:4618", "name": "Prunus serrulata", "kind": "tree", "species": "Prunus serrulata", "source": "city_inventory", "tree_height": 12.5, "crown_radius": 6.0, "height_source": "lidar2025" }, "geometry": { "type": "Point", "coordinates": [ 282150.03, 4158811.08 ] } },
{ "type": "Feature", "properties": { "id": "rva-tree:4617", "name": "Zelkova serrata", "kind": "tree", "species": "Zelkova serrata", "source": "city_inventory", "tree_height": 10.3, "crown_radius": 5.4, "height_source": "lidar2025" }, "geometry": { "type": "Point", "coordinates": [ 282142.63, 4158813.72 ] } },
{ "type": "Feature", "properties": { "id": "rva-tree:4615", "name": "Ulmus alata", "kind": "tree", "species": "Ulmus alata", "source": "city_inventory", "tree_height": 8.0, "crown_radius": 2.5, "height_source": "estimated" }, "geometry": { "type": "Point", "coordinates": [ 282115.15, 4158815.85 ] } },
{ "type": "Feature", "properties": { "id": "rva-tree:4616", "name": "Ginkgo biloba", "kind": "tree", "species": "Ginkgo biloba", "source": "city_inventory", "tree_height": 8.9, "crown_radius": 3.3, "height_source": "lidar2025" }, "geometry": { "type": "Point", "coordinates": [ 282134.85, 4158817.54 ] } },
{ "type": "Feature", "properties": { "id": "rva-tree:4679", "name": "Ulmus alata", "kind": "tree", "species": "Ulmus alata", "source": "city_inventory", "tree_height": 16.8, "crown_radius": 6.0, "height_source": "lidar2025" }, "geometry": { "type": "Point", "coordinates": [ 282108.99, 4158823.89 ] } },
{ "type": "Feature", "properties": { "id": "rva-tree:62164", "name": "Ulmus parvifolia", "kind": "tree", "species": "Ulmus parvifolia", "source": "city_inventory", "tree_height": 9.1, "crown_radius": 5.1, "height_source": "lidar2025" }, "geometry": { "type": "Point", "coordinates": [ 282145.74, 4158828.89 ] } },
{ "type": "Feature", "properties": { "id": "rva-tree:4724", "name": "Ulmus alata", "kind": "tree", "species": "Ulmus alata", "source": "city_inventory", "tree_height": 16.8, "crown_radius": 6.0, "height_source": "lidar2025" }, "geometry": { "type": "Point", "coordinates": [ 282105.41, 4158831.41 ] } },
{ "type": "Feature", "properties": { "id": "rva-tree:4636", "name": "Acer rubrum", "kind": "tree", "species": "Acer rubrum", "source": "city_inventory", "tree_height": 8.0, "crown_radius": 2.5, "height_source": "estimated" }, "geometry": { "type": "Point", "coordinates": [ 282137.87, 4158832.63 ] } },
{ "type": "Feature", "properties": { "id": "rva-tree:4723", "name": "Prunus spp.", "kind": "tree", "species": "Prunus spp.", "source": "city_inventory", "tree_height": 8.6, "crown_radius": 4.7, "height_source": "lidar2025" }, "geometry": { "type": "Point", "coordinates": [ 282099.06, 4158835.19 ] } },
{ "type": "Feature", "properties": { "id": "rva-tree:4637", "name": "Ulmus pumila", "kind": "tree", "species": "Ulmus pumila", "source": "city_inventory", "tree_height": 13.4, "crown_radius": 5.9, "height_source": "lidar2025" }, "geometry": { "type": "Point", "coordinates": [ 282130.68, 4158836.18 ] } },
{ "type": "Feature", "properties": { "id": "lidar-tree:282112:4158846", "name": null, "kind": "tree", "species": null, "source": "lidar2025", "tree_height": 8.4, "crown_radius": 3.0, "height_source": "lidar2025" }, "geometry": { "type": "Point", "coordinates": [ 282112.5, 4158846.5 ] } },
{ "type": "Feature", "properties": { "id": "rva-tree:4727", "name": "Lagerstroemia indica", "kind": "tree", "species": "Lagerstroemia indica", "source": "city_inventory", "tree_height": 4.0, "crown_radius": 3.1, "height_source": "lidar2025" }, "geometry": { "type": "Point", "coordinates": [ 282104.53, 4158848.38 ] } },
{ "type": "Feature", "properties": { "id": "rva-tree:4638", "name": "Acer saccharinum", "kind": "tree", "species": "Acer saccharinum", "source": "city_inventory", "tree_height": 8.0, "crown_radius": 2.5, "height_source": "estimated" }, "geometry": { "type": "Point", "coordinates": [ 282132.07, 4158849.64 ] } },
{ "type": "Feature", "properties": { "id": "lidar-tree:282102:4158856", "name": null, "kind": "tree", "species": null, "source": "lidar2025", "tree_height": 6.1, "crown_radius": 4.3, "height_source": "lidar2025" }, "geometry": { "type": "Point", "coordinates": [ 282101.5, 4158856.5 ] } },
{ "type": "Feature", "properties": { "id": "rva-tree:4677", "name": "Ulmus alata", "kind": "tree", "species": "Ulmus alata", "source": "city_inventory", "tree_height": 12.2, "crown_radius": 5.7, "height_source": "lidar2025" }, "geometry": { "type": "Point", "coordinates": [ 282124.8, 4158858.59 ] } },
{ "type": "Feature", "properties": { "id": "lidar-tree:282044:4158826", "name": null, "kind": "tree", "species": null, "source": "lidar2025", "tree_height": 17.5, "crown_radius": 6.0, "height_source": "lidar2025" }, "geometry": { "type": "Point", "coordinates": [ 282043.5, 4158826.5 ] } },
{ "type": "Feature", "properties": { "id": "rva-tree:4722", "name": "Prunus spp.", "kind": "tree", "species": "Prunus spp.", "source": "city_inventory", "tree_height": 8.6, "crown_radius": 4.7, "height_source": "lidar2025" }, "geometry": { "type": "Point", "coordinates": [ 282089.47, 4158840.01 ] } },
{ "type": "Feature", "properties": { "id": "rva-tree:4721", "name": "Zelkova serrata", "kind": "tree", "species": "Zelkova serrata", "source": "city_inventory", "tree_height": 11.0, "crown_radius": 6.0, "height_source": "lidar2025" }, "geometry": { "type": "Point", "coordinates": [ 282081.45, 4158843.93 ] } },
{ "type": "Feature", "properties": { "id": "lidar-tree:282068:4158846", "name": null, "kind": "tree", "species": null, "source": "lidar2025", "tree_height": 10.9, "crown_radius": 6.0, "height_source": "lidar2025" }, "geometry": { "type": "Point", "coordinates": [ 282067.5, 4158846.5 ] } },
{ "type": "Feature", "properties": { "id": "rva-tree:4720", "name": "Lagerstroemia indica", "kind": "tree", "species": "Lagerstroemia indica", "source": "city_inventory", "tree_height": 10.9, "crown_radius": 6.0, "height_source": "lidar2025" }, "geometry": { "type": "Point", "coordinates": [ 282073.75, 4158847.67 ] } },
{ "type": "Feature", "properties": { "id": "rva-tree:4718", "name": "Acer rubrum", "kind": "tree", "species": "Acer rubrum", "source": "city_inventory", "tree_height": 14.3, "crown_radius": 6.0, "height_source": "lidar2025" }, "geometry": { "type": "Point", "coordinates": [ 282056.8, 4158856.14 ] } },
{ "type": "Feature", "properties": { "id": "rva-tree:4728", "name": "Ulmus alata", "kind": "tree", "species": "Ulmus alata", "source": "city_inventory", "tree_height": 8.0, "crown_radius": 2.5, "height_source": "estimated" }, "geometry": { "type": "Point", "coordinates": [ 282089.4, 4158856.19 ] } },
{ "type": "Feature", "properties": { "id": "rva-tree:4717", "name": "Acer rubrum", "kind": "tree", "species": "Acer rubrum", "source": "city_inventory", "tree_height": 13.2, "crown_radius": 5.3, "height_source": "lidar2025" }, "geometry": { "type": "Point", "coordinates": [ 282048.26, 4158859.91 ] } },
{ "type": "Feature", "properties": { "id": "rva-tree:4729", "name": "Zelkova serrata", "kind": "tree", "species": "Zelkova serrata", "source": "city_inventory", "tree_height": 12.4, "crown_radius": 6.0, "height_source": "lidar2025" }, "geometry": { "type": "Point", "coordinates": [ 282081.38, 4158860.11 ] } },
{ "type": "Feature", "properties": { "id": "rva-tree:4730", "name": "Zelkova serrata", "kind": "tree", "species": "Zelkova serrata", "source": "city_inventory", "tree_height": 12.4, "crown_radius": 6.0, "height_source": "lidar2025" }, "geometry": { "type": "Point", "coordinates": [ 282074.75, 4158863.13 ] } },
{ "type": "Feature", "properties": { "id": "lidar-tree:282020:4158832", "name": null, "kind": "tree", "species": null, "source": "lidar2025", "tree_height": 5.4, "crown_radius": 3.4, "height_source": "lidar2025" }, "geometry": { "type": "Point", "coordinates": [ 282020.5, 4158831.5 ] } },
{ "type": "Feature", "properties": { "id": "lidar-tree:282028:4158832", "name": null, "kind": "tree", "species": null, "source": "lidar2025", "tree_height": 6.6, "crown_radius": 4.4, "height_source": "lidar2025" }, "geometry": { "type": "Point", "coordinates": [ 282027.5, 4158832.5 ] } },
{ "type": "Feature", "properties": { "id": "lidar-tree:282008:4158840", "name": null, "kind": "tree", "species": null, "source": "lidar2025", "tree_height": 12.0, "crown_radius": 5.2, "height_source": "lidar2025" }, "geometry": { "type": "Point", "coordinates": [ 282007.5, 4158839.5 ] } },
{ "type": "Feature", "properties": { "id": "lidar-tree:282028:4158840", "name": null, "kind": "tree", "species": null, "source": "lidar2025", "tree_height": 6.3, "crown_radius": 3.6, "height_source": "lidar2025" }, "geometry": { "type": "Point", "coordinates": [ 282028.5, 4158839.5 ] } },
{ "type": "Feature", "properties": { "id": "rva-tree:4709", "name": "Malus spp.", "kind": "tree", "species": "Malus spp.", "source": "city_inventory", "tree_height": 11.2, "crown_radius": 5.8, "height_source": "lidar2025" }, "geometry": { "type": "Point", "coordinates": [ 282000.17, 4158849.17 ] } },
{ "type": "Feature", "properties": { "id": "lidar-tree:282010:4158868", "name": null, "kind": "tree", "species": null, "source": "lidar2025", "tree_height": 5.4, "crown_radius": 2.2, "height_source": "lidar2025" }, "geometry": { "type": "Point", "coordinates": [ 282010.5, 4158867.5 ] } },
{ "type": "Feature", "properties": { "id": "rva-tree:4715", "name": "Quercus phellos", "kind": "tree", "species": "Quercus phellos", "source": "city_inventory", "tree_height": 15.7, "crown_radius": 6.0, "height_source": "lidar2025" }, "geometry": { "type": "Point", "coordinates": [ 282030.3, 4158868.33 ] } },
{ "type": "Feature", "properties": { "id": "rva-tree:4714", "name": "Betula nigra", "kind": "tree", "species": "Betula nigra", "source": "city_inventory", "tree_height": 13.2, "crown_radius": 6.0, "height_source": "lidar2025" }, "geometry": { "type": "Point", "coordinates": [ 282022.76, 4158871.64 ] } },
{ "type": "Feature", "properties": { "id": "rva-tree:4639", "name": "Acer rubrum", "kind": "tree", "species": "Acer rubrum", "source": "city_inventory", "tree_height": 8.7, "crown_radius": 3.9, "height_source": "lidar2025" }, "geometry": { "type": "Point", "coordinates": [ 282138.77, 4158862.37 ] } },
{ "type": "Feature", "properties": { "id": "lidar-tree:282152:4158862", "name": null, "kind": "tree", "species": null, "source": "lidar2025", "tree_height": 7.2, "crown_radius": 2.7, "height_source": "lidar2025" }, "geometry": { "type": "Point", "coordinates": [ 282151.5, 4158862.5 ] } },
{ "type": "Feature", "properties": { "id": "rva-tree:4676", "name": "Zelkova serrata", "kind": "tree", "species": "Zelkova serrata", "source": "city_inventory", "tree_height": 13.6, "crown_radius": 5.9, "height_source": "lidar2025" }, "geometry": { "type": "Point", "coordinates": [ 282129.33, 4158869.45 ] } },
{ "type": "Feature", "properties": { "id": "lidar-tree:282142:4158870", "name": null, "kind": "tree", "species": null, "source": "lidar2025", "tree_height": 6.6, "crown_radius": 2.4, "height_source": "lidar2025" }, "geometry": { "type": "Point", "coordinates": [ 282141.5, 4158870.5 ] } },
{ "type": "Feature", "properties": { "id": "lidar-tree:282146:4158880", "name": null, "kind": "tree", "species": null, "source": "lidar2025", "tree_height": 11.8, "crown_radius": 5.3, "height_source": "lidar2025" }, "geometry": { "type": "Point", "coordinates": [ 282146.5, 4158880.5 ] } },
{ "type": "Feature", "properties": { "id": "lidar-tree:282096:4158888", "name": null, "kind": "tree", "species": null, "source": "lidar2025", "tree_height": 26.7, "crown_radius": 6.0, "height_source": "lidar2025" }, "geometry": { "type": "Point", "coordinates": [ 282096.5, 4158887.5 ] } },
{ "type": "Feature", "properties": { "id": "rva-tree:4642", "name": "Pyrus calleryana", "kind": "tree", "species": "Pyrus calleryana", "source": "city_inventory", "tree_height": 11.5, "crown_radius": 5.0, "height_source": "lidar2025" }, "geometry": { "type": "Point", "coordinates": [ 282150.72, 4158887.88 ] } },
{ "type": "Feature", "properties": { "id": "rva-tree:4675", "name": "Magnolia x soulangiana", "kind": "tree", "species": "Magnolia x soulangiana", "source": "city_inventory", "tree_height": 10.5, "crown_radius": 6.0, "height_source": "lidar2025" }, "geometry": { "type": "Point", "coordinates": [ 282139.19, 4158889.52 ] } },
{ "type": "Feature", "properties": { "id": "rva-tree:4674", "name": "Acer rubrum", "kind": "tree", "species": "Acer rubrum", "source": "city_inventory", "tree_height": 13.9, "crown_radius": 5.8, "height_source": "lidar2025" }, "geometry": { "type": "Point", "coordinates": [ 282143.84, 4158898.87 ] } },
{ "type": "Feature", "properties": { "id": "lidar-tree:282112:4158906", "name": null, "kind": "tree", "species": null, "source": "lidar2025", "tree_height": 13.0, "crown_radius": 4.0, "height_source": "lidar2025" }, "geometry": { "type": "Point", "coordinates": [ 282111.5, 4158906.5 ] } },
{ "type": "Feature", "properties": { "id": "lidar-tree:282054:4158874", "name": null, "kind": "tree", "species": null, "source": "lidar2025", "tree_height": 11.4, "crown_radius": 4.3, "height_source": "lidar2025" }, "geometry": { "type": "Point", "coordinates": [ 282053.5, 4158873.5 ] } },
{ "type": "Feature", "properties": { "id": "lidar-tree:282062:4158876", "name": null, "kind": "tree", "species": null, "source": "lidar2025", "tree_height": 7.9, "crown_radius": 4.8, "height_source": "lidar2025" }, "geometry": { "type": "Point", "coordinates": [ 282061.5, 4158875.5 ] } },
{ "type": "Feature", "properties": { "id": "lidar-tree:282046:4158878", "name": null, "kind": "tree", "species": null, "source": "lidar2025", "tree_height": 6.9, "crown_radius": 3.6, "height_source": "lidar2025" }, "geometry": { "type": "Point", "coordinates": [ 282046.5, 4158877.5 ] } },
{ "type": "Feature", "properties": { "id": "rva-tree:4733", "name": "Ulmus alata", "kind": "tree", "species": "Ulmus alata", "source": "city_inventory", "tree_height": 4.7, "crown_radius": 2.6, "height_source": "lidar2025" }, "geometry": { "type": "Point", "coordinates": [ 282038.64, 4158880.95 ] } },
{ "type": "Feature", "properties": { "id": "lidar-tree:282080:4158902", "name": null, "kind": "tree", "species": null, "source": "lidar2025", "tree_height": 8.5, "crown_radius": 5.3, "height_source": "lidar2025" }, "geometry": { "type": "Point", "coordinates": [ 282079.5, 4158901.5 ] } },
{ "type": "Feature", "properties": { "id": "lidar-tree:282064:4158904", "name": null, "kind": "tree", "species": null, "source": "lidar2025", "tree_height": 7.1, "crown_radius": 4.0, "height_source": "lidar2025" }, "geometry": { "type": "Point", "coordinates": [ 282063.5, 4158904.5 ] } },
{ "type": "Feature", "properties": { "id": "lidar-tree:282064:4158916", "name": null, "kind": "tree", "species": null, "source": "lidar2025", "tree_height": 8.7, "crown_radius": 5.0, "height_source": "lidar2025" }, "geometry": { "type": "Point", "coordinates": [ 282064.5, 4158916.5 ] } },
{ "type": "Feature", "properties": { "id": "lidar-tree:282070:4158920", "name": null, "kind": "tree", "species": null, "source": "lidar2025", "tree_height": 6.1, "crown_radius": 4.8, "height_source": "lidar2025" }, "geometry": { "type": "Point", "coordinates": [ 282070.5, 4158920.5 ] } },
{ "type": "Feature", "properties": { "id": "lidar-tree:282088:4158922", "name": null, "kind": "tree", "species": null, "source": "lidar2025", "tree_height": 9.2, "crown_radius": 4.2, "height_source": "lidar2025" }, "geometry": { "type": "Point", "coordinates": [ 282087.5, 4158922.5 ] } },
{ "type": "Feature", "properties": { "id": "rva-tree:4737", "name": "Acer rubrum", "kind": "tree", "species": "Acer rubrum", "source": "city_inventory", "tree_height": 15.1, "crown_radius": 6.0, "height_source": "lidar2025" }, "geometry": { "type": "Point", "coordinates": [ 282035.78, 4158923.51 ] } },
{ "type": "Feature", "properties": { "id": "rva-tree:4768", "name": "Acer rubrum", "kind": "tree", "species": "Acer rubrum", "source": "city_inventory", "tree_height": 16.4, "crown_radius": 6.0, "height_source": "lidar2025" }, "geometry": { "type": "Point", "coordinates": [ 282021.23, 4158919.33 ] } },
{ "type": "Feature", "properties": { "id": "lidar-tree:282016:4158930", "name": null, "kind": "tree", "species": null, "source": "lidar2025", "tree_height": 15.8, "crown_radius": 5.8, "height_source": "lidar2025" }, "geometry": { "type": "Point", "coordinates": [ 282016.5, 4158929.5 ] } },
{ "type": "Feature", "properties": { "id": "rva-tree:4767", "name": "Quercus phellos", "kind": "tree", "species": "Quercus phellos", "source": "city_inventory", "tree_height": 18.7, "crown_radius": 6.0, "height_source": "lidar2025" }, "geometry": { "type": "Point", "coordinates": [ 282027.13, 4158930.23 ] } },
{ "type": "Feature", "properties": { "id": "lidar-tree:282008:4158930", "name": null, "kind": "tree", "species": null, "source": "lidar2025", "tree_height": 9.1, "crown_radius": 5.8, "height_source": "lidar2025" }, "geometry": { "type": "Point", "coordinates": [ 282007.5, 4158930.5 ] } },
{ "type": "Feature", "properties": { "id": "rva-tree:4766", "name": "Acer rubrum", "kind": "tree", "species": "Acer rubrum", "source": "city_inventory", "tree_height": 8.0, "crown_radius": 2.5, "height_source": "estimated" }, "geometry": { "type": "Point", "coordinates": [ 282031.22, 4158938.16 ] } },
{ "type": "Feature", "properties": { "id": "lidar-tree:282010:4158952", "name": null, "kind": "tree", "species": null, "source": "lidar2025", "tree_height": 4.8, "crown_radius": 2.9, "height_source": "lidar2025" }, "geometry": { "type": "Point", "coordinates": [ 282010.5, 4158952.5 ] } },
{ "type": "Feature", "properties": { "id": "lidar-tree:282014:4158964", "name": null, "kind": "tree", "species": null, "source": "lidar2025", "tree_height": 17.5, "crown_radius": 6.0, "height_source": "lidar2025" }, "geometry": { "type": "Point", "coordinates": [ 282013.5, 4158964.5 ] } },
{ "type": "Feature", "properties": { "id": "lidar-tree:282076:4158924", "name": null, "kind": "tree", "species": null, "source": "lidar2025", "tree_height": 9.3, "crown_radius": 5.2, "height_source": "lidar2025" }, "geometry": { "type": "Point", "coordinates": [ 282076.5, 4158924.5 ] } },
{ "type": "Feature", "properties": { "id": "lidar-tree:282084:4158930", "name": null, "kind": "tree", "species": null, "source": "lidar2025", "tree_height": 6.9, "crown_radius": 5.8, "height_source": "lidar2025" }, "geometry": { "type": "Point", "coordinates": [ 282083.5, 4158930.5 ] } },
{ "type": "Feature", "properties": { "id": "lidar-tree:282084:4158940", "name": null, "kind": "tree", "species": null, "source": "lidar2025", "tree_height": 7.5, "crown_radius": 6.0, "height_source": "lidar2025" }, "geometry": { "type": "Point", "coordinates": [ 282083.5, 4158939.5 ] } },
{ "type": "Feature", "properties": { "id": "rva-tree:4739", "name": "Acer saccharum", "kind": "tree", "species": "Acer saccharum", "source": "city_inventory", "tree_height": 16.6, "crown_radius": 5.7, "height_source": "lidar2025" }, "geometry": { "type": "Point", "coordinates": [ 282045.81, 4158944.11 ] } },
{ "type": "Feature", "properties": { "id": "rva-tree:4765", "name": "Acer saccharum", "kind": "tree", "species": "Acer saccharum", "source": "city_inventory", "tree_height": 14.5, "crown_radius": 5.7, "height_source": "lidar2025" }, "geometry": { "type": "Point", "coordinates": [ 282034.01, 4158945.22 ] } },
{ "type": "Feature", "properties": { "id": "rva-tree:4740", "name": "Acer saccharum", "kind": "tree", "species": "Acer saccharum", "source": "city_inventory", "tree_height": 10.9, "crown_radius": 5.5, "height_source": "lidar2025" }, "geometry": { "type": "Point", "coordinates": [ 282049.58, 4158952.4 ] } },
{ "type": "Feature", "properties": { "id": "rva-tree:4764", "name": "Lagerstroemia indica", "kind": "tree", "species": "Lagerstroemia indica", "source": "city_inventory", "tree_height": 8.3, "crown_radius": 5.5, "height_source": "lidar2025" }, "geometry": { "type": "Point", "coordinates": [ 282037.79, 4158954.09 ] } },
{ "type": "Feature", "properties": { "id": "lidar-tree:282080:4158954", "name": null, "kind": "tree", "species": null, "source": "lidar2025", "tree_height": 18.3, "crown_radius": 6.0, "height_source": "lidar2025" }, "geometry": { "type": "Point", "coordinates": [ 282080.5, 4158954.5 ] } },
{ "type": "Feature", "properties": { "id": "lidar-tree:282048:4158958", "name": null, "kind": "tree", "species": null, "source": "lidar2025", "tree_height": 10.9, "crown_radius": 5.5, "height_source": "lidar2025" }, "geometry": { "type": "Point", "coordinates": [ 282048.5, 4158958.5 ] } },
{ "type": "Feature", "properties": { "id": "rva-tree:4763", "name": "Lagerstroemia indica", "kind": "tree", "species": "Lagerstroemia indica", "source": "city_inventory", "tree_height": 8.0, "crown_radius": 2.5, "height_source": "estimated" }, "geometry": { "type": "Point", "coordinates": [ 282041.95, 4158962.07 ] } },
{ "type": "Feature", "properties": { "id": "rva-tree:63324", "name": "Gleditsia triacanthos inermis", "kind": "tree", "species": "Gleditsia triacanthos inermis", "source": "city_inventory", "tree_height": 11.8, "crown_radius": 5.6, "height_source": "lidar2025" }, "geometry": { "type": "Point", "coordinates": [ 282177.25, 4158942.36 ] } },
{ "type": "Feature", "properties": { "id": "rva-tree:4647", "name": "Acer saccharum", "kind": "tree", "species": "Acer saccharum", "source": "city_inventory", "tree_height": 8.0, "crown_radius": 2.5, "height_source": "estimated" }, "geometry": { "type": "Point", "coordinates": [ 282184.53, 4158945.54 ] } },
{ "type": "Feature", "properties": { "id": "rva-tree:4670", "name": "Ulmus americana", "kind": "tree", "species": "Ulmus americana", "source": "city_inventory", "tree_height": 8.0, "crown_radius": 2.5, "height_source": "estimated" }, "geometry": { "type": "Point", "coordinates": [ 282166.96, 4158947.05 ] } },
{ "type": "Feature", "properties": { "id": "rva-tree:4666", "name": "Acer rubrum", "kind": "tree", "species": "Acer rubrum", "source": "city_inventory", "tree_height": 13.0, "crown_radius": 6.0, "height_source": "lidar2025" }, "geometry": { "type": "Point", "coordinates": [ 282213.1, 4158947.6 ] } },
{ "type": "Feature", "properties": { "id": "rva-tree:4668", "name": "Ulmus parvifolia", "kind": "tree", "species": "Ulmus parvifolia", "source": "city_inventory", "tree_height": 8.0, "crown_radius": 2.5, "height_source": "estimated" }, "geometry": { "type": "Point", "coordinates": [ 282204.82, 4158951.28 ] } },
{ "type": "Feature", "properties": { "id": "rva-tree:4750", "name": "Acer saccharum", "kind": "tree", "species": "Acer saccharum", "source": "city_inventory", "tree_height": 12.5, "crown_radius": 3.9, "height_source": "lidar2025" }, "geometry": { "type": "Point", "coordinates": [ 282164.99, 4158954.23 ] } },
{ "type": "Feature", "properties": { "id": "rva-tree:4669", "name": "Acer rubrum", "kind": "tree", "species": "Acer rubrum", "source": "city_inventory", "tree_height": 8.0, "crown_radius": 2.5, "height_source": "estimated" }, "geometry": { "type": "Point", "coordinates": [ 282196.95, 4158954.86 ] } },
{ "type": "Feature", "properties": { "id": "lidar-tree:282154:4158956", "name": null, "kind": "tree", "species": null, "source": "lidar2025", "tree_height": 4.9, "crown_radius": 4.2, "height_source": "lidar2025" }, "geometry": { "type": "Point", "coordinates": [ 282154.5, 4158956.5 ] } },
{ "type": "Feature", "properties": { "id": "rva-tree:4667", "name": "Acer rubrum", "kind": "tree", "species": "Acer rubrum", "source": "city_inventory", "tree_height": 9.5, "crown_radius": 3.2, "height_source": "lidar2025" }, "geometry": { "type": "Point", "coordinates": [ 282189.36, 4158959.35 ] } },
{ "type": "Feature", "properties": { "id": "rva-tree:63050", "name": "Quercus acutissima", "kind": "tree", "species": "Quercus acutissima", "source": "city_inventory", "tree_height": 7.9, "crown_radius": 3.1, "height_source": "lidar2025" }, "geometry": { "type": "Point", "coordinates": [ 282187.82, 4158965.96 ] } },
{ "type": "Feature", "properties": { "id": "rva-tree:4546", "name": "Acer rubrum", "kind": "tree", "species": "Acer rubrum", "source": "city_inventory", "tree_height": 14.0, "crown_radius": 5.6, "height_source": "lidar2025" }, "geometry": { "type": "Point", "coordinates": [ 282229.21, 4158800.03 ] } },
{ "type": "Feature", "properties": { "id": "rva-tree:4527", "name": "Cornus florida", "kind": "tree", "species": "Cornus florida", "source": "city_inventory", "tree_height": 8.0, "crown_radius": 2.5, "height_source": "estimated" }, "geometry": { "type": "Point", "coordinates": [ 282242.77, 4158803.73 ] } },
{ "type": "Feature", "properties": { "id": "rva-tree:4528", "name": "Cornus florida", "kind": "tree", "species": "Cornus florida", "source": "city_inventory", "tree_height": 8.0, "crown_radius": 2.5, "height_source": "estimated" }, "geometry": { "type": "Point", "coordinates": [ 282243.33, 4158804.74 ] } },
{ "type": "Feature", "properties": { "id": "rva-tree:4529", "name": "Quercus phellos", "kind": "tree", "species": "Quercus phellos", "source": "city_inventory", "tree_height": 20.4, "crown_radius": 6.0, "height_source": "lidar2025" }, "geometry": { "type": "Point", "coordinates": [ 282246.16, 4158811.27 ] } },
{ "type": "Feature", "properties": { "id": "lidar-tree:282220:4158822", "name": null, "kind": "tree", "species": null, "source": "lidar2025", "tree_height": 16.7, "crown_radius": 6.0, "height_source": "lidar2025" }, "geometry": { "type": "Point", "coordinates": [ 282219.5, 4158821.5 ] } },
{ "type": "Feature", "properties": { "id": "lidar-tree:282226:4158834", "name": null, "kind": "tree", "species": null, "source": "lidar2025", "tree_height": 17.5, "crown_radius": 6.0, "height_source": "lidar2025" }, "geometry": { "type": "Point", "coordinates": [ 282226.5, 4158833.5 ] } },
{ "type": "Feature", "properties": { "id": "rva-tree:4544", "name": "Acer saccharum", "kind": "tree", "species": "Acer saccharum", "source": "city_inventory", "tree_height": 8.0, "crown_radius": 2.5, "height_source": "estimated" }, "geometry": { "type": "Point", "coordinates": [ 282248.58, 4158841.41 ] } },
{ "type": "Feature", "properties": { "id": "lidar-tree:282220:4158850", "name": null, "kind": "tree", "species": null, "source": "lidar2025", "tree_height": 12.5, "crown_radius": 6.0, "height_source": "lidar2025" }, "geometry": { "type": "Point", "coordinates": [ 282220.5, 4158849.5 ] } },
{ "type": "Feature", "properties": { "id": "rva-tree:4630", "name": "Thuja spp.", "kind": "tree", "species": "Thuja spp.", "source": "city_inventory", "tree_height": 8.0, "crown_radius": 2.5, "height_source": "estimated" }, "geometry": { "type": "Point", "coordinates": [ 282187.38, 4158809.31 ] } },
{ "type": "Feature", "properties": { "id": "rva-tree:4631", "name": "Ulmus americana", "kind": "tree", "species": "Ulmus americana", "source": "city_inventory", "tree_height": 8.0, "crown_radius": 2.5, "height_source": "estimated" }, "geometry": { "type": "Point", "coordinates": [ 282179.01, 4158813.16 ] } },
{ "type": "Feature", "properties": { "id": "rva-tree:4632", "name": "Zelkova serrata", "kind": "tree", "species": "Zelkova serrata", "source": "city_inventory", "tree_height": 12.3, "crown_radius": 6.0, "height_source": "lidar2025" }, "geometry": { "type": "Point", "coordinates": [ 282171.06, 4158816.74 ] } },
{ "type": "Feature", "properties": { "id": "rva-tree:4633", "name": "Zelkova serrata", "kind": "tree", "species": "Zelkova serrata", "source": "city_inventory", "tree_height": 12.1, "crown_radius": 6.0, "height_source": "lidar2025" }, "geometry": { "type": "Point", "coordinates": [ 282162.63, 4158821.01 ] } },
{ "type": "Feature", "properties": { "id": "lidar-tree:282190:4158850", "name": null, "kind": "tree", "species": null, "source": "lidar2025", "tree_height": 28.8, "crown_radius": 6.0, "height_source": "lidar2025" }, "geometry": { "type": "Point", "coordinates": [ 282189.5, 4158850.5 ] } },
{ "type": "Feature", "properties": { "id": "lidar-tree:282172:4158862", "name": null, "kind": "tree", "species": null, "source": "lidar2025", "tree_height": 21.7, "crown_radius": 5.9, "height_source": "lidar2025" }, "geometry": { "type": "Point", "coordinates": [ 282171.5, 4158862.5 ] } },
{ "type": "Feature", "properties": { "id": "lidar-tree:282196:4158864", "name": null, "kind": "tree", "species": null, "source": "lidar2025", "tree_height": 24.2, "crown_radius": 6.0, "height_source": "lidar2025" }, "geometry": { "type": "Point", "coordinates": [ 282195.5, 4158863.5 ] } },
{ "type": "Feature", "properties": { "id": "lidar-tree:282160:4158866", "name": null, "kind": "tree", "species": null, "source": "lidar2025", "tree_height": 5.7, "crown_radius": 4.0, "height_source": "lidar2025" }, "geometry": { "type": "Point", "coordinates": [ 282159.5, 4158866.5 ] } },
{ "type": "Feature", "properties": { "id": "lidar-tree:282170:4158876", "name": null, "kind": "tree", "species": null, "source": "lidar2025", "tree_height": 12.7, "crown_radius": 4.4, "height_source": "lidar2025" }, "geometry": { "type": "Point", "coordinates": [ 282169.5, 4158875.5 ] } },
{ "type": "Feature", "properties": { "id": "lidar-tree:282216:4158884", "name": null, "kind": "tree", "species": null, "source": "lidar2025", "tree_height": 7.5, "crown_radius": 2.2, "height_source": "lidar2025" }, "geometry": { "type": "Point", "coordinates": [ 282215.5, 4158884.5 ] } },
{ "type": "Feature", "properties": { "id": "lidar-tree:282238:4158874", "name": null, "kind": "tree", "species": null, "source": "lidar2025", "tree_height": 7.5, "crown_radius": 4.1, "height_source": "lidar2025" }, "geometry": { "type": "Point", "coordinates": [ 282237.5, 4158874.5 ] } },
{ "type": "Feature", "properties": { "id": "lidar-tree:282230:4158880", "name": null, "kind": "tree", "species": null, "source": "lidar2025", "tree_height": 4.5, "crown_radius": 4.4, "height_source": "lidar2025" }, "geometry": { "type": "Point", "coordinates": [ 282230.5, 4158879.5 ] } },
{ "type": "Feature", "properties": { "id": "lidar-tree:282234:4158886", "name": null, "kind": "tree", "species": null, "source": "lidar2025", "tree_height": 7.0, "crown_radius": 4.4, "height_source": "lidar2025" }, "geometry": { "type": "Point", "coordinates": [ 282234.5, 4158886.5 ] } },
{ "type": "Feature", "properties": { "id": "lidar-tree:282194:4158902", "name": null, "kind": "tree", "species": null, "source": "lidar2025", "tree_height": 17.4, "crown_radius": 6.0, "height_source": "lidar2025" }, "geometry": { "type": "Point", "coordinates": [ 282194.5, 4158902.5 ] } },
{ "type": "Feature", "properties": { "id": "lidar-tree:282172:4158904", "name": null, "kind": "tree", "species": null, "source": "lidar2025", "tree_height": 25.6, "crown_radius": 6.0, "height_source": "lidar2025" }, "geometry": { "type": "Point", "coordinates": [ 282172.5, 4158903.5 ] } },
{ "type": "Feature", "properties": { "id": "rva-tree:4643", "name": "Gleditsia triacanthos inermis", "kind": "tree", "species": "Gleditsia triacanthos inermis", "source": "city_inventory", "tree_height": 8.0, "crown_radius": 2.5, "height_source": "estimated" }, "geometry": { "type": "Point", "coordinates": [ 282164.1, 4158915.33 ] } },
{ "type": "Feature", "properties": { "id": "rva-tree:4672", "name": "Ulmus americana", "kind": "tree", "species": "Ulmus americana", "source": "city_inventory", "tree_height": 14.7, "crown_radius": 5.9, "height_source": "lidar2025" }, "geometry": { "type": "Point", "coordinates": [ 282159.39, 4158929.13 ] } },
{ "type": "Feature", "properties": { "id": "rva-tree:4651", "name": "Tilia cordata", "kind": "tree", "species": "Tilia cordata", "source": "city_inventory", "tree_height": 9.2, "crown_radius": 2.9, "height_source": "lidar2025" }, "geometry": { "type": "Point", "coordinates": [ 282214.23, 4158931.21 ] } },
{ "type": "Feature", "properties": { "id": "rva-tree:4645", "name": "Gleditsia triacanthos inermis", "kind": "tree", "species": "Gleditsia triacanthos inermis", "source": "city_inventory", "tree_height": 14.8, "crown_radius": 6.0, "height_source": "lidar2025" }, "geometry": { "type": "Point", "coordinates": [ 282172.27, 4158933.11 ] } },
{ "type": "Feature", "properties": { "id": "rva-tree:4650", "name": "Tilia cordata", "kind": "tree", "species": "Tilia cordata", "source": "city_inventory", "tree_height": 7.3, "crown_radius": 3.0, "height_source": "lidar2025" }, "geometry": { "type": "Point", "coordinates": [ 282205.12, 4158935.42 ] } },
{ "type": "Feature", "properties": { "id": "rva-tree:4649", "name": "Betula nigra", "kind": "tree", "species": "Betula nigra", "source": "city_inventory", "tree_height": 14.1, "crown_radius": 6.0, "height_source": "lidar2025" }, "geometry": { "type": "Point", "coordinates": [ 282198.57, 4158938.03 ] } },
{ "type": "Feature", "properties": { "id": "rva-tree:4671", "name": "Ulmus americana", "kind": "tree", "species": "Ulmus americana", "source": "city_inventory", "tree_height": 8.0, "crown_radius": 2.5, "height_source": "estimated" }, "geometry": { "type": "Point", "coordinates": [ 282162.95, 4158938.77 ] } },
{ "type": "Feature", "properties": { "id": "rva-tree:4648", "name": "Acer rubrum", "kind": "tree", "species": "Acer rubrum", "source": "city_inventory", "tree_height": 14.1, "crown_radius": 6.0, "height_source": "lidar2025" }, "geometry": { "type": "Point", "coordinates": [ 282191.7, 4158941.48 ] } },
{ "type": "Feature", "properties": { "id": "rva-tree:4654", "name": "Acer rubrum", "kind": "tree", "species": "Acer rubrum", "source": "city_inventory", "tree_height": 8.5, "crown_radius": 4.4, "height_source": "lidar2025" }, "geometry": { "type": "Point", "coordinates": [ 282248.32, 4158914.71 ] } },
{ "type": "Feature", "properties": { "id": "rva-tree:61920", "name": "Acer saccharum", "kind": "tree", "species": "Acer saccharum", "source": "city_inventory", "tree_height": 12.7, "crown_radius": 5.7, "height_source": "lidar2025" }, "geometry": { "type": "Point", "coordinates": [ 282239.61, 4158918.3 ] } },
{ "type": "Feature", "properties": { "id": "rva-tree:4652", "name": "Nyssa sylvatica", "kind": "tree", "species": "Nyssa sylvatica", "source": "city_inventory", "tree_height": 7.5, "crown_radius": 3.6, "height_source": "lidar2025" }, "geometry": { "type": "Point", "coordinates": [ 282222.76, 4158927.27 ] } },
{ "type": "Feature", "properties": { "id": "rva-tree:4662", "name": "Tilia cordata", "kind": "tree", "species": "Tilia cordata", "source": "city_inventory", "tree_height": 10.1, "crown_radius": 5.4, "height_source": "lidar2025" }, "geometry": { "type": "Point", "coordinates": [ 282245.46, 4158931.99 ] } },
{ "type": "Feature", "properties": { "id": "lidar-tree:282238:4158936", "name": null, "kind": "tree", "species": null, "source": "lidar2025", "tree_height": 10.6, "crown_radius": 4.0, "height_source": "lidar2025" }, "geometry": { "type": "Point", "coordinates": [ 282237.5, 4158936.5 ] } },
{ "type": "Feature", "properties": { "id": "rva-tree:4665", "name": "Platanus occidentalis", "kind": "tree", "species": "Platanus occidentalis", "source": "city_inventory", "tree_height": 14.6, "crown_radius": 5.6, "height_source": "lidar2025" }, "geometry": { "type": "Point", "coordinates": [ 282220.71, 4158943.78 ] } },
{ "type": "Feature", "properties": { "id": "lidar-tree:282244:4158976", "name": null, "kind": "tree", "species": null, "source": "lidar2025", "tree_height": 12.4, "crown_radius": 4.8, "height_source": "lidar2025" }, "geometry": { "type": "Point", "coordinates": [ 282243.5, 4158976.5 ] } },
{ "type": "Feature", "properties": { "id": "lidar-tree:282228:4158980", "name": null, "kind": "tree", "species": null, "source": "lidar2025", "tree_height": 4.4, "crown_radius": 3.6, "height_source": "lidar2025" }, "geometry": { "type": "Point", "coordinates": [ 282228.5, 4158979.5 ] } },
{ "type": "Feature", "properties": { "id": "lidar-tree:282240:4158990", "name": null, "kind": "tree", "species": null, "source": "lidar2025", "tree_height": 19.5, "crown_radius": 6.0, "height_source": "lidar2025" }, "geometry": { "type": "Point", "coordinates": [ 282240.5, 4158990.5 ] } },
{ "type": "Feature", "properties": { "id": "lidar-tree:282120:4158918", "name": null, "kind": "tree", "species": null, "source": "lidar2025", "tree_height": 13.3, "crown_radius": 5.6, "height_source": "lidar2025" }, "geometry": { "type": "Point", "coordinates": [ 282120.5, 4158917.5 ] } },
{ "type": "Feature", "properties": { "id": "lidar-tree:282112:4158944", "name": null, "kind": "tree", "species": null, "source": "lidar2025", "tree_height": 9.1, "crown_radius": 5.5, "height_source": "lidar2025" }, "geometry": { "type": "Point", "coordinates": [ 282111.5, 4158944.5 ] } },
{ "type": "Feature", "properties": { "id": "lidar-tree:282092:4158948", "name": null, "kind": "tree", "species": null, "source": "lidar2025", "tree_height": 9.0, "crown_radius": 5.8, "height_source": "lidar2025" }, "geometry": { "type": "Point", "coordinates": [ 282092.5, 4158947.5 ] } },
{ "type": "Feature", "properties": { "id": "rva-tree:4749", "name": "Acer saccharum", "kind": "tree", "species": "Acer saccharum", "source": "city_inventory", "tree_height": 12.9, "crown_radius": 4.7, "height_source": "lidar2025" }, "geometry": { "type": "Point", "coordinates": [ 282147.82, 4158962.36 ] } },
{ "type": "Feature", "properties": { "id": "lidar-tree:282118:4158968", "name": null, "kind": "tree", "species": null, "source": "lidar2025", "tree_height": 9.9, "crown_radius": 5.8, "height_source": "lidar2025" }, "geometry": { "type": "Point", "coordinates": [ 282118.5, 4158967.5 ] } },
{ "type": "Feature", "properties": { "id": "lidar-tree:282104:4158978", "name": null, "kind": "tree", "species": null, "source": "lidar2025", "tree_height": 16.7, "crown_radius": 6.0, "height_source": "lidar2025" }, "geometry": { "type": "Point", "coordinates": [ 282103.5, 4158977.5 ] } },
{ "type": "Feature", "properties": { "id": "lidar-tree:282144:4158978", "name": null, "kind": "tree", "species": null, "source": "lidar2025", "tree_height": 13.0, "crown_radius": 5.0, "height_source": "lidar2025" }, "geometry": { "type": "Point", "coordinates": [ 282144.5, 4158978.5 ] } },
{ "type": "Feature", "properties": { "id": "rva-tree:4754", "name": "Acer saccharum", "kind": "tree", "species": "Acer saccharum", "source": "city_inventory", "tree_height": 17.2, "crown_radius": 6.0, "height_source": "lidar2025" }, "geometry": { "type": "Point", "coordinates": [ 282133.29, 4158986.26 ] } },
{ "type": "Feature", "properties": { "id": "rva-tree:4744", "name": "Acer saccharum", "kind": "tree", "species": "Acer saccharum", "source": "city_inventory", "tree_height": 8.0, "crown_radius": 2.5, "height_source": "estimated" }, "geometry": { "type": "Point", "coordinates": [ 282100.05, 4158986.56 ] } },
{ "type": "Feature", "properties": { "id": "rva-tree:4755", "name": "Acer saccharum", "kind": "tree", "species": "Acer saccharum", "source": "city_inventory", "tree_height": 8.0, "crown_radius": 2.5, "height_source": "estimated" }, "geometry": { "type": "Point", "coordinates": [ 282118.14, 4158993.31 ] } },
{ "type": "Feature", "properties": { "id": "rva-tree:6077", "name": "Acer saccharum", "kind": "tree", "species": "Acer saccharum", "source": "city_inventory", "tree_height": 8.0, "crown_radius": 2.5, "height_source": "estimated" }, "geometry": { "type": "Point", "coordinates": [ 282178.34, 4158970.71 ] } },
{ "type": "Feature", "properties": { "id": "rva-tree:62094", "name": "Platanus occidentalis", "kind": "tree", "species": "Platanus occidentalis", "source": "city_inventory", "tree_height": 8.6, "crown_radius": 5.2, "height_source": "lidar2025" }, "geometry": { "type": "Point", "coordinates": [ 282158.45, 4158974.2 ] } },
{ "type": "Feature", "properties": { "id": "rva-tree:6078", "name": "Acer saccharum", "kind": "tree", "species": "Acer saccharum", "source": "city_inventory", "tree_height": 8.0, "crown_radius": 2.5, "height_source": "estimated" }, "geometry": { "type": "Point", "coordinates": [ 282191.68, 4158974.44 ] } },
{ "type": "Feature", "properties": { "id": "rva-tree:63054", "name": "Quercus bicolor", "kind": "tree", "species": "Quercus bicolor", "source": "city_inventory", "tree_height": 8.0, "crown_radius": 2.5, "height_source": "estimated" }, "geometry": { "type": "Point", "coordinates": [ 282196.54, 4158984.61 ] } },
{ "type": "Feature", "properties": { "id": "rva-tree:63055", "name": "Gleditsia triacanthos", "kind": "tree", "species": "Gleditsia triacanthos", "source": "city_inventory", "tree_height": 10.6, "crown_radius": 5.3, "height_source": "lidar2025" }, "geometry": { "type": "Point", "coordinates": [ 282200.01, 4158992.16 ] } },
{ "type": "Feature", "properties": { "id": "lidar-tree:282212:4158994", "name": null, "kind": "tree", "species": null, "source": "lidar2025", "tree_height": 9.1, "crown_radius": 6.0, "height_source": "lidar2025" }, "geometry": { "type": "Point", "coordinates": [ 282211.5, 4158994.5 ] } },
{ "type": "Feature", "properties": { "id": "lidar-tree:282190:4158996", "name": null, "kind": "tree", "species": null, "source": "lidar2025", "tree_height": 7.1, "crown_radius": 2.8, "height_source": "lidar2025" }, "geometry": { "type": "Point", "coordinates": [ 282190.5, 4158996.5 ] } },
{ "type": "Feature", "properties": { "id": "rva-tree:4742", "name": "Ilex opaca", "kind": "tree", "species": "Ilex opaca", "source": "city_inventory", "tree_height": 8.0, "crown_radius": 2.5, "height_source": "estimated" }, "geometry": { "type": "Point", "coordinates": [ 282056.35, 4158968.14 ] } },
{ "type": "Feature", "properties": { "id": "rva-tree:4762", "name": "Lagerstroemia indica", "kind": "tree", "species": "Lagerstroemia indica", "source": "city_inventory", "tree_height": 8.0, "crown_radius": 2.5, "height_source": "estimated" }, "geometry": { "type": "Point", "coordinates": [ 282045.73, 4158970.49 ] } },
{ "type": "Feature", "properties": { "id": "rva-tree:4761", "name": "Lagerstroemia indica", "kind": "tree", "species": "Lagerstroemia indica", "source": "city_inventory", "tree_height": 7.9, "crown_radius": 4.6, "height_source": "lidar2025" }, "geometry": { "type": "Point", "coordinates": [ 282049.94, 4158979.91 ] } },
{ "type": "Feature", "properties": { "id": "lidar-tree:282034:4158982", "name": null, "kind": "tree", "species": null, "source": "lidar2025", "tree_height": 15.1, "crown_radius": 6.0, "height_source": "lidar2025" }, "geometry": { "type": "Point", "coordinates": [ 282034.5, 4158981.5 ] } },
{ "type": "Feature", "properties": { "id": "lidar-tree:282082:4158988", "name": null, "kind": "tree", "species": null, "source": "lidar2025", "tree_height": 26.3, "crown_radius": 6.0, "height_source": "lidar2025" }, "geometry": { "type": "Point", "coordinates": [ 282082.5, 4158988.5 ] } },
{ "type": "Feature", "properties": { "id": "rva-tree:4760", "name": "Halesia tetraptera", "kind": "tree", "species": "Halesia tetraptera", "source": "city_inventory", "tree_height": 8.0, "crown_radius": 2.5, "height_source": "estimated" }, "geometry": { "type": "Point", "coordinates": [ 282054.25, 4158989.35 ] } },
{ "type": "Feature", "properties": { "id": "lidar-tree:282022:4158968", "name": null, "kind": "tree", "species": null, "source": "lidar2025", "tree_height": 15.3, "crown_radius": 6.0, "height_source": "lidar2025" }, "geometry": { "type": "Point", "coordinates": [ 282021.5, 4158967.5 ] } },
{ "type": "Feature", "properties": { "id": "lidar-tree:282012:4158984", "name": null, "kind": "tree", "species": null, "source": "lidar2025", "tree_height": 4.0, "crown_radius": 4.2, "height_source": "lidar2025" }, "geometry": { "type": "Point", "coordinates": [ 282011.5, 4158984.5 ] } },
{ "type": "Feature", "properties": { "id": "lidar-tree:282002:4158986", "name": null, "kind": "tree", "species": null, "source": "lidar2025", "tree_height": 11.1, "crown_radius": 5.4, "height_source": "lidar2025" }, "geometry": { "type": "Point", "coordinates": [ 282001.5, 4158985.5 ] } },
{ "type": "Feature", "properties": { "id": "rva-tree:4756", "name": "Acer saccharum", "kind": "tree", "species": "Acer saccharum", "source": "city_inventory", "tree_height": 8.0, "crown_radius": 2.5, "height_source": "estimated" }, "geometry": { "type": "Point", "coordinates": [ 282109.11, 4158997.35 ] } }
]
}
