{
"type": "FeatureCollection",
"name": "landuse",
"crs": { "type": "name", "properties": { "name": "urn:ogc:def:crs:EPSG::32618" } },
"xy_coordinate_resolution": 0.01,
"features": [
{ "type": "Feature", "properties": { "id": "imagery:groundcover_paved:3471", "name": null, "kind": "groundcover_paved", "sport": null, "surface": null, "pitch_layout": null, "source": "vgin_vbmp+naip+lidar2025", "source_updated": null, "base_z": null, "top_z": null }, "geometry": { "type": "MultiPolygon", "coordinates": [ [ [ [ 284052.68, 4156267.37 ], [ 284044.84, 4156280.45 ], [ 284044.49, 4156280.84 ], [ 284043.29, 4156281.81 ], [ 284042.83, 4156282.06 ], [ 284008.54, 4156293.49 ], [ 284008.38, 4156293.53 ], [ 284007.87, 4156293.64 ], [ 284007.7, 4156293.66 ], [ 284000.0, 4156294.36 ], [ 284000.0, 4156315.01 ], [ 284008.21, 4156315.39 ], [ 284018.8, 4156314.44 ], [ 284026.88, 4156312.56 ], [ 284034.7, 4156308.92 ], [ 284043.32, 4156303.14 ], [ 284050.59, 4156296.78 ], [ 284060.03, 4156284.36 ], [ 284083.29, 4156250.0 ], [ 284081.76, 4156250.0 ], [ 284080.55, 4156251.2 ], [ 284079.53, 4156251.63 ], [ 284074.13, 4156251.63 ], [ 284071.13, 4156254.63 ], [ 284071.13, 4156255.35 ], [ 284070.91, 4156256.13 ], [ 284069.69, 4156258.1 ], [ 284069.1, 4156258.64 ], [ 284053.91, 4156266.23 ], [ 284052.68, 4156267.37 ] ] ], [ [ [ 284003.59, 4156413.63 ], [ 284004.16, 4156413.74 ], [ 284005.74, 4156414.39 ], [ 284006.22, 4156414.71 ], [ 284022.07, 4156430.56 ], [ 284030.08, 4156435.12 ], [ 284046.96, 4156437.23 ], [ 284047.87, 4156437.71 ], [ 284049.77, 4156439.86 ], [ 284050.13, 4156440.82 ], [ 284050.13, 4156443.03 ], [ 284049.71, 4156444.05 ], [ 284047.55, 4156446.2 ], [ 284046.53, 4156446.63 ], [ 284043.47, 4156446.63 ], [ 284040.56, 4156448.9 ], [ 284038.82, 4156455.87 ], [ 284038.3, 4156456.66 ], [ 284036.18, 4156458.32 ], [ 284035.29, 4156458.63 ], [ 284028.36, 4156458.63 ], [ 284020.84, 4156461.55 ], [ 284016.63, 4156461.2 ], [ 284016.55, 4156462.25 ], [ 284017.57, 4156463.78 ], [ 284028.21, 4156462.64 ], [ 284028.23, 4156462.63 ], [ 284043.9, 4156461.12 ], [ 284053.49, 4156459.96 ], [ 284063.77, 4156458.72 ], [ 284076.83, 4156456.5 ], [ 284079.08, 4156456.1 ], [ 284079.09, 4156456.1 ], [ 284087.7, 4156454.59 ], [ 284096.13, 4156451.61 ], [ 284107.84, 4156446.06 ], [ 284111.2, 4156444.05 ], [ 284118.44, 4156439.73 ], [ 284127.64, 4156433.0 ], [ 284132.91, 4156427.6 ], [ 284137.28, 4156423.13 ], [ 284145.86, 4156412.23 ], [ 284153.55, 4156397.94 ], [ 284156.32, 4156391.44 ], [ 284153.22, 4156394.54 ], [ 284152.74, 4156394.86 ], [ 284151.16, 4156395.51 ], [ 284150.59, 4156395.63 ], [ 284146.73, 4156395.63 ], [ 284145.71, 4156395.2 ], [ 284143.55, 4156393.05 ], [ 284143.13, 4156392.03 ], [ 284143.13, 4156384.22 ], [ 284143.55, 4156383.2 ], [ 284145.71, 4156381.05 ], [ 284146.73, 4156380.63 ], [ 284154.53, 4156380.63 ], [ 284155.55, 4156381.05 ], [ 284157.71, 4156383.2 ], [ 284158.13, 4156384.22 ], [ 284158.13, 4156387.19 ], [ 284159.17, 4156384.75 ], [ 284160.62, 4156379.64 ], [ 284163.37, 4156370.03 ], [ 284167.23, 4156353.2 ], [ 284167.28, 4156353.04 ], [ 284167.33, 4156352.89 ], [ 284168.72, 4156349.67 ], [ 284173.6, 4156338.33 ], [ 284173.67, 4156338.18 ], [ 284173.76, 4156338.03 ], [ 284178.53, 4156330.93 ], [ 284180.94, 4156327.33 ], [ 284181.06, 4156327.17 ], [ 284189.43, 4156317.27 ], [ 284189.58, 4156317.12 ], [ 284210.07, 4156298.04 ], [ 284210.09, 4156298.02 ], [ 284238.47, 4156272.37 ], [ 284250.0, 4156261.78 ], [ 284250.0, 4156250.39 ], [ 284247.63, 4156252.72 ], [ 284237.3, 4156261.92 ], [ 284237.72, 4156262.61 ], [ 284238.57, 4156263.06 ], [ 284240.27, 4156264.76 ], [ 284240.68, 4156265.56 ], [ 284241.09, 4156268.09 ], [ 284240.95, 4156268.98 ], [ 284240.15, 4156270.59 ], [ 284239.6, 4156271.19 ], [ 284237.63, 4156272.41 ], [ 284236.86, 4156272.63 ], [ 284236.73, 4156272.63 ], [ 284235.71, 4156272.2 ], [ 284233.55, 4156270.05 ], [ 284233.13, 4156269.03 ], [ 284233.13, 4156266.63 ], [ 284232.61, 4156266.1 ], [ 284201.01, 4156294.25 ], [ 284195.81, 4156300.64 ], [ 284184.4, 4156308.82 ], [ 284193.09, 4156285.18 ], [ 284202.66, 4156268.48 ], [ 284209.81, 4156259.76 ], [ 284211.87, 4156252.56 ], [ 284212.01, 4156252.21 ], [ 284212.58, 4156251.24 ], [ 284212.82, 4156250.94 ], [ 284213.76, 4156250.0 ], [ 284132.95, 4156250.0 ], [ 284124.15, 4156260.14 ], [ 284123.81, 4156260.49 ], [ 284123.44, 4156260.81 ], [ 284123.04, 4156261.09 ], [ 284122.61, 4156261.33 ], [ 284122.16, 4156261.53 ], [ 284121.7, 4156261.68 ], [ 284121.22, 4156261.79 ], [ 284121.14, 4156261.8 ], [ 284121.09, 4156262.0 ], [ 284120.91, 4156262.46 ], [ 284120.68, 4156262.9 ], [ 284120.42, 4156263.31 ], [ 284120.12, 4156263.7 ], [ 284115.52, 4156268.98 ], [ 284115.18, 4156269.33 ], [ 284114.81, 4156269.65 ], [ 284114.41, 4156269.93 ], [ 284113.98, 4156270.17 ], [ 284113.54, 4156270.37 ], [ 284113.07, 4156270.52 ], [ 284112.59, 4156270.63 ], [ 284112.11, 4156270.69 ], [ 284111.62, 4156270.7 ], [ 284111.13, 4156270.66 ], [ 284110.65, 4156270.58 ], [ 284110.18, 4156270.45 ], [ 284109.72, 4156270.27 ], [ 284109.28, 4156270.05 ], [ 284108.87, 4156269.79 ], [ 284108.49, 4156269.49 ], [ 284105.16, 4156266.63 ], [ 284101.73, 4156266.63 ], [ 284100.71, 4156266.2 ], [ 284098.55, 4156264.05 ], [ 284098.13, 4156263.03 ], [ 284098.13, 4156261.22 ], [ 284098.55, 4156260.2 ], [ 284100.71, 4156258.05 ], [ 284101.3, 4156257.8 ], [ 284101.5, 4156257.49 ], [ 284101.81, 4156257.1 ], [ 284106.4, 4156251.82 ], [ 284106.74, 4156251.47 ], [ 284107.11, 4156251.15 ], [ 284107.51, 4156250.87 ], [ 284107.94, 4156250.63 ], [ 284108.39, 4156250.43 ], [ 284108.85, 4156250.28 ], [ 284108.98, 4156250.25 ], [ 284109.0, 4156250.16 ], [ 284109.04, 4156250.0 ], [ 284090.65, 4156250.0 ], [ 284065.03, 4156287.84 ], [ 284064.94, 4156287.98 ], [ 284055.26, 4156300.71 ], [ 284055.07, 4156300.95 ], [ 284054.84, 4156301.16 ], [ 284047.19, 4156307.86 ], [ 284046.88, 4156308.1 ], [ 284037.9, 4156314.12 ], [ 284037.7, 4156314.24 ], [ 284037.49, 4156314.35 ], [ 284029.18, 4156318.23 ], [ 284028.88, 4156318.35 ], [ 284028.58, 4156318.43 ], [ 284019.97, 4156320.43 ], [ 284019.55, 4156320.5 ], [ 284008.55, 4156321.49 ], [ 284008.13, 4156321.5 ], [ 284000.0, 4156321.11 ], [ 284000.0, 4156412.15 ], [ 284001.16, 4156413.63 ], [ 284003.59, 4156413.63 ] ], [ [ 284180.63, 4156323.41 ], [ 284180.37, 4156323.48 ], [ 284179.55, 4156323.08 ], [ 284177.49, 4156320.44 ], [ 284177.23, 4156319.23 ], [ 284178.44, 4156314.38 ], [ 284178.96, 4156313.59 ], [ 284181.08, 4156311.93 ], [ 284181.98, 4156311.63 ], [ 284182.5, 4156311.63 ], [ 284183.69, 4156312.29 ], [ 284185.55, 4156315.3 ], [ 284185.61, 4156316.66 ], [ 284183.15, 4156321.59 ], [ 284182.6, 4156322.19 ], [ 284180.63, 4156323.41 ] ], [ [ 284131.94, 4156371.27 ], [ 284130.99, 4156371.63 ], [ 284128.73, 4156371.63 ], [ 284127.71, 4156371.2 ], [ 284125.55, 4156369.05 ], [ 284125.13, 4156368.03 ], [ 284125.13, 4156354.22 ], [ 284125.55, 4156353.2 ], [ 284127.71, 4156351.05 ], [ 284128.73, 4156350.63 ], [ 284133.02, 4156350.63 ], [ 284134.1, 4156351.12 ], [ 284136.21, 4156353.56 ], [ 284136.55, 4156354.7 ], [ 284134.58, 4156368.51 ], [ 284134.09, 4156369.4 ], [ 284131.94, 4156371.27 ] ], [ [ 284104.24, 4156403.61 ], [ 284104.15, 4156404.0 ], [ 284103.71, 4156405.09 ], [ 284103.52, 4156405.44 ], [ 284096.24, 4156415.15 ], [ 284095.72, 4156415.58 ], [ 284093.94, 4156416.47 ], [ 284093.28, 4156416.63 ], [ 284092.13, 4156416.63 ], [ 284089.57, 4156419.19 ], [ 284089.31, 4156419.1 ], [ 284088.79, 4156420.53 ], [ 284087.01, 4156422.67 ], [ 284086.15, 4156423.17 ], [ 284076.84, 4156424.86 ], [ 284070.18, 4156428.77 ], [ 284062.28, 4156428.98 ], [ 284054.38, 4156428.85 ], [ 284041.37, 4156421.66 ], [ 284058.23, 4156399.59 ], [ 284072.06, 4156387.44 ], [ 284080.2, 4156383.95 ], [ 284094.54, 4156380.69 ], [ 284094.03, 4156378.14 ], [ 284094.17, 4156377.18 ], [ 284095.19, 4156375.23 ], [ 284096.7, 4156374.57 ], [ 284097.85, 4156374.89 ], [ 284098.68, 4156374.81 ], [ 284103.86, 4156376.53 ], [ 284104.03, 4156376.45 ], [ 284104.07, 4156376.61 ], [ 284104.34, 4156376.7 ], [ 284105.11, 4156377.29 ], [ 284106.59, 4156379.6 ], [ 284106.81, 4156380.55 ], [ 284104.24, 4156403.61 ] ], [ [ 284078.97, 4156450.19 ], [ 284078.49, 4156450.72 ], [ 284072.07, 4156455.0 ], [ 284071.68, 4156455.19 ], [ 284070.43, 4156455.56 ], [ 284070.0, 4156455.63 ], [ 284063.46, 4156455.63 ], [ 284062.36, 4156455.1 ], [ 284060.28, 4156452.56 ], [ 284059.98, 4156451.38 ], [ 284061.45, 4156444.05 ], [ 284062.04, 4156443.14 ], [ 284064.52, 4156441.44 ], [ 284065.57, 4156441.2 ], [ 284077.1, 4156443.12 ], [ 284077.97, 4156443.61 ], [ 284079.79, 4156445.76 ], [ 284080.13, 4156446.7 ], [ 284080.13, 4156447.65 ], [ 284079.96, 4156448.35 ], [ 284078.97, 4156450.19 ] ], [ [ 284063.5, 4156361.08 ], [ 284062.3, 4156360.68 ], [ 284061.49, 4156360.01 ], [ 284060.08, 4156357.43 ], [ 284059.94, 4156356.38 ], [ 284061.44, 4156350.38 ], [ 284061.96, 4156349.59 ], [ 284064.08, 4156347.93 ], [ 284064.73, 4156347.71 ], [ 284065.55, 4156348.05 ], [ 284067.71, 4156350.2 ], [ 284068.13, 4156351.22 ], [ 284068.13, 4156357.74 ], [ 284067.54, 4156358.89 ], [ 284064.77, 4156360.89 ], [ 284063.5, 4156361.08 ] ], [ [ 284046.18, 4156394.94 ], [ 284044.13, 4156397.79 ], [ 284044.13, 4156400.2 ], [ 284043.6, 4156401.31 ], [ 284041.01, 4156403.39 ], [ 284039.81, 4156403.67 ], [ 284019.98, 4156399.26 ], [ 284019.16, 4156398.75 ], [ 284017.45, 4156396.62 ], [ 284017.13, 4156395.71 ], [ 284017.13, 4156390.22 ], [ 284017.55, 4156389.2 ], [ 284019.71, 4156387.05 ], [ 284020.73, 4156386.63 ], [ 284038.97, 4156386.63 ], [ 284041.81, 4156384.57 ], [ 284043.3, 4156380.12 ], [ 284043.83, 4156379.4 ], [ 284045.91, 4156377.9 ], [ 284046.77, 4156377.63 ], [ 284049.53, 4156377.63 ], [ 284050.55, 4156378.05 ], [ 284052.71, 4156380.2 ], [ 284053.13, 4156381.22 ], [ 284053.13, 4156389.99 ], [ 284052.86, 4156390.85 ], [ 284051.36, 4156392.93 ], [ 284050.63, 4156393.46 ], [ 284046.18, 4156394.94 ] ], [ [ 284005.68, 4156356.21 ], [ 284005.13, 4156355.09 ], [ 284005.13, 4156350.26 ], [ 284005.41, 4156349.4 ], [ 284006.91, 4156347.32 ], [ 284007.63, 4156346.79 ], [ 284010.46, 4156345.85 ], [ 284011.61, 4156345.95 ], [ 284014.37, 4156347.47 ], [ 284015.07, 4156348.38 ], [ 284016.26, 4156353.14 ], [ 284016.1, 4156354.23 ], [ 284014.53, 4156356.84 ], [ 284013.64, 4156357.5 ], [ 284009.53, 4156358.53 ], [ 284008.31, 4156358.27 ], [ 284005.68, 4156356.21 ] ] ], [ [ [ 284193.5, 4156359.97 ], [ 284193.87, 4156359.04 ], [ 284194.7, 4156357.22 ], [ 284197.5, 4156351.91 ], [ 284198.74, 4156349.52 ], [ 284201.32, 4156344.8 ], [ 284201.67, 4156344.37 ], [ 284202.59, 4156343.7 ], [ 284203.02, 4156343.32 ], [ 284203.13, 4156343.18 ], [ 284203.13, 4156339.22 ], [ 284203.55, 4156338.2 ], [ 284203.84, 4156337.92 ], [ 284203.91, 4156337.55 ], [ 284204.11, 4156336.98 ], [ 284204.57, 4156336.16 ], [ 284205.33, 4156335.31 ], [ 284205.88, 4156334.84 ], [ 284207.07, 4156334.0 ], [ 284208.14, 4156333.32 ], [ 284208.72, 4156333.13 ], [ 284210.15, 4156332.95 ], [ 284217.97, 4156314.83 ], [ 284217.99, 4156314.78 ], [ 284218.02, 4156314.74 ], [ 284218.05, 4156314.7 ], [ 284218.09, 4156314.66 ], [ 284218.13, 4156314.63 ], [ 284250.0, 4156290.99 ], [ 284250.0, 4156266.67 ], [ 284240.9, 4156275.03 ], [ 284240.89, 4156275.04 ], [ 284212.52, 4156300.68 ], [ 284192.11, 4156319.68 ], [ 284183.88, 4156329.42 ], [ 284181.52, 4156332.93 ], [ 284176.84, 4156339.9 ], [ 284172.03, 4156351.09 ], [ 284170.71, 4156354.16 ], [ 284166.86, 4156370.89 ], [ 284166.84, 4156370.98 ], [ 284164.09, 4156380.63 ], [ 284162.6, 4156385.84 ], [ 284162.53, 4156386.06 ], [ 284156.83, 4156399.43 ], [ 284156.75, 4156399.58 ], [ 284148.95, 4156414.07 ], [ 284148.87, 4156414.21 ], [ 284148.78, 4156414.33 ], [ 284140.05, 4156425.43 ], [ 284139.92, 4156425.57 ], [ 284135.49, 4156430.12 ], [ 284130.11, 4156435.62 ], [ 284130.0, 4156435.73 ], [ 284129.88, 4156435.82 ], [ 284120.49, 4156442.68 ], [ 284120.36, 4156442.77 ], [ 284113.05, 4156447.14 ], [ 284109.61, 4156449.19 ], [ 284109.46, 4156449.27 ], [ 284097.58, 4156454.9 ], [ 284097.41, 4156454.97 ], [ 284088.76, 4156458.03 ], [ 284088.61, 4156458.07 ], [ 284088.47, 4156458.11 ], [ 284079.71, 4156459.64 ], [ 284077.45, 4156460.05 ], [ 284077.44, 4156460.05 ], [ 284064.33, 4156462.28 ], [ 284064.25, 4156462.29 ], [ 284053.93, 4156463.53 ], [ 284044.31, 4156464.69 ], [ 284044.26, 4156464.7 ], [ 284028.59, 4156466.22 ], [ 284019.82, 4156467.16 ], [ 284031.17, 4156484.19 ], [ 284032.22, 4156484.71 ], [ 284032.66, 4156484.65 ], [ 284037.8, 4156483.86 ], [ 284043.54, 4156483.64 ], [ 284046.4, 4156484.05 ], [ 284049.56, 4156484.54 ], [ 284051.95, 4156484.39 ], [ 284053.73, 4156483.6 ], [ 284054.41, 4156483.73 ], [ 284114.82, 4156462.77 ], [ 284172.39, 4156415.14 ], [ 284172.57, 4156414.84 ], [ 284173.71, 4156412.74 ], [ 284175.87, 4156408.45 ], [ 284178.99, 4156402.05 ], [ 284180.49, 4156398.84 ], [ 284182.64, 4156393.97 ], [ 284184.58, 4156389.02 ], [ 284185.46, 4156386.5 ], [ 284186.03, 4156384.58 ], [ 284186.62, 4156382.22 ], [ 284188.03, 4156372.31 ], [ 284188.1, 4156372.04 ], [ 284188.36, 4156371.27 ], [ 284188.47, 4156371.02 ], [ 284191.97, 4156364.71 ], [ 284192.42, 4156363.23 ], [ 284193.5, 4156359.97 ] ] ] ] } },
{ "type": "Feature", "properties": { "id": "imagery:groundcover_lawn:2838", "name": null, "kind": "groundcover_lawn", "sport": null, "surface": null, "pitch_layout": null, "source": "vgin_vbmp+naip+lidar2025", "source_updated": null, "base_z": null, "top_z": null }, "geometry": { "type": "Polygon", "coordinates": [ [ [ 284014.7, 4156357.35 ], [ 284016.46, 4156350.32 ], [ 284014.5, 4156346.75 ], [ 284011.36, 4156345.7 ], [ 284007.46, 4156347.96 ], [ 284005.85, 4156356.04 ], [ 284008.79, 4156359.63 ], [ 284011.79, 4156359.63 ], [ 284014.7, 4156357.35 ] ] ] } },
{ "type": "Feature", "properties": { "id": "imagery:groundcover_lawn:2837", "name": null, "kind": "groundcover_lawn", "sport": null, "surface": null, "pitch_layout": null, "source": "vgin_vbmp+naip+lidar2025", "source_updated": null, "base_z": null, "top_z": null }, "geometry": { "type": "Polygon", "coordinates": [ [ [ 284068.13, 4156359.63 ], [ 284068.13, 4156350.63 ], [ 284065.13, 4156347.63 ], [ 284064.59, 4156347.63 ], [ 284061.65, 4156350.04 ], [ 284059.85, 4156359.04 ], [ 284062.79, 4156362.63 ], [ 284065.13, 4156362.63 ], [ 284068.13, 4156359.63 ] ] ] } },
{ "type": "Feature", "properties": { "id": "osm:way/823768834", "name": null, "kind": "forest", "sport": null, "surface": null, "pitch_layout": null, "source": null, "source_updated": null, "base_z": null, "top_z": null }, "geometry": { "type": "Polygon", "coordinates": [ [ [ 284011.78, 4156460.81 ], [ 284020.84, 4156461.55 ], [ 284028.5, 4156458.57 ], [ 284033.63, 4156453.52 ], [ 284034.68, 4156449.07 ], [ 284030.87, 4156435.57 ], [ 284015.17, 4156426.64 ], [ 284005.43, 4156419.03 ], [ 284000.0, 4156412.15 ], [ 284000.0, 4156441.26 ], [ 284001.63, 4156444.19 ], [ 284011.78, 4156460.81 ] ] ] } },
{ "type": "Feature", "properties": { "id": "imagery:groundcover_lawn:2832", "name": null, "kind": "groundcover_lawn", "sport": null, "surface": null, "pitch_layout": null, "source": "vgin_vbmp+naip+lidar2025", "source_updated": null, "base_z": null, "top_z": null }, "geometry": { "type": "Polygon", "coordinates": [ [ [ 284020.13, 4156398.63 ], [ 284023.86, 4156398.63 ], [ 284024.63, 4156398.85 ], [ 284026.6, 4156400.06 ], [ 284027.15, 4156400.66 ], [ 284028.3, 4156402.97 ], [ 284030.99, 4156404.63 ], [ 284041.13, 4156404.63 ], [ 284044.13, 4156401.63 ], [ 284044.13, 4156398.26 ], [ 284044.41, 4156397.4 ], [ 284045.91, 4156395.32 ], [ 284046.63, 4156394.79 ], [ 284051.08, 4156393.31 ], [ 284053.13, 4156390.46 ], [ 284053.13, 4156380.63 ], [ 284050.13, 4156377.63 ], [ 284046.29, 4156377.63 ], [ 284043.45, 4156379.68 ], [ 284041.96, 4156384.13 ], [ 284041.43, 4156384.85 ], [ 284039.35, 4156386.35 ], [ 284038.5, 4156386.63 ], [ 284020.13, 4156386.63 ], [ 284017.13, 4156389.63 ], [ 284017.13, 4156395.63 ], [ 284020.13, 4156398.63 ] ] ] } },
{ "type": "Feature", "properties": { "id": "imagery:groundcover_lawn:2822", "name": null, "kind": "groundcover_lawn", "sport": null, "surface": null, "pitch_layout": null, "source": "vgin_vbmp+naip+lidar2025", "source_updated": null, "base_z": null, "top_z": null }, "geometry": { "type": "Polygon", "coordinates": [ [ [ 284038.44, 4156451.57 ], [ 284040.09, 4156449.45 ], [ 284040.89, 4156448.94 ], [ 284047.86, 4156447.19 ], [ 284050.13, 4156444.28 ], [ 284050.13, 4156440.27 ], [ 284047.5, 4156437.3 ], [ 284030.08, 4156435.12 ], [ 284030.87, 4156435.57 ], [ 284034.68, 4156449.07 ], [ 284033.63, 4156453.52 ], [ 284028.5, 4156458.57 ], [ 284028.36, 4156458.63 ], [ 284035.13, 4156458.63 ], [ 284038.13, 4156455.63 ], [ 284038.13, 4156452.47 ], [ 284038.44, 4156451.57 ] ] ] } },
{ "type": "Feature", "properties": { "id": "imagery:groundcover_lawn:2814", "name": null, "kind": "groundcover_lawn", "sport": null, "surface": null, "pitch_layout": null, "source": "vgin_vbmp+naip+lidar2025", "source_updated": null, "base_z": null, "top_z": null }, "geometry": { "type": "Polygon", "coordinates": [ [ [ 284071.89, 4156455.12 ], [ 284078.8, 4156450.52 ], [ 284080.13, 4156448.02 ], [ 284080.13, 4156446.17 ], [ 284077.62, 4156443.21 ], [ 284065.0, 4156441.1 ], [ 284061.56, 4156443.47 ], [ 284059.85, 4156452.04 ], [ 284062.79, 4156455.63 ], [ 284070.22, 4156455.63 ], [ 284071.89, 4156455.12 ] ] ] } },
{ "type": "Feature", "properties": { "id": "osm:way/823768835", "name": null, "kind": "forest", "sport": null, "surface": null, "pitch_layout": null, "source": null, "source_updated": null, "base_z": null, "top_z": null }, "geometry": { "type": "Polygon", "coordinates": [ [ [ 284193.09, 4156285.18 ], [ 284184.4, 4156308.82 ], [ 284195.81, 4156300.64 ], [ 284201.01, 4156294.25 ], [ 284247.63, 4156252.72 ], [ 284250.0, 4156250.39 ], [ 284250.0, 4156250.0 ], [ 284217.81, 4156250.0 ], [ 284202.66, 4156268.48 ], [ 284193.09, 4156285.18 ] ] ] } },
{ "type": "Feature", "properties": { "id": "imagery:groundcover_lawn:2875", "name": null, "kind": "groundcover_lawn", "sport": null, "surface": null, "pitch_layout": null, "source": "vgin_vbmp+naip+lidar2025", "source_updated": null, "base_z": null, "top_z": null }, "geometry": { "type": "Polygon", "coordinates": [ [ [ 284046.64, 4156269.1 ], [ 284047.05, 4156268.34 ], [ 284048.85, 4156266.6 ], [ 284049.62, 4156266.21 ], [ 284062.62, 4156264.04 ], [ 284064.64, 4156261.66 ], [ 284064.9, 4156261.77 ], [ 284065.55, 4156260.2 ], [ 284067.71, 4156258.05 ], [ 284069.28, 4156257.4 ], [ 284071.13, 4156254.63 ], [ 284071.13, 4156253.6 ], [ 284071.31, 4156252.9 ], [ 284072.29, 4156251.06 ], [ 284072.78, 4156250.53 ], [ 284073.57, 4156250.0 ], [ 284041.39, 4156250.0 ], [ 284045.14, 4156252.84 ], [ 284045.27, 4156252.96 ], [ 284045.4, 4156253.08 ], [ 284045.51, 4156253.22 ], [ 284045.61, 4156253.37 ], [ 284045.69, 4156253.52 ], [ 284045.75, 4156253.69 ], [ 284045.8, 4156253.86 ], [ 284045.84, 4156254.03 ], [ 284045.85, 4156254.21 ], [ 284045.85, 4156254.38 ], [ 284045.83, 4156254.56 ], [ 284045.8, 4156254.73 ], [ 284045.74, 4156254.9 ], [ 284045.67, 4156255.06 ], [ 284045.59, 4156255.22 ], [ 284045.49, 4156255.36 ], [ 284031.66, 4156273.73 ], [ 284031.55, 4156273.86 ], [ 284031.43, 4156273.98 ], [ 284031.3, 4156274.09 ], [ 284031.16, 4156274.19 ], [ 284031.01, 4156274.27 ], [ 284030.85, 4156274.34 ], [ 284029.87, 4156274.7 ], [ 284029.77, 4156274.82 ], [ 284029.48, 4156275.1 ], [ 284028.52, 4156275.8 ], [ 284028.18, 4156275.98 ], [ 284026.69, 4156279.36 ], [ 284029.6, 4156281.63 ], [ 284041.67, 4156281.63 ], [ 284044.61, 4156279.21 ], [ 284046.64, 4156269.1 ] ] ] } },
{ "type": "Feature", "properties": { "id": "imagery:groundcover_bare:2836", "name": null, "kind": "groundcover_bare", "sport": null, "surface": null, "pitch_layout": null, "source": "vgin_vbmp+naip+lidar2025", "source_updated": null, "base_z": null, "top_z": null }, "geometry": { "type": "Polygon", "coordinates": [ [ [ 284128.13, 4156371.63 ], [ 284131.53, 4156371.63 ], [ 284134.5, 4156369.05 ], [ 284136.64, 4156354.05 ], [ 284133.67, 4156350.63 ], [ 284128.13, 4156350.63 ], [ 284125.13, 4156353.63 ], [ 284125.13, 4156368.63 ], [ 284128.13, 4156371.63 ] ] ] } },
{ "type": "Feature", "properties": { "id": "imagery:groundcover_lawn:2831", "name": null, "kind": "groundcover_lawn", "sport": null, "surface": null, "pitch_layout": null, "source": "vgin_vbmp+naip+lidar2025", "source_updated": null, "base_z": null, "top_z": null }, "geometry": { "type": "Polygon", "coordinates": [ [ [ 284150.89, 4156395.63 ], [ 284153.01, 4156394.75 ], [ 284156.32, 4156391.44 ], [ 284158.13, 4156387.19 ], [ 284158.13, 4156383.63 ], [ 284155.13, 4156380.63 ], [ 284146.13, 4156380.63 ], [ 284143.13, 4156383.63 ], [ 284143.13, 4156392.63 ], [ 284146.13, 4156395.63 ], [ 284150.89, 4156395.63 ] ] ] } },
{ "type": "Feature", "properties": { "id": "imagery:groundcover_lawn:2833", "name": null, "kind": "groundcover_lawn", "sport": null, "surface": null, "pitch_layout": null, "source": "vgin_vbmp+naip+lidar2025", "source_updated": null, "base_z": null, "top_z": null }, "geometry": { "type": "Polygon", "coordinates": [ [ [ 284106.99, 4156388.91 ], [ 284104.61, 4156377.04 ], [ 284104.07, 4156376.59 ], [ 284105.86, 4156383.6 ], [ 284103.24, 4156396.78 ], [ 284084.29, 4156419.04 ], [ 284099.95, 4156411.22 ], [ 284101.49, 4156409.36 ], [ 284106.93, 4156390.32 ], [ 284106.99, 4156388.91 ] ] ] } },
{ "type": "Feature", "properties": { "id": "osm:way/823768833", "name": null, "kind": "forest", "sport": null, "surface": null, "pitch_layout": null, "source": null, "source_updated": null, "base_z": null, "top_z": null }, "geometry": { "type": "Polygon", "coordinates": [ [ [ 284080.2, 4156383.95 ], [ 284072.06, 4156387.44 ], [ 284058.23, 4156399.59 ], [ 284041.37, 4156421.66 ], [ 284054.38, 4156428.85 ], [ 284062.28, 4156428.98 ], [ 284070.18, 4156428.77 ], [ 284081.85, 4156421.92 ], [ 284103.24, 4156396.78 ], [ 284105.86, 4156383.6 ], [ 284104.03, 4156376.45 ], [ 284096.56, 4156380.24 ], [ 284080.2, 4156383.95 ] ] ] } }
]
}
