{
"type": "FeatureCollection",
"name": "landuse",
"crs": { "type": "name", "properties": { "name": "urn:ogc:def:crs:EPSG::32618" } },
"xy_coordinate_resolution": 0.01,
"features": [
{ "type": "Feature", "properties": { "id": "imagery:groundcover_paved:2792", "name": null, "kind": "groundcover_paved", "sport": null, "surface": null, "pitch_layout": null, "source": "vgin_vbmp+naip+lidar2025", "source_updated": null, "base_z": null, "top_z": null }, "geometry": { "type": "MultiPolygon", "coordinates": [ [ [ [ 282020.96, 4160255.91 ], [ 282020.7, 4160255.48 ], [ 282020.48, 4160255.02 ], [ 282020.31, 4160254.54 ], [ 282020.19, 4160254.05 ], [ 282020.12, 4160253.55 ], [ 282020.11, 4160253.33 ], [ 282000.0, 4160269.19 ], [ 282000.0, 4160273.82 ], [ 282021.6, 4160256.72 ], [ 282021.26, 4160256.32 ], [ 282020.96, 4160255.91 ] ] ], [ [ [ 282097.43, 4160262.09 ], [ 282097.45, 4160262.59 ], [ 282097.42, 4160263.09 ], [ 282097.33, 4160263.58 ], [ 282093.09, 4160282.81 ], [ 282092.97, 4160283.27 ], [ 282092.8, 4160283.72 ], [ 282092.58, 4160284.15 ], [ 282092.33, 4160284.56 ], [ 282092.04, 4160284.94 ], [ 282091.71, 4160285.3 ], [ 282091.35, 4160285.62 ], [ 282086.8, 4160289.3 ], [ 282086.99, 4160289.51 ], [ 282090.6, 4160293.9 ], [ 282090.9, 4160294.29 ], [ 282091.15, 4160294.71 ], [ 282091.36, 4160295.16 ], [ 282091.53, 4160295.62 ], [ 282091.65, 4160296.1 ], [ 282091.72, 4160296.58 ], [ 282091.74, 4160297.07 ], [ 282091.72, 4160297.56 ], [ 282091.65, 4160298.05 ], [ 282091.53, 4160298.52 ], [ 282091.37, 4160298.99 ], [ 282091.16, 4160299.43 ], [ 282090.91, 4160299.85 ], [ 282090.61, 4160300.24 ], [ 282090.28, 4160300.61 ], [ 282089.92, 4160300.94 ], [ 282087.05, 4160303.3 ], [ 282090.47, 4160303.39 ], [ 282094.89, 4160301.82 ], [ 282099.3, 4160297.74 ], [ 282101.4, 4160294.33 ], [ 282101.63, 4160288.2 ], [ 282099.01, 4160258.28 ], [ 282098.77, 4160258.55 ], [ 282098.41, 4160258.87 ], [ 282097.22, 4160259.82 ], [ 282096.83, 4160260.1 ], [ 282096.88, 4160260.18 ], [ 282097.09, 4160260.63 ], [ 282097.25, 4160261.11 ], [ 282097.37, 4160261.59 ], [ 282097.43, 4160262.09 ] ] ], [ [ [ 282138.71, 4160316.2 ], [ 282139.13, 4160317.22 ], [ 282139.13, 4160340.03 ], [ 282138.71, 4160341.05 ], [ 282136.55, 4160343.2 ], [ 282135.53, 4160343.63 ], [ 282131.99, 4160343.63 ], [ 282129.3, 4160345.28 ], [ 282127.69, 4160348.51 ], [ 282127.53, 4160350.72 ], [ 282138.84, 4160365.16 ], [ 282140.99, 4160366.77 ], [ 282141.36, 4160367.17 ], [ 282142.21, 4160368.52 ], [ 282142.41, 4160369.02 ], [ 282142.6, 4160369.95 ], [ 282146.89, 4160375.44 ], [ 282147.18, 4160375.84 ], [ 282147.42, 4160376.27 ], [ 282147.62, 4160376.73 ], [ 282147.78, 4160377.2 ], [ 282147.89, 4160377.68 ], [ 282147.95, 4160378.17 ], [ 282147.96, 4160378.66 ], [ 282147.92, 4160379.16 ], [ 282147.83, 4160379.64 ], [ 282147.7, 4160380.12 ], [ 282147.52, 4160380.58 ], [ 282147.29, 4160381.02 ], [ 282147.02, 4160381.44 ], [ 282146.72, 4160381.82 ], [ 282146.37, 4160382.18 ], [ 282145.99, 4160382.5 ], [ 282145.9, 4160382.57 ], [ 282146.44, 4160383.28 ], [ 282149.36, 4160384.74 ], [ 282149.91, 4160385.21 ], [ 282151.12, 4160386.92 ], [ 282151.38, 4160387.59 ], [ 282153.63, 4160405.61 ], [ 282153.59, 4160405.74 ], [ 282156.46, 4160409.63 ], [ 282156.53, 4160409.63 ], [ 282157.55, 4160410.05 ], [ 282159.22, 4160411.72 ], [ 282158.29, 4160409.03 ], [ 282158.24, 4160408.84 ], [ 282148.66, 4160363.92 ], [ 282148.65, 4160363.85 ], [ 282146.14, 4160348.39 ], [ 282146.13, 4160348.33 ], [ 282144.32, 4160333.88 ], [ 282144.31, 4160333.75 ], [ 282143.88, 4160322.96 ], [ 282143.88, 4160322.88 ], [ 282144.05, 4160312.52 ], [ 282144.07, 4160312.33 ], [ 282145.66, 4160300.81 ], [ 282145.69, 4160300.66 ], [ 282148.35, 4160289.71 ], [ 282150.92, 4160279.04 ], [ 282153.76, 4160267.18 ], [ 282153.76, 4160267.15 ], [ 282155.87, 4160259.0 ], [ 282154.48, 4160256.09 ], [ 282154.39, 4160256.27 ], [ 282145.38, 4160250.0 ], [ 282144.87, 4160250.0 ], [ 282145.13, 4160250.7 ], [ 282145.13, 4160254.77 ], [ 282146.79, 4160257.45 ], [ 282149.1, 4160258.61 ], [ 282149.69, 4160259.15 ], [ 282150.91, 4160261.12 ], [ 282151.13, 4160261.9 ], [ 282151.13, 4160268.78 ], [ 282150.82, 4160269.68 ], [ 282149.17, 4160271.8 ], [ 282148.37, 4160272.32 ], [ 282141.62, 4160274.0 ], [ 282139.36, 4160277.18 ], [ 282141.73, 4160303.16 ], [ 282141.29, 4160304.32 ], [ 282138.87, 4160306.62 ], [ 282137.69, 4160306.99 ], [ 282123.38, 4160304.95 ], [ 282122.65, 4160304.62 ], [ 282120.87, 4160303.13 ], [ 282120.41, 4160302.47 ], [ 282119.41, 4160299.46 ], [ 282119.53, 4160298.29 ], [ 282121.14, 4160295.52 ], [ 282122.1, 4160294.83 ], [ 282130.35, 4160293.18 ], [ 282132.73, 4160289.82 ], [ 282127.5, 4160253.2 ], [ 282124.53, 4160250.63 ], [ 282120.94, 4160250.63 ], [ 282117.94, 4160253.43 ], [ 282115.36, 4160292.26 ], [ 282114.9, 4160293.22 ], [ 282112.74, 4160295.24 ], [ 282112.06, 4160295.51 ], [ 282111.4, 4160295.26 ], [ 282109.25, 4160293.33 ], [ 282108.77, 4160292.41 ], [ 282106.15, 4160268.83 ], [ 282106.15, 4160268.75 ], [ 282106.13, 4160268.5 ], [ 282106.13, 4160268.42 ], [ 282106.13, 4160250.0 ], [ 282105.5, 4160250.0 ], [ 282104.99, 4160256.61 ], [ 282107.72, 4160287.86 ], [ 282107.73, 4160288.24 ], [ 282107.46, 4160295.36 ], [ 282107.43, 4160295.67 ], [ 282107.37, 4160295.97 ], [ 282107.28, 4160296.27 ], [ 282107.16, 4160296.56 ], [ 282107.01, 4160296.83 ], [ 282104.29, 4160301.29 ], [ 282104.13, 4160301.52 ], [ 282103.95, 4160301.74 ], [ 282103.75, 4160301.94 ], [ 282099.61, 4160305.76 ], [ 282101.41, 4160304.8 ], [ 282102.11, 4160304.63 ], [ 282109.15, 4160304.63 ], [ 282110.07, 4160304.96 ], [ 282112.21, 4160306.71 ], [ 282112.72, 4160307.55 ], [ 282114.65, 4160317.21 ], [ 282117.59, 4160319.63 ], [ 282127.13, 4160319.63 ], [ 282129.9, 4160317.77 ], [ 282130.55, 4160316.2 ], [ 282132.71, 4160314.05 ], [ 282133.73, 4160313.63 ], [ 282135.53, 4160313.63 ], [ 282136.55, 4160314.05 ], [ 282138.71, 4160316.2 ] ] ], [ [ [ 282177.76, 4160371.86 ], [ 282177.87, 4160371.99 ], [ 282180.1, 4160374.71 ], [ 282180.22, 4160374.88 ], [ 282180.32, 4160375.06 ], [ 282181.94, 4160378.33 ], [ 282183.76, 4160376.29 ], [ 282181.31, 4160354.25 ], [ 282179.67, 4160351.9 ], [ 282171.16, 4160347.64 ], [ 282171.15, 4160347.63 ], [ 282170.05, 4160348.12 ], [ 282170.71, 4160349.73 ], [ 282172.92, 4160354.57 ], [ 282172.98, 4160354.72 ], [ 282174.6, 4160359.34 ], [ 282174.66, 4160359.55 ], [ 282175.64, 4160364.02 ], [ 282175.65, 4160364.1 ], [ 282176.3, 4160367.75 ], [ 282176.32, 4160367.95 ], [ 282176.32, 4160368.15 ], [ 282176.2, 4160370.88 ], [ 282177.38, 4160371.57 ], [ 282177.52, 4160371.65 ], [ 282177.64, 4160371.75 ], [ 282177.76, 4160371.86 ] ] ], [ [ [ 282135.1, 4160397.37 ], [ 282131.73, 4160396.53 ], [ 282131.64, 4160396.59 ], [ 282131.19, 4160396.82 ], [ 282130.72, 4160397.0 ], [ 282130.23, 4160397.14 ], [ 282129.73, 4160397.23 ], [ 282129.23, 4160397.27 ], [ 282128.73, 4160397.25 ], [ 282128.23, 4160397.19 ], [ 282127.73, 4160397.07 ], [ 282127.26, 4160396.91 ], [ 282126.8, 4160396.7 ], [ 282126.36, 4160396.44 ], [ 282125.96, 4160396.15 ], [ 282125.58, 4160395.81 ], [ 282125.24, 4160395.43 ], [ 282125.04, 4160395.19 ], [ 282087.34, 4160425.06 ], [ 282085.92, 4160422.07 ], [ 282085.68, 4160422.31 ], [ 282089.34, 4160429.52 ], [ 282089.5, 4160429.87 ], [ 282091.65, 4160428.16 ], [ 282128.61, 4160398.76 ], [ 282128.85, 4160398.59 ], [ 282129.11, 4160398.44 ], [ 282129.38, 4160398.31 ], [ 282129.66, 4160398.22 ], [ 282129.96, 4160398.15 ], [ 282130.25, 4160398.11 ], [ 282130.55, 4160398.1 ], [ 282130.85, 4160398.12 ], [ 282131.15, 4160398.17 ], [ 282131.43, 4160398.24 ], [ 282131.71, 4160398.35 ], [ 282131.98, 4160398.48 ], [ 282132.24, 4160398.64 ], [ 282132.48, 4160398.82 ], [ 282132.69, 4160399.03 ], [ 282132.89, 4160399.25 ], [ 282133.07, 4160399.49 ], [ 282133.22, 4160399.75 ], [ 282133.34, 4160400.02 ], [ 282133.44, 4160400.31 ], [ 282133.51, 4160400.6 ], [ 282133.54, 4160400.9 ], [ 282133.55, 4160401.2 ], [ 282133.54, 4160401.49 ], [ 282133.49, 4160401.79 ], [ 282133.41, 4160402.08 ], [ 282133.3, 4160402.36 ], [ 282133.17, 4160402.63 ], [ 282133.01, 4160402.88 ], [ 282132.83, 4160403.12 ], [ 282132.63, 4160403.34 ], [ 282132.4, 4160403.54 ], [ 282110.22, 4160421.19 ], [ 282110.68, 4160421.35 ], [ 282111.13, 4160421.56 ], [ 282111.56, 4160421.81 ], [ 282111.96, 4160422.11 ], [ 282112.33, 4160422.44 ], [ 282112.66, 4160422.81 ], [ 282119.1, 4160430.62 ], [ 282137.87, 4160415.3 ], [ 282138.27, 4160415.0 ], [ 282138.7, 4160414.75 ], [ 282139.16, 4160414.54 ], [ 282139.63, 4160414.37 ], [ 282140.12, 4160414.26 ], [ 282140.62, 4160414.19 ], [ 282141.12, 4160414.17 ], [ 282141.62, 4160414.21 ], [ 282142.11, 4160414.29 ], [ 282142.6, 4160414.43 ], [ 282143.07, 4160414.61 ], [ 282143.51, 4160414.83 ], [ 282143.93, 4160415.1 ], [ 282144.33, 4160415.42 ], [ 282144.69, 4160415.77 ], [ 282155.18, 4160427.03 ], [ 282155.99, 4160426.9 ], [ 282156.16, 4160426.56 ], [ 282155.6, 4160423.1 ], [ 282152.22, 4160419.71 ], [ 282151.9, 4160419.23 ], [ 282151.24, 4160417.66 ], [ 282151.13, 4160417.09 ], [ 282151.13, 4160412.63 ], [ 282148.13, 4160409.63 ], [ 282146.98, 4160409.63 ], [ 282146.32, 4160409.47 ], [ 282144.54, 4160408.58 ], [ 282144.02, 4160408.15 ], [ 282136.77, 4160398.48 ], [ 282135.1, 4160397.37 ] ] ], [ [ [ 282002.16, 4160424.01 ], [ 282004.12, 4160421.88 ], [ 282000.84, 4160418.04 ], [ 282000.73, 4160418.16 ], [ 282000.52, 4160418.38 ], [ 282000.3, 4160418.57 ], [ 282000.05, 4160418.74 ], [ 282000.0, 4160418.77 ], [ 282000.0, 4160424.97 ], [ 282000.12, 4160424.96 ], [ 282002.16, 4160424.01 ] ] ], [ [ [ 282079.63, 4160456.9 ], [ 282079.64, 4160456.91 ], [ 282096.28, 4160478.01 ], [ 282099.53, 4160475.33 ], [ 282083.91, 4160456.15 ], [ 282083.43, 4160455.73 ], [ 282083.04, 4160455.23 ], [ 282082.89, 4160454.9 ], [ 282079.21, 4160450.38 ], [ 282078.92, 4160449.98 ], [ 282078.67, 4160449.56 ], [ 282078.46, 4160449.12 ], [ 282078.3, 4160448.65 ], [ 282078.18, 4160448.17 ], [ 282078.11, 4160447.69 ], [ 282078.09, 4160447.2 ], [ 282078.11, 4160446.73 ], [ 282074.02, 4160449.98 ], [ 282079.63, 4160456.89 ], [ 282079.63, 4160456.9 ] ] ], [ [ [ 282157.56, 4160500.0 ], [ 282167.47, 4160500.0 ], [ 282163.52, 4160495.25 ], [ 282157.56, 4160500.0 ] ] ], [ [ [ 282200.54, 4160497.42 ], [ 282197.94, 4160492.41 ], [ 282187.45, 4160500.0 ], [ 282196.12, 4160500.0 ], [ 282200.59, 4160497.52 ], [ 282200.54, 4160497.42 ] ] ], [ [ [ 282157.75, 4160488.31 ], [ 282152.73, 4160492.63 ], [ 282152.35, 4160492.92 ], [ 282151.95, 4160493.18 ], [ 282151.52, 4160493.39 ], [ 282151.18, 4160493.53 ], [ 282149.7, 4160494.78 ], [ 282149.3, 4160495.09 ], [ 282148.88, 4160495.35 ], [ 282148.43, 4160495.57 ], [ 282147.96, 4160495.74 ], [ 282147.47, 4160495.87 ], [ 282146.98, 4160495.94 ], [ 282146.48, 4160495.97 ], [ 282145.98, 4160495.94 ], [ 282139.32, 4160495.28 ], [ 282138.77, 4160500.0 ], [ 282147.76, 4160500.0 ], [ 282159.62, 4160490.56 ], [ 282157.75, 4160488.31 ] ] ], [ [ [ 282204.7, 4160270.17 ], [ 282206.72, 4160268.86 ], [ 282207.52, 4160268.63 ], [ 282208.79, 4160268.63 ], [ 282211.7, 4160266.35 ], [ 282215.79, 4160250.0 ], [ 282212.2, 4160250.0 ], [ 282186.21, 4160298.17 ], [ 282189.03, 4160298.36 ], [ 282192.41, 4160296.11 ], [ 282193.48, 4160294.83 ], [ 282204.16, 4160270.8 ], [ 282204.7, 4160270.17 ] ] ], [ [ [ 282152.58, 4160289.35 ], [ 282152.31, 4160287.87 ], [ 282153.78, 4160284.45 ], [ 282155.03, 4160283.63 ], [ 282157.53, 4160283.63 ], [ 282160.5, 4160281.05 ], [ 282163.0, 4160263.57 ], [ 282163.09, 4160263.21 ], [ 282163.52, 4160262.18 ], [ 282163.71, 4160261.86 ], [ 282172.6, 4160250.0 ], [ 282157.46, 4160250.0 ], [ 282156.22, 4160252.53 ], [ 282158.91, 4160258.18 ], [ 282158.97, 4160258.32 ], [ 282159.02, 4160258.47 ], [ 282159.05, 4160258.62 ], [ 282159.06, 4160258.77 ], [ 282159.06, 4160258.93 ], [ 282159.04, 4160259.08 ], [ 282159.01, 4160259.23 ], [ 282156.77, 4160267.92 ], [ 282153.94, 4160279.76 ], [ 282151.36, 4160290.43 ], [ 282151.36, 4160290.44 ], [ 282148.72, 4160301.31 ], [ 282147.15, 4160312.67 ], [ 282146.98, 4160322.88 ], [ 282147.4, 4160333.56 ], [ 282149.2, 4160347.92 ], [ 282151.7, 4160363.31 ], [ 282161.25, 4160408.1 ], [ 282163.8, 4160415.46 ], [ 282166.13, 4160412.63 ], [ 282166.13, 4160410.87 ], [ 282165.25, 4160408.75 ], [ 282161.13, 4160404.62 ], [ 282160.82, 4160404.18 ], [ 282160.17, 4160402.74 ], [ 282160.04, 4160402.22 ], [ 282157.2, 4160356.76 ], [ 282156.33, 4160354.82 ], [ 282152.29, 4160350.79 ], [ 282151.96, 4160350.27 ], [ 282151.31, 4160348.59 ], [ 282151.21, 4160347.98 ], [ 282154.0, 4160292.2 ], [ 282153.18, 4160289.98 ], [ 282152.58, 4160289.35 ] ] ], [ [ [ 282199.13, 4160264.74 ], [ 282199.09, 4160265.09 ], [ 282198.85, 4160266.09 ], [ 282198.74, 4160266.41 ], [ 282192.21, 4160279.46 ], [ 282208.11, 4160250.0 ], [ 282200.66, 4160250.0 ], [ 282199.13, 4160252.48 ], [ 282199.13, 4160264.74 ] ] ], [ [ [ 282223.81, 4160359.99 ], [ 282221.62, 4160358.37 ], [ 282209.64, 4160356.38 ], [ 282208.93, 4160357.15 ], [ 282250.0, 4160380.17 ], [ 282250.0, 4160375.6 ], [ 282241.16, 4160374.13 ], [ 282240.29, 4160373.64 ], [ 282238.48, 4160371.49 ], [ 282238.13, 4160370.55 ], [ 282238.13, 4160369.97 ], [ 282235.86, 4160367.06 ], [ 282227.78, 4160365.04 ], [ 282227.22, 4160364.76 ], [ 282225.77, 4160363.59 ], [ 282225.37, 4160363.1 ], [ 282223.81, 4160359.99 ] ] ], [ [ [ 282247.13, 4160389.22 ], [ 282247.55, 4160388.2 ], [ 282249.71, 4160386.05 ], [ 282250.0, 4160385.93 ], [ 282250.0, 4160384.3 ], [ 282206.42, 4160359.87 ], [ 282206.24, 4160360.06 ], [ 282207.8, 4160366.29 ], [ 282209.37, 4160368.24 ], [ 282223.32, 4160375.22 ], [ 282224.01, 4160375.96 ], [ 282225.1, 4160378.59 ], [ 282225.14, 4160379.61 ], [ 282221.48, 4160390.58 ], [ 282223.18, 4160394.3 ], [ 282227.01, 4160392.87 ], [ 282230.52, 4160385.84 ], [ 282231.36, 4160385.12 ], [ 282234.25, 4160384.16 ], [ 282235.35, 4160384.23 ], [ 282236.1, 4160384.61 ], [ 282236.69, 4160385.15 ], [ 282237.91, 4160387.12 ], [ 282238.13, 4160387.9 ], [ 282238.13, 4160394.63 ], [ 282241.13, 4160397.63 ], [ 282244.13, 4160397.63 ], [ 282247.13, 4160394.63 ], [ 282247.13, 4160389.22 ] ] ], [ [ [ 282235.93, 4160420.11 ], [ 282240.59, 4160414.47 ], [ 282241.8, 4160412.63 ], [ 282241.73, 4160412.63 ], [ 282240.71, 4160412.2 ], [ 282238.55, 4160410.05 ], [ 282238.13, 4160409.03 ], [ 282238.13, 4160403.63 ], [ 282235.13, 4160400.63 ], [ 282233.19, 4160400.63 ], [ 282234.35, 4160400.97 ], [ 282227.04, 4160425.64 ], [ 282217.93, 4160424.37 ], [ 282217.54, 4160426.13 ], [ 282221.69, 4160426.59 ], [ 282225.78, 4160426.48 ], [ 282229.98, 4160425.04 ], [ 282232.95, 4160422.92 ], [ 282235.93, 4160420.11 ] ] ], [ [ [ 282241.13, 4160428.22 ], [ 282241.13, 4160433.39 ], [ 282242.84, 4160431.03 ], [ 282242.93, 4160430.91 ], [ 282243.03, 4160430.8 ], [ 282248.18, 4160425.74 ], [ 282250.0, 4160423.94 ], [ 282250.0, 4160418.32 ], [ 282249.71, 4160418.2 ], [ 282247.55, 4160416.05 ], [ 282246.9, 4160414.48 ], [ 282245.51, 4160413.54 ], [ 282243.54, 4160416.53 ], [ 282243.43, 4160416.69 ], [ 282238.63, 4160422.49 ], [ 282238.48, 4160422.65 ], [ 282236.39, 4160424.63 ], [ 282237.53, 4160424.63 ], [ 282238.55, 4160425.05 ], [ 282240.71, 4160427.2 ], [ 282241.13, 4160428.22 ] ] ], [ [ [ 282242.5, 4160437.64 ], [ 282238.96, 4160444.06 ], [ 282238.89, 4160444.17 ], [ 282236.39, 4160448.05 ], [ 282236.32, 4160448.14 ], [ 282233.27, 4160452.24 ], [ 282233.22, 4160452.31 ], [ 282227.96, 4160458.75 ], [ 282227.87, 4160458.85 ], [ 282223.8, 4160463.15 ], [ 282223.67, 4160463.27 ], [ 282223.52, 4160463.38 ], [ 282223.37, 4160463.48 ], [ 282220.28, 4160465.2 ], [ 282222.95, 4160468.99 ], [ 282223.27, 4160468.73 ], [ 282233.5, 4160459.82 ], [ 282248.9, 4160444.09 ], [ 282250.0, 4160442.65 ], [ 282250.0, 4160428.99 ], [ 282245.67, 4160433.26 ], [ 282242.5, 4160437.64 ] ] ], [ [ [ 282235.92, 4160462.49 ], [ 282225.61, 4160471.48 ], [ 282225.54, 4160471.53 ], [ 282224.87, 4160472.06 ], [ 282224.88, 4160472.23 ], [ 282224.88, 4160472.41 ], [ 282224.86, 4160472.58 ], [ 282224.82, 4160472.76 ], [ 282224.77, 4160472.93 ], [ 282224.7, 4160473.09 ], [ 282224.61, 4160473.24 ], [ 282224.51, 4160473.39 ], [ 282224.39, 4160473.52 ], [ 282224.27, 4160473.64 ], [ 282224.13, 4160473.75 ], [ 282223.98, 4160473.85 ], [ 282223.82, 4160473.93 ], [ 282223.66, 4160473.99 ], [ 282223.49, 4160474.04 ], [ 282223.31, 4160474.07 ], [ 282223.14, 4160474.09 ], [ 282222.96, 4160474.08 ], [ 282222.79, 4160474.06 ], [ 282222.61, 4160474.02 ], [ 282222.45, 4160473.97 ], [ 282222.42, 4160473.96 ], [ 282201.51, 4160489.72 ], [ 282200.46, 4160490.54 ], [ 282203.29, 4160495.99 ], [ 282203.41, 4160496.21 ], [ 282203.8, 4160496.1 ], [ 282204.05, 4160496.06 ], [ 282210.14, 4160485.61 ], [ 282210.19, 4160485.54 ], [ 282210.23, 4160485.47 ], [ 282210.31, 4160485.35 ], [ 282210.4, 4160485.22 ], [ 282210.45, 4160485.15 ], [ 282210.5, 4160485.09 ], [ 282210.6, 4160484.97 ], [ 282210.69, 4160484.85 ], [ 282210.75, 4160484.79 ], [ 282210.8, 4160484.73 ], [ 282210.91, 4160484.62 ], [ 282211.02, 4160484.51 ], [ 282211.08, 4160484.46 ], [ 282211.14, 4160484.4 ], [ 282211.26, 4160484.31 ], [ 282211.38, 4160484.21 ], [ 282211.45, 4160484.16 ], [ 282211.51, 4160484.11 ], [ 282219.73, 4160478.3 ], [ 282226.99, 4160472.49 ], [ 282239.57, 4160460.37 ], [ 282250.0, 4160449.42 ], [ 282250.0, 4160448.11 ], [ 282236.02, 4160462.39 ], [ 282235.92, 4160462.49 ] ] ], [ [ [ 282235.12, 4160498.79 ], [ 282237.27, 4160496.97 ], [ 282238.21, 4160496.63 ], [ 282244.67, 4160496.63 ], [ 282247.61, 4160494.21 ], [ 282249.41, 4160485.21 ], [ 282248.27, 4160483.82 ], [ 282241.95, 4160489.45 ], [ 282241.75, 4160489.62 ], [ 282228.75, 4160500.0 ], [ 282234.57, 4160500.0 ], [ 282234.63, 4160499.66 ], [ 282235.12, 4160498.79 ] ] ] ] } },
{ "type": "Feature", "properties": { "id": "imagery:groundcover_bare:461", "name": null, "kind": "groundcover_bare", "sport": null, "surface": null, "pitch_layout": null, "source": "vgin_vbmp+naip+lidar2025", "source_updated": null, "base_z": null, "top_z": null }, "geometry": { "type": "Polygon", "coordinates": [ [ [ 282200.64, 4160347.74 ], [ 282201.05, 4160349.03 ], [ 282200.38, 4160352.38 ], [ 282203.03, 4160353.84 ], [ 282203.04, 4160353.84 ], [ 282208.72, 4160357.03 ], [ 282215.26, 4160355.94 ], [ 282215.95, 4160355.99 ], [ 282217.88, 4160356.61 ], [ 282218.48, 4160356.97 ], [ 282225.54, 4160364.04 ], [ 282226.94, 4160364.83 ], [ 282235.37, 4160366.94 ], [ 282236.17, 4160367.45 ], [ 282237.82, 4160369.57 ], [ 282238.13, 4160370.47 ], [ 282238.13, 4160370.63 ], [ 282241.13, 4160373.63 ], [ 282249.25, 4160373.63 ], [ 282249.59, 4160373.67 ], [ 282250.0, 4160373.76 ], [ 282250.0, 4160366.58 ], [ 282232.32, 4160357.01 ], [ 282250.0, 4160324.6 ], [ 282250.0, 4160306.0 ], [ 282224.42, 4160352.9 ], [ 282181.07, 4160329.45 ], [ 282224.42, 4160250.0 ], [ 282215.79, 4160250.0 ], [ 282211.82, 4160265.87 ], [ 282211.3, 4160266.66 ], [ 282209.18, 4160268.32 ], [ 282208.29, 4160268.63 ], [ 282207.08, 4160268.63 ], [ 282204.34, 4160270.41 ], [ 282193.57, 4160294.64 ], [ 282193.35, 4160294.99 ], [ 282192.54, 4160295.95 ], [ 282192.23, 4160296.23 ], [ 282185.47, 4160300.74 ], [ 282184.13, 4160303.23 ], [ 282184.13, 4160307.03 ], [ 282183.71, 4160308.05 ], [ 282181.55, 4160310.2 ], [ 282180.53, 4160310.63 ], [ 282180.16, 4160310.63 ], [ 282179.1, 4160311.35 ], [ 282174.25, 4160320.33 ], [ 282172.46, 4160324.8 ], [ 282172.31, 4160326.5 ], [ 282174.28, 4160336.38 ], [ 282173.99, 4160337.56 ], [ 282173.66, 4160337.96 ], [ 282175.15, 4160338.49 ], [ 282175.28, 4160338.54 ], [ 282175.41, 4160338.61 ], [ 282190.8, 4160347.09 ], [ 282191.45, 4160346.48 ], [ 282192.1, 4160346.13 ], [ 282196.78, 4160344.96 ], [ 282198.09, 4160345.31 ], [ 282200.64, 4160347.74 ] ] ] } },
{ "type": "Feature", "properties": { "id": "osm:way/822691472", "name": null, "kind": "pitch", "sport": "american_football", "surface": null, "pitch_layout": { "cx": 282229.0330831623, "cy": 4160292.9728658698, "ax": -0.47879948683173945, "ay": 0.8779242856930561, "hl": 54.990551518364576, "hs": 24.64461218231624 }, "source": null, "source_updated": null, "base_z": null, "top_z": null }, "geometry": { "type": "Polygon", "coordinates": [ [ [ 282250.0, 4160250.0 ], [ 282224.42, 4160250.0 ], [ 282181.07, 4160329.45 ], [ 282224.42, 4160352.9 ], [ 282250.0, 4160306.0 ], [ 282250.0, 4160250.0 ] ] ] } },
{ "type": "Feature", "properties": { "id": "osm:way/822691473", "name": null, "kind": "pitch", "sport": "american_football", "surface": null, "pitch_layout": { "cx": 282280.2839623973, "cy": 4160320.5331025687, "ax": -0.47886446588132775, "ay": 0.8778888445106195, "hl": 54.99213008598609, "hs": 24.640713527464033 }, "source": null, "source_updated": null, "base_z": null, "top_z": null }, "geometry": { "type": "Polygon", "coordinates": [ [ [ 282250.0, 4160366.58 ], [ 282250.0, 4160324.6 ], [ 282232.32, 4160357.01 ], [ 282250.0, 4160366.58 ] ] ] } },
{ "type": "Feature", "properties": { "id": "imagery:groundcover_lawn:424", "name": null, "kind": "groundcover_lawn", "sport": null, "surface": null, "pitch_layout": null, "source": "vgin_vbmp+naip+lidar2025", "source_updated": null, "base_z": null, "top_z": null }, "geometry": { "type": "MultiPolygon", "coordinates": [ [ [ [ 282157.09, 4160356.51 ], [ 282157.22, 4160357.03 ], [ 282160.06, 4160402.49 ], [ 282160.93, 4160404.43 ], [ 282165.04, 4160408.54 ], [ 282165.37, 4160409.02 ], [ 282166.02, 4160410.6 ], [ 282166.13, 4160411.16 ], [ 282166.13, 4160415.03 ], [ 282165.71, 4160416.05 ], [ 282164.45, 4160417.31 ], [ 282168.31, 4160428.44 ], [ 282168.71, 4160428.05 ], [ 282169.73, 4160427.63 ], [ 282169.86, 4160427.63 ], [ 282170.63, 4160427.85 ], [ 282172.6, 4160429.06 ], [ 282173.15, 4160429.66 ], [ 282192.74, 4160468.84 ], [ 282192.85, 4160469.16 ], [ 282193.09, 4160470.16 ], [ 282193.13, 4160470.51 ], [ 282193.13, 4160475.99 ], [ 282193.04, 4160476.27 ], [ 282198.5, 4160486.76 ], [ 282198.6, 4160486.8 ], [ 282200.04, 4160486.32 ], [ 282213.25, 4160476.36 ], [ 282211.55, 4160466.11 ], [ 282210.21, 4160466.05 ], [ 282210.05, 4160466.03 ], [ 282209.89, 4160466.0 ], [ 282205.63, 4160465.03 ], [ 282205.44, 4160464.97 ], [ 282205.25, 4160464.89 ], [ 282205.08, 4160464.8 ], [ 282202.32, 4160463.06 ], [ 282202.19, 4160462.97 ], [ 282202.07, 4160462.87 ], [ 282201.96, 4160462.77 ], [ 282199.32, 4160459.95 ], [ 282199.19, 4160459.8 ], [ 282199.08, 4160459.63 ], [ 282198.99, 4160459.45 ], [ 282197.44, 4160455.97 ], [ 282197.42, 4160455.93 ], [ 282195.58, 4160451.48 ], [ 282195.53, 4160451.36 ], [ 282193.55, 4160445.5 ], [ 282191.12, 4160441.13 ], [ 282188.43, 4160437.05 ], [ 282185.48, 4160432.86 ], [ 282185.38, 4160432.7 ], [ 282185.3, 4160432.54 ], [ 282183.46, 4160428.24 ], [ 282183.39, 4160428.07 ], [ 282183.35, 4160427.88 ], [ 282183.32, 4160427.7 ], [ 282182.96, 4160423.84 ], [ 282182.95, 4160423.67 ], [ 282182.96, 4160423.5 ], [ 282183.21, 4160420.99 ], [ 282183.24, 4160420.82 ], [ 282183.28, 4160420.66 ], [ 282183.34, 4160420.5 ], [ 282183.41, 4160420.35 ], [ 282183.49, 4160420.2 ], [ 282184.06, 4160419.31 ], [ 282182.37, 4160415.42 ], [ 282182.3, 4160415.21 ], [ 282181.38, 4160412.12 ], [ 282179.86, 4160408.5 ], [ 282177.49, 4160404.27 ], [ 282175.18, 4160401.27 ], [ 282175.12, 4160401.19 ], [ 282172.66, 4160397.61 ], [ 282172.53, 4160397.4 ], [ 282170.72, 4160393.8 ], [ 282170.64, 4160393.62 ], [ 282170.59, 4160393.43 ], [ 282169.88, 4160390.63 ], [ 282169.84, 4160390.45 ], [ 282169.82, 4160390.27 ], [ 282169.68, 4160387.34 ], [ 282169.68, 4160387.18 ], [ 282169.7, 4160387.01 ], [ 282170.38, 4160382.1 ], [ 282170.41, 4160381.92 ], [ 282171.35, 4160378.07 ], [ 282170.14, 4160376.64 ], [ 282169.82, 4160375.48 ], [ 282171.77, 4160363.81 ], [ 282170.15, 4160360.63 ], [ 282168.16, 4160359.64 ], [ 282167.57, 4160359.1 ], [ 282166.35, 4160357.13 ], [ 282166.13, 4160356.35 ], [ 282166.13, 4160348.03 ], [ 282165.91, 4160347.49 ], [ 282165.86, 4160347.34 ], [ 282165.82, 4160347.19 ], [ 282165.79, 4160347.04 ], [ 282165.78, 4160346.88 ], [ 282165.6, 4160342.65 ], [ 282165.61, 4160342.46 ], [ 282165.63, 4160342.26 ], [ 282165.67, 4160342.07 ], [ 282166.13, 4160340.52 ], [ 282166.13, 4160323.63 ], [ 282166.18, 4160323.24 ], [ 282166.48, 4160322.12 ], [ 282166.63, 4160321.76 ], [ 282198.73, 4160266.32 ], [ 282199.13, 4160264.82 ], [ 282199.13, 4160252.16 ], [ 282199.24, 4160251.6 ], [ 282199.9, 4160250.02 ], [ 282199.91, 4160250.0 ], [ 282171.65, 4160250.0 ], [ 282166.6, 4160256.07 ], [ 282165.97, 4160257.34 ], [ 282160.26, 4160283.03 ], [ 282160.19, 4160283.26 ], [ 282159.93, 4160283.93 ], [ 282159.82, 4160284.15 ], [ 282151.56, 4160297.91 ], [ 282151.13, 4160299.46 ], [ 282151.13, 4160348.38 ], [ 282152.01, 4160350.5 ], [ 282156.14, 4160354.63 ], [ 282156.44, 4160355.07 ], [ 282157.09, 4160356.51 ] ] ], [ [ [ 282215.7, 4160418.1 ], [ 282215.8, 4160417.95 ], [ 282215.91, 4160417.81 ], [ 282216.03, 4160417.68 ], [ 282216.16, 4160417.57 ], [ 282216.3, 4160417.46 ], [ 282216.46, 4160417.38 ], [ 282216.62, 4160417.3 ], [ 282216.79, 4160417.25 ], [ 282216.96, 4160417.21 ], [ 282217.13, 4160417.19 ], [ 282215.85, 4160414.73 ], [ 282188.71, 4160395.73 ], [ 282188.24, 4160395.2 ], [ 282187.3, 4160393.38 ], [ 282187.13, 4160392.7 ], [ 282187.13, 4160389.22 ], [ 282187.55, 4160388.2 ], [ 282189.71, 4160386.05 ], [ 282190.73, 4160385.63 ], [ 282194.16, 4160385.63 ], [ 282194.85, 4160385.8 ], [ 282196.7, 4160386.79 ], [ 282197.23, 4160387.27 ], [ 282200.86, 4160392.72 ], [ 282204.3, 4160393.9 ], [ 282208.5, 4160392.5 ], [ 282210.46, 4160388.93 ], [ 282208.46, 4160380.96 ], [ 282208.43, 4160380.44 ], [ 282208.6, 4160378.9 ], [ 282208.75, 4160378.39 ], [ 282212.1, 4160371.68 ], [ 282210.34, 4160367.49 ], [ 282209.91, 4160367.35 ], [ 282207.83, 4160365.85 ], [ 282207.3, 4160365.13 ], [ 282205.73, 4160360.42 ], [ 282203.26, 4160358.39 ], [ 282184.96, 4160356.1 ], [ 282181.61, 4160359.45 ], [ 282183.63, 4160375.61 ], [ 282183.28, 4160376.74 ], [ 282181.91, 4160378.29 ], [ 282182.44, 4160379.35 ], [ 282182.51, 4160379.52 ], [ 282182.56, 4160379.68 ], [ 282182.6, 4160379.86 ], [ 282182.62, 4160380.03 ], [ 282182.62, 4160380.21 ], [ 282182.61, 4160380.38 ], [ 282182.58, 4160380.56 ], [ 282182.53, 4160380.73 ], [ 282182.46, 4160380.89 ], [ 282182.38, 4160381.05 ], [ 282182.29, 4160381.2 ], [ 282182.18, 4160381.34 ], [ 282182.06, 4160381.46 ], [ 282181.92, 4160381.58 ], [ 282181.78, 4160381.68 ], [ 282181.62, 4160381.76 ], [ 282181.46, 4160381.83 ], [ 282181.29, 4160381.89 ], [ 282181.12, 4160381.93 ], [ 282180.94, 4160381.95 ], [ 282180.77, 4160381.95 ], [ 282180.59, 4160381.93 ], [ 282180.42, 4160381.9 ], [ 282180.25, 4160381.85 ], [ 282180.08, 4160381.79 ], [ 282179.93, 4160381.71 ], [ 282179.78, 4160381.61 ], [ 282179.64, 4160381.5 ], [ 282179.51, 4160381.38 ], [ 282179.4, 4160381.25 ], [ 282179.3, 4160381.1 ], [ 282179.21, 4160380.95 ], [ 282178.56, 4160379.63 ], [ 282174.68, 4160379.63 ], [ 282173.93, 4160382.68 ], [ 282173.29, 4160387.34 ], [ 282173.41, 4160389.92 ], [ 282174.03, 4160392.36 ], [ 282175.69, 4160395.68 ], [ 282178.06, 4160399.11 ], [ 282180.42, 4160402.18 ], [ 282180.56, 4160402.39 ], [ 282183.05, 4160406.83 ], [ 282183.14, 4160407.01 ], [ 282184.74, 4160410.82 ], [ 282184.81, 4160411.01 ], [ 282185.72, 4160414.09 ], [ 282187.24, 4160417.6 ], [ 282188.63, 4160417.5 ], [ 282191.94, 4160417.21 ], [ 282192.08, 4160417.2 ], [ 282192.21, 4160417.2 ], [ 282194.58, 4160417.35 ], [ 282194.76, 4160417.37 ], [ 282194.93, 4160417.41 ], [ 282195.09, 4160417.46 ], [ 282199.44, 4160419.05 ], [ 282199.55, 4160419.1 ], [ 282204.12, 4160421.12 ], [ 282204.13, 4160421.12 ], [ 282210.6, 4160424.04 ], [ 282211.49, 4160424.36 ], [ 282211.55, 4160424.2 ], [ 282213.71, 4160422.05 ], [ 282214.86, 4160421.57 ], [ 282215.52, 4160418.59 ], [ 282215.56, 4160418.42 ], [ 282215.63, 4160418.26 ], [ 282215.7, 4160418.1 ] ] ], [ [ [ 282166.13, 4160435.38 ], [ 282166.13, 4160431.24 ], [ 282165.8, 4160430.61 ], [ 282165.71, 4160430.4 ], [ 282161.4, 4160417.98 ], [ 282160.47, 4160417.31 ], [ 282155.75, 4160419.32 ], [ 282154.34, 4160429.14 ], [ 282155.19, 4160431.69 ], [ 282161.01, 4160437.5 ], [ 282164.28, 4160438.15 ], [ 282166.13, 4160435.38 ] ] ], [ [ [ 282209.18, 4160427.35 ], [ 282202.66, 4160424.41 ], [ 282198.14, 4160422.41 ], [ 282194.1, 4160420.93 ], [ 282192.12, 4160420.8 ], [ 282188.94, 4160421.09 ], [ 282188.9, 4160421.09 ], [ 282187.12, 4160421.21 ], [ 282186.75, 4160421.78 ], [ 282186.56, 4160423.68 ], [ 282186.88, 4160427.08 ], [ 282188.54, 4160430.94 ], [ 282191.39, 4160435.0 ], [ 282191.43, 4160435.05 ], [ 282194.16, 4160439.2 ], [ 282194.23, 4160439.32 ], [ 282195.99, 4160442.48 ], [ 282196.68, 4160442.2 ], [ 282196.8, 4160442.15 ], [ 282196.93, 4160442.11 ], [ 282201.21, 4160441.03 ], [ 282201.46, 4160440.99 ], [ 282206.67, 4160440.43 ], [ 282211.2, 4160439.69 ], [ 282215.16, 4160438.43 ], [ 282217.66, 4160436.54 ], [ 282219.14, 4160434.56 ], [ 282219.7, 4160431.87 ], [ 282219.7, 4160431.85 ], [ 282214.24, 4160431.07 ], [ 282213.35, 4160430.58 ], [ 282211.49, 4160428.43 ], [ 282211.38, 4160428.16 ], [ 282209.3, 4160427.39 ], [ 282209.18, 4160427.35 ] ] ], [ [ [ 282240.55, 4160428.12 ], [ 282237.59, 4160424.63 ], [ 282236.39, 4160424.63 ], [ 282235.33, 4160425.62 ], [ 282235.14, 4160425.78 ], [ 282232.13, 4160427.93 ], [ 282232.13, 4160429.51 ], [ 282231.64, 4160430.59 ], [ 282229.2, 4160432.71 ], [ 282228.06, 4160433.04 ], [ 282223.27, 4160432.36 ], [ 282223.25, 4160432.45 ], [ 282222.77, 4160434.79 ], [ 282225.19, 4160437.48 ], [ 282227.23, 4160439.21 ], [ 282229.74, 4160440.99 ], [ 282233.24, 4160443.09 ], [ 282233.63, 4160442.85 ], [ 282234.4, 4160442.63 ], [ 282235.59, 4160442.63 ], [ 282235.63, 4160442.59 ], [ 282235.84, 4160442.27 ], [ 282239.21, 4160436.15 ], [ 282240.55, 4160428.12 ] ] ], [ [ [ 282226.96, 4160452.97 ], [ 282230.6, 4160445.7 ], [ 282227.83, 4160444.04 ], [ 282227.71, 4160443.97 ], [ 282225.08, 4160442.1 ], [ 282224.96, 4160442.01 ], [ 282222.76, 4160440.15 ], [ 282222.59, 4160439.97 ], [ 282220.95, 4160438.15 ], [ 282220.4, 4160438.9 ], [ 282220.29, 4160439.03 ], [ 282220.17, 4160439.16 ], [ 282220.03, 4160439.27 ], [ 282217.08, 4160441.49 ], [ 282216.91, 4160441.6 ], [ 282216.73, 4160441.69 ], [ 282216.55, 4160441.76 ], [ 282212.17, 4160443.16 ], [ 282212.04, 4160443.2 ], [ 282211.91, 4160443.23 ], [ 282207.2, 4160443.99 ], [ 282207.1, 4160444.01 ], [ 282201.97, 4160444.55 ], [ 282197.95, 4160445.57 ], [ 282197.45, 4160445.78 ], [ 282198.93, 4160450.16 ], [ 282200.73, 4160454.53 ], [ 282202.15, 4160457.71 ], [ 282204.43, 4160460.13 ], [ 282206.74, 4160461.59 ], [ 282210.54, 4160462.46 ], [ 282212.32, 4160462.54 ], [ 282212.48, 4160462.28 ], [ 282219.04, 4160455.71 ], [ 282219.53, 4160455.39 ], [ 282221.1, 4160454.74 ], [ 282221.67, 4160454.63 ], [ 282224.28, 4160454.63 ], [ 282226.96, 4160452.97 ] ] ] ] } },
{ "type": "Feature", "properties": { "id": "imagery:groundcover_bare:329", "name": null, "kind": "groundcover_bare", "sport": null, "surface": null, "pitch_layout": null, "source": "vgin_vbmp+naip+lidar2025", "source_updated": null, "base_z": null, "top_z": null }, "geometry": { "type": "Polygon", "coordinates": [ [ [ 282188.79, 4160395.45 ], [ 282198.24, 4160400.18 ], [ 282198.56, 4160400.4 ], [ 282199.43, 4160401.16 ], [ 282199.68, 4160401.45 ], [ 282204.49, 4160408.66 ], [ 282206.26, 4160409.91 ], [ 282213.4, 4160411.69 ], [ 282217.13, 4160408.78 ], [ 282217.13, 4160395.51 ], [ 282217.17, 4160395.16 ], [ 282217.41, 4160394.16 ], [ 282217.53, 4160393.84 ], [ 282224.79, 4160379.31 ], [ 282223.45, 4160375.28 ], [ 282216.5, 4160371.81 ], [ 282212.66, 4160372.83 ], [ 282208.87, 4160378.52 ], [ 282208.45, 4160380.91 ], [ 282210.32, 4160388.38 ], [ 282210.18, 4160389.43 ], [ 282208.77, 4160392.01 ], [ 282207.96, 4160392.68 ], [ 282204.77, 4160393.74 ], [ 282203.84, 4160393.74 ], [ 282201.33, 4160392.88 ], [ 282200.59, 4160392.31 ], [ 282197.02, 4160386.96 ], [ 282194.53, 4160385.63 ], [ 282190.13, 4160385.63 ], [ 282187.13, 4160388.63 ], [ 282187.13, 4160392.77 ], [ 282188.79, 4160395.45 ] ] ] } },
{ "type": "Feature", "properties": { "id": "imagery:groundcover_bare:317", "name": null, "kind": "groundcover_bare", "sport": null, "surface": null, "pitch_layout": null, "source": "vgin_vbmp+naip+lidar2025", "source_updated": null, "base_z": null, "top_z": null }, "geometry": { "type": "Polygon", "coordinates": [ [ [ 282250.0, 4160404.28 ], [ 282250.0, 4160385.63 ], [ 282249.82, 4160385.63 ], [ 282246.83, 4160388.29 ], [ 282244.63, 4160408.13 ], [ 282244.84, 4160408.44 ], [ 282247.95, 4160405.74 ], [ 282248.08, 4160405.64 ], [ 282250.0, 4160404.28 ] ] ] } },
{ "type": "Feature", "properties": { "id": "imagery:groundcover_lawn:322", "name": null, "kind": "groundcover_lawn", "sport": null, "surface": null, "pitch_layout": null, "source": "vgin_vbmp+naip+lidar2025", "source_updated": null, "base_z": null, "top_z": null }, "geometry": { "type": "Polygon", "coordinates": [ [ [ 282225.47, 4160398.37 ], [ 282233.19, 4160400.63 ], [ 282234.53, 4160400.63 ], [ 282235.45, 4160401.01 ], [ 282236.42, 4160400.69 ], [ 282236.58, 4160402.07 ], [ 282237.71, 4160403.2 ], [ 282238.13, 4160404.22 ], [ 282238.13, 4160409.63 ], [ 282241.13, 4160412.63 ], [ 282241.67, 4160412.63 ], [ 282241.96, 4160412.39 ], [ 282244.05, 4160409.21 ], [ 282244.14, 4160409.08 ], [ 282244.25, 4160408.95 ], [ 282244.37, 4160408.84 ], [ 282245.0, 4160408.3 ], [ 282246.41, 4160401.21 ], [ 282243.47, 4160397.63 ], [ 282241.11, 4160397.63 ], [ 282239.71, 4160397.12 ], [ 282238.77, 4160397.45 ], [ 282238.5, 4160395.91 ], [ 282238.05, 4160395.54 ], [ 282237.55, 4160394.7 ], [ 282236.01, 4160387.02 ], [ 282231.4, 4160385.11 ], [ 282227.47, 4160387.74 ], [ 282226.13, 4160390.23 ], [ 282226.13, 4160391.03 ], [ 282225.71, 4160392.05 ], [ 282223.55, 4160394.2 ], [ 282221.98, 4160394.85 ], [ 282220.19, 4160398.21 ], [ 282223.13, 4160400.63 ], [ 282224.8, 4160400.63 ], [ 282225.47, 4160398.37 ] ] ] } },
{ "type": "Feature", "properties": { "id": "imagery:groundcover_lawn:311", "name": null, "kind": "groundcover_lawn", "sport": null, "surface": null, "pitch_layout": null, "source": "vgin_vbmp+naip+lidar2025", "source_updated": null, "base_z": null, "top_z": null }, "geometry": { "type": "Polygon", "coordinates": [ [ [ 282250.0, 4160408.73 ], [ 282248.38, 4160410.14 ], [ 282247.45, 4160411.99 ], [ 282247.13, 4160413.33 ], [ 282247.13, 4160415.63 ], [ 282250.0, 4160418.49 ], [ 282250.0, 4160408.73 ] ] ] } },
{ "type": "Feature", "properties": { "id": "osm:way/823343241", "name": null, "kind": "park", "sport": null, "surface": null, "pitch_layout": null, "source": null, "source_updated": null, "base_z": null, "top_z": null }, "geometry": { "type": "Polygon", "coordinates": [ [ [ 282225.47, 4160398.37 ], [ 282217.78, 4160424.35 ], [ 282227.04, 4160425.64 ], [ 282234.35, 4160400.97 ], [ 282225.47, 4160398.37 ] ] ] } },
{ "type": "Feature", "properties": { "id": "osm:way/334113906", "name": null, "kind": "parking", "sport": null, "surface": null, "pitch_layout": null, "source": null, "source_updated": null, "base_z": null, "top_z": null }, "geometry": { "type": "Polygon", "coordinates": [ [ [ 282157.46, 4160250.0 ], [ 282145.38, 4160250.0 ], [ 282154.39, 4160256.27 ], [ 282157.46, 4160250.0 ] ] ] } },
{ "type": "Feature", "properties": { "id": "imagery:groundcover_lawn:425", "name": null, "kind": "groundcover_lawn", "sport": null, "surface": null, "pitch_layout": null, "source": "vgin_vbmp+naip+lidar2025", "source_updated": null, "base_z": null, "top_z": null }, "geometry": { "type": "MultiPolygon", "coordinates": [ [ [ [ 282111.3, 4160290.97 ], [ 282113.99, 4160292.63 ], [ 282115.32, 4160292.63 ], [ 282118.32, 4160289.83 ], [ 282120.78, 4160252.88 ], [ 282121.48, 4160251.75 ], [ 282124.51, 4160250.02 ], [ 282125.13, 4160250.0 ], [ 282109.13, 4160250.0 ], [ 282109.13, 4160285.92 ], [ 282109.45, 4160287.26 ], [ 282111.3, 4160290.97 ] ] ], [ [ [ 282127.14, 4160251.89 ], [ 282127.4, 4160252.54 ], [ 282132.76, 4160290.05 ], [ 282135.73, 4160292.63 ], [ 282136.13, 4160292.63 ], [ 282139.13, 4160289.63 ], [ 282139.13, 4160278.22 ], [ 282139.55, 4160277.2 ], [ 282141.71, 4160275.05 ], [ 282143.28, 4160274.4 ], [ 282145.13, 4160271.63 ], [ 282145.13, 4160250.17 ], [ 282144.99, 4160250.0 ], [ 282125.68, 4160250.0 ], [ 282125.94, 4160250.22 ], [ 282127.14, 4160251.89 ] ] ] ] } },
{ "type": "Feature", "properties": { "id": "osm:way/1089880888", "name": null, "kind": "parking", "sport": null, "surface": "asphalt", "pitch_layout": null, "source": null, "source_updated": null, "base_z": null, "top_z": null }, "geometry": { "type": "Polygon", "coordinates": [ [ [ 282000.0, 4160250.0 ], [ 282000.0, 4160269.19 ], [ 282022.56, 4160251.41 ], [ 282021.44, 4160250.0 ], [ 282000.0, 4160250.0 ] ] ] } },
{ "type": "Feature", "properties": { "id": "richmond_structure:243748", "name": null, "kind": "deck", "sport": null, "surface": null, "pitch_layout": null, "source": "richmond_structures", "source_updated": "2026-09-08T12:07:13.637000Z", "base_z": null, "top_z": null }, "geometry": { "type": "Polygon", "coordinates": [ [ [ 282099.71, 4160283.79 ], [ 282094.44, 4160277.79 ], [ 282076.02, 4160292.77 ], [ 282077.35, 4160295.34 ], [ 282079.96, 4160293.2 ], [ 282080.96, 4160294.48 ], [ 282087.4, 4160289.08 ], [ 282086.05, 4160287.42 ], [ 282092.74, 4160281.56 ], [ 282095.55, 4160284.71 ], [ 282097.0, 4160286.97 ], [ 282097.56, 4160289.2 ], [ 282097.02, 4160291.22 ], [ 282095.39, 4160293.11 ], [ 282088.29, 4160298.98 ], [ 282086.74, 4160297.08 ], [ 282083.81, 4160299.49 ], [ 282085.97, 4160302.05 ], [ 282093.2, 4160301.41 ], [ 282098.48, 4160297.16 ], [ 282100.32, 4160292.59 ], [ 282099.71, 4160283.79 ] ] ] } },
{ "type": "Feature", "properties": { "id": "imagery:groundcover_bare:374", "name": null, "kind": "groundcover_bare", "sport": null, "surface": null, "pitch_layout": null, "source": "vgin_vbmp+naip+lidar2025", "source_updated": null, "base_z": null, "top_z": null }, "geometry": { "type": "Polygon", "coordinates": [ [ [ 282142.13, 4160304.23 ], [ 282142.13, 4160298.23 ], [ 282139.56, 4160295.26 ], [ 282123.81, 4160293.01 ], [ 282120.47, 4160295.25 ], [ 282118.95, 4160301.34 ], [ 282121.49, 4160305.05 ], [ 282138.76, 4160307.2 ], [ 282142.13, 4160304.23 ] ] ] } },
{ "type": "Feature", "properties": { "id": "osm:way/1089878840", "name": null, "kind": "parking", "sport": null, "surface": null, "pitch_layout": null, "source": null, "source_updated": null, "base_z": null, "top_z": null }, "geometry": { "type": "Polygon", "coordinates": [ [ [ 282000.0, 4160297.26 ], [ 282014.51, 4160315.45 ], [ 282018.99, 4160311.9 ], [ 282034.26, 4160331.01 ], [ 282007.27, 4160352.37 ], [ 282017.79, 4160365.54 ], [ 282082.85, 4160314.04 ], [ 282031.72, 4160250.0 ], [ 282030.09, 4160250.0 ], [ 282000.0, 4160273.82 ], [ 282000.0, 4160288.44 ], [ 282003.02, 4160292.23 ], [ 282000.0, 4160294.62 ], [ 282000.0, 4160297.26 ] ] ] } },
{ "type": "Feature", "properties": { "id": "richmond_structure:244082", "name": null, "kind": "deck", "sport": null, "surface": null, "pitch_layout": null, "source": "richmond_structures", "source_updated": "2026-09-08T12:07:13.637000Z", "base_z": null, "top_z": null }, "geometry": { "type": "Polygon", "coordinates": [ [ [ 282119.93, 4160324.48 ], [ 282109.1, 4160301.0 ], [ 282093.81, 4160313.53 ], [ 282117.42, 4160343.16 ], [ 282123.42, 4160338.55 ], [ 282112.84, 4160326.13 ], [ 282117.12, 4160327.29 ], [ 282119.93, 4160324.48 ] ], [ [ 282114.03, 4160320.36 ], [ 282111.59, 4160321.58 ], [ 282106.55, 4160315.94 ], [ 282104.13, 4160310.4 ], [ 282107.77, 4160308.64 ], [ 282108.9, 4160311.38 ], [ 282114.03, 4160320.36 ] ] ] } },
{ "type": "Feature", "properties": { "id": "richmond_structure:243858", "name": null, "kind": "deck", "sport": null, "surface": null, "pitch_layout": null, "source": "richmond_structures", "source_updated": "2026-09-08T12:07:13.637000Z", "base_z": null, "top_z": null }, "geometry": { "type": "Polygon", "coordinates": [ [ [ 282022.32, 4160320.1 ], [ 282021.1, 4160320.14 ], [ 282019.71, 4160319.37 ], [ 282018.31, 4160317.55 ], [ 282015.04, 4160320.26 ], [ 282024.99, 4160332.55 ], [ 282030.32, 4160328.63 ], [ 282022.99, 4160319.62 ], [ 282022.32, 4160320.1 ] ] ] } },
{ "type": "Feature", "properties": { "id": "imagery:groundcover_bare:363", "name": null, "kind": "groundcover_bare", "sport": null, "surface": null, "pitch_layout": null, "source": "vgin_vbmp+naip+lidar2025", "source_updated": null, "base_z": null, "top_z": null }, "geometry": { "type": "Polygon", "coordinates": [ [ [ 282126.38, 4160346.18 ], [ 282136.72, 4160344.11 ], [ 282139.13, 4160341.17 ], [ 282139.13, 4160316.63 ], [ 282136.13, 4160313.63 ], [ 282132.62, 4160313.63 ], [ 282130.5, 4160314.5 ], [ 282130.33, 4160314.67 ], [ 282129.78, 4160315.42 ], [ 282129.54, 4160315.89 ], [ 282126.77, 4160317.89 ], [ 282125.5, 4160318.08 ], [ 282125.08, 4160317.94 ], [ 282121.13, 4160320.79 ], [ 282121.13, 4160323.35 ], [ 282120.91, 4160324.13 ], [ 282119.69, 4160326.1 ], [ 282119.1, 4160326.64 ], [ 282117.81, 4160327.28 ], [ 282116.47, 4160331.31 ], [ 282123.11, 4160344.58 ], [ 282126.38, 4160346.18 ] ] ] } },
{ "type": "Feature", "properties": { "id": "osm:way/1089877249", "name": null, "kind": "parking", "sport": null, "surface": null, "pitch_layout": null, "source": null, "source_updated": null, "base_z": null, "top_z": null }, "geometry": { "type": "Polygon", "coordinates": [ [ [ 282089.53, 4160345.79 ], [ 282060.61, 4160368.86 ], [ 282087.34, 4160425.06 ], [ 282127.41, 4160393.31 ], [ 282089.53, 4160345.79 ] ] ] } },
{ "type": "Feature", "properties": { "id": "imagery:groundcover_paved:295", "name": null, "kind": "groundcover_paved", "sport": null, "surface": null, "pitch_layout": null, "source": "vgin_vbmp+naip+lidar2025", "source_updated": null, "base_z": null, "top_z": null }, "geometry": { "type": "MultiPolygon", "coordinates": [ [ [ [ 282184.35, 4160456.13 ], [ 282184.13, 4160455.35 ], [ 282184.13, 4160447.23 ], [ 282182.8, 4160444.74 ], [ 282176.33, 4160440.42 ], [ 282175.94, 4160440.04 ], [ 282175.01, 4160438.73 ], [ 282174.78, 4160438.23 ], [ 282172.7, 4160429.9 ], [ 282169.79, 4160427.63 ], [ 282168.67, 4160427.63 ], [ 282168.18, 4160428.05 ], [ 282168.6, 4160429.28 ], [ 282192.49, 4160475.21 ], [ 282192.55, 4160475.13 ], [ 282190.38, 4160462.13 ], [ 282188.76, 4160459.94 ], [ 282186.16, 4160458.64 ], [ 282185.57, 4160458.1 ], [ 282184.35, 4160456.13 ] ] ], [ [ [ 282165.68, 4160430.32 ], [ 282164.21, 4160439.14 ], [ 282186.91, 4160478.63 ], [ 282189.59, 4160478.63 ], [ 282190.32, 4160477.76 ], [ 282165.8, 4160430.61 ], [ 282165.71, 4160430.4 ], [ 282165.68, 4160430.32 ] ] ] ] } },
{ "type": "Feature", "properties": { "id": "imagery:groundcover_lawn:344", "name": null, "kind": "groundcover_lawn", "sport": null, "surface": null, "pitch_layout": null, "source": "vgin_vbmp+naip+lidar2025", "source_updated": null, "base_z": null, "top_z": null }, "geometry": { "type": "MultiPolygon", "coordinates": [ [ [ [ 282250.0, 4160463.34 ], [ 282246.45, 4160467.07 ], [ 282246.3, 4160467.21 ], [ 282233.49, 4160479.56 ], [ 282233.16, 4160479.85 ], [ 282232.13, 4160480.67 ], [ 282232.13, 4160481.03 ], [ 282231.71, 4160482.05 ], [ 282231.25, 4160482.5 ], [ 282230.6, 4160485.77 ], [ 282230.92, 4160485.99 ], [ 282235.66, 4160482.2 ], [ 282247.35, 4160471.79 ], [ 282250.0, 4160468.91 ], [ 282250.0, 4160463.34 ] ] ], [ [ [ 282248.99, 4160484.69 ], [ 282249.28, 4160485.87 ], [ 282247.83, 4160493.15 ], [ 282250.0, 4160494.62 ], [ 282250.0, 4160482.28 ], [ 282248.27, 4160483.82 ], [ 282248.99, 4160484.69 ] ] ], [ [ [ 282245.46, 4160495.98 ], [ 282245.07, 4160496.3 ], [ 282244.15, 4160496.63 ], [ 282237.67, 4160496.63 ], [ 282234.71, 4160499.13 ], [ 282234.57, 4160500.0 ], [ 282250.0, 4160500.0 ], [ 282250.0, 4160498.67 ], [ 282249.07, 4160495.84 ], [ 282245.46, 4160495.98 ] ] ] ] } },
{ "type": "Feature", "properties": { "id": "imagery:groundcover_lawn:323", "name": null, "kind": "groundcover_lawn", "sport": null, "surface": null, "pitch_layout": null, "source": "vgin_vbmp+naip+lidar2025", "source_updated": null, "base_z": null, "top_z": null }, "geometry": { "type": "Polygon", "coordinates": [ [ [ 282151.13, 4160387.79 ], [ 282149.08, 4160384.94 ], [ 282144.12, 4160383.29 ], [ 282140.82, 4160384.26 ], [ 282139.62, 4160385.76 ], [ 282139.58, 4160385.83 ], [ 282139.51, 4160385.9 ], [ 282139.48, 4160385.93 ], [ 282132.32, 4160394.89 ], [ 282133.18, 4160399.37 ], [ 282146.64, 4160407.06 ], [ 282151.13, 4160404.46 ], [ 282151.13, 4160387.79 ] ] ] } },
{ "type": "Feature", "properties": { "id": "osm:way/1089787595", "name": null, "kind": "parking", "sport": null, "surface": "asphalt", "pitch_layout": null, "source": null, "source_updated": null, "base_z": null, "top_z": null }, "geometry": { "type": "Polygon", "coordinates": [ [ [ 282074.97, 4160482.89 ], [ 282037.26, 4160500.0 ], [ 282058.72, 4160500.0 ], [ 282078.57, 4160490.66 ], [ 282074.97, 4160482.89 ] ] ] } }
]
}
