{
"type": "FeatureCollection",
"name": "pois",
"crs": { "type": "name", "properties": { "name": "urn:ogc:def:crs:EPSG::32618" } },
"xy_coordinate_resolution": 0.01,
"features": [
{ "type": "Feature", "properties": { "id": "lidar-tree:282220:4160390", "name": null, "kind": "tree", "species": null, "source": "lidar2025", "tree_height": 5.6, "crown_radius": 4.3, "height_source": "lidar2025" }, "geometry": { "type": "Point", "coordinates": [ 282220.5, 4160390.5 ] } },
{ "type": "Feature", "properties": { "id": "lidar-tree:282228:4160396", "name": null, "kind": "tree", "species": null, "source": "lidar2025", "tree_height": 7.2, "crown_radius": 5.6, "height_source": "lidar2025" }, "geometry": { "type": "Point", "coordinates": [ 282228.5, 4160395.5 ] } },
{ "type": "Feature", "properties": { "id": "lidar-tree:282242:4160396", "name": null, "kind": "tree", "species": null, "source": "lidar2025", "tree_height": 8.3, "crown_radius": 5.3, "height_source": "lidar2025" }, "geometry": { "type": "Point", "coordinates": [ 282241.5, 4160395.5 ] } },
{ "type": "Feature", "properties": { "id": "lidar-tree:282220:4160396", "name": null, "kind": "tree", "species": null, "source": "lidar2025", "tree_height": 5.2, "crown_radius": 3.6, "height_source": "lidar2025" }, "geometry": { "type": "Point", "coordinates": [ 282219.5, 4160396.5 ] } },
{ "type": "Feature", "properties": { "id": "lidar-tree:282244:4160418", "name": null, "kind": "tree", "species": null, "source": "lidar2025", "tree_height": 6.0, "crown_radius": 2.5, "height_source": "lidar2025" }, "geometry": { "type": "Point", "coordinates": [ 282244.5, 4160418.5 ] } },
{ "type": "Feature", "properties": { "id": "lidar-tree:282230:4160422", "name": null, "kind": "tree", "species": null, "source": "lidar2025", "tree_height": 8.1, "crown_radius": 4.7, "height_source": "lidar2025" }, "geometry": { "type": "Point", "coordinates": [ 282229.5, 4160422.5 ] } },
{ "type": "Feature", "properties": { "id": "lidar-tree:282236:4160430", "name": null, "kind": "tree", "species": null, "source": "lidar2025", "tree_height": 10.1, "crown_radius": 3.2, "height_source": "lidar2025" }, "geometry": { "type": "Point", "coordinates": [ 282236.5, 4160430.5 ] } },
{ "type": "Feature", "properties": { "id": "lidar-tree:282226:4160438", "name": null, "kind": "tree", "species": null, "source": "lidar2025", "tree_height": 8.2, "crown_radius": 3.2, "height_source": "lidar2025" }, "geometry": { "type": "Point", "coordinates": [ 282226.5, 4160437.5 ] } },
{ "type": "Feature", "properties": { "id": "lidar-tree:282222:4160446", "name": null, "kind": "tree", "species": null, "source": "lidar2025", "tree_height": 7.2, "crown_radius": 4.2, "height_source": "lidar2025" }, "geometry": { "type": "Point", "coordinates": [ 282222.5, 4160445.5 ] } },
{ "type": "Feature", "properties": { "id": "rva-tree:20189", "name": "Platanus occidentalis", "kind": "tree", "species": "Platanus occidentalis", "source": "city_inventory", "tree_height": 13.3, "crown_radius": 6.0, "height_source": "lidar2025" }, "geometry": { "type": "Point", "coordinates": [ 282243.84, 4160453.39 ] } },
{ "type": "Feature", "properties": { "id": "lidar-tree:282242:4160460", "name": null, "kind": "tree", "species": null, "source": "lidar2025", "tree_height": 13.3, "crown_radius": 6.0, "height_source": "lidar2025" }, "geometry": { "type": "Point", "coordinates": [ 282241.5, 4160459.5 ] } },
{ "type": "Feature", "properties": { "id": "rva-tree:20288", "name": "Lagerstroemia indica", "kind": "tree", "species": "Lagerstroemia indica", "source": "city_inventory", "tree_height": 8.0, "crown_radius": 2.5, "height_source": "estimated" }, "geometry": { "type": "Point", "coordinates": [ 282246.8, 4160469.94 ] } },
{ "type": "Feature", "properties": { "id": "rva-tree:20289", "name": "Lagerstroemia indica", "kind": "tree", "species": "Lagerstroemia indica", "source": "city_inventory", "tree_height": 9.3, "crown_radius": 6.0, "height_source": "lidar2025" }, "geometry": { "type": "Point", "coordinates": [ 282241.75, 4160475.21 ] } },
{ "type": "Feature", "properties": { "id": "rva-tree:20188", "name": "Platanus occidentalis", "kind": "tree", "species": "Platanus occidentalis", "source": "city_inventory", "tree_height": 14.7, "crown_radius": 6.0, "height_source": "lidar2025" }, "geometry": { "type": "Point", "coordinates": [ 282218.19, 4160476.41 ] } },
{ "type": "Feature", "properties": { "id": "rva-tree:20290", "name": "Lagerstroemia indica", "kind": "tree", "species": "Lagerstroemia indica", "source": "city_inventory", "tree_height": 9.9, "crown_radius": 6.0, "height_source": "lidar2025" }, "geometry": { "type": "Point", "coordinates": [ 282236.08, 4160479.47 ] } },
{ "type": "Feature", "properties": { "id": "rva-tree:20291", "name": "Lagerstroemia indica", "kind": "tree", "species": "Lagerstroemia indica", "source": "city_inventory", "tree_height": 9.0, "crown_radius": 6.0, "height_source": "lidar2025" }, "geometry": { "type": "Point", "coordinates": [ 282224.29, 4160488.58 ] } },
{ "type": "Feature", "properties": { "id": "lidar-tree:282112:4160250", "name": null, "kind": "tree", "species": null, "source": "lidar2025", "tree_height": 10.1, "crown_radius": 6.0, "height_source": "lidar2025" }, "geometry": { "type": "Point", "coordinates": [ 282112.5, 4160250.5 ] } },
{ "type": "Feature", "properties": { "id": "lidar-tree:282140:4160252", "name": null, "kind": "tree", "species": null, "source": "lidar2025", "tree_height": 8.4, "crown_radius": 4.9, "height_source": "lidar2025" }, "geometry": { "type": "Point", "coordinates": [ 282140.5, 4160252.5 ] } },
{ "type": "Feature", "properties": { "id": "lidar-tree:282094:4160258", "name": null, "kind": "tree", "species": null, "source": "lidar2025", "tree_height": 4.7, "crown_radius": 1.5, "height_source": "lidar2025" }, "geometry": { "type": "Point", "coordinates": [ 282094.5, 4160257.5 ] } },
{ "type": "Feature", "properties": { "id": "lidar-tree:282140:4160266", "name": null, "kind": "tree", "species": null, "source": "lidar2025", "tree_height": 10.0, "crown_radius": 5.6, "height_source": "lidar2025" }, "geometry": { "type": "Point", "coordinates": [ 282139.5, 4160265.5 ] } },
{ "type": "Feature", "properties": { "id": "lidar-tree:282112:4160270", "name": null, "kind": "tree", "species": null, "source": "lidar2025", "tree_height": 10.8, "crown_radius": 6.0, "height_source": "lidar2025" }, "geometry": { "type": "Point", "coordinates": [ 282112.5, 4160270.5 ] } },
{ "type": "Feature", "properties": { "id": "lidar-tree:282152:4160272", "name": null, "kind": "tree", "species": null, "source": "lidar2025", "tree_height": 6.7, "crown_radius": 3.0, "height_source": "lidar2025" }, "geometry": { "type": "Point", "coordinates": [ 282151.5, 4160271.5 ] } },
{ "type": "Feature", "properties": { "id": "lidar-tree:282182:4160254", "name": null, "kind": "tree", "species": null, "source": "lidar2025", "tree_height": 8.1, "crown_radius": 5.0, "height_source": "lidar2025" }, "geometry": { "type": "Point", "coordinates": [ 282182.5, 4160253.5 ] } },
{ "type": "Feature", "properties": { "id": "lidar-tree:282178:4160262", "name": null, "kind": "tree", "species": null, "source": "lidar2025", "tree_height": 7.9, "crown_radius": 5.4, "height_source": "lidar2025" }, "geometry": { "type": "Point", "coordinates": [ 282178.5, 4160261.5 ] } },
{ "type": "Feature", "properties": { "id": "lidar-tree:282170:4160276", "name": null, "kind": "tree", "species": null, "source": "lidar2025", "tree_height": 9.0, "crown_radius": 5.2, "height_source": "lidar2025" }, "geometry": { "type": "Point", "coordinates": [ 282169.5, 4160276.5 ] } },
{ "type": "Feature", "properties": { "id": "lidar-tree:282166:4160284", "name": null, "kind": "tree", "species": null, "source": "lidar2025", "tree_height": 8.3, "crown_radius": 5.0, "height_source": "lidar2025" }, "geometry": { "type": "Point", "coordinates": [ 282165.5, 4160284.5 ] } },
{ "type": "Feature", "properties": { "id": "lidar-tree:282164:4160294", "name": null, "kind": "tree", "species": null, "source": "lidar2025", "tree_height": 8.6, "crown_radius": 5.6, "height_source": "lidar2025" }, "geometry": { "type": "Point", "coordinates": [ 282163.5, 4160293.5 ] } },
{ "type": "Feature", "properties": { "id": "lidar-tree:282160:4160302", "name": null, "kind": "tree", "species": null, "source": "lidar2025", "tree_height": 9.8, "crown_radius": 5.1, "height_source": "lidar2025" }, "geometry": { "type": "Point", "coordinates": [ 282160.5, 4160301.5 ] } },
{ "type": "Feature", "properties": { "id": "lidar-tree:282156:4160326", "name": null, "kind": "tree", "species": null, "source": "lidar2025", "tree_height": 12.7, "crown_radius": 5.5, "height_source": "lidar2025" }, "geometry": { "type": "Point", "coordinates": [ 282155.5, 4160326.5 ] } },
{ "type": "Feature", "properties": { "id": "lidar-tree:282002:4160252", "name": null, "kind": "tree", "species": null, "source": "lidar2025", "tree_height": 5.5, "crown_radius": 3.0, "height_source": "lidar2025" }, "geometry": { "type": "Point", "coordinates": [ 282001.5, 4160251.5 ] } },
{ "type": "Feature", "properties": { "id": "lidar-tree:282026:4160270", "name": null, "kind": "tree", "species": null, "source": "lidar2025", "tree_height": 4.3, "crown_radius": 2.1, "height_source": "lidar2025" }, "geometry": { "type": "Point", "coordinates": [ 282026.5, 4160270.5 ] } },
{ "type": "Feature", "properties": { "id": "lidar-tree:282008:4160284", "name": null, "kind": "tree", "species": null, "source": "lidar2025", "tree_height": 4.6, "crown_radius": 1.7, "height_source": "lidar2025" }, "geometry": { "type": "Point", "coordinates": [ 282008.5, 4160284.5 ] } },
{ "type": "Feature", "properties": { "id": "lidar-tree:282020:4160320", "name": null, "kind": "tree", "species": null, "source": "lidar2025", "tree_height": 4.9, "crown_radius": 2.5, "height_source": "lidar2025" }, "geometry": { "type": "Point", "coordinates": [ 282019.5, 4160319.5 ] } },
{ "type": "Feature", "properties": { "id": "lidar-tree:282006:4160354", "name": null, "kind": "tree", "species": null, "source": "lidar2025", "tree_height": 4.4, "crown_radius": 2.3, "height_source": "lidar2025" }, "geometry": { "type": "Point", "coordinates": [ 282006.5, 4160354.5 ] } },
{ "type": "Feature", "properties": { "id": "lidar-tree:282008:4160386", "name": null, "kind": "tree", "species": null, "source": "lidar2025", "tree_height": 7.8, "crown_radius": 1.9, "height_source": "lidar2025" }, "geometry": { "type": "Point", "coordinates": [ 282007.5, 4160385.5 ] } },
{ "type": "Feature", "properties": { "id": "lidar-tree:282132:4160274", "name": null, "kind": "tree", "species": null, "source": "lidar2025", "tree_height": 9.3, "crown_radius": 5.0, "height_source": "lidar2025" }, "geometry": { "type": "Point", "coordinates": [ 282132.5, 4160273.5 ] } },
{ "type": "Feature", "properties": { "id": "lidar-tree:282134:4160286", "name": null, "kind": "tree", "species": null, "source": "lidar2025", "tree_height": 7.6, "crown_radius": 3.6, "height_source": "lidar2025" }, "geometry": { "type": "Point", "coordinates": [ 282134.5, 4160285.5 ] } },
{ "type": "Feature", "properties": { "id": "lidar-tree:282154:4160302", "name": null, "kind": "tree", "species": null, "source": "lidar2025", "tree_height": 5.1, "crown_radius": 3.1, "height_source": "lidar2025" }, "geometry": { "type": "Point", "coordinates": [ 282153.5, 4160301.5 ] } },
{ "type": "Feature", "properties": { "id": "lidar-tree:282116:4160386", "name": null, "kind": "tree", "species": null, "source": "lidar2025", "tree_height": 6.5, "crown_radius": 2.0, "height_source": "lidar2025" }, "geometry": { "type": "Point", "coordinates": [ 282115.5, 4160386.5 ] } },
{ "type": "Feature", "properties": { "id": "lidar-tree:282106:4160394", "name": null, "kind": "tree", "species": null, "source": "lidar2025", "tree_height": 5.7, "crown_radius": 2.3, "height_source": "lidar2025" }, "geometry": { "type": "Point", "coordinates": [ 282106.5, 4160393.5 ] } },
{ "type": "Feature", "properties": { "id": "lidar-tree:282138:4160394", "name": null, "kind": "tree", "species": null, "source": "lidar2025", "tree_height": 9.8, "crown_radius": 5.5, "height_source": "lidar2025" }, "geometry": { "type": "Point", "coordinates": [ 282137.5, 4160394.5 ] } },
{ "type": "Feature", "properties": { "id": "lidar-tree:282102:4160398", "name": null, "kind": "tree", "species": null, "source": "lidar2025", "tree_height": 5.3, "crown_radius": 2.3, "height_source": "lidar2025" }, "geometry": { "type": "Point", "coordinates": [ 282101.5, 4160397.5 ] } },
{ "type": "Feature", "properties": { "id": "lidar-tree:282144:4160400", "name": null, "kind": "tree", "species": null, "source": "lidar2025", "tree_height": 7.7, "crown_radius": 6.0, "height_source": "lidar2025" }, "geometry": { "type": "Point", "coordinates": [ 282144.5, 4160400.5 ] } },
{ "type": "Feature", "properties": { "id": "lidar-tree:282114:4160400", "name": null, "kind": "tree", "species": null, "source": "lidar2025", "tree_height": 5.2, "crown_radius": 1.9, "height_source": "lidar2025" }, "geometry": { "type": "Point", "coordinates": [ 282114.5, 4160400.5 ] } },
{ "type": "Feature", "properties": { "id": "lidar-tree:282092:4160404", "name": null, "kind": "tree", "species": null, "source": "lidar2025", "tree_height": 6.5, "crown_radius": 2.0, "height_source": "lidar2025" }, "geometry": { "type": "Point", "coordinates": [ 282091.5, 4160404.5 ] } },
{ "type": "Feature", "properties": { "id": "lidar-tree:282160:4160350", "name": null, "kind": "tree", "species": null, "source": "lidar2025", "tree_height": 12.1, "crown_radius": 5.7, "height_source": "lidar2025" }, "geometry": { "type": "Point", "coordinates": [ 282159.5, 4160349.5 ] } },
{ "type": "Feature", "properties": { "id": "lidar-tree:282194:4160364", "name": null, "kind": "tree", "species": null, "source": "lidar2025", "tree_height": 8.1, "crown_radius": 5.6, "height_source": "lidar2025" }, "geometry": { "type": "Point", "coordinates": [ 282194.5, 4160363.5 ] } },
{ "type": "Feature", "properties": { "id": "lidar-tree:282188:4160366", "name": null, "kind": "tree", "species": null, "source": "lidar2025", "tree_height": 7.2, "crown_radius": 5.3, "height_source": "lidar2025" }, "geometry": { "type": "Point", "coordinates": [ 282187.5, 4160366.5 ] } },
{ "type": "Feature", "properties": { "id": "lidar-tree:282164:4160366", "name": null, "kind": "tree", "species": null, "source": "lidar2025", "tree_height": 7.3, "crown_radius": 3.3, "height_source": "lidar2025" }, "geometry": { "type": "Point", "coordinates": [ 282164.5, 4160366.5 ] } },
{ "type": "Feature", "properties": { "id": "lidar-tree:282202:4160372", "name": null, "kind": "tree", "species": null, "source": "lidar2025", "tree_height": 9.1, "crown_radius": 6.0, "height_source": "lidar2025" }, "geometry": { "type": "Point", "coordinates": [ 282201.5, 4160372.5 ] } },
{ "type": "Feature", "properties": { "id": "lidar-tree:282190:4160374", "name": null, "kind": "tree", "species": null, "source": "lidar2025", "tree_height": 6.6, "crown_radius": 5.6, "height_source": "lidar2025" }, "geometry": { "type": "Point", "coordinates": [ 282189.5, 4160374.5 ] } },
{ "type": "Feature", "properties": { "id": "lidar-tree:282168:4160384", "name": null, "kind": "tree", "species": null, "source": "lidar2025", "tree_height": 10.6, "crown_radius": 4.8, "height_source": "lidar2025" }, "geometry": { "type": "Point", "coordinates": [ 282168.5, 4160383.5 ] } },
{ "type": "Feature", "properties": { "id": "lidar-tree:282168:4160392", "name": null, "kind": "tree", "species": null, "source": "lidar2025", "tree_height": 10.2, "crown_radius": 5.5, "height_source": "lidar2025" }, "geometry": { "type": "Point", "coordinates": [ 282167.5, 4160391.5 ] } },
{ "type": "Feature", "properties": { "id": "lidar-tree:282182:4160398", "name": null, "kind": "tree", "species": null, "source": "lidar2025", "tree_height": 8.0, "crown_radius": 4.2, "height_source": "lidar2025" }, "geometry": { "type": "Point", "coordinates": [ 282181.5, 4160398.5 ] } },
{ "type": "Feature", "properties": { "id": "lidar-tree:282168:4160400", "name": null, "kind": "tree", "species": null, "source": "lidar2025", "tree_height": 8.8, "crown_radius": 4.3, "height_source": "lidar2025" }, "geometry": { "type": "Point", "coordinates": [ 282167.5, 4160400.5 ] } },
{ "type": "Feature", "properties": { "id": "lidar-tree:282060:4160284", "name": null, "kind": "tree", "species": null, "source": "lidar2025", "tree_height": 6.1, "crown_radius": 3.2, "height_source": "lidar2025" }, "geometry": { "type": "Point", "coordinates": [ 282059.5, 4160284.5 ] } },
{ "type": "Feature", "properties": { "id": "lidar-tree:282054:4160336", "name": null, "kind": "tree", "species": null, "source": "lidar2025", "tree_height": 5.9, "crown_radius": 1.7, "height_source": "lidar2025" }, "geometry": { "type": "Point", "coordinates": [ 282054.5, 4160335.5 ] } },
{ "type": "Feature", "properties": { "id": "lidar-tree:282036:4160350", "name": null, "kind": "tree", "species": null, "source": "lidar2025", "tree_height": 5.5, "crown_radius": 1.6, "height_source": "lidar2025" }, "geometry": { "type": "Point", "coordinates": [ 282035.5, 4160350.5 ] } },
{ "type": "Feature", "properties": { "id": "lidar-tree:282084:4160414", "name": null, "kind": "tree", "species": null, "source": "lidar2025", "tree_height": 5.0, "crown_radius": 1.7, "height_source": "lidar2025" }, "geometry": { "type": "Point", "coordinates": [ 282083.5, 4160413.5 ] } },
{ "type": "Feature", "properties": { "id": "lidar-tree:282048:4160418", "name": null, "kind": "tree", "species": null, "source": "lidar2025", "tree_height": 7.5, "crown_radius": 2.0, "height_source": "lidar2025" }, "geometry": { "type": "Point", "coordinates": [ 282047.5, 4160418.5 ] } },
{ "type": "Feature", "properties": { "id": "lidar-tree:282190:4160416", "name": null, "kind": "tree", "species": null, "source": "lidar2025", "tree_height": 12.1, "crown_radius": 3.8, "height_source": "lidar2025" }, "geometry": { "type": "Point", "coordinates": [ 282190.5, 4160416.5 ] } },
{ "type": "Feature", "properties": { "id": "lidar-tree:282210:4160418", "name": null, "kind": "tree", "species": null, "source": "lidar2025", "tree_height": 5.8, "crown_radius": 3.8, "height_source": "lidar2025" }, "geometry": { "type": "Point", "coordinates": [ 282209.5, 4160417.5 ] } },
{ "type": "Feature", "properties": { "id": "lidar-tree:282198:4160418", "name": null, "kind": "tree", "species": null, "source": "lidar2025", "tree_height": 9.9, "crown_radius": 4.7, "height_source": "lidar2025" }, "geometry": { "type": "Point", "coordinates": [ 282198.5, 4160417.5 ] } },
{ "type": "Feature", "properties": { "id": "lidar-tree:282156:4160418", "name": null, "kind": "tree", "species": null, "source": "lidar2025", "tree_height": 7.4, "crown_radius": 3.7, "height_source": "lidar2025" }, "geometry": { "type": "Point", "coordinates": [ 282155.5, 4160417.5 ] } },
{ "type": "Feature", "properties": { "id": "lidar-tree:282180:4160424", "name": null, "kind": "tree", "species": null, "source": "lidar2025", "tree_height": 10.7, "crown_radius": 6.0, "height_source": "lidar2025" }, "geometry": { "type": "Point", "coordinates": [ 282180.5, 4160423.5 ] } },
{ "type": "Feature", "properties": { "id": "lidar-tree:282160:4160424", "name": null, "kind": "tree", "species": null, "source": "lidar2025", "tree_height": 11.2, "crown_radius": 3.3, "height_source": "lidar2025" }, "geometry": { "type": "Point", "coordinates": [ 282159.5, 4160424.5 ] } },
{ "type": "Feature", "properties": { "id": "lidar-tree:282154:4160428", "name": null, "kind": "tree", "species": null, "source": "lidar2025", "tree_height": 6.9, "crown_radius": 4.6, "height_source": "lidar2025" }, "geometry": { "type": "Point", "coordinates": [ 282154.5, 4160427.5 ] } },
{ "type": "Feature", "properties": { "id": "lidar-tree:282182:4160438", "name": null, "kind": "tree", "species": null, "source": "lidar2025", "tree_height": 7.0, "crown_radius": 5.2, "height_source": "lidar2025" }, "geometry": { "type": "Point", "coordinates": [ 282182.5, 4160438.5 ] } },
{ "type": "Feature", "properties": { "id": "lidar-tree:282162:4160444", "name": null, "kind": "tree", "species": null, "source": "lidar2025", "tree_height": 4.6, "crown_radius": 1.8, "height_source": "lidar2025" }, "geometry": { "type": "Point", "coordinates": [ 282162.5, 4160444.5 ] } },
{ "type": "Feature", "properties": { "id": "lidar-tree:282190:4160452", "name": null, "kind": "tree", "species": null, "source": "lidar2025", "tree_height": 11.5, "crown_radius": 5.6, "height_source": "lidar2025" }, "geometry": { "type": "Point", "coordinates": [ 282190.5, 4160451.5 ] } },
{ "type": "Feature", "properties": { "id": "lidar-tree:282094:4160422", "name": null, "kind": "tree", "species": null, "source": "lidar2025", "tree_height": 6.4, "crown_radius": 2.3, "height_source": "lidar2025" }, "geometry": { "type": "Point", "coordinates": [ 282094.5, 4160421.5 ] } },
{ "type": "Feature", "properties": { "id": "osm:node/9983526632", "name": "Autopart International", "kind": "shop", "species": null, "source": null, "tree_height": null, "crown_radius": null, "height_source": null }, "geometry": { "type": "Point", "coordinates": [ 282096.38, 4160455.34 ] } },
{ "type": "Feature", "properties": { "id": "osm:node/9983526631", "name": "VA Imports", "kind": "shop", "species": null, "source": null, "tree_height": null, "crown_radius": null, "height_source": null }, "geometry": { "type": "Point", "coordinates": [ 282121.94, 4160494.92 ] } },
{ "type": "Feature", "properties": { "id": "lidar-tree:282202:4160458", "name": null, "kind": "tree", "species": null, "source": "lidar2025", "tree_height": 10.6, "crown_radius": 4.9, "height_source": "lidar2025" }, "geometry": { "type": "Point", "coordinates": [ 282202.5, 4160457.5 ] } },
{ "type": "Feature", "properties": { "id": "lidar-tree:282194:4160468", "name": null, "kind": "tree", "species": null, "source": "lidar2025", "tree_height": 9.8, "crown_radius": 5.4, "height_source": "lidar2025" }, "geometry": { "type": "Point", "coordinates": [ 282194.5, 4160467.5 ] } },
{ "type": "Feature", "properties": { "id": "lidar-tree:282200:4160474", "name": null, "kind": "tree", "species": null, "source": "lidar2025", "tree_height": 10.7, "crown_radius": 5.4, "height_source": "lidar2025" }, "geometry": { "type": "Point", "coordinates": [ 282199.5, 4160474.5 ] } },
{ "type": "Feature", "properties": { "id": "osm:node/9983526630", "name": "Builders Cabinet Company", "kind": "shop", "species": null, "source": null, "tree_height": null, "crown_radius": null, "height_source": null }, "geometry": { "type": "Point", "coordinates": [ 282165.38, 4160481.47 ] } },
{ "type": "Feature", "properties": { "id": "lidar-tree:282188:4160482", "name": null, "kind": "tree", "species": null, "source": "lidar2025", "tree_height": 6.3, "crown_radius": 4.4, "height_source": "lidar2025" }, "geometry": { "type": "Point", "coordinates": [ 282188.5, 4160482.5 ] } },
{ "type": "Feature", "properties": { "id": "lidar-tree:282008:4160390", "name": null, "kind": "tree", "species": null, "source": "lidar2025", "tree_height": 13.0, "crown_radius": 1.4, "height_source": "lidar2025" }, "geometry": { "type": "Point", "coordinates": [ 282007.5, 4160389.5 ] } },
{ "type": "Feature", "properties": { "id": "lidar-tree:282026:4160398", "name": null, "kind": "tree", "species": null, "source": "lidar2025", "tree_height": 7.7, "crown_radius": 1.8, "height_source": "lidar2025" }, "geometry": { "type": "Point", "coordinates": [ 282025.5, 4160398.5 ] } }
]
}
