{
"type": "FeatureCollection",
"name": "pois",
"crs": { "type": "name", "properties": { "name": "urn:ogc:def:crs:EPSG::32618" } },
"xy_coordinate_resolution": 0.01,
"features": [
{ "type": "Feature", "properties": { "id": "lidar-tree:283934:4156252", "name": null, "kind": "tree", "species": null, "source": "lidar2025", "tree_height": 18.6, "crown_radius": 6.0, "height_source": "lidar2025" }, "geometry": { "type": "Point", "coordinates": [ 283933.5, 4156251.5 ] } },
{ "type": "Feature", "properties": { "id": "lidar-tree:283964:4156264", "name": null, "kind": "tree", "species": null, "source": "lidar2025", "tree_height": 16.0, "crown_radius": 6.0, "height_source": "lidar2025" }, "geometry": { "type": "Point", "coordinates": [ 283964.5, 4156264.5 ] } },
{ "type": "Feature", "properties": { "id": "lidar-tree:283936:4156274", "name": null, "kind": "tree", "species": null, "source": "lidar2025", "tree_height": 18.3, "crown_radius": 6.0, "height_source": "lidar2025" }, "geometry": { "type": "Point", "coordinates": [ 283936.5, 4156273.5 ] } },
{ "type": "Feature", "properties": { "id": "lidar-tree:283988:4156288", "name": null, "kind": "tree", "species": null, "source": "lidar2025", "tree_height": 5.1, "crown_radius": 1.9, "height_source": "lidar2025" }, "geometry": { "type": "Point", "coordinates": [ 283988.5, 4156288.5 ] } },
{ "type": "Feature", "properties": { "id": "lidar-tree:283992:4156294", "name": null, "kind": "tree", "species": null, "source": "lidar2025", "tree_height": 10.0, "crown_radius": 1.6, "height_source": "lidar2025" }, "geometry": { "type": "Point", "coordinates": [ 283991.5, 4156293.5 ] } },
{ "type": "Feature", "properties": { "id": "lidar-tree:283826:4156250", "name": null, "kind": "tree", "species": null, "source": "lidar2025", "tree_height": 10.7, "crown_radius": 5.3, "height_source": "lidar2025" }, "geometry": { "type": "Point", "coordinates": [ 283826.5, 4156250.5 ] } },
{ "type": "Feature", "properties": { "id": "lidar-tree:283880:4156254", "name": null, "kind": "tree", "species": null, "source": "lidar2025", "tree_height": 5.7, "crown_radius": 1.7, "height_source": "lidar2025" }, "geometry": { "type": "Point", "coordinates": [ 283879.5, 4156253.5 ] } },
{ "type": "Feature", "properties": { "id": "lidar-tree:283796:4156252", "name": null, "kind": "tree", "species": null, "source": "lidar2025", "tree_height": 15.2, "crown_radius": 6.0, "height_source": "lidar2025" }, "geometry": { "type": "Point", "coordinates": [ 283795.5, 4156252.5 ] } },
{ "type": "Feature", "properties": { "id": "lidar-tree:283750:4156258", "name": null, "kind": "tree", "species": null, "source": "lidar2025", "tree_height": 16.4, "crown_radius": 6.0, "height_source": "lidar2025" }, "geometry": { "type": "Point", "coordinates": [ 283750.5, 4156258.5 ] } },
{ "type": "Feature", "properties": { "id": "lidar-tree:283766:4156262", "name": null, "kind": "tree", "species": null, "source": "lidar2025", "tree_height": 23.9, "crown_radius": 6.0, "height_source": "lidar2025" }, "geometry": { "type": "Point", "coordinates": [ 283765.5, 4156261.5 ] } },
{ "type": "Feature", "properties": { "id": "lidar-tree:283780:4156262", "name": null, "kind": "tree", "species": null, "source": "lidar2025", "tree_height": 22.5, "crown_radius": 6.0, "height_source": "lidar2025" }, "geometry": { "type": "Point", "coordinates": [ 283779.5, 4156262.5 ] } },
{ "type": "Feature", "properties": { "id": "lidar-tree:283806:4156264", "name": null, "kind": "tree", "species": null, "source": "lidar2025", "tree_height": 25.4, "crown_radius": 6.0, "height_source": "lidar2025" }, "geometry": { "type": "Point", "coordinates": [ 283806.5, 4156263.5 ] } },
{ "type": "Feature", "properties": { "id": "lidar-tree:283790:4156266", "name": null, "kind": "tree", "species": null, "source": "lidar2025", "tree_height": 20.1, "crown_radius": 5.9, "height_source": "lidar2025" }, "geometry": { "type": "Point", "coordinates": [ 283789.5, 4156265.5 ] } },
{ "type": "Feature", "properties": { "id": "lidar-tree:283770:4156282", "name": null, "kind": "tree", "species": null, "source": "lidar2025", "tree_height": 7.9, "crown_radius": 4.4, "height_source": "lidar2025" }, "geometry": { "type": "Point", "coordinates": [ 283770.5, 4156282.5 ] } },
{ "type": "Feature", "properties": { "id": "lidar-tree:283824:4156258", "name": null, "kind": "tree", "species": null, "source": "lidar2025", "tree_height": 13.7, "crown_radius": 6.0, "height_source": "lidar2025" }, "geometry": { "type": "Point", "coordinates": [ 283823.5, 4156258.5 ] } },
{ "type": "Feature", "properties": { "id": "lidar-tree:283852:4156264", "name": null, "kind": "tree", "species": null, "source": "lidar2025", "tree_height": 15.8, "crown_radius": 6.0, "height_source": "lidar2025" }, "geometry": { "type": "Point", "coordinates": [ 283851.5, 4156263.5 ] } },
{ "type": "Feature", "properties": { "id": "lidar-tree:283860:4156266", "name": null, "kind": "tree", "species": null, "source": "lidar2025", "tree_height": 16.1, "crown_radius": 6.0, "height_source": "lidar2025" }, "geometry": { "type": "Point", "coordinates": [ 283860.5, 4156265.5 ] } },
{ "type": "Feature", "properties": { "id": "lidar-tree:283882:4156266", "name": null, "kind": "tree", "species": null, "source": "lidar2025", "tree_height": 8.9, "crown_radius": 3.7, "height_source": "lidar2025" }, "geometry": { "type": "Point", "coordinates": [ 283882.5, 4156265.5 ] } },
{ "type": "Feature", "properties": { "id": "lidar-tree:283820:4156270", "name": null, "kind": "tree", "species": null, "source": "lidar2025", "tree_height": 21.2, "crown_radius": 6.0, "height_source": "lidar2025" }, "geometry": { "type": "Point", "coordinates": [ 283820.5, 4156270.5 ] } },
{ "type": "Feature", "properties": { "id": "lidar-tree:283838:4156274", "name": null, "kind": "tree", "species": null, "source": "lidar2025", "tree_height": 26.6, "crown_radius": 6.0, "height_source": "lidar2025" }, "geometry": { "type": "Point", "coordinates": [ 283838.5, 4156274.5 ] } },
{ "type": "Feature", "properties": { "id": "lidar-tree:283854:4156276", "name": null, "kind": "tree", "species": null, "source": "lidar2025", "tree_height": 24.0, "crown_radius": 6.0, "height_source": "lidar2025" }, "geometry": { "type": "Point", "coordinates": [ 283853.5, 4156275.5 ] } },
{ "type": "Feature", "properties": { "id": "lidar-tree:283866:4156282", "name": null, "kind": "tree", "species": null, "source": "lidar2025", "tree_height": 24.6, "crown_radius": 6.0, "height_source": "lidar2025" }, "geometry": { "type": "Point", "coordinates": [ 283865.5, 4156281.5 ] } },
{ "type": "Feature", "properties": { "id": "lidar-tree:283880:4156282", "name": null, "kind": "tree", "species": null, "source": "lidar2025", "tree_height": 12.7, "crown_radius": 4.3, "height_source": "lidar2025" }, "geometry": { "type": "Point", "coordinates": [ 283879.5, 4156282.5 ] } },
{ "type": "Feature", "properties": { "id": "lidar-tree:283824:4156310", "name": null, "kind": "tree", "species": null, "source": "lidar2025", "tree_height": 10.8, "crown_radius": 6.0, "height_source": "lidar2025" }, "geometry": { "type": "Point", "coordinates": [ 283824.5, 4156309.5 ] } },
{ "type": "Feature", "properties": { "id": "lidar-tree:283782:4156290", "name": null, "kind": "tree", "species": null, "source": "lidar2025", "tree_height": 7.8, "crown_radius": 3.5, "height_source": "lidar2025" }, "geometry": { "type": "Point", "coordinates": [ 283782.5, 4156289.5 ] } },
{ "type": "Feature", "properties": { "id": "lidar-tree:283762:4156296", "name": null, "kind": "tree", "species": null, "source": "lidar2025", "tree_height": 6.7, "crown_radius": 5.0, "height_source": "lidar2025" }, "geometry": { "type": "Point", "coordinates": [ 283761.5, 4156295.5 ] } },
{ "type": "Feature", "properties": { "id": "lidar-tree:283790:4156298", "name": null, "kind": "tree", "species": null, "source": "lidar2025", "tree_height": 16.2, "crown_radius": 5.3, "height_source": "lidar2025" }, "geometry": { "type": "Point", "coordinates": [ 283789.5, 4156298.5 ] } },
{ "type": "Feature", "properties": { "id": "lidar-tree:283774:4156298", "name": null, "kind": "tree", "species": null, "source": "lidar2025", "tree_height": 5.9, "crown_radius": 2.9, "height_source": "lidar2025" }, "geometry": { "type": "Point", "coordinates": [ 283773.5, 4156298.5 ] } },
{ "type": "Feature", "properties": { "id": "osm:node/12075677118", "name": null, "kind": "monument", "species": null, "source": null, "tree_height": null, "crown_radius": null, "height_source": null }, "geometry": { "type": "Point", "coordinates": [ 283766.27, 4156300.99 ] } },
{ "type": "Feature", "properties": { "id": "lidar-tree:283802:4156302", "name": null, "kind": "tree", "species": null, "source": "lidar2025", "tree_height": 10.6, "crown_radius": 4.5, "height_source": "lidar2025" }, "geometry": { "type": "Point", "coordinates": [ 283802.5, 4156301.5 ] } },
{ "type": "Feature", "properties": { "id": "lidar-tree:283766:4156302", "name": null, "kind": "tree", "species": null, "source": "lidar2025", "tree_height": 5.0, "crown_radius": 4.9, "height_source": "lidar2025" }, "geometry": { "type": "Point", "coordinates": [ 283765.5, 4156302.5 ] } },
{ "type": "Feature", "properties": { "id": "lidar-tree:283808:4156306", "name": null, "kind": "tree", "species": null, "source": "lidar2025", "tree_height": 10.7, "crown_radius": 4.7, "height_source": "lidar2025" }, "geometry": { "type": "Point", "coordinates": [ 283808.5, 4156306.5 ] } },
{ "type": "Feature", "properties": { "id": "lidar-tree:283752:4156308", "name": null, "kind": "tree", "species": null, "source": "lidar2025", "tree_height": 18.6, "crown_radius": 6.0, "height_source": "lidar2025" }, "geometry": { "type": "Point", "coordinates": [ 283751.5, 4156308.5 ] } },
{ "type": "Feature", "properties": { "id": "lidar-tree:283772:4156308", "name": null, "kind": "tree", "species": null, "source": "lidar2025", "tree_height": 5.9, "crown_radius": 5.9, "height_source": "lidar2025" }, "geometry": { "type": "Point", "coordinates": [ 283772.5, 4156308.5 ] } },
{ "type": "Feature", "properties": { "id": "lidar-tree:283786:4156310", "name": null, "kind": "tree", "species": null, "source": "lidar2025", "tree_height": 18.0, "crown_radius": 6.0, "height_source": "lidar2025" }, "geometry": { "type": "Point", "coordinates": [ 283785.5, 4156309.5 ] } },
{ "type": "Feature", "properties": { "id": "lidar-tree:283804:4156314", "name": null, "kind": "tree", "species": null, "source": "lidar2025", "tree_height": 12.4, "crown_radius": 4.3, "height_source": "lidar2025" }, "geometry": { "type": "Point", "coordinates": [ 283803.5, 4156314.5 ] } },
{ "type": "Feature", "properties": { "id": "osm:node/12075677120", "name": null, "kind": "monument", "species": null, "source": null, "tree_height": null, "crown_radius": null, "height_source": null }, "geometry": { "type": "Point", "coordinates": [ 283806.47, 4156314.66 ] } },
{ "type": "Feature", "properties": { "id": "osm:node/12075677119", "name": null, "kind": "monument", "species": null, "source": null, "tree_height": null, "crown_radius": null, "height_source": null }, "geometry": { "type": "Point", "coordinates": [ 283786.61, 4156316.71 ] } },
{ "type": "Feature", "properties": { "id": "lidar-tree:283810:4156318", "name": null, "kind": "tree", "species": null, "source": "lidar2025", "tree_height": 12.2, "crown_radius": 5.5, "height_source": "lidar2025" }, "geometry": { "type": "Point", "coordinates": [ 283810.5, 4156317.5 ] } },
{ "type": "Feature", "properties": { "id": "osm:node/12461722978", "name": null, "kind": "bench", "species": null, "source": null, "tree_height": null, "crown_radius": null, "height_source": null }, "geometry": { "type": "Point", "coordinates": [ 283782.8, 4156321.98 ] } },
{ "type": "Feature", "properties": { "id": "lidar-tree:283762:4156322", "name": null, "kind": "tree", "species": null, "source": "lidar2025", "tree_height": 17.2, "crown_radius": 6.0, "height_source": "lidar2025" }, "geometry": { "type": "Point", "coordinates": [ 283761.5, 4156322.5 ] } },
{ "type": "Feature", "properties": { "id": "lidar-tree:283834:4156312", "name": null, "kind": "tree", "species": null, "source": "lidar2025", "tree_height": 15.1, "crown_radius": 6.0, "height_source": "lidar2025" }, "geometry": { "type": "Point", "coordinates": [ 283833.5, 4156312.5 ] } },
{ "type": "Feature", "properties": { "id": "osm:node/12075677121", "name": null, "kind": "monument", "species": null, "source": null, "tree_height": null, "crown_radius": null, "height_source": null }, "geometry": { "type": "Point", "coordinates": [ 283825.33, 4156313.31 ] } },
{ "type": "Feature", "properties": { "id": "osm:node/12075677122", "name": null, "kind": "monument", "species": null, "source": null, "tree_height": null, "crown_radius": null, "height_source": null }, "geometry": { "type": "Point", "coordinates": [ 283845.13, 4156315.53 ] } },
{ "type": "Feature", "properties": { "id": "osm:node/12075677123", "name": null, "kind": "monument", "species": null, "source": null, "tree_height": null, "crown_radius": null, "height_source": null }, "geometry": { "type": "Point", "coordinates": [ 283863.09, 4156318.99 ] } },
{ "type": "Feature", "properties": { "id": "lidar-tree:283844:4156322", "name": null, "kind": "tree", "species": null, "source": "lidar2025", "tree_height": 14.8, "crown_radius": 5.9, "height_source": "lidar2025" }, "geometry": { "type": "Point", "coordinates": [ 283843.5, 4156322.5 ] } },
{ "type": "Feature", "properties": { "id": "lidar-tree:283834:4156324", "name": null, "kind": "tree", "species": null, "source": "lidar2025", "tree_height": 13.3, "crown_radius": 5.7, "height_source": "lidar2025" }, "geometry": { "type": "Point", "coordinates": [ 283834.5, 4156323.5 ] } },
{ "type": "Feature", "properties": { "id": "lidar-tree:283850:4156328", "name": null, "kind": "tree", "species": null, "source": "lidar2025", "tree_height": 14.8, "crown_radius": 6.0, "height_source": "lidar2025" }, "geometry": { "type": "Point", "coordinates": [ 283850.5, 4156327.5 ] } },
{ "type": "Feature", "properties": { "id": "lidar-tree:283816:4156328", "name": null, "kind": "tree", "species": null, "source": "lidar2025", "tree_height": 10.7, "crown_radius": 5.0, "height_source": "lidar2025" }, "geometry": { "type": "Point", "coordinates": [ 283815.5, 4156327.5 ] } },
{ "type": "Feature", "properties": { "id": "lidar-tree:283838:4156330", "name": null, "kind": "tree", "species": null, "source": "lidar2025", "tree_height": 11.6, "crown_radius": 5.8, "height_source": "lidar2025" }, "geometry": { "type": "Point", "coordinates": [ 283838.5, 4156330.5 ] } },
{ "type": "Feature", "properties": { "id": "lidar-tree:283824:4156332", "name": null, "kind": "tree", "species": null, "source": "lidar2025", "tree_height": 10.4, "crown_radius": 4.9, "height_source": "lidar2025" }, "geometry": { "type": "Point", "coordinates": [ 283824.5, 4156332.5 ] } },
{ "type": "Feature", "properties": { "id": "lidar-tree:283792:4156324", "name": null, "kind": "tree", "species": null, "source": "lidar2025", "tree_height": 8.9, "crown_radius": 3.9, "height_source": "lidar2025" }, "geometry": { "type": "Point", "coordinates": [ 283791.5, 4156323.5 ] } },
{ "type": "Feature", "properties": { "id": "lidar-tree:283802:4156326", "name": null, "kind": "tree", "species": null, "source": "lidar2025", "tree_height": 11.2, "crown_radius": 5.3, "height_source": "lidar2025" }, "geometry": { "type": "Point", "coordinates": [ 283801.5, 4156326.5 ] } },
{ "type": "Feature", "properties": { "id": "lidar-tree:283752:4156330", "name": null, "kind": "tree", "species": null, "source": "lidar2025", "tree_height": 12.5, "crown_radius": 5.0, "height_source": "lidar2025" }, "geometry": { "type": "Point", "coordinates": [ 283751.5, 4156330.5 ] } },
{ "type": "Feature", "properties": { "id": "lidar-tree:283762:4156334", "name": null, "kind": "tree", "species": null, "source": "lidar2025", "tree_height": 11.8, "crown_radius": 4.9, "height_source": "lidar2025" }, "geometry": { "type": "Point", "coordinates": [ 283761.5, 4156334.5 ] } },
{ "type": "Feature", "properties": { "id": "lidar-tree:283774:4156336", "name": null, "kind": "tree", "species": null, "source": "lidar2025", "tree_height": 25.2, "crown_radius": 6.0, "height_source": "lidar2025" }, "geometry": { "type": "Point", "coordinates": [ 283773.5, 4156336.5 ] } },
{ "type": "Feature", "properties": { "id": "lidar-tree:283804:4156340", "name": null, "kind": "tree", "species": null, "source": "lidar2025", "tree_height": 12.7, "crown_radius": 6.0, "height_source": "lidar2025" }, "geometry": { "type": "Point", "coordinates": [ 283803.5, 4156339.5 ] } },
{ "type": "Feature", "properties": { "id": "lidar-tree:283766:4156344", "name": null, "kind": "tree", "species": null, "source": "lidar2025", "tree_height": 8.9, "crown_radius": 5.9, "height_source": "lidar2025" }, "geometry": { "type": "Point", "coordinates": [ 283765.5, 4156343.5 ] } },
{ "type": "Feature", "properties": { "id": "lidar-tree:283776:4156344", "name": null, "kind": "tree", "species": null, "source": "lidar2025", "tree_height": 24.1, "crown_radius": 6.0, "height_source": "lidar2025" }, "geometry": { "type": "Point", "coordinates": [ 283776.5, 4156344.5 ] } },
{ "type": "Feature", "properties": { "id": "lidar-tree:283854:4156338", "name": null, "kind": "tree", "species": null, "source": "lidar2025", "tree_height": 10.2, "crown_radius": 6.0, "height_source": "lidar2025" }, "geometry": { "type": "Point", "coordinates": [ 283854.5, 4156338.5 ] } },
{ "type": "Feature", "properties": { "id": "lidar-tree:283828:4156340", "name": null, "kind": "tree", "species": null, "source": "lidar2025", "tree_height": 10.2, "crown_radius": 4.5, "height_source": "lidar2025" }, "geometry": { "type": "Point", "coordinates": [ 283827.5, 4156340.5 ] } },
{ "type": "Feature", "properties": { "id": "lidar-tree:283832:4156344", "name": null, "kind": "tree", "species": null, "source": "lidar2025", "tree_height": 9.6, "crown_radius": 4.1, "height_source": "lidar2025" }, "geometry": { "type": "Point", "coordinates": [ 283832.5, 4156344.5 ] } },
{ "type": "Feature", "properties": { "id": "lidar-tree:283850:4156346", "name": null, "kind": "tree", "species": null, "source": "lidar2025", "tree_height": 11.5, "crown_radius": 4.7, "height_source": "lidar2025" }, "geometry": { "type": "Point", "coordinates": [ 283850.5, 4156346.5 ] } },
{ "type": "Feature", "properties": { "id": "lidar-tree:283862:4156348", "name": null, "kind": "tree", "species": null, "source": "lidar2025", "tree_height": 5.4, "crown_radius": 5.3, "height_source": "lidar2025" }, "geometry": { "type": "Point", "coordinates": [ 283862.5, 4156347.5 ] } },
{ "type": "Feature", "properties": { "id": "lidar-tree:283820:4156350", "name": null, "kind": "tree", "species": null, "source": "lidar2025", "tree_height": 10.1, "crown_radius": 5.0, "height_source": "lidar2025" }, "geometry": { "type": "Point", "coordinates": [ 283819.5, 4156349.5 ] } },
{ "type": "Feature", "properties": { "id": "lidar-tree:283838:4156352", "name": null, "kind": "tree", "species": null, "source": "lidar2025", "tree_height": 9.3, "crown_radius": 3.5, "height_source": "lidar2025" }, "geometry": { "type": "Point", "coordinates": [ 283837.5, 4156351.5 ] } },
{ "type": "Feature", "properties": { "id": "lidar-tree:283844:4156352", "name": null, "kind": "tree", "species": null, "source": "lidar2025", "tree_height": 3.9, "crown_radius": 3.7, "height_source": "lidar2025" }, "geometry": { "type": "Point", "coordinates": [ 283843.5, 4156352.5 ] } },
{ "type": "Feature", "properties": { "id": "lidar-tree:283852:4156354", "name": null, "kind": "tree", "species": null, "source": "lidar2025", "tree_height": 7.9, "crown_radius": 4.3, "height_source": "lidar2025" }, "geometry": { "type": "Point", "coordinates": [ 283852.5, 4156353.5 ] } },
{ "type": "Feature", "properties": { "id": "lidar-tree:283886:4156354", "name": null, "kind": "tree", "species": null, "source": "lidar2025", "tree_height": 15.4, "crown_radius": 6.0, "height_source": "lidar2025" }, "geometry": { "type": "Point", "coordinates": [ 283886.5, 4156354.5 ] } },
{ "type": "Feature", "properties": { "id": "lidar-tree:283788:4156352", "name": null, "kind": "tree", "species": null, "source": "lidar2025", "tree_height": 24.5, "crown_radius": 6.0, "height_source": "lidar2025" }, "geometry": { "type": "Point", "coordinates": [ 283787.5, 4156351.5 ] } },
{ "type": "Feature", "properties": { "id": "lidar-tree:283812:4156358", "name": null, "kind": "tree", "species": null, "source": "lidar2025", "tree_height": 11.5, "crown_radius": 6.0, "height_source": "lidar2025" }, "geometry": { "type": "Point", "coordinates": [ 283811.5, 4156357.5 ] } },
{ "type": "Feature", "properties": { "id": "lidar-tree:283794:4156362", "name": null, "kind": "tree", "species": null, "source": "lidar2025", "tree_height": 23.0, "crown_radius": 6.0, "height_source": "lidar2025" }, "geometry": { "type": "Point", "coordinates": [ 283794.5, 4156362.5 ] } },
{ "type": "Feature", "properties": { "id": "lidar-tree:283778:4156366", "name": null, "kind": "tree", "species": null, "source": "lidar2025", "tree_height": 12.9, "crown_radius": 6.0, "height_source": "lidar2025" }, "geometry": { "type": "Point", "coordinates": [ 283778.5, 4156366.5 ] } },
{ "type": "Feature", "properties": { "id": "lidar-tree:283786:4156366", "name": null, "kind": "tree", "species": null, "source": "lidar2025", "tree_height": 23.1, "crown_radius": 5.4, "height_source": "lidar2025" }, "geometry": { "type": "Point", "coordinates": [ 283786.5, 4156366.5 ] } },
{ "type": "Feature", "properties": { "id": "lidar-tree:283758:4156366", "name": null, "kind": "tree", "species": null, "source": "lidar2025", "tree_height": 18.3, "crown_radius": 6.0, "height_source": "lidar2025" }, "geometry": { "type": "Point", "coordinates": [ 283757.5, 4156366.5 ] } },
{ "type": "Feature", "properties": { "id": "lidar-tree:283810:4156372", "name": null, "kind": "tree", "species": null, "source": "lidar2025", "tree_height": 18.2, "crown_radius": 6.0, "height_source": "lidar2025" }, "geometry": { "type": "Point", "coordinates": [ 283810.5, 4156371.5 ] } },
{ "type": "Feature", "properties": { "id": "lidar-tree:283864:4156354", "name": null, "kind": "tree", "species": null, "source": "lidar2025", "tree_height": 10.9, "crown_radius": 4.8, "height_source": "lidar2025" }, "geometry": { "type": "Point", "coordinates": [ 283863.5, 4156354.5 ] } },
{ "type": "Feature", "properties": { "id": "lidar-tree:283824:4156356", "name": null, "kind": "tree", "species": null, "source": "lidar2025", "tree_height": 8.6, "crown_radius": 5.1, "height_source": "lidar2025" }, "geometry": { "type": "Point", "coordinates": [ 283824.5, 4156355.5 ] } },
{ "type": "Feature", "properties": { "id": "lidar-tree:283842:4156358", "name": null, "kind": "tree", "species": null, "source": "lidar2025", "tree_height": 11.3, "crown_radius": 4.1, "height_source": "lidar2025" }, "geometry": { "type": "Point", "coordinates": [ 283841.5, 4156358.5 ] } },
{ "type": "Feature", "properties": { "id": "lidar-tree:283846:4156364", "name": null, "kind": "tree", "species": null, "source": "lidar2025", "tree_height": 10.3, "crown_radius": 4.0, "height_source": "lidar2025" }, "geometry": { "type": "Point", "coordinates": [ 283845.5, 4156364.5 ] } },
{ "type": "Feature", "properties": { "id": "lidar-tree:283836:4156364", "name": null, "kind": "tree", "species": null, "source": "lidar2025", "tree_height": 8.0, "crown_radius": 5.6, "height_source": "lidar2025" }, "geometry": { "type": "Point", "coordinates": [ 283836.5, 4156364.5 ] } },
{ "type": "Feature", "properties": { "id": "lidar-tree:283892:4156370", "name": null, "kind": "tree", "species": null, "source": "lidar2025", "tree_height": 6.7, "crown_radius": 3.4, "height_source": "lidar2025" }, "geometry": { "type": "Point", "coordinates": [ 283891.5, 4156370.5 ] } },
{ "type": "Feature", "properties": { "id": "lidar-tree:283852:4156370", "name": null, "kind": "tree", "species": null, "source": "lidar2025", "tree_height": 10.5, "crown_radius": 3.5, "height_source": "lidar2025" }, "geometry": { "type": "Point", "coordinates": [ 283851.5, 4156370.5 ] } },
{ "type": "Feature", "properties": { "id": "lidar-tree:283880:4156372", "name": null, "kind": "tree", "species": null, "source": "lidar2025", "tree_height": 9.4, "crown_radius": 4.6, "height_source": "lidar2025" }, "geometry": { "type": "Point", "coordinates": [ 283879.5, 4156371.5 ] } },
{ "type": "Feature", "properties": { "id": "lidar-tree:283830:4156372", "name": null, "kind": "tree", "species": null, "source": "lidar2025", "tree_height": 10.6, "crown_radius": 6.0, "height_source": "lidar2025" }, "geometry": { "type": "Point", "coordinates": [ 283829.5, 4156372.5 ] } },
{ "type": "Feature", "properties": { "id": "lidar-tree:283840:4156372", "name": null, "kind": "tree", "species": null, "source": "lidar2025", "tree_height": 8.5, "crown_radius": 5.0, "height_source": "lidar2025" }, "geometry": { "type": "Point", "coordinates": [ 283839.5, 4156372.5 ] } },
{ "type": "Feature", "properties": { "id": "lidar-tree:283976:4156342", "name": null, "kind": "tree", "species": null, "source": "lidar2025", "tree_height": 16.9, "crown_radius": 6.0, "height_source": "lidar2025" }, "geometry": { "type": "Point", "coordinates": [ 283976.5, 4156341.5 ] } },
{ "type": "Feature", "properties": { "id": "lidar-tree:283976:4156352", "name": null, "kind": "tree", "species": null, "source": "lidar2025", "tree_height": 19.8, "crown_radius": 6.0, "height_source": "lidar2025" }, "geometry": { "type": "Point", "coordinates": [ 283975.5, 4156352.5 ] } },
{ "type": "Feature", "properties": { "id": "lidar-tree:283974:4156364", "name": null, "kind": "tree", "species": null, "source": "lidar2025", "tree_height": 16.9, "crown_radius": 6.0, "height_source": "lidar2025" }, "geometry": { "type": "Point", "coordinates": [ 283974.5, 4156364.5 ] } },
{ "type": "Feature", "properties": { "id": "lidar-tree:283892:4156380", "name": null, "kind": "tree", "species": null, "source": "lidar2025", "tree_height": 4.2, "crown_radius": 3.2, "height_source": "lidar2025" }, "geometry": { "type": "Point", "coordinates": [ 283892.5, 4156379.5 ] } },
{ "type": "Feature", "properties": { "id": "lidar-tree:283902:4156382", "name": null, "kind": "tree", "species": null, "source": "lidar2025", "tree_height": 3.8, "crown_radius": 3.6, "height_source": "lidar2025" }, "geometry": { "type": "Point", "coordinates": [ 283901.5, 4156382.5 ] } },
{ "type": "Feature", "properties": { "id": "lidar-tree:283978:4156382", "name": null, "kind": "tree", "species": null, "source": "lidar2025", "tree_height": 20.6, "crown_radius": 5.8, "height_source": "lidar2025" }, "geometry": { "type": "Point", "coordinates": [ 283978.5, 4156382.5 ] } },
{ "type": "Feature", "properties": { "id": "lidar-tree:283910:4156394", "name": null, "kind": "tree", "species": null, "source": "lidar2025", "tree_height": 6.3, "crown_radius": 5.0, "height_source": "lidar2025" }, "geometry": { "type": "Point", "coordinates": [ 283910.5, 4156393.5 ] } },
{ "type": "Feature", "properties": { "id": "lidar-tree:283900:4156398", "name": null, "kind": "tree", "species": null, "source": "lidar2025", "tree_height": 8.1, "crown_radius": 4.1, "height_source": "lidar2025" }, "geometry": { "type": "Point", "coordinates": [ 283899.5, 4156398.5 ] } },
{ "type": "Feature", "properties": { "id": "lidar-tree:283916:4156400", "name": null, "kind": "tree", "species": null, "source": "lidar2025", "tree_height": 7.3, "crown_radius": 3.9, "height_source": "lidar2025" }, "geometry": { "type": "Point", "coordinates": [ 283915.5, 4156399.5 ] } },
{ "type": "Feature", "properties": { "id": "lidar-tree:283892:4156400", "name": null, "kind": "tree", "species": null, "source": "lidar2025", "tree_height": 5.2, "crown_radius": 3.6, "height_source": "lidar2025" }, "geometry": { "type": "Point", "coordinates": [ 283892.5, 4156400.5 ] } },
{ "type": "Feature", "properties": { "id": "lidar-tree:283864:4156374", "name": null, "kind": "tree", "species": null, "source": "lidar2025", "tree_height": 7.6, "crown_radius": 3.5, "height_source": "lidar2025" }, "geometry": { "type": "Point", "coordinates": [ 283864.5, 4156373.5 ] } },
{ "type": "Feature", "properties": { "id": "lidar-tree:283856:4156376", "name": null, "kind": "tree", "species": null, "source": "lidar2025", "tree_height": 8.7, "crown_radius": 4.4, "height_source": "lidar2025" }, "geometry": { "type": "Point", "coordinates": [ 283856.5, 4156375.5 ] } },
{ "type": "Feature", "properties": { "id": "lidar-tree:283882:4156378", "name": null, "kind": "tree", "species": null, "source": "lidar2025", "tree_height": 7.9, "crown_radius": 4.4, "height_source": "lidar2025" }, "geometry": { "type": "Point", "coordinates": [ 283882.5, 4156377.5 ] } },
{ "type": "Feature", "properties": { "id": "lidar-tree:283862:4156380", "name": null, "kind": "tree", "species": null, "source": "lidar2025", "tree_height": 8.3, "crown_radius": 4.4, "height_source": "lidar2025" }, "geometry": { "type": "Point", "coordinates": [ 283862.5, 4156379.5 ] } },
{ "type": "Feature", "properties": { "id": "lidar-tree:283844:4156384", "name": null, "kind": "tree", "species": null, "source": "lidar2025", "tree_height": 11.8, "crown_radius": 4.3, "height_source": "lidar2025" }, "geometry": { "type": "Point", "coordinates": [ 283844.5, 4156383.5 ] } },
{ "type": "Feature", "properties": { "id": "lidar-tree:283868:4156384", "name": null, "kind": "tree", "species": null, "source": "lidar2025", "tree_height": 8.2, "crown_radius": 4.3, "height_source": "lidar2025" }, "geometry": { "type": "Point", "coordinates": [ 283868.5, 4156383.5 ] } },
{ "type": "Feature", "properties": { "id": "lidar-tree:283876:4156384", "name": null, "kind": "tree", "species": null, "source": "lidar2025", "tree_height": 4.2, "crown_radius": 3.8, "height_source": "lidar2025" }, "geometry": { "type": "Point", "coordinates": [ 283875.5, 4156383.5 ] } },
{ "type": "Feature", "properties": { "id": "lidar-tree:283850:4156390", "name": null, "kind": "tree", "species": null, "source": "lidar2025", "tree_height": 9.9, "crown_radius": 4.8, "height_source": "lidar2025" }, "geometry": { "type": "Point", "coordinates": [ 283849.5, 4156389.5 ] } },
{ "type": "Feature", "properties": { "id": "lidar-tree:283866:4156390", "name": null, "kind": "tree", "species": null, "source": "lidar2025", "tree_height": 5.9, "crown_radius": 3.7, "height_source": "lidar2025" }, "geometry": { "type": "Point", "coordinates": [ 283865.5, 4156390.5 ] } },
{ "type": "Feature", "properties": { "id": "lidar-tree:283854:4156396", "name": null, "kind": "tree", "species": null, "source": "lidar2025", "tree_height": 8.2, "crown_radius": 4.1, "height_source": "lidar2025" }, "geometry": { "type": "Point", "coordinates": [ 283854.5, 4156395.5 ] } },
{ "type": "Feature", "properties": { "id": "lidar-tree:283786:4156378", "name": null, "kind": "tree", "species": null, "source": "lidar2025", "tree_height": 11.5, "crown_radius": 6.0, "height_source": "lidar2025" }, "geometry": { "type": "Point", "coordinates": [ 283786.5, 4156378.5 ] } },
{ "type": "Feature", "properties": { "id": "lidar-tree:283778:4156382", "name": null, "kind": "tree", "species": null, "source": "lidar2025", "tree_height": 17.1, "crown_radius": 6.0, "height_source": "lidar2025" }, "geometry": { "type": "Point", "coordinates": [ 283778.5, 4156381.5 ] } },
{ "type": "Feature", "properties": { "id": "lidar-tree:283768:4156382", "name": null, "kind": "tree", "species": null, "source": "lidar2025", "tree_height": 19.5, "crown_radius": 6.0, "height_source": "lidar2025" }, "geometry": { "type": "Point", "coordinates": [ 283767.5, 4156381.5 ] } },
{ "type": "Feature", "properties": { "id": "lidar-tree:283794:4156386", "name": null, "kind": "tree", "species": null, "source": "lidar2025", "tree_height": 11.7, "crown_radius": 6.0, "height_source": "lidar2025" }, "geometry": { "type": "Point", "coordinates": [ 283793.5, 4156386.5 ] } },
{ "type": "Feature", "properties": { "id": "lidar-tree:283752:4156390", "name": null, "kind": "tree", "species": null, "source": "lidar2025", "tree_height": 20.8, "crown_radius": 6.0, "height_source": "lidar2025" }, "geometry": { "type": "Point", "coordinates": [ 283752.5, 4156389.5 ] } },
{ "type": "Feature", "properties": { "id": "lidar-tree:283810:4156392", "name": null, "kind": "tree", "species": null, "source": "lidar2025", "tree_height": 26.3, "crown_radius": 6.0, "height_source": "lidar2025" }, "geometry": { "type": "Point", "coordinates": [ 283810.5, 4156391.5 ] } },
{ "type": "Feature", "properties": { "id": "lidar-tree:283778:4156392", "name": null, "kind": "tree", "species": null, "source": "lidar2025", "tree_height": 23.2, "crown_radius": 6.0, "height_source": "lidar2025" }, "geometry": { "type": "Point", "coordinates": [ 283777.5, 4156391.5 ] } },
{ "type": "Feature", "properties": { "id": "lidar-tree:283800:4156394", "name": null, "kind": "tree", "species": null, "source": "lidar2025", "tree_height": 11.2, "crown_radius": 6.0, "height_source": "lidar2025" }, "geometry": { "type": "Point", "coordinates": [ 283800.5, 4156394.5 ] } },
{ "type": "Feature", "properties": { "id": "lidar-tree:283784:4156400", "name": null, "kind": "tree", "species": null, "source": "lidar2025", "tree_height": 26.6, "crown_radius": 6.0, "height_source": "lidar2025" }, "geometry": { "type": "Point", "coordinates": [ 283783.5, 4156399.5 ] } },
{ "type": "Feature", "properties": { "id": "lidar-tree:283760:4156402", "name": null, "kind": "tree", "species": null, "source": "lidar2025", "tree_height": 19.0, "crown_radius": 6.0, "height_source": "lidar2025" }, "geometry": { "type": "Point", "coordinates": [ 283759.5, 4156401.5 ] } },
{ "type": "Feature", "properties": { "id": "lidar-tree:283772:4156402", "name": null, "kind": "tree", "species": null, "source": "lidar2025", "tree_height": 23.7, "crown_radius": 6.0, "height_source": "lidar2025" }, "geometry": { "type": "Point", "coordinates": [ 283772.5, 4156402.5 ] } },
{ "type": "Feature", "properties": { "id": "lidar-tree:283778:4156410", "name": null, "kind": "tree", "species": null, "source": "lidar2025", "tree_height": 25.1, "crown_radius": 6.0, "height_source": "lidar2025" }, "geometry": { "type": "Point", "coordinates": [ 283777.5, 4156409.5 ] } },
{ "type": "Feature", "properties": { "id": "lidar-tree:283794:4156410", "name": null, "kind": "tree", "species": null, "source": "lidar2025", "tree_height": 20.7, "crown_radius": 6.0, "height_source": "lidar2025" }, "geometry": { "type": "Point", "coordinates": [ 283793.5, 4156410.5 ] } },
{ "type": "Feature", "properties": { "id": "lidar-tree:283764:4156412", "name": null, "kind": "tree", "species": null, "source": "lidar2025", "tree_height": 20.3, "crown_radius": 6.0, "height_source": "lidar2025" }, "geometry": { "type": "Point", "coordinates": [ 283763.5, 4156412.5 ] } },
{ "type": "Feature", "properties": { "id": "lidar-tree:283760:4156420", "name": null, "kind": "tree", "species": null, "source": "lidar2025", "tree_height": 18.1, "crown_radius": 6.0, "height_source": "lidar2025" }, "geometry": { "type": "Point", "coordinates": [ 283760.5, 4156420.5 ] } },
{ "type": "Feature", "properties": { "id": "lidar-tree:283908:4156400", "name": null, "kind": "tree", "species": null, "source": "lidar2025", "tree_height": 7.3, "crown_radius": 4.8, "height_source": "lidar2025" }, "geometry": { "type": "Point", "coordinates": [ 283908.5, 4156400.5 ] } },
{ "type": "Feature", "properties": { "id": "lidar-tree:283964:4156406", "name": null, "kind": "tree", "species": null, "source": "lidar2025", "tree_height": 8.3, "crown_radius": 3.2, "height_source": "lidar2025" }, "geometry": { "type": "Point", "coordinates": [ 283963.5, 4156405.5 ] } },
{ "type": "Feature", "properties": { "id": "lidar-tree:283902:4156406", "name": null, "kind": "tree", "species": null, "source": "lidar2025", "tree_height": 3.8, "crown_radius": 4.5, "height_source": "lidar2025" }, "geometry": { "type": "Point", "coordinates": [ 283902.5, 4156406.5 ] } },
{ "type": "Feature", "properties": { "id": "lidar-tree:283894:4156408", "name": null, "kind": "tree", "species": null, "source": "lidar2025", "tree_height": 5.5, "crown_radius": 3.3, "height_source": "lidar2025" }, "geometry": { "type": "Point", "coordinates": [ 283893.5, 4156407.5 ] } },
{ "type": "Feature", "properties": { "id": "lidar-tree:283902:4156412", "name": null, "kind": "tree", "species": null, "source": "lidar2025", "tree_height": 5.8, "crown_radius": 3.8, "height_source": "lidar2025" }, "geometry": { "type": "Point", "coordinates": [ 283902.5, 4156412.5 ] } },
{ "type": "Feature", "properties": { "id": "lidar-tree:283898:4156418", "name": null, "kind": "tree", "species": null, "source": "lidar2025", "tree_height": 4.8, "crown_radius": 3.1, "height_source": "lidar2025" }, "geometry": { "type": "Point", "coordinates": [ 283897.5, 4156417.5 ] } },
{ "type": "Feature", "properties": { "id": "lidar-tree:283920:4156420", "name": null, "kind": "tree", "species": null, "source": "lidar2025", "tree_height": 5.5, "crown_radius": 3.0, "height_source": "lidar2025" }, "geometry": { "type": "Point", "coordinates": [ 283919.5, 4156420.5 ] } },
{ "type": "Feature", "properties": { "id": "lidar-tree:283916:4156426", "name": null, "kind": "tree", "species": null, "source": "lidar2025", "tree_height": 5.2, "crown_radius": 4.8, "height_source": "lidar2025" }, "geometry": { "type": "Point", "coordinates": [ 283916.5, 4156426.5 ] } },
{ "type": "Feature", "properties": { "id": "lidar-tree:283904:4156428", "name": null, "kind": "tree", "species": null, "source": "lidar2025", "tree_height": 4.6, "crown_radius": 4.0, "height_source": "lidar2025" }, "geometry": { "type": "Point", "coordinates": [ 283903.5, 4156427.5 ] } },
{ "type": "Feature", "properties": { "id": "lidar-tree:283922:4156428", "name": null, "kind": "tree", "species": null, "source": "lidar2025", "tree_height": 4.5, "crown_radius": 3.9, "height_source": "lidar2025" }, "geometry": { "type": "Point", "coordinates": [ 283922.5, 4156427.5 ] } },
{ "type": "Feature", "properties": { "id": "lidar-tree:283828:4156396", "name": null, "kind": "tree", "species": null, "source": "lidar2025", "tree_height": 20.6, "crown_radius": 6.0, "height_source": "lidar2025" }, "geometry": { "type": "Point", "coordinates": [ 283828.5, 4156396.5 ] } },
{ "type": "Feature", "properties": { "id": "lidar-tree:283876:4156398", "name": null, "kind": "tree", "species": null, "source": "lidar2025", "tree_height": 5.6, "crown_radius": 2.5, "height_source": "lidar2025" }, "geometry": { "type": "Point", "coordinates": [ 283875.5, 4156397.5 ] } },
{ "type": "Feature", "properties": { "id": "lidar-tree:283856:4156402", "name": null, "kind": "tree", "species": null, "source": "lidar2025", "tree_height": 5.1, "crown_radius": 3.6, "height_source": "lidar2025" }, "geometry": { "type": "Point", "coordinates": [ 283856.5, 4156401.5 ] } },
{ "type": "Feature", "properties": { "id": "lidar-tree:283868:4156402", "name": null, "kind": "tree", "species": null, "source": "lidar2025", "tree_height": 4.8, "crown_radius": 1.9, "height_source": "lidar2025" }, "geometry": { "type": "Point", "coordinates": [ 283868.5, 4156402.5 ] } },
{ "type": "Feature", "properties": { "id": "lidar-tree:283830:4156412", "name": null, "kind": "tree", "species": null, "source": "lidar2025", "tree_height": 23.6, "crown_radius": 6.0, "height_source": "lidar2025" }, "geometry": { "type": "Point", "coordinates": [ 283830.5, 4156412.5 ] } },
{ "type": "Feature", "properties": { "id": "lidar-tree:283884:4156416", "name": null, "kind": "tree", "species": null, "source": "lidar2025", "tree_height": 4.8, "crown_radius": 3.2, "height_source": "lidar2025" }, "geometry": { "type": "Point", "coordinates": [ 283883.5, 4156416.5 ] } },
{ "type": "Feature", "properties": { "id": "lidar-tree:283890:4156420", "name": null, "kind": "tree", "species": null, "source": "lidar2025", "tree_height": 6.4, "crown_radius": 3.1, "height_source": "lidar2025" }, "geometry": { "type": "Point", "coordinates": [ 283889.5, 4156420.5 ] } },
{ "type": "Feature", "properties": { "id": "lidar-tree:283850:4156428", "name": null, "kind": "tree", "species": null, "source": "lidar2025", "tree_height": 12.8, "crown_radius": 3.5, "height_source": "lidar2025" }, "geometry": { "type": "Point", "coordinates": [ 283850.5, 4156427.5 ] } },
{ "type": "Feature", "properties": { "id": "lidar-tree:283816:4156430", "name": null, "kind": "tree", "species": null, "source": "lidar2025", "tree_height": 19.5, "crown_radius": 6.0, "height_source": "lidar2025" }, "geometry": { "type": "Point", "coordinates": [ 283816.5, 4156429.5 ] } },
{ "type": "Feature", "properties": { "id": "lidar-tree:283824:4156438", "name": null, "kind": "tree", "species": null, "source": "lidar2025", "tree_height": 20.5, "crown_radius": 6.0, "height_source": "lidar2025" }, "geometry": { "type": "Point", "coordinates": [ 283823.5, 4156437.5 ] } },
{ "type": "Feature", "properties": { "id": "lidar-tree:283772:4156422", "name": null, "kind": "tree", "species": null, "source": "lidar2025", "tree_height": 20.0, "crown_radius": 6.0, "height_source": "lidar2025" }, "geometry": { "type": "Point", "coordinates": [ 283772.5, 4156421.5 ] } },
{ "type": "Feature", "properties": { "id": "lidar-tree:283788:4156422", "name": null, "kind": "tree", "species": null, "source": "lidar2025", "tree_height": 18.7, "crown_radius": 6.0, "height_source": "lidar2025" }, "geometry": { "type": "Point", "coordinates": [ 283788.5, 4156422.5 ] } },
{ "type": "Feature", "properties": { "id": "lidar-tree:283800:4156424", "name": null, "kind": "tree", "species": null, "source": "lidar2025", "tree_height": 17.4, "crown_radius": 6.0, "height_source": "lidar2025" }, "geometry": { "type": "Point", "coordinates": [ 283800.5, 4156424.5 ] } },
{ "type": "Feature", "properties": { "id": "lidar-tree:283752:4156432", "name": null, "kind": "tree", "species": null, "source": "lidar2025", "tree_height": 18.4, "crown_radius": 6.0, "height_source": "lidar2025" }, "geometry": { "type": "Point", "coordinates": [ 283751.5, 4156431.5 ] } },
{ "type": "Feature", "properties": { "id": "lidar-tree:283794:4156438", "name": null, "kind": "tree", "species": null, "source": "lidar2025", "tree_height": 19.9, "crown_radius": 6.0, "height_source": "lidar2025" }, "geometry": { "type": "Point", "coordinates": [ 283794.5, 4156437.5 ] } },
{ "type": "Feature", "properties": { "id": "lidar-tree:283782:4156438", "name": null, "kind": "tree", "species": null, "source": "lidar2025", "tree_height": 19.3, "crown_radius": 6.0, "height_source": "lidar2025" }, "geometry": { "type": "Point", "coordinates": [ 283781.5, 4156437.5 ] } },
{ "type": "Feature", "properties": { "id": "lidar-tree:283764:4156442", "name": null, "kind": "tree", "species": null, "source": "lidar2025", "tree_height": 19.9, "crown_radius": 6.0, "height_source": "lidar2025" }, "geometry": { "type": "Point", "coordinates": [ 283764.5, 4156442.5 ] } },
{ "type": "Feature", "properties": { "id": "lidar-tree:283802:4156444", "name": null, "kind": "tree", "species": null, "source": "lidar2025", "tree_height": 19.0, "crown_radius": 6.0, "height_source": "lidar2025" }, "geometry": { "type": "Point", "coordinates": [ 283801.5, 4156443.5 ] } },
{ "type": "Feature", "properties": { "id": "lidar-tree:283928:4156274", "name": null, "kind": "tree", "species": null, "source": "lidar2025", "tree_height": 19.0, "crown_radius": 6.0, "height_source": "lidar2025" }, "geometry": { "type": "Point", "coordinates": [ 283927.5, 4156274.5 ] } },
{ "type": "Feature", "properties": { "id": "lidar-tree:283958:4156274", "name": null, "kind": "tree", "species": null, "source": "lidar2025", "tree_height": 15.2, "crown_radius": 6.0, "height_source": "lidar2025" }, "geometry": { "type": "Point", "coordinates": [ 283958.5, 4156274.5 ] } },
{ "type": "Feature", "properties": { "id": "lidar-tree:283936:4156282", "name": null, "kind": "tree", "species": null, "source": "lidar2025", "tree_height": 17.9, "crown_radius": 6.0, "height_source": "lidar2025" }, "geometry": { "type": "Point", "coordinates": [ 283935.5, 4156282.5 ] } },
{ "type": "Feature", "properties": { "id": "lidar-tree:283920:4156284", "name": null, "kind": "tree", "species": null, "source": "lidar2025", "tree_height": 18.4, "crown_radius": 6.0, "height_source": "lidar2025" }, "geometry": { "type": "Point", "coordinates": [ 283920.5, 4156284.5 ] } },
{ "type": "Feature", "properties": { "id": "lidar-tree:283946:4156288", "name": null, "kind": "tree", "species": null, "source": "lidar2025", "tree_height": 18.2, "crown_radius": 6.0, "height_source": "lidar2025" }, "geometry": { "type": "Point", "coordinates": [ 283946.5, 4156287.5 ] } },
{ "type": "Feature", "properties": { "id": "lidar-tree:283922:4156294", "name": null, "kind": "tree", "species": null, "source": "lidar2025", "tree_height": 17.3, "crown_radius": 5.9, "height_source": "lidar2025" }, "geometry": { "type": "Point", "coordinates": [ 283921.5, 4156293.5 ] } },
{ "type": "Feature", "properties": { "id": "lidar-tree:283952:4156296", "name": null, "kind": "tree", "species": null, "source": "lidar2025", "tree_height": 26.7, "crown_radius": 6.0, "height_source": "lidar2025" }, "geometry": { "type": "Point", "coordinates": [ 283952.5, 4156296.5 ] } },
{ "type": "Feature", "properties": { "id": "lidar-tree:283932:4156296", "name": null, "kind": "tree", "species": null, "source": "lidar2025", "tree_height": 17.9, "crown_radius": 6.0, "height_source": "lidar2025" }, "geometry": { "type": "Point", "coordinates": [ 283932.5, 4156296.5 ] } },
{ "type": "Feature", "properties": { "id": "lidar-tree:283968:4156326", "name": null, "kind": "tree", "species": null, "source": "lidar2025", "tree_height": 18.2, "crown_radius": 4.9, "height_source": "lidar2025" }, "geometry": { "type": "Point", "coordinates": [ 283968.5, 4156326.5 ] } },
{ "type": "Feature", "properties": { "id": "lidar-tree:283966:4156340", "name": null, "kind": "tree", "species": null, "source": "lidar2025", "tree_height": 20.1, "crown_radius": 6.0, "height_source": "lidar2025" }, "geometry": { "type": "Point", "coordinates": [ 283966.5, 4156339.5 ] } },
{ "type": "Feature", "properties": { "id": "lidar-tree:283984:4156394", "name": null, "kind": "tree", "species": null, "source": "lidar2025", "tree_height": 20.1, "crown_radius": 4.9, "height_source": "lidar2025" }, "geometry": { "type": "Point", "coordinates": [ 283983.5, 4156393.5 ] } },
{ "type": "Feature", "properties": { "id": "lidar-tree:283994:4156412", "name": null, "kind": "tree", "species": null, "source": "lidar2025", "tree_height": 14.4, "crown_radius": 6.0, "height_source": "lidar2025" }, "geometry": { "type": "Point", "coordinates": [ 283994.5, 4156411.5 ] } },
{ "type": "Feature", "properties": { "id": "lidar-tree:283990:4156498", "name": null, "kind": "tree", "species": null, "source": "lidar2025", "tree_height": 21.0, "crown_radius": 6.0, "height_source": "lidar2025" }, "geometry": { "type": "Point", "coordinates": [ 283989.5, 4156497.5 ] } },
{ "type": "Feature", "properties": { "id": "lidar-tree:283850:4156438", "name": null, "kind": "tree", "species": null, "source": "lidar2025", "tree_height": 12.2, "crown_radius": 3.9, "height_source": "lidar2025" }, "geometry": { "type": "Point", "coordinates": [ 283850.5, 4156437.5 ] } },
{ "type": "Feature", "properties": { "id": "lidar-tree:283842:4156440", "name": null, "kind": "tree", "species": null, "source": "lidar2025", "tree_height": 10.0, "crown_radius": 4.1, "height_source": "lidar2025" }, "geometry": { "type": "Point", "coordinates": [ 283841.5, 4156439.5 ] } },
{ "type": "Feature", "properties": { "id": "osm:node/10968066387", "name": null, "kind": "bench", "species": null, "source": null, "tree_height": null, "crown_radius": null, "height_source": null }, "geometry": { "type": "Point", "coordinates": [ 283843.38, 4156440.53 ] } },
{ "type": "Feature", "properties": { "id": "osm:node/10968066385", "name": null, "kind": "bench", "species": null, "source": null, "tree_height": null, "crown_radius": null, "height_source": null }, "geometry": { "type": "Point", "coordinates": [ 283845.83, 4156443.11 ] } },
{ "type": "Feature", "properties": { "id": "lidar-tree:283816:4156444", "name": null, "kind": "tree", "species": null, "source": "lidar2025", "tree_height": 18.2, "crown_radius": 6.0, "height_source": "lidar2025" }, "geometry": { "type": "Point", "coordinates": [ 283816.5, 4156444.5 ] } },
{ "type": "Feature", "properties": { "id": "lidar-tree:283826:4156446", "name": null, "kind": "tree", "species": null, "source": "lidar2025", "tree_height": 15.9, "crown_radius": 6.0, "height_source": "lidar2025" }, "geometry": { "type": "Point", "coordinates": [ 283826.5, 4156445.5 ] } },
{ "type": "Feature", "properties": { "id": "lidar-tree:283850:4156448", "name": null, "kind": "tree", "species": null, "source": "lidar2025", "tree_height": 6.1, "crown_radius": 3.5, "height_source": "lidar2025" }, "geometry": { "type": "Point", "coordinates": [ 283850.5, 4156448.5 ] } },
{ "type": "Feature", "properties": { "id": "lidar-tree:283892:4156452", "name": null, "kind": "tree", "species": null, "source": "lidar2025", "tree_height": 8.4, "crown_radius": 4.3, "height_source": "lidar2025" }, "geometry": { "type": "Point", "coordinates": [ 283891.5, 4156451.5 ] } },
{ "type": "Feature", "properties": { "id": "lidar-tree:283870:4156452", "name": null, "kind": "tree", "species": null, "source": "lidar2025", "tree_height": 17.7, "crown_radius": 5.2, "height_source": "lidar2025" }, "geometry": { "type": "Point", "coordinates": [ 283869.5, 4156452.5 ] } },
{ "type": "Feature", "properties": { "id": "lidar-tree:283830:4156458", "name": null, "kind": "tree", "species": null, "source": "lidar2025", "tree_height": 20.2, "crown_radius": 6.0, "height_source": "lidar2025" }, "geometry": { "type": "Point", "coordinates": [ 283830.5, 4156457.5 ] } },
{ "type": "Feature", "properties": { "id": "lidar-tree:283928:4156442", "name": null, "kind": "tree", "species": null, "source": "lidar2025", "tree_height": 5.5, "crown_radius": 5.4, "height_source": "lidar2025" }, "geometry": { "type": "Point", "coordinates": [ 283927.5, 4156441.5 ] } },
{ "type": "Feature", "properties": { "id": "lidar-tree:283908:4156442", "name": null, "kind": "tree", "species": null, "source": "lidar2025", "tree_height": 25.3, "crown_radius": 6.0, "height_source": "lidar2025" }, "geometry": { "type": "Point", "coordinates": [ 283908.5, 4156442.5 ] } },
{ "type": "Feature", "properties": { "id": "lidar-tree:283932:4156448", "name": null, "kind": "tree", "species": null, "source": "lidar2025", "tree_height": 5.5, "crown_radius": 5.7, "height_source": "lidar2025" }, "geometry": { "type": "Point", "coordinates": [ 283932.5, 4156448.5 ] } },
{ "type": "Feature", "properties": { "id": "lidar-tree:283900:4156454", "name": null, "kind": "tree", "species": null, "source": "lidar2025", "tree_height": 14.5, "crown_radius": 4.6, "height_source": "lidar2025" }, "geometry": { "type": "Point", "coordinates": [ 283900.5, 4156453.5 ] } },
{ "type": "Feature", "properties": { "id": "lidar-tree:283928:4156458", "name": null, "kind": "tree", "species": null, "source": "lidar2025", "tree_height": 22.2, "crown_radius": 5.8, "height_source": "lidar2025" }, "geometry": { "type": "Point", "coordinates": [ 283927.5, 4156458.5 ] } },
{ "type": "Feature", "properties": { "id": "lidar-tree:283954:4156460", "name": null, "kind": "tree", "species": null, "source": "lidar2025", "tree_height": 7.3, "crown_radius": 5.0, "height_source": "lidar2025" }, "geometry": { "type": "Point", "coordinates": [ 283954.5, 4156459.5 ] } },
{ "type": "Feature", "properties": { "id": "lidar-tree:283912:4156464", "name": null, "kind": "tree", "species": null, "source": "lidar2025", "tree_height": 13.8, "crown_radius": 6.0, "height_source": "lidar2025" }, "geometry": { "type": "Point", "coordinates": [ 283911.5, 4156463.5 ] } },
{ "type": "Feature", "properties": { "id": "lidar-tree:283938:4156466", "name": null, "kind": "tree", "species": null, "source": "lidar2025", "tree_height": 24.6, "crown_radius": 6.0, "height_source": "lidar2025" }, "geometry": { "type": "Point", "coordinates": [ 283938.5, 4156465.5 ] } },
{ "type": "Feature", "properties": { "id": "lidar-tree:283920:4156470", "name": null, "kind": "tree", "species": null, "source": "lidar2025", "tree_height": 17.1, "crown_radius": 6.0, "height_source": "lidar2025" }, "geometry": { "type": "Point", "coordinates": [ 283920.5, 4156470.5 ] } },
{ "type": "Feature", "properties": { "id": "lidar-tree:283906:4156472", "name": null, "kind": "tree", "species": null, "source": "lidar2025", "tree_height": 12.1, "crown_radius": 6.0, "height_source": "lidar2025" }, "geometry": { "type": "Point", "coordinates": [ 283906.5, 4156471.5 ] } },
{ "type": "Feature", "properties": { "id": "lidar-tree:283786:4156446", "name": null, "kind": "tree", "species": null, "source": "lidar2025", "tree_height": 21.4, "crown_radius": 6.0, "height_source": "lidar2025" }, "geometry": { "type": "Point", "coordinates": [ 283786.5, 4156446.5 ] } },
{ "type": "Feature", "properties": { "id": "lidar-tree:283772:4156448", "name": null, "kind": "tree", "species": null, "source": "lidar2025", "tree_height": 19.5, "crown_radius": 6.0, "height_source": "lidar2025" }, "geometry": { "type": "Point", "coordinates": [ 283772.5, 4156448.5 ] } },
{ "type": "Feature", "properties": { "id": "lidar-tree:283798:4156454", "name": null, "kind": "tree", "species": null, "source": "lidar2025", "tree_height": 24.0, "crown_radius": 6.0, "height_source": "lidar2025" }, "geometry": { "type": "Point", "coordinates": [ 283797.5, 4156454.5 ] } },
{ "type": "Feature", "properties": { "id": "lidar-tree:283764:4156456", "name": null, "kind": "tree", "species": null, "source": "lidar2025", "tree_height": 21.4, "crown_radius": 6.0, "height_source": "lidar2025" }, "geometry": { "type": "Point", "coordinates": [ 283763.5, 4156455.5 ] } },
{ "type": "Feature", "properties": { "id": "lidar-tree:283786:4156456", "name": null, "kind": "tree", "species": null, "source": "lidar2025", "tree_height": 22.0, "crown_radius": 6.0, "height_source": "lidar2025" }, "geometry": { "type": "Point", "coordinates": [ 283785.5, 4156456.5 ] } },
{ "type": "Feature", "properties": { "id": "lidar-tree:283812:4156462", "name": null, "kind": "tree", "species": null, "source": "lidar2025", "tree_height": 23.0, "crown_radius": 6.0, "height_source": "lidar2025" }, "geometry": { "type": "Point", "coordinates": [ 283812.5, 4156461.5 ] } },
{ "type": "Feature", "properties": { "id": "lidar-tree:283756:4156468", "name": null, "kind": "tree", "species": null, "source": "lidar2025", "tree_height": 20.9, "crown_radius": 6.0, "height_source": "lidar2025" }, "geometry": { "type": "Point", "coordinates": [ 283756.5, 4156467.5 ] } },
{ "type": "Feature", "properties": { "id": "lidar-tree:283794:4156468", "name": null, "kind": "tree", "species": null, "source": "lidar2025", "tree_height": 28.2, "crown_radius": 6.0, "height_source": "lidar2025" }, "geometry": { "type": "Point", "coordinates": [ 283793.5, 4156468.5 ] } },
{ "type": "Feature", "properties": { "id": "lidar-tree:283874:4156460", "name": null, "kind": "tree", "species": null, "source": "lidar2025", "tree_height": 17.4, "crown_radius": 6.0, "height_source": "lidar2025" }, "geometry": { "type": "Point", "coordinates": [ 283874.5, 4156459.5 ] } },
{ "type": "Feature", "properties": { "id": "lidar-tree:283848:4156462", "name": null, "kind": "tree", "species": null, "source": "lidar2025", "tree_height": 19.1, "crown_radius": 6.0, "height_source": "lidar2025" }, "geometry": { "type": "Point", "coordinates": [ 283847.5, 4156461.5 ] } },
{ "type": "Feature", "properties": { "id": "lidar-tree:283888:4156466", "name": null, "kind": "tree", "species": null, "source": "lidar2025", "tree_height": 10.4, "crown_radius": 3.8, "height_source": "lidar2025" }, "geometry": { "type": "Point", "coordinates": [ 283888.5, 4156465.5 ] } },
{ "type": "Feature", "properties": { "id": "lidar-tree:283878:4156468", "name": null, "kind": "tree", "species": null, "source": "lidar2025", "tree_height": 15.3, "crown_radius": 5.5, "height_source": "lidar2025" }, "geometry": { "type": "Point", "coordinates": [ 283877.5, 4156467.5 ] } },
{ "type": "Feature", "properties": { "id": "lidar-tree:283822:4156470", "name": null, "kind": "tree", "species": null, "source": "lidar2025", "tree_height": 23.7, "crown_radius": 6.0, "height_source": "lidar2025" }, "geometry": { "type": "Point", "coordinates": [ 283822.5, 4156470.5 ] } },
{ "type": "Feature", "properties": { "id": "lidar-tree:283832:4156470", "name": null, "kind": "tree", "species": null, "source": "lidar2025", "tree_height": 23.1, "crown_radius": 6.0, "height_source": "lidar2025" }, "geometry": { "type": "Point", "coordinates": [ 283832.5, 4156470.5 ] } },
{ "type": "Feature", "properties": { "id": "lidar-tree:283890:4156472", "name": null, "kind": "tree", "species": null, "source": "lidar2025", "tree_height": 8.1, "crown_radius": 5.6, "height_source": "lidar2025" }, "geometry": { "type": "Point", "coordinates": [ 283889.5, 4156472.5 ] } },
{ "type": "Feature", "properties": { "id": "lidar-tree:283844:4156478", "name": null, "kind": "tree", "species": null, "source": "lidar2025", "tree_height": 22.7, "crown_radius": 6.0, "height_source": "lidar2025" }, "geometry": { "type": "Point", "coordinates": [ 283843.5, 4156477.5 ] } },
{ "type": "Feature", "properties": { "id": "lidar-tree:283884:4156480", "name": null, "kind": "tree", "species": null, "source": "lidar2025", "tree_height": 17.2, "crown_radius": 5.5, "height_source": "lidar2025" }, "geometry": { "type": "Point", "coordinates": [ 283883.5, 4156479.5 ] } },
{ "type": "Feature", "properties": { "id": "lidar-tree:283828:4156486", "name": null, "kind": "tree", "species": null, "source": "lidar2025", "tree_height": 23.5, "crown_radius": 6.0, "height_source": "lidar2025" }, "geometry": { "type": "Point", "coordinates": [ 283827.5, 4156486.5 ] } },
{ "type": "Feature", "properties": { "id": "lidar-tree:283952:4156474", "name": null, "kind": "tree", "species": null, "source": "lidar2025", "tree_height": 13.5, "crown_radius": 6.0, "height_source": "lidar2025" }, "geometry": { "type": "Point", "coordinates": [ 283951.5, 4156473.5 ] } },
{ "type": "Feature", "properties": { "id": "lidar-tree:283958:4156478", "name": null, "kind": "tree", "species": null, "source": "lidar2025", "tree_height": 12.3, "crown_radius": 6.0, "height_source": "lidar2025" }, "geometry": { "type": "Point", "coordinates": [ 283958.5, 4156478.5 ] } },
{ "type": "Feature", "properties": { "id": "lidar-tree:283968:4156480", "name": null, "kind": "tree", "species": null, "source": "lidar2025", "tree_height": 13.8, "crown_radius": 6.0, "height_source": "lidar2025" }, "geometry": { "type": "Point", "coordinates": [ 283967.5, 4156479.5 ] } },
{ "type": "Feature", "properties": { "id": "lidar-tree:283944:4156482", "name": null, "kind": "tree", "species": null, "source": "lidar2025", "tree_height": 14.2, "crown_radius": 6.0, "height_source": "lidar2025" }, "geometry": { "type": "Point", "coordinates": [ 283943.5, 4156482.5 ] } },
{ "type": "Feature", "properties": { "id": "lidar-tree:283930:4156484", "name": null, "kind": "tree", "species": null, "source": "lidar2025", "tree_height": 19.5, "crown_radius": 6.0, "height_source": "lidar2025" }, "geometry": { "type": "Point", "coordinates": [ 283929.5, 4156483.5 ] } },
{ "type": "Feature", "properties": { "id": "lidar-tree:283914:4156486", "name": null, "kind": "tree", "species": null, "source": "lidar2025", "tree_height": 21.0, "crown_radius": 6.0, "height_source": "lidar2025" }, "geometry": { "type": "Point", "coordinates": [ 283914.5, 4156485.5 ] } },
{ "type": "Feature", "properties": { "id": "lidar-tree:283894:4156488", "name": null, "kind": "tree", "species": null, "source": "lidar2025", "tree_height": 20.2, "crown_radius": 6.0, "height_source": "lidar2025" }, "geometry": { "type": "Point", "coordinates": [ 283893.5, 4156487.5 ] } },
{ "type": "Feature", "properties": { "id": "lidar-tree:283970:4156492", "name": null, "kind": "tree", "species": null, "source": "lidar2025", "tree_height": 14.6, "crown_radius": 6.0, "height_source": "lidar2025" }, "geometry": { "type": "Point", "coordinates": [ 283970.5, 4156491.5 ] } },
{ "type": "Feature", "properties": { "id": "lidar-tree:283938:4156492", "name": null, "kind": "tree", "species": null, "source": "lidar2025", "tree_height": 17.1, "crown_radius": 6.0, "height_source": "lidar2025" }, "geometry": { "type": "Point", "coordinates": [ 283938.5, 4156492.5 ] } },
{ "type": "Feature", "properties": { "id": "lidar-tree:283954:4156494", "name": null, "kind": "tree", "species": null, "source": "lidar2025", "tree_height": 11.9, "crown_radius": 6.0, "height_source": "lidar2025" }, "geometry": { "type": "Point", "coordinates": [ 283953.5, 4156493.5 ] } },
{ "type": "Feature", "properties": { "id": "lidar-tree:283902:4156494", "name": null, "kind": "tree", "species": null, "source": "lidar2025", "tree_height": 18.7, "crown_radius": 6.0, "height_source": "lidar2025" }, "geometry": { "type": "Point", "coordinates": [ 283902.5, 4156493.5 ] } },
{ "type": "Feature", "properties": { "id": "lidar-tree:283920:4156498", "name": null, "kind": "tree", "species": null, "source": "lidar2025", "tree_height": 15.9, "crown_radius": 6.0, "height_source": "lidar2025" }, "geometry": { "type": "Point", "coordinates": [ 283919.5, 4156498.5 ] } },
{ "type": "Feature", "properties": { "id": "lidar-tree:283960:4156500", "name": null, "kind": "tree", "species": null, "source": "lidar2025", "tree_height": 8.7, "crown_radius": 5.9, "height_source": "lidar2025" }, "geometry": { "type": "Point", "coordinates": [ 283960.5, 4156499.5 ] } },
{ "type": "Feature", "properties": { "id": "lidar-tree:283908:4156500", "name": null, "kind": "tree", "species": null, "source": "lidar2025", "tree_height": 15.7, "crown_radius": 6.0, "height_source": "lidar2025" }, "geometry": { "type": "Point", "coordinates": [ 283908.5, 4156499.5 ] } },
{ "type": "Feature", "properties": { "id": "lidar-tree:283928:4156500", "name": null, "kind": "tree", "species": null, "source": "lidar2025", "tree_height": 20.3, "crown_radius": 6.0, "height_source": "lidar2025" }, "geometry": { "type": "Point", "coordinates": [ 283928.5, 4156499.5 ] } },
{ "type": "Feature", "properties": { "id": "lidar-tree:283816:4156488", "name": null, "kind": "tree", "species": null, "source": "lidar2025", "tree_height": 22.7, "crown_radius": 6.0, "height_source": "lidar2025" }, "geometry": { "type": "Point", "coordinates": [ 283816.5, 4156487.5 ] } },
{ "type": "Feature", "properties": { "id": "lidar-tree:283836:4156488", "name": null, "kind": "tree", "species": null, "source": "lidar2025", "tree_height": 21.6, "crown_radius": 6.0, "height_source": "lidar2025" }, "geometry": { "type": "Point", "coordinates": [ 283836.5, 4156488.5 ] } },
{ "type": "Feature", "properties": { "id": "lidar-tree:283850:4156494", "name": null, "kind": "tree", "species": null, "source": "lidar2025", "tree_height": 18.9, "crown_radius": 6.0, "height_source": "lidar2025" }, "geometry": { "type": "Point", "coordinates": [ 283850.5, 4156493.5 ] } },
{ "type": "Feature", "properties": { "id": "lidar-tree:283814:4156496", "name": null, "kind": "tree", "species": null, "source": "lidar2025", "tree_height": 17.7, "crown_radius": 6.0, "height_source": "lidar2025" }, "geometry": { "type": "Point", "coordinates": [ 283813.5, 4156496.5 ] } },
{ "type": "Feature", "properties": { "id": "lidar-tree:283832:4156498", "name": null, "kind": "tree", "species": null, "source": "lidar2025", "tree_height": 23.3, "crown_radius": 6.0, "height_source": "lidar2025" }, "geometry": { "type": "Point", "coordinates": [ 283831.5, 4156498.5 ] } },
{ "type": "Feature", "properties": { "id": "lidar-tree:283774:4156470", "name": null, "kind": "tree", "species": null, "source": "lidar2025", "tree_height": 30.1, "crown_radius": 6.0, "height_source": "lidar2025" }, "geometry": { "type": "Point", "coordinates": [ 283773.5, 4156470.5 ] } },
{ "type": "Feature", "properties": { "id": "lidar-tree:283782:4156470", "name": null, "kind": "tree", "species": null, "source": "lidar2025", "tree_height": 29.7, "crown_radius": 6.0, "height_source": "lidar2025" }, "geometry": { "type": "Point", "coordinates": [ 283782.5, 4156470.5 ] } },
{ "type": "Feature", "properties": { "id": "lidar-tree:283804:4156472", "name": null, "kind": "tree", "species": null, "source": "lidar2025", "tree_height": 24.4, "crown_radius": 6.0, "height_source": "lidar2025" }, "geometry": { "type": "Point", "coordinates": [ 283804.5, 4156472.5 ] } },
{ "type": "Feature", "properties": { "id": "lidar-tree:283800:4156482", "name": null, "kind": "tree", "species": null, "source": "lidar2025", "tree_height": 21.9, "crown_radius": 6.0, "height_source": "lidar2025" }, "geometry": { "type": "Point", "coordinates": [ 283799.5, 4156481.5 ] } },
{ "type": "Feature", "properties": { "id": "lidar-tree:283776:4156490", "name": null, "kind": "tree", "species": null, "source": "lidar2025", "tree_height": 14.4, "crown_radius": 6.0, "height_source": "lidar2025" }, "geometry": { "type": "Point", "coordinates": [ 283776.5, 4156489.5 ] } },
{ "type": "Feature", "properties": { "id": "lidar-tree:283786:4156492", "name": null, "kind": "tree", "species": null, "source": "lidar2025", "tree_height": 17.2, "crown_radius": 6.0, "height_source": "lidar2025" }, "geometry": { "type": "Point", "coordinates": [ 283786.5, 4156492.5 ] } }
]
}
