{
"type": "FeatureCollection",
"name": "water",
"crs": { "type": "name", "properties": { "name": "urn:ogc:def:crs:EPSG::32618" } },
"xy_coordinate_resolution": 0.01,
"features": [
{ "type": "Feature", "properties": { "id": "osm:way/76227055", "name": null, "kind": "river", "water_z": null, "source": null }, "geometry": { "type": "Polygon", "coordinates": [ [ [ 282653.52, 4155888.3 ], [ 282650.58, 4155875.62 ], [ 282639.52, 4155870.01 ], [ 282613.55, 4155865.96 ], [ 282589.13, 4155866.59 ], [ 282570.06, 4155872.06 ], [ 282564.42, 4155876.04 ], [ 282568.12, 4155880.69 ], [ 282573.62, 4155876.57 ], [ 282587.07, 4155873.62 ], [ 282609.34, 4155872.81 ], [ 282640.24, 4155875.06 ], [ 282645.08, 4155878.72 ], [ 282644.79, 4155903.77 ], [ 282649.44, 4155908.96 ], [ 282666.16, 4155919.0 ], [ 282662.09, 4155907.45 ], [ 282652.41, 4155900.37 ], [ 282653.52, 4155888.3 ] ] ] } },
{ "type": "Feature", "properties": { "id": "osm:way/427254661", "name": null, "kind": "canal", "water_z": 18.69, "source": null }, "geometry": { "type": "Polygon", "coordinates": [ [ [ 282664.33, 4155936.67 ], [ 282664.16, 4155936.19 ], [ 282654.59, 4155934.09 ], [ 282654.55, 4155934.13 ], [ 282653.02, 4155935.24 ], [ 282649.39, 4155937.04 ], [ 282663.52, 4155940.15 ], [ 282664.95, 4155938.77 ], [ 282664.33, 4155936.67 ] ] ] } },
{ "type": "Feature", "properties": { "id": "noaa:Rivers:7", "name": "James River", "kind": "river", "water_z": null, "source": "noaa2025" }, "geometry": { "type": "Polygon", "coordinates": [ [ [ 282736.72, 4155929.71 ], [ 282733.84, 4155927.63 ], [ 282731.91, 4155927.3 ], [ 282730.51, 4155927.7 ], [ 282725.0, 4155925.75 ], [ 282722.54, 4155925.14 ], [ 282721.36, 4155925.41 ], [ 282720.23, 4155926.51 ], [ 282719.52, 4155928.17 ], [ 282719.02, 4155930.21 ], [ 282718.79, 4155932.68 ], [ 282718.89, 4155935.12 ], [ 282719.14, 4155935.94 ], [ 282720.72, 4155938.47 ], [ 282720.81, 4155939.1 ], [ 282720.23, 4155940.33 ], [ 282719.06, 4155941.27 ], [ 282718.21, 4155941.5 ], [ 282717.09, 4155941.36 ], [ 282714.06, 4155940.33 ], [ 282711.02, 4155940.73 ], [ 282706.69, 4155938.68 ], [ 282698.57, 4155936.11 ], [ 282697.52, 4155936.23 ], [ 282695.81, 4155935.76 ], [ 282695.1, 4155935.02 ], [ 282686.33, 4155931.67 ], [ 282683.74, 4155930.33 ], [ 282674.68, 4155927.49 ], [ 282671.61, 4155926.12 ], [ 282670.39, 4155925.9 ], [ 282666.59, 4155923.78 ], [ 282664.67, 4155922.7 ], [ 282664.1, 4155922.39 ], [ 282645.34, 4155917.13 ], [ 282637.87, 4155914.08 ], [ 282635.11, 4155915.19 ], [ 282634.6, 4155915.69 ], [ 282631.75, 4155915.01 ], [ 282630.94, 4155914.62 ], [ 282630.65, 4155912.64 ], [ 282629.6, 4155911.42 ], [ 282624.72, 4155910.11 ], [ 282623.01, 4155909.39 ], [ 282620.33, 4155908.87 ], [ 282618.98, 4155909.1 ], [ 282616.94, 4155908.32 ], [ 282616.45, 4155907.17 ], [ 282611.57, 4155904.6 ], [ 282608.31, 4155903.26 ], [ 282604.99, 4155902.47 ], [ 282601.95, 4155901.03 ], [ 282595.8, 4155898.79 ], [ 282589.81, 4155895.85 ], [ 282581.5, 4155892.62 ], [ 282572.04, 4155885.7 ], [ 282569.89, 4155884.46 ], [ 282568.12, 4155883.96 ], [ 282564.8, 4155884.08 ], [ 282563.3, 4155884.93 ], [ 282562.64, 4155886.18 ], [ 282562.59, 4155887.19 ], [ 282563.09, 4155888.62 ], [ 282565.62, 4155890.71 ], [ 282577.79, 4155898.97 ], [ 282578.85, 4155900.29 ], [ 282580.05, 4155905.59 ], [ 282579.76, 4155906.08 ], [ 282579.02, 4155906.2 ], [ 282574.95, 4155903.9 ], [ 282572.6, 4155901.79 ], [ 282570.06, 4155900.75 ], [ 282565.72, 4155900.47 ], [ 282563.25, 4155900.08 ], [ 282561.73, 4155899.53 ], [ 282561.47, 4155898.64 ], [ 282561.64, 4155898.27 ], [ 282565.07, 4155896.57 ], [ 282565.33, 4155895.54 ], [ 282564.67, 4155894.55 ], [ 282563.41, 4155893.39 ], [ 282560.99, 4155893.15 ], [ 282560.66, 4155892.89 ], [ 282556.9, 4155887.27 ], [ 282558.04, 4155884.82 ], [ 282563.59, 4155880.98 ], [ 282564.28, 4155879.55 ], [ 282564.23, 4155877.1 ], [ 282563.98, 4155876.1 ], [ 282561.54, 4155873.04 ], [ 282553.13, 4155869.41 ], [ 282545.24, 4155868.62 ], [ 282545.13, 4155868.61 ], [ 282534.7, 4155865.94 ], [ 282527.55, 4155864.62 ], [ 282521.4, 4155864.07 ], [ 282517.75, 4155864.05 ], [ 282508.29, 4155864.58 ], [ 282500.0, 4155865.43 ], [ 282500.0, 4155921.48 ], [ 282502.31, 4155921.33 ], [ 282515.44, 4155922.33 ], [ 282524.09, 4155922.7 ], [ 282542.6, 4155929.26 ], [ 282550.03, 4155934.34 ], [ 282552.09, 4155935.21 ], [ 282554.48, 4155935.41 ], [ 282555.04, 4155935.74 ], [ 282556.08, 4155936.94 ], [ 282556.24, 4155938.52 ], [ 282555.97, 4155942.01 ], [ 282557.72, 4155944.77 ], [ 282558.73, 4155945.2 ], [ 282562.49, 4155945.38 ], [ 282562.54, 4155946.06 ], [ 282561.93, 4155946.82 ], [ 282558.36, 4155947.7 ], [ 282557.49, 4155950.73 ], [ 282555.98, 4155953.72 ], [ 282555.25, 4155954.54 ], [ 282552.89, 4155955.32 ], [ 282550.87, 4155955.69 ], [ 282549.28, 4155955.6 ], [ 282547.97, 4155955.03 ], [ 282543.78, 4155955.91 ], [ 282536.69, 4155955.92 ], [ 282532.71, 4155957.06 ], [ 282527.68, 4155956.41 ], [ 282524.61, 4155956.52 ], [ 282519.36, 4155957.56 ], [ 282515.41, 4155957.2 ], [ 282513.49, 4155957.57 ], [ 282511.23, 4155958.8 ], [ 282510.4, 4155958.84 ], [ 282500.0, 4155955.35 ], [ 282500.0, 4156000.0 ], [ 282723.46, 4156000.0 ], [ 282723.8, 4155999.72 ], [ 282730.59, 4155995.21 ], [ 282749.17, 4155996.09 ], [ 282750.0, 4155996.2 ], [ 282750.0, 4155931.65 ], [ 282738.24, 4155929.98 ], [ 282736.72, 4155929.71 ] ], [ [ 282658.62, 4155968.17 ], [ 282656.45, 4155967.83 ], [ 282650.65, 4155966.8 ], [ 282649.32, 4155966.6 ], [ 282648.07, 4155966.56 ], [ 282647.1, 4155966.77 ], [ 282646.04, 4155967.23 ], [ 282645.67, 4155967.39 ], [ 282643.85, 4155967.62 ], [ 282643.48, 4155967.61 ], [ 282642.99, 4155967.53 ], [ 282642.28, 4155967.34 ], [ 282641.61, 4155966.97 ], [ 282640.62, 4155965.91 ], [ 282640.38, 4155965.6 ], [ 282639.8, 4155965.11 ], [ 282638.95, 4155964.72 ], [ 282638.02, 4155964.63 ], [ 282636.56, 4155964.37 ], [ 282636.22, 4155964.3 ], [ 282635.41, 4155964.17 ], [ 282634.51, 4155964.14 ], [ 282633.55, 4155964.09 ], [ 282632.58, 4155963.97 ], [ 282631.68, 4155963.88 ], [ 282630.89, 4155963.41 ], [ 282628.32, 4155962.44 ], [ 282626.77, 4155962.18 ], [ 282623.66, 4155961.74 ], [ 282623.02, 4155961.78 ], [ 282622.5, 4155961.8 ], [ 282622.07, 4155961.73 ], [ 282621.61, 4155961.6 ], [ 282620.54, 4155960.81 ], [ 282619.7, 4155960.17 ], [ 282617.53, 4155959.48 ], [ 282614.64, 4155958.84 ], [ 282612.3, 4155958.13 ], [ 282608.91, 4155957.7 ], [ 282606.43, 4155958.16 ], [ 282604.68, 4155958.51 ], [ 282603.52, 4155958.32 ], [ 282599.9, 4155957.65 ], [ 282599.0, 4155957.29 ], [ 282597.82, 4155956.28 ], [ 282596.49, 4155955.26 ], [ 282591.76, 4155953.65 ], [ 282587.04, 4155952.74 ], [ 282582.34, 4155952.32 ], [ 282579.28, 4155952.07 ], [ 282578.71, 4155952.09 ], [ 282577.91, 4155952.11 ], [ 282577.08, 4155952.21 ], [ 282576.8, 4155952.48 ], [ 282576.21, 4155953.56 ], [ 282575.53, 4155954.42 ], [ 282574.62, 4155955.07 ], [ 282573.7, 4155955.57 ], [ 282572.83, 4155955.74 ], [ 282571.59, 4155955.81 ], [ 282570.01, 4155953.76 ], [ 282568.73, 4155951.71 ], [ 282567.69, 4155948.76 ], [ 282567.5, 4155948.34 ], [ 282566.2, 4155945.44 ], [ 282565.71, 4155943.38 ], [ 282565.53, 4155942.02 ], [ 282566.68, 4155938.2 ], [ 282567.36, 4155936.88 ], [ 282567.67, 4155936.44 ], [ 282568.55, 4155936.17 ], [ 282569.55, 4155936.19 ], [ 282571.75, 4155936.22 ], [ 282573.0, 4155936.17 ], [ 282573.81, 4155935.98 ], [ 282574.31, 4155935.37 ], [ 282574.71, 4155934.75 ], [ 282574.57, 4155934.12 ], [ 282574.06, 4155933.71 ], [ 282572.99, 4155932.93 ], [ 282573.05, 4155931.82 ], [ 282574.58, 4155930.12 ], [ 282579.72, 4155931.53 ], [ 282581.54, 4155931.79 ], [ 282583.31, 4155932.05 ], [ 282585.83, 4155934.12 ], [ 282585.87, 4155935.25 ], [ 282585.81, 4155936.82 ], [ 282585.76, 4155938.4 ], [ 282585.84, 4155938.86 ], [ 282586.14, 4155939.15 ], [ 282586.76, 4155939.42 ], [ 282587.22, 4155939.53 ], [ 282591.81, 4155940.55 ], [ 282593.56, 4155940.78 ], [ 282595.2, 4155941.21 ], [ 282596.37, 4155941.26 ], [ 282597.87, 4155941.35 ], [ 282599.23, 4155941.5 ], [ 282600.45, 4155941.69 ], [ 282601.95, 4155941.67 ], [ 282603.43, 4155941.91 ], [ 282604.5, 4155942.67 ], [ 282605.17, 4155943.5 ], [ 282607.81, 4155944.4 ], [ 282610.72, 4155945.12 ], [ 282614.23, 4155945.62 ], [ 282615.63, 4155945.7 ], [ 282618.69, 4155946.47 ], [ 282622.32, 4155946.57 ], [ 282628.29, 4155946.16 ], [ 282629.6, 4155946.18 ], [ 282632.3, 4155945.73 ], [ 282635.24, 4155944.83 ], [ 282636.79, 4155943.9 ], [ 282639.81, 4155942.65 ], [ 282642.33, 4155939.93 ], [ 282645.06, 4155937.99 ], [ 282647.34, 4155937.9 ], [ 282648.01, 4155937.67 ], [ 282648.46, 4155937.51 ], [ 282653.02, 4155935.24 ], [ 282654.55, 4155934.13 ], [ 282655.88, 4155932.92 ], [ 282656.16, 4155932.67 ], [ 282656.76, 4155932.3 ], [ 282657.64, 4155932.04 ], [ 282659.16, 4155931.67 ], [ 282660.39, 4155931.84 ], [ 282662.38, 4155932.75 ], [ 282662.76, 4155932.91 ], [ 282663.38, 4155933.95 ], [ 282664.33, 4155936.67 ], [ 282665.24, 4155939.76 ], [ 282665.44, 4155941.02 ], [ 282665.49, 4155942.4 ], [ 282665.69, 4155943.96 ], [ 282666.06, 4155944.8 ], [ 282667.77, 4155947.54 ], [ 282668.57, 4155948.14 ], [ 282668.71, 4155948.53 ], [ 282670.03, 4155952.56 ], [ 282670.23, 4155953.58 ], [ 282670.36, 4155954.51 ], [ 282670.48, 4155954.95 ], [ 282670.78, 4155955.58 ], [ 282671.12, 4155956.02 ], [ 282671.23, 4155956.14 ], [ 282669.99, 4155960.14 ], [ 282669.55, 4155971.82 ], [ 282668.16, 4155972.05 ], [ 282661.6, 4155970.03 ], [ 282661.44, 4155970.0 ], [ 282659.94, 4155969.13 ], [ 282658.62, 4155968.17 ] ] ] } }
]
}
