{
"type": "FeatureCollection",
"name": "pois",
"crs": { "type": "name", "properties": { "name": "urn:ogc:def:crs:EPSG::32618" } },
"xy_coordinate_resolution": 0.01,
"features": [
{ "type": "Feature", "properties": { "id": "lidar-tree:284040:4159762", "name": null, "kind": "tree", "species": null, "source": "lidar2025", "tree_height": 12.8, "crown_radius": 4.7, "height_source": "lidar2025" }, "geometry": { "type": "Point", "coordinates": [ 284040.5, 4159762.5 ] } },
{ "type": "Feature", "properties": { "id": "lidar-tree:284030:4159764", "name": null, "kind": "tree", "species": null, "source": "lidar2025", "tree_height": 14.8, "crown_radius": 5.1, "height_source": "lidar2025" }, "geometry": { "type": "Point", "coordinates": [ 284030.5, 4159764.5 ] } },
{ "type": "Feature", "properties": { "id": "lidar-tree:284016:4159780", "name": null, "kind": "tree", "species": null, "source": "lidar2025", "tree_height": 12.7, "crown_radius": 6.0, "height_source": "lidar2025" }, "geometry": { "type": "Point", "coordinates": [ 284016.5, 4159779.5 ] } },
{ "type": "Feature", "properties": { "id": "lidar-tree:284030:4159780", "name": null, "kind": "tree", "species": null, "source": "lidar2025", "tree_height": 15.1, "crown_radius": 6.0, "height_source": "lidar2025" }, "geometry": { "type": "Point", "coordinates": [ 284030.5, 4159780.5 ] } },
{ "type": "Feature", "properties": { "id": "lidar-tree:284028:4159792", "name": null, "kind": "tree", "species": null, "source": "lidar2025", "tree_height": 14.8, "crown_radius": 6.0, "height_source": "lidar2025" }, "geometry": { "type": "Point", "coordinates": [ 284027.5, 4159791.5 ] } },
{ "type": "Feature", "properties": { "id": "lidar-tree:284052:4159822", "name": null, "kind": "tree", "species": null, "source": "lidar2025", "tree_height": 19.1, "crown_radius": 6.0, "height_source": "lidar2025" }, "geometry": { "type": "Point", "coordinates": [ 284051.5, 4159821.5 ] } },
{ "type": "Feature", "properties": { "id": "lidar-tree:284042:4159972", "name": null, "kind": "tree", "species": null, "source": "lidar2025", "tree_height": 5.7, "crown_radius": 3.6, "height_source": "lidar2025" }, "geometry": { "type": "Point", "coordinates": [ 284041.5, 4159971.5 ] } },
{ "type": "Feature", "properties": { "id": "lidar-tree:284066:4159976", "name": null, "kind": "tree", "species": null, "source": "lidar2025", "tree_height": 6.6, "crown_radius": 2.3, "height_source": "lidar2025" }, "geometry": { "type": "Point", "coordinates": [ 284065.5, 4159975.5 ] } },
{ "type": "Feature", "properties": { "id": "lidar-tree:284058:4159978", "name": null, "kind": "tree", "species": null, "source": "lidar2025", "tree_height": 5.1, "crown_radius": 2.2, "height_source": "lidar2025" }, "geometry": { "type": "Point", "coordinates": [ 284058.5, 4159977.5 ] } },
{ "type": "Feature", "properties": { "id": "lidar-tree:284054:4159996", "name": null, "kind": "tree", "species": null, "source": "lidar2025", "tree_height": 5.7, "crown_radius": 2.0, "height_source": "lidar2025" }, "geometry": { "type": "Point", "coordinates": [ 284054.5, 4159995.5 ] } },
{ "type": "Feature", "properties": { "id": "lidar-tree:284166:4159772", "name": null, "kind": "tree", "species": null, "source": "lidar2025", "tree_height": 17.5, "crown_radius": 6.0, "height_source": "lidar2025" }, "geometry": { "type": "Point", "coordinates": [ 284165.5, 4159772.5 ] } },
{ "type": "Feature", "properties": { "id": "lidar-tree:284156:4159778", "name": null, "kind": "tree", "species": null, "source": "lidar2025", "tree_height": 18.8, "crown_radius": 6.0, "height_source": "lidar2025" }, "geometry": { "type": "Point", "coordinates": [ 284155.5, 4159777.5 ] } },
{ "type": "Feature", "properties": { "id": "lidar-tree:284078:4159826", "name": null, "kind": "tree", "species": null, "source": "lidar2025", "tree_height": 17.1, "crown_radius": 6.0, "height_source": "lidar2025" }, "geometry": { "type": "Point", "coordinates": [ 284078.5, 4159826.5 ] } },
{ "type": "Feature", "properties": { "id": "lidar-tree:284118:4159852", "name": null, "kind": "tree", "species": null, "source": "lidar2025", "tree_height": 20.9, "crown_radius": 6.0, "height_source": "lidar2025" }, "geometry": { "type": "Point", "coordinates": [ 284118.5, 4159851.5 ] } },
{ "type": "Feature", "properties": { "id": "lidar-tree:284126:4159856", "name": null, "kind": "tree", "species": null, "source": "lidar2025", "tree_height": 19.5, "crown_radius": 6.0, "height_source": "lidar2025" }, "geometry": { "type": "Point", "coordinates": [ 284125.5, 4159856.5 ] } },
{ "type": "Feature", "properties": { "id": "rva-tree:85918", "name": "Quercus palustris", "kind": "tree", "species": "Quercus palustris", "source": "city_inventory", "tree_height": 17.1, "crown_radius": 6.0, "height_source": "lidar2025" }, "geometry": { "type": "Point", "coordinates": [ 284138.27, 4159961.77 ] } },
{ "type": "Feature", "properties": { "id": "lidar-tree:284118:4159974", "name": null, "kind": "tree", "species": null, "source": "lidar2025", "tree_height": 17.0, "crown_radius": 6.0, "height_source": "lidar2025" }, "geometry": { "type": "Point", "coordinates": [ 284117.5, 4159973.5 ] } },
{ "type": "Feature", "properties": { "id": "lidar-tree:284248:4159754", "name": null, "kind": "tree", "species": null, "source": "lidar2025", "tree_height": 7.7, "crown_radius": 3.6, "height_source": "lidar2025" }, "geometry": { "type": "Point", "coordinates": [ 284248.5, 4159754.5 ] } },
{ "type": "Feature", "properties": { "id": "lidar-tree:284218:4159760", "name": null, "kind": "tree", "species": null, "source": "lidar2025", "tree_height": 20.3, "crown_radius": 6.0, "height_source": "lidar2025" }, "geometry": { "type": "Point", "coordinates": [ 284218.5, 4159759.5 ] } },
{ "type": "Feature", "properties": { "id": "rva-tree:63697", "name": "Cladrastis kentukea", "kind": "tree", "species": "Cladrastis kentukea", "source": "city_inventory", "tree_height": 14.4, "crown_radius": 4.5, "height_source": "lidar2025" }, "geometry": { "type": "Point", "coordinates": [ 284248.73, 4159773.01 ] } },
{ "type": "Feature", "properties": { "id": "lidar-tree:284210:4159778", "name": null, "kind": "tree", "species": null, "source": "lidar2025", "tree_height": 8.9, "crown_radius": 4.1, "height_source": "lidar2025" }, "geometry": { "type": "Point", "coordinates": [ 284209.5, 4159778.5 ] } },
{ "type": "Feature", "properties": { "id": "lidar-tree:284218:4159798", "name": null, "kind": "tree", "species": null, "source": "lidar2025", "tree_height": 8.2, "crown_radius": 5.2, "height_source": "lidar2025" }, "geometry": { "type": "Point", "coordinates": [ 284218.5, 4159798.5 ] } },
{ "type": "Feature", "properties": { "id": "rva-tree:1774", "name": "Platanus x acerifolia", "kind": "tree", "species": "Platanus x acerifolia", "source": "city_inventory", "tree_height": 9.4, "crown_radius": 4.3, "height_source": "lidar2025" }, "geometry": { "type": "Point", "coordinates": [ 284249.89, 4159810.25 ] } },
{ "type": "Feature", "properties": { "id": "rva-tree:63785", "name": "Platanus x acerifolia", "kind": "tree", "species": "Platanus x acerifolia", "source": "city_inventory", "tree_height": 8.9, "crown_radius": 3.3, "height_source": "lidar2025" }, "geometry": { "type": "Point", "coordinates": [ 284249.92, 4159823.13 ] } },
{ "type": "Feature", "properties": { "id": "lidar-tree:284244:4159846", "name": null, "kind": "tree", "species": null, "source": "lidar2025", "tree_height": 20.1, "crown_radius": 6.0, "height_source": "lidar2025" }, "geometry": { "type": "Point", "coordinates": [ 284244.5, 4159845.5 ] } },
{ "type": "Feature", "properties": { "id": "lidar-tree:284216:4159750", "name": null, "kind": "tree", "species": null, "source": "lidar2025", "tree_height": 22.0, "crown_radius": 6.0, "height_source": "lidar2025" }, "geometry": { "type": "Point", "coordinates": [ 284215.5, 4159750.5 ] } }
]
}
