{
"type": "FeatureCollection",
"name": "landuse",
"crs": { "type": "name", "properties": { "name": "urn:ogc:def:crs:EPSG::32618" } },
"xy_coordinate_resolution": 0.01,
"features": [
{ "type": "Feature", "properties": { "id": "imagery:groundcover_paved:2792", "name": null, "kind": "groundcover_paved", "sport": null, "surface": null, "pitch_layout": null, "source": "vgin_vbmp+naip+lidar2025", "source_updated": null, "base_z": null, "top_z": null }, "geometry": { "type": "MultiPolygon", "coordinates": [ [ [ [ 280990.02, 4160786.59 ], [ 280956.59, 4160750.0 ], [ 280932.02, 4160750.0 ], [ 280969.89, 4160790.63 ], [ 280981.65, 4160790.63 ], [ 280983.77, 4160789.75 ], [ 280983.93, 4160789.58 ], [ 280984.48, 4160788.83 ], [ 280984.72, 4160788.37 ], [ 280987.49, 4160786.36 ], [ 280988.77, 4160786.17 ], [ 280990.02, 4160786.59 ] ] ], [ [ [ 280994.07, 4160752.46 ], [ 280995.13, 4160750.0 ], [ 280990.07, 4160750.0 ], [ 280991.97, 4160752.17 ], [ 280994.07, 4160752.46 ] ] ], [ [ [ 281000.0, 4160761.33 ], [ 281000.0, 4160758.5 ], [ 280998.54, 4160759.67 ], [ 281000.0, 4160761.33 ] ] ], [ [ [ 280886.71, 4160751.95 ], [ 280887.34, 4160752.72 ], [ 280887.54, 4160752.99 ], [ 280887.61, 4160753.09 ], [ 280887.62, 4160753.1 ], [ 280887.86, 4160753.51 ], [ 280887.87, 4160753.52 ], [ 280890.47, 4160758.41 ], [ 280890.66, 4160758.47 ], [ 280891.53, 4160759.28 ], [ 280892.76, 4160762.26 ], [ 280892.75, 4160762.68 ], [ 280897.29, 4160771.2 ], [ 280901.79, 4160773.45 ], [ 280906.13, 4160770.77 ], [ 280906.13, 4160761.22 ], [ 280906.55, 4160760.2 ], [ 280908.71, 4160758.05 ], [ 280909.32, 4160757.8 ], [ 280905.47, 4160751.84 ], [ 280904.07, 4160750.0 ], [ 280885.82, 4160750.0 ], [ 280886.36, 4160750.56 ], [ 280886.71, 4160751.95 ] ] ], [ [ [ 280925.17, 4160771.14 ], [ 280925.28, 4160771.45 ], [ 280928.27, 4160781.69 ], [ 280928.38, 4160782.18 ], [ 280929.66, 4160790.63 ], [ 280948.56, 4160790.63 ], [ 280919.27, 4160759.2 ], [ 280919.31, 4160759.26 ], [ 280919.53, 4160759.65 ], [ 280925.04, 4160770.84 ], [ 280925.17, 4160771.14 ] ] ] ] } },
{ "type": "Feature", "properties": { "id": "osm:way/1374547045", "name": null, "kind": "parking", "sport": null, "surface": null, "pitch_layout": null, "source": null, "source_updated": null, "base_z": null, "top_z": null }, "geometry": { "type": "Polygon", "coordinates": [ [ [ 280878.69, 4160750.0 ], [ 280833.61, 4160750.0 ], [ 280821.15, 4160761.14 ], [ 280845.7, 4160789.48 ], [ 280883.45, 4160755.87 ], [ 280878.69, 4160750.0 ] ] ] } },
{ "type": "Feature", "properties": { "id": "imagery:groundcover_bare:16", "name": null, "kind": "groundcover_bare", "sport": null, "surface": null, "pitch_layout": null, "source": "vgin_vbmp+naip+lidar2025", "source_updated": null, "base_z": null, "top_z": null }, "geometry": { "type": "Polygon", "coordinates": [ [ [ 280910.89, 4160781.04 ], [ 280913.53, 4160780.16 ], [ 280914.7, 4160775.19 ], [ 280913.22, 4160773.71 ], [ 280912.9, 4160773.23 ], [ 280912.24, 4160771.66 ], [ 280912.13, 4160771.09 ], [ 280912.13, 4160763.63 ], [ 280909.13, 4160760.63 ], [ 280908.59, 4160760.63 ], [ 280905.65, 4160763.04 ], [ 280903.45, 4160774.05 ], [ 280904.27, 4160776.76 ], [ 280907.82, 4160780.31 ], [ 280910.89, 4160781.04 ] ] ] } },
{ "type": "Feature", "properties": { "id": "imagery:groundcover_paved:21", "name": null, "kind": "groundcover_paved", "sport": null, "surface": null, "pitch_layout": null, "source": "vgin_vbmp+naip+lidar2025", "source_updated": null, "base_z": null, "top_z": null }, "geometry": { "type": "Polygon", "coordinates": [ [ [ 280772.13, 4160780.64 ], [ 280779.89, 4160790.63 ], [ 280793.91, 4160790.63 ], [ 280796.74, 4160788.5 ], [ 280783.48, 4160771.33 ], [ 280772.13, 4160780.64 ] ] ] } }
]
}
