{
"type": "FeatureCollection",
"name": "roads",
"crs": { "type": "name", "properties": { "name": "urn:ogc:def:crs:EPSG::32618" } },
"xy_coordinate_resolution": 0.01,
"features": [
{ "type": "Feature", "properties": { "id": "osm:way/83607259", "name": "North 3rd Street", "highway": "tertiary", "lanes": 1.0, "width": 8.0, "oneway": true, "surface": "asphalt", "footway": null, "sidewalk_left": true, "sidewalk_right": true, "generated_sidewalk": true, "bus_lanes": null, "bus_lane_side": null, "bus_only": false, "sidewalk": false, "bridge": false, "ramp": false, "tunnel": false, "layer": 0, "deck": null }, "geometry": { "type": "LineString", "coordinates": [ [ 284500.06, 4158018.01 ], [ 284500.0, 4158017.94 ] ] } },
{ "type": "Feature", "properties": { "id": "osm:way/1112080049", "name": null, "highway": "footway", "lanes": null, "width": 2.0, "oneway": false, "surface": null, "footway": "sidewalk", "sidewalk_left": false, "sidewalk_right": false, "generated_sidewalk": false, "bus_lanes": null, "bus_lane_side": null, "bus_only": false, "sidewalk": false, "bridge": false, "ramp": false, "tunnel": false, "layer": 0, "deck": null }, "geometry": { "type": "LineString", "coordinates": [ [ 284509.0, 4158000.0 ], [ 284501.37, 4158006.12 ], [ 284500.0, 4158004.4 ] ] } },
{ "type": "Feature", "properties": { "id": "osm:way/899644646", "name": "3rd Street Cycle Track", "highway": "cycleway", "lanes": null, "width": 2.5, "oneway": true, "surface": "concrete:plates", "footway": null, "sidewalk_left": false, "sidewalk_right": false, "generated_sidewalk": false, "bus_lanes": null, "bus_lane_side": null, "bus_only": false, "sidewalk": false, "bridge": false, "ramp": false, "tunnel": false, "layer": 0, "deck": null }, "geometry": { "type": "LineString", "coordinates": [ [ 284500.0, 4158017.87 ], [ 284500.06, 4158018.01 ] ] } },
{ "type": "Feature", "properties": { "id": "osm:way/1112080052", "name": null, "highway": "footway", "lanes": null, "width": 2.0, "oneway": false, "surface": "asphalt", "footway": "crossing", "sidewalk_left": false, "sidewalk_right": false, "generated_sidewalk": false, "bus_lanes": null, "bus_lane_side": null, "bus_only": false, "sidewalk": false, "bridge": false, "ramp": false, "tunnel": false, "layer": 0, "deck": null }, "geometry": { "type": "LineString", "coordinates": [ [ 284500.0, 4158007.1 ], [ 284501.37, 4158006.12 ] ] } },
{ "type": "Feature", "properties": { "id": "osm:way/1112080050", "name": null, "highway": "footway", "lanes": null, "width": 2.0, "oneway": false, "surface": "asphalt", "footway": "crossing", "sidewalk_left": false, "sidewalk_right": false, "generated_sidewalk": false, "bus_lanes": null, "bus_lane_side": null, "bus_only": false, "sidewalk": false, "bridge": false, "ramp": false, "tunnel": false, "layer": 0, "deck": null }, "geometry": { "type": "LineString", "coordinates": [ [ 284501.37, 4158006.12 ], [ 284504.63, 4158010.08 ], [ 284506.81, 4158012.73 ], [ 284514.69, 4158022.31 ], [ 284520.67, 4158029.58 ] ] } },
{ "type": "Feature", "properties": { "id": "osm:way/692841327", "name": "North 3rd Street", "highway": "secondary", "lanes": null, "width": 9.5, "oneway": false, "surface": "asphalt", "footway": null, "sidewalk_left": null, "sidewalk_right": null, "generated_sidewalk": true, "bus_lanes": null, "bus_lane_side": null, "bus_only": false, "sidewalk": false, "bridge": false, "ramp": false, "tunnel": false, "layer": 0, "deck": null }, "geometry": { "type": "LineString", "coordinates": [ [ 284507.99, 4158027.52 ], [ 284500.06, 4158018.01 ] ] } },
{ "type": "Feature", "properties": { "id": "osm:way/1112080119", "name": null, "highway": "footway", "lanes": null, "width": 2.0, "oneway": false, "surface": "asphalt", "footway": "crossing", "sidewalk_left": false, "sidewalk_right": false, "generated_sidewalk": false, "bus_lanes": null, "bus_lane_side": null, "bus_only": false, "sidewalk": false, "bridge": false, "ramp": false, "tunnel": false, "layer": 0, "deck": null }, "geometry": { "type": "LineString", "coordinates": [ [ 284500.0, 4158029.49 ], [ 284502.17, 4158032.17 ], [ 284508.42, 4158039.85 ] ] } },
{ "type": "Feature", "properties": { "id": "osm:way/1112080051", "name": null, "highway": "footway", "lanes": null, "width": 2.0, "oneway": false, "surface": "asphalt", "footway": "crossing", "sidewalk_left": false, "sidewalk_right": false, "generated_sidewalk": false, "bus_lanes": null, "bus_lane_side": null, "bus_only": false, "sidewalk": false, "bridge": false, "ramp": false, "tunnel": false, "layer": 0, "deck": null }, "geometry": { "type": "LineString", "coordinates": [ [ 284520.67, 4158029.58 ], [ 284514.36, 4158034.87 ], [ 284508.42, 4158039.85 ] ] } },
{ "type": "Feature", "properties": { "id": "osm:way/1468119909", "name": "North 3rd Street", "highway": "secondary", "lanes": 4.0, "width": 13.2, "oneway": false, "surface": "asphalt", "footway": null, "sidewalk_left": false, "sidewalk_right": false, "generated_sidewalk": true, "bus_lanes": null, "bus_lane_side": null, "bus_only": false, "sidewalk": false, "bridge": false, "ramp": false, "tunnel": false, "layer": 0, "deck": null }, "geometry": { "type": "LineString", "coordinates": [ [ 284529.44, 4158052.64 ], [ 284515.85, 4158036.5 ], [ 284514.36, 4158034.87 ], [ 284507.99, 4158027.52 ] ] } },
{ "type": "Feature", "properties": { "id": "osm:way/1122210280", "name": null, "highway": "footway", "lanes": null, "width": 2.0, "oneway": false, "surface": null, "footway": "sidewalk", "sidewalk_left": false, "sidewalk_right": false, "generated_sidewalk": false, "bus_lanes": null, "bus_lane_side": null, "bus_only": false, "sidewalk": false, "bridge": false, "ramp": false, "tunnel": false, "layer": 0, "deck": null }, "geometry": { "type": "LineString", "coordinates": [ [ 284545.77, 4158060.47 ], [ 284520.67, 4158029.58 ] ] } },
{ "type": "Feature", "properties": { "id": "osm:way/692891949", "name": "East Broad Street", "highway": "primary", "lanes": 2.0, "width": 11.0, "oneway": true, "surface": "asphalt", "footway": null, "sidewalk_left": null, "sidewalk_right": false, "generated_sidewalk": true, "bus_lanes": 1.0, "bus_lane_side": "right", "bus_only": false, "sidewalk": false, "bridge": false, "ramp": false, "tunnel": false, "layer": 0, "deck": null }, "geometry": { "type": "LineString", "coordinates": [ [ 284500.06, 4158018.01 ], [ 284506.81, 4158012.73 ], [ 284522.96, 4158000.0 ] ] } },
{ "type": "Feature", "properties": { "id": "osm:way/692891950", "name": "East Broad Street", "highway": "primary", "lanes": 2.0, "width": 11.0, "oneway": true, "surface": "asphalt", "footway": null, "sidewalk_left": null, "sidewalk_right": null, "generated_sidewalk": true, "bus_lanes": 1.0, "bus_lane_side": "right", "bus_only": false, "sidewalk": false, "bridge": false, "ramp": false, "tunnel": false, "layer": 0, "deck": null }, "geometry": { "type": "LineString", "coordinates": [ [ 284542.67, 4158000.0 ], [ 284517.6, 4158020.05 ], [ 284514.69, 4158022.31 ], [ 284507.99, 4158027.52 ] ] } },
{ "type": "Feature", "properties": { "id": "osm:way/1122210279", "name": null, "highway": "footway", "lanes": null, "width": 2.0, "oneway": false, "surface": null, "footway": "crossing", "sidewalk_left": false, "sidewalk_right": false, "generated_sidewalk": false, "bus_lanes": null, "bus_lane_side": null, "bus_only": false, "sidewalk": false, "bridge": false, "ramp": false, "tunnel": false, "layer": 0, "deck": null }, "geometry": { "type": "LineString", "coordinates": [ [ 284553.42, 4158069.79 ], [ 284549.87, 4158065.58 ], [ 284545.77, 4158060.47 ] ] } },
{ "type": "Feature", "properties": { "id": "osm:way/692873510", "name": "North 3rd Street", "highway": "secondary", "lanes": 4.0, "width": 13.2, "oneway": false, "surface": "asphalt", "footway": null, "sidewalk_left": false, "sidewalk_right": false, "generated_sidewalk": true, "bus_lanes": null, "bus_lane_side": null, "bus_only": false, "sidewalk": false, "bridge": false, "ramp": false, "tunnel": false, "layer": 0, "deck": null }, "geometry": { "type": "LineString", "coordinates": [ [ 284558.22, 4158087.77 ], [ 284552.86, 4158081.01 ], [ 284551.95, 4158079.87 ], [ 284549.22, 4158076.41 ], [ 284544.11, 4158070.05 ], [ 284529.44, 4158052.64 ] ] } },
{ "type": "Feature", "properties": { "id": "osm:way/1023090492", "name": null, "highway": "service", "lanes": null, "width": 4.5, "oneway": true, "surface": null, "footway": null, "sidewalk_left": false, "sidewalk_right": false, "generated_sidewalk": false, "bus_lanes": null, "bus_lane_side": null, "bus_only": false, "sidewalk": false, "bridge": false, "ramp": false, "tunnel": false, "layer": 0, "deck": null }, "geometry": { "type": "LineString", "coordinates": [ [ 284549.22, 4158076.41 ], [ 284555.02, 4158071.76 ], [ 284556.58, 4158070.51 ] ] } },
{ "type": "Feature", "properties": { "id": "osm:way/153958856", "name": null, "highway": "service", "lanes": null, "width": 4.5, "oneway": false, "surface": null, "footway": null, "sidewalk_left": false, "sidewalk_right": false, "generated_sidewalk": false, "bus_lanes": null, "bus_lane_side": null, "bus_only": false, "sidewalk": false, "bridge": false, "ramp": false, "tunnel": false, "layer": 0, "deck": null }, "geometry": { "type": "LineString", "coordinates": [ [ 284500.0, 4158105.2 ], [ 284536.99, 4158076.44 ], [ 284544.11, 4158070.05 ], [ 284549.87, 4158065.58 ], [ 284609.32, 4158019.44 ] ] } },
{ "type": "Feature", "properties": { "id": "osm:way/1198546702", "name": null, "highway": "footway", "lanes": null, "width": 2.0, "oneway": false, "surface": "concrete", "footway": "crossing", "sidewalk_left": false, "sidewalk_right": false, "generated_sidewalk": false, "bus_lanes": null, "bus_lane_side": null, "bus_only": false, "sidewalk": false, "bridge": false, "ramp": false, "tunnel": false, "layer": 0, "deck": null }, "geometry": { "type": "LineString", "coordinates": [ [ 284538.91, 4158078.83 ], [ 284536.99, 4158076.44 ], [ 284535.37, 4158074.43 ] ] } },
{ "type": "Feature", "properties": { "id": "osm:way/1023090493", "name": null, "highway": "service", "lanes": null, "width": 4.5, "oneway": true, "surface": null, "footway": null, "sidewalk_left": false, "sidewalk_right": false, "generated_sidewalk": false, "bus_lanes": null, "bus_lane_side": null, "bus_only": false, "sidewalk": false, "bridge": false, "ramp": false, "tunnel": false, "layer": 0, "deck": null }, "geometry": { "type": "LineString", "coordinates": [ [ 284559.45, 4158074.0 ], [ 284557.85, 4158075.25 ], [ 284551.95, 4158079.87 ] ] } },
{ "type": "Feature", "properties": { "id": "osm:way/1199342334", "name": null, "highway": "footway", "lanes": null, "width": 2.0, "oneway": false, "surface": "concrete", "footway": "sidewalk", "sidewalk_left": false, "sidewalk_right": false, "generated_sidewalk": false, "bus_lanes": null, "bus_lane_side": null, "bus_only": false, "sidewalk": false, "bridge": false, "ramp": false, "tunnel": false, "layer": 0, "deck": null }, "geometry": { "type": "LineString", "coordinates": [ [ 284543.19, 4158084.07 ], [ 284538.91, 4158078.83 ] ] } },
{ "type": "Feature", "properties": { "id": "osm:way/1199342335", "name": null, "highway": "footway", "lanes": null, "width": 2.0, "oneway": false, "surface": "concrete", "footway": "crossing", "sidewalk_left": false, "sidewalk_right": false, "generated_sidewalk": false, "bus_lanes": null, "bus_lane_side": null, "bus_only": false, "sidewalk": false, "bridge": false, "ramp": false, "tunnel": false, "layer": 0, "deck": null }, "geometry": { "type": "LineString", "coordinates": [ [ 284547.34, 4158089.19 ], [ 284545.43, 4158086.85 ], [ 284543.19, 4158084.07 ] ] } },
{ "type": "Feature", "properties": { "id": "osm:way/1112080053", "name": null, "highway": "footway", "lanes": null, "width": 2.0, "oneway": false, "surface": null, "footway": "sidewalk", "sidewalk_left": false, "sidewalk_right": false, "generated_sidewalk": false, "bus_lanes": null, "bus_lane_side": null, "bus_only": false, "sidewalk": false, "bridge": false, "ramp": false, "tunnel": false, "layer": 0, "deck": null }, "geometry": { "type": "LineString", "coordinates": [ [ 284520.67, 4158029.58 ], [ 284557.49, 4158000.0 ] ] } },
{ "type": "Feature", "properties": { "id": "osm:way/1122210290", "name": null, "highway": "footway", "lanes": null, "width": 2.0, "oneway": false, "surface": "asphalt", "footway": "crossing", "sidewalk_left": false, "sidewalk_right": false, "generated_sidewalk": false, "bus_lanes": null, "bus_lane_side": null, "bus_only": false, "sidewalk": false, "bridge": false, "ramp": false, "tunnel": false, "layer": 0, "deck": null }, "geometry": { "type": "LineString", "coordinates": [ [ 284731.22, 4158000.0 ], [ 284731.83, 4158000.79 ] ] } },
{ "type": "Feature", "properties": { "id": "osm:way/1122210293", "name": null, "highway": "footway", "lanes": null, "width": 2.0, "oneway": false, "surface": "paving_stones", "footway": "crossing", "sidewalk_left": false, "sidewalk_right": false, "generated_sidewalk": false, "bus_lanes": null, "bus_lane_side": null, "bus_only": false, "sidewalk": false, "bridge": false, "ramp": false, "tunnel": false, "layer": 0, "deck": null }, "geometry": { "type": "LineString", "coordinates": [ [ 284739.56, 4158000.0 ], [ 284734.35, 4158004.02 ] ] } },
{ "type": "Feature", "properties": { "id": "osm:way/1122210275", "name": null, "highway": "footway", "lanes": null, "width": 2.0, "oneway": false, "surface": "paving_stones", "footway": "sidewalk", "sidewalk_left": false, "sidewalk_right": false, "generated_sidewalk": false, "bus_lanes": null, "bus_lane_side": null, "bus_only": false, "sidewalk": false, "bridge": false, "ramp": false, "tunnel": false, "layer": 0, "deck": null }, "geometry": { "type": "LineString", "coordinates": [ [ 284553.42, 4158069.79 ], [ 284555.02, 4158071.76 ], [ 284557.85, 4158075.25 ], [ 284578.3, 4158100.46 ], [ 284580.4, 4158102.28 ], [ 284582.05, 4158102.26 ], [ 284709.32, 4158000.0 ] ] } },
{ "type": "Feature", "properties": { "id": "osm:way/370505917", "name": "North 5th Street", "highway": "primary", "lanes": 4.0, "width": 13.2, "oneway": true, "surface": "asphalt", "footway": null, "sidewalk_left": false, "sidewalk_right": false, "generated_sidewalk": true, "bus_lanes": null, "bus_lane_side": null, "bus_only": false, "sidewalk": true, "bridge": false, "ramp": false, "tunnel": false, "layer": 0, "deck": null }, "geometry": { "type": "LineString", "coordinates": [ [ 284750.0, 4158010.09 ], [ 284742.38, 4158000.0 ] ] } },
{ "type": "Feature", "properties": { "id": "osm:way/354923832", "name": "East Marshall Street", "highway": "tertiary", "lanes": 3.0, "width": 9.9, "oneway": true, "surface": "asphalt", "footway": null, "sidewalk_left": false, "sidewalk_right": false, "generated_sidewalk": true, "bus_lanes": null, "bus_lane_side": null, "bus_only": false, "sidewalk": true, "bridge": false, "ramp": false, "tunnel": false, "layer": 0, "deck": null }, "geometry": { "type": "LineString", "coordinates": [ [ 284579.31, 4158114.26 ], [ 284586.86, 4158108.29 ], [ 284668.58, 4158042.81 ], [ 284723.22, 4158000.0 ] ] } },
{ "type": "Feature", "properties": { "id": "osm:way/1122210274", "name": null, "highway": "footway", "lanes": null, "width": 2.0, "oneway": false, "surface": "paving_stones", "footway": "crossing", "sidewalk_left": false, "sidewalk_right": false, "generated_sidewalk": false, "bus_lanes": null, "bus_lane_side": null, "bus_only": false, "sidewalk": false, "bridge": false, "ramp": false, "tunnel": false, "layer": 0, "deck": null }, "geometry": { "type": "LineString", "coordinates": [ [ 284590.93, 4158113.3 ], [ 284586.86, 4158108.29 ], [ 284582.05, 4158102.26 ] ] } },
{ "type": "Feature", "properties": { "id": "osm:way/1122210271", "name": null, "highway": "footway", "lanes": null, "width": 2.0, "oneway": false, "surface": "paving_stones", "footway": "crossing", "sidewalk_left": false, "sidewalk_right": false, "generated_sidewalk": false, "bus_lanes": null, "bus_lane_side": null, "bus_only": false, "sidewalk": false, "bridge": false, "ramp": false, "tunnel": false, "layer": 0, "deck": null }, "geometry": { "type": "LineString", "coordinates": [ [ 284566.25, 4158113.73 ], [ 284573.87, 4158107.45 ], [ 284580.4, 4158102.28 ] ] } },
{ "type": "Feature", "properties": { "id": "osm:way/1122210276", "name": null, "highway": "footway", "lanes": null, "width": 2.0, "oneway": false, "surface": "paving_stones", "footway": "sidewalk", "sidewalk_left": false, "sidewalk_right": false, "generated_sidewalk": false, "bus_lanes": null, "bus_lane_side": null, "bus_only": false, "sidewalk": false, "bridge": false, "ramp": false, "tunnel": false, "layer": 0, "deck": null }, "geometry": { "type": "LineString", "coordinates": [ [ 284690.51, 4158223.45 ], [ 284686.4, 4158220.72 ], [ 284666.97, 4158211.35 ], [ 284665.53, 4158209.51 ], [ 284654.58, 4158195.58 ], [ 284613.24, 4158142.95 ], [ 284604.18, 4158133.37 ], [ 284591.59, 4158118.11 ], [ 284589.72, 4158115.5 ], [ 284590.93, 4158113.3 ], [ 284643.91, 4158072.41 ], [ 284724.42, 4158006.54 ], [ 284731.83, 4158000.79 ], [ 284734.35, 4158004.02 ], [ 284750.0, 4158024.16 ] ] } },
{ "type": "Feature", "properties": { "id": "osm:way/1122210273", "name": null, "highway": "footway", "lanes": null, "width": 2.0, "oneway": false, "surface": "paving_stones", "footway": "crossing", "sidewalk_left": false, "sidewalk_right": false, "generated_sidewalk": false, "bus_lanes": null, "bus_lane_side": null, "bus_only": false, "sidewalk": false, "bridge": false, "ramp": false, "tunnel": false, "layer": 0, "deck": null }, "geometry": { "type": "LineString", "coordinates": [ [ 284575.8, 4158125.88 ], [ 284583.81, 4158119.91 ], [ 284589.72, 4158115.5 ] ] } },
{ "type": "Feature", "properties": { "id": "osm:way/692873507", "name": "East Broad Street", "highway": "primary", "lanes": 2.0, "width": 11.0, "oneway": true, "surface": "asphalt", "footway": null, "sidewalk_left": true, "sidewalk_right": false, "generated_sidewalk": true, "bus_lanes": 1.0, "bus_lane_side": "right", "bus_only": false, "sidewalk": false, "bridge": false, "ramp": false, "tunnel": false, "layer": 0, "deck": null }, "geometry": { "type": "LineString", "coordinates": [ [ 284500.0, 4158018.05 ], [ 284500.06, 4158018.01 ] ] } },
{ "type": "Feature", "properties": { "id": "osm:way/692873509", "name": "East Broad Street", "highway": "primary", "lanes": 2.0, "width": 11.0, "oneway": true, "surface": "asphalt", "footway": null, "sidewalk_left": null, "sidewalk_right": null, "generated_sidewalk": true, "bus_lanes": 1.0, "bus_lane_side": "right", "bus_only": false, "sidewalk": false, "bridge": false, "ramp": false, "tunnel": false, "layer": 0, "deck": null }, "geometry": { "type": "LineString", "coordinates": [ [ 284507.99, 4158027.52 ], [ 284502.17, 4158032.17 ], [ 284500.0, 4158033.91 ] ] } },
{ "type": "Feature", "properties": { "id": "osm:way/1198546701", "name": null, "highway": "footway", "lanes": null, "width": 2.0, "oneway": false, "surface": "concrete", "footway": "sidewalk", "sidewalk_left": false, "sidewalk_right": false, "generated_sidewalk": false, "bus_lanes": null, "bus_lane_side": null, "bus_only": false, "sidewalk": false, "bridge": false, "ramp": false, "tunnel": false, "layer": 0, "deck": null }, "geometry": { "type": "LineString", "coordinates": [ [ 284535.37, 4158074.43 ], [ 284508.42, 4158039.85 ], [ 284500.0, 4158047.07 ] ] } },
{ "type": "Feature", "properties": { "id": "osm:way/692841323", "name": "North 2nd Street", "highway": "tertiary", "lanes": 2.0, "width": 8.0, "oneway": true, "surface": "asphalt", "footway": null, "sidewalk_left": true, "sidewalk_right": false, "generated_sidewalk": true, "bus_lanes": null, "bus_lane_side": null, "bus_only": false, "sidewalk": false, "bridge": false, "ramp": false, "tunnel": false, "layer": 0, "deck": null }, "geometry": { "type": "LineString", "coordinates": [ [ 284500.0, 4158174.88 ], [ 284501.22, 4158176.48 ] ] } },
{ "type": "Feature", "properties": { "id": "osm:way/1199342338", "name": null, "highway": "service", "lanes": null, "width": 4.5, "oneway": false, "surface": null, "footway": null, "sidewalk_left": false, "sidewalk_right": false, "generated_sidewalk": false, "bus_lanes": null, "bus_lane_side": null, "bus_only": false, "sidewalk": false, "bridge": false, "ramp": false, "tunnel": false, "layer": 0, "deck": null }, "geometry": { "type": "LineString", "coordinates": [ [ 284516.97, 4158137.24 ], [ 284524.81, 4158147.52 ], [ 284529.39, 4158153.51 ] ] } },
{ "type": "Feature", "properties": { "id": "osm:way/1122210270", "name": null, "highway": "footway", "lanes": null, "width": 2.0, "oneway": false, "surface": "concrete", "footway": "sidewalk", "sidewalk_left": false, "sidewalk_right": false, "generated_sidewalk": false, "bus_lanes": null, "bus_lane_side": null, "bus_only": false, "sidewalk": false, "bridge": false, "ramp": false, "tunnel": false, "layer": 0, "deck": null }, "geometry": { "type": "LineString", "coordinates": [ [ 284500.0, 4158162.0 ], [ 284502.85, 4158165.43 ], [ 284522.29, 4158149.56 ] ] } },
{ "type": "Feature", "properties": { "id": "osm:way/1199342340", "name": null, "highway": "footway", "lanes": null, "width": 2.0, "oneway": false, "surface": "concrete", "footway": "crossing", "sidewalk_left": false, "sidewalk_right": false, "generated_sidewalk": false, "bus_lanes": null, "bus_lane_side": null, "bus_only": false, "sidewalk": false, "bridge": false, "ramp": false, "tunnel": false, "layer": 0, "deck": null }, "geometry": { "type": "LineString", "coordinates": [ [ 284522.29, 4158149.56 ], [ 284524.81, 4158147.52 ], [ 284527.82, 4158145.07 ] ] } },
{ "type": "Feature", "properties": { "id": "osm:way/1199342342", "name": null, "highway": "footway", "lanes": null, "width": 2.0, "oneway": false, "surface": "concrete", "footway": "crossing", "sidewalk_left": false, "sidewalk_right": false, "generated_sidewalk": false, "bus_lanes": null, "bus_lane_side": null, "bus_only": false, "sidewalk": false, "bridge": false, "ramp": false, "tunnel": false, "layer": 0, "deck": null }, "geometry": { "type": "LineString", "coordinates": [ [ 284529.49, 4158164.8 ], [ 284532.3, 4158162.61 ], [ 284534.19, 4158161.11 ] ] } },
{ "type": "Feature", "properties": { "id": "osm:way/1122210269", "name": null, "highway": "footway", "lanes": null, "width": 2.0, "oneway": false, "surface": "asphalt", "footway": "crossing", "sidewalk_left": false, "sidewalk_right": false, "generated_sidewalk": false, "bus_lanes": null, "bus_lane_side": null, "bus_only": false, "sidewalk": false, "bridge": false, "ramp": false, "tunnel": false, "layer": 0, "deck": null }, "geometry": { "type": "LineString", "coordinates": [ [ 284502.85, 4158165.43 ], [ 284500.0, 4158167.54 ] ] } },
{ "type": "Feature", "properties": { "id": "osm:way/1122210268", "name": null, "highway": "footway", "lanes": null, "width": 2.0, "oneway": false, "surface": "asphalt", "footway": "crossing", "sidewalk_left": false, "sidewalk_right": false, "generated_sidewalk": false, "bus_lanes": null, "bus_lane_side": null, "bus_only": false, "sidewalk": false, "bridge": false, "ramp": false, "tunnel": false, "layer": 0, "deck": null }, "geometry": { "type": "LineString", "coordinates": [ [ 284502.85, 4158165.43 ], [ 284507.42, 4158171.42 ], [ 284512.51, 4158178.09 ] ] } },
{ "type": "Feature", "properties": { "id": "osm:way/1199342336", "name": null, "highway": "footway", "lanes": null, "width": 2.0, "oneway": false, "surface": "concrete", "footway": "sidewalk", "sidewalk_left": false, "sidewalk_right": false, "generated_sidewalk": false, "bus_lanes": null, "bus_lane_side": null, "bus_only": false, "sidewalk": false, "bridge": false, "ramp": false, "tunnel": false, "layer": 0, "deck": null }, "geometry": { "type": "LineString", "coordinates": [ [ 284557.76, 4158102.37 ], [ 284547.34, 4158089.19 ] ] } },
{ "type": "Feature", "properties": { "id": "osm:way/1468119910", "name": "North 3rd Street", "highway": "secondary", "lanes": 4.0, "width": 13.2, "oneway": false, "surface": "asphalt", "footway": null, "sidewalk_left": false, "sidewalk_right": false, "generated_sidewalk": true, "bus_lanes": null, "bus_lane_side": null, "bus_only": false, "sidewalk": false, "bridge": false, "ramp": false, "tunnel": false, "layer": 0, "deck": null }, "geometry": { "type": "LineString", "coordinates": [ [ 284579.31, 4158114.26 ], [ 284573.87, 4158107.45 ], [ 284567.04, 4158098.88 ], [ 284558.22, 4158087.77 ] ] } },
{ "type": "Feature", "properties": { "id": "osm:way/1199342337", "name": null, "highway": "footway", "lanes": null, "width": 2.0, "oneway": false, "surface": "concrete", "footway": "crossing", "sidewalk_left": false, "sidewalk_right": false, "generated_sidewalk": false, "bus_lanes": null, "bus_lane_side": null, "bus_only": false, "sidewalk": false, "bridge": false, "ramp": false, "tunnel": false, "layer": 0, "deck": null }, "geometry": { "type": "LineString", "coordinates": [ [ 284561.52, 4158107.32 ], [ 284559.45, 4158104.59 ], [ 284557.76, 4158102.37 ] ] } },
{ "type": "Feature", "properties": { "id": "osm:way/321367964", "name": null, "highway": "service", "lanes": null, "width": 4.5, "oneway": false, "surface": null, "footway": null, "sidewalk_left": false, "sidewalk_right": false, "generated_sidewalk": false, "bus_lanes": null, "bus_lane_side": null, "bus_only": false, "sidewalk": false, "bridge": false, "ramp": false, "tunnel": false, "layer": 0, "deck": null }, "geometry": { "type": "LineString", "coordinates": [ [ 284567.04, 4158098.88 ], [ 284559.45, 4158104.59 ], [ 284516.97, 4158137.24 ], [ 284514.32, 4158136.88 ], [ 284505.59, 4158125.66 ], [ 284505.3, 4158122.62 ], [ 284506.69, 4158119.12 ], [ 284518.06, 4158111.61 ], [ 284531.36, 4158101.18 ], [ 284545.43, 4158086.85 ], [ 284552.86, 4158081.01 ] ] } },
{ "type": "Feature", "properties": { "id": "osm:way/1122210272", "name": null, "highway": "footway", "lanes": null, "width": 2.0, "oneway": false, "surface": "paving_stones", "footway": "crossing", "sidewalk_left": false, "sidewalk_right": false, "generated_sidewalk": false, "bus_lanes": null, "bus_lane_side": null, "bus_only": false, "sidewalk": false, "bridge": false, "ramp": false, "tunnel": false, "layer": 0, "deck": null }, "geometry": { "type": "LineString", "coordinates": [ [ 284566.25, 4158113.73 ], [ 284571.49, 4158120.42 ], [ 284575.8, 4158125.88 ] ] } },
{ "type": "Feature", "properties": { "id": "osm:way/1199342339", "name": null, "highway": "footway", "lanes": null, "width": 2.0, "oneway": false, "surface": "concrete", "footway": "sidewalk", "sidewalk_left": false, "sidewalk_right": false, "generated_sidewalk": false, "bus_lanes": null, "bus_lane_side": null, "bus_only": false, "sidewalk": false, "bridge": false, "ramp": false, "tunnel": false, "layer": 0, "deck": null }, "geometry": { "type": "LineString", "coordinates": [ [ 284527.82, 4158145.07 ], [ 284566.25, 4158113.73 ], [ 284561.52, 4158107.32 ] ] } },
{ "type": "Feature", "properties": { "id": "osm:way/1199342349", "name": null, "highway": "footway", "lanes": null, "width": 2.0, "oneway": false, "surface": "concrete", "footway": "sidewalk", "sidewalk_left": false, "sidewalk_right": false, "generated_sidewalk": false, "bus_lanes": null, "bus_lane_side": null, "bus_only": false, "sidewalk": false, "bridge": false, "ramp": false, "tunnel": false, "layer": 0, "deck": null }, "geometry": { "type": "LineString", "coordinates": [ [ 284552.83, 4158146.53 ], [ 284564.16, 4158137.7 ] ] } },
{ "type": "Feature", "properties": { "id": "osm:way/374649612", "name": "East Marshall Street", "highway": "tertiary", "lanes": null, "width": 8.0, "oneway": true, "surface": "paved", "footway": null, "sidewalk_left": true, "sidewalk_right": true, "generated_sidewalk": true, "bus_lanes": null, "bus_lane_side": null, "bus_only": false, "sidewalk": true, "bridge": false, "ramp": false, "tunnel": false, "layer": 0, "deck": null }, "geometry": { "type": "LineString", "coordinates": [ [ 284501.22, 4158176.48 ], [ 284507.42, 4158171.42 ], [ 284526.85, 4158155.51 ], [ 284529.39, 4158153.51 ], [ 284544.78, 4158141.42 ], [ 284571.49, 4158120.42 ], [ 284579.31, 4158114.26 ] ] } },
{ "type": "Feature", "properties": { "id": "osm:way/1199342350", "name": null, "highway": "footway", "lanes": null, "width": 2.0, "oneway": false, "surface": "concrete", "footway": "crossing", "sidewalk_left": false, "sidewalk_right": false, "generated_sidewalk": false, "bus_lanes": null, "bus_lane_side": null, "bus_only": false, "sidewalk": false, "bridge": false, "ramp": false, "tunnel": false, "layer": 0, "deck": null }, "geometry": { "type": "LineString", "coordinates": [ [ 284547.44, 4158150.74 ], [ 284550.03, 4158148.72 ], [ 284552.83, 4158146.53 ] ] } },
{ "type": "Feature", "properties": { "id": "osm:way/1199342348", "name": null, "highway": "footway", "lanes": null, "width": 2.0, "oneway": false, "surface": "concrete", "footway": "sidewalk", "sidewalk_left": false, "sidewalk_right": false, "generated_sidewalk": false, "bus_lanes": null, "bus_lane_side": null, "bus_only": false, "sidewalk": false, "bridge": false, "ramp": false, "tunnel": false, "layer": 0, "deck": null }, "geometry": { "type": "LineString", "coordinates": [ [ 284534.19, 4158161.11 ], [ 284547.44, 4158150.74 ] ] } },
{ "type": "Feature", "properties": { "id": "osm:way/1199342347", "name": null, "highway": "service", "lanes": null, "width": 4.5, "oneway": false, "surface": null, "footway": null, "sidewalk_left": false, "sidewalk_right": false, "generated_sidewalk": false, "bus_lanes": null, "bus_lane_side": null, "bus_only": false, "sidewalk": false, "bridge": false, "ramp": false, "tunnel": false, "layer": 0, "deck": null }, "geometry": { "type": "LineString", "coordinates": [ [ 284537.13, 4158194.63 ], [ 284566.18, 4158171.23 ], [ 284550.03, 4158148.72 ], [ 284544.78, 4158141.42 ] ] } },
{ "type": "Feature", "properties": { "id": "osm:way/751462321", "name": null, "highway": "service", "lanes": null, "width": 4.5, "oneway": false, "surface": null, "footway": null, "sidewalk_left": false, "sidewalk_right": false, "generated_sidewalk": false, "bus_lanes": null, "bus_lane_side": null, "bus_only": false, "sidewalk": false, "bridge": false, "ramp": false, "tunnel": false, "layer": 0, "deck": null }, "geometry": { "type": "LineString", "coordinates": [ [ 284526.85, 4158155.51 ], [ 284532.3, 4158162.61 ], [ 284538.75, 4158171.0 ], [ 284526.78, 4158180.93 ], [ 284537.13, 4158194.63 ], [ 284545.0, 4158205.03 ], [ 284556.55, 4158220.3 ], [ 284549.24, 4158225.85 ], [ 284543.63, 4158230.13 ] ] } },
{ "type": "Feature", "properties": { "id": "osm:way/1199342344", "name": null, "highway": "footway", "lanes": null, "width": 2.0, "oneway": false, "surface": null, "footway": "crossing", "sidewalk_left": false, "sidewalk_right": false, "generated_sidewalk": false, "bus_lanes": null, "bus_lane_side": null, "bus_only": false, "sidewalk": false, "bridge": false, "ramp": false, "tunnel": false, "layer": 0, "deck": null }, "geometry": { "type": "LineString", "coordinates": [ [ 284539.12, 4158212.76 ], [ 284537.59, 4158210.79 ], [ 284534.92, 4158207.3 ] ] } },
{ "type": "Feature", "properties": { "id": "osm:way/751462322", "name": null, "highway": "service", "lanes": null, "width": 4.5, "oneway": false, "surface": null, "footway": null, "sidewalk_left": false, "sidewalk_right": false, "generated_sidewalk": false, "bus_lanes": null, "bus_lane_side": null, "bus_only": false, "sidewalk": false, "bridge": false, "ramp": false, "tunnel": false, "layer": 0, "deck": null }, "geometry": { "type": "LineString", "coordinates": [ [ 284531.89, 4158215.21 ], [ 284537.59, 4158210.79 ], [ 284538.45, 4158210.12 ], [ 284545.0, 4158205.03 ] ] } },
{ "type": "Feature", "properties": { "id": "osm:way/1199342345", "name": null, "highway": "footway", "lanes": null, "width": 2.0, "oneway": false, "surface": null, "footway": "sidewalk", "sidewalk_left": false, "sidewalk_right": false, "generated_sidewalk": false, "bus_lanes": null, "bus_lane_side": null, "bus_only": false, "sidewalk": false, "bridge": false, "ramp": false, "tunnel": false, "layer": 0, "deck": null }, "geometry": { "type": "LineString", "coordinates": [ [ 284546.79, 4158222.68 ], [ 284539.12, 4158212.76 ] ] } },
{ "type": "Feature", "properties": { "id": "osm:way/1199342346", "name": null, "highway": "footway", "lanes": null, "width": 2.0, "oneway": false, "surface": "concrete", "footway": "crossing", "sidewalk_left": false, "sidewalk_right": false, "generated_sidewalk": false, "bus_lanes": null, "bus_lane_side": null, "bus_only": false, "sidewalk": false, "bridge": false, "ramp": false, "tunnel": false, "layer": 0, "deck": null }, "geometry": { "type": "LineString", "coordinates": [ [ 284551.19, 4158228.38 ], [ 284549.24, 4158225.85 ], [ 284546.79, 4158222.68 ] ] } },
{ "type": "Feature", "properties": { "id": "osm:way/751462325", "name": null, "highway": "service", "lanes": null, "width": 4.5, "oneway": false, "surface": null, "footway": null, "sidewalk_left": false, "sidewalk_right": false, "generated_sidewalk": false, "bus_lanes": null, "bus_lane_side": null, "bus_only": false, "sidewalk": false, "bridge": false, "ramp": false, "tunnel": false, "layer": 0, "deck": null }, "geometry": { "type": "LineString", "coordinates": [ [ 284547.44, 4158234.98 ], [ 284540.53, 4158239.53 ], [ 284532.33, 4158244.92 ] ] } },
{ "type": "Feature", "properties": { "id": "osm:way/1468119908", "name": "North 3rd Street", "highway": "secondary", "lanes": 4.0, "width": 13.2, "oneway": false, "surface": "asphalt", "footway": null, "sidewalk_left": false, "sidewalk_right": null, "generated_sidewalk": true, "bus_lanes": null, "bus_lane_side": null, "bus_only": false, "sidewalk": false, "bridge": false, "ramp": false, "tunnel": false, "layer": 0, "deck": null }, "geometry": { "type": "LineString", "coordinates": [ [ 284600.64, 4158141.09 ], [ 284583.81, 4158119.91 ], [ 284579.31, 4158114.26 ] ] } },
{ "type": "Feature", "properties": { "id": "osm:way/724065074", "name": "North 3rd Street", "highway": "secondary", "lanes": 4.0, "width": 13.2, "oneway": false, "surface": "asphalt", "footway": null, "sidewalk_left": false, "sidewalk_right": false, "generated_sidewalk": true, "bus_lanes": null, "bus_lane_side": null, "bus_only": false, "sidewalk": false, "bridge": false, "ramp": false, "tunnel": false, "layer": 0, "deck": null }, "geometry": { "type": "LineString", "coordinates": [ [ 284635.1, 4158184.46 ], [ 284600.64, 4158141.09 ] ] } },
{ "type": "Feature", "properties": { "id": "osm:way/1199342341", "name": null, "highway": "footway", "lanes": null, "width": 2.0, "oneway": false, "surface": null, "footway": "sidewalk", "sidewalk_left": false, "sidewalk_right": false, "generated_sidewalk": false, "bus_lanes": null, "bus_lane_side": null, "bus_only": false, "sidewalk": false, "bridge": false, "ramp": false, "tunnel": false, "layer": 0, "deck": null }, "geometry": { "type": "LineString", "coordinates": [ [ 284564.16, 4158137.7 ], [ 284575.8, 4158125.88 ], [ 284583.21, 4158135.29 ], [ 284640.41, 4158206.19 ], [ 284641.18, 4158208.25 ] ] } },
{ "type": "Feature", "properties": { "id": "osm:way/1468119907", "name": "North 3rd Street", "highway": "secondary", "lanes": 4.0, "width": 13.2, "oneway": false, "surface": "asphalt", "footway": null, "sidewalk_left": false, "sidewalk_right": false, "generated_sidewalk": true, "bus_lanes": null, "bus_lane_side": null, "bus_only": false, "sidewalk": false, "bridge": false, "ramp": false, "tunnel": false, "layer": 0, "deck": null }, "geometry": { "type": "LineString", "coordinates": [ [ 284653.93, 4158208.16 ], [ 284647.91, 4158200.57 ], [ 284635.1, 4158184.46 ] ] } },
{ "type": "Feature", "properties": { "id": "osm:way/1199342357", "name": null, "highway": "footway", "lanes": null, "width": 2.0, "oneway": false, "surface": "paving_stones", "footway": "crossing", "sidewalk_left": false, "sidewalk_right": false, "generated_sidewalk": false, "bus_lanes": null, "bus_lane_side": null, "bus_only": false, "sidewalk": false, "bridge": false, "ramp": false, "tunnel": false, "layer": 0, "deck": null }, "geometry": { "type": "LineString", "coordinates": [ [ 284640.41, 4158206.19 ], [ 284647.91, 4158200.57 ], [ 284654.58, 4158195.58 ] ] } },
{ "type": "Feature", "properties": { "id": "osm:way/1199342356", "name": null, "highway": "footway", "lanes": null, "width": 2.0, "oneway": false, "surface": "paving_stones", "footway": "crossing", "sidewalk_left": false, "sidewalk_right": false, "generated_sidewalk": false, "bus_lanes": null, "bus_lane_side": null, "bus_only": false, "sidewalk": false, "bridge": false, "ramp": false, "tunnel": false, "layer": 0, "deck": null }, "geometry": { "type": "LineString", "coordinates": [ [ 284641.18, 4158208.25 ], [ 284646.16, 4158214.31 ], [ 284650.71, 4158219.84 ] ] } },
{ "type": "Feature", "properties": { "id": "osm:way/1199342355", "name": null, "highway": "footway", "lanes": null, "width": 2.0, "oneway": false, "surface": "paving_stones", "footway": "crossing", "sidewalk_left": false, "sidewalk_right": false, "generated_sidewalk": false, "bus_lanes": null, "bus_lane_side": null, "bus_only": false, "sidewalk": false, "bridge": false, "ramp": false, "tunnel": false, "layer": 0, "deck": null }, "geometry": { "type": "LineString", "coordinates": [ [ 284652.69, 4158221.87 ], [ 284659.57, 4158215.25 ], [ 284665.53, 4158209.51 ] ] } },
{ "type": "Feature", "properties": { "id": "osm:way/1468119906", "name": "North 3rd Street", "highway": "secondary", "lanes": 4.0, "width": 13.2, "oneway": false, "surface": "asphalt", "footway": null, "sidewalk_left": false, "sidewalk_right": false, "generated_sidewalk": true, "bus_lanes": null, "bus_lane_side": null, "bus_only": false, "sidewalk": false, "bridge": false, "ramp": false, "tunnel": false, "layer": 0, "deck": null }, "geometry": { "type": "LineString", "coordinates": [ [ 284673.94, 4158233.35 ], [ 284663.65, 4158220.38 ], [ 284659.57, 4158215.25 ], [ 284653.93, 4158208.16 ] ] } },
{ "type": "Feature", "properties": { "id": "osm:way/1122210281", "name": null, "highway": "footway", "lanes": null, "width": 2.0, "oneway": false, "surface": "paving_stones", "footway": "sidewalk", "sidewalk_left": false, "sidewalk_right": false, "generated_sidewalk": false, "bus_lanes": null, "bus_lane_side": null, "bus_only": false, "sidewalk": false, "bridge": false, "ramp": false, "tunnel": false, "layer": 0, "deck": null }, "geometry": { "type": "MultiLineString", "coordinates": [ [ [ 284641.18, 4158208.25 ], [ 284588.23, 4158250.0 ] ], [ [ 284567.92, 4158250.0 ], [ 284551.19, 4158228.38 ] ] ] } },
{ "type": "Feature", "properties": { "id": "osm:way/321367942", "name": null, "highway": "service", "lanes": null, "width": 4.5, "oneway": false, "surface": null, "footway": null, "sidewalk_left": false, "sidewalk_right": false, "generated_sidewalk": false, "bus_lanes": null, "bus_lane_side": null, "bus_only": false, "sidewalk": false, "bridge": false, "ramp": false, "tunnel": false, "layer": 1, "deck": null }, "geometry": { "type": "LineString", "coordinates": [ [ 284734.91, 4158250.0 ], [ 284671.14, 4158169.22 ] ] } },
{ "type": "Feature", "properties": { "id": "osm:way/1122210267", "name": null, "highway": "footway", "lanes": null, "width": 2.0, "oneway": false, "surface": "asphalt", "footway": "crossing", "sidewalk_left": false, "sidewalk_right": false, "generated_sidewalk": false, "bus_lanes": null, "bus_lane_side": null, "bus_only": false, "sidewalk": false, "bridge": false, "ramp": false, "tunnel": false, "layer": 0, "deck": null }, "geometry": { "type": "LineString", "coordinates": [ [ 284500.0, 4158187.98 ], [ 284506.47, 4158182.9 ], [ 284512.51, 4158178.09 ] ] } },
{ "type": "Feature", "properties": { "id": "osm:way/1199342343", "name": null, "highway": "footway", "lanes": null, "width": 2.0, "oneway": false, "surface": null, "footway": "sidewalk", "sidewalk_left": false, "sidewalk_right": false, "generated_sidewalk": false, "bus_lanes": null, "bus_lane_side": null, "bus_only": false, "sidewalk": false, "bridge": false, "ramp": false, "tunnel": false, "layer": 0, "deck": null }, "geometry": { "type": "LineString", "coordinates": [ [ 284534.92, 4158207.3 ], [ 284512.51, 4158178.09 ], [ 284529.49, 4158164.8 ] ] } },
{ "type": "Feature", "properties": { "id": "osm:way/6033799", "name": "East Marshall Street", "highway": "tertiary", "lanes": 2.0, "width": 8.0, "oneway": true, "surface": "asphalt", "footway": null, "sidewalk_left": true, "sidewalk_right": true, "generated_sidewalk": true, "bus_lanes": null, "bus_lane_side": null, "bus_only": false, "sidewalk": true, "bridge": false, "ramp": false, "tunnel": false, "layer": 0, "deck": null }, "geometry": { "type": "LineString", "coordinates": [ [ 284500.0, 4158177.44 ], [ 284501.22, 4158176.48 ] ] } },
{ "type": "Feature", "properties": { "id": "osm:way/751462324", "name": null, "highway": "service", "lanes": null, "width": 4.5, "oneway": false, "surface": null, "footway": null, "sidewalk_left": false, "sidewalk_right": false, "generated_sidewalk": false, "bus_lanes": null, "bus_lane_side": null, "bus_only": false, "sidewalk": false, "bridge": false, "ramp": false, "tunnel": false, "layer": 0, "deck": null }, "geometry": { "type": "LineString", "coordinates": [ [ 284500.0, 4158238.05 ], [ 284513.41, 4158227.57 ], [ 284517.95, 4158226.88 ], [ 284529.16, 4158240.93 ], [ 284532.33, 4158244.92 ] ] } },
{ "type": "Feature", "properties": { "id": "osm:way/1122210265", "name": null, "highway": "footway", "lanes": null, "width": 2.0, "oneway": false, "surface": null, "footway": "sidewalk", "sidewalk_left": false, "sidewalk_right": false, "generated_sidewalk": false, "bus_lanes": null, "bus_lane_side": null, "bus_only": false, "sidewalk": false, "bridge": false, "ramp": false, "tunnel": false, "layer": 0, "deck": null }, "geometry": { "type": "LineString", "coordinates": [ [ 284500.0, 4158188.88 ], [ 284502.99, 4158191.29 ], [ 284540.53, 4158239.53 ], [ 284548.19, 4158250.0 ] ] } },
{ "type": "Feature", "properties": { "id": "osm:way/751462327", "name": null, "highway": "service", "lanes": null, "width": 4.5, "oneway": false, "surface": null, "footway": null, "sidewalk_left": false, "sidewalk_right": false, "generated_sidewalk": false, "bus_lanes": null, "bus_lane_side": null, "bus_only": false, "sidewalk": false, "bridge": false, "ramp": false, "tunnel": false, "layer": 0, "deck": null }, "geometry": { "type": "LineString", "coordinates": [ [ 284517.55, 4158250.0 ], [ 284529.16, 4158240.93 ] ] } },
{ "type": "Feature", "properties": { "id": "osm:way/6037242", "name": "East Clay Street", "highway": "tertiary", "lanes": null, "width": 8.0, "oneway": true, "surface": "asphalt", "footway": null, "sidewalk_left": true, "sidewalk_right": false, "generated_sidewalk": true, "bus_lanes": null, "bus_lane_side": null, "bus_only": false, "sidewalk": false, "bridge": false, "ramp": false, "tunnel": false, "layer": 0, "deck": null }, "geometry": { "type": "LineString", "coordinates": [ [ 284653.93, 4158208.16 ], [ 284646.16, 4158214.31 ], [ 284601.06, 4158250.0 ] ] } },
{ "type": "Feature", "properties": { "id": "osm:way/1199342351", "name": null, "highway": "footway", "lanes": null, "width": 2.0, "oneway": false, "surface": null, "footway": "sidewalk", "sidewalk_left": false, "sidewalk_right": false, "generated_sidewalk": false, "bus_lanes": null, "bus_lane_side": null, "bus_only": false, "sidewalk": false, "bridge": false, "ramp": false, "tunnel": false, "layer": 0, "deck": null }, "geometry": { "type": "LineString", "coordinates": [ [ 284690.51, 4158223.45 ], [ 284711.15, 4158250.0 ] ] } },
{ "type": "Feature", "properties": { "id": "osm:way/321367932", "name": null, "highway": "service", "lanes": null, "width": 4.5, "oneway": false, "surface": null, "footway": null, "sidewalk_left": false, "sidewalk_right": false, "generated_sidewalk": false, "bus_lanes": null, "bus_lane_side": null, "bus_only": false, "sidewalk": false, "bridge": false, "ramp": false, "tunnel": false, "layer": 0, "deck": null }, "geometry": { "type": "LineString", "coordinates": [ [ 284663.65, 4158220.38 ], [ 284676.44, 4158221.51 ], [ 284680.65, 4158223.03 ], [ 284684.28, 4158224.87 ], [ 284687.33, 4158227.61 ], [ 284704.83, 4158250.0 ] ] } },
{ "type": "Feature", "properties": { "id": "osm:way/1468119905", "name": "North 3rd Street", "highway": "secondary", "lanes": 4.0, "width": 13.2, "oneway": false, "surface": "asphalt", "footway": null, "sidewalk_left": null, "sidewalk_right": false, "generated_sidewalk": true, "bus_lanes": null, "bus_lane_side": null, "bus_only": false, "sidewalk": false, "bridge": false, "ramp": false, "tunnel": false, "layer": 0, "deck": null }, "geometry": { "type": "LineString", "coordinates": [ [ 284687.15, 4158250.0 ], [ 284673.94, 4158233.35 ] ] } },
{ "type": "Feature", "properties": { "id": "osm:way/1199342358", "name": null, "highway": "footway", "lanes": null, "width": 2.0, "oneway": false, "surface": "paving_stones", "footway": "sidewalk", "sidewalk_left": false, "sidewalk_right": false, "generated_sidewalk": false, "bus_lanes": null, "bus_lane_side": null, "bus_only": false, "sidewalk": false, "bridge": false, "ramp": false, "tunnel": false, "layer": 0, "deck": null }, "geometry": { "type": "LineString", "coordinates": [ [ 284614.59, 4158250.0 ], [ 284623.87, 4158242.54 ], [ 284650.71, 4158219.84 ], [ 284652.69, 4158221.87 ], [ 284654.32, 4158223.81 ], [ 284674.65, 4158250.0 ] ] } },
{ "type": "Feature", "properties": { "id": "osm:way/692841319", "name": "North 2nd Street", "highway": "tertiary", "lanes": 2.0, "width": 8.0, "oneway": true, "surface": "asphalt", "footway": null, "sidewalk_left": true, "sidewalk_right": false, "generated_sidewalk": true, "bus_lanes": null, "bus_lane_side": null, "bus_only": false, "sidewalk": false, "bridge": false, "ramp": false, "tunnel": false, "layer": 0, "deck": null }, "geometry": { "type": "LineString", "coordinates": [ [ 284501.22, 4158176.48 ], [ 284506.47, 4158182.9 ], [ 284531.89, 4158215.21 ], [ 284543.63, 4158230.13 ], [ 284547.44, 4158234.98 ], [ 284558.77, 4158250.0 ] ] } }
]
}
