{
"type": "FeatureCollection",
"name": "landuse",
"crs": { "type": "name", "properties": { "name": "urn:ogc:def:crs:EPSG::32618" } },
"xy_coordinate_resolution": 0.01,
"features": [
{ "type": "Feature", "properties": { "id": "osm:way/76314480", "name": "Brown's Island", "kind": "park", "source": null, "source_updated": null, "base_z": null, "top_z": null }, "geometry": { "type": "Polygon", "coordinates": [ [ [ 284000.0, 4156984.97 ], [ 284000.0, 4156967.99 ], [ 283994.48, 4156982.3 ], [ 284000.0, 4156984.97 ] ] ] } },
{ "type": "Feature", "properties": { "id": "bank:osm:way/76204441", "name": "Haxall Canal canal bank", "kind": "canal_bank", "source": "osm_stylized", "source_updated": null, "base_z": 7.86, "top_z": 8.91 }, "geometry": { "type": "MultiPolygon", "coordinates": [ [ [ [ 283993.91, 4156982.13 ], [ 283993.85, 4156982.13 ], [ 283993.78, 4156982.13 ], [ 283993.72, 4156982.14 ], [ 283993.66, 4156982.16 ], [ 283993.6, 4156982.19 ], [ 283993.55, 4156982.22 ], [ 283993.49, 4156982.25 ], [ 283993.45, 4156982.29 ], [ 283993.4, 4156982.34 ], [ 283993.36, 4156982.38 ], [ 283993.33, 4156982.44 ], [ 283993.3, 4156982.49 ], [ 283993.27, 4156982.55 ], [ 283993.25, 4156982.61 ], [ 283993.24, 4156982.67 ], [ 283993.23, 4156982.73 ], [ 283993.23, 4156982.8 ], [ 283993.24, 4156982.86 ], [ 283993.25, 4156982.92 ], [ 283993.26, 4156982.98 ], [ 283993.29, 4156983.04 ], [ 283993.32, 4156983.1 ], [ 283993.35, 4156983.15 ], [ 283993.39, 4156983.2 ], [ 283993.43, 4156983.25 ], [ 283993.54, 4156983.35 ], [ 283993.59, 4156983.39 ], [ 283993.64, 4156983.43 ], [ 283994.44, 4156983.94 ], [ 283994.52, 4156983.99 ], [ 283996.17, 4156984.76 ], [ 283996.19, 4156984.76 ], [ 284000.0, 4156986.44 ], [ 284000.0, 4156985.73 ], [ 283996.45, 4156984.17 ], [ 283994.79, 4156983.4 ], [ 283993.99, 4156982.88 ], [ 283993.88, 4156982.77 ], [ 284000.0, 4156985.59 ], [ 284000.0, 4156984.88 ], [ 283994.15, 4156982.18 ], [ 283994.09, 4156982.16 ], [ 283994.03, 4156982.14 ], [ 283993.97, 4156982.13 ], [ 283993.91, 4156982.13 ] ] ], [ [ [ 283972.9, 4156995.86 ], [ 283972.93, 4156995.91 ], [ 283972.96, 4156995.97 ], [ 283973.0, 4156996.02 ], [ 283973.04, 4156996.06 ], [ 283973.09, 4156996.11 ], [ 283973.15, 4156996.14 ], [ 283973.2, 4156996.17 ], [ 283973.26, 4156996.2 ], [ 283973.32, 4156996.22 ], [ 283973.38, 4156996.23 ], [ 283973.45, 4156996.24 ], [ 283973.51, 4156996.24 ], [ 283973.58, 4156996.23 ], [ 283973.64, 4156996.22 ], [ 283973.7, 4156996.21 ], [ 283973.76, 4156996.18 ], [ 283973.82, 4156996.15 ], [ 283973.87, 4156996.12 ], [ 283973.92, 4156996.08 ], [ 283973.97, 4156996.03 ], [ 283974.16, 4156995.83 ], [ 283974.98, 4156994.98 ], [ 283975.02, 4156994.94 ], [ 283975.05, 4156994.9 ], [ 283975.19, 4156994.7 ], [ 283975.23, 4156994.63 ], [ 283975.26, 4156994.57 ], [ 283975.44, 4156994.11 ], [ 283975.46, 4156994.06 ], [ 283975.47, 4156994.0 ], [ 283975.53, 4156993.7 ], [ 283975.54, 4156993.63 ], [ 283975.54, 4156993.56 ], [ 283975.54, 4156992.96 ], [ 283975.53, 4156992.89 ], [ 283975.52, 4156992.83 ], [ 283975.5, 4156992.76 ], [ 283975.19, 4156991.82 ], [ 283975.15, 4156991.14 ], [ 283975.2, 4156990.89 ], [ 283975.29, 4156990.73 ], [ 283975.32, 4156990.71 ], [ 283975.93, 4156990.38 ], [ 283976.33, 4156990.23 ], [ 283977.25, 4156990.0 ], [ 283979.15, 4156989.71 ], [ 283980.04, 4156989.69 ], [ 283982.89, 4156990.04 ], [ 283982.97, 4156990.05 ], [ 283984.09, 4156990.04 ], [ 283984.15, 4156990.04 ], [ 283984.2, 4156990.03 ], [ 283984.76, 4156989.93 ], [ 283984.85, 4156989.91 ], [ 283985.4, 4156989.72 ], [ 283985.46, 4156989.7 ], [ 283986.52, 4156989.22 ], [ 283986.54, 4156989.21 ], [ 283987.4, 4156988.79 ], [ 283987.46, 4156988.75 ], [ 283987.87, 4156988.48 ], [ 283987.92, 4156988.45 ], [ 283987.97, 4156988.41 ], [ 283988.12, 4156988.26 ], [ 283988.17, 4156988.21 ], [ 283988.2, 4156988.16 ], [ 283988.24, 4156988.11 ], [ 283988.45, 4156987.73 ], [ 283988.47, 4156987.68 ], [ 283988.49, 4156987.63 ], [ 283988.65, 4156987.2 ], [ 283988.68, 4156987.11 ], [ 283988.86, 4156986.24 ], [ 283988.87, 4156986.15 ], [ 283988.9, 4156985.63 ], [ 283988.9, 4156985.54 ], [ 283988.81, 4156984.51 ], [ 283988.8, 4156984.44 ], [ 283988.78, 4156984.37 ], [ 283988.6, 4156983.76 ], [ 283988.57, 4156983.7 ], [ 283988.55, 4156983.65 ], [ 283988.52, 4156983.6 ], [ 283988.33, 4156983.31 ], [ 283988.29, 4156983.26 ], [ 283988.24, 4156983.21 ], [ 283987.94, 4156982.91 ], [ 283987.88, 4156982.86 ], [ 283987.81, 4156982.82 ], [ 283987.64, 4156982.72 ], [ 283987.58, 4156982.68 ], [ 283987.51, 4156982.66 ], [ 283987.44, 4156982.64 ], [ 283987.16, 4156982.59 ], [ 283987.08, 4156982.58 ], [ 283987.0, 4156982.58 ], [ 283984.56, 4156982.71 ], [ 283982.0, 4156982.85 ], [ 283979.48, 4156982.86 ], [ 283979.47, 4156982.86 ], [ 283972.08, 4156982.96 ], [ 283967.37, 4156982.97 ], [ 283966.22, 4156982.92 ], [ 283965.68, 4156982.85 ], [ 283964.9, 4156982.67 ], [ 283964.44, 4156982.44 ], [ 283964.2, 4156982.24 ], [ 283963.71, 4156981.61 ], [ 283963.49, 4156981.19 ], [ 283963.09, 4156980.2 ], [ 283963.08, 4156980.16 ], [ 283962.8, 4156979.56 ], [ 283962.77, 4156979.5 ], [ 283962.73, 4156979.45 ], [ 283962.69, 4156979.4 ], [ 283962.65, 4156979.36 ], [ 283962.6, 4156979.32 ], [ 283962.55, 4156979.28 ], [ 283962.49, 4156979.25 ], [ 283962.44, 4156979.23 ], [ 283962.38, 4156979.21 ], [ 283962.31, 4156979.19 ], [ 283962.25, 4156979.18 ], [ 283960.82, 4156979.08 ], [ 283960.76, 4156979.08 ], [ 283960.7, 4156979.09 ], [ 283960.63, 4156979.1 ], [ 283960.57, 4156979.12 ], [ 283960.51, 4156979.14 ], [ 283960.45, 4156979.17 ], [ 283960.4, 4156979.21 ], [ 283960.35, 4156979.25 ], [ 283960.3, 4156979.29 ], [ 283960.26, 4156979.34 ], [ 283960.22, 4156979.39 ], [ 283960.19, 4156979.45 ], [ 283960.17, 4156979.51 ], [ 283960.15, 4156979.57 ], [ 283960.14, 4156979.64 ], [ 283960.13, 4156979.7 ], [ 283960.13, 4156979.76 ], [ 283960.14, 4156979.83 ], [ 283960.15, 4156979.89 ], [ 283960.17, 4156979.95 ], [ 283960.19, 4156980.01 ], [ 283960.22, 4156980.07 ], [ 283960.26, 4156980.12 ], [ 283960.3, 4156980.17 ], [ 283972.57, 4156993.53 ], [ 283972.84, 4156995.67 ], [ 283972.86, 4156995.74 ], [ 283972.87, 4156995.8 ], [ 283972.9, 4156995.86 ] ], [ [ 283962.9, 4156981.47 ], [ 283963.17, 4156981.96 ], [ 283963.73, 4156982.69 ], [ 283964.07, 4156982.98 ], [ 283964.68, 4156983.28 ], [ 283965.57, 4156983.49 ], [ 283966.16, 4156983.57 ], [ 283967.36, 4156983.62 ], [ 283972.09, 4156983.61 ], [ 283979.48, 4156983.51 ], [ 283982.02, 4156983.5 ], [ 283984.59, 4156983.36 ], [ 283987.04, 4156983.23 ], [ 283987.31, 4156983.28 ], [ 283987.48, 4156983.38 ], [ 283987.79, 4156983.67 ], [ 283987.98, 4156983.96 ], [ 283988.16, 4156984.56 ], [ 283988.25, 4156985.59 ], [ 283988.22, 4156986.11 ], [ 283988.04, 4156986.98 ], [ 283987.88, 4156987.41 ], [ 283987.67, 4156987.79 ], [ 283987.52, 4156987.94 ], [ 283987.11, 4156988.21 ], [ 283986.25, 4156988.63 ], [ 283985.19, 4156989.11 ], [ 283984.64, 4156989.29 ], [ 283984.09, 4156989.39 ], [ 283982.97, 4156989.4 ], [ 283980.07, 4156989.03 ], [ 283979.09, 4156989.07 ], [ 283977.12, 4156989.36 ], [ 283976.13, 4156989.61 ], [ 283975.65, 4156989.79 ], [ 283974.95, 4156990.17 ], [ 283974.79, 4156990.3 ], [ 283974.59, 4156990.66 ], [ 283974.5, 4156991.09 ], [ 283974.55, 4156991.95 ], [ 283974.89, 4156992.97 ], [ 283974.89, 4156993.57 ], [ 283974.83, 4156993.87 ], [ 283974.65, 4156994.33 ], [ 283974.51, 4156994.53 ], [ 283973.69, 4156995.38 ], [ 283973.49, 4156995.59 ], [ 283973.19, 4156993.25 ], [ 283960.78, 4156979.73 ], [ 283962.21, 4156979.83 ], [ 283962.49, 4156980.44 ], [ 283962.9, 4156981.47 ] ] ] ] } },
{ "type": "Feature", "properties": { "id": "bank:osm:way/113029204", "name": "Haxall Canal canal bank", "kind": "canal_bank", "source": "osm_stylized", "source_updated": null, "base_z": 7.85, "top_z": 8.9 }, "geometry": { "type": "MultiPolygon", "coordinates": [ [ [ [ 283965.98, 4156982.94 ], [ 283965.92, 4156982.96 ], [ 283965.86, 4156982.98 ], [ 283965.81, 4156983.01 ], [ 283965.75, 4156983.05 ], [ 283965.7, 4156983.09 ], [ 283965.66, 4156983.13 ], [ 283965.62, 4156983.18 ], [ 283965.59, 4156983.23 ], [ 283965.56, 4156983.29 ], [ 283965.53, 4156983.35 ], [ 283965.52, 4156983.41 ], [ 283965.5, 4156983.47 ], [ 283965.5, 4156983.53 ], [ 283965.5, 4156983.6 ], [ 283965.5, 4156983.66 ], [ 283965.52, 4156983.72 ], [ 283965.54, 4156983.78 ], [ 283965.56, 4156983.84 ], [ 283965.59, 4156983.9 ], [ 283965.62, 4156983.95 ], [ 283965.66, 4156984.0 ], [ 283965.71, 4156984.04 ], [ 283965.76, 4156984.08 ], [ 283974.57, 4156990.69 ], [ 283974.62, 4156990.72 ], [ 283974.67, 4156990.75 ], [ 283974.73, 4156990.78 ], [ 283974.79, 4156990.8 ], [ 283974.85, 4156990.81 ], [ 283974.91, 4156990.82 ], [ 283974.97, 4156990.82 ], [ 283975.03, 4156990.82 ], [ 283975.09, 4156990.81 ], [ 283975.15, 4156990.79 ], [ 283975.21, 4156990.77 ], [ 283975.27, 4156990.74 ], [ 283975.93, 4156990.38 ], [ 283976.33, 4156990.23 ], [ 283977.25, 4156990.0 ], [ 283979.15, 4156989.71 ], [ 283980.04, 4156989.69 ], [ 283982.89, 4156990.04 ], [ 283982.97, 4156990.05 ], [ 283984.09, 4156990.04 ], [ 283984.15, 4156990.04 ], [ 283984.2, 4156990.03 ], [ 283984.76, 4156989.93 ], [ 283984.85, 4156989.91 ], [ 283985.4, 4156989.72 ], [ 283985.46, 4156989.7 ], [ 283986.52, 4156989.22 ], [ 283986.54, 4156989.21 ], [ 283987.4, 4156988.79 ], [ 283987.46, 4156988.75 ], [ 283987.87, 4156988.48 ], [ 283987.92, 4156988.45 ], [ 283987.97, 4156988.41 ], [ 283988.12, 4156988.26 ], [ 283988.17, 4156988.21 ], [ 283988.2, 4156988.16 ], [ 283988.24, 4156988.11 ], [ 283988.45, 4156987.73 ], [ 283988.47, 4156987.68 ], [ 283988.49, 4156987.63 ], [ 283988.65, 4156987.2 ], [ 283988.68, 4156987.11 ], [ 283988.78, 4156986.62 ], [ 283988.79, 4156986.56 ], [ 283988.79, 4156986.5 ], [ 283988.79, 4156986.43 ], [ 283988.78, 4156986.37 ], [ 283988.77, 4156986.31 ], [ 283988.75, 4156986.25 ], [ 283988.72, 4156986.19 ], [ 283988.69, 4156986.14 ], [ 283988.65, 4156986.09 ], [ 283988.61, 4156986.04 ], [ 283988.57, 4156986.0 ], [ 283988.52, 4156985.96 ], [ 283984.19, 4156982.87 ], [ 283984.14, 4156982.84 ], [ 283984.08, 4156982.81 ], [ 283984.03, 4156982.79 ], [ 283983.97, 4156982.77 ], [ 283983.9, 4156982.76 ], [ 283983.84, 4156982.75 ], [ 283983.78, 4156982.75 ], [ 283982.0, 4156982.85 ], [ 283979.48, 4156982.86 ], [ 283979.47, 4156982.86 ], [ 283972.08, 4156982.96 ], [ 283967.37, 4156982.97 ], [ 283966.2, 4156982.92 ], [ 283966.17, 4156982.91 ], [ 283966.1, 4156982.91 ], [ 283966.04, 4156982.92 ], [ 283965.98, 4156982.94 ] ], [ [ 283972.09, 4156983.61 ], [ 283979.48, 4156983.51 ], [ 283982.02, 4156983.5 ], [ 283983.81, 4156983.4 ], [ 283988.14, 4156986.49 ], [ 283988.04, 4156986.98 ], [ 283987.88, 4156987.41 ], [ 283987.67, 4156987.79 ], [ 283987.52, 4156987.94 ], [ 283987.11, 4156988.21 ], [ 283986.25, 4156988.63 ], [ 283985.19, 4156989.11 ], [ 283984.64, 4156989.29 ], [ 283984.09, 4156989.39 ], [ 283982.97, 4156989.4 ], [ 283980.07, 4156989.03 ], [ 283979.09, 4156989.07 ], [ 283977.12, 4156989.36 ], [ 283976.13, 4156989.61 ], [ 283975.65, 4156989.79 ], [ 283974.96, 4156990.17 ], [ 283966.16, 4156983.57 ], [ 283967.36, 4156983.62 ], [ 283972.09, 4156983.61 ] ] ], [ [ [ 283962.55, 4156981.61 ], [ 283962.61, 4156981.62 ], [ 283962.67, 4156981.63 ], [ 283962.74, 4156981.63 ], [ 283962.8, 4156981.62 ], [ 283962.87, 4156981.61 ], [ 283962.93, 4156981.59 ], [ 283962.99, 4156981.56 ], [ 283963.04, 4156981.53 ], [ 283963.1, 4156981.5 ], [ 283963.15, 4156981.45 ], [ 283963.19, 4156981.41 ], [ 283963.23, 4156981.36 ], [ 283963.27, 4156981.3 ], [ 283963.3, 4156981.24 ], [ 283963.32, 4156981.18 ], [ 283963.34, 4156981.12 ], [ 283963.35, 4156981.06 ], [ 283963.35, 4156980.99 ], [ 283963.35, 4156980.93 ], [ 283963.34, 4156980.86 ], [ 283963.33, 4156980.8 ], [ 283963.31, 4156980.74 ], [ 283963.09, 4156980.2 ], [ 283963.08, 4156980.16 ], [ 283962.73, 4156979.41 ], [ 283962.7, 4156979.35 ], [ 283962.05, 4156978.25 ], [ 283962.02, 4156978.2 ], [ 283961.65, 4156977.69 ], [ 283961.62, 4156977.65 ], [ 283961.58, 4156977.61 ], [ 283960.88, 4156976.88 ], [ 283960.83, 4156976.84 ], [ 283960.77, 4156976.79 ], [ 283959.97, 4156976.27 ], [ 283959.92, 4156976.24 ], [ 283959.86, 4156976.21 ], [ 283959.3, 4156975.99 ], [ 283959.22, 4156975.97 ], [ 283958.84, 4156975.87 ], [ 283958.75, 4156975.85 ], [ 283957.97, 4156975.75 ], [ 283957.89, 4156975.75 ], [ 283957.17, 4156975.75 ], [ 283957.09, 4156975.75 ], [ 283956.59, 4156975.81 ], [ 283956.53, 4156975.82 ], [ 283956.47, 4156975.84 ], [ 283956.41, 4156975.86 ], [ 283956.35, 4156975.89 ], [ 283956.3, 4156975.92 ], [ 283956.25, 4156975.96 ], [ 283956.2, 4156976.01 ], [ 283956.16, 4156976.06 ], [ 283956.12, 4156976.11 ], [ 283956.09, 4156976.17 ], [ 283956.06, 4156976.23 ], [ 283956.04, 4156976.29 ], [ 283956.03, 4156976.35 ], [ 283956.02, 4156976.41 ], [ 283956.02, 4156976.48 ], [ 283956.03, 4156976.54 ], [ 283956.04, 4156976.61 ], [ 283956.06, 4156976.67 ], [ 283956.08, 4156976.73 ], [ 283956.11, 4156976.78 ], [ 283956.14, 4156976.84 ], [ 283956.18, 4156976.89 ], [ 283956.23, 4156976.93 ], [ 283956.28, 4156976.98 ], [ 283962.31, 4156981.5 ], [ 283962.37, 4156981.54 ], [ 283962.42, 4156981.57 ], [ 283962.48, 4156981.59 ], [ 283962.55, 4156981.61 ] ], [ [ 283958.67, 4156976.5 ], [ 283959.06, 4156976.6 ], [ 283959.62, 4156976.82 ], [ 283960.41, 4156977.34 ], [ 283961.12, 4156978.06 ], [ 283961.49, 4156978.58 ], [ 283962.14, 4156979.68 ], [ 283962.49, 4156980.44 ], [ 283962.7, 4156980.98 ], [ 283956.67, 4156976.46 ], [ 283957.17, 4156976.4 ], [ 283957.89, 4156976.4 ], [ 283958.67, 4156976.5 ] ] ] ] } },
{ "type": "Feature", "properties": { "id": "osm:way/822783209", "name": null, "kind": "forest", "source": null, "source_updated": null, "base_z": null, "top_z": null }, "geometry": { "type": "Polygon", "coordinates": [ [ [ 283765.05, 4156972.58 ], [ 283788.9, 4156975.17 ], [ 283834.54, 4156965.37 ], [ 283836.84, 4156963.0 ], [ 283834.2, 4156960.6 ], [ 283833.89, 4156960.7 ], [ 283832.91, 4156960.98 ], [ 283830.06, 4156961.38 ], [ 283828.46, 4156961.44 ], [ 283827.66, 4156961.35 ], [ 283825.8, 4156960.86 ], [ 283825.72, 4156960.84 ], [ 283824.42, 4156960.54 ], [ 283823.78, 4156960.44 ], [ 283823.15, 4156960.45 ], [ 283821.92, 4156960.74 ], [ 283819.21, 4156961.6 ], [ 283817.59, 4156962.07 ], [ 283816.83, 4156962.2 ], [ 283815.3, 4156962.33 ], [ 283814.16, 4156962.43 ], [ 283812.6, 4156962.61 ], [ 283811.83, 4156962.75 ], [ 283811.12, 4156962.98 ], [ 283809.76, 4156963.59 ], [ 283807.41, 4156964.67 ], [ 283806.17, 4156965.12 ], [ 283805.54, 4156965.29 ], [ 283804.57, 4156965.48 ], [ 283803.88, 4156965.55 ], [ 283802.47, 4156965.56 ], [ 283800.54, 4156965.39 ], [ 283797.86, 4156965.55 ], [ 283795.01, 4156965.89 ], [ 283792.04, 4156966.18 ], [ 283789.71, 4156966.15 ], [ 283788.93, 4156966.25 ], [ 283787.38, 4156966.64 ], [ 283786.61, 4156966.75 ], [ 283786.22, 4156966.74 ], [ 283785.62, 4156966.65 ], [ 283784.42, 4156966.34 ], [ 283783.52, 4156966.14 ], [ 283779.17, 4156965.6 ], [ 283778.16, 4156965.51 ], [ 283777.69, 4156965.48 ], [ 283776.12, 4156965.37 ], [ 283774.6, 4156965.19 ], [ 283773.71, 4156965.02 ], [ 283771.93, 4156964.6 ], [ 283770.6, 4156964.29 ], [ 283768.56, 4156963.86 ], [ 283767.54, 4156963.7 ], [ 283766.82, 4156963.71 ], [ 283765.38, 4156964.08 ], [ 283764.29, 4156964.29 ], [ 283759.97, 4156964.45 ], [ 283757.64, 4156964.5 ], [ 283756.47, 4156964.46 ], [ 283751.31, 4156963.95 ], [ 283750.0, 4156963.84 ], [ 283750.0, 4156973.73 ], [ 283759.29, 4156975.08 ], [ 283765.05, 4156972.58 ] ] ] } },
{ "type": "Feature", "properties": { "id": "osm:way/264479484", "name": null, "kind": "park", "source": null, "source_updated": null, "base_z": null, "top_z": null }, "geometry": { "type": "Polygon", "coordinates": [ [ [ 283973.34, 4156998.87 ], [ 283973.11, 4156997.12 ], [ 283973.06, 4156996.4 ], [ 283973.15, 4156996.04 ], [ 283973.31, 4156995.79 ], [ 283973.49, 4156995.59 ], [ 283973.19, 4156993.25 ], [ 283966.33, 4156985.88 ], [ 283936.49, 4156976.02 ], [ 283936.27, 4156976.46 ], [ 283935.73, 4156975.97 ], [ 283935.37, 4156975.65 ], [ 283929.75, 4156973.8 ], [ 283912.47, 4156966.52 ], [ 283911.94, 4156966.52 ], [ 283909.01, 4156965.92 ], [ 283907.9, 4156965.32 ], [ 283904.19, 4156963.4 ], [ 283902.71, 4156962.68 ], [ 283902.31, 4156962.49 ], [ 283901.96, 4156962.34 ], [ 283881.35, 4156960.52 ], [ 283792.33, 4156984.27 ], [ 283884.82, 4157000.0 ], [ 283973.26, 4157000.0 ], [ 283973.28, 4156999.87 ], [ 283973.34, 4156998.87 ] ] ] } },
{ "type": "Feature", "properties": { "id": "osm:relation/15307436", "name": "Belle Isle Parking", "kind": "parking", "source": null, "source_updated": null, "base_z": null, "top_z": null }, "geometry": { "type": "Polygon", "coordinates": [ [ [ 283750.0, 4157000.0 ], [ 283781.1, 4157000.0 ], [ 283780.95, 4156988.67 ], [ 283750.0, 4156994.17 ], [ 283750.0, 4157000.0 ] ] ] } }
]
}
