{
"type": "FeatureCollection",
"name": "buildings",
"crs": { "type": "name", "properties": { "name": "urn:ogc:def:crs:EPSG::32618" } },
"xy_coordinate_resolution": 0.01,
"features": [
{ "type": "Feature", "properties": { "id": "richmond_structure:354201", "name": null, "height": 2.5, "min_height": 0.0, "levels": null, "height_source": "lidar", "roof_shape": "flat", "roof_height": 0.0, "roof_azimuth": null, "roof_source": "heuristic", "roof_color": "roof_dark", "roof_color_source": "heuristic", "lod2_roof": null, "roof_props": null, "wall_color": "cream", "type": "yes", "landmark": null, "footprint_source": "richmond_structures", "source_updated": "2026-09-08T12:07:13.637000Z", "is_part": false, "parent": null, "hidden": false, "addr": null, "wikidata": null, "website": null, "zoning": "M-2", "lidar_p90": 2.76, "ground_z": 8.11 }, "geometry": { "type": "Polygon", "coordinates": [ [ [ 284892.2, 4155009.86 ], [ 284890.32, 4155012.44 ], [ 284896.65, 4155017.06 ], [ 284898.54, 4155014.48 ], [ 284892.2, 4155009.86 ] ] ] } },
{ "type": "Feature", "properties": { "id": "osm:way/426146887", "name": null, "height": 4.88, "min_height": 0.0, "levels": null, "height_source": "lidar", "roof_shape": "flat", "roof_height": 0.0, "roof_azimuth": null, "roof_source": "lidar", "roof_color": "roof_flat", "roof_color_source": "ortho", "lod2_roof": null, "roof_props": null, "wall_color": "cream", "type": "yes", "landmark": null, "footprint_source": "osm", "source_updated": null, "is_part": false, "parent": null, "hidden": false, "addr": "700 Dinwiddie Avenue", "wikidata": null, "website": null, "zoning": "M-2", "lidar_p90": 5.72, "ground_z": 8.23 }, "geometry": { "type": "Polygon", "coordinates": [ [ [ 284906.78, 4155024.23 ], [ 284850.6, 4154982.22 ], [ 284831.85, 4155007.07 ], [ 284888.03, 4155049.09 ], [ 284906.78, 4155024.23 ] ] ] } },
{ "type": "Feature", "properties": { "id": "osm:way/1131852660", "name": null, "height": 3.95, "min_height": 0.0, "levels": null, "height_source": "lidar", "roof_shape": "flat", "roof_height": 0.0, "roof_azimuth": null, "roof_source": "heuristic", "roof_color": "roof_flat", "roof_color_source": "ortho", "lod2_roof": null, "roof_props": null, "wall_color": "sand", "type": "yes", "landmark": null, "footprint_source": "osm", "source_updated": null, "is_part": false, "parent": null, "hidden": false, "addr": null, "wikidata": null, "website": null, "zoning": "M-2", "lidar_p90": 4.04, "ground_z": 8.51 }, "geometry": { "type": "Polygon", "coordinates": [ [ [ 284819.35, 4155029.77 ], [ 284828.23, 4155017.09 ], [ 284821.47, 4155012.4 ], [ 284812.59, 4155025.08 ], [ 284819.35, 4155029.77 ] ] ] } },
{ "type": "Feature", "properties": { "id": "osm:way/426146882", "name": null, "height": 5.67, "min_height": 0.0, "levels": null, "height_source": "lidar", "roof_shape": "flat", "roof_height": 1.99, "roof_azimuth": null, "roof_source": "lod2", "roof_color": "roof_flat", "roof_color_source": "ortho", "lod2_roof": { "v": [ [ 284870.85, 4155133.58, 0.0 ], [ 284867.89, 4155131.36, 0.0 ], [ 284878.34, 4155139.2, 1.97 ], [ 284870.85, 4155133.58, 1.78 ], [ 284874.09, 4155129.47, 1.81 ], [ 284874.09, 4155129.47, 0.0 ], [ 284878.17, 4155132.65, 1.46 ], [ 284878.17, 4155132.65, 1.91 ], [ 284881.39, 4155135.16, 1.99 ], [ 284881.39, 4155135.16, 0.0 ], [ 284890.94, 4155122.55, 0.0 ], [ 284879.77, 4155133.9, 1.95 ], [ 284879.77, 4155133.9, 0.45 ], [ 284880.49, 4155114.71, 0.0 ], [ 284887.75, 4155120.15, 1.44 ], [ 284878.43, 4155132.31, 1.91 ], [ 284878.43, 4155132.31, 1.46 ] ], "f": [ [ [ 7, 15, 11, 8, 2, 3, 4 ] ], [ [ 12, 16, 14, 10, 9 ] ], [ [ 16, 6, 5, 0, 1, 13, 14 ] ], [ [ 4, 5, 6, 7 ] ], [ [ 3, 0, 5, 4 ] ], [ [ 11, 12, 9, 8 ] ], [ [ 15, 16, 12, 11 ] ], [ [ 7, 6, 16, 15 ] ] ] }, "roof_props": null, "wall_color": "cream", "type": "yes", "landmark": null, "footprint_source": "osm", "source_updated": null, "is_part": false, "parent": null, "hidden": false, "addr": "607 Dinwiddie Avenue", "wikidata": null, "website": null, "zoning": "M-2", "lidar_p90": 6.81, "ground_z": 7.81 }, "geometry": { "type": "Polygon", "coordinates": [ [ [ 284890.94, 4155122.55 ], [ 284880.49, 4155114.71 ], [ 284867.89, 4155131.36 ], [ 284878.34, 4155139.2 ], [ 284890.94, 4155122.55 ] ] ] } },
{ "type": "Feature", "properties": { "id": "osm:way/426146883", "name": null, "height": 6.35, "min_height": 0.0, "levels": null, "height_source": "lidar", "roof_shape": "flat", "roof_height": 1.61, "roof_azimuth": null, "roof_source": "lod2", "roof_color": "roof_flat", "roof_color_source": "ortho", "lod2_roof": { "v": [ [ 284912.88, 4155137.4, 0.69 ], [ 284912.88, 4155137.4, 0.0 ], [ 284906.25, 4155145.94, 0.0 ], [ 284906.25, 4155145.94, 1.6 ], [ 284897.71, 4155125.89, 0.7 ], [ 284891.13, 4155134.52, 1.61 ], [ 284920.81, 4155156.93, 0.0 ], [ 284927.32, 4155148.36, 0.0 ] ], "f": [ [ [ 5, 4, 0, 3 ] ], [ [ 1, 7, 6, 2 ] ], [ [ 0, 1, 2, 3 ] ] ] }, "roof_props": null, "wall_color": "terracotta", "type": "yes", "landmark": null, "footprint_source": "osm", "source_updated": null, "is_part": false, "parent": null, "hidden": false, "addr": "601 Dinwiddie Avenue", "wikidata": null, "website": null, "zoning": "M-2", "lidar_p90": 6.91, "ground_z": 8.95 }, "geometry": { "type": "Polygon", "coordinates": [ [ [ 284920.81, 4155156.93 ], [ 284928.3, 4155147.07 ], [ 284898.62, 4155124.68 ], [ 284891.13, 4155134.52 ], [ 284920.81, 4155156.93 ] ] ] } },
{ "type": "Feature", "properties": { "id": "richmond_structure:395893", "name": null, "height": 3.67, "min_height": 0.0, "levels": null, "height_source": "lidar", "roof_shape": "flat", "roof_height": 0.0, "roof_azimuth": null, "roof_source": "heuristic", "roof_color": "roof_flat", "roof_color_source": "heuristic", "lod2_roof": null, "roof_props": null, "wall_color": "terracotta", "type": "yes", "landmark": null, "footprint_source": "richmond_structures", "source_updated": "2026-09-08T12:07:13.637000Z", "is_part": false, "parent": null, "hidden": false, "addr": null, "wikidata": null, "website": null, "zoning": "M-2", "lidar_p90": 3.71, "ground_z": 8.67 }, "geometry": { "type": "Polygon", "coordinates": [ [ [ 284887.63, 4155138.2 ], [ 284882.55, 4155145.01 ], [ 284885.02, 4155146.85 ], [ 284890.1, 4155140.04 ], [ 284887.63, 4155138.2 ] ] ] } },
{ "type": "Feature", "properties": { "id": "richmond_structure:423072", "name": null, "height": 9.0, "min_height": 0.0, "levels": null, "height_source": "zoning", "roof_shape": "flat", "roof_height": 0.0, "roof_azimuth": null, "roof_source": "heuristic", "roof_color": "roof_flat", "roof_color_source": "heuristic", "lod2_roof": null, "roof_props": null, "wall_color": "terracotta", "type": "yes", "landmark": null, "footprint_source": "richmond_structures", "source_updated": "2026-09-08T12:07:13.637000Z", "is_part": false, "parent": null, "hidden": false, "addr": null, "wikidata": null, "website": null, "zoning": "M-2", "lidar_p90": 2.91, "ground_z": 8.63 }, "geometry": { "type": "Polygon", "coordinates": [ [ [ 284934.62, 4155108.95 ], [ 284929.35, 4155116.05 ], [ 284931.81, 4155117.88 ], [ 284937.08, 4155110.78 ], [ 284934.62, 4155108.95 ] ] ] } },
{ "type": "Feature", "properties": { "id": "osm:way/426146865", "name": null, "height": 4.75, "min_height": 0.0, "levels": null, "height_source": "lidar", "roof_shape": "flat", "roof_height": 0.1, "roof_azimuth": null, "roof_source": "lod2", "roof_color": "roof_flat", "roof_color_source": "ortho", "lod2_roof": { "v": [ [ 284973.4, 4155119.96, 0.0 ], [ 284995.38, 4155136.44, 0.06 ], [ 284985.75, 4155148.99, 0.1 ], [ 284963.92, 4155132.45, 0.04 ] ], "f": [ [ [ 2, 3, 0, 1 ] ] ] }, "roof_props": null, "wall_color": "concrete", "type": "yes", "landmark": null, "footprint_source": "osm", "source_updated": null, "is_part": false, "parent": null, "hidden": false, "addr": null, "wikidata": null, "website": null, "zoning": "B-6", "lidar_p90": 5.13, "ground_z": 8.18 }, "geometry": { "type": "Polygon", "coordinates": [ [ [ 284995.38, 4155136.44 ], [ 284973.4, 4155119.96 ], [ 284963.92, 4155132.45 ], [ 284985.75, 4155148.99 ], [ 284995.38, 4155136.44 ] ] ] } },
{ "type": "Feature", "properties": { "id": "osm:way/426146864", "name": null, "height": 7.92, "min_height": 0.0, "levels": null, "height_source": "lidar", "roof_shape": "flat", "roof_height": 0.47, "roof_azimuth": null, "roof_source": "lod2", "roof_color": "roof_flat", "roof_color_source": "ortho", "lod2_roof": { "v": [ [ 284977.1, 4155156.5, 0.45 ], [ 284957.11, 4155141.36, 0.47 ], [ 284963.92, 4155132.45, 0.41 ], [ 284982.13, 4155146.24, 0.39 ], [ 284982.13, 4155146.24, 0.0 ], [ 284981.68, 4155148.0, 0.0 ], [ 284981.68, 4155148.0, 0.4 ], [ 284981.52, 4155150.72, 0.0 ], [ 284980.71, 4155151.77, 0.0 ], [ 284985.75, 4155148.99, 0.0 ], [ 284980.91, 4155151.01, 0.41 ], [ 284980.91, 4155151.01, 0.0 ], [ 284980.71, 4155151.77, 0.42 ], [ 284982.58, 4155148.68, 0.4 ], [ 284982.58, 4155148.68, 0.0 ], [ 284982.8, 4155148.8, 0.0 ], [ 284982.8, 4155148.8, 0.4 ], [ 284984.97, 4155150.0, 0.0 ], [ 284984.97, 4155150.0, 0.0 ], [ 284982.8, 4155148.8, 0.0 ], [ 284983.36, 4155152.1, 0.0 ] ], "f": [ [ [ 16, 10, 12, 0, 1, 2, 3, 6, 13 ] ], [ [ 14, 5, 4, 9, 18, 15 ] ], [ [ 11, 19, 17, 20, 7, 8 ] ], [ [ 3, 4, 5, 6 ] ], [ [ 10, 11, 8, 12 ] ], [ [ 13, 14, 15, 16 ] ], [ [ 18, 17, 19, 15 ] ], [ [ 6, 5, 14, 13 ] ], [ [ 16, 15, 19, 11, 10 ] ] ] }, "roof_props": null, "wall_color": "brick", "type": "yes", "landmark": null, "footprint_source": "osm", "source_updated": null, "is_part": false, "parent": null, "hidden": false, "addr": "700 E 6th St", "wikidata": null, "website": null, "zoning": "B-6", "lidar_p90": 8.38, "ground_z": 8.23 }, "geometry": { "type": "Polygon", "coordinates": [ [ [ 284963.92, 4155132.45 ], [ 284957.11, 4155141.36 ], [ 284977.1, 4155156.5 ], [ 284981.52, 4155150.72 ], [ 284983.36, 4155152.1 ], [ 284985.75, 4155148.99 ], [ 284963.92, 4155132.45 ] ] ] } },
{ "type": "Feature", "properties": { "id": "richmond_structure:354195", "name": null, "height": 2.6, "min_height": 0.0, "levels": null, "height_source": "lidar", "roof_shape": "flat", "roof_height": 0.55, "roof_azimuth": null, "roof_source": "lod2", "roof_color": "roof_flat", "roof_color_source": "ortho", "lod2_roof": { "v": [ [ 284854.79, 4155147.26, 0.0 ], [ 284858.38, 4155142.66, 0.0 ], [ 284862.4, 4155146.88, 0.26 ], [ 284859.33, 4155150.81, 0.46 ], [ 284860.14, 4155145.13, 0.34 ], [ 284856.91, 4155148.92, 0.55 ], [ 284859.42, 4155144.57, 0.07 ], [ 284860.61, 4155144.58, 0.31 ], [ 284860.7, 4155144.47, 0.3 ] ], "f": [ [ [ 5, 4, 2, 3 ] ], [ [ 1, 8, 7, 6, 4, 5, 0 ] ] ] }, "roof_props": null, "wall_color": "concrete", "type": "yes", "landmark": null, "footprint_source": "richmond_structures", "source_updated": "2026-09-08T12:07:13.637000Z", "is_part": false, "parent": null, "hidden": false, "addr": null, "wikidata": null, "website": null, "zoning": "M-2", "lidar_p90": 2.7, "ground_z": 7.78 }, "geometry": { "type": "Polygon", "coordinates": [ [ [ 284858.38, 4155142.66 ], [ 284854.79, 4155147.26 ], [ 284859.33, 4155150.81 ], [ 284862.93, 4155146.21 ], [ 284858.38, 4155142.66 ] ] ] } },
{ "type": "Feature", "properties": { "id": "osm:way/1131852667", "name": null, "height": 2.5, "min_height": 0.0, "levels": null, "height_source": "lidar", "roof_shape": "gable", "roof_height": 0.61, "roof_azimuth": 127.2, "roof_source": "lod2", "roof_color": "roof_flat", "roof_color_source": "ortho", "lod2_roof": { "v": [ [ 284826.2, 4155163.14, 0.59 ], [ 284822.07, 4155159.16, 0.0 ], [ 284842.89, 4155141.66, 0.61 ], [ 284838.25, 4155138.09, 0.01 ] ], "f": [ [ [ 1, 3, 2, 0 ] ] ] }, "roof_props": null, "wall_color": "sand", "type": "yes", "landmark": null, "footprint_source": "osm", "source_updated": null, "is_part": false, "parent": null, "hidden": false, "addr": null, "wikidata": null, "website": null, "zoning": "M-2", "lidar_p90": 4.74, "ground_z": 7.78 }, "geometry": { "type": "Polygon", "coordinates": [ [ [ 284825.86, 4155163.57 ], [ 284842.89, 4155141.66 ], [ 284836.73, 4155136.92 ], [ 284819.71, 4155158.84 ], [ 284825.86, 4155163.57 ] ] ] } },
{ "type": "Feature", "properties": { "id": "osm:way/426146880", "name": null, "height": 3.48, "min_height": 0.0, "levels": null, "height_source": "lidar", "roof_shape": "flat", "roof_height": 0.76, "roof_azimuth": null, "roof_source": "lod2", "roof_color": "roof_flat", "roof_color_source": "ortho", "lod2_roof": { "v": [ [ 284865.13, 4155164.89, 0.0 ], [ 284858.39, 4155173.57, 0.76 ], [ 284849.08, 4155152.65, 0.0 ], [ 284842.5, 4155161.33, 0.74 ] ], "f": [ [ [ 3, 2, 0, 1 ] ] ] }, "roof_props": null, "wall_color": "cream", "type": "yes", "landmark": null, "footprint_source": "osm", "source_updated": null, "is_part": false, "parent": null, "hidden": false, "addr": null, "wikidata": null, "website": null, "zoning": "M-2", "lidar_p90": 3.82, "ground_z": 8.16 }, "geometry": { "type": "Polygon", "coordinates": [ [ [ 284850.02, 4155150.78 ], [ 284842.07, 4155161.0 ], [ 284858.39, 4155173.57 ], [ 284866.33, 4155163.35 ], [ 284850.02, 4155150.78 ] ] ] } },
{ "type": "Feature", "properties": { "id": "osm:way/426146881", "name": null, "height": 4.47, "min_height": 0.0, "levels": null, "height_source": "lidar", "roof_shape": "flat", "roof_height": 0.65, "roof_azimuth": null, "roof_source": "lod2", "roof_color": "roof_flat", "roof_color_source": "ortho", "lod2_roof": { "v": [ [ 284826.12, 4155165.62, 0.65 ], [ 284821.32, 4155172.1, 0.65 ], [ 284820.89, 4155161.78, 0.0 ], [ 284816.06, 4155168.23, 0.0 ] ], "f": [ [ [ 3, 2, 0, 1 ] ] ] }, "roof_props": null, "wall_color": "brick", "type": "yes", "landmark": null, "footprint_source": "osm", "source_updated": null, "is_part": false, "parent": null, "hidden": false, "addr": null, "wikidata": null, "website": null, "zoning": "M-2", "lidar_p90": 4.61, "ground_z": 7.88 }, "geometry": { "type": "Polygon", "coordinates": [ [ [ 284826.12, 4155165.62 ], [ 284820.4, 4155161.42 ], [ 284815.59, 4155167.89 ], [ 284821.32, 4155172.1 ], [ 284826.12, 4155165.62 ] ] ] } },
{ "type": "Feature", "properties": { "id": "osm:way/426146879", "name": null, "height": 6.6, "min_height": 0.0, "levels": null, "height_source": "lidar", "roof_shape": "flat", "roof_height": 0.73, "roof_azimuth": null, "roof_source": "lod2", "roof_color": "roof_flat", "roof_color_source": "ortho", "lod2_roof": { "v": [ [ 284870.84, 4155160.48, 0.72 ], [ 284870.84, 4155160.48, 0.45 ], [ 284889.11, 4155174.17, 0.44 ], [ 284889.11, 4155174.17, 0.73 ], [ 284882.26, 4155183.28, 0.36 ], [ 284863.96, 4155169.64, 0.34 ], [ 284892.17, 4155170.09, 0.01 ], [ 284874.03, 4155156.24, 0.0 ] ], "f": [ [ [ 4, 5, 0, 3 ] ], [ [ 7, 6, 2, 1 ] ], [ [ 0, 1, 2, 3 ] ] ] }, "roof_props": null, "wall_color": "terracotta", "type": "yes", "landmark": null, "footprint_source": "osm", "source_updated": null, "is_part": false, "parent": null, "hidden": false, "addr": null, "wikidata": null, "website": null, "zoning": "M-2", "lidar_p90": 7.03, "ground_z": 9.14 }, "geometry": { "type": "Polygon", "coordinates": [ [ [ 284893.19, 4155168.74 ], [ 284874.89, 4155155.1 ], [ 284863.96, 4155169.64 ], [ 284882.26, 4155183.28 ], [ 284893.19, 4155168.74 ] ] ] } },
{ "type": "Feature", "properties": { "id": "osm:way/426146877", "name": null, "height": 7.03, "min_height": 0.0, "levels": null, "height_source": "lidar", "roof_shape": "flat", "roof_height": 0.0, "roof_azimuth": null, "roof_source": "lidar", "roof_color": "roof_flat", "roof_color_source": "ortho", "lod2_roof": null, "roof_props": null, "wall_color": "terracotta", "type": "yes", "landmark": null, "footprint_source": "osm", "source_updated": null, "is_part": false, "parent": null, "hidden": false, "addr": "608 Marx Street", "wikidata": null, "website": null, "zoning": "M-2", "lidar_p90": 7.47, "ground_z": 8.26 }, "geometry": { "type": "Polygon", "coordinates": [ [ [ 284826.56, 4155189.74 ], [ 284838.51, 4155198.79 ], [ 284845.66, 4155189.43 ], [ 284833.7, 4155180.38 ], [ 284826.56, 4155189.74 ] ] ] } },
{ "type": "Feature", "properties": { "id": "osm:way/426141511", "name": null, "height": 6.5, "min_height": 0.0, "levels": null, "height_source": "lidar", "roof_shape": "flat", "roof_height": 0.5, "roof_azimuth": null, "roof_source": "lod2", "roof_color": "roof_flat", "roof_color_source": "ortho", "lod2_roof": { "v": [ [ 284787.34, 4155185.1, 0.15 ], [ 284768.39, 4155209.65, 0.15 ], [ 284758.74, 4155202.26, 0.48 ], [ 284758.74, 4155202.26, 0.0 ], [ 284775.2, 4155180.32, 0.0 ], [ 284775.2, 4155180.32, 0.5 ], [ 284773.86, 4155179.32, 0.0 ], [ 284777.05, 4155177.87, 0.5 ], [ 284757.18, 4155201.07, 0.0 ] ], "f": [ [ [ 8, 6, 4, 3 ] ], [ [ 1, 2, 5, 7, 0 ] ], [ [ 2, 3, 4, 5 ] ] ] }, "roof_props": null, "wall_color": "sand", "type": "yes", "landmark": null, "footprint_source": "osm", "source_updated": null, "is_part": false, "parent": null, "hidden": false, "addr": "701 Marx Street", "wikidata": null, "website": null, "zoning": "M-2", "lidar_p90": 6.61, "ground_z": 7.79 }, "geometry": { "type": "Polygon", "coordinates": [ [ [ 284788.56, 4155183.53 ], [ 284778.32, 4155175.69 ], [ 284775.81, 4155178.94 ], [ 284774.4, 4155177.85 ], [ 284756.74, 4155200.73 ], [ 284768.39, 4155209.65 ], [ 284788.56, 4155183.53 ] ] ] } },
{ "type": "Feature", "properties": { "id": "osm:way/426146876", "name": null, "height": 3.6, "min_height": 0.0, "levels": null, "height_source": "lidar", "roof_shape": "flat", "roof_height": 0.92, "roof_azimuth": null, "roof_source": "lod2", "roof_color": "roof_flat", "roof_color_source": "ortho", "lod2_roof": { "v": [ [ 284883.39, 4155206.49, 0.33 ], [ 284877.92, 4155202.36, 0.92 ], [ 284883.4, 4155195.16, 0.65 ], [ 284884.58, 4155196.04, 0.53 ], [ 284894.4, 4155183.16, 0.05 ], [ 284898.05, 4155187.25, 0.0 ] ], "f": [ [ [ 5, 0, 1, 2, 3, 4 ] ] ] }, "roof_props": null, "wall_color": "brick", "type": "yes", "landmark": null, "footprint_source": "osm", "source_updated": null, "is_part": false, "parent": null, "hidden": false, "addr": null, "wikidata": null, "website": null, "zoning": "M-2", "lidar_p90": 4.13, "ground_z": 9.17 }, "geometry": { "type": "Polygon", "coordinates": [ [ [ 284899.47, 4155185.39 ], [ 284895.18, 4155182.14 ], [ 284884.58, 4155196.04 ], [ 284883.4, 4155195.16 ], [ 284877.92, 4155202.36 ], [ 284883.39, 4155206.49 ], [ 284899.47, 4155185.39 ] ] ] } },
{ "type": "Feature", "properties": { "id": "osm:way/426146878", "name": null, "height": 5.19, "min_height": 0.0, "levels": null, "height_source": "lidar", "roof_shape": "flat", "roof_height": 0.68, "roof_azimuth": null, "roof_source": "lod2", "roof_color": "roof_flat", "roof_color_source": "ortho", "lod2_roof": { "v": [ [ 284845.33, 4155206.39, 0.0 ], [ 284838.6, 4155201.43, 0.66 ], [ 284849.83, 4155200.31, 0.0 ], [ 284843.26, 4155195.15, 0.68 ] ], "f": [ [ [ 3, 2, 0, 1 ] ] ] }, "roof_props": null, "wall_color": "terracotta", "type": "yes", "landmark": null, "footprint_source": "osm", "source_updated": null, "is_part": false, "parent": null, "hidden": false, "addr": null, "wikidata": null, "website": null, "zoning": "M-2", "lidar_p90": 5.43, "ground_z": 8.48 }, "geometry": { "type": "Polygon", "coordinates": [ [ [ 284845.33, 4155206.39 ], [ 284851.07, 4155198.64 ], [ 284844.33, 4155193.7 ], [ 284838.6, 4155201.43 ], [ 284845.33, 4155206.39 ] ] ] } },
{ "type": "Feature", "properties": { "id": "osm:way/426146875", "name": null, "height": 4.68, "min_height": 0.0, "levels": null, "height_source": "lidar", "roof_shape": "flat", "roof_height": 0.61, "roof_azimuth": null, "roof_source": "lod2", "roof_color": "roof_flat", "roof_color_source": "ortho", "lod2_roof": { "v": [ [ 284878.05, 4155202.46, 0.0 ], [ 284883.39, 4155206.49, 0.0 ], [ 284870.9, 4155222.15, 0.0 ], [ 284865.22, 4155217.58, 0.61 ], [ 284882.24, 4155207.93, 0.0 ], [ 284875.98, 4155203.58, 0.59 ], [ 284876.93, 4155204.23, 0.0 ], [ 284876.93, 4155204.23, 0.49 ], [ 284882.24, 4155207.93, 0.0 ] ], "f": [ [ [ 4, 6, 0, 1 ] ], [ [ 8, 2, 3, 5, 7 ] ], [ [ 7, 6, 4, 8 ] ] ] }, "roof_props": null, "wall_color": "concrete", "type": "yes", "landmark": null, "footprint_source": "osm", "source_updated": null, "is_part": false, "parent": null, "hidden": false, "addr": "600 Marx Street", "wikidata": null, "website": null, "zoning": "M-2", "lidar_p90": 5.02, "ground_z": 9.16 }, "geometry": { "type": "Polygon", "coordinates": [ [ [ 284883.39, 4155206.49 ], [ 284877.92, 4155202.36 ], [ 284877.16, 4155203.35 ], [ 284876.16, 4155202.55 ], [ 284864.45, 4155216.96 ], [ 284870.9, 4155222.15 ], [ 284883.39, 4155206.49 ] ] ] } },
{ "type": "Feature", "properties": { "id": "osm:way/426146884", "name": null, "height": 4.77, "min_height": 0.0, "levels": null, "height_source": "lidar", "roof_shape": "flat", "roof_height": 0.26, "roof_azimuth": null, "roof_source": "lod2", "roof_color": "roof_flat", "roof_color_source": "ortho", "lod2_roof": { "v": [ [ 284929.2, 4155167.39, 0.26 ], [ 284939.45, 4155153.55, 0.26 ], [ 284951.53, 4155163.7, 0.0 ], [ 284941.35, 4155176.76, 0.01 ] ], "f": [ [ [ 2, 3, 0, 1 ] ] ] }, "roof_props": null, "wall_color": "brick", "type": "yes", "landmark": null, "footprint_source": "osm", "source_updated": null, "is_part": false, "parent": null, "hidden": false, "addr": "515 Dinwiddie Avenue", "wikidata": null, "website": null, "zoning": "M-2", "lidar_p90": 5.03, "ground_z": 8.79 }, "geometry": { "type": "Polygon", "coordinates": [ [ [ 284953.01, 4155161.8 ], [ 284940.17, 4155151.9 ], [ 284928.51, 4155166.86 ], [ 284941.35, 4155176.76 ], [ 284953.01, 4155161.8 ] ] ] } },
{ "type": "Feature", "properties": { "id": "osm:way/426146885", "name": null, "height": 5.07, "min_height": 0.0, "levels": null, "height_source": "lidar", "roof_shape": "flat", "roof_height": 0.26, "roof_azimuth": null, "roof_source": "lod2", "roof_color": "roof_flat", "roof_color_source": "ortho", "lod2_roof": { "v": [ [ 284950.52, 4155183.84, 0.02 ], [ 284966.72, 4155196.37, 0.0 ], [ 284958.5, 4155207.08, 0.23 ], [ 284942.2, 4155194.65, 0.26 ] ], "f": [ [ [ 2, 3, 0, 1 ] ] ] }, "roof_props": null, "wall_color": "terracotta", "type": "yes", "landmark": null, "footprint_source": "osm", "source_updated": null, "is_part": false, "parent": null, "hidden": false, "addr": "511 Dinwiddie Avenue", "wikidata": null, "website": null, "zoning": "M-2", "lidar_p90": 5.4, "ground_z": 7.88 }, "geometry": { "type": "Polygon", "coordinates": [ [ [ 284967.54, 4155195.31 ], [ 284951.24, 4155182.89 ], [ 284942.2, 4155194.65 ], [ 284958.5, 4155207.08 ], [ 284967.54, 4155195.31 ] ] ] } }
]
}
