{
"type": "FeatureCollection",
"name": "buildings",
"crs": { "type": "name", "properties": { "name": "urn:ogc:def:crs:EPSG::32618" } },
"xy_coordinate_resolution": 0.01,
"features": [
{ "type": "Feature", "properties": { "id": "richmond_structure:262058", "name": null, "height": 2.61, "min_height": 0.0, "levels": null, "height_source": "lidar", "roof_shape": "flat", "roof_height": 0.16, "roof_azimuth": null, "roof_source": "lod2", "roof_color": "roof_flat", "roof_color_source": "heuristic", "lod2_roof": { "v": [ [ 280488.39, 4158509.99, 0.0 ], [ 280486.88, 4158510.81, 0.16 ], [ 280483.72, 4158508.0, 0.0 ], [ 280485.16, 4158507.22, 0.1 ], [ 280485.51, 4158507.97, 0.11 ], [ 280486.78, 4158507.05, 0.0 ], [ 280485.63, 4158511.48, 0.0 ] ], "f": [ [ [ 5, 0, 1, 4 ] ], [ [ 1, 6, 2, 3, 4 ] ] ] }, "roof_props": null, "wall_color": "sand", "type": "yes", "landmark": null, "footprint_source": "richmond_structures", "source_updated": "2026-09-08T12:07:13.637000Z", "is_part": false, "parent": null, "hidden": false, "addr": null, "wikidata": null, "website": null, "zoning": "R-4", "lidar_p90": 2.81, "ground_z": 70.22 }, "geometry": { "type": "Polygon", "coordinates": [ [ [ 280486.48, 4158506.5 ], [ 280483.72, 4158508.0 ], [ 280485.63, 4158511.48 ], [ 280488.39, 4158509.99 ], [ 280486.48, 4158506.5 ] ] ] } },
{ "type": "Feature", "properties": { "id": "osm:way/1131710581", "name": null, "height": 2.98, "min_height": 0.0, "levels": null, "height_source": "lidar", "roof_shape": "flat", "roof_height": 0.37, "roof_azimuth": null, "roof_source": "lod2", "roof_color": "roof_flat", "roof_color_source": "ortho", "lod2_roof": { "v": [ [ 280473.12, 4158516.37, 0.0 ], [ 280470.3, 4158517.66, 0.37 ], [ 280467.47, 4158518.96, 0.0 ], [ 280465.34, 4158514.34, 0.0 ], [ 280468.03, 4158512.95, 0.34 ], [ 280470.86, 4158511.48, 0.0 ] ], "f": [ [ [ 4, 1, 2, 3 ] ], [ [ 5, 0, 1, 4 ] ] ] }, "roof_props": null, "wall_color": "concrete", "type": "yes", "landmark": null, "footprint_source": "osm", "source_updated": null, "is_part": false, "parent": null, "hidden": false, "addr": null, "wikidata": null, "website": null, "zoning": "R-4", "lidar_p90": 3.25, "ground_z": 70.28 }, "geometry": { "type": "Polygon", "coordinates": [ [ [ 280470.44, 4158510.57 ], [ 280464.8, 4158513.17 ], [ 280467.47, 4158518.96 ], [ 280473.12, 4158516.37 ], [ 280470.44, 4158510.57 ] ] ] } },
{ "type": "Feature", "properties": { "id": "richmond_structure:260880", "name": null, "height": 3.35, "min_height": 0.0, "levels": null, "height_source": "lidar", "roof_shape": "flat", "roof_height": 0.33, "roof_azimuth": null, "roof_source": "lod2", "roof_color": "concrete", "roof_color_source": "ortho", "lod2_roof": { "v": [ [ 280495.2, 4158520.22, 0.0 ], [ 280490.39, 4158522.63, 0.0 ], [ 280494.46, 4158518.74, 0.33 ], [ 280489.64, 4158521.15, 0.29 ], [ 280488.43, 4158518.72, 0.0 ], [ 280493.24, 4158516.31, 0.0 ] ], "f": [ [ [ 3, 2, 0, 1 ] ], [ [ 5, 2, 3, 4 ] ] ] }, "roof_props": null, "wall_color": "cream", "type": "yes", "landmark": null, "footprint_source": "richmond_structures", "source_updated": "2026-09-08T12:07:13.637000Z", "is_part": false, "parent": null, "hidden": false, "addr": null, "wikidata": null, "website": null, "zoning": "R-4", "lidar_p90": 3.5, "ground_z": 70.35 }, "geometry": { "type": "Polygon", "coordinates": [ [ [ 280493.24, 4158516.31 ], [ 280488.43, 4158518.72 ], [ 280490.39, 4158522.63 ], [ 280495.2, 4158520.22 ], [ 280493.24, 4158516.31 ] ] ] } },
{ "type": "Feature", "properties": { "id": "osm:way/1131710577", "name": null, "height": 3.6, "min_height": 0.0, "levels": null, "height_source": "lidar", "roof_shape": "flat", "roof_height": 0.4, "roof_azimuth": null, "roof_source": "lod2", "roof_color": "roof_flat", "roof_color_source": "ortho", "lod2_roof": { "v": [ [ 280477.55, 4158525.84, 0.0 ], [ 280480.42, 4158531.65, 0.0 ], [ 280476.93, 4158533.37, 0.37 ], [ 280473.28, 4158535.16, 0.0 ], [ 280470.28, 4158529.11, 0.0 ], [ 280473.96, 4158527.45, 0.4 ] ], "f": [ [ [ 4, 5, 2, 3 ] ], [ [ 5, 0, 1, 2 ] ] ] }, "roof_props": null, "wall_color": "terracotta", "type": "yes", "landmark": null, "footprint_source": "osm", "source_updated": null, "is_part": false, "parent": null, "hidden": false, "addr": null, "wikidata": null, "website": null, "zoning": "R-4", "lidar_p90": 3.91, "ground_z": 70.34 }, "geometry": { "type": "Polygon", "coordinates": [ [ [ 280473.28, 4158535.16 ], [ 280480.42, 4158531.65 ], [ 280476.81, 4158524.34 ], [ 280469.66, 4158527.85 ], [ 280473.28, 4158535.16 ] ] ] } },
{ "type": "Feature", "properties": { "id": "osm:way/562251628", "name": null, "height": 3.2, "min_height": 0.0, "levels": 1.0, "height_source": "osm_levels", "roof_shape": "gable", "roof_height": 2.05, "roof_azimuth": 10.3, "roof_source": "lidar", "roof_color": "roof_flat", "roof_color_source": "ortho", "lod2_roof": null, "roof_props": null, "wall_color": "cream", "type": "house", "landmark": null, "footprint_source": "osm", "source_updated": null, "is_part": false, "parent": null, "hidden": false, "addr": "3207 Grant Street", "wikidata": null, "website": null, "zoning": "R-4", "lidar_p90": 6.25, "ground_z": 70.33 }, "geometry": { "type": "Polygon", "coordinates": [ [ [ 280496.28, 4158545.95 ], [ 280507.51, 4158540.69 ], [ 280505.57, 4158536.59 ], [ 280503.55, 4158537.54 ], [ 280502.02, 4158534.29 ], [ 280501.32, 4158534.62 ], [ 280498.92, 4158529.53 ], [ 280495.46, 4158531.16 ], [ 280497.91, 4158536.34 ], [ 280492.85, 4158538.71 ], [ 280496.28, 4158545.95 ] ] ] } },
{ "type": "Feature", "properties": { "id": "richmond_structure:261901", "name": null, "height": 2.5, "min_height": 0.0, "levels": null, "height_source": "lidar", "roof_shape": "flat", "roof_height": 0.99, "roof_azimuth": null, "roof_source": "lod2", "roof_color": "roof_flat", "roof_color_source": "heuristic", "lod2_roof": { "v": [ [ 280452.11, 4158537.27, 0.0 ], [ 280454.65, 4158542.36, 0.0 ], [ 280445.47, 4158541.01, 0.0 ], [ 280446.25, 4158540.62, 0.61 ], [ 280446.75, 4158540.6, 0.95 ], [ 280447.84, 4158545.75, 0.0 ], [ 280448.1, 4158539.28, 0.0 ], [ 280450.73, 4158544.31, 0.0 ], [ 280449.07, 4158545.14, 0.99 ], [ 280449.07, 4158545.14, 0.99 ], [ 280448.26, 4158539.6, 0.0 ], [ 280446.65, 4158540.41, 0.95 ] ], "f": [ [ [ 1, 7, 10, 6, 0 ] ], [ [ 11, 10, 7, 8, 4 ] ], [ [ 9, 5, 2, 3, 4 ] ], [ [ 8, 9, 4 ] ] ] }, "roof_props": null, "wall_color": "concrete", "type": "yes", "landmark": null, "footprint_source": "richmond_structures", "source_updated": "2026-09-08T12:07:13.637000Z", "is_part": false, "parent": null, "hidden": false, "addr": null, "wikidata": null, "website": null, "zoning": "R-4", "lidar_p90": 3.43, "ground_z": 70.1 }, "geometry": { "type": "Polygon", "coordinates": [ [ [ 280452.11, 4158537.27 ], [ 280445.3, 4158540.67 ], [ 280447.84, 4158545.76 ], [ 280454.65, 4158542.36 ], [ 280452.11, 4158537.27 ] ] ] } },
{ "type": "Feature", "properties": { "id": "osm:way/562251627", "name": null, "height": 3.2, "min_height": 0.0, "levels": 1.0, "height_source": "osm_levels", "roof_shape": "gable", "roof_height": 3.95, "roof_azimuth": 116.2, "roof_source": "lod2", "roof_color": "roof_flat", "roof_color_source": "ortho", "lod2_roof": { "v": [ [ 280489.93, 4158550.34, 0.14 ], [ 280486.51, 4158552.01, 0.24 ], [ 280485.97, 4158550.92, 1.45 ], [ 280489.27, 4158549.01, 1.61 ], [ 280482.61, 4158552.57, 1.54 ], [ 280492.75, 4158547.3, 1.51 ], [ 280491.65, 4158545.3, 3.78 ], [ 280479.7, 4158546.72, 0.0 ], [ 280490.66, 4158541.55, 0.0 ], [ 280491.31, 4158544.68, 3.08 ], [ 280481.54, 4158550.4, 3.95 ] ], "f": [ [ [ 10, 6, 5, 3, 0, 1, 2, 4 ] ], [ [ 6, 10, 7, 8, 9 ] ] ] }, "roof_props": null, "wall_color": "brick", "type": "house", "landmark": null, "footprint_source": "osm", "source_updated": null, "is_part": false, "parent": null, "hidden": false, "addr": "3209 Grant Street", "wikidata": null, "website": null, "zoning": "R-4", "lidar_p90": 6.91, "ground_z": 70.4 }, "geometry": { "type": "Polygon", "coordinates": [ [ [ 280482.61, 4158552.57 ], [ 280485.97, 4158550.92 ], [ 280486.51, 4158552.01 ], [ 280489.93, 4158550.34 ], [ 280489.27, 4158549.01 ], [ 280493.86, 4158546.76 ], [ 280490.5, 4158539.98 ], [ 280479.14, 4158545.58 ], [ 280482.61, 4158552.57 ] ] ] } },
{ "type": "Feature", "properties": { "id": "osm:way/562251626", "name": null, "height": 3.2, "min_height": 0.0, "levels": 1.0, "height_source": "osm_levels", "roof_shape": "gable", "roof_height": 4.08, "roof_azimuth": null, "roof_source": "lod2", "roof_color": "roof_flat", "roof_color_source": "ortho", "lod2_roof": { "v": [ [ 280469.03, 4158559.25, 1.28 ], [ 280467.82, 4158556.8, 4.06 ], [ 280466.47, 4158554.08, 1.02 ], [ 280463.22, 4158547.51, 0.0 ], [ 280479.8, 4158553.97, 1.33 ], [ 280466.54, 4158545.5, 0.0 ], [ 280471.25, 4158548.49, 0.53 ], [ 280472.98, 4158548.47, 0.64 ], [ 280473.85, 4158547.53, 0.56 ], [ 280474.98, 4158549.83, 0.97 ], [ 280479.36, 4158553.14, 2.28 ], [ 280476.92, 4158553.73, 2.83 ], [ 280476.92, 4158553.73, 1.78 ], [ 280478.11, 4158553.73, 2.29 ], [ 280476.37, 4158552.62, 4.08 ], [ 280476.37, 4158552.62, 4.08 ], [ 280476.37, 4158552.62, 0.54 ], [ 280478.47, 4158551.47, 0.38 ], [ 280475.99, 4158551.87, 3.24 ], [ 280475.99, 4158551.87, 0.0 ] ], "f": [ [ [ 1, 14, 11, 13, 10, 4, 0 ] ], [ [ 19, 17, 10, 13, 12, 16 ] ], [ [ 9, 2, 3, 5, 6, 7, 8 ] ], [ [ 1, 2, 9, 18, 15 ] ], [ [ 11, 12, 13 ] ], [ [ 14, 15, 16, 12, 11 ] ], [ [ 18, 19, 16, 15 ] ], [ [ 15, 14, 1 ] ] ] }, "roof_props": null, "wall_color": "brick", "type": "house", "landmark": null, "footprint_source": "osm", "source_updated": null, "is_part": false, "parent": null, "hidden": false, "addr": "3211 Grant Street", "wikidata": null, "website": null, "zoning": "R-4", "lidar_p90": 6.96, "ground_z": 70.3 }, "geometry": { "type": "Polygon", "coordinates": [ [ [ 280480.61, 4158553.57 ], [ 280478.49, 4158549.27 ], [ 280476.69, 4158550.15 ], [ 280474.82, 4158546.36 ], [ 280471.98, 4158547.75 ], [ 280469.55, 4158542.84 ], [ 280462.59, 4158546.25 ], [ 280469.03, 4158559.25 ], [ 280480.61, 4158553.57 ] ] ] } },
{ "type": "Feature", "properties": { "id": "osm:way/562251625", "name": null, "height": 3.2, "min_height": 0.0, "levels": 1.0, "height_source": "osm_levels", "roof_shape": "gable", "roof_height": 2.97, "roof_azimuth": 115.0, "roof_source": "lod2", "roof_color": "slate", "roof_color_source": "ortho", "lod2_roof": { "v": [ [ 280453.42, 4158557.92, 0.0 ], [ 280457.01, 4158556.24, 0.0 ], [ 280455.32, 4158565.71, 1.99 ], [ 280454.15, 4158563.22, 0.0 ], [ 280455.67, 4158562.22, 2.5 ], [ 280455.79, 4158562.76, 0.14 ], [ 280455.79, 4158562.76, 2.78 ], [ 280455.79, 4158562.76, 2.97 ], [ 280456.22, 4158564.64, 1.55 ], [ 280456.35, 4158565.23, 1.11 ], [ 280456.35, 4158565.23, 2.0 ], [ 280456.72, 4158562.49, 2.84 ], [ 280465.14, 4158561.13, 0.96 ], [ 280458.33, 4158557.48, 0.18 ], [ 280458.33, 4158557.48, 0.74 ], [ 280459.65, 4158556.14, 0.0 ], [ 280463.51, 4158559.34, 2.86 ], [ 280463.51, 4158559.34, 2.72 ], [ 280462.13, 4158559.21, 2.37 ], [ 280459.94, 4158558.99, 1.81 ], [ 280459.94, 4158558.99, 1.59 ], [ 280460.9, 4158556.65, 0.43 ], [ 280462.51, 4158555.18, 0.01 ], [ 280464.91, 4158559.48, 2.16 ], [ 280464.58, 4158558.85, 2.87 ] ], "f": [ [ [ 10, 2, 3, 5, 8 ] ], [ [ 17, 11, 6, 4, 0, 1, 14, 19, 18 ] ], [ [ 15, 21, 22, 24, 16, 18, 20, 13 ] ], [ [ 11, 17, 23, 12, 9, 8, 7 ] ], [ [ 5, 6, 7, 8 ] ], [ [ 9, 10, 8 ] ], [ [ 7, 6, 11 ] ], [ [ 16, 17, 18 ] ], [ [ 19, 20, 18 ] ], [ [ 14, 13, 20, 19 ] ] ] }, "roof_props": null, "wall_color": "brick", "type": "house", "landmark": null, "footprint_source": "osm", "source_updated": null, "is_part": false, "parent": null, "hidden": false, "addr": "3213 Grant Street", "wikidata": null, "website": null, "zoning": "R-4", "lidar_p90": 6.01, "ground_z": 70.12 }, "geometry": { "type": "Polygon", "coordinates": [ [ [ 280451.97, 4158558.59 ], [ 280455.32, 4158565.71 ], [ 280466.15, 4158560.66 ], [ 280462.8, 4158553.54 ], [ 280451.97, 4158558.59 ] ] ] } },
{ "type": "Feature", "properties": { "id": "osm:way/562251624", "name": null, "height": 3.2, "min_height": 0.0, "levels": 1.0, "height_source": "osm_levels", "roof_shape": "gable", "roof_height": 3.06, "roof_azimuth": 130.3, "roof_source": "lod2", "roof_color": "roof_flat", "roof_color_source": "ortho", "lod2_roof": { "v": [ [ 280448.67, 4158562.68, 2.49 ], [ 280448.67, 4158562.68, 0.57 ], [ 280449.67, 4158563.82, 2.75 ], [ 280441.19, 4158571.93, 1.6 ], [ 280441.19, 4158571.93, 1.6 ], [ 280442.17, 4158571.43, 1.62 ], [ 280440.16, 4158569.76, 0.0 ], [ 280443.72, 4158562.36, 0.37 ], [ 280443.72, 4158562.36, 0.2 ], [ 280440.41, 4158564.15, 0.37 ], [ 280440.41, 4158564.15, 1.04 ], [ 280444.57, 4158563.83, 0.0 ], [ 280444.57, 4158563.83, 0.82 ], [ 280450.42, 4158565.34, 3.05 ], [ 280451.58, 4158567.67, 1.04 ], [ 280448.01, 4158561.93, 0.0 ], [ 280445.07, 4158564.68, 2.41 ], [ 280445.07, 4158564.68, 1.18 ], [ 280445.07, 4158564.68, 0.71 ], [ 280442.94, 4158570.48, 1.26 ], [ 280442.94, 4158570.48, 2.02 ], [ 280441.44, 4158572.45, 1.16 ], [ 280442.08, 4158569.34, 0.17 ], [ 280442.04, 4158569.76, 3.06 ], [ 280442.04, 4158569.76, 0.44 ], [ 280442.08, 4158569.34, 2.8 ], [ 280439.45, 4158562.14, 0.93 ], [ 280442.7, 4158560.61, 0.3 ], [ 280442.15, 4158568.14, 1.98 ], [ 280442.11, 4158568.0, 1.92 ], [ 280445.26, 4158565.86, 2.6 ], [ 280445.26, 4158565.86, 1.61 ], [ 280445.6, 4158565.61, 1.57 ], [ 280445.6, 4158565.61, 2.6 ], [ 280442.6, 4158569.46, 0.44 ], [ 280442.6, 4158569.46, 2.84 ], [ 280442.6, 4158569.46, 3.05 ], [ 280445.29, 4158566.04, 1.68 ], [ 280445.29, 4158566.04, 2.63 ], [ 280445.54, 4158567.77, 2.9 ], [ 280445.56, 4158567.9, 2.92 ], [ 280445.56, 4158567.9, 2.99 ], [ 280442.21, 4158567.94, 1.92 ], [ 280442.2, 4158568.27, 2.14 ], [ 280442.15, 4158568.14, 2.03 ], [ 280443.66, 4158567.04, 1.8 ] ], "f": [ [ [ 27, 7, 10, 26 ] ], [ [ 18, 11, 15, 1 ] ], [ [ 24, 34, 19, 5, 4, 6, 22 ] ], [ [ 38, 30, 33, 16, 0, 2, 13, 40, 39 ] ], [ [ 45, 28, 29, 42, 9, 8, 12, 17, 32, 31, 37 ] ], [ [ 35, 40, 13, 14, 21, 3, 5, 20 ] ], [ [ 44, 45, 37, 39, 41, 36, 23, 25, 43 ] ], [ [ 3, 4, 5 ] ], [ [ 7, 8, 9, 10 ] ], [ [ 16, 17, 18, 1, 0 ] ], [ [ 19, 20, 5 ] ], [ [ 23, 24, 22, 25 ] ], [ [ 12, 11, 18, 17 ] ], [ [ 30, 31, 32, 33 ] ], [ [ 33, 32, 17, 16 ] ], [ [ 20, 19, 34, 35 ] ], [ [ 36, 35, 34, 24, 23 ] ], [ [ 37, 38, 39 ] ], [ [ 40, 41, 39 ] ], [ [ 38, 37, 31, 30 ] ], [ [ 41, 40, 35, 36 ] ], [ [ 44, 28, 45 ] ] ] }, "roof_props": null, "wall_color": "brick", "type": "house", "landmark": null, "footprint_source": "osm", "source_updated": null, "is_part": false, "parent": null, "hidden": false, "addr": "3215 Grant Street", "wikidata": null, "website": null, "zoning": "R-4", "lidar_p90": 6.03, "ground_z": 70.33 }, "geometry": { "type": "Polygon", "coordinates": [ [ [ 280445.34, 4158562.78 ], [ 280444.01, 4158559.99 ], [ 280439.45, 4158562.14 ], [ 280442.21, 4158567.94 ], [ 280439.83, 4158569.07 ], [ 280441.44, 4158572.45 ], [ 280452.38, 4158567.29 ], [ 280449.33, 4158560.89 ], [ 280445.34, 4158562.78 ] ] ] } },
{ "type": "Feature", "properties": { "id": "osm:way/562251605", "name": null, "height": 3.36, "min_height": 0.0, "levels": null, "height_source": "lidar", "roof_shape": "gable", "roof_height": 3.91, "roof_azimuth": 114.6, "roof_source": "lod2", "roof_color": "roof_flat", "roof_color_source": "ortho", "lod2_roof": { "v": [ [ 280416.53, 4158507.76, 0.11 ], [ 280418.98, 4158506.53, 0.0 ], [ 280429.86, 4158509.02, 3.49 ], [ 280419.31, 4158513.83, 3.6 ], [ 280418.13, 4158511.27, 3.91 ], [ 280418.11, 4158506.15, 0.0 ], [ 280418.66, 4158505.59, 0.12 ], [ 280420.91, 4158506.98, 1.72 ], [ 280420.91, 4158506.98, 1.19 ], [ 280420.52, 4158507.2, 1.23 ], [ 280422.26, 4158504.99, 0.0 ], [ 280422.26, 4158504.99, 0.0 ], [ 280422.02, 4158505.86, 0.63 ], [ 280422.57, 4158503.81, 0.0 ], [ 280419.9, 4158504.35, 1.95 ], [ 280419.9, 4158504.35, 1.95 ], [ 280421.11, 4158506.78, 2.02 ], [ 280417.98, 4158504.95, 0.0 ], [ 280418.98, 4158504.5, 0.95 ], [ 280421.11, 4158506.78, 1.09 ], [ 280427.14, 4158502.89, 0.05 ], [ 280428.45, 4158506.48, 3.81 ], [ 280428.65, 4158507.01, 3.75 ] ], "f": [ [ [ 12, 16, 14, 13, 10 ] ], [ [ 21, 4, 0, 1, 9, 8, 19, 12, 11, 20 ] ], [ [ 16, 7, 9, 1, 5, 6, 17, 18, 15 ] ], [ [ 4, 21, 22, 2, 3 ] ], [ [ 7, 8, 9 ] ], [ [ 10, 11, 12 ] ], [ [ 15, 14, 16 ] ], [ [ 19, 16, 12 ] ], [ [ 16, 19, 8, 7 ] ] ] }, "roof_props": null, "wall_color": "brick_dark", "type": "house", "landmark": null, "footprint_source": "osm", "source_updated": null, "is_part": false, "parent": null, "hidden": false, "addr": "3212 French Street", "wikidata": null, "website": null, "zoning": "R-4", "lidar_p90": 7.04, "ground_z": 70.37 }, "geometry": { "type": "Polygon", "coordinates": [ [ [ 280419.31, 4158513.83 ], [ 280431.01, 4158508.5 ], [ 280427.44, 4158500.68 ], [ 280422.1, 4158503.11 ], [ 280421.4, 4158501.61 ], [ 280418.78, 4158502.81 ], [ 280419.45, 4158504.28 ], [ 280415.71, 4158505.98 ], [ 280419.31, 4158513.83 ] ] ] } },
{ "type": "Feature", "properties": { "id": "osm:way/562251604", "name": null, "height": 6.5, "min_height": 0.0, "levels": null, "height_source": "lidar", "roof_shape": "gable", "roof_height": 3.25, "roof_azimuth": null, "roof_source": "heuristic", "roof_color": "roof_flat", "roof_color_source": "ortho", "lod2_roof": null, "roof_props": null, "wall_color": "brick", "type": "house", "landmark": null, "footprint_source": "osm", "source_updated": null, "is_part": false, "parent": null, "hidden": false, "addr": "3214 French Street", "wikidata": null, "website": null, "zoning": "R-4", "lidar_p90": 6.83, "ground_z": 70.17 }, "geometry": { "type": "Polygon", "coordinates": [ [ [ 280416.56, 4158521.16 ], [ 280412.27, 4158512.05 ], [ 280410.54, 4158512.86 ], [ 280407.98, 4158507.41 ], [ 280402.94, 4158509.76 ], [ 280403.95, 4158511.91 ], [ 280399.96, 4158513.77 ], [ 280405.79, 4158526.19 ], [ 280416.56, 4158521.16 ] ] ] } },
{ "type": "Feature", "properties": { "id": "osm:way/562251603", "name": null, "height": 6.14, "min_height": 0.0, "levels": null, "height_source": "lidar", "roof_shape": "gable", "roof_height": 1.09, "roof_azimuth": null, "roof_source": "lod2", "roof_color": "slate", "roof_color_source": "heuristic", "lod2_roof": { "v": [ [ 280387.32, 4158526.19, 1.05 ], [ 280387.32, 4158526.19, 1.03 ], [ 280389.95, 4158524.93, 1.05 ], [ 280389.95, 4158524.93, 1.05 ], [ 280392.13, 4158529.11, 0.14 ], [ 280392.13, 4158529.11, 0.0 ], [ 280389.95, 4158524.94, 1.05 ], [ 280384.93, 4158521.18, 0.0 ], [ 280386.72, 4158520.32, 0.0 ], [ 280393.69, 4158518.84, 0.0 ], [ 280395.65, 4158522.19, 1.06 ], [ 280389.42, 4158530.6, 0.0 ], [ 280388.48, 4158519.48, 0.0 ], [ 280388.15, 4158518.78, 0.0 ], [ 280388.28, 4158519.58, 0.0 ], [ 280388.53, 4158521.32, 0.0 ], [ 280389.25, 4158520.94, 0.0 ], [ 280389.25, 4158520.94, 0.0 ], [ 280387.92, 4158520.62, 0.0 ], [ 280387.92, 4158520.62, 0.0 ], [ 280392.25, 4158529.26, 0.0 ], [ 280392.25, 4158529.26, 0.11 ], [ 280397.43, 4158526.8, 0.14 ], [ 280388.63, 4158518.58, 0.0 ], [ 280389.9, 4158518.04, 0.0 ], [ 280388.6, 4158518.66, 0.0 ], [ 280392.47, 4158516.95, 0.0 ], [ 280393.29, 4158519.34, 0.0 ], [ 280391.56, 4158521.26, 0.0 ], [ 280391.56, 4158521.26, 0.0 ], [ 280391.39, 4158521.39, 0.0 ], [ 280391.05, 4158521.38, 0.0 ], [ 280387.69, 4158521.3, 0.0 ], [ 280392.03, 4158520.91, 0.0 ], [ 280392.03, 4158520.91, 0.0 ], [ 280392.03, 4158520.91, 0.0 ], [ 280391.56, 4158521.26, 0.0 ], [ 280395.09, 4158522.46, 1.06 ], [ 280388.51, 4158518.63, 0.0 ], [ 280395.09, 4158522.46, 1.09 ], [ 280390.49, 4158524.68, 1.05 ] ], "f": [ [ [ 5, 20, 11, 0, 3, 6 ] ], [ [ 36, 24, 26, 27, 33, 35 ] ], [ [ 40, 39, 22, 21, 4, 6, 2 ] ], [ [ 37, 40, 2, 1, 7, 8, 18, 32, 15, 16, 31, 30, 29, 35, 34, 27, 9, 10 ] ], [ [ 24, 28, 30, 31, 17, 19, 14, 12, 13, 38, 25, 23 ] ], [ [ 0, 1, 2, 3 ] ], [ [ 4, 5, 6 ] ], [ [ 3, 2, 6 ] ], [ [ 21, 20, 5, 4 ] ], [ [ 28, 29, 30 ] ], [ [ 16, 17, 31 ] ], [ [ 33, 34, 35 ] ], [ [ 29, 28, 36, 35 ] ], [ [ 34, 33, 27 ] ], [ [ 37, 39, 40 ] ], [ [ 36, 28, 24 ] ] ] }, "roof_props": null, "wall_color": "brick", "type": "house", "landmark": null, "footprint_source": "osm", "source_updated": null, "is_part": false, "parent": null, "hidden": false, "addr": "3216 French Street", "wikidata": null, "website": null, "zoning": "R-4", "lidar_p90": 6.92, "ground_z": 69.84 }, "geometry": { "type": "Polygon", "coordinates": [ [ [ 280398.15, 4158526.47 ], [ 280392.53, 4158514.7 ], [ 280387.37, 4158517.15 ], [ 280388.48, 4158519.48 ], [ 280384.93, 4158521.18 ], [ 280389.42, 4158530.6 ], [ 280398.15, 4158526.47 ] ] ] } },
{ "type": "Feature", "properties": { "id": "osm:way/1131710578", "name": null, "height": 2.72, "min_height": 0.0, "levels": null, "height_source": "lidar", "roof_shape": "gable", "roof_height": 1.32, "roof_azimuth": 24.6, "roof_source": "lod2", "roof_color": "roof_flat", "roof_color_source": "ortho", "lod2_roof": { "v": [ [ 280426.1, 4158530.96, 0.0 ], [ 280429.2, 4158529.17, 1.32 ], [ 280429.2, 4158529.17, 1.32 ], [ 280432.44, 4158536.04, 1.32 ], [ 280432.44, 4158536.04, 1.32 ], [ 280435.58, 4158534.62, 0.0 ], [ 280432.27, 4158527.4, 0.0 ], [ 280429.39, 4158537.43, 0.0 ] ], "f": [ [ [ 1, 6, 5, 3 ] ], [ [ 4, 7, 0, 2 ] ], [ [ 2, 1, 3, 4 ] ] ] }, "roof_props": null, "wall_color": "terracotta", "type": "yes", "landmark": null, "footprint_source": "osm", "source_updated": null, "is_part": false, "parent": null, "hidden": false, "addr": null, "wikidata": null, "website": null, "zoning": "R-4", "lidar_p90": 3.79, "ground_z": 70.15 }, "geometry": { "type": "Polygon", "coordinates": [ [ [ 280424.97, 4158529.27 ], [ 280428.82, 4158537.68 ], [ 280435.58, 4158534.62 ], [ 280431.71, 4158526.19 ], [ 280424.97, 4158529.27 ] ] ] } },
{ "type": "Feature", "properties": { "id": "richmond_structure:261969", "name": null, "height": 3.67, "min_height": 0.0, "levels": null, "height_source": "lidar", "roof_shape": "flat", "roof_height": 0.26, "roof_azimuth": null, "roof_source": "lod2", "roof_color": "roof_flat", "roof_color_source": "heuristic", "lod2_roof": { "v": [ [ 280418.72, 4158539.5, 0.26 ], [ 280420.88, 4158538.52, 0.0 ], [ 280419.51, 4158544.79, 0.0 ], [ 280417.38, 4158540.11, 0.0 ], [ 280423.01, 4158543.2, 0.0 ], [ 280420.97, 4158544.13, 0.23 ] ], "f": [ [ [ 4, 5, 0, 1 ] ], [ [ 5, 2, 3, 0 ] ] ] }, "roof_props": null, "wall_color": "sand", "type": "yes", "landmark": null, "footprint_source": "richmond_structures", "source_updated": "2026-09-08T12:07:13.637000Z", "is_part": false, "parent": null, "hidden": false, "addr": null, "wikidata": null, "website": null, "zoning": "R-4", "lidar_p90": 3.76, "ground_z": 70.0 }, "geometry": { "type": "Polygon", "coordinates": [ [ [ 280420.88, 4158538.52 ], [ 280417.38, 4158540.11 ], [ 280419.51, 4158544.79 ], [ 280423.01, 4158543.2 ], [ 280420.88, 4158538.52 ] ] ] } },
{ "type": "Feature", "properties": { "id": "osm:way/1131710580", "name": null, "height": 2.62, "min_height": 0.0, "levels": null, "height_source": "lidar", "roof_shape": "flat", "roof_height": 0.01, "roof_azimuth": null, "roof_source": "lod2", "roof_color": "concrete", "roof_color_source": "ortho", "lod2_roof": { "v": [ [ 280399.08, 4158697.05, 0.0 ], [ 280394.05, 4158691.29, 0.0 ], [ 280401.97, 4158694.54, 0.01 ], [ 280396.81, 4158688.64, 0.0 ] ], "f": [ [ [ 1, 3, 2, 0 ] ] ] }, "roof_props": null, "wall_color": "cream", "type": "yes", "landmark": null, "footprint_source": "osm", "source_updated": null, "is_part": false, "parent": null, "hidden": false, "addr": null, "wikidata": null, "website": null, "zoning": "R-4", "lidar_p90": 2.66, "ground_z": 63.76 }, "geometry": { "type": "Polygon", "coordinates": [ [ [ 280399.08, 4158697.05 ], [ 280401.97, 4158694.54 ], [ 280396.33, 4158688.09 ], [ 280393.44, 4158690.6 ], [ 280399.08, 4158697.05 ] ] ] } },
{ "type": "Feature", "properties": { "id": "richmond_structure:260722", "name": null, "height": 2.58, "min_height": 0.0, "levels": null, "height_source": "lidar", "roof_shape": "flat", "roof_height": 0.02, "roof_azimuth": null, "roof_source": "lod2", "roof_color": "concrete", "roof_color_source": "heuristic", "lod2_roof": { "v": [ [ 280386.85, 4158696.38, 0.0 ], [ 280388.56, 4158695.03, 0.0 ], [ 280394.26, 4158702.29, 0.02 ], [ 280392.57, 4158703.62, 0.02 ] ], "f": [ [ [ 2, 3, 0, 1 ] ] ] }, "roof_props": null, "wall_color": "terracotta", "type": "yes", "landmark": null, "footprint_source": "richmond_structures", "source_updated": "2026-09-08T12:07:13.637000Z", "is_part": false, "parent": null, "hidden": false, "addr": null, "wikidata": null, "website": null, "zoning": "R-4", "lidar_p90": 5.86, "ground_z": 64.45 }, "geometry": { "type": "Polygon", "coordinates": [ [ [ 280388.56, 4158695.03 ], [ 280386.85, 4158696.38 ], [ 280392.57, 4158703.63 ], [ 280394.26, 4158702.29 ], [ 280388.56, 4158695.03 ] ] ] } },
{ "type": "Feature", "properties": { "id": "osm:way/502989282", "name": null, "height": 2.74, "min_height": 0.0, "levels": null, "height_source": "lidar", "roof_shape": "gable", "roof_height": 13.52, "roof_azimuth": 38.8, "roof_source": "lod2", "roof_color": "roof_flat", "roof_color_source": "ortho", "lod2_roof": { "v": [ [ 280414.55, 4158753.66, 12.45 ], [ 280414.54, 4158753.78, 12.42 ], [ 280386.44, 4158773.42, 0.0 ], [ 280317.36, 4158687.51, 0.0 ], [ 280391.22, 4158760.21, 3.01 ], [ 280391.22, 4158760.21, 0.63 ], [ 280388.28, 4158763.05, 1.23 ], [ 280388.28, 4158763.05, 1.44 ], [ 280343.37, 4158708.64, 1.2 ], [ 280343.37, 4158708.64, 1.18 ], [ 280344.16, 4158709.53, 1.2 ], [ 280344.16, 4158709.53, 1.22 ], [ 280344.06, 4158708.34, 1.48 ], [ 280344.06, 4158708.34, 1.2 ], [ 280344.06, 4158708.34, 1.09 ], [ 280400.97, 4158763.26, 5.38 ], [ 280400.97, 4158763.26, 5.19 ], [ 280400.58, 4158762.96, 5.14 ], [ 280400.58, 4158762.96, 5.33 ], [ 280389.32, 4158749.26, 5.26 ], [ 280389.32, 4158749.26, 5.1 ], [ 280389.22, 4158745.57, 5.96 ], [ 280389.22, 4158745.57, 6.22 ], [ 280385.61, 4158747.65, 4.38 ], [ 280385.61, 4158747.65, 4.46 ], [ 280346.63, 4158711.25, 1.55 ], [ 280346.63, 4158711.25, 1.27 ], [ 280353.34, 4158718.84, 1.46 ], [ 280353.34, 4158718.84, 1.71 ], [ 280350.55, 4158722.77, 0.0 ], [ 280350.55, 4158722.77, 0.0 ], [ 280361.53, 4158734.08, 0.11 ], [ 280361.53, 4158734.08, 0.47 ], [ 280325.27, 4158688.47, 0.68 ], [ 280325.27, 4158688.47, 0.28 ], [ 280326.88, 4158690.26, 0.33 ], [ 280326.88, 4158690.26, 0.73 ], [ 280366.51, 4158729.23, 3.06 ], [ 280366.51, 4158729.23, 0.6 ], [ 280365.17, 4158727.66, 0.57 ], [ 280365.17, 4158727.66, 3.03 ], [ 280399.77, 4158756.87, 6.69 ], [ 280399.77, 4158756.87, 6.38 ], [ 280403.29, 4158752.79, 8.42 ], [ 280403.29, 4158752.79, 8.95 ], [ 280363.59, 4158733.9, 1.13 ], [ 280363.59, 4158733.9, 0.84 ], [ 280369.87, 4158743.44, 0.37 ], [ 280369.87, 4158743.44, 0.69 ], [ 280372.86, 4158743.74, 1.51 ], [ 280372.86, 4158743.74, 1.28 ], [ 280372.69, 4158749.19, 0.0 ], [ 280372.69, 4158749.19, 0.14 ], [ 280371.77, 4158742.44, 1.27 ], [ 280371.77, 4158742.44, 1.5 ], [ 280372.23, 4158743.0, 1.27 ], [ 280372.23, 4158743.0, 1.51 ], [ 280343.94, 4158666.72, 12.69 ], [ 280370.69, 4158699.84, 12.68 ], [ 280380.01, 4158706.84, 13.52 ], [ 280387.63, 4158717.69, 13.14 ], [ 280379.03, 4158707.82, 12.93 ], [ 280374.34, 4158701.77, 13.41 ], [ 280374.34, 4158701.77, 12.99 ], [ 280368.89, 4158701.07, 11.37 ], [ 280368.89, 4158701.07, 11.72 ], [ 280356.96, 4158718.94, 2.64 ], [ 280356.96, 4158718.94, 0.74 ], [ 280357.63, 4158718.26, 0.6 ], [ 280357.63, 4158718.26, 3.04 ], [ 280355.88, 4158720.89, 1.76 ], [ 280355.88, 4158720.89, 1.08 ], [ 280354.63, 4158720.3, 1.5 ], [ 280354.63, 4158720.3, 1.12 ], [ 280353.28, 4158719.62, 1.51 ], [ 280353.28, 4158719.62, 1.24 ], [ 280339.58, 4158696.56, 2.86 ], [ 280339.58, 4158696.56, 0.92 ], [ 280340.0, 4158696.03, 0.91 ], [ 280340.0, 4158696.03, 3.14 ], [ 280381.74, 4158753.66, 1.76 ], [ 280381.74, 4158753.66, 1.15 ], [ 280383.98, 4158750.31, 0.58 ], [ 280383.98, 4158750.31, 3.21 ], [ 280383.98, 4158750.31, 3.24 ], [ 280380.2, 4158752.97, 1.47 ], [ 280380.2, 4158752.97, 1.25 ], [ 280375.48, 4158740.5, 3.02 ], [ 280375.48, 4158740.5, 0.63 ], [ 280374.31, 4158738.85, 0.58 ], [ 280374.31, 4158738.85, 3.07 ], [ 280385.51, 4158748.02, 4.26 ], [ 280385.51, 4158748.02, 4.33 ], [ 280391.97, 4158749.41, 6.1 ], [ 280391.97, 4158749.41, 5.86 ], [ 280375.63, 4158750.04, 0.82 ], [ 280375.63, 4158750.04, 0.51 ], [ 280378.25, 4158750.64, 1.22 ], [ 280378.25, 4158750.64, 1.45 ], [ 280327.93, 4158686.6, 1.66 ], [ 280327.93, 4158686.6, 0.94 ], [ 280327.75, 4158688.26, 1.16 ], [ 280327.9, 4158690.05, 0.73 ], [ 280327.9, 4158690.05, 1.09 ], [ 280335.36, 4158698.49, 0.94 ], [ 280335.36, 4158698.49, 1.27 ], [ 280336.91, 4158700.24, 0.99 ], [ 280336.91, 4158700.24, 1.31 ], [ 280331.72, 4158686.41, 0.55 ], [ 280331.72, 4158686.41, 2.97 ], [ 280328.41, 4158688.99, 1.18 ], [ 280396.14, 4158754.49, 6.13 ], [ 280396.14, 4158754.49, 5.87 ], [ 280366.59, 4158729.42, 3.03 ], [ 280366.59, 4158729.42, 0.61 ], [ 280366.41, 4158729.34, 0.62 ], [ 280366.41, 4158729.34, 2.99 ], [ 280364.04, 4158731.55, 1.61 ], [ 280364.04, 4158731.55, 1.11 ], [ 280362.64, 4158730.49, 1.14 ], [ 280362.64, 4158730.49, 1.43 ], [ 280346.28, 4158711.9, 1.26 ], [ 280346.28, 4158711.9, 1.28 ], [ 280356.79, 4158717.26, 0.55 ], [ 280356.79, 4158717.26, 3.03 ], [ 280348.05, 4158706.63, 2.97 ], [ 280348.05, 4158706.63, 0.59 ], [ 280339.87, 4158696.61, 2.94 ], [ 280339.87, 4158696.61, 0.92 ], [ 280337.95, 4158699.64, 1.49 ], [ 280337.95, 4158699.64, 0.98 ], [ 280331.03, 4158685.38, 0.49 ], [ 280331.03, 4158685.38, 3.01 ], [ 280386.75, 4158719.16, 12.46 ], [ 280403.5, 4158751.52, 9.36 ], [ 280403.5, 4158751.52, 8.79 ], [ 280338.76, 4158696.42, 2.62 ], [ 280338.76, 4158696.42, 0.91 ], [ 280338.46, 4158696.36, 0.91 ], [ 280338.46, 4158696.36, 2.54 ], [ 280324.08, 4158682.93, 1.67 ], [ 280324.08, 4158682.93, 1.36 ], [ 280326.63, 4158686.88, 1.15 ], [ 280326.63, 4158686.88, 1.47 ], [ 280389.48, 4158764.36, 1.48 ], [ 280389.48, 4158764.36, 1.28 ], [ 280390.71, 4158763.2, 1.03 ], [ 280390.71, 4158763.2, 2.13 ], [ 280392.91, 4158761.71, 0.65 ], [ 280392.91, 4158761.71, 3.15 ], [ 280346.63, 4158711.25, 1.16 ], [ 280348.29, 4158708.16, 0.72 ], [ 280348.29, 4158708.16, 2.64 ], [ 280342.23, 4158668.11, 11.35 ], [ 280342.23, 4158668.11, 11.71 ], [ 280349.05, 4158707.9, 2.97 ], [ 280349.05, 4158707.9, 0.63 ], [ 280321.96, 4158684.66, 0.62 ], [ 280371.69, 4158699.63, 13.09 ], [ 280372.31, 4158699.14, 13.43 ], [ 280379.67, 4158752.33, 1.24 ], [ 280379.67, 4158752.33, 1.47 ], [ 280382.89, 4158749.66, 3.02 ], [ 280382.89, 4158749.66, 0.63 ], [ 280373.43, 4158741.57, 2.05 ], [ 280373.43, 4158741.57, 0.98 ], [ 280384.49, 4158749.55, 3.58 ], [ 280353.97, 4158719.55, 1.48 ], [ 280353.97, 4158719.55, 1.09 ], [ 280372.9, 4158749.41, 0.0 ], [ 280372.9, 4158749.41, 0.15 ], [ 280373.85, 4158749.63, 0.03 ], [ 280373.85, 4158749.63, 0.38 ], [ 280337.85, 4158696.7, 2.25 ], [ 280337.85, 4158696.7, 0.91 ], [ 280337.85, 4158696.78, 0.92 ], [ 280337.85, 4158696.78, 2.23 ], [ 280338.08, 4158696.63, 2.34 ], [ 280338.08, 4158696.63, 0.91 ], [ 280370.63, 4158741.08, 1.25 ], [ 280374.29, 4158748.59, 0.46 ], [ 280374.29, 4158748.59, 0.76 ] ], "f": [ [ [ 5, 148, 146, 145, 6 ] ], [ [ 156, 151, 150, 121, 10, 9, 14, 126 ] ], [ [ 110, 101, 100, 131, 108 ] ], [ [ 163, 82, 81, 86, 160 ] ], [ [ 38, 115, 114, 118, 119, 39 ] ], [ [ 168, 123, 68, 67, 71, 73 ] ], [ [ 154, 57, 58, 158, 159, 62, 65 ] ], [ [ 130, 106, 104, 175, 174, 178, 138, 137, 78, 77, 128 ] ], [ [ 107, 12, 8, 11, 122, 25, 28, 74, 29, 32, 45, 48, 54, 56, 49, 52, 170, 172, 181, 95, 98, 161, 85, 80, 84, 166, 91, 23, 21, 20, 94, 112, 135, 43, 42, 17, 16, 2, 3, 157, 140, 143, 33, 36, 103, 105 ], [ 149, 4, 7, 144, 147 ] ], [ [ 165, 55, 53, 179, 89, 88 ] ], [ [ 13, 106, 129, 127, 76, 79, 136, 139, 177, 173, 176, 104, 102, 35, 34, 142, 141, 153, 64, 63, 61, 59, 60, 133, 0, 1, 15, 18, 41, 44, 134, 111, 93, 19, 22, 24, 92, 166, 83, 162, 160, 97, 96, 180, 171, 169, 51, 50, 55, 164, 87, 90, 179, 53, 47, 46, 31, 30, 75, 27, 26, 152, 155, 125 ], [ 37, 40, 120, 117, 113, 116 ], [ 124, 167, 72, 70, 66, 69 ], [ 101, 110, 109, 132, 99 ] ], [ [ 4, 5, 6, 7 ] ], [ [ 8, 9, 10, 11 ] ], [ [ 12, 13, 14, 9, 8 ] ], [ [ 15, 16, 17, 18 ] ], [ [ 19, 20, 21, 22 ] ], [ [ 22, 21, 23, 24 ] ], [ [ 25, 26, 27, 28 ] ], [ [ 29, 30, 31, 32 ] ], [ [ 33, 34, 35, 36 ] ], [ [ 37, 38, 39, 40 ] ], [ [ 41, 42, 43, 44 ] ], [ [ 45, 46, 47, 48 ] ], [ [ 49, 50, 51, 52 ] ], [ [ 48, 47, 53, 54 ] ], [ [ 54, 53, 55, 56 ] ], [ [ 62, 63, 64, 65 ] ], [ [ 66, 67, 68, 69 ] ], [ [ 70, 71, 67, 66 ] ], [ [ 72, 73, 71, 70 ] ], [ [ 74, 75, 30, 29 ] ], [ [ 28, 27, 75, 74 ] ], [ [ 76, 77, 78, 79 ] ], [ [ 80, 81, 82, 83, 84 ] ], [ [ 85, 86, 81, 80 ] ], [ [ 87, 88, 89, 90 ] ], [ [ 24, 23, 91, 92 ] ], [ [ 93, 94, 20, 19 ] ], [ [ 95, 96, 97, 98 ] ], [ [ 99, 100, 101 ] ], [ [ 36, 35, 102, 103 ] ], [ [ 103, 102, 104, 105 ] ], [ [ 105, 104, 106, 107 ] ], [ [ 108, 109, 110 ] ], [ [ 111, 112, 94, 93 ] ], [ [ 18, 17, 42, 41 ] ], [ [ 113, 114, 115, 116 ] ], [ [ 117, 118, 114, 113 ] ], [ [ 40, 39, 119, 120 ] ], [ [ 11, 10, 121, 122 ] ], [ [ 69, 68, 123, 124 ] ], [ [ 125, 126, 14, 13 ] ], [ [ 127, 128, 77, 76 ] ], [ [ 129, 130, 128, 127 ] ], [ [ 109, 108, 131, 132 ] ], [ [ 132, 131, 100, 99 ] ], [ [ 134, 135, 112, 111 ] ], [ [ 44, 43, 135, 134 ] ], [ [ 136, 137, 138, 139 ] ], [ [ 79, 78, 137, 136 ] ], [ [ 140, 141, 142, 143 ] ], [ [ 144, 145, 146, 147 ] ], [ [ 7, 6, 145, 144 ] ], [ [ 147, 146, 148, 149 ] ], [ [ 149, 148, 5, 4 ] ], [ [ 26, 150, 151, 152 ] ], [ [ 122, 121, 150, 26, 25 ] ], [ [ 65, 64, 153, 154 ] ], [ [ 155, 156, 126, 125 ] ], [ [ 152, 151, 156, 155 ] ], [ [ 143, 142, 34, 33 ] ], [ [ 98, 97, 160, 161 ] ], [ [ 162, 163, 160 ] ], [ [ 161, 160, 86, 85 ] ], [ [ 164, 165, 88, 87 ] ], [ [ 83, 82, 163, 162 ] ], [ [ 92, 91, 166 ] ], [ [ 84, 83, 166 ] ], [ [ 32, 31, 46, 45 ] ], [ [ 120, 119, 118, 117 ] ], [ [ 116, 115, 38, 37 ] ], [ [ 167, 168, 73, 72 ] ], [ [ 124, 123, 168, 167 ] ], [ [ 52, 51, 169, 170 ] ], [ [ 170, 169, 171, 172 ] ], [ [ 173, 174, 175, 176 ] ], [ [ 176, 175, 104 ] ], [ [ 177, 178, 174, 173 ] ], [ [ 139, 138, 178, 177 ] ], [ [ 56, 55, 50, 49 ] ], [ [ 90, 89, 179 ] ], [ [ 130, 129, 106 ] ], [ [ 172, 171, 180, 181 ] ], [ [ 181, 180, 96, 95 ] ], [ [ 165, 164, 55 ] ], [ [ 107, 106, 13, 12 ] ] ] }, "roof_props": null, "wall_color": "cream", "type": "stadium", "landmark": null, "footprint_source": "osm", "source_updated": null, "is_part": false, "parent": null, "hidden": false, "addr": null, "wikidata": null, "website": null, "zoning": "R-4", "lidar_p90": 14.08, "ground_z": 64.57 }, "geometry": { "type": "Polygon", "coordinates": [ [ [ 280414.54, 4158753.78 ], [ 280414.76, 4158750.61 ], [ 280387.84, 4158717.82 ], [ 280387.77, 4158715.27 ], [ 280373.24, 4158697.36 ], [ 280371.29, 4158697.12 ], [ 280344.36, 4158664.23 ], [ 280316.55, 4158686.5 ], [ 280386.44, 4158773.42 ], [ 280414.54, 4158753.78 ] ] ] } },
{ "type": "Feature", "properties": { "id": "osm:way/563624577", "name": null, "height": 3.2, "min_height": 0.0, "levels": 1.0, "height_source": "osm_levels", "roof_shape": "gable", "roof_height": 3.06, "roof_azimuth": 114.7, "roof_source": "lod2", "roof_color": "slate", "roof_color_source": "ortho", "lod2_roof": { "v": [ [ 280489.17, 4158595.6, 0.96 ], [ 280489.17, 4158595.6, 0.96 ], [ 280488.72, 4158596.92, 1.72 ], [ 280488.72, 4158596.92, 1.72 ], [ 280481.39, 4158597.77, 0.0 ], [ 280482.82, 4158597.46, 0.1 ], [ 280488.81, 4158601.56, 1.63 ], [ 280484.14, 4158603.7, 1.6 ], [ 280485.3, 4158596.37, 0.19 ], [ 280485.3, 4158596.37, 0.86 ], [ 280487.07, 4158595.59, 2.43 ], [ 280493.72, 4158595.51, 1.02 ], [ 280491.69, 4158596.44, 1.04 ], [ 280486.46, 4158597.55, 1.39 ], [ 280487.83, 4158597.35, 1.71 ], [ 280487.83, 4158597.35, 2.48 ], [ 280487.75, 4158597.15, 1.55 ], [ 280487.75, 4158597.15, 2.48 ], [ 280490.17, 4158592.72, 0.0 ], [ 280487.3, 4158595.49, 2.24 ], [ 280493.34, 4158594.7, 1.73 ], [ 280483.1, 4158601.46, 2.97 ], [ 280490.78, 4158597.87, 3.06 ], [ 280490.78, 4158597.87, 0.33 ], [ 280493.12, 4158601.76, 0.56 ], [ 280492.07, 4158597.26, 0.32 ], [ 280490.59, 4158597.57, 2.79 ], [ 280490.59, 4158597.57, 0.61 ], [ 280491.58, 4158595.55, 1.72 ], [ 280489.64, 4158603.36, 0.53 ], [ 280493.17, 4158594.32, 1.41 ], [ 280487.07, 4158595.59, 2.43 ], [ 280487.53, 4158596.66, 2.46 ], [ 280487.75, 4158597.15, 2.48 ], [ 280486.56, 4158597.59, 1.45 ] ], "f": [ [ [ 27, 28, 20, 11, 12, 25, 23 ] ], [ [ 17, 32, 31, 19, 0, 3, 15 ] ], [ [ 34, 13, 9, 10, 32, 33 ] ], [ [ 22, 21, 4, 5, 8, 13, 34, 16, 14, 2, 1, 18, 30, 20, 28, 26 ] ], [ [ 21, 22, 24, 29, 6, 7 ] ], [ [ 0, 1, 2, 3 ] ], [ [ 8, 9, 13 ] ], [ [ 3, 2, 14, 15 ] ], [ [ 15, 14, 16, 17 ] ], [ [ 26, 27, 23, 22 ] ], [ [ 27, 26, 28 ] ], [ [ 10, 31, 32 ] ], [ [ 17, 33, 32 ] ], [ [ 33, 17, 16, 34 ] ] ] }, "roof_props": null, "wall_color": "brick_dark", "type": "house", "landmark": null, "footprint_source": "osm", "source_updated": null, "is_part": false, "parent": null, "hidden": false, "addr": "3210 Grant Street", "wikidata": null, "website": null, "zoning": "R-4", "lidar_p90": 6.09, "ground_z": 69.94 }, "geometry": { "type": "Polygon", "coordinates": [ [ [ 280480.84, 4158596.57 ], [ 280484.14, 4158603.7 ], [ 280488.8, 4158601.56 ], [ 280489.64, 4158603.36 ], [ 280493.97, 4158601.37 ], [ 280491.69, 4158596.44 ], [ 280493.72, 4158595.51 ], [ 280491.86, 4158591.51 ], [ 280480.84, 4158596.57 ] ] ] } },
{ "type": "Feature", "properties": { "id": "osm:way/563624573", "name": null, "height": 3.75, "min_height": 0.0, "levels": null, "height_source": "lidar", "roof_shape": "flat", "roof_height": 1.24, "roof_azimuth": null, "roof_source": "lod2", "roof_color": "roof_flat", "roof_color_source": "ortho", "lod2_roof": { "v": [ [ 280497.09, 4158610.29, 0.3 ], [ 280498.2, 4158609.68, 1.24 ], [ 280498.2, 4158609.68, 1.24 ], [ 280500.4, 4158614.21, 1.24 ], [ 280502.28, 4158613.41, 0.0 ], [ 280499.02, 4158614.79, 0.14 ], [ 280500.18, 4158608.58, 0.0 ] ], "f": [ [ [ 5, 0, 2, 3 ] ], [ [ 6, 4, 3, 1 ] ], [ [ 2, 1, 3 ] ] ] }, "roof_props": null, "wall_color": "terracotta", "type": "yes", "landmark": null, "footprint_source": "osm", "source_updated": null, "is_part": false, "parent": null, "hidden": false, "addr": null, "wikidata": null, "website": null, "zoning": "R-4", "lidar_p90": 4.02, "ground_z": 69.34 }, "geometry": { "type": "Polygon", "coordinates": [ [ [ 280496.41, 4158608.7 ], [ 280499.02, 4158614.79 ], [ 280502.9, 4158613.15 ], [ 280500.29, 4158607.05 ], [ 280496.41, 4158608.7 ] ] ] } },
{ "type": "Feature", "properties": { "id": "osm:way/367743014", "name": null, "height": 3.46, "min_height": 0.0, "levels": null, "height_source": "lidar", "roof_shape": "flat", "roof_height": 0.09, "roof_azimuth": null, "roof_source": "lod2", "roof_color": "roof_flat", "roof_color_source": "ortho", "lod2_roof": { "v": [ [ 280435.59, 4158759.18, 0.08 ], [ 280429.55, 4158751.74, 0.06 ], [ 280437.43, 4158745.39, 0.04 ], [ 280443.62, 4158752.71, 0.06 ], [ 280452.53, 4158763.68, 0.09 ], [ 280458.24, 4158759.09, 0.08 ], [ 280429.54, 4158735.69, 0.02 ], [ 280435.82, 4158730.2, 0.0 ] ], "f": [ [ [ 7, 5, 4, 3, 0, 1, 2, 6 ] ] ] }, "roof_props": null, "wall_color": "cream", "type": "stadium", "landmark": null, "footprint_source": "osm", "source_updated": null, "is_part": false, "parent": null, "hidden": false, "addr": null, "wikidata": null, "website": null, "zoning": "R-4", "lidar_p90": 4.1, "ground_z": 64.54 }, "geometry": { "type": "Polygon", "coordinates": [ [ [ 280435.91, 4158728.4 ], [ 280428.48, 4158734.38 ], [ 280437.43, 4158745.39 ], [ 280429.55, 4158751.74 ], [ 280435.59, 4158759.18 ], [ 280443.62, 4158752.71 ], [ 280452.53, 4158763.68 ], [ 280459.82, 4158757.82 ], [ 280435.91, 4158728.4 ] ] ] } }
]
}
