{
"type": "FeatureCollection",
"name": "buildings",
"crs": { "type": "name", "properties": { "name": "urn:ogc:def:crs:EPSG::32618" } },
"xy_coordinate_resolution": 0.01,
"features": [
{ "type": "Feature", "properties": { "id": "osm:way/755389289", "name": null, "height": 6.38, "min_height": 0.0, "levels": null, "height_source": "lidar", "roof_shape": "flat", "roof_height": 3.6, "roof_azimuth": null, "roof_source": "lod2", "roof_color": "roof_flat", "roof_color_source": "ortho", "lod2_roof": { "v": [ [ 284344.58, 4159794.77, 2.63 ], [ 284344.08, 4159794.79, 2.63 ], [ 284343.13, 4159773.5, 2.64 ], [ 284343.05, 4159771.58, 2.64 ], [ 284344.01, 4159771.56, 2.64 ], [ 284299.23, 4159786.72, 3.6 ], [ 284300.27, 4159786.73, 3.6 ], [ 284300.46, 4159789.08, 3.57 ], [ 284299.18, 4159789.18, 3.57 ], [ 284298.94, 4159786.95, 3.6 ], [ 284301.9, 4159794.92, 3.54 ], [ 284301.93, 4159796.15, 3.55 ], [ 284300.67, 4159796.47, 3.59 ], [ 284300.05, 4159795.54, 3.59 ], [ 284312.6, 4159802.4, 0.02 ], [ 284312.33, 4159796.38, 0.13 ], [ 284344.08, 4159794.79, 0.12 ], [ 284344.58, 4159794.77, 0.12 ], [ 284344.75, 4159801.59, 0.0 ], [ 284312.6, 4159802.4, 2.14 ], [ 284292.14, 4159802.91, 2.17 ], [ 284291.45, 4159775.49, 1.95 ], [ 284297.33, 4159774.41, 1.94 ], [ 284297.53, 4159775.83, 1.95 ], [ 284343.13, 4159773.5, 1.88 ], [ 284344.08, 4159794.79, 2.05 ], [ 284312.33, 4159796.38, 2.1 ], [ 284298.94, 4159786.95, 2.04 ], [ 284299.18, 4159789.18, 2.05 ], [ 284300.46, 4159789.08, 2.05 ], [ 284300.27, 4159786.73, 2.03 ], [ 284299.23, 4159786.72, 2.04 ], [ 284301.93, 4159796.15, 2.11 ], [ 284301.9, 4159794.92, 2.1 ], [ 284300.05, 4159795.54, 2.1 ], [ 284300.67, 4159796.47, 2.11 ] ], "f": [ [ [ 0, 1, 2, 3, 4 ] ], [ [ 5, 6, 7, 8, 9 ] ], [ [ 10, 11, 12, 13 ] ], [ [ 14, 15, 16, 17, 18 ] ], [ [ 19, 20, 21, 22, 23, 24, 25, 26 ], [ 27, 28, 29, 30, 31 ], [ 32, 33, 34, 35 ] ], [ [ 8, 28, 27, 9 ] ], [ [ 7, 29, 28, 8 ] ], [ [ 1, 25, 24, 2 ] ], [ [ 0, 17, 16, 25, 1 ] ], [ [ 12, 35, 34, 13 ] ], [ [ 13, 34, 33, 10 ] ], [ [ 9, 27, 31, 5 ] ], [ [ 6, 30, 29, 7 ] ], [ [ 5, 31, 30, 6 ] ], [ [ 11, 32, 35, 12 ] ], [ [ 10, 33, 32, 11 ] ], [ [ 25, 16, 15, 26 ] ], [ [ 26, 15, 14, 19 ] ] ] }, "roof_props": null, "wall_color": "cream", "wall_color_source": "assessor", "type": "yes", "landmark": null, "footprint_source": "osm", "source_updated": null, "is_part": false, "parent": null, "hidden": false, "addr": "710 School Street", "wikidata": null, "website": null, "zoning": "M-1", "lidar_p90": 7.75, "ground_z": 46.54 }, "geometry": { "type": "Polygon", "coordinates": [ [ [ 284344.01, 4159771.56 ], [ 284291.39, 4159772.88 ], [ 284292.14, 4159802.91 ], [ 284344.75, 4159801.59 ], [ 284344.01, 4159771.56 ] ] ] } },
{ "type": "Feature", "properties": { "id": "osm:way/755389379", "name": null, "height": 4.77, "min_height": 0.0, "levels": null, "height_source": "lidar", "roof_shape": "flat", "roof_height": 3.73, "roof_azimuth": null, "roof_source": "lod2", "roof_color": "roof_flat", "roof_color_source": "ortho", "lod2_roof": { "v": [ [ 284288.81, 4159778.6, 3.69 ], [ 284285.4, 4159781.73, 3.71 ], [ 284284.6, 4159780.83, 3.73 ], [ 284287.19, 4159778.16, 3.72 ], [ 284287.86, 4159777.47, 3.72 ], [ 284287.92, 4159777.4, 3.72 ], [ 284290.45, 4159774.98, 0.0 ], [ 284291.53, 4159808.08, 0.02 ], [ 284278.32, 4159808.41, 0.08 ], [ 284277.76, 4159785.81, 0.07 ], [ 284278.91, 4159785.78, 0.06 ], [ 284282.43, 4159784.72, 0.05 ], [ 284283.01, 4159783.62, 0.04 ], [ 284283.32, 4159783.61, 0.04 ], [ 284283.21, 4159779.25, 0.04 ], [ 284284.6, 4159780.83, 0.03 ], [ 284285.4, 4159781.73, 0.03 ], [ 284288.81, 4159778.6, 0.01 ], [ 284287.92, 4159777.4, 0.01 ], [ 284291.42, 4159774.05, 1.54 ], [ 284292.21, 4159808.06, 1.9 ], [ 284291.53, 4159808.08, 2.38 ], [ 284290.45, 4159774.98, 2.24 ] ], "f": [ [ [ 0, 1, 2, 3, 4, 5 ] ], [ [ 6, 7, 8, 9, 10, 11, 12, 13, 14, 15, 16, 17, 18 ] ], [ [ 19, 20, 21, 22 ] ], [ [ 1, 16, 15, 2 ] ], [ [ 5, 18, 17, 0 ] ], [ [ 0, 17, 16, 1 ] ], [ [ 21, 7, 6, 22 ] ] ] }, "roof_props": null, "wall_color": "concrete", "wall_color_source": "assessor", "type": "yes", "landmark": null, "footprint_source": "osm", "source_updated": null, "is_part": false, "parent": null, "hidden": false, "addr": "1811 Chamberlayne Parkway", "wikidata": null, "website": null, "zoning": "M-1", "lidar_p90": 7.08, "ground_z": 46.39 }, "geometry": { "type": "Polygon", "coordinates": [ [ [ 284291.39, 4159772.88 ], [ 284283.05, 4159772.62 ], [ 284283.32, 4159783.61 ], [ 284277.7, 4159783.76 ], [ 284278.32, 4159808.41 ], [ 284292.21, 4159808.06 ], [ 284291.39, 4159772.88 ] ] ] } },
{ "type": "Feature", "properties": { "id": "osm:way/755389422", "name": null, "height": 3.78, "min_height": 0.0, "levels": null, "height_source": "lidar", "roof_shape": "flat", "roof_height": 0.68, "roof_azimuth": null, "roof_source": "lod2", "roof_color": "roof_dark", "roof_color_source": "heuristic", "lod2_roof": { "v": [ [ 284349.27, 4159802.86, 0.0 ], [ 284349.41, 4159805.98, 0.09 ], [ 284345.5, 4159806.16, 0.68 ], [ 284345.36, 4159803.03, 0.59 ] ], "f": [ [ [ 0, 1, 2, 3 ] ] ] }, "roof_props": null, "wall_color": "brick", "wall_color_source": "assessor", "type": "yes", "landmark": null, "footprint_source": "osm", "source_updated": null, "is_part": false, "parent": null, "hidden": false, "addr": null, "wikidata": null, "website": null, "zoning": "M-1", "lidar_p90": 5.25, "ground_z": 45.94 }, "geometry": { "type": "Polygon", "coordinates": [ [ [ 284349.41, 4159805.98 ], [ 284349.27, 4159802.86 ], [ 284345.36, 4159803.03 ], [ 284345.5, 4159806.16 ], [ 284349.41, 4159805.98 ] ] ] } },
{ "type": "Feature", "properties": { "id": "osm:way/755389291", "name": null, "height": 5.28, "min_height": 0.0, "levels": null, "height_source": "lidar", "roof_shape": "flat", "roof_height": 0.65, "roof_azimuth": null, "roof_source": "lod2", "roof_color": "roof_flat", "roof_color_source": "ortho", "lod2_roof": { "v": [ [ 284420.64, 4159800.22, 0.65 ], [ 284465.56, 4159798.05, 0.62 ], [ 284466.67, 4159815.19, 0.61 ], [ 284421.46, 4159817.35, 0.64 ], [ 284465.56, 4159798.05, 0.03 ], [ 284474.25, 4159797.63, 0.02 ], [ 284475.18, 4159817.24, 0.0 ], [ 284472.24, 4159820.2, 0.01 ], [ 284467.31, 4159820.39, 0.02 ], [ 284467.07, 4159815.17, 0.02 ], [ 284466.67, 4159815.19, 0.02 ] ], "f": [ [ [ 0, 1, 2, 3 ] ], [ [ 4, 5, 6, 7, 8, 9, 10 ] ], [ [ 1, 4, 10, 2 ] ] ] }, "roof_props": null, "wall_color": "brick", "wall_color_source": "heuristic", "type": "yes", "landmark": null, "footprint_source": "osm", "source_updated": null, "is_part": false, "parent": null, "hidden": false, "addr": "1809 Roane Street", "wikidata": null, "website": null, "zoning": "M-1", "lidar_p90": 5.8, "ground_z": 45.83 }, "geometry": { "type": "Polygon", "coordinates": [ [ [ 284467.31, 4159820.39 ], [ 284472.24, 4159820.2 ], [ 284475.18, 4159817.24 ], [ 284474.17, 4159795.88 ], [ 284420.55, 4159798.45 ], [ 284421.46, 4159817.35 ], [ 284467.07, 4159815.17 ], [ 284467.31, 4159820.39 ] ] ] } },
{ "type": "Feature", "properties": { "id": "osm:way/755389681", "name": null, "height": 8.0, "min_height": 0.0, "levels": null, "height_source": "zoning", "roof_shape": "flat", "roof_height": 0.0, "roof_azimuth": null, "roof_source": "heuristic", "roof_color": "roof_flat", "roof_color_source": "heuristic", "lod2_roof": null, "roof_props": null, "wall_color": "terracotta", "wall_color_source": "heuristic", "type": "yes", "landmark": null, "footprint_source": "osm", "source_updated": null, "is_part": false, "parent": null, "hidden": false, "addr": null, "wikidata": null, "website": null, "zoning": "M-1", "lidar_p90": 1.31, "ground_z": 45.85 }, "geometry": { "type": "Polygon", "coordinates": [ [ [ 284490.23, 4159837.51 ], [ 284489.98, 4159831.9 ], [ 284482.8, 4159832.22 ], [ 284483.04, 4159837.82 ], [ 284490.23, 4159837.51 ] ] ] } },
{ "type": "Feature", "properties": { "id": "osm:way/755389290", "name": null, "height": 5.14, "min_height": 0.0, "levels": null, "height_source": "lidar", "roof_shape": "flat", "roof_height": 4.23, "roof_azimuth": null, "roof_source": "lod2", "roof_color": "roof_flat", "roof_color_source": "ortho", "lod2_roof": { "v": [ [ 284466.08, 4159867.02, 4.22 ], [ 284465.65, 4159863.26, 4.19 ], [ 284472.09, 4159862.87, 4.2 ], [ 284472.07, 4159866.18, 4.23 ], [ 284471.41, 4159836.15, 1.32 ], [ 284472.74, 4159862.83, 1.32 ], [ 284472.9, 4159866.07, 1.32 ], [ 284473.51, 4159865.98, 1.32 ], [ 284473.71, 4159870.31, 1.32 ], [ 284473.18, 4159871.69, 1.32 ], [ 284473.67, 4159881.48, 1.32 ], [ 284451.6, 4159882.49, 1.32 ], [ 284450.49, 4159864.7, 1.32 ], [ 284435.5, 4159865.25, 1.33 ], [ 284433.88, 4159839.05, 1.33 ], [ 284465.65, 4159863.26, 1.32 ], [ 284466.08, 4159867.02, 1.32 ], [ 284472.07, 4159866.18, 1.32 ], [ 284472.09, 4159862.87, 1.32 ], [ 284423.61, 4159851.82, 0.38 ], [ 284425.69, 4159851.74, 0.38 ], [ 284425.93, 4159849.21, 0.38 ], [ 284425.86, 4159848.8, 0.38 ], [ 284425.47, 4159846.57, 0.38 ], [ 284426.6, 4159846.52, 0.38 ], [ 284426.37, 4159841.49, 0.38 ], [ 284426.69, 4159841.46, 0.38 ], [ 284426.94, 4159838.88, 0.39 ], [ 284433.85, 4159838.56, 0.38 ], [ 284433.88, 4159839.05, 0.38 ], [ 284435.5, 4159865.25, 0.36 ], [ 284450.49, 4159864.7, 0.34 ], [ 284451.6, 4159882.49, 0.33 ], [ 284424.98, 4159883.72, 0.35 ], [ 284473.71, 4159870.31, 0.0 ], [ 284473.18, 4159871.69, 0.0 ], [ 284472.9, 4159866.07, 0.0 ], [ 284473.51, 4159865.98, 0.0 ], [ 284473.67, 4159881.48, 0.0 ], [ 284472.74, 4159862.83, 0.0 ], [ 284425.93, 4159849.21, 0.0 ], [ 284425.86, 4159848.8, 0.0 ], [ 284425.69, 4159851.74, 0.0 ], [ 284423.61, 4159851.82, 0.0 ] ], "f": [ [ [ 0, 1, 2, 3 ] ], [ [ 4, 5, 6, 7, 8, 9, 10, 11, 12, 13, 14 ], [ 15, 16, 17, 18 ] ], [ [ 19, 20, 21, 22, 23, 24, 25, 26, 27, 28, 29, 30, 31, 32, 33 ] ], [ [ 8, 34, 35, 9 ] ], [ [ 6, 36, 37, 7 ] ], [ [ 9, 35, 38, 10 ] ], [ [ 11, 32, 31, 12 ] ], [ [ 13, 30, 29, 14 ] ], [ [ 12, 31, 30, 13 ] ], [ [ 3, 17, 16, 0 ] ], [ [ 1, 15, 18, 2 ] ], [ [ 2, 18, 17, 3 ] ], [ [ 0, 16, 15, 1 ] ], [ [ 5, 39, 36, 6 ] ], [ [ 21, 40, 41, 22 ] ], [ [ 20, 42, 40, 21 ] ], [ [ 19, 43, 42, 20 ] ] ] }, "roof_props": null, "wall_color": "terracotta", "wall_color_source": "heuristic", "type": "yes", "landmark": null, "footprint_source": "osm", "source_updated": null, "is_part": false, "parent": null, "hidden": false, "addr": "1901 Roane Street", "wikidata": null, "website": null, "zoning": "M-1", "lidar_p90": 5.86, "ground_z": 47.54 }, "geometry": { "type": "Polygon", "coordinates": [ [ [ 284426.25, 4159838.91 ], [ 284426.6, 4159846.52 ], [ 284422.79, 4159846.7 ], [ 284422.96, 4159850.53 ], [ 284423.56, 4159850.5 ], [ 284424.98, 4159883.72 ], [ 284474.23, 4159881.45 ], [ 284472.12, 4159835.76 ], [ 284434.88, 4159837.47 ], [ 284434.99, 4159838.51 ], [ 284426.25, 4159838.91 ] ] ] } },
{ "type": "Feature", "properties": { "id": "osm:way/755389387", "name": null, "height": 5.77, "min_height": 0.0, "levels": null, "height_source": "lidar", "roof_shape": "flat", "roof_height": 1.21, "roof_azimuth": null, "roof_source": "lod2", "roof_color": "slate", "roof_color_source": "ortho", "lod2_roof": { "v": [ [ 284445.6, 4159926.32, 1.02 ], [ 284445.74, 4159926.3, 1.02 ], [ 284445.78, 4159925.75, 1.15 ], [ 284447.0, 4159926.19, 1.01 ], [ 284446.92, 4159927.65, 0.67 ], [ 284445.92, 4159927.84, 0.66 ], [ 284433.35, 4159906.62, 0.98 ], [ 284433.48, 4159908.23, 1.0 ], [ 284431.83, 4159907.76, 1.12 ], [ 284432.02, 4159906.19, 1.08 ], [ 284442.46, 4159919.83, 1.17 ], [ 284444.77, 4159920.53, 0.94 ], [ 284445.14, 4159921.62, 0.91 ], [ 284442.19, 4159922.08, 1.2 ], [ 284442.19, 4159920.41, 1.2 ], [ 284442.08, 4159920.0, 1.21 ], [ 284459.05, 4159904.37, 0.01 ], [ 284459.76, 4159917.45, 0.0 ], [ 284459.29, 4159917.45, 0.0 ], [ 284459.35, 4159918.68, 0.0 ], [ 284459.83, 4159918.68, 0.0 ], [ 284460.6, 4159932.8, 0.0 ], [ 284430.01, 4159934.64, 0.01 ], [ 284428.46, 4159906.03, 0.02 ], [ 284450.36, 4159909.13, 0.01 ], [ 284448.73, 4159908.81, 0.01 ], [ 284446.93, 4159910.11, 0.01 ], [ 284448.75, 4159911.25, 0.01 ], [ 284450.22, 4159910.6, 0.01 ], [ 284450.11, 4159910.22, 0.01 ], [ 284432.37, 4159925.13, 0.01 ], [ 284435.17, 4159924.62, 0.01 ], [ 284434.72, 4159922.65, 0.01 ], [ 284431.2, 4159923.88, 0.01 ], [ 284442.08, 4159920.0, 0.01 ], [ 284442.19, 4159920.41, 0.01 ], [ 284442.19, 4159922.08, 0.01 ], [ 284445.14, 4159921.62, 0.01 ], [ 284444.77, 4159920.53, 0.01 ], [ 284442.46, 4159919.83, 0.01 ], [ 284445.74, 4159926.3, 0.01 ], [ 284445.6, 4159926.32, 0.01 ], [ 284445.92, 4159927.84, 0.01 ], [ 284446.92, 4159927.65, 0.01 ], [ 284447.0, 4159926.19, 0.01 ], [ 284445.78, 4159925.75, 0.01 ], [ 284433.48, 4159908.23, 0.02 ], [ 284433.35, 4159906.62, 0.02 ], [ 284432.02, 4159906.19, 0.02 ], [ 284431.83, 4159907.76, 0.02 ], [ 284448.73, 4159908.81, 1.03 ], [ 284450.36, 4159909.13, 1.12 ], [ 284450.11, 4159910.22, 1.12 ], [ 284450.22, 4159910.6, 1.14 ], [ 284448.75, 4159911.25, 1.06 ], [ 284446.93, 4159910.11, 0.94 ], [ 284435.17, 4159924.62, 1.14 ], [ 284432.37, 4159925.13, 1.02 ], [ 284431.2, 4159923.88, 0.94 ], [ 284434.72, 4159922.65, 1.08 ] ], "f": [ [ [ 0, 1, 2, 3, 4, 5 ] ], [ [ 6, 7, 8, 9 ] ], [ [ 10, 11, 12, 13, 14, 15 ] ], [ [ 16, 17, 18, 19, 20, 21, 22, 23 ], [ 24, 25, 26, 27, 28, 29 ], [ 30, 31, 32, 33 ], [ 34, 35, 36, 37, 38, 39 ], [ 40, 41, 42, 43, 44, 45 ], [ 46, 47, 48, 49 ] ], [ [ 50, 51, 52, 53, 54, 55 ] ], [ [ 56, 57, 58, 59 ] ], [ [ 55, 26, 25, 50 ] ], [ [ 57, 30, 33, 58 ] ], [ [ 14, 35, 34, 15 ] ], [ [ 15, 34, 39, 10 ] ], [ [ 3, 44, 43, 4 ] ], [ [ 4, 43, 42, 5 ] ], [ [ 12, 37, 36, 13 ] ], [ [ 11, 38, 37, 12 ] ], [ [ 8, 49, 48, 9 ] ], [ [ 53, 28, 27, 54 ] ], [ [ 59, 32, 31, 56 ] ], [ [ 13, 36, 35, 14 ] ], [ [ 2, 45, 44, 3 ] ], [ [ 5, 42, 41, 0 ] ], [ [ 1, 40, 45, 2 ] ], [ [ 0, 41, 40, 1 ] ], [ [ 52, 29, 28, 53 ] ], [ [ 9, 48, 47, 6 ] ], [ [ 51, 24, 29, 52 ] ], [ [ 7, 46, 49, 8 ] ], [ [ 58, 33, 32, 59 ] ], [ [ 6, 47, 46, 7 ] ], [ [ 10, 39, 38, 11 ] ], [ [ 54, 27, 26, 55 ] ], [ [ 50, 25, 24, 51 ] ], [ [ 56, 31, 30, 57 ] ] ] }, "roof_props": null, "wall_color": "concrete", "wall_color_source": "heuristic", "type": "yes", "landmark": null, "footprint_source": "osm", "source_updated": null, "is_part": false, "parent": null, "hidden": false, "addr": "2003 Roane Street", "wikidata": null, "website": null, "zoning": "M-1", "lidar_p90": 6.58, "ground_z": 47.01 }, "geometry": { "type": "Polygon", "coordinates": [ [ [ 284460.6, 4159932.8 ], [ 284458.94, 4159902.46 ], [ 284428.35, 4159904.12 ], [ 284430.01, 4159934.64 ], [ 284460.6, 4159932.8 ] ] ] } },
{ "type": "Feature", "properties": { "id": "osm:way/755389304", "name": null, "height": 4.17, "min_height": 0.0, "levels": null, "height_source": "lidar", "roof_shape": "flat", "roof_height": 0.26, "roof_azimuth": null, "roof_source": "lod2", "roof_color": "roof_flat", "roof_color_source": "ortho", "lod2_roof": { "v": [ [ 284295.8, 4159859.02, 0.0 ], [ 284280.72, 4159859.65, 0.26 ], [ 284280.39, 4159851.91, 0.25 ], [ 284284.03, 4159850.67, 0.19 ], [ 284284.58, 4159851.97, 0.18 ], [ 284295.57, 4159851.96, 0.0 ] ], "f": [ [ [ 0, 1, 2, 3, 4, 5 ] ] ] }, "roof_props": null, "wall_color": "cream", "wall_color_source": "assessor", "type": "yes", "landmark": null, "footprint_source": "osm", "source_updated": null, "is_part": false, "parent": null, "hidden": false, "addr": "1901 Chamberlayne Parkway", "wikidata": null, "website": null, "zoning": "M-1", "lidar_p90": 4.34, "ground_z": 47.11 }, "geometry": { "type": "Polygon", "coordinates": [ [ [ 284296.09, 4159850.06 ], [ 284285.05, 4159850.54 ], [ 284284.99, 4159849.17 ], [ 284280.29, 4159849.37 ], [ 284280.72, 4159859.65 ], [ 284296.47, 4159858.99 ], [ 284296.09, 4159850.06 ] ] ] } },
{ "type": "Feature", "properties": { "id": "osm:way/755389429", "name": null, "height": 14.0, "min_height": 0.0, "levels": null, "height_source": "zoning", "roof_shape": "flat", "roof_height": 0.0, "roof_azimuth": null, "roof_source": "heuristic", "roof_color": "roof_dark", "roof_color_source": "heuristic", "lod2_roof": null, "roof_props": null, "wall_color": "cream", "wall_color_source": "heuristic", "type": "yes", "landmark": null, "footprint_source": "osm", "source_updated": null, "is_part": false, "parent": null, "hidden": false, "addr": null, "wikidata": null, "website": null, "zoning": "B-7", "lidar_p90": 0.01, "ground_z": 47.4 }, "geometry": { "type": "Polygon", "coordinates": [ [ [ 284307.31, 4159870.09 ], [ 284295.07, 4159870.75 ], [ 284295.19, 4159873.17 ], [ 284307.43, 4159872.51 ], [ 284307.31, 4159870.09 ] ] ] } },
{ "type": "Feature", "properties": { "id": "osm:way/755389411", "name": null, "height": 5.34, "min_height": 0.0, "levels": null, "height_source": "overture_height", "roof_shape": "flat", "roof_height": 0.0, "roof_azimuth": null, "roof_source": "heuristic", "roof_color": "roof_flat", "roof_color_source": "ortho", "lod2_roof": null, "roof_props": null, "wall_color": "sand", "wall_color_source": "heuristic", "type": "yes", "landmark": null, "footprint_source": "osm", "source_updated": null, "is_part": false, "parent": null, "hidden": false, "addr": "1903 Chamberlayne Parkway", "wikidata": null, "website": null, "zoning": "B-7", "lidar_p90": 2.27, "ground_z": 47.58 }, "geometry": { "type": "Polygon", "coordinates": [ [ [ 284297.24, 4159891.35 ], [ 284358.05, 4159889.27 ], [ 284357.48, 4159872.55 ], [ 284289.92, 4159874.87 ], [ 284290.55, 4159893.14 ], [ 284297.29, 4159892.91 ], [ 284297.24, 4159891.35 ] ] ] } },
{ "type": "Feature", "properties": { "id": "osm:way/755389307", "name": null, "height": 2.67, "min_height": 0.0, "levels": null, "height_source": "lidar", "roof_shape": "gable", "roof_height": 2.44, "roof_azimuth": 93.5, "roof_source": "lod2", "roof_color": "roof_flat", "roof_color_source": "ortho", "lod2_roof": { "v": [ [ 284260.68, 4159970.42, 0.17 ], [ 284260.95, 4159972.95, 0.28 ], [ 284261.17, 4159975.07, 0.37 ], [ 284259.65, 4159974.52, 0.22 ], [ 284272.31, 4159971.74, 2.41 ], [ 284260.95, 4159972.95, 2.44 ], [ 284260.68, 4159970.42, 1.12 ], [ 284267.8, 4159969.68, 1.11 ], [ 284271.8, 4159969.27, 1.11 ], [ 284271.98, 4159970.12, 1.56 ], [ 284272.6, 4159970.35, 1.71 ], [ 284272.59, 4159971.72, 2.41 ], [ 284271.98, 4159970.12, 0.1 ], [ 284271.8, 4159969.27, 0.07 ], [ 284267.8, 4159969.68, 0.08 ], [ 284268.27, 4159967.61, 0.03 ], [ 284268.83, 4159967.53, 0.03 ], [ 284268.77, 4159967.01, 0.01 ], [ 284274.05, 4159966.5, 0.0 ], [ 284274.72, 4159977.51, 0.29 ], [ 284272.29, 4159977.78, 0.3 ], [ 284271.91, 4159978.91, 0.33 ], [ 284261.82, 4159975.3, 0.23 ], [ 284272.8, 4159974.11, 0.2 ], [ 284272.31, 4159971.74, 0.14 ], [ 284272.59, 4159971.72, 0.14 ], [ 284272.6, 4159970.35, 0.1 ], [ 284272.8, 4159974.11, 1.17 ], [ 284261.82, 4159975.3, 1.18 ], [ 284261.17, 4159975.07, 1.34 ] ], "f": [ [ [ 0, 1, 2, 3 ] ], [ [ 4, 5, 6, 7, 8, 9, 10, 11 ] ], [ [ 12, 13, 14, 15, 16, 17, 18, 19, 20, 21, 22, 23, 24, 25, 26 ] ], [ [ 5, 4, 27, 28, 29 ] ], [ [ 4, 24, 23, 27 ] ], [ [ 11, 25, 24, 4 ] ], [ [ 29, 2, 1, 5 ] ], [ [ 27, 23, 22, 28 ] ], [ [ 9, 12, 26, 10 ] ], [ [ 10, 26, 25, 11 ] ], [ [ 5, 1, 0, 6 ] ], [ [ 7, 14, 13, 8 ] ], [ [ 8, 13, 12, 9 ] ] ] }, "roof_props": null, "wall_color": "concrete", "wall_color_source": "heuristic", "type": "yes", "landmark": null, "footprint_source": "osm", "source_updated": null, "is_part": false, "parent": null, "hidden": false, "addr": "2005 Chamberlayne Parkway", "wikidata": null, "website": null, "zoning": "M-1", "lidar_p90": 5.1, "ground_z": 48.33 }, "geometry": { "type": "Polygon", "coordinates": [ [ [ 284273.94, 4159964.68 ], [ 284268.6, 4159965.49 ], [ 284268.83, 4159967.53 ], [ 284261.14, 4159968.6 ], [ 284259.65, 4159974.52 ], [ 284271.91, 4159978.91 ], [ 284272.29, 4159977.78 ], [ 284274.72, 4159977.51 ], [ 284273.94, 4159964.68 ] ] ] } },
{ "type": "Feature", "properties": { "id": "osm:way/755389388", "name": null, "height": 3.47, "min_height": 0.0, "levels": null, "height_source": "lidar", "roof_shape": "flat", "roof_height": 0.4, "roof_azimuth": null, "roof_source": "lod2", "roof_color": "roof_flat", "roof_color_source": "ortho", "lod2_roof": { "v": [ [ 284255.95, 4159990.61, 0.39 ], [ 284259.88, 4159978.48, 0.4 ], [ 284271.25, 4159982.38, 0.08 ], [ 284270.79, 4159983.81, 0.08 ], [ 284273.07, 4159984.56, 0.02 ], [ 284269.95, 4159995.14, 0.0 ] ], "f": [ [ [ 0, 1, 2, 3, 4, 5 ] ] ] }, "roof_props": null, "wall_color": "brick", "wall_color_source": "heuristic", "type": "yes", "landmark": null, "footprint_source": "osm", "source_updated": null, "is_part": false, "parent": null, "hidden": false, "addr": "2007 Chamberlayne Parkway", "wikidata": null, "website": null, "zoning": "M-1", "lidar_p90": 3.65, "ground_z": 48.48 }, "geometry": { "type": "Polygon", "coordinates": [ [ [ 284269.95, 4159995.14 ], [ 284273.07, 4159984.56 ], [ 284270.79, 4159983.82 ], [ 284271.92, 4159980.3 ], [ 284260.49, 4159976.6 ], [ 284255.95, 4159990.61 ], [ 284269.95, 4159995.14 ] ] ] } },
{ "type": "Feature", "properties": { "id": "osm:way/755389674", "name": null, "height": 6.07, "min_height": 0.0, "levels": null, "height_source": "lidar", "roof_shape": "flat", "roof_height": 0.03, "roof_azimuth": null, "roof_source": "lod2", "roof_color": "roof_flat", "roof_color_source": "ortho", "lod2_roof": { "v": [ [ 284361.54, 4159997.68, 0.03 ], [ 284361.14, 4159988.92, 0.01 ], [ 284375.95, 4159988.38, 0.0 ], [ 284376.16, 4159997.01, 0.02 ] ], "f": [ [ [ 0, 1, 2, 3 ] ] ] }, "roof_props": null, "wall_color": "concrete", "wall_color_source": "heuristic", "type": "yes", "landmark": null, "footprint_source": "osm", "source_updated": null, "is_part": false, "parent": null, "hidden": false, "addr": null, "wikidata": null, "website": null, "zoning": "M-1", "lidar_p90": 6.14, "ground_z": 47.56 }, "geometry": { "type": "Polygon", "coordinates": [ [ [ 284376.11, 4159986.57 ], [ 284361.07, 4159987.27 ], [ 284361.54, 4159997.68 ], [ 284376.6, 4159996.99 ], [ 284376.11, 4159986.57 ] ] ] } },
{ "type": "Feature", "properties": { "id": "osm:way/755389427", "name": null, "height": 3.29, "min_height": 0.0, "levels": null, "height_source": "lidar", "roof_shape": "flat", "roof_height": 0.03, "roof_azimuth": null, "roof_source": "lod2", "roof_color": "roof_flat", "roof_color_source": "ortho", "lod2_roof": { "v": [ [ 284309.44, 4159994.08, 0.03 ], [ 284315.7, 4159994.14, 0.03 ], [ 284315.92, 4159999.23, 0.0 ], [ 284309.67, 4159999.49, 0.0 ] ], "f": [ [ [ 0, 1, 2, 3 ] ] ] }, "roof_props": null, "wall_color": "terracotta", "wall_color_source": "heuristic", "type": "yes", "landmark": null, "footprint_source": "osm", "source_updated": null, "is_part": false, "parent": null, "hidden": false, "addr": null, "wikidata": null, "website": null, "zoning": "B-7", "lidar_p90": 3.32, "ground_z": 48.66 }, "geometry": { "type": "Polygon", "coordinates": [ [ [ 284315.62, 4159992.18 ], [ 284309.37, 4159992.44 ], [ 284309.67, 4159999.5 ], [ 284315.92, 4159999.23 ], [ 284315.62, 4159992.18 ] ] ] } },
{ "type": "Feature", "properties": { "id": "osm:way/755389456", "name": null, "height": 6.1, "min_height": 0.0, "levels": null, "height_source": "lidar", "roof_shape": "flat", "roof_height": 0.0, "roof_azimuth": null, "roof_source": "heuristic", "roof_color": "roof_flat", "roof_color_source": "ortho", "lod2_roof": null, "roof_props": null, "wall_color": "terracotta", "wall_color_source": "heuristic", "type": "yes", "landmark": null, "footprint_source": "osm", "source_updated": null, "is_part": false, "parent": null, "hidden": false, "addr": "2009 Chamberlayne Parkway", "wikidata": null, "website": null, "zoning": "M-1", "lidar_p90": 11.37, "ground_z": 48.65 }, "geometry": { "type": "Polygon", "coordinates": [ [ [ 284252.07, 4160002.6 ], [ 284268.14, 4160007.8 ], [ 284272.02, 4159995.81 ], [ 284255.95, 4159990.61 ], [ 284252.07, 4160002.6 ] ] ] } },
{ "type": "Feature", "properties": { "id": "osm:way/755389403", "name": null, "height": 4.38, "min_height": 0.0, "levels": null, "height_source": "lidar", "roof_shape": "flat", "roof_height": 2.16, "roof_azimuth": null, "roof_source": "lod2", "roof_color": "concrete", "roof_color_source": "ortho", "lod2_roof": { "v": [ [ 284452.24, 4159935.12, 0.08 ], [ 284452.82, 4159945.61, 0.0 ], [ 284428.71, 4159946.92, 0.03 ], [ 284428.13, 4159936.27, 0.11 ], [ 284452.15, 4159933.44, 2.12 ], [ 284452.24, 4159935.12, 2.16 ], [ 284428.13, 4159936.27, 2.16 ], [ 284428.04, 4159934.75, 2.13 ] ], "f": [ [ [ 0, 1, 2, 3 ] ], [ [ 4, 5, 6, 7 ] ], [ [ 5, 0, 3, 6 ] ] ] }, "roof_props": null, "wall_color": "terracotta", "wall_color_source": "heuristic", "type": "yes", "landmark": null, "footprint_source": "osm", "source_updated": null, "is_part": false, "parent": null, "hidden": false, "addr": "2005 Roane Street", "wikidata": null, "website": null, "zoning": "M-1", "lidar_p90": 5.12, "ground_z": 46.41 }, "geometry": { "type": "Polygon", "coordinates": [ [ [ 284452.15, 4159933.44 ], [ 284428.04, 4159934.76 ], [ 284428.71, 4159946.92 ], [ 284452.82, 4159945.62 ], [ 284452.15, 4159933.44 ] ] ] } },
{ "type": "Feature", "properties": { "id": "osm:way/755389734", "name": null, "height": 4.96, "min_height": 0.0, "levels": null, "height_source": "lidar", "roof_shape": "flat", "roof_height": 3.21, "roof_azimuth": null, "roof_source": "lod2", "roof_color": "concrete", "roof_color_source": "ortho", "lod2_roof": { "v": [ [ 284436.24, 4159964.31, 3.13 ], [ 284437.47, 4159966.44, 3.17 ], [ 284436.2, 4159967.5, 3.21 ], [ 284434.54, 4159965.03, 3.18 ], [ 284433.81, 4159969.31, 1.08 ], [ 284432.54, 4159948.46, 1.04 ], [ 284430.53, 4159949.05, 1.04 ], [ 284428.82, 4159949.03, 1.04 ], [ 284428.71, 4159946.92, 1.04 ], [ 284452.46, 4159945.62, 1.03 ], [ 284453.64, 4159968.23, 1.08 ], [ 284436.24, 4159964.31, 1.07 ], [ 284434.54, 4159965.03, 1.08 ], [ 284436.2, 4159967.5, 1.08 ], [ 284437.47, 4159966.44, 1.08 ], [ 284452.46, 4159945.62, 0.0 ], [ 284453.64, 4159968.23, 0.0 ], [ 284432.54, 4159948.46, 0.0 ], [ 284430.53, 4159949.05, 0.0 ], [ 284428.82, 4159949.03, 0.0 ], [ 284433.81, 4159969.31, 0.0 ] ], "f": [ [ [ 0, 1, 2, 3 ] ], [ [ 4, 5, 6, 7, 8, 9, 10 ], [ 11, 12, 13, 14 ] ], [ [ 9, 15, 16, 10 ] ], [ [ 1, 14, 13, 2 ] ], [ [ 3, 12, 11, 0 ] ], [ [ 2, 13, 12, 3 ] ], [ [ 0, 11, 14, 1 ] ], [ [ 5, 17, 18, 6 ] ], [ [ 6, 18, 19, 7 ] ], [ [ 4, 20, 17, 5 ] ] ] }, "roof_props": null, "wall_color": "brick", "wall_color_source": "heuristic", "type": "yes", "landmark": null, "footprint_source": "osm", "source_updated": null, "is_part": false, "parent": null, "hidden": false, "addr": "2009 Roane Street", "wikidata": null, "website": null, "zoning": "M-1", "lidar_p90": 5.59, "ground_z": 45.9 }, "geometry": { "type": "Polygon", "coordinates": [ [ [ 284428.71, 4159946.92 ], [ 284429.94, 4159969.52 ], [ 284456.4, 4159968.08 ], [ 284455.18, 4159945.48 ], [ 284428.71, 4159946.92 ] ] ] } },
{ "type": "Feature", "properties": { "id": "osm:way/755389673", "name": null, "height": 2.59, "min_height": 0.0, "levels": null, "height_source": "lidar", "roof_shape": "flat", "roof_height": 0.79, "roof_azimuth": null, "roof_source": "lod2", "roof_color": "roof_flat", "roof_color_source": "ortho", "lod2_roof": { "v": [ [ 284432.07, 4159987.2, 0.79 ], [ 284436.57, 4159986.88, 0.57 ], [ 284436.73, 4159989.74, 0.0 ], [ 284432.27, 4159991.22, 0.0 ], [ 284431.96, 4159984.8, 0.13 ], [ 284433.78, 4159984.54, 0.0 ], [ 284436.46, 4159984.85, 0.0 ], [ 284436.96, 4159994.08, 0.24 ], [ 284436.59, 4159995.44, 0.31 ], [ 284432.48, 4159995.72, 0.52 ], [ 284432.29, 4159991.68, 0.37 ], [ 284436.83, 4159991.6, 0.14 ], [ 284432.29, 4159991.68, 0.0 ], [ 284436.83, 4159991.6, 0.0 ] ], "f": [ [ [ 0, 1, 2, 3 ] ], [ [ 4, 5, 6, 1, 0 ] ], [ [ 7, 8, 9, 10, 11 ] ], [ [ 10, 12, 13, 11 ] ] ] }, "roof_props": null, "wall_color": "cream", "wall_color_source": "heuristic", "type": "yes", "landmark": null, "footprint_source": "osm", "source_updated": null, "is_part": false, "parent": null, "hidden": false, "addr": null, "wikidata": null, "website": null, "zoning": "M-1", "lidar_p90": 2.84, "ground_z": 45.58 }, "geometry": { "type": "Polygon", "coordinates": [ [ [ 284438.0, 4159982.48 ], [ 284431.87, 4159983.04 ], [ 284432.48, 4159995.73 ], [ 284438.92, 4159995.28 ], [ 284438.0, 4159982.48 ] ] ] } },
{ "type": "Feature", "properties": { "id": "osm:way/755389419", "name": null, "height": 3.38, "min_height": 0.0, "levels": null, "height_source": "lidar", "roof_shape": "flat", "roof_height": 0.33, "roof_azimuth": null, "roof_source": "lod2", "roof_color": "roof_flat", "roof_color_source": "ortho", "lod2_roof": { "v": [ [ 284437.25, 4159996.87, 0.32 ], [ 284446.57, 4159996.12, 0.31 ], [ 284446.99, 4160002.1, 0.29 ], [ 284431.85, 4160003.14, 0.3 ], [ 284431.45, 4159997.34, 0.33 ], [ 284431.45, 4159997.34, 0.0 ], [ 284437.25, 4159996.87, 0.0 ] ], "f": [ [ [ 0, 1, 2, 3, 4 ] ], [ [ 4, 5, 6, 0 ] ] ] }, "roof_props": null, "wall_color": "sand", "wall_color_source": "heuristic", "type": "yes", "landmark": null, "footprint_source": "osm", "source_updated": null, "is_part": false, "parent": null, "hidden": false, "addr": "2015 Roane Street", "wikidata": null, "website": null, "zoning": "M-1", "lidar_p90": 3.57, "ground_z": 45.24 }, "geometry": { "type": "Polygon", "coordinates": [ [ [ 284431.35, 4159995.8 ], [ 284431.85, 4160003.14 ], [ 284446.99, 4160002.1 ], [ 284446.48, 4159994.76 ], [ 284431.35, 4159995.8 ] ] ] } }
]
}
