{
"type": "FeatureCollection",
"name": "roads",
"crs": { "type": "name", "properties": { "name": "urn:ogc:def:crs:EPSG::32618" } },
"xy_coordinate_resolution": 0.01,
"features": [
{ "type": "Feature", "properties": { "id": "osm:way/1455899592", "name": null, "highway": "path", "lanes": null, "width": 1.5, "oneway": false, "surface": "unpaved", "footway": null, "sidewalk_left": false, "sidewalk_right": false, "generated_sidewalk": false, "bus_lanes": null, "bus_lane_side": null, "bus_only": false, "sidewalk": false, "bridge": false, "ramp": false, "tunnel": false, "layer": 0, "deck": null }, "geometry": { "type": "LineString", "coordinates": [ [ 285717.94, 4156250.0 ], [ 285704.38, 4156262.72 ], [ 285686.9, 4156276.49 ], [ 285677.46, 4156280.53 ] ] } },
{ "type": "Feature", "properties": { "id": "osm:way/1300405814", "name": null, "highway": "footway", "lanes": null, "width": 2.0, "oneway": false, "surface": null, "footway": "crossing", "sidewalk_left": false, "sidewalk_right": false, "generated_sidewalk": false, "bus_lanes": null, "bus_lane_side": null, "bus_only": false, "sidewalk": false, "bridge": false, "ramp": false, "tunnel": false, "layer": 0, "deck": null }, "geometry": { "type": "LineString", "coordinates": [ [ 285729.08, 4156367.36 ], [ 285724.91, 4156371.46 ], [ 285722.8, 4156373.54 ] ] } },
{ "type": "Feature", "properties": { "id": "osm:way/1065955904", "name": null, "highway": "service", "lanes": null, "width": 4.5, "oneway": false, "surface": null, "footway": null, "sidewalk_left": false, "sidewalk_right": false, "generated_sidewalk": false, "bus_lanes": null, "bus_lane_side": null, "bus_only": false, "sidewalk": false, "bridge": false, "ramp": false, "tunnel": false, "layer": 0, "deck": null }, "geometry": { "type": "LineString", "coordinates": [ [ 285718.64, 4156363.43 ], [ 285724.91, 4156371.46 ], [ 285733.54, 4156382.55 ] ] } },
{ "type": "Feature", "properties": { "id": "osm:way/1300405824", "name": null, "highway": "footway", "lanes": null, "width": 2.0, "oneway": false, "surface": "paving_stones", "footway": "sidewalk", "sidewalk_left": false, "sidewalk_right": false, "generated_sidewalk": false, "bus_lanes": null, "bus_lane_side": null, "bus_only": false, "sidewalk": false, "bridge": false, "ramp": false, "tunnel": false, "layer": 0, "deck": null }, "geometry": { "type": "LineString", "coordinates": [ [ 285716.34, 4156379.08 ], [ 285717.74, 4156378.87 ] ] } },
{ "type": "Feature", "properties": { "id": "osm:way/1300405823", "name": null, "highway": "footway", "lanes": null, "width": 2.0, "oneway": false, "surface": "asphalt", "footway": "crossing", "sidewalk_left": false, "sidewalk_right": false, "generated_sidewalk": false, "bus_lanes": null, "bus_lane_side": null, "bus_only": false, "sidewalk": false, "bridge": false, "ramp": false, "tunnel": false, "layer": 0, "deck": null }, "geometry": { "type": "LineString", "coordinates": [ [ 285705.15, 4156387.95 ], [ 285711.15, 4156383.2 ], [ 285716.34, 4156379.08 ] ] } },
{ "type": "Feature", "properties": { "id": "osm:way/1065955903", "name": null, "highway": "service", "lanes": null, "width": 4.5, "oneway": false, "surface": null, "footway": null, "sidewalk_left": false, "sidewalk_right": false, "generated_sidewalk": false, "bus_lanes": null, "bus_lane_side": null, "bus_only": false, "sidewalk": false, "bridge": false, "ramp": false, "tunnel": false, "layer": 0, "deck": null }, "geometry": { "type": "LineString", "coordinates": [ [ 285688.14, 4156389.85 ], [ 285694.43, 4156396.53 ] ] } },
{ "type": "Feature", "properties": { "id": "osm:way/1303399603", "name": null, "highway": "footway", "lanes": null, "width": 2.0, "oneway": false, "surface": null, "footway": "sidewalk", "sidewalk_left": false, "sidewalk_right": false, "generated_sidewalk": false, "bus_lanes": null, "bus_lane_side": null, "bus_only": false, "sidewalk": false, "bridge": false, "ramp": false, "tunnel": false, "layer": 0, "deck": null }, "geometry": { "type": "LineString", "coordinates": [ [ 285705.15, 4156387.95 ], [ 285705.05, 4156389.93 ], [ 285727.19, 4156416.62 ], [ 285721.49, 4156421.42 ] ] } },
{ "type": "Feature", "properties": { "id": "osm:way/1303399621", "name": null, "highway": "footway", "lanes": null, "width": 2.0, "oneway": false, "surface": "asphalt", "footway": "crossing", "sidewalk_left": false, "sidewalk_right": false, "generated_sidewalk": false, "bus_lanes": null, "bus_lane_side": null, "bus_only": false, "sidewalk": false, "bridge": false, "ramp": false, "tunnel": false, "layer": 0, "deck": null }, "geometry": { "type": "LineString", "coordinates": [ [ 285729.53, 4156415.18 ], [ 285734.09, 4156411.53 ], [ 285738.6, 4156407.92 ] ] } },
{ "type": "Feature", "properties": { "id": "osm:way/1303399619", "name": null, "highway": "footway", "lanes": null, "width": 2.0, "oneway": false, "surface": null, "footway": "sidewalk", "sidewalk_left": false, "sidewalk_right": false, "generated_sidewalk": false, "bus_lanes": null, "bus_lane_side": null, "bus_only": false, "sidewalk": false, "bridge": false, "ramp": false, "tunnel": false, "layer": 0, "deck": null }, "geometry": { "type": "LineString", "coordinates": [ [ 285727.19, 4156416.62 ], [ 285729.53, 4156415.18 ] ] } },
{ "type": "Feature", "properties": { "id": "osm:way/1303399620", "name": null, "highway": "footway", "lanes": null, "width": 2.0, "oneway": false, "surface": null, "footway": "crossing", "sidewalk_left": false, "sidewalk_right": false, "generated_sidewalk": false, "bus_lanes": null, "bus_lane_side": null, "bus_only": false, "sidewalk": false, "bridge": false, "ramp": false, "tunnel": false, "layer": 0, "deck": null }, "geometry": { "type": "LineString", "coordinates": [ [ 285729.53, 4156415.18 ], [ 285732.55, 4156419.19 ], [ 285735.29, 4156422.82 ] ] } },
{ "type": "Feature", "properties": { "id": "osm:way/1540852752", "name": "Virginia Capital Trail", "highway": "cycleway", "lanes": null, "width": 2.5, "oneway": false, "surface": "asphalt", "footway": null, "sidewalk_left": false, "sidewalk_right": false, "generated_sidewalk": false, "bus_lanes": null, "bus_lane_side": null, "bus_only": false, "sidewalk": false, "bridge": false, "ramp": false, "tunnel": false, "layer": 0, "deck": null }, "geometry": { "type": "LineString", "coordinates": [ [ 285664.7, 4156400.26 ], [ 285700.7, 4156369.07 ], [ 285737.0, 4156337.6 ], [ 285740.53, 4156336.2 ], [ 285745.28, 4156336.19 ], [ 285750.0, 4156336.28 ] ] } },
{ "type": "Feature", "properties": { "id": "osm:way/1300405813", "name": null, "highway": "footway", "lanes": null, "width": 2.0, "oneway": false, "surface": "concrete", "footway": "sidewalk", "sidewalk_left": false, "sidewalk_right": false, "generated_sidewalk": false, "bus_lanes": null, "bus_lane_side": null, "bus_only": false, "sidewalk": false, "bridge": false, "ramp": false, "tunnel": false, "layer": 0, "deck": null }, "geometry": { "type": "LineString", "coordinates": [ [ 285750.0, 4156355.05 ], [ 285743.67, 4156357.43 ], [ 285738.05, 4156360.49 ], [ 285733.88, 4156363.18 ], [ 285729.08, 4156367.36 ] ] } },
{ "type": "Feature", "properties": { "id": "osm:way/6033370", "name": "Dock Street", "highway": "secondary", "lanes": 2.0, "width": 9.5, "oneway": false, "surface": "asphalt", "footway": null, "sidewalk_left": false, "sidewalk_right": null, "generated_sidewalk": true, "bus_lanes": null, "bus_lane_side": null, "bus_only": false, "sidewalk": false, "bridge": false, "ramp": false, "tunnel": false, "layer": 0, "deck": null }, "geometry": { "type": "LineString", "coordinates": [ [ 285560.45, 4156500.0 ], [ 285567.26, 4156494.09 ], [ 285628.41, 4156440.97 ], [ 285633.7, 4156436.49 ], [ 285688.14, 4156389.85 ], [ 285705.18, 4156375.12 ], [ 285718.64, 4156363.43 ], [ 285728.66, 4156356.5 ], [ 285734.23, 4156353.9 ], [ 285739.81, 4156352.05 ], [ 285750.0, 4156348.85 ] ] } },
{ "type": "Feature", "properties": { "id": "osm:way/1065955907", "name": null, "highway": "service", "lanes": null, "width": 4.5, "oneway": false, "surface": null, "footway": null, "sidewalk_left": false, "sidewalk_right": false, "generated_sidewalk": false, "bus_lanes": null, "bus_lane_side": null, "bus_only": false, "sidewalk": false, "bridge": false, "ramp": false, "tunnel": false, "layer": 1, "deck": null }, "geometry": { "type": "LineString", "coordinates": [ [ 285750.0, 4156383.14 ], [ 285737.88, 4156392.88 ] ] } },
{ "type": "Feature", "properties": { "id": "osm:way/1300405815", "name": null, "highway": "footway", "lanes": null, "width": 2.0, "oneway": false, "surface": "paving_stones", "footway": "sidewalk", "sidewalk_left": false, "sidewalk_right": false, "generated_sidewalk": false, "bus_lanes": null, "bus_lane_side": null, "bus_only": false, "sidewalk": false, "bridge": false, "ramp": false, "tunnel": false, "layer": 0, "deck": null }, "geometry": { "type": "LineString", "coordinates": [ [ 285722.8, 4156373.54 ], [ 285718.36, 4156377.26 ], [ 285717.74, 4156378.87 ], [ 285739.43, 4156404.65 ], [ 285750.0, 4156396.51 ] ] } },
{ "type": "Feature", "properties": { "id": "osm:way/1303399604", "name": null, "highway": "footway", "lanes": null, "width": 2.0, "oneway": false, "surface": null, "footway": "sidewalk", "sidewalk_left": false, "sidewalk_right": false, "generated_sidewalk": false, "bus_lanes": null, "bus_lane_side": null, "bus_only": false, "sidewalk": false, "bridge": false, "ramp": false, "tunnel": false, "layer": 0, "deck": null }, "geometry": { "type": "LineString", "coordinates": [ [ 285739.43, 4156404.65 ], [ 285738.6, 4156407.92 ] ] } },
{ "type": "Feature", "properties": { "id": "osm:way/1303399605", "name": null, "highway": "footway", "lanes": null, "width": 2.0, "oneway": false, "surface": null, "footway": "sidewalk", "sidewalk_left": false, "sidewalk_right": false, "generated_sidewalk": false, "bus_lanes": null, "bus_lane_side": null, "bus_only": false, "sidewalk": false, "bridge": false, "ramp": false, "tunnel": false, "layer": 0, "deck": null }, "geometry": { "type": "LineString", "coordinates": [ [ 285750.0, 4156413.6 ], [ 285747.55, 4156415.62 ], [ 285750.0, 4156418.69 ] ] } },
{ "type": "Feature", "properties": { "id": "osm:way/1303399622", "name": null, "highway": "footway", "lanes": null, "width": 2.0, "oneway": false, "surface": null, "footway": "crossing", "sidewalk_left": false, "sidewalk_right": false, "generated_sidewalk": false, "bus_lanes": null, "bus_lane_side": null, "bus_only": false, "sidewalk": false, "bridge": false, "ramp": false, "tunnel": false, "layer": 0, "deck": null }, "geometry": { "type": "LineString", "coordinates": [ [ 285738.6, 4156407.92 ], [ 285741.6, 4156411.86 ], [ 285744.33, 4156415.43 ] ] } },
{ "type": "Feature", "properties": { "id": "osm:way/1303399624", "name": null, "highway": "footway", "lanes": null, "width": 2.0, "oneway": false, "surface": null, "footway": "sidewalk", "sidewalk_left": false, "sidewalk_right": false, "generated_sidewalk": false, "bus_lanes": null, "bus_lane_side": null, "bus_only": false, "sidewalk": false, "bridge": false, "ramp": false, "tunnel": false, "layer": 0, "deck": null }, "geometry": { "type": "LineString", "coordinates": [ [ 285747.55, 4156415.62 ], [ 285744.33, 4156415.43 ] ] } },
{ "type": "Feature", "properties": { "id": "osm:way/1303399648", "name": "East Cary Street", "highway": "residential", "lanes": null, "width": 7.0, "oneway": false, "surface": "asphalt", "footway": null, "sidewalk_left": false, "sidewalk_right": false, "generated_sidewalk": true, "bus_lanes": null, "bus_lane_side": null, "bus_only": false, "sidewalk": false, "bridge": false, "ramp": false, "tunnel": false, "layer": 0, "deck": null }, "geometry": { "type": "LineString", "coordinates": [ [ 285660.65, 4156478.41 ], [ 285663.95, 4156474.1 ], [ 285721.02, 4156428.67 ], [ 285732.55, 4156419.19 ], [ 285737.16, 4156415.41 ], [ 285741.6, 4156411.86 ], [ 285750.0, 4156405.16 ] ] } },
{ "type": "Feature", "properties": { "id": "osm:way/745655105", "name": null, "highway": "service", "lanes": null, "width": 4.5, "oneway": false, "surface": null, "footway": null, "sidewalk_left": false, "sidewalk_right": false, "generated_sidewalk": false, "bus_lanes": null, "bus_lane_side": null, "bus_only": false, "sidewalk": false, "bridge": false, "ramp": false, "tunnel": false, "layer": 0, "deck": null }, "geometry": { "type": "LineString", "coordinates": [ [ 285500.0, 4156303.33 ], [ 285570.67, 4156250.0 ] ] } },
{ "type": "Feature", "properties": { "id": "osm:way/424824134", "name": "Virginia Capital Trail", "highway": "cycleway", "lanes": null, "width": 2.5, "oneway": false, "surface": "asphalt", "footway": null, "sidewalk_left": false, "sidewalk_right": false, "generated_sidewalk": false, "bus_lanes": null, "bus_lane_side": null, "bus_only": false, "sidewalk": false, "bridge": false, "ramp": false, "tunnel": false, "layer": 0, "deck": null }, "geometry": { "type": "LineString", "coordinates": [ [ 285608.28, 4156449.14 ], [ 285629.13, 4156431.1 ], [ 285664.7, 4156400.26 ] ] } },
{ "type": "Feature", "properties": { "id": "osm:way/1303399631", "name": null, "highway": "footway", "lanes": null, "width": 2.0, "oneway": false, "surface": null, "footway": null, "sidewalk_left": false, "sidewalk_right": false, "generated_sidewalk": false, "bus_lanes": null, "bus_lane_side": null, "bus_only": false, "sidewalk": false, "bridge": false, "ramp": false, "tunnel": false, "layer": 0, "deck": null }, "geometry": { "type": "LineString", "coordinates": [ [ 285629.13, 4156431.1 ], [ 285630.0, 4156432.13 ] ] } },
{ "type": "Feature", "properties": { "id": "osm:way/296016639", "name": null, "highway": "track", "lanes": null, "width": 2.5, "oneway": false, "surface": "unpaved", "footway": null, "sidewalk_left": false, "sidewalk_right": false, "generated_sidewalk": false, "bus_lanes": null, "bus_lane_side": null, "bus_only": false, "sidewalk": false, "bridge": false, "ramp": false, "tunnel": false, "layer": 0, "deck": null }, "geometry": { "type": "LineString", "coordinates": [ [ 285677.46, 4156280.53 ], [ 285656.15, 4156285.4 ], [ 285565.82, 4156357.26 ], [ 285500.0, 4156409.75 ] ] } },
{ "type": "Feature", "properties": { "id": "osm:way/1300412000", "name": null, "highway": "footway", "lanes": null, "width": 2.0, "oneway": false, "surface": null, "footway": "crossing", "sidewalk_left": false, "sidewalk_right": false, "generated_sidewalk": false, "bus_lanes": null, "bus_lane_side": null, "bus_only": false, "sidewalk": false, "bridge": false, "ramp": false, "tunnel": false, "layer": 0, "deck": null }, "geometry": { "type": "LineString", "coordinates": [ [ 285630.0, 4156432.13 ], [ 285633.7, 4156436.49 ], [ 285638.22, 4156441.8 ] ] } },
{ "type": "Feature", "properties": { "id": "osm:way/424824129", "name": "South 21st Street", "highway": "tertiary", "lanes": null, "width": 8.0, "oneway": false, "surface": null, "footway": null, "sidewalk_left": false, "sidewalk_right": null, "generated_sidewalk": true, "bus_lanes": null, "bus_lane_side": null, "bus_only": false, "sidewalk": false, "bridge": false, "ramp": false, "tunnel": false, "layer": 0, "deck": null }, "geometry": { "type": "LineString", "coordinates": [ [ 285660.65, 4156478.41 ], [ 285641.11, 4156455.18 ], [ 285628.41, 4156440.97 ] ] } },
{ "type": "Feature", "properties": { "id": "osm:way/1303399632", "name": null, "highway": "footway", "lanes": null, "width": 2.0, "oneway": false, "surface": "paving_stones", "footway": "sidewalk", "sidewalk_left": false, "sidewalk_right": false, "generated_sidewalk": false, "bus_lanes": null, "bus_lane_side": null, "bus_only": false, "sidewalk": false, "bridge": false, "ramp": false, "tunnel": false, "layer": 0, "deck": null }, "geometry": { "type": "LineString", "coordinates": [ [ 285661.13, 4156468.94 ], [ 285661.03, 4156470.37 ] ] } },
{ "type": "Feature", "properties": { "id": "osm:way/1303399633", "name": null, "highway": "footway", "lanes": null, "width": 2.0, "oneway": false, "surface": null, "footway": "crossing", "sidewalk_left": false, "sidewalk_right": false, "generated_sidewalk": false, "bus_lanes": null, "bus_lane_side": null, "bus_only": false, "sidewalk": false, "bridge": false, "ramp": false, "tunnel": false, "layer": 0, "deck": null }, "geometry": { "type": "LineString", "coordinates": [ [ 285661.03, 4156470.37 ], [ 285663.95, 4156474.1 ], [ 285667.1, 4156478.13 ] ] } },
{ "type": "Feature", "properties": { "id": "osm:way/1300412020", "name": null, "highway": "footway", "lanes": null, "width": 2.0, "oneway": false, "surface": null, "footway": "crossing", "sidewalk_left": false, "sidewalk_right": false, "generated_sidewalk": false, "bus_lanes": null, "bus_lane_side": null, "bus_only": false, "sidewalk": false, "bridge": false, "ramp": false, "tunnel": false, "layer": 0, "deck": null }, "geometry": { "type": "LineString", "coordinates": [ [ 285662.54, 4156486.1 ], [ 285664.5, 4156482.69 ], [ 285667.1, 4156478.13 ] ] } },
{ "type": "Feature", "properties": { "id": "osm:way/1300412017", "name": null, "highway": "footway", "lanes": null, "width": 2.0, "oneway": false, "surface": null, "footway": "sidewalk", "sidewalk_left": false, "sidewalk_right": false, "generated_sidewalk": false, "bus_lanes": null, "bus_lane_side": null, "bus_only": false, "sidewalk": false, "bridge": false, "ramp": false, "tunnel": false, "layer": 0, "deck": null }, "geometry": { "type": "LineString", "coordinates": [ [ 285650.6, 4156493.22 ], [ 285658.36, 4156489.22 ], [ 285660.11, 4156487.91 ], [ 285662.54, 4156486.1 ] ] } },
{ "type": "Feature", "properties": { "id": "osm:way/1303399623", "name": null, "highway": "footway", "lanes": null, "width": 2.0, "oneway": false, "surface": null, "footway": "crossing", "sidewalk_left": false, "sidewalk_right": false, "generated_sidewalk": false, "bus_lanes": null, "bus_lane_side": null, "bus_only": false, "sidewalk": false, "bridge": false, "ramp": false, "tunnel": false, "layer": 0, "deck": null }, "geometry": { "type": "LineString", "coordinates": [ [ 285735.29, 4156422.82 ], [ 285740.07, 4156418.91 ], [ 285744.33, 4156415.43 ] ] } },
{ "type": "Feature", "properties": { "id": "osm:way/1303399607", "name": null, "highway": "footway", "lanes": null, "width": 2.0, "oneway": false, "surface": null, "footway": "sidewalk", "sidewalk_left": false, "sidewalk_right": false, "generated_sidewalk": false, "bus_lanes": null, "bus_lane_side": null, "bus_only": false, "sidewalk": false, "bridge": false, "ramp": false, "tunnel": false, "layer": 0, "deck": null }, "geometry": { "type": "LineString", "coordinates": [ [ 285734.94, 4156425.28 ], [ 285735.29, 4156422.82 ] ] } },
{ "type": "Feature", "properties": { "id": "osm:way/1303399626", "name": null, "highway": "service", "lanes": null, "width": 4.5, "oneway": false, "surface": null, "footway": null, "sidewalk_left": false, "sidewalk_right": false, "generated_sidewalk": false, "bus_lanes": null, "bus_lane_side": null, "bus_only": false, "sidewalk": false, "bridge": false, "ramp": false, "tunnel": false, "layer": 0, "deck": null }, "geometry": { "type": "LineString", "coordinates": [ [ 285745.37, 4156441.53 ], [ 285746.89, 4156440.2 ], [ 285750.0, 4156437.46 ] ] } },
{ "type": "Feature", "properties": { "id": "osm:way/1303399628", "name": null, "highway": "footway", "lanes": null, "width": 2.0, "oneway": false, "surface": null, "footway": "crossing", "sidewalk_left": false, "sidewalk_right": false, "generated_sidewalk": false, "bus_lanes": null, "bus_lane_side": null, "bus_only": false, "sidewalk": false, "bridge": false, "ramp": false, "tunnel": false, "layer": 0, "deck": null }, "geometry": { "type": "LineString", "coordinates": [ [ 285748.46, 4156442.15 ], [ 285746.89, 4156440.2 ], [ 285745.25, 4156438.15 ] ] } },
{ "type": "Feature", "properties": { "id": "osm:way/6037529", "name": "South 22nd Street", "highway": "residential", "lanes": null, "width": 7.0, "oneway": false, "surface": "asphalt", "footway": null, "sidewalk_left": false, "sidewalk_right": true, "generated_sidewalk": true, "bus_lanes": null, "bus_lane_side": null, "bus_only": false, "sidewalk": false, "bridge": false, "ramp": false, "tunnel": false, "layer": 0, "deck": null }, "geometry": { "type": "LineString", "coordinates": [ [ 285750.0, 4156430.83 ], [ 285740.07, 4156418.91 ], [ 285737.16, 4156415.41 ], [ 285734.09, 4156411.53 ], [ 285711.15, 4156383.2 ], [ 285705.18, 4156375.12 ] ] } },
{ "type": "Feature", "properties": { "id": "osm:way/1303399601", "name": null, "highway": "footway", "lanes": null, "width": 2.0, "oneway": false, "surface": "concrete", "footway": "sidewalk", "sidewalk_left": false, "sidewalk_right": false, "generated_sidewalk": false, "bus_lanes": null, "bus_lane_side": null, "bus_only": false, "sidewalk": false, "bridge": false, "ramp": false, "tunnel": false, "layer": 0, "deck": null }, "geometry": { "type": "LineString", "coordinates": [ [ 285750.0, 4156444.07 ], [ 285748.46, 4156442.15 ] ] } },
{ "type": "Feature", "properties": { "id": "osm:way/1303399606", "name": null, "highway": "footway", "lanes": null, "width": 2.0, "oneway": false, "surface": null, "footway": "crossing", "sidewalk_left": false, "sidewalk_right": false, "generated_sidewalk": false, "bus_lanes": null, "bus_lane_side": null, "bus_only": false, "sidewalk": false, "bridge": false, "ramp": false, "tunnel": false, "layer": 0, "deck": null }, "geometry": { "type": "LineString", "coordinates": [ [ 285715.03, 4156426.6 ], [ 285717.76, 4156424.42 ], [ 285721.49, 4156421.42 ] ] } },
{ "type": "Feature", "properties": { "id": "osm:way/1065955902", "name": null, "highway": "service", "lanes": null, "width": 4.5, "oneway": false, "surface": null, "footway": null, "sidewalk_left": false, "sidewalk_right": false, "generated_sidewalk": false, "bus_lanes": null, "bus_lane_side": null, "bus_only": false, "sidewalk": false, "bridge": false, "ramp": false, "tunnel": false, "layer": 1, "deck": null }, "geometry": { "type": "MultiLineString", "coordinates": [ [ [ 285721.02, 4156428.67 ], [ 285717.76, 4156424.42 ], [ 285710.84, 4156415.42 ] ], [ [ 285710.84, 4156415.42 ], [ 285702.36, 4156404.36 ], [ 285652.39, 4156442.49 ], [ 285661.12, 4156453.82 ], [ 285710.84, 4156415.42 ] ] ] } },
{ "type": "Feature", "properties": { "id": "osm:way/1303399602", "name": null, "highway": "footway", "lanes": null, "width": 2.0, "oneway": false, "surface": null, "footway": "sidewalk", "sidewalk_left": false, "sidewalk_right": false, "generated_sidewalk": false, "bus_lanes": null, "bus_lane_side": null, "bus_only": false, "sidewalk": false, "bridge": false, "ramp": false, "tunnel": false, "layer": 0, "deck": null }, "geometry": { "type": "LineString", "coordinates": [ [ 285638.22, 4156441.8 ], [ 285660.08, 4156468.43 ], [ 285661.13, 4156468.94 ], [ 285662.14, 4156468.75 ], [ 285715.03, 4156426.6 ] ] } },
{ "type": "Feature", "properties": { "id": "osm:way/1303399627", "name": null, "highway": "footway", "lanes": null, "width": 2.0, "oneway": false, "surface": "paving_stones", "footway": "sidewalk", "sidewalk_left": false, "sidewalk_right": false, "generated_sidewalk": false, "bus_lanes": null, "bus_lane_side": null, "bus_only": false, "sidewalk": false, "bridge": false, "ramp": false, "tunnel": false, "layer": 0, "deck": null }, "geometry": { "type": "LineString", "coordinates": [ [ 285745.25, 4156438.15 ], [ 285734.94, 4156425.28 ], [ 285669.78, 4156478.21 ], [ 285667.1, 4156478.13 ] ] } },
{ "type": "Feature", "properties": { "id": "osm:way/1300412018", "name": null, "highway": "footway", "lanes": null, "width": 2.0, "oneway": false, "surface": "concrete", "footway": null, "sidewalk_left": false, "sidewalk_right": false, "generated_sidewalk": false, "bus_lanes": null, "bus_lane_side": null, "bus_only": false, "sidewalk": false, "bridge": false, "ramp": false, "tunnel": false, "layer": 0, "deck": null }, "geometry": { "type": "LineString", "coordinates": [ [ 285658.36, 4156489.22 ], [ 285666.85, 4156500.0 ] ] } },
{ "type": "Feature", "properties": { "id": "osm:way/1303399613", "name": null, "highway": "footway", "lanes": null, "width": 2.0, "oneway": false, "surface": null, "footway": "sidewalk", "sidewalk_left": false, "sidewalk_right": false, "generated_sidewalk": false, "bus_lanes": null, "bus_lane_side": null, "bus_only": false, "sidewalk": false, "bridge": false, "ramp": false, "tunnel": false, "layer": 0, "deck": null }, "geometry": { "type": "LineString", "coordinates": [ [ 285687.0, 4156500.0 ], [ 285669.78, 4156478.21 ] ] } },
{ "type": "Feature", "properties": { "id": "osm:way/6033463", "name": "South 21st Street", "highway": "tertiary", "lanes": null, "width": 8.0, "oneway": false, "surface": "asphalt", "footway": null, "sidewalk_left": false, "sidewalk_right": true, "generated_sidewalk": true, "bus_lanes": null, "bus_lane_side": null, "bus_only": false, "sidewalk": false, "bridge": false, "ramp": false, "tunnel": false, "layer": 0, "deck": null }, "geometry": { "type": "LineString", "coordinates": [ [ 285677.5, 4156500.0 ], [ 285664.5, 4156482.69 ], [ 285660.65, 4156478.41 ] ] } },
{ "type": "Feature", "properties": { "id": "osm:way/1300412016", "name": null, "highway": "steps", "lanes": null, "width": 2.0, "oneway": false, "surface": null, "footway": null, "sidewalk_left": false, "sidewalk_right": false, "generated_sidewalk": false, "bus_lanes": null, "bus_lane_side": null, "bus_only": false, "sidewalk": false, "bridge": false, "ramp": false, "tunnel": false, "layer": 0, "deck": null }, "geometry": { "type": "LineString", "coordinates": [ [ 285649.77, 4156493.87 ], [ 285650.6, 4156493.22 ] ] } },
{ "type": "Feature", "properties": { "id": "osm:way/1300412015", "name": null, "highway": "footway", "lanes": null, "width": 2.0, "oneway": false, "surface": "concrete", "footway": "sidewalk", "sidewalk_left": false, "sidewalk_right": false, "generated_sidewalk": false, "bus_lanes": null, "bus_lane_side": null, "bus_only": false, "sidewalk": false, "bridge": false, "ramp": false, "tunnel": false, "layer": 0, "deck": null }, "geometry": { "type": "LineString", "coordinates": [ [ 285642.09, 4156500.0 ], [ 285649.77, 4156493.87 ] ] } },
{ "type": "Feature", "properties": { "id": "osm:way/1300411999", "name": null, "highway": "footway", "lanes": null, "width": 2.0, "oneway": false, "surface": null, "footway": "sidewalk", "sidewalk_left": false, "sidewalk_right": false, "generated_sidewalk": false, "bus_lanes": null, "bus_lane_side": null, "bus_only": false, "sidewalk": false, "bridge": false, "ramp": false, "tunnel": false, "layer": 0, "deck": null }, "geometry": { "type": "LineString", "coordinates": [ [ 285627.35, 4156500.0 ], [ 285647.38, 4156483.78 ], [ 285651.39, 4156483.13 ] ] } },
{ "type": "Feature", "properties": { "id": "osm:way/823768825", "name": null, "highway": "service", "lanes": null, "width": 4.5, "oneway": false, "surface": null, "footway": null, "sidewalk_left": false, "sidewalk_right": false, "generated_sidewalk": false, "bus_lanes": null, "bus_lane_side": null, "bus_only": false, "sidewalk": false, "bridge": false, "ramp": false, "tunnel": false, "layer": 0, "deck": null }, "geometry": { "type": "LineString", "coordinates": [ [ 285586.26, 4156500.0 ], [ 285641.11, 4156455.18 ] ] } },
{ "type": "Feature", "properties": { "id": "osm:way/823768826", "name": null, "highway": "service", "lanes": null, "width": 4.5, "oneway": true, "surface": null, "footway": null, "sidewalk_left": false, "sidewalk_right": false, "generated_sidewalk": false, "bus_lanes": null, "bus_lane_side": null, "bus_only": false, "sidewalk": false, "bridge": false, "ramp": false, "tunnel": false, "layer": 0, "deck": null }, "geometry": { "type": "LineString", "coordinates": [ [ 285611.71, 4156500.0 ], [ 285630.39, 4156484.62 ], [ 285637.25, 4156479.48 ], [ 285641.53, 4156477.54 ], [ 285644.51, 4156477.05 ], [ 285646.77, 4156477.74 ], [ 285651.39, 4156483.13 ], [ 285653.74, 4156485.86 ] ] } },
{ "type": "Feature", "properties": { "id": "osm:way/279673446", "name": "Virginia Capital Trail", "highway": "cycleway", "lanes": null, "width": 2.5, "oneway": false, "surface": "asphalt", "footway": null, "sidewalk_left": false, "sidewalk_right": false, "generated_sidewalk": false, "bus_lanes": null, "bus_lane_side": null, "bus_only": false, "sidewalk": false, "bridge": false, "ramp": false, "tunnel": false, "layer": 0, "deck": null }, "geometry": { "type": "LineString", "coordinates": [ [ 285548.1, 4156500.0 ], [ 285608.28, 4156449.14 ] ] } },
{ "type": "Feature", "properties": { "id": "osm:way/6032666", "name": "East Cary Street", "highway": "residential", "lanes": null, "width": 7.0, "oneway": true, "surface": "asphalt", "footway": null, "sidewalk_left": false, "sidewalk_right": false, "generated_sidewalk": true, "bus_lanes": null, "bus_lane_side": null, "bus_only": false, "sidewalk": false, "bridge": false, "ramp": false, "tunnel": false, "layer": 0, "deck": null }, "geometry": { "type": "LineString", "coordinates": [ [ 285636.08, 4156500.0 ], [ 285653.74, 4156485.86 ], [ 285656.7, 4156483.49 ], [ 285660.65, 4156478.41 ] ] } }
]
}
