{
"type": "FeatureCollection",
"name": "roads",
"crs": { "type": "name", "properties": { "name": "urn:ogc:def:crs:EPSG::32618" } },
"xy_coordinate_resolution": 0.01,
"features": [
{ "type": "Feature", "properties": { "id": "osm:way/323697219", "name": null, "highway": "service", "lanes": null, "width": 4.5, "oneway": false, "surface": null, "footway": null, "sidewalk_left": false, "sidewalk_right": false, "generated_sidewalk": false, "bus_lanes": null, "bus_lane_side": null, "bus_only": false, "sidewalk": false, "bridge": false, "ramp": false, "tunnel": false, "layer": 0, "deck": null }, "geometry": { "type": "LineString", "coordinates": [ [ 281808.31, 4154934.74 ], [ 281815.43, 4154937.91 ], [ 281860.28, 4154957.86 ], [ 281903.89, 4154977.27 ], [ 281911.34, 4154980.59 ], [ 281918.75, 4154983.98 ], [ 281953.82, 4155000.0 ] ] } },
{ "type": "Feature", "properties": { "id": "osm:way/692873529", "name": "Semmes Avenue", "highway": "primary", "lanes": 2.0, "width": 11.0, "oneway": true, "surface": "asphalt", "footway": null, "sidewalk_left": null, "sidewalk_right": false, "generated_sidewalk": true, "bus_lanes": null, "bus_lane_side": null, "bus_only": false, "sidewalk": false, "bridge": false, "ramp": false, "tunnel": false, "layer": 0, "deck": null }, "geometry": { "type": "LineString", "coordinates": [ [ 281786.05, 4154983.79 ], [ 281792.15, 4154986.63 ], [ 281820.84, 4155000.0 ] ] } },
{ "type": "Feature", "properties": { "id": "osm:way/692873530", "name": "Semmes Avenue", "highway": "primary", "lanes": 2.0, "width": 11.0, "oneway": true, "surface": "asphalt", "footway": null, "sidewalk_left": null, "sidewalk_right": false, "generated_sidewalk": true, "bus_lanes": null, "bus_lane_side": null, "bus_only": false, "sidewalk": false, "bridge": false, "ramp": false, "tunnel": false, "layer": 0, "deck": null }, "geometry": { "type": "LineString", "coordinates": [ [ 281799.69, 4155000.0 ], [ 281790.85, 4154995.92 ], [ 281788.36, 4154994.78 ], [ 281782.48, 4154991.8 ] ] } },
{ "type": "Feature", "properties": { "id": "osm:way/682375326", "name": "West 33rd Street", "highway": "residential", "lanes": null, "width": 7.0, "oneway": false, "surface": null, "footway": null, "sidewalk_left": false, "sidewalk_right": false, "generated_sidewalk": true, "bus_lanes": null, "bus_lane_side": null, "bus_only": false, "sidewalk": false, "bridge": false, "ramp": false, "tunnel": false, "layer": 0, "deck": null }, "geometry": { "type": "LineString", "coordinates": [ [ 281934.08, 4154927.88 ], [ 281933.32, 4154932.17 ], [ 281931.46, 4154937.13 ], [ 281911.34, 4154980.59 ], [ 281902.44, 4155000.0 ] ] } }
]
}
