{
"type": "FeatureCollection",
"name": "crossings",
"crs": { "type": "name", "properties": { "name": "urn:ogc:def:crs:EPSG::32618" } },
"xy_coordinate_resolution": 0.01,
"features": [
{ "type": "Feature", "properties": { "id": "osm:node/7690231742", "crossing": "unmarked", "crossing_markings": "no", "road_id": "osm:way/6041064", "road_width": 7.0, "road_dx": 0.998714, "road_dy": -0.05069, "road_x": 283184.3, "road_y": 4158000.64, "crossing_island": false }, "geometry": { "type": "Point", "coordinates": [ 283184.3, 4158000.64 ] } },
{ "type": "Feature", "properties": { "id": "osm:node/7690231755", "crossing": "unmarked", "crossing_markings": "no", "road_id": "osm:way/174327782", "road_width": 7.0, "road_dx": -0.999195, "road_dy": 0.040112, "road_x": 283197.63, "road_y": 4158013.96, "crossing_island": false }, "geometry": { "type": "Point", "coordinates": [ 283197.63, 4158013.96 ] } },
{ "type": "Feature", "properties": { "id": "osm:node/14074986635", "crossing": "unmarked", "crossing_markings": null, "road_id": null, "road_width": null, "road_dx": null, "road_dy": null, "road_x": null, "road_y": null, "crossing_island": false }, "geometry": { "type": "Point", "coordinates": [ 283185.25, 4158035.6 ] } },
{ "type": "Feature", "properties": { "id": "osm:node/7687533363", "crossing": "traffic_signals", "crossing_markings": "zebra", "road_id": "osm:way/152640955", "road_width": 7.0, "road_dx": -0.03635, "road_dy": -0.999339, "road_x": 283194.11, "road_y": 4158103.74, "crossing_island": false }, "geometry": { "type": "Point", "coordinates": [ 283194.11, 4158103.74 ] } },
{ "type": "Feature", "properties": { "id": "osm:node/9002498134", "crossing": "traffic_signals", "crossing_markings": "zebra", "road_id": "osm:way/823415271", "road_width": 8.0, "road_dx": -0.498118, "road_dy": -0.867109, "road_x": 283033.99, "road_y": 4158107.09, "crossing_island": false }, "geometry": { "type": "Point", "coordinates": [ 283033.99, 4158107.09 ] } },
{ "type": "Feature", "properties": { "id": "osm:node/7687533352", "crossing": "traffic_signals", "crossing_markings": "zebra", "road_id": "osm:way/265141468", "road_width": 11.0, "road_dx": 0.999244, "road_dy": -0.03888, "road_x": 283203.97, "road_y": 4158111.99, "crossing_island": false }, "geometry": { "type": "Point", "coordinates": [ 283203.97, 4158111.99 ] } },
{ "type": "Feature", "properties": { "id": "osm:node/7687533353", "crossing": "traffic_signals", "crossing_markings": "zebra", "road_id": "osm:way/265141468", "road_width": 11.0, "road_dx": 0.999659, "road_dy": -0.026109, "road_x": 283188.23, "road_y": 4158112.6, "crossing_island": false }, "geometry": { "type": "Point", "coordinates": [ 283188.23, 4158112.6 ] } },
{ "type": "Feature", "properties": { "id": "osm:node/7687533354", "crossing": "traffic_signals", "crossing_markings": "zebra", "road_id": "osm:way/265141468", "road_width": 11.0, "road_dx": 0.999066, "road_dy": -0.043208, "road_x": 283050.71, "road_y": 4158116.51, "crossing_island": false }, "geometry": { "type": "Point", "coordinates": [ 283050.71, 4158116.51 ] } },
{ "type": "Feature", "properties": { "id": "osm:node/7687533355", "crossing": "traffic_signals", "crossing_markings": "zebra", "road_id": "osm:way/1357136450", "road_width": 11.0, "road_dx": 0.999659, "road_dy": -0.026129, "road_x": 283023.99, "road_y": 4158117.66, "crossing_island": false }, "geometry": { "type": "Point", "coordinates": [ 283023.99, 4158117.66 ] } },
{ "type": "Feature", "properties": { "id": "osm:node/9002498136", "crossing": "traffic_signals", "crossing_markings": "zebra", "road_id": "osm:way/1357136451", "road_width": 8.0, "road_dx": -0.454502, "road_dy": -0.890746, "road_x": 283044.32, "road_y": 4158125.06, "crossing_island": false }, "geometry": { "type": "Point", "coordinates": [ 283044.32, 4158125.06 ] } },
{ "type": "Feature", "properties": { "id": "osm:node/7687533317", "crossing": "unmarked", "crossing_markings": "no", "road_id": null, "road_width": null, "road_dx": null, "road_dy": null, "road_x": null, "road_y": null, "crossing_island": false }, "geometry": { "type": "Point", "coordinates": [ 283079.0, 4158214.53 ] } }
]
}
