{
"type": "FeatureCollection",
"name": "roads",
"crs": { "type": "name", "properties": { "name": "urn:ogc:def:crs:EPSG::32618" } },
"xy_coordinate_resolution": 0.01,
"features": [
{ "type": "Feature", "properties": { "id": "osm:way/152640954", "name": "North Linden Street", "highway": "residential", "lanes": 1.0, "width": 7.0, "oneway": true, "surface": "asphalt", "footway": null, "sidewalk_left": false, "sidewalk_right": false, "generated_sidewalk": true, "bus_lanes": null, "bus_lane_side": null, "bus_only": false, "sidewalk": false, "bridge": false, "ramp": false, "tunnel": false, "layer": 0, "deck": null }, "geometry": { "type": "LineString", "coordinates": [ [ 283209.58, 4158549.37 ], [ 283208.67, 4158526.94 ], [ 283207.58, 4158500.0 ] ] } },
{ "type": "Feature", "properties": { "id": "osm:way/823401536", "name": null, "highway": "footway", "lanes": null, "width": 2.0, "oneway": false, "surface": "paving_stones", "footway": "sidewalk", "sidewalk_left": false, "sidewalk_right": false, "generated_sidewalk": false, "bus_lanes": null, "bus_lane_side": null, "bus_only": false, "sidewalk": false, "bridge": false, "ramp": false, "tunnel": false, "layer": 0, "deck": null }, "geometry": { "type": "LineString", "coordinates": [ [ 283214.19, 4158546.56 ], [ 283213.7, 4158526.89 ], [ 283213.59, 4158522.69 ], [ 283212.9, 4158500.0 ] ] } },
{ "type": "Feature", "properties": { "id": "osm:way/1198819709", "name": null, "highway": "footway", "lanes": null, "width": 2.0, "oneway": false, "surface": "paving_stones", "footway": "sidewalk", "sidewalk_left": false, "sidewalk_right": false, "generated_sidewalk": false, "bus_lanes": null, "bus_lane_side": null, "bus_only": false, "sidewalk": false, "bridge": false, "ramp": false, "tunnel": false, "layer": 0, "deck": null }, "geometry": { "type": "LineString", "coordinates": [ [ 283201.24, 4158500.0 ], [ 283202.44, 4158527.93 ], [ 283203.13, 4158544.02 ] ] } },
{ "type": "Feature", "properties": { "id": "osm:way/60824606", "name": "Park Avenue", "highway": "pedestrian", "lanes": null, "width": 4.0, "oneway": false, "surface": "paving_stones", "footway": null, "sidewalk_left": false, "sidewalk_right": false, "generated_sidewalk": false, "bus_lanes": null, "bus_lane_side": null, "bus_only": false, "sidewalk": false, "bridge": false, "ramp": false, "tunnel": false, "layer": 0, "deck": null }, "geometry": { "type": "LineString", "coordinates": [ [ 283209.58, 4158549.37 ], [ 283214.19, 4158546.56 ], [ 283229.15, 4158538.0 ], [ 283230.6, 4158537.17 ], [ 283250.0, 4158527.78 ] ] } },
{ "type": "Feature", "properties": { "id": "osm:way/1181168332", "name": null, "highway": "footway", "lanes": null, "width": 2.0, "oneway": false, "surface": null, "footway": "sidewalk", "sidewalk_left": false, "sidewalk_right": false, "generated_sidewalk": false, "bus_lanes": null, "bus_lane_side": null, "bus_only": false, "sidewalk": false, "bridge": false, "ramp": false, "tunnel": false, "layer": 0, "deck": null }, "geometry": { "type": "LineString", "coordinates": [ [ 283213.7, 4158526.89 ], [ 283212.31, 4158526.81 ] ] } },
{ "type": "Feature", "properties": { "id": "osm:way/1181168330", "name": null, "highway": "footway", "lanes": null, "width": 2.0, "oneway": false, "surface": null, "footway": "crossing", "sidewalk_left": false, "sidewalk_right": false, "generated_sidewalk": false, "bus_lanes": null, "bus_lane_side": null, "bus_only": false, "sidewalk": false, "bridge": false, "ramp": false, "tunnel": false, "layer": 0, "deck": null }, "geometry": { "type": "LineString", "coordinates": [ [ 283212.31, 4158526.81 ], [ 283208.67, 4158526.94 ], [ 283206.09, 4158527.28 ] ] } },
{ "type": "Feature", "properties": { "id": "osm:way/1181168331", "name": null, "highway": "footway", "lanes": null, "width": 2.0, "oneway": false, "surface": null, "footway": "sidewalk", "sidewalk_left": false, "sidewalk_right": false, "generated_sidewalk": false, "bus_lanes": null, "bus_lane_side": null, "bus_only": false, "sidewalk": false, "bridge": false, "ramp": false, "tunnel": false, "layer": 0, "deck": null }, "geometry": { "type": "LineString", "coordinates": [ [ 283206.09, 4158527.28 ], [ 283202.44, 4158527.93 ] ] } },
{ "type": "Feature", "properties": { "id": "osm:way/1181168329", "name": null, "highway": "footway", "lanes": null, "width": 2.0, "oneway": false, "surface": null, "footway": null, "sidewalk_left": false, "sidewalk_right": false, "generated_sidewalk": false, "bus_lanes": null, "bus_lane_side": null, "bus_only": false, "sidewalk": false, "bridge": false, "ramp": false, "tunnel": false, "layer": 0, "deck": null }, "geometry": { "type": "LineString", "coordinates": [ [ 283223.79, 4158567.07 ], [ 283228.03, 4158562.25 ], [ 283229.65, 4158559.4 ], [ 283230.84, 4158555.95 ], [ 283231.64, 4158552.96 ], [ 283232.07, 4158549.73 ], [ 283232.16, 4158547.58 ], [ 283232.25, 4158545.75 ], [ 283231.58, 4158543.0 ], [ 283230.28, 4158540.08 ], [ 283229.15, 4158538.0 ], [ 283227.03, 4158534.6 ], [ 283224.91, 4158532.16 ], [ 283222.56, 4158530.43 ], [ 283219.64, 4158528.72 ], [ 283216.79, 4158527.46 ], [ 283213.95, 4158526.92 ], [ 283213.7, 4158526.89 ] ] } },
{ "type": "Feature", "properties": { "id": "osm:way/1181168328", "name": null, "highway": "footway", "lanes": null, "width": 2.0, "oneway": false, "surface": null, "footway": "sidewalk", "sidewalk_left": false, "sidewalk_right": false, "generated_sidewalk": false, "bus_lanes": null, "bus_lane_side": null, "bus_only": false, "sidewalk": false, "bridge": false, "ramp": false, "tunnel": false, "layer": 0, "deck": null }, "geometry": { "type": "LineString", "coordinates": [ [ 283188.74, 4158555.41 ], [ 283188.0, 4158552.32 ], [ 283187.62, 4158549.78 ], [ 283187.39, 4158545.04 ] ] } },
{ "type": "Feature", "properties": { "id": "osm:way/1181038715", "name": "Park Avenue", "highway": "residential", "lanes": 1.0, "width": 7.0, "oneway": true, "surface": "asphalt", "footway": null, "sidewalk_left": false, "sidewalk_right": false, "generated_sidewalk": true, "bus_lanes": null, "bus_lane_side": null, "bus_only": false, "sidewalk": false, "bridge": false, "ramp": false, "tunnel": false, "layer": 0, "deck": null }, "geometry": { "type": "LineString", "coordinates": [ [ 283181.12, 4158563.47 ], [ 283190.08, 4158559.03 ], [ 283209.58, 4158549.37 ] ] } },
{ "type": "Feature", "properties": { "id": "osm:way/823415279", "name": null, "highway": "footway", "lanes": null, "width": 2.0, "oneway": false, "surface": null, "footway": null, "sidewalk_left": false, "sidewalk_right": false, "generated_sidewalk": false, "bus_lanes": null, "bus_lane_side": null, "bus_only": false, "sidewalk": false, "bridge": false, "ramp": false, "tunnel": false, "layer": 0, "deck": null }, "geometry": { "type": "LineString", "coordinates": [ [ 283113.48, 4158502.74 ], [ 283111.29, 4158500.0 ] ] } },
{ "type": "Feature", "properties": { "id": "osm:way/822799775", "name": null, "highway": "footway", "lanes": null, "width": 2.0, "oneway": false, "surface": null, "footway": null, "sidewalk_left": false, "sidewalk_right": false, "generated_sidewalk": false, "bus_lanes": null, "bus_lane_side": null, "bus_only": false, "sidewalk": false, "bridge": false, "ramp": false, "tunnel": false, "layer": 0, "deck": null }, "geometry": { "type": "LineString", "coordinates": [ [ 283104.43, 4158511.18 ], [ 283113.72, 4158510.83 ] ] } },
{ "type": "Feature", "properties": { "id": "osm:way/822799774", "name": null, "highway": "footway", "lanes": null, "width": 2.0, "oneway": false, "surface": null, "footway": null, "sidewalk_left": false, "sidewalk_right": false, "generated_sidewalk": false, "bus_lanes": null, "bus_lane_side": null, "bus_only": false, "sidewalk": false, "bridge": false, "ramp": false, "tunnel": false, "layer": 0, "deck": null }, "geometry": { "type": "LineString", "coordinates": [ [ 283113.4, 4158500.0 ], [ 283113.48, 4158502.74 ], [ 283113.72, 4158510.83 ], [ 283115.89, 4158549.63 ] ] } },
{ "type": "Feature", "properties": { "id": "osm:way/823415286", "name": null, "highway": "footway", "lanes": null, "width": 2.0, "oneway": false, "surface": null, "footway": "sidewalk", "sidewalk_left": false, "sidewalk_right": false, "generated_sidewalk": false, "bus_lanes": null, "bus_lane_side": null, "bus_only": false, "sidewalk": false, "bridge": false, "ramp": false, "tunnel": false, "layer": 0, "deck": null }, "geometry": { "type": "LineString", "coordinates": [ [ 283115.89, 4158549.63 ], [ 283187.39, 4158545.04 ], [ 283203.13, 4158544.02 ], [ 283209.58, 4158549.37 ] ] } },
{ "type": "Feature", "properties": { "id": "osm:way/823415282", "name": null, "highway": "footway", "lanes": null, "width": 2.0, "oneway": false, "surface": null, "footway": "sidewalk", "sidewalk_left": false, "sidewalk_right": false, "generated_sidewalk": false, "bus_lanes": null, "bus_lane_side": null, "bus_only": false, "sidewalk": false, "bridge": false, "ramp": false, "tunnel": false, "layer": 0, "deck": null }, "geometry": { "type": "LineString", "coordinates": [ [ 283105.78, 4158550.03 ], [ 283115.89, 4158549.63 ] ] } },
{ "type": "Feature", "properties": { "id": "osm:way/6033921", "name": "Grove Avenue", "highway": "residential", "lanes": 2.0, "width": 7.0, "oneway": true, "surface": "asphalt", "footway": null, "sidewalk_left": true, "sidewalk_right": false, "generated_sidewalk": true, "bus_lanes": null, "bus_lane_side": null, "bus_only": false, "sidewalk": false, "bridge": false, "ramp": false, "tunnel": false, "layer": 0, "deck": null }, "geometry": { "type": "LineString", "coordinates": [ [ 283099.99, 4158557.55 ], [ 283106.7, 4158556.62 ], [ 283172.2, 4158552.89 ], [ 283174.44, 4158553.37 ], [ 283176.11, 4158554.33 ], [ 283181.12, 4158563.47 ] ] } },
{ "type": "Feature", "properties": { "id": "osm:way/1198819703", "name": null, "highway": "footway", "lanes": null, "width": 2.0, "oneway": false, "surface": null, "footway": null, "sidewalk_left": false, "sidewalk_right": false, "generated_sidewalk": false, "bus_lanes": null, "bus_lane_side": null, "bus_only": false, "sidewalk": false, "bridge": false, "ramp": false, "tunnel": false, "layer": 0, "deck": null }, "geometry": { "type": "LineString", "coordinates": [ [ 283129.73, 4158568.08 ], [ 283129.34, 4158565.22 ] ] } },
{ "type": "Feature", "properties": { "id": "osm:way/1198819704", "name": null, "highway": "footway", "lanes": null, "width": 2.0, "oneway": false, "surface": null, "footway": null, "sidewalk_left": false, "sidewalk_right": false, "generated_sidewalk": false, "bus_lanes": null, "bus_lane_side": null, "bus_only": false, "sidewalk": false, "bridge": false, "ramp": false, "tunnel": false, "layer": 0, "deck": null }, "geometry": { "type": "LineString", "coordinates": [ [ 283152.48, 4158563.82 ], [ 283152.93, 4158566.26 ], [ 283153.77, 4158568.82 ], [ 283154.88, 4158570.92 ] ] } },
{ "type": "Feature", "properties": { "id": "osm:way/1198819705", "name": null, "highway": "footway", "lanes": null, "width": 2.0, "oneway": false, "surface": "asphalt", "footway": "crossing", "sidewalk_left": false, "sidewalk_right": false, "generated_sidewalk": false, "bus_lanes": null, "bus_lane_side": null, "bus_only": false, "sidewalk": false, "bridge": false, "ramp": false, "tunnel": false, "layer": 0, "deck": null }, "geometry": { "type": "LineString", "coordinates": [ [ 283165.61, 4158563.91 ], [ 283168.37, 4158565.24 ], [ 283170.61, 4158569.18 ], [ 283174.11, 4158575.36 ] ] } },
{ "type": "Feature", "properties": { "id": "osm:way/1198819701", "name": null, "highway": "footway", "lanes": null, "width": 2.0, "oneway": false, "surface": null, "footway": null, "sidewalk_left": false, "sidewalk_right": false, "generated_sidewalk": false, "bus_lanes": null, "bus_lane_side": null, "bus_only": false, "sidewalk": false, "bridge": false, "ramp": false, "tunnel": false, "layer": 0, "deck": null }, "geometry": { "type": "LineString", "coordinates": [ [ 283126.98, 4158578.57 ], [ 283128.61, 4158579.58 ], [ 283130.64, 4158580.05 ], [ 283132.72, 4158579.8 ], [ 283134.59, 4158578.86 ], [ 283136.03, 4158577.36 ], [ 283136.87, 4158575.45 ], [ 283137.01, 4158573.37 ], [ 283136.44, 4158571.37 ], [ 283135.22, 4158569.68 ], [ 283133.49, 4158568.5 ], [ 283131.65, 4158567.99 ], [ 283129.73, 4158568.08 ], [ 283127.93, 4158568.76 ], [ 283126.45, 4158569.97 ], [ 283125.4, 4158571.57 ], [ 283124.92, 4158573.43 ], [ 283125.04, 4158575.33 ], [ 283125.75, 4158577.1 ], [ 283126.98, 4158578.57 ] ] } },
{ "type": "Feature", "properties": { "id": "osm:way/1220581050", "name": null, "highway": "service", "lanes": null, "width": 4.5, "oneway": false, "surface": null, "footway": null, "sidewalk_left": false, "sidewalk_right": false, "generated_sidewalk": false, "bus_lanes": null, "bus_lane_side": null, "bus_only": false, "sidewalk": false, "bridge": false, "ramp": false, "tunnel": false, "layer": 0, "deck": null }, "geometry": { "type": "LineString", "coordinates": [ [ 283034.92, 4158500.0 ], [ 283035.33, 4158513.67 ] ] } },
{ "type": "Feature", "properties": { "id": "osm:way/1198819713", "name": null, "highway": "footway", "lanes": null, "width": 2.0, "oneway": false, "surface": null, "footway": "sidewalk", "sidewalk_left": false, "sidewalk_right": false, "generated_sidewalk": false, "bus_lanes": null, "bus_lane_side": null, "bus_only": false, "sidewalk": false, "bridge": false, "ramp": false, "tunnel": false, "layer": 0, "deck": null }, "geometry": { "type": "LineString", "coordinates": [ [ 283104.0, 4158500.0 ], [ 283104.43, 4158511.18 ], [ 283105.78, 4158550.03 ] ] } },
{ "type": "Feature", "properties": { "id": "osm:way/823415274", "name": "North Harrison Street", "highway": "tertiary", "lanes": null, "width": 8.0, "oneway": false, "surface": "asphalt", "footway": null, "sidewalk_left": false, "sidewalk_right": false, "generated_sidewalk": true, "bus_lanes": null, "bus_lane_side": null, "bus_only": false, "sidewalk": false, "bridge": false, "ramp": false, "tunnel": false, "layer": 0, "deck": null }, "geometry": { "type": "LineString", "coordinates": [ [ 283098.33, 4158500.0 ], [ 283099.98, 4158550.44 ], [ 283099.99, 4158557.55 ] ] } },
{ "type": "Feature", "properties": { "id": "osm:way/1125242974", "name": null, "highway": "footway", "lanes": null, "width": 2.0, "oneway": false, "surface": "paving_stones", "footway": "sidewalk", "sidewalk_left": false, "sidewalk_right": false, "generated_sidewalk": false, "bus_lanes": null, "bus_lane_side": null, "bus_only": false, "sidewalk": false, "bridge": false, "ramp": false, "tunnel": false, "layer": 0, "deck": null }, "geometry": { "type": "LineString", "coordinates": [ [ 283000.0, 4158554.72 ], [ 283092.94, 4158550.92 ], [ 283091.43, 4158500.0 ] ] } },
{ "type": "Feature", "properties": { "id": "osm:way/1125076133", "name": null, "highway": "footway", "lanes": null, "width": 2.0, "oneway": false, "surface": "asphalt", "footway": "crossing", "sidewalk_left": false, "sidewalk_right": false, "generated_sidewalk": false, "bus_lanes": null, "bus_lane_side": null, "bus_only": false, "sidewalk": false, "bridge": false, "ramp": false, "tunnel": false, "layer": 0, "deck": null }, "geometry": { "type": "LineString", "coordinates": [ [ 283105.78, 4158550.03 ], [ 283099.98, 4158550.44 ], [ 283092.94, 4158550.92 ] ] } },
{ "type": "Feature", "properties": { "id": "osm:way/1125076130", "name": null, "highway": "footway", "lanes": null, "width": 2.0, "oneway": false, "surface": "asphalt", "footway": "crossing", "sidewalk_left": false, "sidewalk_right": false, "generated_sidewalk": false, "bus_lanes": null, "bus_lane_side": null, "bus_only": false, "sidewalk": false, "bridge": false, "ramp": false, "tunnel": false, "layer": 0, "deck": null }, "geometry": { "type": "LineString", "coordinates": [ [ 283105.78, 4158550.03 ], [ 283106.7, 4158556.62 ], [ 283107.48, 4158562.32 ] ] } },
{ "type": "Feature", "properties": { "id": "osm:way/1125242973", "name": null, "highway": "footway", "lanes": null, "width": 2.0, "oneway": false, "surface": "asphalt", "footway": "crossing", "sidewalk_left": false, "sidewalk_right": false, "generated_sidewalk": false, "bus_lanes": null, "bus_lane_side": null, "bus_only": false, "sidewalk": false, "bridge": false, "ramp": false, "tunnel": false, "layer": 0, "deck": null }, "geometry": { "type": "LineString", "coordinates": [ [ 283094.06, 4158570.85 ], [ 283093.36, 4158558.33 ], [ 283092.94, 4158550.92 ] ] } },
{ "type": "Feature", "properties": { "id": "osm:way/823415273", "name": "Grove Avenue", "highway": "tertiary", "lanes": 2.0, "width": 8.0, "oneway": false, "surface": "paved", "footway": null, "sidewalk_left": true, "sidewalk_right": true, "generated_sidewalk": true, "bus_lanes": null, "bus_lane_side": null, "bus_only": false, "sidewalk": false, "bridge": false, "ramp": false, "tunnel": false, "layer": 0, "deck": null }, "geometry": { "type": "LineString", "coordinates": [ [ 283099.99, 4158557.55 ], [ 283093.36, 4158558.33 ], [ 283000.0, 4158563.87 ] ] } },
{ "type": "Feature", "properties": { "id": "osm:way/1125076132", "name": null, "highway": "footway", "lanes": null, "width": 2.0, "oneway": false, "surface": "asphalt", "footway": "crossing", "sidewalk_left": false, "sidewalk_right": false, "generated_sidewalk": false, "bus_lanes": null, "bus_lane_side": null, "bus_only": false, "sidewalk": false, "bridge": false, "ramp": false, "tunnel": false, "layer": 0, "deck": null }, "geometry": { "type": "LineString", "coordinates": [ [ 283108.56, 4158567.02 ], [ 283101.92, 4158568.83 ], [ 283094.06, 4158570.85 ] ] } },
{ "type": "Feature", "properties": { "id": "osm:way/1125242972", "name": null, "highway": "footway", "lanes": null, "width": 2.0, "oneway": false, "surface": null, "footway": "sidewalk", "sidewalk_left": false, "sidewalk_right": false, "generated_sidewalk": false, "bus_lanes": null, "bus_lane_side": null, "bus_only": false, "sidewalk": false, "bridge": false, "ramp": false, "tunnel": false, "layer": 0, "deck": null }, "geometry": { "type": "LineString", "coordinates": [ [ 283050.51, 4158629.45 ], [ 283081.42, 4158612.25 ], [ 283108.19, 4158597.37 ], [ 283103.82, 4158589.42 ], [ 283099.19, 4158579.88 ], [ 283096.53, 4158575.68 ], [ 283094.06, 4158570.85 ], [ 283086.17, 4158569.0 ], [ 283074.27, 4158568.35 ], [ 283041.06, 4158569.92 ], [ 283000.0, 4158571.49 ] ] } },
{ "type": "Feature", "properties": { "id": "osm:way/1181168327", "name": null, "highway": "footway", "lanes": null, "width": 2.0, "oneway": false, "surface": null, "footway": "crossing", "sidewalk_left": false, "sidewalk_right": false, "generated_sidewalk": false, "bus_lanes": null, "bus_lane_side": null, "bus_only": false, "sidewalk": false, "bridge": false, "ramp": false, "tunnel": false, "layer": 0, "deck": null }, "geometry": { "type": "LineString", "coordinates": [ [ 283191.2, 4158561.17 ], [ 283190.08, 4158559.03 ], [ 283188.74, 4158555.41 ] ] } },
{ "type": "Feature", "properties": { "id": "osm:way/1181168326", "name": null, "highway": "footway", "lanes": null, "width": 2.0, "oneway": false, "surface": null, "footway": "sidewalk", "sidewalk_left": false, "sidewalk_right": false, "generated_sidewalk": false, "bus_lanes": null, "bus_lane_side": null, "bus_only": false, "sidewalk": false, "bridge": false, "ramp": false, "tunnel": false, "layer": 0, "deck": null }, "geometry": { "type": "LineString", "coordinates": [ [ 283191.96, 4158562.35 ], [ 283191.2, 4158561.17 ] ] } },
{ "type": "Feature", "properties": { "id": "osm:way/266695479", "name": null, "highway": "footway", "lanes": null, "width": 2.0, "oneway": false, "surface": null, "footway": null, "sidewalk_left": false, "sidewalk_right": false, "generated_sidewalk": false, "bus_lanes": null, "bus_lane_side": null, "bus_only": false, "sidewalk": false, "bridge": false, "ramp": false, "tunnel": false, "layer": 0, "deck": null }, "geometry": { "type": "LineString", "coordinates": [ [ 283250.0, 4158590.82 ], [ 283239.95, 4158578.55 ], [ 283223.79, 4158567.07 ], [ 283218.86, 4158563.57 ], [ 283212.66, 4158554.3 ], [ 283209.58, 4158549.37 ] ] } },
{ "type": "Feature", "properties": { "id": "osm:way/268490112", "name": null, "highway": "service", "lanes": null, "width": 4.5, "oneway": false, "surface": null, "footway": null, "sidewalk_left": false, "sidewalk_right": false, "generated_sidewalk": false, "bus_lanes": null, "bus_lane_side": null, "bus_only": false, "sidewalk": false, "bridge": false, "ramp": false, "tunnel": false, "layer": 0, "deck": null }, "geometry": { "type": "LineString", "coordinates": [ [ 283250.0, 4158592.4 ], [ 283232.2, 4158605.91 ], [ 283230.65, 4158607.1 ], [ 283218.69, 4158616.25 ] ] } },
{ "type": "Feature", "properties": { "id": "osm:way/1200972159", "name": null, "highway": "footway", "lanes": null, "width": 2.0, "oneway": false, "surface": null, "footway": null, "sidewalk_left": false, "sidewalk_right": false, "generated_sidewalk": false, "bus_lanes": null, "bus_lane_side": null, "bus_only": false, "sidewalk": false, "bridge": false, "ramp": false, "tunnel": false, "layer": 0, "deck": null }, "geometry": { "type": "LineString", "coordinates": [ [ 283250.0, 4158614.76 ], [ 283241.84, 4158621.15 ] ] } },
{ "type": "Feature", "properties": { "id": "osm:way/1093800285", "name": "West Franklin Street", "highway": "tertiary", "lanes": null, "width": 8.0, "oneway": true, "surface": "asphalt", "footway": null, "sidewalk_left": null, "sidewalk_right": false, "generated_sidewalk": true, "bus_lanes": null, "bus_lane_side": null, "bus_only": false, "sidewalk": false, "bridge": false, "ramp": false, "tunnel": false, "layer": 0, "deck": null }, "geometry": { "type": "LineString", "coordinates": [ [ 283223.85, 4158731.86 ], [ 283228.71, 4158728.03 ], [ 283250.0, 4158711.25 ] ] } },
{ "type": "Feature", "properties": { "id": "osm:way/268490111", "name": null, "highway": "service", "lanes": null, "width": 4.5, "oneway": false, "surface": null, "footway": null, "sidewalk_left": false, "sidewalk_right": false, "generated_sidewalk": false, "bus_lanes": null, "bus_lane_side": null, "bus_only": false, "sidewalk": false, "bridge": false, "ramp": false, "tunnel": false, "layer": 0, "deck": null }, "geometry": { "type": "LineString", "coordinates": [ [ 283239.05, 4158646.38 ], [ 283239.34, 4158644.25 ], [ 283238.67, 4158641.19 ], [ 283218.69, 4158616.25 ], [ 283209.02, 4158604.19 ], [ 283205.21, 4158604.16 ], [ 283202.05, 4158605.55 ], [ 283198.55, 4158607.65 ], [ 283158.37, 4158639.1 ], [ 283153.34, 4158643.04 ] ] } },
{ "type": "Feature", "properties": { "id": "osm:way/268490113", "name": null, "highway": "service", "lanes": null, "width": 4.5, "oneway": false, "surface": "sett", "footway": null, "sidewalk_left": false, "sidewalk_right": false, "generated_sidewalk": false, "bus_lanes": null, "bus_lane_side": null, "bus_only": false, "sidewalk": false, "bridge": false, "ramp": false, "tunnel": false, "layer": 0, "deck": null }, "geometry": { "type": "LineString", "coordinates": [ [ 283250.0, 4158631.41 ], [ 283241.84, 4158621.15 ], [ 283230.65, 4158607.1 ] ] } },
{ "type": "Feature", "properties": { "id": "osm:way/1125076129", "name": null, "highway": "footway", "lanes": null, "width": 2.0, "oneway": false, "surface": null, "footway": "sidewalk", "sidewalk_left": false, "sidewalk_right": false, "generated_sidewalk": false, "bus_lanes": null, "bus_lane_side": null, "bus_only": false, "sidewalk": false, "bridge": false, "ramp": false, "tunnel": false, "layer": 0, "deck": null }, "geometry": { "type": "LineString", "coordinates": [ [ 283250.0, 4158702.23 ], [ 283224.48, 4158722.51 ] ] } },
{ "type": "Feature", "properties": { "id": "osm:way/268490110", "name": null, "highway": "service", "lanes": null, "width": 4.5, "oneway": false, "surface": null, "footway": null, "sidewalk_left": false, "sidewalk_right": false, "generated_sidewalk": false, "bus_lanes": null, "bus_lane_side": null, "bus_only": false, "sidewalk": false, "bridge": false, "ramp": false, "tunnel": false, "layer": 0, "deck": null }, "geometry": { "type": "LineString", "coordinates": [ [ 283188.19, 4158687.22 ], [ 283192.99, 4158683.36 ], [ 283239.05, 4158646.38 ] ] } },
{ "type": "Feature", "properties": { "id": "osm:way/1125076131", "name": null, "highway": "footway", "lanes": null, "width": 2.0, "oneway": false, "surface": null, "footway": "sidewalk", "sidewalk_left": false, "sidewalk_right": false, "generated_sidewalk": false, "bus_lanes": null, "bus_lane_side": null, "bus_only": false, "sidewalk": false, "bridge": false, "ramp": false, "tunnel": false, "layer": 0, "deck": null }, "geometry": { "type": "MultiLineString", "coordinates": [ [ [ 283108.56, 4158567.02 ], [ 283112.78, 4158566.23 ], [ 283129.34, 4158565.22 ], [ 283152.48, 4158563.82 ], [ 283165.21, 4158563.05 ], [ 283165.61, 4158563.91 ], [ 283165.31, 4158564.96 ], [ 283163.48, 4158566.1 ], [ 283154.88, 4158570.92 ], [ 283133.83, 4158582.73 ], [ 283122.76, 4158588.94 ], [ 283121.4, 4158589.6 ], [ 283119.76, 4158587.43 ], [ 283109.76, 4158570.37 ], [ 283108.56, 4158567.02 ] ], [ [ 283108.56, 4158567.02 ], [ 283107.48, 4158562.32 ] ] ] } },
{ "type": "Feature", "properties": { "id": "osm:way/6033296", "name": "Park Avenue", "highway": "residential", "lanes": 2.0, "width": 7.0, "oneway": false, "surface": "asphalt", "footway": null, "sidewalk_left": false, "sidewalk_right": null, "generated_sidewalk": true, "bus_lanes": null, "bus_lane_side": null, "bus_only": false, "sidewalk": false, "bridge": false, "ramp": false, "tunnel": false, "layer": 0, "deck": null }, "geometry": { "type": "LineString", "coordinates": [ [ 283181.12, 4158563.47 ], [ 283170.61, 4158569.18 ], [ 283124.32, 4158594.32 ], [ 283117.62, 4158598.05 ] ] } },
{ "type": "Feature", "properties": { "id": "osm:way/1198819702", "name": null, "highway": "footway", "lanes": null, "width": 2.0, "oneway": false, "surface": null, "footway": null, "sidewalk_left": false, "sidewalk_right": false, "generated_sidewalk": false, "bus_lanes": null, "bus_lane_side": null, "bus_only": false, "sidewalk": false, "bridge": false, "ramp": false, "tunnel": false, "layer": 0, "deck": null }, "geometry": { "type": "LineString", "coordinates": [ [ 283132.72, 4158579.8 ], [ 283133.83, 4158582.73 ] ] } },
{ "type": "Feature", "properties": { "id": "osm:way/1125242952", "name": null, "highway": "footway", "lanes": null, "width": 2.0, "oneway": false, "surface": "asphalt", "footway": "crossing", "sidewalk_left": false, "sidewalk_right": false, "generated_sidewalk": false, "bus_lanes": null, "bus_lane_side": null, "bus_only": false, "sidewalk": false, "bridge": false, "ramp": false, "tunnel": false, "layer": 0, "deck": null }, "geometry": { "type": "LineString", "coordinates": [ [ 283121.4, 4158589.6 ], [ 283115.08, 4158593.32 ], [ 283108.19, 4158597.37 ] ] } },
{ "type": "Feature", "properties": { "id": "osm:way/1125242953", "name": null, "highway": "footway", "lanes": null, "width": 2.0, "oneway": false, "surface": "asphalt", "footway": "crossing", "sidewalk_left": false, "sidewalk_right": false, "generated_sidewalk": false, "bus_lanes": null, "bus_lane_side": null, "bus_only": false, "sidewalk": false, "bridge": false, "ramp": false, "tunnel": false, "layer": 0, "deck": null }, "geometry": { "type": "LineString", "coordinates": [ [ 283121.4, 4158589.6 ], [ 283124.32, 4158594.32 ], [ 283128.04, 4158600.34 ] ] } },
{ "type": "Feature", "properties": { "id": "osm:way/1125715491", "name": null, "highway": "footway", "lanes": null, "width": 2.0, "oneway": false, "surface": null, "footway": null, "sidewalk_left": false, "sidewalk_right": false, "generated_sidewalk": false, "bus_lanes": null, "bus_lane_side": null, "bus_only": false, "sidewalk": false, "bridge": false, "ramp": false, "tunnel": false, "layer": 0, "deck": null }, "geometry": { "type": "LineString", "coordinates": [ [ 283146.32, 4158590.76 ], [ 283142.71, 4158603.14 ], [ 283141.65, 4158605.71 ], [ 283136.83, 4158611.58 ] ] } },
{ "type": "Feature", "properties": { "id": "osm:way/1125242954", "name": null, "highway": "footway", "lanes": null, "width": 2.0, "oneway": false, "surface": "asphalt", "footway": "crossing", "sidewalk_left": false, "sidewalk_right": false, "generated_sidewalk": false, "bus_lanes": null, "bus_lane_side": null, "bus_only": false, "sidewalk": false, "bridge": false, "ramp": false, "tunnel": false, "layer": 0, "deck": null }, "geometry": { "type": "LineString", "coordinates": [ [ 283108.19, 4158597.37 ], [ 283111.58, 4158601.2 ], [ 283116.54, 4158606.83 ] ] } },
{ "type": "Feature", "properties": { "id": "osm:way/1125242955", "name": null, "highway": "footway", "lanes": null, "width": 2.0, "oneway": false, "surface": "asphalt", "footway": "crossing", "sidewalk_left": false, "sidewalk_right": false, "generated_sidewalk": false, "bus_lanes": null, "bus_lane_side": null, "bus_only": false, "sidewalk": false, "bridge": false, "ramp": false, "tunnel": false, "layer": 0, "deck": null }, "geometry": { "type": "LineString", "coordinates": [ [ 283116.54, 4158606.83 ], [ 283122.12, 4158603.67 ], [ 283128.04, 4158600.34 ] ] } },
{ "type": "Feature", "properties": { "id": "osm:way/1125715490", "name": null, "highway": "footway", "lanes": null, "width": 2.0, "oneway": false, "surface": null, "footway": "sidewalk", "sidewalk_left": false, "sidewalk_right": false, "generated_sidewalk": false, "bus_lanes": null, "bus_lane_side": null, "bus_only": false, "sidewalk": false, "bridge": false, "ramp": false, "tunnel": false, "layer": 0, "deck": null }, "geometry": { "type": "LineString", "coordinates": [ [ 283224.48, 4158722.51 ], [ 283221.27, 4158719.52 ], [ 283192.99, 4158683.36 ], [ 283168.72, 4158652.35 ], [ 283158.37, 4158639.1 ], [ 283136.83, 4158611.58 ], [ 283128.04, 4158600.34 ], [ 283146.32, 4158590.76 ], [ 283170.98, 4158577.03 ], [ 283174.11, 4158575.36 ], [ 283189.13, 4158567.38 ], [ 283190.34, 4158563.2 ], [ 283191.96, 4158562.35 ], [ 283206.99, 4158554.46 ], [ 283209.58, 4158549.37 ] ] } },
{ "type": "Feature", "properties": { "id": "osm:way/823415272", "name": "North Harrison Street", "highway": "tertiary", "lanes": null, "width": 8.0, "oneway": false, "surface": "asphalt", "footway": null, "sidewalk_left": false, "sidewalk_right": false, "generated_sidewalk": true, "bus_lanes": null, "bus_lane_side": null, "bus_only": false, "sidewalk": false, "bridge": false, "ramp": false, "tunnel": false, "layer": 0, "deck": null }, "geometry": { "type": "LineString", "coordinates": [ [ 283099.99, 4158557.55 ], [ 283101.92, 4158568.83 ], [ 283115.08, 4158593.32 ], [ 283117.62, 4158598.05 ], [ 283122.12, 4158603.67 ], [ 283139.33, 4158625.41 ], [ 283153.34, 4158643.04 ], [ 283162.05, 4158654.06 ], [ 283164.66, 4158657.38 ], [ 283188.19, 4158687.22 ], [ 283216.5, 4158722.64 ], [ 283219.47, 4158726.36 ], [ 283223.85, 4158731.86 ] ] } },
{ "type": "Feature", "properties": { "id": "osm:way/268503272", "name": null, "highway": "service", "lanes": null, "width": 4.5, "oneway": false, "surface": "sett", "footway": null, "sidewalk_left": false, "sidewalk_right": false, "generated_sidewalk": false, "bus_lanes": null, "bus_lane_side": null, "bus_only": false, "sidewalk": false, "bridge": false, "ramp": false, "tunnel": false, "layer": 0, "deck": null }, "geometry": { "type": "LineString", "coordinates": [ [ 283035.2, 4158604.74 ], [ 283050.07, 4158604.53 ], [ 283059.48, 4158604.24 ], [ 283073.56, 4158604.03 ], [ 283077.85, 4158606.56 ], [ 283080.29, 4158610.08 ], [ 283081.42, 4158612.25 ], [ 283083.32, 4158615.91 ] ] } },
{ "type": "Feature", "properties": { "id": "osm:way/1181051370", "name": null, "highway": "service", "lanes": null, "width": 4.5, "oneway": false, "surface": "sett", "footway": null, "sidewalk_left": false, "sidewalk_right": false, "generated_sidewalk": false, "bus_lanes": null, "bus_lane_side": null, "bus_only": false, "sidewalk": false, "bridge": false, "ramp": false, "tunnel": false, "layer": 0, "deck": null }, "geometry": { "type": "LineString", "coordinates": [ [ 283000.0, 4158614.23 ], [ 283019.67, 4158613.38 ], [ 283028.44, 4158606.12 ] ] } },
{ "type": "Feature", "properties": { "id": "osm:way/1181051369", "name": null, "highway": "service", "lanes": null, "width": 4.5, "oneway": false, "surface": null, "footway": null, "sidewalk_left": false, "sidewalk_right": false, "generated_sidewalk": false, "bus_lanes": null, "bus_lane_side": null, "bus_only": false, "sidewalk": false, "bridge": false, "ramp": false, "tunnel": false, "layer": 0, "deck": null }, "geometry": { "type": "LineString", "coordinates": [ [ 283050.07, 4158604.53 ], [ 283050.51, 4158629.45 ], [ 283050.58, 4158633.73 ] ] } },
{ "type": "Feature", "properties": { "id": "osm:way/1125242956", "name": null, "highway": "footway", "lanes": null, "width": 2.0, "oneway": false, "surface": null, "footway": "sidewalk", "sidewalk_left": false, "sidewalk_right": false, "generated_sidewalk": false, "bus_lanes": null, "bus_lane_side": null, "bus_only": false, "sidewalk": false, "bridge": false, "ramp": false, "tunnel": false, "layer": 0, "deck": null }, "geometry": { "type": "LineString", "coordinates": [ [ 283050.4, 4158643.84 ], [ 283051.57, 4158643.23 ], [ 283110.7, 4158609.74 ], [ 283116.54, 4158606.83 ], [ 283134.81, 4158628.98 ], [ 283152.81, 4158653.05 ] ] } },
{ "type": "Feature", "properties": { "id": "osm:way/1214693974", "name": null, "highway": "footway", "lanes": null, "width": 2.0, "oneway": false, "surface": null, "footway": "sidewalk", "sidewalk_left": false, "sidewalk_right": false, "generated_sidewalk": false, "bus_lanes": null, "bus_lane_side": null, "bus_only": false, "sidewalk": false, "bridge": false, "ramp": false, "tunnel": false, "layer": 0, "deck": null }, "geometry": { "type": "LineString", "coordinates": [ [ 283000.0, 4158653.22 ], [ 283000.08, 4158655.1 ], [ 283000.88, 4158655.97 ], [ 283002.32, 4158655.96 ], [ 283007.45, 4158653.4 ], [ 283050.51, 4158629.45 ] ] } },
{ "type": "Feature", "properties": { "id": "osm:way/1125242957", "name": null, "highway": "footway", "lanes": null, "width": 2.0, "oneway": false, "surface": null, "footway": "crossing", "sidewalk_left": false, "sidewalk_right": false, "generated_sidewalk": false, "bus_lanes": null, "bus_lane_side": null, "bus_only": false, "sidewalk": false, "bridge": false, "ramp": false, "tunnel": false, "layer": 0, "deck": null }, "geometry": { "type": "LineString", "coordinates": [ [ 283050.4, 4158643.84 ], [ 283047.56, 4158645.15 ], [ 283043.69, 4158646.94 ] ] } },
{ "type": "Feature", "properties": { "id": "osm:way/268495593", "name": null, "highway": "service", "lanes": null, "width": 4.5, "oneway": false, "surface": null, "footway": null, "sidewalk_left": false, "sidewalk_right": false, "generated_sidewalk": false, "bus_lanes": null, "bus_lane_side": null, "bus_only": false, "sidewalk": false, "bridge": false, "ramp": false, "tunnel": false, "layer": 0, "deck": null }, "geometry": { "type": "LineString", "coordinates": [ [ 283139.33, 4158625.41 ], [ 283134.81, 4158628.98 ], [ 283075.9, 4158675.4 ], [ 283072.65, 4158677.96 ] ] } },
{ "type": "Feature", "properties": { "id": "osm:way/1210072228", "name": null, "highway": "footway", "lanes": null, "width": 2.0, "oneway": false, "surface": null, "footway": "sidewalk", "sidewalk_left": false, "sidewalk_right": false, "generated_sidewalk": false, "bus_lanes": null, "bus_lane_side": null, "bus_only": false, "sidewalk": false, "bridge": false, "ramp": false, "tunnel": false, "layer": 0, "deck": null }, "geometry": { "type": "LineString", "coordinates": [ [ 283095.72, 4158699.86 ], [ 283091.74, 4158695.49 ], [ 283075.9, 4158675.4 ], [ 283053.15, 4158646.59 ], [ 283051.57, 4158643.23 ] ] } },
{ "type": "Feature", "properties": { "id": "osm:way/265141457", "name": "Park Avenue", "highway": "residential", "lanes": 2.0, "width": 7.0, "oneway": false, "surface": "asphalt", "footway": null, "sidewalk_left": false, "sidewalk_right": false, "generated_sidewalk": true, "bus_lanes": null, "bus_lane_side": null, "bus_only": false, "sidewalk": true, "bridge": false, "ramp": false, "tunnel": false, "layer": 0, "deck": null }, "geometry": { "type": "LineString", "coordinates": [ [ 283117.62, 4158598.05 ], [ 283111.58, 4158601.2 ], [ 283083.32, 4158615.91 ], [ 283050.58, 4158633.73 ], [ 283042.36, 4158638.2 ], [ 283000.0, 4158662.62 ] ] } },
{ "type": "Feature", "properties": { "id": "osm:way/1210072226", "name": null, "highway": "footway", "lanes": null, "width": 2.0, "oneway": false, "surface": "asphalt", "footway": "crossing", "sidewalk_left": false, "sidewalk_right": false, "generated_sidewalk": false, "bus_lanes": null, "bus_lane_side": null, "bus_only": false, "sidewalk": false, "bridge": false, "ramp": false, "tunnel": false, "layer": 0, "deck": null }, "geometry": { "type": "LineString", "coordinates": [ [ 283088.66, 4158703.69 ], [ 283091.95, 4158701.9 ], [ 283095.72, 4158699.86 ] ] } },
{ "type": "Feature", "properties": { "id": "osm:way/1125715496", "name": null, "highway": "footway", "lanes": null, "width": 2.0, "oneway": false, "surface": null, "footway": "sidewalk", "sidewalk_left": false, "sidewalk_right": false, "generated_sidewalk": false, "bus_lanes": null, "bus_lane_side": null, "bus_only": false, "sidewalk": false, "bridge": false, "ramp": false, "tunnel": false, "layer": 0, "deck": null }, "geometry": { "type": "LineString", "coordinates": [ [ 283186.07, 4158695.14 ], [ 283212.79, 4158728.98 ], [ 283213.31, 4158731.07 ], [ 283211.75, 4158733.98 ], [ 283191.42, 4158750.0 ] ] } },
{ "type": "Feature", "properties": { "id": "osm:way/1125715487", "name": null, "highway": "footway", "lanes": null, "width": 2.0, "oneway": false, "surface": "asphalt", "footway": "crossing", "sidewalk_left": false, "sidewalk_right": false, "generated_sidewalk": false, "bus_lanes": null, "bus_lane_side": null, "bus_only": false, "sidewalk": false, "bridge": false, "ramp": false, "tunnel": false, "layer": 0, "deck": null }, "geometry": { "type": "LineString", "coordinates": [ [ 283213.31, 4158731.07 ], [ 283219.47, 4158726.36 ], [ 283224.48, 4158722.51 ] ] } },
{ "type": "Feature", "properties": { "id": "osm:way/1125715488", "name": null, "highway": "footway", "lanes": null, "width": 2.0, "oneway": false, "surface": "asphalt", "footway": "crossing", "sidewalk_left": false, "sidewalk_right": false, "generated_sidewalk": false, "bus_lanes": null, "bus_lane_side": null, "bus_only": false, "sidewalk": false, "bridge": false, "ramp": false, "tunnel": false, "layer": 0, "deck": null }, "geometry": { "type": "LineString", "coordinates": [ [ 283234.75, 4158735.92 ], [ 283228.71, 4158728.03 ], [ 283224.48, 4158722.51 ] ] } },
{ "type": "Feature", "properties": { "id": "osm:way/1125715489", "name": null, "highway": "footway", "lanes": null, "width": 2.0, "oneway": false, "surface": "asphalt", "footway": "crossing", "sidewalk_left": false, "sidewalk_right": false, "generated_sidewalk": false, "bus_lanes": null, "bus_lane_side": null, "bus_only": false, "sidewalk": false, "bridge": false, "ramp": false, "tunnel": false, "layer": 0, "deck": null }, "geometry": { "type": "LineString", "coordinates": [ [ 283223.71, 4158744.49 ], [ 283217.68, 4158736.72 ], [ 283213.31, 4158731.07 ] ] } },
{ "type": "Feature", "properties": { "id": "osm:way/1125715486", "name": null, "highway": "footway", "lanes": null, "width": 2.0, "oneway": false, "surface": "asphalt", "footway": "crossing", "sidewalk_left": false, "sidewalk_right": false, "generated_sidewalk": false, "bus_lanes": null, "bus_lane_side": null, "bus_only": false, "sidewalk": false, "bridge": false, "ramp": false, "tunnel": false, "layer": 0, "deck": null }, "geometry": { "type": "LineString", "coordinates": [ [ 283223.71, 4158744.49 ], [ 283229.94, 4158739.53 ], [ 283234.75, 4158735.92 ] ] } },
{ "type": "Feature", "properties": { "id": "osm:way/1093800287", "name": "West Franklin Street", "highway": "tertiary", "lanes": null, "width": 8.0, "oneway": true, "surface": null, "footway": null, "sidewalk_left": null, "sidewalk_right": false, "generated_sidewalk": true, "bus_lanes": null, "bus_lane_side": null, "bus_only": false, "sidewalk": false, "bridge": false, "ramp": false, "tunnel": false, "layer": 0, "deck": null }, "geometry": { "type": "LineString", "coordinates": [ [ 283200.84, 4158750.0 ], [ 283215.19, 4158738.68 ], [ 283217.68, 4158736.72 ], [ 283223.85, 4158731.86 ] ] } },
{ "type": "Feature", "properties": { "id": "osm:way/1125715509", "name": null, "highway": "footway", "lanes": null, "width": 2.0, "oneway": false, "surface": null, "footway": "sidewalk", "sidewalk_left": false, "sidewalk_right": false, "generated_sidewalk": false, "bus_lanes": null, "bus_lane_side": null, "bus_only": false, "sidewalk": false, "bridge": false, "ramp": false, "tunnel": false, "layer": 0, "deck": null }, "geometry": { "type": "LineString", "coordinates": [ [ 283245.66, 4158750.0 ], [ 283234.75, 4158735.92 ], [ 283250.0, 4158724.2 ] ] } },
{ "type": "Feature", "properties": { "id": "osm:way/1093800286", "name": "North Harrison Street", "highway": "tertiary", "lanes": null, "width": 8.0, "oneway": false, "surface": "asphalt", "footway": null, "sidewalk_left": false, "sidewalk_right": false, "generated_sidewalk": true, "bus_lanes": null, "bus_lane_side": null, "bus_only": false, "sidewalk": false, "bridge": false, "ramp": false, "tunnel": false, "layer": 0, "deck": null }, "geometry": { "type": "LineString", "coordinates": [ [ 283223.85, 4158731.86 ], [ 283229.94, 4158739.53 ], [ 283232.69, 4158743.0 ], [ 283238.25, 4158750.0 ] ] } },
{ "type": "Feature", "properties": { "id": "osm:way/1125715493", "name": null, "highway": "footway", "lanes": null, "width": 2.0, "oneway": false, "surface": "asphalt", "footway": "crossing", "sidewalk_left": false, "sidewalk_right": false, "generated_sidewalk": false, "bus_lanes": null, "bus_lane_side": null, "bus_only": false, "sidewalk": false, "bridge": false, "ramp": false, "tunnel": false, "layer": 0, "deck": null }, "geometry": { "type": "LineString", "coordinates": [ [ 283160.75, 4158662.24 ], [ 283164.66, 4158657.38 ], [ 283168.72, 4158652.35 ] ] } },
{ "type": "Feature", "properties": { "id": "osm:way/1125715492", "name": null, "highway": "footway", "lanes": null, "width": 2.0, "oneway": false, "surface": "asphalt", "footway": "crossing", "sidewalk_left": false, "sidewalk_right": false, "generated_sidewalk": false, "bus_lanes": null, "bus_lane_side": null, "bus_only": false, "sidewalk": false, "bridge": false, "ramp": false, "tunnel": false, "layer": 0, "deck": null }, "geometry": { "type": "LineString", "coordinates": [ [ 283152.81, 4158653.05 ], [ 283157.13, 4158658.03 ], [ 283160.75, 4158662.24 ] ] } },
{ "type": "Feature", "properties": { "id": "osm:way/1210072224", "name": null, "highway": "footway", "lanes": null, "width": 2.0, "oneway": false, "surface": null, "footway": "sidewalk", "sidewalk_left": false, "sidewalk_right": false, "generated_sidewalk": false, "bus_lanes": null, "bus_lane_side": null, "bus_only": false, "sidewalk": false, "bridge": false, "ramp": false, "tunnel": false, "layer": 0, "deck": null }, "geometry": { "type": "LineString", "coordinates": [ [ 283152.81, 4158653.05 ], [ 283095.72, 4158699.86 ] ] } },
{ "type": "Feature", "properties": { "id": "osm:way/1125715494", "name": null, "highway": "footway", "lanes": null, "width": 2.0, "oneway": false, "surface": null, "footway": "sidewalk", "sidewalk_left": false, "sidewalk_right": false, "generated_sidewalk": false, "bus_lanes": null, "bus_lane_side": null, "bus_only": false, "sidewalk": false, "bridge": false, "ramp": false, "tunnel": false, "layer": 0, "deck": null }, "geometry": { "type": "LineString", "coordinates": [ [ 283160.75, 4158662.24 ], [ 283182.68, 4158690.75 ] ] } },
{ "type": "Feature", "properties": { "id": "osm:way/1210072223", "name": null, "highway": "footway", "lanes": null, "width": 2.0, "oneway": false, "surface": null, "footway": "sidewalk", "sidewalk_left": false, "sidewalk_right": false, "generated_sidewalk": false, "bus_lanes": null, "bus_lane_side": null, "bus_only": false, "sidewalk": false, "bridge": false, "ramp": false, "tunnel": false, "layer": 0, "deck": null }, "geometry": { "type": "LineString", "coordinates": [ [ 283102.5, 4158708.92 ], [ 283160.75, 4158662.24 ] ] } },
{ "type": "Feature", "properties": { "id": "osm:way/1125715495", "name": null, "highway": "footway", "lanes": null, "width": 2.0, "oneway": false, "surface": null, "footway": "crossing", "sidewalk_left": false, "sidewalk_right": false, "generated_sidewalk": false, "bus_lanes": null, "bus_lane_side": null, "bus_only": false, "sidewalk": false, "bridge": false, "ramp": false, "tunnel": false, "layer": 0, "deck": null }, "geometry": { "type": "LineString", "coordinates": [ [ 283182.68, 4158690.75 ], [ 283183.41, 4158691.69 ], [ 283186.07, 4158695.14 ] ] } },
{ "type": "Feature", "properties": { "id": "osm:way/268490108", "name": null, "highway": "service", "lanes": null, "width": 4.5, "oneway": false, "surface": null, "footway": null, "sidewalk_left": false, "sidewalk_right": false, "generated_sidewalk": false, "bus_lanes": null, "bus_lane_side": null, "bus_only": false, "sidewalk": false, "bridge": false, "ramp": false, "tunnel": false, "layer": 0, "deck": null }, "geometry": { "type": "LineString", "coordinates": [ [ 283179.87, 4158695.01 ], [ 283171.71, 4158690.61 ], [ 283154.8, 4158703.81 ], [ 283158.56, 4158712.19 ] ] } },
{ "type": "Feature", "properties": { "id": "osm:way/370805490", "name": null, "highway": "service", "lanes": null, "width": 4.5, "oneway": true, "surface": null, "footway": null, "sidewalk_left": false, "sidewalk_right": false, "generated_sidewalk": false, "bus_lanes": null, "bus_lane_side": null, "bus_only": false, "sidewalk": false, "bridge": false, "ramp": false, "tunnel": false, "layer": 0, "deck": null }, "geometry": { "type": "LineString", "coordinates": [ [ 283174.72, 4158750.0 ], [ 283150.48, 4158718.71 ] ] } },
{ "type": "Feature", "properties": { "id": "osm:way/1125715485", "name": null, "highway": "footway", "lanes": null, "width": 2.0, "oneway": false, "surface": null, "footway": "sidewalk", "sidewalk_left": false, "sidewalk_right": false, "generated_sidewalk": false, "bus_lanes": null, "bus_lane_side": null, "bus_only": false, "sidewalk": false, "bridge": false, "ramp": false, "tunnel": false, "layer": 0, "deck": null }, "geometry": { "type": "LineString", "coordinates": [ [ 283218.14, 4158750.0 ], [ 283219.69, 4158748.58 ], [ 283223.71, 4158744.49 ], [ 283228.95, 4158748.8 ], [ 283229.92, 4158750.0 ] ] } },
{ "type": "Feature", "properties": { "id": "osm:way/1210072227", "name": null, "highway": "footway", "lanes": null, "width": 2.0, "oneway": false, "surface": "sett", "footway": "crossing", "sidewalk_left": false, "sidewalk_right": false, "generated_sidewalk": false, "bus_lanes": null, "bus_lane_side": null, "bus_only": false, "sidewalk": false, "bridge": false, "ramp": false, "tunnel": false, "layer": 0, "deck": null }, "geometry": { "type": "LineString", "coordinates": [ [ 283102.5, 4158708.92 ], [ 283099.34, 4158704.7 ], [ 283095.72, 4158699.86 ] ] } },
{ "type": "Feature", "properties": { "id": "osm:way/1210072222", "name": null, "highway": "footway", "lanes": null, "width": 2.0, "oneway": false, "surface": "sett", "footway": "crossing", "sidewalk_left": false, "sidewalk_right": false, "generated_sidewalk": false, "bus_lanes": null, "bus_lane_side": null, "bus_only": false, "sidewalk": false, "bridge": false, "ramp": false, "tunnel": false, "layer": 0, "deck": null }, "geometry": { "type": "LineString", "coordinates": [ [ 283088.66, 4158703.69 ], [ 283093.35, 4158709.47 ], [ 283096.47, 4158713.31 ] ] } },
{ "type": "Feature", "properties": { "id": "osm:way/1210072225", "name": null, "highway": "footway", "lanes": null, "width": 2.0, "oneway": false, "surface": "asphalt", "footway": "crossing", "sidewalk_left": false, "sidewalk_right": false, "generated_sidewalk": false, "bus_lanes": null, "bus_lane_side": null, "bus_only": false, "sidewalk": false, "bridge": false, "ramp": false, "tunnel": false, "layer": 0, "deck": null }, "geometry": { "type": "LineString", "coordinates": [ [ 283096.47, 4158713.31 ], [ 283099.37, 4158711.2 ], [ 283102.5, 4158708.92 ] ] } },
{ "type": "Feature", "properties": { "id": "osm:way/6041273", "name": "Boyd Street", "highway": "residential", "lanes": null, "width": 7.0, "oneway": true, "surface": null, "footway": null, "sidewalk_left": false, "sidewalk_right": false, "generated_sidewalk": true, "bus_lanes": null, "bus_lane_side": null, "bus_only": false, "sidewalk": false, "bridge": false, "ramp": false, "tunnel": false, "layer": 0, "deck": null }, "geometry": { "type": "LineString", "coordinates": [ [ 283042.36, 4158638.2 ], [ 283047.56, 4158645.15 ], [ 283066.83, 4158670.83 ], [ 283072.65, 4158677.96 ], [ 283091.95, 4158701.9 ], [ 283096.22, 4158707.21 ], [ 283099.37, 4158711.2 ], [ 283122.92, 4158741.11 ], [ 283130.1, 4158750.0 ] ] } },
{ "type": "Feature", "properties": { "id": "osm:way/1125242963", "name": null, "highway": "service", "lanes": null, "width": 4.5, "oneway": false, "surface": null, "footway": null, "sidewalk_left": false, "sidewalk_right": false, "generated_sidewalk": false, "bus_lanes": null, "bus_lane_side": null, "bus_only": false, "sidewalk": false, "bridge": false, "ramp": false, "tunnel": false, "layer": 0, "deck": null }, "geometry": { "type": "LineString", "coordinates": [ [ 283066.83, 4158670.83 ], [ 283064.23, 4158672.87 ], [ 283000.0, 4158723.06 ] ] } },
{ "type": "Feature", "properties": { "id": "osm:way/1125242958", "name": null, "highway": "footway", "lanes": null, "width": 2.0, "oneway": false, "surface": null, "footway": "sidewalk", "sidewalk_left": false, "sidewalk_right": false, "generated_sidewalk": false, "bus_lanes": null, "bus_lane_side": null, "bus_only": false, "sidewalk": false, "bridge": false, "ramp": false, "tunnel": false, "layer": 0, "deck": null }, "geometry": { "type": "LineString", "coordinates": [ [ 283030.75, 4158750.0 ], [ 283088.66, 4158703.69 ], [ 283064.23, 4158672.87 ], [ 283043.69, 4158646.94 ], [ 283000.0, 4158669.44 ] ] } },
{ "type": "Feature", "properties": { "id": "osm:way/1214693968", "name": null, "highway": "footway", "lanes": null, "width": 2.0, "oneway": false, "surface": null, "footway": "sidewalk", "sidewalk_left": false, "sidewalk_right": false, "generated_sidewalk": false, "bus_lanes": null, "bus_lane_side": null, "bus_only": false, "sidewalk": false, "bridge": false, "ramp": false, "tunnel": false, "layer": 0, "deck": null }, "geometry": { "type": "LineString", "coordinates": [ [ 283050.54, 4158750.0 ], [ 283096.47, 4158713.31 ], [ 283100.06, 4158716.82 ], [ 283120.72, 4158742.88 ], [ 283126.36, 4158750.0 ] ] } },
{ "type": "Feature", "properties": { "id": "osm:way/266689154", "name": null, "highway": "service", "lanes": null, "width": 4.5, "oneway": false, "surface": null, "footway": null, "sidewalk_left": false, "sidewalk_right": false, "generated_sidewalk": false, "bus_lanes": null, "bus_lane_side": null, "bus_only": false, "sidewalk": false, "bridge": false, "ramp": false, "tunnel": false, "layer": 0, "deck": null }, "geometry": { "type": "LineString", "coordinates": [ [ 283111.88, 4158750.0 ], [ 283120.72, 4158742.88 ], [ 283122.92, 4158741.11 ], [ 283150.48, 4158718.71 ], [ 283158.56, 4158712.19 ], [ 283179.87, 4158695.01 ], [ 283183.41, 4158691.69 ], [ 283188.19, 4158687.22 ] ] } },
{ "type": "Feature", "properties": { "id": "osm:way/6033635", "name": "West Avenue", "highway": "residential", "lanes": null, "width": 7.0, "oneway": true, "surface": null, "footway": null, "sidewalk_left": false, "sidewalk_right": false, "generated_sidewalk": true, "bus_lanes": null, "bus_lane_side": null, "bus_only": false, "sidewalk": false, "bridge": false, "ramp": false, "tunnel": false, "layer": 0, "deck": null }, "geometry": { "type": "LineString", "coordinates": [ [ 283162.05, 4158654.06 ], [ 283157.13, 4158658.03 ], [ 283099.34, 4158704.7 ], [ 283096.22, 4158707.21 ], [ 283093.35, 4158709.47 ], [ 283042.0, 4158750.0 ] ] } }
]
}
