{
"type": "FeatureCollection",
"name": "roads",
"crs": { "type": "name", "properties": { "name": "urn:ogc:def:crs:EPSG::32618" } },
"xy_coordinate_resolution": 0.01,
"features": [
{ "type": "Feature", "properties": { "id": "osm:way/1425920035", "name": null, "highway": "footway", "lanes": null, "width": 2.0, "oneway": false, "surface": null, "footway": null, "sidewalk_left": false, "sidewalk_right": false, "generated_sidewalk": false, "bus_lanes": null, "bus_lane_side": null, "bus_only": false, "sidewalk": false, "bridge": false, "ramp": false, "tunnel": false, "layer": 0, "deck": null }, "geometry": { "type": "LineString", "coordinates": [ [ 282648.29, 4155250.0 ], [ 282647.72, 4155251.26 ], [ 282647.82, 4155252.96 ] ] } },
{ "type": "Feature", "properties": { "id": "osm:way/1425920041", "name": null, "highway": "footway", "lanes": null, "width": 2.0, "oneway": false, "surface": null, "footway": "sidewalk", "sidewalk_left": false, "sidewalk_right": false, "generated_sidewalk": false, "bus_lanes": null, "bus_lane_side": null, "bus_only": false, "sidewalk": false, "bridge": false, "ramp": false, "tunnel": false, "layer": 0, "deck": null }, "geometry": { "type": "LineString", "coordinates": [ [ 282665.06, 4155250.0 ], [ 282661.92, 4155256.78 ], [ 282660.48, 4155258.54 ] ] } },
{ "type": "Feature", "properties": { "id": "osm:way/910354486", "name": null, "highway": "service", "lanes": null, "width": 4.5, "oneway": false, "surface": null, "footway": null, "sidewalk_left": false, "sidewalk_right": false, "generated_sidewalk": false, "bus_lanes": null, "bus_lane_side": null, "bus_only": false, "sidewalk": false, "bridge": false, "ramp": false, "tunnel": false, "layer": 0, "deck": null }, "geometry": { "type": "LineString", "coordinates": [ [ 282703.7, 4155284.16 ], [ 282719.01, 4155250.0 ] ] } },
{ "type": "Feature", "properties": { "id": "osm:way/267610162", "name": "West 26th Street", "highway": "tertiary", "lanes": null, "width": 8.0, "oneway": false, "surface": "asphalt", "footway": null, "sidewalk_left": false, "sidewalk_right": null, "generated_sidewalk": true, "bus_lanes": null, "bus_lane_side": null, "bus_only": false, "sidewalk": false, "bridge": false, "ramp": false, "tunnel": false, "layer": 0, "deck": null }, "geometry": { "type": "LineString", "coordinates": [ [ 282604.86, 4155362.14 ], [ 282607.57, 4155356.59 ], [ 282608.83, 4155353.8 ], [ 282629.35, 4155310.67 ], [ 282650.66, 4155265.9 ], [ 282653.39, 4155260.15 ], [ 282655.22, 4155256.22 ], [ 282658.13, 4155250.0 ] ] } },
{ "type": "Feature", "properties": { "id": "osm:way/6037049", "name": "McDonough Street", "highway": "residential", "lanes": null, "width": 7.0, "oneway": false, "surface": null, "footway": null, "sidewalk_left": null, "sidewalk_right": null, "generated_sidewalk": true, "bus_lanes": null, "bus_lane_side": null, "bus_only": false, "sidewalk": false, "bridge": false, "ramp": false, "tunnel": false, "layer": 0, "deck": null }, "geometry": { "type": "LineString", "coordinates": [ [ 282750.0, 4155306.26 ], [ 282703.7, 4155284.16 ], [ 282658.66, 4155262.66 ], [ 282653.39, 4155260.15 ], [ 282646.01, 4155256.7 ], [ 282631.67, 4155250.0 ] ] } },
{ "type": "Feature", "properties": { "id": "osm:way/820858109", "name": null, "highway": "service", "lanes": null, "width": 4.5, "oneway": false, "surface": null, "footway": null, "sidewalk_left": false, "sidewalk_right": false, "generated_sidewalk": false, "bus_lanes": null, "bus_lane_side": null, "bus_only": false, "sidewalk": false, "bridge": false, "ramp": false, "tunnel": false, "layer": 0, "deck": null }, "geometry": { "type": "LineString", "coordinates": [ [ 282703.7, 4155284.16 ], [ 282681.14, 4155335.25 ] ] } },
{ "type": "Feature", "properties": { "id": "osm:way/1426544228", "name": null, "highway": "footway", "lanes": null, "width": 2.0, "oneway": false, "surface": "concrete", "footway": "sidewalk", "sidewalk_left": false, "sidewalk_right": false, "generated_sidewalk": false, "bus_lanes": null, "bus_lane_side": null, "bus_only": false, "sidewalk": false, "bridge": false, "ramp": false, "tunnel": false, "layer": 0, "deck": null }, "geometry": { "type": "LineString", "coordinates": [ [ 282750.0, 4155420.76 ], [ 282717.72, 4155406.01 ], [ 282715.17, 4155405.5 ] ] } },
{ "type": "Feature", "properties": { "id": "osm:way/1426544229", "name": null, "highway": "footway", "lanes": null, "width": 2.0, "oneway": false, "surface": null, "footway": "crossing", "sidewalk_left": false, "sidewalk_right": false, "generated_sidewalk": false, "bus_lanes": null, "bus_lane_side": null, "bus_only": false, "sidewalk": false, "bridge": false, "ramp": false, "tunnel": false, "layer": 0, "deck": null }, "geometry": { "type": "LineString", "coordinates": [ [ 282704.68, 4155401.83 ], [ 282710.62, 4155403.91 ], [ 282715.17, 4155405.5 ] ] } },
{ "type": "Feature", "properties": { "id": "osm:way/1426544240", "name": null, "highway": "footway", "lanes": null, "width": 2.0, "oneway": false, "surface": null, "footway": "crossing", "sidewalk_left": false, "sidewalk_right": false, "generated_sidewalk": false, "bus_lanes": null, "bus_lane_side": null, "bus_only": false, "sidewalk": false, "bridge": false, "ramp": false, "tunnel": false, "layer": 0, "deck": null }, "geometry": { "type": "LineString", "coordinates": [ [ 282705.3, 4155426.28 ], [ 282701.29, 4155424.52 ], [ 282696.31, 4155422.32 ] ] } },
{ "type": "Feature", "properties": { "id": "osm:way/1426544237", "name": null, "highway": "footway", "lanes": null, "width": 2.0, "oneway": false, "surface": "concrete", "footway": "sidewalk", "sidewalk_left": false, "sidewalk_right": false, "generated_sidewalk": false, "bus_lanes": null, "bus_lane_side": null, "bus_only": false, "sidewalk": false, "bridge": false, "ramp": false, "tunnel": false, "layer": 0, "deck": null }, "geometry": { "type": "LineString", "coordinates": [ [ 282750.0, 4155447.71 ], [ 282707.76, 4155428.16 ], [ 282705.3, 4155426.28 ] ] } },
{ "type": "Feature", "properties": { "id": "osm:way/1425920032", "name": null, "highway": "footway", "lanes": null, "width": 2.0, "oneway": false, "surface": null, "footway": "crossing", "sidewalk_left": false, "sidewalk_right": false, "generated_sidewalk": false, "bus_lanes": null, "bus_lane_side": null, "bus_only": false, "sidewalk": false, "bridge": false, "ramp": false, "tunnel": false, "layer": 0, "deck": null }, "geometry": { "type": "LineString", "coordinates": [ [ 282647.82, 4155252.96 ], [ 282655.22, 4155256.22 ], [ 282660.48, 4155258.54 ] ] } },
{ "type": "Feature", "properties": { "id": "osm:way/1425920034", "name": null, "highway": "footway", "lanes": null, "width": 2.0, "oneway": false, "surface": null, "footway": "crossing", "sidewalk_left": false, "sidewalk_right": false, "generated_sidewalk": false, "bus_lanes": null, "bus_lane_side": null, "bus_only": false, "sidewalk": false, "bridge": false, "ramp": false, "tunnel": false, "layer": 0, "deck": null }, "geometry": { "type": "LineString", "coordinates": [ [ 282647.82, 4155252.96 ], [ 282646.01, 4155256.7 ], [ 282643.15, 4155262.59 ] ] } },
{ "type": "Feature", "properties": { "id": "osm:way/1425920040", "name": null, "highway": "footway", "lanes": null, "width": 2.0, "oneway": false, "surface": null, "footway": "crossing", "sidewalk_left": false, "sidewalk_right": false, "generated_sidewalk": false, "bus_lanes": null, "bus_lane_side": null, "bus_only": false, "sidewalk": false, "bridge": false, "ramp": false, "tunnel": false, "layer": 0, "deck": null }, "geometry": { "type": "LineString", "coordinates": [ [ 282660.48, 4155258.54 ], [ 282658.66, 4155262.66 ], [ 282656.18, 4155268.34 ] ] } },
{ "type": "Feature", "properties": { "id": "osm:way/1425920031", "name": null, "highway": "footway", "lanes": null, "width": 2.0, "oneway": false, "surface": null, "footway": "crossing", "sidewalk_left": false, "sidewalk_right": false, "generated_sidewalk": false, "bus_lanes": null, "bus_lane_side": null, "bus_only": false, "sidewalk": false, "bridge": false, "ramp": false, "tunnel": false, "layer": 0, "deck": null }, "geometry": { "type": "LineString", "coordinates": [ [ 282656.18, 4155268.34 ], [ 282650.66, 4155265.9 ], [ 282643.15, 4155262.59 ] ] } },
{ "type": "Feature", "properties": { "id": "osm:way/1425920033", "name": null, "highway": "footway", "lanes": null, "width": 2.0, "oneway": false, "surface": "concrete", "footway": "sidewalk", "sidewalk_left": false, "sidewalk_right": false, "generated_sidewalk": false, "bus_lanes": null, "bus_lane_side": null, "bus_only": false, "sidewalk": false, "bridge": false, "ramp": false, "tunnel": false, "layer": 0, "deck": null }, "geometry": { "type": "LineString", "coordinates": [ [ 282643.15, 4155262.59 ], [ 282641.03, 4155265.48 ], [ 282634.81, 4155279.11 ], [ 282626.29, 4155295.92 ], [ 282621.23, 4155306.94 ], [ 282600.46, 4155351.2 ] ] } },
{ "type": "Feature", "properties": { "id": "osm:way/1425920039", "name": null, "highway": "footway", "lanes": null, "width": 2.0, "oneway": false, "surface": "concrete", "footway": "sidewalk", "sidewalk_left": false, "sidewalk_right": false, "generated_sidewalk": false, "bus_lanes": null, "bus_lane_side": null, "bus_only": false, "sidewalk": false, "bridge": false, "ramp": false, "tunnel": false, "layer": 0, "deck": null }, "geometry": { "type": "LineString", "coordinates": [ [ 282656.18, 4155268.34 ], [ 282654.81, 4155270.38 ], [ 282635.41, 4155313.54 ], [ 282615.53, 4155358.52 ], [ 282613.44, 4155359.67 ] ] } },
{ "type": "Feature", "properties": { "id": "osm:way/1425920038", "name": null, "highway": "footway", "lanes": null, "width": 2.0, "oneway": false, "surface": "asphalt", "footway": "crossing", "sidewalk_left": false, "sidewalk_right": false, "generated_sidewalk": false, "bus_lanes": null, "bus_lane_side": null, "bus_only": false, "sidewalk": false, "bridge": false, "ramp": false, "tunnel": false, "layer": 0, "deck": null }, "geometry": { "type": "LineString", "coordinates": [ [ 282613.44, 4155359.67 ], [ 282607.57, 4155356.59 ], [ 282602.32, 4155353.83 ] ] } },
{ "type": "Feature", "properties": { "id": "osm:way/1426544233", "name": null, "highway": "footway", "lanes": null, "width": 2.0, "oneway": false, "surface": "asphalt", "footway": "crossing", "sidewalk_left": false, "sidewalk_right": false, "generated_sidewalk": false, "bus_lanes": null, "bus_lane_side": null, "bus_only": false, "sidewalk": false, "bridge": false, "ramp": false, "tunnel": false, "layer": 0, "deck": null }, "geometry": { "type": "LineString", "coordinates": [ [ 282602.32, 4155353.83 ], [ 282599.49, 4155359.69 ], [ 282595.61, 4155367.75 ], [ 282592.94, 4155373.3 ] ] } },
{ "type": "Feature", "properties": { "id": "osm:way/692873531", "name": "West 26th Street", "highway": "residential", "lanes": null, "width": 7.0, "oneway": false, "surface": "asphalt", "footway": null, "sidewalk_left": null, "sidewalk_right": null, "generated_sidewalk": true, "bus_lanes": null, "bus_lane_side": null, "bus_only": false, "sidewalk": false, "bridge": false, "ramp": false, "tunnel": false, "layer": 0, "deck": null }, "geometry": { "type": "LineString", "coordinates": [ [ 282601.2, 4155370.35 ], [ 282604.86, 4155362.14 ] ] } },
{ "type": "Feature", "properties": { "id": "osm:way/1426544231", "name": null, "highway": "footway", "lanes": null, "width": 2.0, "oneway": false, "surface": "asphalt", "footway": "crossing", "sidewalk_left": false, "sidewalk_right": false, "generated_sidewalk": false, "bus_lanes": null, "bus_lane_side": null, "bus_only": false, "sidewalk": false, "bridge": false, "ramp": false, "tunnel": false, "layer": 0, "deck": null }, "geometry": { "type": "LineString", "coordinates": [ [ 282604.25, 4155379.14 ], [ 282607.14, 4155373.0 ], [ 282610.92, 4155365.0 ], [ 282613.44, 4155359.67 ] ] } },
{ "type": "Feature", "properties": { "id": "osm:way/1425920054", "name": null, "highway": "footway", "lanes": null, "width": 2.0, "oneway": false, "surface": null, "footway": "sidewalk", "sidewalk_left": false, "sidewalk_right": false, "generated_sidewalk": false, "bus_lanes": null, "bus_lane_side": null, "bus_only": false, "sidewalk": false, "bridge": false, "ramp": false, "tunnel": false, "layer": 0, "deck": null }, "geometry": { "type": "LineString", "coordinates": [ [ 282500.0, 4155301.27 ], [ 282519.28, 4155260.1 ], [ 282523.92, 4155250.0 ] ] } },
{ "type": "Feature", "properties": { "id": "osm:way/1425920057", "name": null, "highway": "footway", "lanes": null, "width": 2.0, "oneway": false, "surface": null, "footway": "sidewalk", "sidewalk_left": false, "sidewalk_right": false, "generated_sidewalk": false, "bus_lanes": null, "bus_lane_side": null, "bus_only": false, "sidewalk": false, "bridge": false, "ramp": false, "tunnel": false, "layer": 0, "deck": null }, "geometry": { "type": "LineString", "coordinates": [ [ 282541.51, 4155250.0 ], [ 282533.75, 4155266.69 ], [ 282514.0, 4155311.27 ], [ 282511.0, 4155312.0 ] ] } },
{ "type": "Feature", "properties": { "id": "osm:way/323697242", "name": null, "highway": "service", "lanes": null, "width": 4.5, "oneway": false, "surface": null, "footway": null, "sidewalk_left": false, "sidewalk_right": false, "generated_sidewalk": false, "bus_lanes": null, "bus_lane_side": null, "bus_only": false, "sidewalk": false, "bridge": false, "ramp": false, "tunnel": false, "layer": 0, "deck": null }, "geometry": { "type": "LineString", "coordinates": [ [ 282500.0, 4155251.43 ], [ 282519.28, 4155260.1 ], [ 282526.22, 4155263.22 ], [ 282533.75, 4155266.69 ], [ 282621.23, 4155306.94 ], [ 282629.35, 4155310.67 ], [ 282635.41, 4155313.54 ], [ 282681.14, 4155335.25 ], [ 282731.44, 4155359.12 ], [ 282750.0, 4155367.66 ] ] } },
{ "type": "Feature", "properties": { "id": "osm:way/1367643096", "name": "Semmes Avenue", "highway": "primary", "lanes": 2.0, "width": 11.0, "oneway": true, "surface": "asphalt", "footway": null, "sidewalk_left": null, "sidewalk_right": false, "generated_sidewalk": true, "bus_lanes": null, "bus_lane_side": null, "bus_only": false, "sidewalk": false, "bridge": false, "ramp": false, "tunnel": false, "layer": 0, "deck": null }, "geometry": { "type": "LineString", "coordinates": [ [ 282500.0, 4155314.08 ], [ 282502.12, 4155315.05 ], [ 282595.35, 4155357.78 ], [ 282599.49, 4155359.69 ], [ 282604.86, 4155362.14 ] ] } },
{ "type": "Feature", "properties": { "id": "osm:way/1367643095", "name": "Semmes Avenue", "highway": "primary", "lanes": 2.0, "width": 11.0, "oneway": true, "surface": "asphalt", "footway": null, "sidewalk_left": null, "sidewalk_right": false, "generated_sidewalk": true, "bus_lanes": null, "bus_lane_side": null, "bus_only": false, "sidewalk": false, "bridge": false, "ramp": false, "tunnel": false, "layer": 0, "deck": null }, "geometry": { "type": "LineString", "coordinates": [ [ 282601.2, 4155370.35 ], [ 282595.61, 4155367.75 ], [ 282500.0, 4155323.18 ] ] } },
{ "type": "Feature", "properties": { "id": "osm:way/1425920056", "name": null, "highway": "footway", "lanes": null, "width": 2.0, "oneway": false, "surface": null, "footway": "crossing", "sidewalk_left": false, "sidewalk_right": false, "generated_sidewalk": false, "bus_lanes": null, "bus_lane_side": null, "bus_only": false, "sidewalk": false, "bridge": false, "ramp": false, "tunnel": false, "layer": 0, "deck": null }, "geometry": { "type": "LineString", "coordinates": [ [ 282511.0, 4155312.0 ], [ 282504.8, 4155309.28 ], [ 282500.0, 4155307.17 ] ] } },
{ "type": "Feature", "properties": { "id": "osm:way/1425920037", "name": null, "highway": "footway", "lanes": null, "width": 2.0, "oneway": false, "surface": "concrete", "footway": "sidewalk", "sidewalk_left": false, "sidewalk_right": false, "generated_sidewalk": false, "bus_lanes": null, "bus_lane_side": null, "bus_only": false, "sidewalk": false, "bridge": false, "ramp": false, "tunnel": false, "layer": 0, "deck": null }, "geometry": { "type": "LineString", "coordinates": [ [ 282602.32, 4155353.83 ], [ 282600.46, 4155351.2 ], [ 282514.0, 4155311.27 ] ] } },
{ "type": "Feature", "properties": { "id": "osm:way/6035341", "name": "West 27th Street", "highway": "residential", "lanes": null, "width": 7.0, "oneway": false, "surface": null, "footway": null, "sidewalk_left": null, "sidewalk_right": null, "generated_sidewalk": true, "bus_lanes": null, "bus_lane_side": null, "bus_only": false, "sidewalk": false, "bridge": false, "ramp": false, "tunnel": false, "layer": 0, "deck": null }, "geometry": { "type": "LineString", "coordinates": [ [ 282532.39, 4155250.0 ], [ 282526.22, 4155263.22 ], [ 282504.8, 4155309.28 ], [ 282502.12, 4155315.05 ], [ 282500.0, 4155319.72 ] ] } },
{ "type": "Feature", "properties": { "id": "osm:way/1412132483", "name": null, "highway": "footway", "lanes": null, "width": 2.0, "oneway": false, "surface": "concrete", "footway": "sidewalk", "sidewalk_left": false, "sidewalk_right": false, "generated_sidewalk": false, "bus_lanes": null, "bus_lane_side": null, "bus_only": false, "sidewalk": false, "bridge": false, "ramp": false, "tunnel": false, "layer": 0, "deck": null }, "geometry": { "type": "LineString", "coordinates": [ [ 282548.59, 4155465.56 ], [ 282564.65, 4155430.83 ], [ 282568.04, 4155423.56 ], [ 282571.4, 4155418.18 ] ] } },
{ "type": "Feature", "properties": { "id": "osm:way/1412132487", "name": null, "highway": "footway", "lanes": null, "width": 2.0, "oneway": false, "surface": null, "footway": "crossing", "sidewalk_left": false, "sidewalk_right": false, "generated_sidewalk": false, "bus_lanes": null, "bus_lane_side": null, "bus_only": false, "sidewalk": false, "bridge": false, "ramp": false, "tunnel": false, "layer": 0, "deck": null }, "geometry": { "type": "LineString", "coordinates": [ [ 282548.59, 4155465.56 ], [ 282555.56, 4155469.45 ], [ 282562.06, 4155473.1 ] ] } },
{ "type": "Feature", "properties": { "id": "osm:way/1426544232", "name": null, "highway": "footway", "lanes": null, "width": 2.0, "oneway": false, "surface": "asphalt", "footway": "crossing", "sidewalk_left": false, "sidewalk_right": false, "generated_sidewalk": false, "bus_lanes": null, "bus_lane_side": null, "bus_only": false, "sidewalk": false, "bridge": false, "ramp": false, "tunnel": false, "layer": 0, "deck": null }, "geometry": { "type": "LineString", "coordinates": [ [ 282604.25, 4155379.14 ], [ 282598.68, 4155376.27 ], [ 282592.94, 4155373.3 ] ] } },
{ "type": "Feature", "properties": { "id": "osm:way/1426544230", "name": null, "highway": "footway", "lanes": null, "width": 2.0, "oneway": false, "surface": "concrete", "footway": "sidewalk", "sidewalk_left": false, "sidewalk_right": false, "generated_sidewalk": false, "bus_lanes": null, "bus_lane_side": null, "bus_only": false, "sidewalk": false, "bridge": false, "ramp": false, "tunnel": false, "layer": 0, "deck": null }, "geometry": { "type": "LineString", "coordinates": [ [ 282704.68, 4155401.83 ], [ 282702.44, 4155398.74 ], [ 282615.53, 4155358.52 ] ] } },
{ "type": "Feature", "properties": { "id": "osm:way/1412132486", "name": null, "highway": "footway", "lanes": null, "width": 2.0, "oneway": false, "surface": null, "footway": "crossing", "sidewalk_left": false, "sidewalk_right": false, "generated_sidewalk": false, "bus_lanes": null, "bus_lane_side": null, "bus_only": false, "sidewalk": false, "bridge": false, "ramp": false, "tunnel": false, "layer": 0, "deck": null }, "geometry": { "type": "LineString", "coordinates": [ [ 282584.12, 4155426.83 ], [ 282585.08, 4155424.45 ], [ 282585.9, 4155422.4 ] ] } },
{ "type": "Feature", "properties": { "id": "osm:way/323697211", "name": null, "highway": "service", "lanes": null, "width": 4.5, "oneway": false, "surface": null, "footway": null, "sidewalk_left": false, "sidewalk_right": false, "generated_sidewalk": false, "bus_lanes": null, "bus_lane_side": null, "bus_only": false, "sidewalk": false, "bridge": false, "ramp": false, "tunnel": false, "layer": 0, "deck": null }, "geometry": { "type": "LineString", "coordinates": [ [ 282500.0, 4155385.82 ], [ 282571.4, 4155418.18 ], [ 282578.45, 4155421.37 ], [ 282585.08, 4155424.45 ], [ 282672.7, 4155465.85 ], [ 282674.57, 4155466.74 ], [ 282680.77, 4155469.01 ], [ 282687.78, 4155472.2 ], [ 282732.31, 4155492.46 ], [ 282748.9, 4155500.0 ] ] } },
{ "type": "Feature", "properties": { "id": "osm:way/1412132485", "name": null, "highway": "footway", "lanes": null, "width": 2.0, "oneway": false, "surface": "concrete", "footway": "sidewalk", "sidewalk_left": false, "sidewalk_right": false, "generated_sidewalk": false, "bus_lanes": null, "bus_lane_side": null, "bus_only": false, "sidewalk": false, "bridge": false, "ramp": false, "tunnel": false, "layer": 0, "deck": null }, "geometry": { "type": "LineString", "coordinates": [ [ 282562.06, 4155473.1 ], [ 282584.12, 4155426.83 ] ] } },
{ "type": "Feature", "properties": { "id": "osm:way/1412132488", "name": null, "highway": "footway", "lanes": null, "width": 2.0, "oneway": false, "surface": null, "footway": "crossing", "sidewalk_left": false, "sidewalk_right": false, "generated_sidewalk": false, "bus_lanes": null, "bus_lane_side": null, "bus_only": false, "sidewalk": false, "bridge": false, "ramp": false, "tunnel": false, "layer": 0, "deck": null }, "geometry": { "type": "LineString", "coordinates": [ [ 282562.06, 4155473.1 ], [ 282560.35, 4155476.14 ], [ 282558.01, 4155480.33 ] ] } },
{ "type": "Feature", "properties": { "id": "osm:way/6033383", "name": "Springhill Avenue", "highway": "residential", "lanes": null, "width": 7.0, "oneway": false, "surface": null, "footway": null, "sidewalk_left": false, "sidewalk_right": false, "generated_sidewalk": true, "bus_lanes": null, "bus_lane_side": null, "bus_only": false, "sidewalk": false, "bridge": false, "ramp": false, "tunnel": false, "layer": 0, "deck": null }, "geometry": { "type": "LineString", "coordinates": [ [ 282613.35, 4155500.0 ], [ 282605.92, 4155496.49 ], [ 282560.35, 4155476.14 ], [ 282554.07, 4155472.57 ], [ 282546.86, 4155469.19 ], [ 282502.74, 4155448.5 ], [ 282500.0, 4155447.22 ] ] } },
{ "type": "Feature", "properties": { "id": "osm:way/1412132471", "name": null, "highway": "footway", "lanes": null, "width": 2.0, "oneway": false, "surface": "concrete", "footway": "sidewalk", "sidewalk_left": false, "sidewalk_right": false, "generated_sidewalk": false, "bus_lanes": null, "bus_lane_side": null, "bus_only": false, "sidewalk": false, "bridge": false, "ramp": false, "tunnel": false, "layer": 0, "deck": null }, "geometry": { "type": "LineString", "coordinates": [ [ 282656.86, 4155500.0 ], [ 282672.0, 4155467.35 ] ] } },
{ "type": "Feature", "properties": { "id": "osm:way/1426544248", "name": null, "highway": "footway", "lanes": null, "width": 2.0, "oneway": false, "surface": "concrete", "footway": "sidewalk", "sidewalk_left": false, "sidewalk_right": false, "generated_sidewalk": false, "bus_lanes": null, "bus_lane_side": null, "bus_only": false, "sidewalk": false, "bridge": false, "ramp": false, "tunnel": false, "layer": 0, "deck": null }, "geometry": { "type": "LineString", "coordinates": [ [ 282688.68, 4155470.28 ], [ 282707.76, 4155428.16 ] ] } },
{ "type": "Feature", "properties": { "id": "osm:way/899572739", "name": "Semmes Avenue", "highway": "primary", "lanes": 2.0, "width": 11.0, "oneway": true, "surface": "asphalt", "footway": null, "sidewalk_left": null, "sidewalk_right": false, "generated_sidewalk": true, "bus_lanes": null, "bus_lane_side": null, "bus_only": false, "sidewalk": false, "bridge": false, "ramp": false, "tunnel": false, "layer": 0, "deck": null }, "geometry": { "type": "LineString", "coordinates": [ [ 282604.86, 4155362.14 ], [ 282610.92, 4155365.0 ], [ 282707.92, 4155409.72 ], [ 282750.0, 4155429.09 ] ] } },
{ "type": "Feature", "properties": { "id": "osm:way/1367640910", "name": "Semmes Avenue", "highway": "primary", "lanes": 2.0, "width": 11.0, "oneway": true, "surface": "asphalt", "footway": null, "sidewalk_left": null, "sidewalk_right": false, "generated_sidewalk": true, "bus_lanes": null, "bus_lane_side": null, "bus_only": false, "sidewalk": false, "bridge": false, "ramp": false, "tunnel": false, "layer": 0, "deck": null }, "geometry": { "type": "LineString", "coordinates": [ [ 282750.0, 4155438.74 ], [ 282704.42, 4155417.73 ], [ 282611.02, 4155374.86 ], [ 282607.14, 4155373.0 ], [ 282601.2, 4155370.35 ] ] } },
{ "type": "Feature", "properties": { "id": "osm:way/1412132495", "name": null, "highway": "footway", "lanes": null, "width": 2.0, "oneway": false, "surface": "gravel", "footway": "link", "sidewalk_left": false, "sidewalk_right": false, "generated_sidewalk": false, "bus_lanes": null, "bus_lane_side": null, "bus_only": false, "sidewalk": false, "bridge": false, "ramp": false, "tunnel": false, "layer": 0, "deck": null }, "geometry": { "type": "LineString", "coordinates": [ [ 282672.0, 4155467.35 ], [ 282672.7, 4155465.85 ] ] } },
{ "type": "Feature", "properties": { "id": "osm:way/1412132494", "name": null, "highway": "footway", "lanes": null, "width": 2.0, "oneway": false, "surface": null, "footway": "crossing", "sidewalk_left": false, "sidewalk_right": false, "generated_sidewalk": false, "bus_lanes": null, "bus_lane_side": null, "bus_only": false, "sidewalk": false, "bridge": false, "ramp": false, "tunnel": false, "layer": 0, "deck": null }, "geometry": { "type": "LineString", "coordinates": [ [ 282686.98, 4155473.9 ], [ 282687.78, 4155472.2 ], [ 282688.68, 4155470.28 ] ] } },
{ "type": "Feature", "properties": { "id": "osm:way/6040806", "name": "West 25th Street", "highway": "residential", "lanes": null, "width": 7.0, "oneway": false, "surface": null, "footway": null, "sidewalk_left": null, "sidewalk_right": null, "generated_sidewalk": true, "bus_lanes": null, "bus_lane_side": null, "bus_only": false, "sidewalk": false, "bridge": false, "ramp": false, "tunnel": false, "layer": 0, "deck": null }, "geometry": { "type": "LineString", "coordinates": [ [ 282750.0, 4155319.22 ], [ 282731.44, 4155359.12 ], [ 282710.62, 4155403.91 ], [ 282707.92, 4155409.72 ], [ 282704.42, 4155417.73 ], [ 282701.29, 4155424.52 ], [ 282700.53, 4155426.16 ], [ 282680.77, 4155469.01 ], [ 282666.07, 4155500.0 ] ] } },
{ "type": "Feature", "properties": { "id": "osm:way/1412132470", "name": null, "highway": "footway", "lanes": null, "width": 2.0, "oneway": false, "surface": "concrete", "footway": "sidewalk", "sidewalk_left": false, "sidewalk_right": false, "generated_sidewalk": false, "bus_lanes": null, "bus_lane_side": null, "bus_only": false, "sidewalk": false, "bridge": false, "ramp": false, "tunnel": false, "layer": 0, "deck": null }, "geometry": { "type": "LineString", "coordinates": [ [ 282674.82, 4155500.0 ], [ 282686.98, 4155473.9 ] ] } },
{ "type": "Feature", "properties": { "id": "osm:way/820858110", "name": null, "highway": "service", "lanes": null, "width": 4.5, "oneway": false, "surface": null, "footway": null, "sidewalk_left": false, "sidewalk_right": false, "generated_sidewalk": false, "bus_lanes": null, "bus_lane_side": null, "bus_only": false, "sidewalk": false, "bridge": false, "ramp": false, "tunnel": false, "layer": 0, "deck": null }, "geometry": { "type": "LineString", "coordinates": [ [ 282732.31, 4155492.46 ], [ 282728.57, 4155500.0 ] ] } },
{ "type": "Feature", "properties": { "id": "osm:way/1412132484", "name": null, "highway": "footway", "lanes": null, "width": 2.0, "oneway": false, "surface": null, "footway": "crossing", "sidewalk_left": false, "sidewalk_right": false, "generated_sidewalk": false, "bus_lanes": null, "bus_lane_side": null, "bus_only": false, "sidewalk": false, "bridge": false, "ramp": false, "tunnel": false, "layer": 0, "deck": null }, "geometry": { "type": "LineString", "coordinates": [ [ 282544.94, 4155473.25 ], [ 282546.86, 4155469.19 ], [ 282548.59, 4155465.56 ] ] } },
{ "type": "Feature", "properties": { "id": "osm:way/1412132482", "name": null, "highway": "footway", "lanes": null, "width": 2.0, "oneway": false, "surface": null, "footway": "crossing", "sidewalk_left": false, "sidewalk_right": false, "generated_sidewalk": false, "bus_lanes": null, "bus_lane_side": null, "bus_only": false, "sidewalk": false, "bridge": false, "ramp": false, "tunnel": false, "layer": 0, "deck": null }, "geometry": { "type": "LineString", "coordinates": [ [ 282544.94, 4155473.25 ], [ 282552.0, 4155477.06 ], [ 282558.01, 4155480.33 ] ] } },
{ "type": "Feature", "properties": { "id": "osm:way/1412132481", "name": null, "highway": "footway", "lanes": null, "width": 2.0, "oneway": false, "surface": "concrete", "footway": "sidewalk", "sidewalk_left": false, "sidewalk_right": false, "generated_sidewalk": false, "bus_lanes": null, "bus_lane_side": null, "bus_only": false, "sidewalk": false, "bridge": false, "ramp": false, "tunnel": false, "layer": 0, "deck": null }, "geometry": { "type": "LineString", "coordinates": [ [ 282558.31, 4155481.98 ], [ 282558.01, 4155480.33 ] ] } },
{ "type": "Feature", "properties": { "id": "osm:way/866239720", "name": null, "highway": "service", "lanes": null, "width": 4.5, "oneway": false, "surface": null, "footway": null, "sidewalk_left": false, "sidewalk_right": false, "generated_sidewalk": false, "bus_lanes": null, "bus_lane_side": null, "bus_only": false, "sidewalk": false, "bridge": false, "ramp": false, "tunnel": false, "layer": 0, "deck": null }, "geometry": { "type": "LineString", "coordinates": [ [ 282502.74, 4155448.5 ], [ 282500.0, 4155454.4 ] ] } },
{ "type": "Feature", "properties": { "id": "osm:way/1412132473", "name": null, "highway": "footway", "lanes": null, "width": 2.0, "oneway": false, "surface": "concrete", "footway": "sidewalk", "sidewalk_left": false, "sidewalk_right": false, "generated_sidewalk": false, "bus_lanes": null, "bus_lane_side": null, "bus_only": false, "sidewalk": false, "bridge": false, "ramp": false, "tunnel": false, "layer": 0, "deck": null }, "geometry": { "type": "LineString", "coordinates": [ [ 282544.94, 4155473.25 ], [ 282532.72, 4155500.0 ] ] } },
{ "type": "Feature", "properties": { "id": "osm:way/1412132472", "name": null, "highway": "footway", "lanes": null, "width": 2.0, "oneway": false, "surface": "concrete", "footway": "sidewalk", "sidewalk_left": false, "sidewalk_right": false, "generated_sidewalk": false, "bus_lanes": null, "bus_lane_side": null, "bus_only": false, "sidewalk": false, "bridge": false, "ramp": false, "tunnel": false, "layer": 0, "deck": null }, "geometry": { "type": "LineString", "coordinates": [ [ 282574.48, 4155489.44 ], [ 282558.31, 4155481.98 ], [ 282554.93, 4155489.76 ], [ 282550.2, 4155500.0 ] ] } },
{ "type": "Feature", "properties": { "id": "osm:way/6038338", "name": "West 26th Street", "highway": "tertiary", "lanes": null, "width": 8.0, "oneway": false, "surface": "asphalt", "footway": null, "sidewalk_left": false, "sidewalk_right": null, "generated_sidewalk": true, "bus_lanes": null, "bus_lane_side": null, "bus_only": false, "sidewalk": false, "bridge": false, "ramp": false, "tunnel": false, "layer": 0, "deck": null }, "geometry": { "type": "LineString", "coordinates": [ [ 282541.4, 4155500.0 ], [ 282552.0, 4155477.06 ], [ 282554.07, 4155472.57 ], [ 282555.56, 4155469.45 ], [ 282578.45, 4155421.37 ], [ 282597.06, 4155379.64 ], [ 282598.68, 4155376.27 ], [ 282601.2, 4155370.35 ] ] } },
{ "type": "Feature", "properties": { "id": "osm:way/323697227", "name": null, "highway": "service", "lanes": null, "width": 4.5, "oneway": false, "surface": null, "footway": null, "sidewalk_left": false, "sidewalk_right": false, "generated_sidewalk": false, "bus_lanes": null, "bus_lane_side": null, "bus_only": false, "sidewalk": false, "bridge": false, "ramp": false, "tunnel": false, "layer": 0, "deck": null }, "geometry": { "type": "LineString", "coordinates": [ [ 282604.27, 4155500.0 ], [ 282605.92, 4155496.49 ] ] } }
]
}
