{
"type": "FeatureCollection",
"name": "landuse",
"crs": { "type": "name", "properties": { "name": "urn:ogc:def:crs:EPSG::32618" } },
"xy_coordinate_resolution": 0.01,
"features": [
{ "type": "Feature", "properties": { "id": "imagery:groundcover_paved:1092", "name": null, "kind": "groundcover_paved", "sport": null, "surface": null, "pitch_layout": null, "source": "vgin_vbmp+naip+lidar2025", "source_updated": null, "base_z": null, "top_z": null }, "geometry": { "type": "MultiPolygon", "coordinates": [ [ [ [ 285273.74, 4160006.85 ], [ 285270.32, 4160000.0 ], [ 285266.85, 4160000.0 ], [ 285270.25, 4160058.93 ], [ 285278.27, 4160058.13 ], [ 285277.48, 4160057.82 ], [ 285275.23, 4160055.36 ], [ 285274.87, 4160054.17 ], [ 285276.17, 4160046.39 ], [ 285275.71, 4160040.74 ], [ 285275.15, 4160039.63 ], [ 285273.39, 4160038.75 ], [ 285272.76, 4160038.15 ], [ 285271.56, 4160035.97 ], [ 285271.38, 4160035.11 ], [ 285274.04, 4160008.49 ], [ 285273.74, 4160006.85 ] ] ], [ [ [ 285261.49, 4160056.27 ], [ 285259.55, 4160058.2 ], [ 285258.53, 4160058.63 ], [ 285256.73, 4160058.63 ], [ 285255.71, 4160058.2 ], [ 285253.55, 4160056.05 ], [ 285253.17, 4160055.13 ], [ 285253.41, 4160054.4 ], [ 285254.91, 4160052.32 ], [ 285255.63, 4160051.79 ], [ 285257.5, 4160051.17 ], [ 285258.77, 4160051.36 ], [ 285261.31, 4160053.19 ], [ 285259.79, 4160026.8 ], [ 285251.79, 4160030.8 ], [ 285250.13, 4160033.48 ], [ 285250.13, 4160037.99 ], [ 285250.0, 4160038.4 ], [ 285250.0, 4160060.49 ], [ 285261.68, 4160059.66 ], [ 285261.49, 4160056.27 ] ] ], [ [ [ 285294.62, 4160067.08 ], [ 285295.1, 4160067.18 ], [ 285295.57, 4160067.34 ], [ 285296.01, 4160067.54 ], [ 285296.44, 4160067.78 ], [ 285296.84, 4160068.07 ], [ 285297.21, 4160068.39 ], [ 285297.55, 4160068.74 ], [ 285297.85, 4160069.13 ], [ 285298.11, 4160069.55 ], [ 285298.33, 4160069.99 ], [ 285298.5, 4160070.44 ], [ 285298.63, 4160070.92 ], [ 285298.71, 4160071.4 ], [ 285298.75, 4160071.89 ], [ 285298.89, 4160078.48 ], [ 285298.88, 4160078.97 ], [ 285298.82, 4160079.46 ], [ 285298.71, 4160079.94 ], [ 285298.55, 4160080.4 ], [ 285298.35, 4160080.85 ], [ 285298.11, 4160081.28 ], [ 285298.09, 4160081.3 ], [ 285298.38, 4160081.33 ], [ 285298.86, 4160081.42 ], [ 285299.33, 4160081.57 ], [ 285299.78, 4160081.75 ], [ 285300.21, 4160081.98 ], [ 285300.62, 4160082.25 ], [ 285301.0, 4160082.56 ], [ 285301.35, 4160082.91 ], [ 285301.66, 4160083.29 ], [ 285301.93, 4160083.69 ], [ 285302.17, 4160084.12 ], [ 285302.36, 4160084.58 ], [ 285302.5, 4160085.04 ], [ 285302.6, 4160085.53 ], [ 285302.65, 4160086.01 ], [ 285302.9, 4160090.83 ], [ 285305.58, 4160090.66 ], [ 285309.2, 4160088.25 ], [ 285307.66, 4160063.86 ], [ 285293.62, 4160065.25 ], [ 285293.68, 4160065.33 ], [ 285293.94, 4160065.75 ], [ 285294.16, 4160066.19 ], [ 285294.34, 4160066.64 ], [ 285294.45, 4160067.05 ], [ 285294.62, 4160067.08 ] ] ], [ [ [ 285257.43, 4160093.23 ], [ 285259.13, 4160094.63 ], [ 285261.53, 4160094.63 ], [ 285262.55, 4160095.05 ], [ 285264.02, 4160096.52 ], [ 285262.21, 4160068.25 ], [ 285254.61, 4160068.79 ], [ 285254.85, 4160069.18 ], [ 285255.06, 4160069.61 ], [ 285255.23, 4160070.06 ], [ 285255.36, 4160070.52 ], [ 285255.44, 4160071.0 ], [ 285256.5, 4160079.63 ], [ 285258.53, 4160079.63 ], [ 285259.55, 4160080.05 ], [ 285261.71, 4160082.2 ], [ 285262.13, 4160083.22 ], [ 285262.13, 4160085.03 ], [ 285261.71, 4160086.05 ], [ 285259.55, 4160088.2 ], [ 285257.98, 4160088.85 ], [ 285257.13, 4160090.45 ], [ 285257.43, 4160093.23 ] ] ], [ [ [ 285278.58, 4160081.52 ], [ 285278.43, 4160081.29 ], [ 285278.21, 4160080.85 ], [ 285278.04, 4160080.39 ], [ 285277.91, 4160079.92 ], [ 285277.82, 4160079.43 ], [ 285277.79, 4160078.94 ], [ 285277.56, 4160068.45 ], [ 285277.58, 4160067.96 ], [ 285277.64, 4160067.48 ], [ 285277.75, 4160067.0 ], [ 285277.81, 4160066.82 ], [ 285270.78, 4160067.52 ], [ 285274.94, 4160132.29 ], [ 285293.88, 4160129.99 ], [ 285293.95, 4160129.98 ], [ 285299.51, 4160129.39 ], [ 285283.42, 4160127.92 ], [ 285282.48, 4160127.46 ], [ 285280.51, 4160125.3 ], [ 285280.13, 4160124.32 ], [ 285280.13, 4160117.48 ], [ 285278.47, 4160114.8 ], [ 285276.49, 4160113.8 ], [ 285275.85, 4160113.17 ], [ 285274.66, 4160110.9 ], [ 285274.5, 4160110.02 ], [ 285278.58, 4160081.52 ] ] ], [ [ [ 285259.01, 4160116.9 ], [ 285259.29, 4160117.31 ], [ 285259.53, 4160117.73 ], [ 285259.72, 4160118.19 ], [ 285259.87, 4160118.65 ], [ 285259.97, 4160119.13 ], [ 285260.02, 4160119.62 ], [ 285260.61, 4160129.07 ], [ 285260.61, 4160129.57 ], [ 285260.57, 4160130.06 ], [ 285260.47, 4160130.55 ], [ 285260.33, 4160131.03 ], [ 285260.14, 4160131.49 ], [ 285259.91, 4160131.94 ], [ 285259.63, 4160132.35 ], [ 285259.31, 4160132.74 ], [ 285257.86, 4160134.33 ], [ 285257.64, 4160134.56 ], [ 285266.39, 4160133.38 ], [ 285264.64, 4160106.11 ], [ 285264.09, 4160107.21 ], [ 285263.65, 4160107.74 ], [ 285259.71, 4160110.69 ], [ 285259.85, 4160113.7 ], [ 285259.85, 4160114.19 ], [ 285259.8, 4160114.68 ], [ 285259.7, 4160115.16 ], [ 285259.56, 4160115.63 ], [ 285259.37, 4160116.09 ], [ 285259.13, 4160116.52 ], [ 285258.94, 4160116.81 ], [ 285259.01, 4160116.9 ] ] ], [ [ [ 285306.23, 4160154.97 ], [ 285305.83, 4160154.67 ], [ 285305.47, 4160154.34 ], [ 285305.15, 4160153.97 ], [ 285304.86, 4160153.57 ], [ 285304.61, 4160153.15 ], [ 285304.4, 4160152.71 ], [ 285304.24, 4160152.24 ], [ 285304.13, 4160151.76 ], [ 285304.06, 4160151.28 ], [ 285303.61, 4160146.28 ], [ 285303.59, 4160145.79 ], [ 285303.62, 4160145.3 ], [ 285303.7, 4160144.82 ], [ 285303.82, 4160144.34 ], [ 285303.99, 4160143.88 ], [ 285304.2, 4160143.44 ], [ 285304.46, 4160143.02 ], [ 285304.76, 4160142.63 ], [ 285305.09, 4160142.27 ], [ 285305.45, 4160141.94 ], [ 285305.63, 4160141.81 ], [ 285305.7, 4160141.62 ], [ 285305.91, 4160141.18 ], [ 285306.17, 4160140.76 ], [ 285306.46, 4160140.36 ], [ 285306.8, 4160140.0 ], [ 285307.16, 4160139.68 ], [ 285307.56, 4160139.39 ], [ 285307.98, 4160139.14 ], [ 285308.43, 4160138.93 ], [ 285308.89, 4160138.77 ], [ 285309.37, 4160138.65 ], [ 285309.85, 4160138.58 ], [ 285319.08, 4160137.73 ], [ 285319.57, 4160137.71 ], [ 285320.06, 4160137.74 ], [ 285320.55, 4160137.81 ], [ 285321.02, 4160137.94 ], [ 285321.49, 4160138.11 ], [ 285321.93, 4160138.32 ], [ 285322.35, 4160138.58 ], [ 285322.74, 4160138.87 ], [ 285323.1, 4160139.21 ], [ 285323.43, 4160139.58 ], [ 285323.72, 4160139.97 ], [ 285323.97, 4160140.4 ], [ 285324.17, 4160140.85 ], [ 285324.34, 4160141.31 ], [ 285324.45, 4160141.79 ], [ 285324.52, 4160142.28 ], [ 285325.04, 4160148.34 ], [ 285325.16, 4160148.23 ], [ 285325.56, 4160147.95 ], [ 285325.98, 4160147.7 ], [ 285326.43, 4160147.5 ], [ 285326.89, 4160147.34 ], [ 285327.37, 4160147.23 ], [ 285327.85, 4160147.16 ], [ 285332.39, 4160146.78 ], [ 285332.89, 4160146.76 ], [ 285332.92, 4160146.76 ], [ 285332.11, 4160143.53 ], [ 285332.32, 4160142.38 ], [ 285334.13, 4160139.74 ], [ 285335.13, 4160139.13 ], [ 285338.94, 4160138.65 ], [ 285338.33, 4160134.69 ], [ 285315.6, 4160137.32 ], [ 285315.56, 4160137.33 ], [ 285299.16, 4160139.08 ], [ 285301.46, 4160165.52 ], [ 285305.37, 4160164.21 ], [ 285306.46, 4160162.91 ], [ 285306.19, 4160158.46 ], [ 285306.19, 4160157.97 ], [ 285306.23, 4160157.49 ], [ 285306.32, 4160157.01 ], [ 285306.45, 4160156.54 ], [ 285306.47, 4160156.5 ], [ 285306.45, 4160156.34 ], [ 285306.33, 4160155.03 ], [ 285306.23, 4160154.97 ] ] ], [ [ [ 285284.1, 4160143.88 ], [ 285284.43, 4160144.25 ], [ 285284.72, 4160144.65 ], [ 285284.97, 4160145.07 ], [ 285285.17, 4160145.51 ], [ 285285.34, 4160145.98 ], [ 285285.45, 4160146.45 ], [ 285285.52, 4160146.94 ], [ 285286.53, 4160158.03 ], [ 285286.55, 4160158.52 ], [ 285286.53, 4160159.01 ], [ 285286.45, 4160159.49 ], [ 285286.33, 4160159.97 ], [ 285286.16, 4160160.43 ], [ 285285.95, 4160160.87 ], [ 285285.69, 4160161.29 ], [ 285285.4, 4160161.68 ], [ 285285.06, 4160162.04 ], [ 285284.7, 4160162.37 ], [ 285284.3, 4160162.66 ], [ 285283.88, 4160162.91 ], [ 285283.43, 4160163.12 ], [ 285283.28, 4160163.17 ], [ 285283.64, 4160163.4 ], [ 285284.03, 4160163.7 ], [ 285284.38, 4160164.04 ], [ 285284.7, 4160164.41 ], [ 285284.98, 4160164.81 ], [ 285285.23, 4160165.24 ], [ 285285.43, 4160165.69 ], [ 285285.58, 4160166.15 ], [ 285285.69, 4160166.63 ], [ 285285.75, 4160167.12 ], [ 285285.89, 4160169.05 ], [ 285286.08, 4160169.27 ], [ 285286.37, 4160169.68 ], [ 285286.61, 4160170.1 ], [ 285286.81, 4160170.55 ], [ 285286.97, 4160171.02 ], [ 285287.08, 4160171.5 ], [ 285287.14, 4160171.99 ], [ 285287.46, 4160176.37 ], [ 285287.47, 4160176.86 ], [ 285287.44, 4160177.35 ], [ 285287.36, 4160177.83 ], [ 285287.22, 4160178.3 ], [ 285287.05, 4160178.76 ], [ 285286.83, 4160179.2 ], [ 285286.57, 4160179.62 ], [ 285286.26, 4160180.0 ], [ 285285.93, 4160180.36 ], [ 285285.55, 4160180.68 ], [ 285285.15, 4160180.96 ], [ 285284.73, 4160181.2 ], [ 285284.28, 4160181.4 ], [ 285283.81, 4160181.56 ], [ 285283.33, 4160181.66 ], [ 285282.85, 4160181.72 ], [ 285282.48, 4160181.75 ], [ 285282.24, 4160182.36 ], [ 285284.83, 4160182.22 ], [ 285285.32, 4160182.21 ], [ 285285.81, 4160182.26 ], [ 285286.29, 4160182.35 ], [ 285286.76, 4160182.49 ], [ 285287.21, 4160182.68 ], [ 285287.65, 4160182.91 ], [ 285288.06, 4160183.18 ], [ 285288.44, 4160183.49 ], [ 285288.79, 4160183.83 ], [ 285289.1, 4160184.21 ], [ 285289.37, 4160184.62 ], [ 285289.61, 4160185.05 ], [ 285289.8, 4160185.5 ], [ 285289.94, 4160185.97 ], [ 285290.04, 4160186.45 ], [ 285290.09, 4160186.94 ], [ 285290.63, 4160196.99 ], [ 285290.64, 4160197.48 ], [ 285290.59, 4160197.96 ], [ 285290.5, 4160198.45 ], [ 285290.36, 4160198.92 ], [ 285290.17, 4160199.37 ], [ 285289.94, 4160199.8 ], [ 285289.67, 4160200.21 ], [ 285289.36, 4160200.59 ], [ 285289.02, 4160200.94 ], [ 285288.69, 4160201.22 ], [ 285288.71, 4160201.41 ], [ 285289.16, 4160210.15 ], [ 285289.86, 4160210.69 ], [ 285293.73, 4160209.73 ], [ 285294.95, 4160209.98 ], [ 285296.83, 4160211.45 ], [ 285290.61, 4160140.06 ], [ 285279.84, 4160141.36 ], [ 285280.07, 4160141.59 ], [ 285280.46, 4160142.4 ], [ 285280.58, 4160142.39 ], [ 285281.07, 4160142.42 ], [ 285281.55, 4160142.5 ], [ 285282.03, 4160142.62 ], [ 285282.49, 4160142.79 ], [ 285282.93, 4160143.0 ], [ 285283.35, 4160143.26 ], [ 285283.74, 4160143.55 ], [ 285284.1, 4160143.88 ] ] ], [ [ [ 285311.47, 4160212.01 ], [ 285311.14, 4160211.64 ], [ 285310.85, 4160211.24 ], [ 285310.61, 4160210.82 ], [ 285310.4, 4160210.37 ], [ 285310.24, 4160209.91 ], [ 285310.13, 4160209.43 ], [ 285310.06, 4160208.94 ], [ 285309.22, 4160199.3 ], [ 285309.2, 4160198.82 ], [ 285309.23, 4160198.33 ], [ 285309.31, 4160197.84 ], [ 285309.43, 4160197.37 ], [ 285309.6, 4160196.91 ], [ 285309.63, 4160196.85 ], [ 285308.85, 4160189.34 ], [ 285307.13, 4160187.63 ], [ 285306.88, 4160187.63 ], [ 285306.0, 4160187.33 ], [ 285303.9, 4160185.74 ], [ 285303.38, 4160184.98 ], [ 285303.06, 4160183.87 ], [ 285305.85, 4160215.9 ], [ 285318.12, 4160214.54 ], [ 285317.63, 4160214.41 ], [ 285316.06, 4160213.44 ], [ 285315.48, 4160213.49 ], [ 285314.99, 4160213.51 ], [ 285314.5, 4160213.48 ], [ 285314.01, 4160213.4 ], [ 285313.54, 4160213.28 ], [ 285313.08, 4160213.11 ], [ 285312.64, 4160212.89 ], [ 285312.22, 4160212.64 ], [ 285311.83, 4160212.34 ], [ 285311.47, 4160212.01 ] ] ], [ [ [ 285250.0, 4160229.62 ], [ 285250.0, 4160250.0 ], [ 285251.68, 4160250.0 ], [ 285250.01, 4160229.61 ], [ 285250.0, 4160229.62 ] ] ] ] } },
{ "type": "Feature", "properties": { "id": "imagery:groundcover_lawn:1322", "name": null, "kind": "groundcover_lawn", "sport": null, "surface": null, "pitch_layout": null, "source": "vgin_vbmp+naip+lidar2025", "source_updated": null, "base_z": null, "top_z": null }, "geometry": { "type": "MultiPolygon", "coordinates": [ [ [ [ 285254.28, 4160133.63 ], [ 285250.0, 4160133.63 ], [ 285250.0, 4160135.58 ], [ 285256.11, 4160134.76 ], [ 285254.28, 4160133.63 ] ] ], [ [ [ 285270.45, 4160187.61 ], [ 285270.48, 4160187.53 ], [ 285270.53, 4160187.44 ], [ 285270.58, 4160187.36 ], [ 285270.65, 4160187.28 ], [ 285270.71, 4160187.21 ], [ 285270.79, 4160187.15 ], [ 285270.87, 4160187.1 ], [ 285270.96, 4160187.05 ], [ 285271.05, 4160187.01 ], [ 285271.14, 4160186.98 ], [ 285271.15, 4160186.98 ], [ 285272.96, 4160184.21 ], [ 285269.99, 4160181.63 ], [ 285265.73, 4160181.63 ], [ 285264.71, 4160181.2 ], [ 285262.55, 4160179.05 ], [ 285262.13, 4160178.03 ], [ 285262.13, 4160170.22 ], [ 285262.55, 4160169.2 ], [ 285262.92, 4160168.84 ], [ 285262.83, 4160167.4 ], [ 285262.83, 4160167.3 ], [ 285262.84, 4160167.21 ], [ 285262.86, 4160167.11 ], [ 285262.88, 4160167.02 ], [ 285262.92, 4160166.93 ], [ 285262.96, 4160166.84 ], [ 285263.02, 4160166.76 ], [ 285263.08, 4160166.68 ], [ 285263.14, 4160166.61 ], [ 285263.22, 4160166.55 ], [ 285263.3, 4160166.49 ], [ 285263.38, 4160166.44 ], [ 285263.47, 4160166.4 ], [ 285263.56, 4160166.37 ], [ 285263.66, 4160166.35 ], [ 285263.75, 4160166.34 ], [ 285265.11, 4160166.24 ], [ 285266.37, 4160164.34 ], [ 285264.49, 4160161.57 ], [ 285264.43, 4160161.55 ], [ 285263.76, 4160161.01 ], [ 285262.38, 4160158.97 ], [ 285262.13, 4160158.14 ], [ 285262.13, 4160154.7 ], [ 285262.48, 4160153.76 ], [ 285264.29, 4160151.61 ], [ 285264.86, 4160151.29 ], [ 285264.64, 4160148.85 ], [ 285264.64, 4160148.75 ], [ 285264.64, 4160148.65 ], [ 285264.66, 4160148.56 ], [ 285264.68, 4160148.46 ], [ 285264.72, 4160148.37 ], [ 285264.76, 4160148.28 ], [ 285264.81, 4160148.2 ], [ 285264.87, 4160148.12 ], [ 285264.94, 4160148.05 ], [ 285265.01, 4160147.98 ], [ 285265.09, 4160147.92 ], [ 285265.17, 4160147.87 ], [ 285265.26, 4160147.83 ], [ 285265.35, 4160147.8 ], [ 285265.45, 4160147.78 ], [ 285265.55, 4160147.76 ], [ 285279.82, 4160146.46 ], [ 285280.13, 4160146.08 ], [ 285280.13, 4160143.02 ], [ 285278.68, 4160141.5 ], [ 285271.58, 4160142.37 ], [ 285250.62, 4160145.19 ], [ 285254.58, 4160206.78 ], [ 285255.76, 4160215.05 ], [ 285258.73, 4160217.63 ], [ 285262.13, 4160217.63 ], [ 285265.13, 4160214.63 ], [ 285265.13, 4160194.51 ], [ 285265.17, 4160194.16 ], [ 285265.41, 4160193.16 ], [ 285265.53, 4160192.84 ], [ 285267.12, 4160189.66 ], [ 285267.66, 4160189.06 ], [ 285269.63, 4160187.85 ], [ 285270.45, 4160187.61 ] ] ], [ [ [ 285489.72, 4160012.2 ], [ 285491.74, 4160010.87 ], [ 285492.55, 4160010.63 ], [ 285500.0, 4160010.63 ], [ 285500.0, 4160000.0 ], [ 285489.42, 4160000.0 ], [ 285488.59, 4160002.36 ], [ 285488.51, 4160002.56 ], [ 285486.91, 4160005.95 ], [ 285486.84, 4160006.1 ], [ 285484.99, 4160009.31 ], [ 285484.93, 4160009.41 ], [ 285481.19, 4160015.13 ], [ 285479.01, 4160018.59 ], [ 285477.46, 4160021.46 ], [ 285475.79, 4160024.87 ], [ 285474.24, 4160028.33 ], [ 285473.33, 4160031.72 ], [ 285472.74, 4160034.72 ], [ 285472.21, 4160038.26 ], [ 285471.85, 4160041.61 ], [ 285471.81, 4160045.08 ], [ 285471.84, 4160048.79 ], [ 285472.18, 4160052.29 ], [ 285472.84, 4160055.68 ], [ 285473.9, 4160059.01 ], [ 285474.99, 4160062.34 ], [ 285476.26, 4160065.68 ], [ 285477.76, 4160068.76 ], [ 285479.4, 4160071.91 ], [ 285481.12, 4160075.0 ], [ 285482.98, 4160078.38 ], [ 285483.0, 4160078.42 ], [ 285484.67, 4160081.64 ], [ 285484.7, 4160081.7 ], [ 285485.53, 4160083.43 ], [ 285486.73, 4160073.84 ], [ 285484.9, 4160070.7 ], [ 285483.71, 4160070.2 ], [ 285481.55, 4160068.05 ], [ 285481.13, 4160067.03 ], [ 285481.13, 4160032.39 ], [ 285481.16, 4160032.09 ], [ 285481.34, 4160031.21 ], [ 285481.43, 4160030.92 ], [ 285489.18, 4160012.85 ], [ 285489.72, 4160012.2 ] ] ], [ [ [ 285353.32, 4160036.67 ], [ 285353.28, 4160033.92 ], [ 285353.04, 4160033.93 ], [ 285352.95, 4160033.93 ], [ 285352.85, 4160033.92 ], [ 285352.75, 4160033.9 ], [ 285352.66, 4160033.87 ], [ 285352.57, 4160033.83 ], [ 285352.48, 4160033.78 ], [ 285352.4, 4160033.73 ], [ 285352.33, 4160033.67 ], [ 285352.26, 4160033.6 ], [ 285352.2, 4160033.52 ], [ 285352.14, 4160033.44 ], [ 285352.1, 4160033.35 ], [ 285352.06, 4160033.26 ], [ 285352.03, 4160033.16 ], [ 285352.02, 4160033.07 ], [ 285352.01, 4160032.97 ], [ 285351.87, 4160029.37 ], [ 285351.87, 4160029.27 ], [ 285351.88, 4160029.17 ], [ 285351.91, 4160029.07 ], [ 285351.93, 4160028.98 ], [ 285351.97, 4160028.89 ], [ 285352.02, 4160028.8 ], [ 285352.08, 4160028.72 ], [ 285352.14, 4160028.65 ], [ 285352.21, 4160028.58 ], [ 285352.29, 4160028.52 ], [ 285352.37, 4160028.46 ], [ 285352.46, 4160028.42 ], [ 285352.55, 4160028.38 ], [ 285352.64, 4160028.36 ], [ 285352.74, 4160028.34 ], [ 285352.83, 4160028.33 ], [ 285353.18, 4160028.32 ], [ 285352.7, 4160000.0 ], [ 285340.47, 4160000.0 ], [ 285341.96, 4160019.37 ], [ 285343.24, 4160030.08 ], [ 285343.25, 4160030.18 ], [ 285343.25, 4160030.28 ], [ 285343.23, 4160030.38 ], [ 285343.21, 4160030.47 ], [ 285343.18, 4160030.56 ], [ 285343.14, 4160030.65 ], [ 285343.09, 4160030.74 ], [ 285343.04, 4160030.82 ], [ 285342.97, 4160030.89 ], [ 285342.9, 4160030.96 ], [ 285342.82, 4160031.02 ], [ 285342.74, 4160031.07 ], [ 285342.73, 4160031.08 ], [ 285342.46, 4160031.86 ], [ 285340.32, 4160034.17 ], [ 285339.26, 4160034.63 ], [ 285331.11, 4160034.63 ], [ 285330.19, 4160034.3 ], [ 285328.05, 4160032.54 ], [ 285327.55, 4160031.7 ], [ 285325.61, 4160022.04 ], [ 285322.67, 4160019.63 ], [ 285322.13, 4160019.63 ], [ 285319.36, 4160021.48 ], [ 285318.71, 4160023.05 ], [ 285316.55, 4160025.2 ], [ 285315.53, 4160025.63 ], [ 285312.02, 4160025.63 ], [ 285310.87, 4160025.04 ], [ 285308.94, 4160022.36 ], [ 285308.88, 4160022.34 ], [ 285308.68, 4160020.99 ], [ 285315.04, 4160001.89 ], [ 285314.23, 4160000.0 ], [ 285295.35, 4160000.0 ], [ 285295.38, 4160000.76 ], [ 285295.38, 4160000.86 ], [ 285295.37, 4160000.96 ], [ 285295.35, 4160001.05 ], [ 285295.32, 4160001.15 ], [ 285295.28, 4160001.24 ], [ 285295.24, 4160001.32 ], [ 285295.18, 4160001.4 ], [ 285295.13, 4160001.46 ], [ 285295.13, 4160001.55 ], [ 285294.79, 4160002.49 ], [ 285292.97, 4160004.64 ], [ 285292.1, 4160005.13 ], [ 285281.28, 4160006.93 ], [ 285280.12, 4160006.62 ], [ 285278.92, 4160005.6 ], [ 285275.48, 4160005.3 ], [ 285274.21, 4160008.06 ], [ 285274.0, 4160008.07 ], [ 285274.02, 4160008.7 ], [ 285271.46, 4160034.33 ], [ 285274.45, 4160037.63 ], [ 285279.87, 4160037.63 ], [ 285279.93, 4160037.58 ], [ 285280.01, 4160037.52 ], [ 285280.1, 4160037.47 ], [ 285280.19, 4160037.43 ], [ 285280.29, 4160037.4 ], [ 285280.38, 4160037.38 ], [ 285280.48, 4160037.37 ], [ 285280.58, 4160037.37 ], [ 285281.69, 4160037.42 ], [ 285283.03, 4160035.83 ], [ 285283.1, 4160035.76 ], [ 285283.17, 4160035.7 ], [ 285283.24, 4160035.64 ], [ 285283.33, 4160035.59 ], [ 285283.41, 4160035.55 ], [ 285283.5, 4160035.52 ], [ 285283.59, 4160035.5 ], [ 285283.69, 4160035.48 ], [ 285283.78, 4160035.48 ], [ 285283.88, 4160035.48 ], [ 285283.97, 4160035.49 ], [ 285284.07, 4160035.51 ], [ 285284.16, 4160035.55 ], [ 285284.24, 4160035.58 ], [ 285284.33, 4160035.63 ], [ 285284.41, 4160035.68 ], [ 285284.97, 4160036.12 ], [ 285286.07, 4160035.21 ], [ 285284.28, 4160031.85 ], [ 285282.71, 4160031.2 ], [ 285280.55, 4160029.05 ], [ 285280.13, 4160028.03 ], [ 285280.13, 4160022.61 ], [ 285280.46, 4160021.68 ], [ 285280.59, 4160021.53 ], [ 285280.48, 4160019.26 ], [ 285280.49, 4160019.16 ], [ 285280.5, 4160019.06 ], [ 285280.52, 4160018.97 ], [ 285280.54, 4160018.87 ], [ 285280.58, 4160018.78 ], [ 285280.63, 4160018.69 ], [ 285280.69, 4160018.61 ], [ 285280.75, 4160018.54 ], [ 285280.82, 4160018.47 ], [ 285280.9, 4160018.41 ], [ 285280.98, 4160018.35 ], [ 285281.07, 4160018.31 ], [ 285281.16, 4160018.27 ], [ 285281.25, 4160018.24 ], [ 285281.35, 4160018.22 ], [ 285281.45, 4160018.22 ], [ 285281.56, 4160018.21 ], [ 285281.48, 4160015.99 ], [ 285281.48, 4160015.9 ], [ 285281.49, 4160015.8 ], [ 285281.51, 4160015.7 ], [ 285281.54, 4160015.61 ], [ 285281.58, 4160015.52 ], [ 285281.63, 4160015.43 ], [ 285281.68, 4160015.35 ], [ 285281.75, 4160015.28 ], [ 285281.82, 4160015.21 ], [ 285281.89, 4160015.15 ], [ 285281.98, 4160015.09 ], [ 285282.06, 4160015.05 ], [ 285282.15, 4160015.01 ], [ 285282.25, 4160014.98 ], [ 285282.35, 4160014.97 ], [ 285282.44, 4160014.96 ], [ 285295.45, 4160014.5 ], [ 285295.55, 4160014.5 ], [ 285295.65, 4160014.51 ], [ 285295.74, 4160014.53 ], [ 285295.84, 4160014.56 ], [ 285295.93, 4160014.6 ], [ 285296.01, 4160014.65 ], [ 285296.09, 4160014.7 ], [ 285296.17, 4160014.77 ], [ 285296.24, 4160014.84 ], [ 285296.3, 4160014.91 ], [ 285296.35, 4160015.0 ], [ 285296.4, 4160015.08 ], [ 285296.43, 4160015.17 ], [ 285296.46, 4160015.27 ], [ 285296.48, 4160015.36 ], [ 285296.49, 4160015.46 ], [ 285296.69, 4160021.02 ], [ 285296.73, 4160020.99 ], [ 285296.81, 4160020.94 ], [ 285296.9, 4160020.9 ], [ 285296.99, 4160020.86 ], [ 285297.08, 4160020.84 ], [ 285297.18, 4160020.82 ], [ 285304.15, 4160020.02 ], [ 285304.25, 4160020.01 ], [ 285304.35, 4160020.02 ], [ 285304.44, 4160020.03 ], [ 285304.54, 4160020.05 ], [ 285304.63, 4160020.08 ], [ 285304.72, 4160020.12 ], [ 285304.81, 4160020.17 ], [ 285304.89, 4160020.23 ], [ 285304.96, 4160020.29 ], [ 285305.03, 4160020.37 ], [ 285305.09, 4160020.44 ], [ 285305.14, 4160020.53 ], [ 285305.18, 4160020.61 ], [ 285305.22, 4160020.71 ], [ 285305.24, 4160020.8 ], [ 285305.26, 4160020.9 ], [ 285306.05, 4160027.68 ], [ 285306.05, 4160027.78 ], [ 285306.05, 4160027.88 ], [ 285306.04, 4160027.98 ], [ 285306.01, 4160028.07 ], [ 285305.98, 4160028.17 ], [ 285305.94, 4160028.26 ], [ 285305.89, 4160028.34 ], [ 285305.84, 4160028.42 ], [ 285305.77, 4160028.49 ], [ 285305.7, 4160028.56 ], [ 285305.62, 4160028.62 ], [ 285305.54, 4160028.67 ], [ 285305.45, 4160028.72 ], [ 285305.36, 4160028.75 ], [ 285305.26, 4160028.78 ], [ 285305.17, 4160028.79 ], [ 285303.75, 4160028.96 ], [ 285303.71, 4160029.05 ], [ 285301.55, 4160031.2 ], [ 285300.53, 4160031.63 ], [ 285298.73, 4160031.63 ], [ 285297.71, 4160031.2 ], [ 285296.78, 4160030.27 ], [ 285293.2, 4160030.35 ], [ 285292.96, 4160029.97 ], [ 285290.63, 4160031.41 ], [ 285289.46, 4160031.74 ], [ 285287.31, 4160035.04 ], [ 285288.24, 4160035.85 ], [ 285291.31, 4160035.61 ], [ 285291.23, 4160034.74 ], [ 285291.23, 4160034.64 ], [ 285291.23, 4160034.54 ], [ 285291.25, 4160034.44 ], [ 285291.27, 4160034.35 ], [ 285291.31, 4160034.26 ], [ 285291.35, 4160034.17 ], [ 285291.4, 4160034.08 ], [ 285291.46, 4160034.01 ], [ 285291.53, 4160033.93 ], [ 285291.6, 4160033.87 ], [ 285291.68, 4160033.81 ], [ 285291.77, 4160033.76 ], [ 285291.85, 4160033.72 ], [ 285291.95, 4160033.69 ], [ 285292.04, 4160033.67 ], [ 285292.14, 4160033.65 ], [ 285295.13, 4160033.4 ], [ 285295.23, 4160033.39 ], [ 285295.32, 4160033.4 ], [ 285295.42, 4160033.42 ], [ 285295.51, 4160033.44 ], [ 285295.61, 4160033.47 ], [ 285295.69, 4160033.52 ], [ 285295.78, 4160033.57 ], [ 285295.85, 4160033.62 ], [ 285295.93, 4160033.69 ], [ 285295.99, 4160033.76 ], [ 285296.05, 4160033.84 ], [ 285296.1, 4160033.92 ], [ 285296.14, 4160034.01 ], [ 285296.17, 4160034.1 ], [ 285296.2, 4160034.2 ], [ 285296.21, 4160034.29 ], [ 285296.71, 4160039.2 ], [ 285297.71, 4160040.2 ], [ 285298.13, 4160041.22 ], [ 285298.13, 4160046.03 ], [ 285297.71, 4160047.05 ], [ 285295.55, 4160049.2 ], [ 285294.53, 4160049.63 ], [ 285277.13, 4160049.63 ], [ 285274.13, 4160052.63 ], [ 285274.13, 4160055.39 ], [ 285277.21, 4160058.24 ], [ 285310.0, 4160054.98 ], [ 285310.42, 4160054.96 ], [ 285310.85, 4160054.98 ], [ 285311.26, 4160055.04 ], [ 285311.67, 4160055.15 ], [ 285312.07, 4160055.29 ], [ 285312.45, 4160055.47 ], [ 285312.81, 4160055.69 ], [ 285313.15, 4160055.94 ], [ 285313.47, 4160056.22 ], [ 285313.75, 4160056.53 ], [ 285314.0, 4160056.87 ], [ 285314.22, 4160057.23 ], [ 285314.4, 4160057.61 ], [ 285314.54, 4160058.01 ], [ 285314.64, 4160058.42 ], [ 285314.71, 4160058.84 ], [ 285314.73, 4160059.26 ], [ 285314.71, 4160059.68 ], [ 285314.65, 4160060.1 ], [ 285314.54, 4160060.51 ], [ 285314.4, 4160060.91 ], [ 285314.22, 4160061.29 ], [ 285314.0, 4160061.65 ], [ 285313.75, 4160061.99 ], [ 285313.66, 4160062.09 ], [ 285315.35, 4160088.9 ], [ 285315.44, 4160088.89 ], [ 285315.54, 4160088.88 ], [ 285321.22, 4160088.66 ], [ 285321.32, 4160088.67 ], [ 285321.41, 4160088.68 ], [ 285321.51, 4160088.7 ], [ 285321.6, 4160088.73 ], [ 285321.69, 4160088.77 ], [ 285321.78, 4160088.81 ], [ 285321.86, 4160088.87 ], [ 285321.94, 4160088.93 ], [ 285322.0, 4160089.0 ], [ 285322.07, 4160089.08 ], [ 285322.12, 4160089.16 ], [ 285322.16, 4160089.25 ], [ 285322.2, 4160089.34 ], [ 285322.23, 4160089.43 ], [ 285322.25, 4160089.53 ], [ 285322.25, 4160089.63 ], [ 285322.47, 4160095.09 ], [ 285322.47, 4160095.19 ], [ 285322.46, 4160095.29 ], [ 285322.44, 4160095.39 ], [ 285322.41, 4160095.48 ], [ 285322.37, 4160095.57 ], [ 285322.32, 4160095.66 ], [ 285322.26, 4160095.74 ], [ 285322.2, 4160095.81 ], [ 285322.13, 4160095.88 ], [ 285322.05, 4160095.94 ], [ 285321.97, 4160096.0 ], [ 285321.89, 4160096.04 ], [ 285321.79, 4160096.08 ], [ 285321.7, 4160096.11 ], [ 285321.6, 4160096.12 ], [ 285321.51, 4160096.13 ], [ 285315.82, 4160096.35 ], [ 285317.22, 4160118.63 ], [ 285321.53, 4160118.63 ], [ 285322.55, 4160119.05 ], [ 285324.71, 4160121.2 ], [ 285325.13, 4160122.22 ], [ 285325.13, 4160124.63 ], [ 285326.86, 4160126.36 ], [ 285339.91, 4160124.85 ], [ 285340.13, 4160124.63 ], [ 285340.13, 4160123.48 ], [ 285338.47, 4160120.8 ], [ 285336.16, 4160119.64 ], [ 285335.57, 4160119.1 ], [ 285334.35, 4160117.13 ], [ 285334.13, 4160116.35 ], [ 285334.13, 4160100.63 ], [ 285334.12, 4160100.53 ], [ 285333.39, 4160093.42 ], [ 285333.39, 4160093.33 ], [ 285333.39, 4160093.23 ], [ 285333.41, 4160093.13 ], [ 285333.43, 4160093.03 ], [ 285333.46, 4160092.94 ], [ 285333.51, 4160092.85 ], [ 285333.56, 4160092.77 ], [ 285333.61, 4160092.69 ], [ 285333.68, 4160092.62 ], [ 285333.75, 4160092.55 ], [ 285333.83, 4160092.49 ], [ 285333.91, 4160092.44 ], [ 285334.0, 4160092.4 ], [ 285334.09, 4160092.37 ], [ 285334.19, 4160092.34 ], [ 285334.29, 4160092.33 ], [ 285338.85, 4160091.86 ], [ 285339.51, 4160091.18 ], [ 285339.59, 4160091.12 ], [ 285339.66, 4160091.06 ], [ 285339.75, 4160091.01 ], [ 285339.83, 4160090.96 ], [ 285339.92, 4160090.93 ], [ 285340.02, 4160090.91 ], [ 285340.12, 4160090.89 ], [ 285341.85, 4160090.69 ], [ 285341.95, 4160090.68 ], [ 285342.05, 4160090.69 ], [ 285342.15, 4160090.7 ], [ 285342.25, 4160090.72 ], [ 285342.34, 4160090.76 ], [ 285342.43, 4160090.8 ], [ 285342.52, 4160090.85 ], [ 285342.6, 4160090.91 ], [ 285343.23, 4160091.42 ], [ 285348.79, 4160090.86 ], [ 285348.89, 4160090.86 ], [ 285348.99, 4160090.86 ], [ 285349.09, 4160090.88 ], [ 285349.18, 4160090.9 ], [ 285349.27, 4160090.93 ], [ 285349.36, 4160090.98 ], [ 285349.45, 4160091.03 ], [ 285349.52, 4160091.08 ], [ 285349.6, 4160091.15 ], [ 285349.66, 4160091.22 ], [ 285349.72, 4160091.3 ], [ 285349.77, 4160091.39 ], [ 285349.81, 4160091.47 ], [ 285349.85, 4160091.57 ], [ 285349.87, 4160091.66 ], [ 285349.89, 4160091.76 ], [ 285350.05, 4160093.39 ], [ 285357.45, 4160094.22 ], [ 285358.43, 4160094.77 ], [ 285360.32, 4160097.21 ], [ 285360.61, 4160098.29 ], [ 285358.58, 4160112.51 ], [ 285358.09, 4160113.4 ], [ 285355.94, 4160115.27 ], [ 285354.54, 4160115.79 ], [ 285352.62, 4160119.03 ], [ 285353.25, 4160123.43 ], [ 285364.05, 4160122.28 ], [ 285361.34, 4160092.9 ], [ 285361.32, 4160092.48 ], [ 285361.35, 4160092.05 ], [ 285361.41, 4160091.64 ], [ 285361.52, 4160091.23 ], [ 285361.66, 4160090.83 ], [ 285361.84, 4160090.45 ], [ 285362.06, 4160090.09 ], [ 285362.32, 4160089.75 ], [ 285362.6, 4160089.44 ], [ 285362.92, 4160089.16 ], [ 285363.26, 4160088.91 ], [ 285363.62, 4160088.7 ], [ 285364.0, 4160088.52 ], [ 285364.4, 4160088.38 ], [ 285364.81, 4160088.28 ], [ 285365.23, 4160088.22 ], [ 285365.65, 4160088.2 ], [ 285366.07, 4160088.23 ], [ 285366.49, 4160088.29 ], [ 285366.9, 4160088.4 ], [ 285367.29, 4160088.54 ], [ 285367.67, 4160088.72 ], [ 285368.04, 4160088.94 ], [ 285368.37, 4160089.2 ], [ 285368.68, 4160089.48 ], [ 285368.96, 4160089.8 ], [ 285369.21, 4160090.14 ], [ 285369.43, 4160090.5 ], [ 285369.61, 4160090.88 ], [ 285369.75, 4160091.28 ], [ 285369.85, 4160091.69 ], [ 285369.91, 4160092.11 ], [ 285372.6, 4160121.3 ], [ 285438.24, 4160113.39 ], [ 285445.13, 4160112.32 ], [ 285445.13, 4160112.26 ], [ 285445.41, 4160111.4 ], [ 285445.74, 4160110.94 ], [ 285445.38, 4160110.58 ], [ 285445.08, 4160110.25 ], [ 285444.81, 4160109.9 ], [ 285441.78, 4160105.5 ], [ 285441.55, 4160105.13 ], [ 285441.35, 4160104.74 ], [ 285441.19, 4160104.34 ], [ 285438.68, 4160097.04 ], [ 285438.66, 4160096.96 ], [ 285437.86, 4160094.5 ], [ 285436.44, 4160092.68 ], [ 285436.13, 4160091.78 ], [ 285436.13, 4160089.51 ], [ 285436.28, 4160089.22 ], [ 285436.08, 4160088.51 ], [ 285434.36, 4160085.82 ], [ 285434.79, 4160084.95 ], [ 285432.34, 4160083.73 ], [ 285431.72, 4160083.14 ], [ 285430.51, 4160081.0 ], [ 285430.32, 4160080.17 ], [ 285434.84, 4160021.43 ], [ 285434.84, 4160021.42 ], [ 285434.76, 4160021.36 ], [ 285433.05, 4160019.7 ], [ 285432.98, 4160019.63 ], [ 285432.92, 4160019.56 ], [ 285432.87, 4160019.48 ], [ 285432.83, 4160019.39 ], [ 285432.79, 4160019.3 ], [ 285432.77, 4160019.21 ], [ 285432.75, 4160019.11 ], [ 285432.74, 4160019.02 ], [ 285432.74, 4160018.92 ], [ 285432.75, 4160018.82 ], [ 285433.13, 4160016.52 ], [ 285433.15, 4160016.42 ], [ 285433.18, 4160016.32 ], [ 285433.22, 4160016.23 ], [ 285433.27, 4160016.14 ], [ 285433.33, 4160016.06 ], [ 285433.39, 4160015.98 ], [ 285433.47, 4160015.91 ], [ 285434.58, 4160014.96 ], [ 285434.66, 4160014.9 ], [ 285434.75, 4160014.85 ], [ 285434.85, 4160014.8 ], [ 285434.94, 4160014.77 ], [ 285435.05, 4160014.74 ], [ 285435.15, 4160014.73 ], [ 285435.25, 4160014.73 ], [ 285435.35, 4160014.73 ], [ 285435.87, 4160007.96 ], [ 285436.33, 4160007.01 ], [ 285438.49, 4160005.01 ], [ 285439.17, 4160004.74 ], [ 285440.92, 4160001.0 ], [ 285440.68, 4160000.26 ], [ 285440.72, 4160000.0 ], [ 285415.61, 4160000.0 ], [ 285410.3, 4160036.94 ], [ 285353.32, 4160036.67 ] ], [ [ 285317.92, 4160043.28 ], [ 285329.97, 4160042.0 ], [ 285330.66, 4160054.9 ], [ 285318.59, 4160055.46 ], [ 285317.92, 4160043.28 ] ] ], [ [ [ 285274.82, 4160003.84 ], [ 285277.13, 4160000.92 ], [ 285277.13, 4160000.0 ], [ 285270.32, 4160000.0 ], [ 285271.45, 4160002.26 ], [ 285274.82, 4160003.84 ] ] ], [ [ [ 285479.37, 4160080.33 ], [ 285477.53, 4160076.98 ], [ 285475.81, 4160073.88 ], [ 285475.78, 4160073.83 ], [ 285474.11, 4160070.63 ], [ 285474.08, 4160070.58 ], [ 285472.53, 4160067.39 ], [ 285472.46, 4160067.22 ], [ 285471.14, 4160063.76 ], [ 285471.11, 4160063.67 ], [ 285470.0, 4160060.28 ], [ 285469.99, 4160060.26 ], [ 285468.89, 4160056.81 ], [ 285468.84, 4160056.58 ], [ 285468.13, 4160052.98 ], [ 285468.1, 4160052.78 ], [ 285467.75, 4160049.09 ], [ 285467.74, 4160048.92 ], [ 285467.71, 4160045.1 ], [ 285467.71, 4160045.06 ], [ 285467.75, 4160041.47 ], [ 285467.76, 4160041.27 ], [ 285468.14, 4160037.78 ], [ 285468.15, 4160037.69 ], [ 285468.69, 4160034.07 ], [ 285468.71, 4160033.97 ], [ 285469.32, 4160030.86 ], [ 285469.35, 4160030.73 ], [ 285470.32, 4160027.12 ], [ 285470.37, 4160026.96 ], [ 285470.43, 4160026.81 ], [ 285472.06, 4160023.16 ], [ 285472.09, 4160023.09 ], [ 285473.8, 4160019.62 ], [ 285473.83, 4160019.55 ], [ 285475.44, 4160016.58 ], [ 285475.5, 4160016.47 ], [ 285477.73, 4160012.93 ], [ 285477.75, 4160012.9 ], [ 285481.47, 4160007.22 ], [ 285483.24, 4160004.13 ], [ 285484.76, 4160000.9 ], [ 285485.07, 4160000.0 ], [ 285451.89, 4160000.0 ], [ 285451.67, 4160001.24 ], [ 285448.32, 4160024.77 ], [ 285448.13, 4160026.15 ], [ 285448.13, 4160028.32 ], [ 285448.13, 4160028.44 ], [ 285448.1, 4160028.81 ], [ 285448.08, 4160028.93 ], [ 285446.01, 4160041.32 ], [ 285444.23, 4160055.5 ], [ 285443.22, 4160066.35 ], [ 285443.19, 4160073.08 ], [ 285443.79, 4160077.7 ], [ 285444.78, 4160083.91 ], [ 285445.9, 4160087.99 ], [ 285446.36, 4160088.32 ], [ 285447.86, 4160090.4 ], [ 285448.13, 4160091.26 ], [ 285448.13, 4160093.09 ], [ 285447.75, 4160093.87 ], [ 285447.78, 4160093.96 ], [ 285450.05, 4160100.6 ], [ 285452.46, 4160104.08 ], [ 285453.45, 4160105.07 ], [ 285453.69, 4160104.74 ], [ 285453.71, 4160104.3 ], [ 285455.58, 4160101.29 ], [ 285456.39, 4160100.84 ], [ 285457.02, 4160101.13 ], [ 285459.12, 4160103.61 ], [ 285459.41, 4160104.68 ], [ 285458.96, 4160105.55 ], [ 285458.68, 4160107.53 ], [ 285458.84, 4160108.35 ], [ 285458.72, 4160109.11 ], [ 285460.22, 4160110.06 ], [ 285482.77, 4160107.68 ], [ 285482.87, 4160106.99 ], [ 285484.87, 4160104.21 ], [ 285486.02, 4160103.63 ], [ 285487.13, 4160103.63 ], [ 285487.27, 4160103.49 ], [ 285487.16, 4160103.01 ], [ 285486.54, 4160100.54 ], [ 285484.89, 4160094.26 ], [ 285483.66, 4160089.89 ], [ 285482.36, 4160086.31 ], [ 285481.02, 4160083.5 ], [ 285479.37, 4160080.33 ] ] ], [ [ [ 285298.62, 4160092.56 ], [ 285298.55, 4160092.62 ], [ 285298.46, 4160092.68 ], [ 285298.38, 4160092.73 ], [ 285298.29, 4160092.76 ], [ 285298.19, 4160092.79 ], [ 285298.1, 4160092.81 ], [ 285298.0, 4160092.82 ], [ 285297.8, 4160092.83 ], [ 285297.69, 4160092.95 ], [ 285296.43, 4160096.74 ], [ 285296.54, 4160098.94 ], [ 285296.54, 4160099.04 ], [ 285296.53, 4160099.13 ], [ 285296.52, 4160099.23 ], [ 285296.49, 4160099.32 ], [ 285296.45, 4160099.41 ], [ 285296.4, 4160099.5 ], [ 285296.35, 4160099.58 ], [ 285296.29, 4160099.66 ], [ 285296.22, 4160099.73 ], [ 285296.14, 4160099.79 ], [ 285296.06, 4160099.85 ], [ 285295.98, 4160099.89 ], [ 285295.88, 4160099.93 ], [ 285295.79, 4160099.96 ], [ 285295.69, 4160099.98 ], [ 285295.6, 4160099.99 ], [ 285293.71, 4160100.09 ], [ 285293.35, 4160100.35 ], [ 285292.05, 4160100.77 ], [ 285291.13, 4160102.26 ], [ 285289.13, 4160100.63 ], [ 285288.98, 4160100.63 ], [ 285288.26, 4160100.38 ], [ 285286.68, 4160100.46 ], [ 285286.58, 4160100.47 ], [ 285286.49, 4160100.46 ], [ 285286.39, 4160100.44 ], [ 285286.3, 4160100.41 ], [ 285286.2, 4160100.37 ], [ 285286.12, 4160100.33 ], [ 285286.04, 4160100.27 ], [ 285285.96, 4160100.21 ], [ 285285.89, 4160100.14 ], [ 285285.83, 4160100.07 ], [ 285285.77, 4160099.98 ], [ 285285.73, 4160099.9 ], [ 285285.69, 4160099.81 ], [ 285285.66, 4160099.71 ], [ 285285.64, 4160099.62 ], [ 285285.63, 4160099.52 ], [ 285285.55, 4160098.03 ], [ 285285.44, 4160097.87 ], [ 285283.76, 4160091.13 ], [ 285283.81, 4160090.24 ], [ 285284.72, 4160087.89 ], [ 285284.99, 4160087.55 ], [ 285284.92, 4160086.25 ], [ 285284.92, 4160086.15 ], [ 285284.93, 4160086.05 ], [ 285284.95, 4160085.95 ], [ 285284.98, 4160085.86 ], [ 285285.02, 4160085.77 ], [ 285285.06, 4160085.68 ], [ 285285.12, 4160085.6 ], [ 285285.18, 4160085.52 ], [ 285285.25, 4160085.45 ], [ 285285.32, 4160085.39 ], [ 285285.41, 4160085.34 ], [ 285285.49, 4160085.29 ], [ 285285.58, 4160085.25 ], [ 285285.68, 4160085.22 ], [ 285285.77, 4160085.2 ], [ 285285.82, 4160085.2 ], [ 285285.03, 4160081.21 ], [ 285280.4, 4160080.28 ], [ 285276.83, 4160082.95 ], [ 285274.32, 4160110.59 ], [ 285275.96, 4160113.54 ], [ 285278.51, 4160114.82 ], [ 285279.03, 4160115.24 ], [ 285280.21, 4160116.79 ], [ 285280.4, 4160117.21 ], [ 285280.82, 4160117.42 ], [ 285280.57, 4160117.82 ], [ 285282.65, 4160128.21 ], [ 285285.59, 4160130.63 ], [ 285288.63, 4160130.63 ], [ 285293.88, 4160129.99 ], [ 285293.95, 4160129.98 ], [ 285311.71, 4160128.08 ], [ 285310.37, 4160106.83 ], [ 285305.42, 4160107.16 ], [ 285305.32, 4160107.17 ], [ 285305.23, 4160107.16 ], [ 285305.13, 4160107.14 ], [ 285305.04, 4160107.11 ], [ 285304.95, 4160107.08 ], [ 285304.86, 4160107.03 ], [ 285304.78, 4160106.98 ], [ 285304.7, 4160106.92 ], [ 285304.63, 4160106.85 ], [ 285304.56, 4160106.78 ], [ 285304.51, 4160106.7 ], [ 285304.46, 4160106.61 ], [ 285304.42, 4160106.52 ], [ 285304.39, 4160106.43 ], [ 285304.37, 4160106.33 ], [ 285304.36, 4160106.23 ], [ 285303.89, 4160099.31 ], [ 285303.89, 4160099.21 ], [ 285303.89, 4160099.11 ], [ 285303.91, 4160099.01 ], [ 285303.94, 4160098.92 ], [ 285303.97, 4160098.83 ], [ 285304.02, 4160098.74 ], [ 285304.07, 4160098.66 ], [ 285304.13, 4160098.58 ], [ 285304.2, 4160098.51 ], [ 285304.27, 4160098.45 ], [ 285304.35, 4160098.39 ], [ 285304.44, 4160098.34 ], [ 285304.53, 4160098.3 ], [ 285304.62, 4160098.27 ], [ 285304.72, 4160098.25 ], [ 285304.82, 4160098.24 ], [ 285309.81, 4160097.9 ], [ 285309.13, 4160087.22 ], [ 285299.42, 4160091.11 ], [ 285298.94, 4160091.62 ], [ 285298.95, 4160091.77 ], [ 285298.95, 4160091.87 ], [ 285298.94, 4160091.97 ], [ 285298.92, 4160092.06 ], [ 285298.89, 4160092.16 ], [ 285298.85, 4160092.25 ], [ 285298.81, 4160092.33 ], [ 285298.75, 4160092.42 ], [ 285298.69, 4160092.49 ], [ 285298.62, 4160092.56 ] ], [ [ 285299.69, 4160106.63 ], [ 285299.8, 4160106.63 ], [ 285300.9, 4160107.15 ], [ 285302.99, 4160109.69 ], [ 285303.28, 4160110.87 ], [ 285302.44, 4160115.09 ], [ 285302.74, 4160119.92 ], [ 285302.74, 4160120.02 ], [ 285302.74, 4160120.12 ], [ 285302.72, 4160120.21 ], [ 285302.69, 4160120.31 ], [ 285302.66, 4160120.4 ], [ 285302.61, 4160120.48 ], [ 285302.56, 4160120.57 ], [ 285302.5, 4160120.64 ], [ 285302.43, 4160120.71 ], [ 285302.35, 4160120.78 ], [ 285302.27, 4160120.83 ], [ 285302.19, 4160120.88 ], [ 285302.1, 4160120.92 ], [ 285302.01, 4160120.95 ], [ 285301.91, 4160120.97 ], [ 285301.81, 4160120.98 ], [ 285299.8, 4160121.12 ], [ 285299.71, 4160121.12 ], [ 285299.61, 4160121.12 ], [ 285299.51, 4160121.1 ], [ 285299.42, 4160121.07 ], [ 285299.33, 4160121.04 ], [ 285299.24, 4160120.99 ], [ 285299.16, 4160120.94 ], [ 285299.08, 4160120.88 ], [ 285299.01, 4160120.81 ], [ 285298.94, 4160120.74 ], [ 285298.89, 4160120.66 ], [ 285298.85, 4160120.6 ], [ 285298.69, 4160120.71 ], [ 285297.6, 4160120.92 ], [ 285294.76, 4160120.35 ], [ 285287.15, 4160120.76 ], [ 285287.05, 4160120.76 ], [ 285286.95, 4160120.75 ], [ 285286.85, 4160120.74 ], [ 285286.76, 4160120.71 ], [ 285286.67, 4160120.67 ], [ 285286.58, 4160120.62 ], [ 285286.5, 4160120.57 ], [ 285286.42, 4160120.51 ], [ 285286.36, 4160120.44 ], [ 285286.29, 4160120.36 ], [ 285286.24, 4160120.28 ], [ 285286.19, 4160120.2 ], [ 285286.15, 4160120.11 ], [ 285286.12, 4160120.01 ], [ 285286.1, 4160119.92 ], [ 285286.09, 4160119.82 ], [ 285285.44, 4160108.23 ], [ 285285.44, 4160108.14 ], [ 285285.45, 4160108.04 ], [ 285285.47, 4160107.94 ], [ 285285.49, 4160107.85 ], [ 285285.53, 4160107.76 ], [ 285285.58, 4160107.67 ], [ 285285.63, 4160107.59 ], [ 285285.69, 4160107.51 ], [ 285285.76, 4160107.44 ], [ 285285.84, 4160107.38 ], [ 285285.92, 4160107.32 ], [ 285286.0, 4160107.28 ], [ 285286.09, 4160107.24 ], [ 285286.19, 4160107.21 ], [ 285286.28, 4160107.19 ], [ 285286.38, 4160107.18 ], [ 285288.71, 4160107.05 ], [ 285290.28, 4160106.4 ], [ 285291.04, 4160104.98 ], [ 285292.97, 4160106.63 ], [ 285296.17, 4160106.63 ], [ 285299.08, 4160106.46 ], [ 285299.18, 4160106.46 ], [ 285299.28, 4160106.47 ], [ 285299.38, 4160106.49 ], [ 285299.47, 4160106.52 ], [ 285299.56, 4160106.55 ], [ 285299.65, 4160106.6 ], [ 285299.69, 4160106.63 ] ] ], [ [ [ 285333.66, 4160151.24 ], [ 285333.71, 4160151.33 ], [ 285333.75, 4160151.43 ], [ 285333.78, 4160151.52 ], [ 285333.8, 4160151.62 ], [ 285333.81, 4160151.72 ], [ 285333.92, 4160154.69 ], [ 285333.92, 4160154.78 ], [ 285333.91, 4160154.88 ], [ 285333.89, 4160154.98 ], [ 285333.86, 4160155.07 ], [ 285333.82, 4160155.16 ], [ 285333.77, 4160155.25 ], [ 285333.72, 4160155.33 ], [ 285333.65, 4160155.4 ], [ 285333.58, 4160155.47 ], [ 285333.51, 4160155.53 ], [ 285333.42, 4160155.59 ], [ 285333.34, 4160155.63 ], [ 285333.25, 4160155.67 ], [ 285333.15, 4160155.7 ], [ 285333.06, 4160155.71 ], [ 285332.1, 4160155.84 ], [ 285331.02, 4160157.12 ], [ 285329.93, 4160157.63 ], [ 285328.13, 4160157.63 ], [ 285325.13, 4160160.63 ], [ 285325.13, 4160166.63 ], [ 285328.13, 4160169.63 ], [ 285333.12, 4160169.63 ], [ 285332.82, 4160167.64 ], [ 285332.81, 4160167.54 ], [ 285332.81, 4160167.45 ], [ 285332.82, 4160167.35 ], [ 285332.84, 4160167.25 ], [ 285332.86, 4160167.16 ], [ 285332.9, 4160167.07 ], [ 285332.95, 4160166.98 ], [ 285333.0, 4160166.9 ], [ 285333.06, 4160166.82 ], [ 285333.13, 4160166.75 ], [ 285333.21, 4160166.69 ], [ 285333.29, 4160166.64 ], [ 285333.38, 4160166.59 ], [ 285333.47, 4160166.55 ], [ 285333.56, 4160166.52 ], [ 285333.66, 4160166.5 ], [ 285338.98, 4160165.7 ], [ 285339.08, 4160165.69 ], [ 285339.18, 4160165.69 ], [ 285339.28, 4160165.7 ], [ 285339.37, 4160165.72 ], [ 285339.47, 4160165.75 ], [ 285339.56, 4160165.78 ], [ 285339.65, 4160165.83 ], [ 285339.73, 4160165.88 ], [ 285339.8, 4160165.95 ], [ 285339.87, 4160166.01 ], [ 285339.94, 4160166.09 ], [ 285339.99, 4160166.17 ], [ 285340.04, 4160166.26 ], [ 285340.07, 4160166.35 ], [ 285340.1, 4160166.44 ], [ 285340.12, 4160166.54 ], [ 285340.53, 4160169.23 ], [ 285341.63, 4160168.12 ], [ 285341.65, 4160167.6 ], [ 285340.78, 4160150.68 ], [ 285338.94, 4160138.65 ], [ 285334.23, 4160139.24 ], [ 285331.64, 4160142.71 ], [ 285332.99, 4160150.78 ], [ 285333.02, 4160150.78 ], [ 285333.12, 4160150.81 ], [ 285333.22, 4160150.85 ], [ 285333.31, 4160150.89 ], [ 285333.39, 4160150.95 ], [ 285333.47, 4160151.01 ], [ 285333.54, 4160151.08 ], [ 285333.61, 4160151.16 ], [ 285333.66, 4160151.24 ] ] ], [ [ [ 285496.79, 4160157.63 ], [ 285496.73, 4160157.63 ], [ 285495.71, 4160157.2 ], [ 285493.55, 4160155.05 ], [ 285493.13, 4160154.03 ], [ 285493.13, 4160140.53 ], [ 285492.63, 4160138.87 ], [ 285488.6, 4160132.83 ], [ 285484.76, 4160131.81 ], [ 285482.44, 4160132.97 ], [ 285480.84, 4160135.06 ], [ 285478.59, 4160146.35 ], [ 285478.21, 4160147.07 ], [ 285476.58, 4160148.78 ], [ 285476.02, 4160149.11 ], [ 285475.65, 4160153.82 ], [ 285475.62, 4160154.08 ], [ 285466.12, 4160225.26 ], [ 285484.66, 4160226.07 ], [ 285486.71, 4160224.74 ], [ 285487.84, 4160224.55 ], [ 285495.05, 4160226.36 ], [ 285497.12, 4160226.13 ], [ 285500.0, 4160224.69 ], [ 285500.0, 4160161.1 ], [ 285499.7, 4160159.9 ], [ 285496.79, 4160157.63 ] ] ], [ [ [ 285340.61, 4160194.89 ], [ 285340.62, 4160194.77 ], [ 285341.04, 4160183.72 ], [ 285340.13, 4160184.63 ], [ 285340.13, 4160199.03 ], [ 285339.71, 4160200.05 ], [ 285337.55, 4160202.2 ], [ 285336.53, 4160202.63 ], [ 285334.13, 4160202.63 ], [ 285331.13, 4160205.63 ], [ 285331.13, 4160208.63 ], [ 285334.13, 4160211.63 ], [ 285340.61, 4160211.63 ], [ 285340.61, 4160194.89 ] ] ], [ [ [ 285321.54, 4160230.37 ], [ 285321.59, 4160230.29 ], [ 285321.65, 4160230.21 ], [ 285321.71, 4160230.13 ], [ 285321.78, 4160230.07 ], [ 285321.86, 4160230.01 ], [ 285321.94, 4160229.95 ], [ 285322.03, 4160229.91 ], [ 285322.12, 4160229.88 ], [ 285322.22, 4160229.85 ], [ 285322.32, 4160229.83 ], [ 285328.86, 4160229.05 ], [ 285328.96, 4160229.05 ], [ 285329.06, 4160229.05 ], [ 285329.16, 4160229.06 ], [ 285329.25, 4160229.08 ], [ 285329.35, 4160229.11 ], [ 285329.43, 4160229.15 ], [ 285329.52, 4160229.2 ], [ 285329.6, 4160229.26 ], [ 285329.67, 4160229.33 ], [ 285329.74, 4160229.4 ], [ 285329.8, 4160229.47 ], [ 285329.85, 4160229.56 ], [ 285329.9, 4160229.65 ], [ 285329.93, 4160229.74 ], [ 285329.96, 4160229.83 ], [ 285329.97, 4160229.93 ], [ 285330.47, 4160234.15 ], [ 285330.48, 4160234.24 ], [ 285330.48, 4160234.34 ], [ 285330.46, 4160234.44 ], [ 285330.44, 4160234.54 ], [ 285330.41, 4160234.63 ], [ 285330.37, 4160234.72 ], [ 285330.32, 4160234.8 ], [ 285330.26, 4160234.88 ], [ 285330.2, 4160234.96 ], [ 285330.13, 4160235.02 ], [ 285330.05, 4160235.08 ], [ 285329.97, 4160235.14 ], [ 285329.88, 4160235.18 ], [ 285329.79, 4160235.21 ], [ 285329.69, 4160235.24 ], [ 285329.6, 4160235.26 ], [ 285327.82, 4160235.47 ], [ 285328.13, 4160236.22 ], [ 285328.13, 4160238.63 ], [ 285329.98, 4160241.4 ], [ 285331.55, 4160242.05 ], [ 285333.71, 4160244.2 ], [ 285334.13, 4160245.22 ], [ 285334.13, 4160250.0 ], [ 285343.38, 4160250.0 ], [ 285343.39, 4160247.95 ], [ 285343.4, 4160247.83 ], [ 285343.69, 4160240.83 ], [ 285342.9, 4160225.33 ], [ 285342.22, 4160221.44 ], [ 285341.93, 4160220.56 ], [ 285314.89, 4160223.56 ], [ 285314.96, 4160223.59 ], [ 285315.1, 4160223.7 ], [ 285315.24, 4160223.81 ], [ 285315.36, 4160223.94 ], [ 285315.47, 4160224.08 ], [ 285315.56, 4160224.23 ], [ 285315.64, 4160224.39 ], [ 285315.7, 4160224.55 ], [ 285315.75, 4160224.72 ], [ 285315.78, 4160224.9 ], [ 285315.79, 4160225.07 ], [ 285315.79, 4160225.25 ], [ 285315.77, 4160225.42 ], [ 285315.73, 4160225.6 ], [ 285315.67, 4160225.76 ], [ 285315.6, 4160225.92 ], [ 285315.51, 4160226.08 ], [ 285315.41, 4160226.22 ], [ 285315.3, 4160226.36 ], [ 285315.17, 4160226.48 ], [ 285315.03, 4160226.59 ], [ 285314.88, 4160226.68 ], [ 285314.72, 4160226.76 ], [ 285314.56, 4160226.82 ], [ 285314.39, 4160226.87 ], [ 285314.21, 4160226.9 ], [ 285310.33, 4160227.38 ], [ 285310.13, 4160227.87 ], [ 285310.13, 4160229.63 ], [ 285313.13, 4160232.63 ], [ 285317.75, 4160232.63 ], [ 285321.59, 4160232.22 ], [ 285321.44, 4160230.94 ], [ 285321.43, 4160230.85 ], [ 285321.44, 4160230.75 ], [ 285321.45, 4160230.65 ], [ 285321.47, 4160230.56 ], [ 285321.5, 4160230.46 ], [ 285321.54, 4160230.37 ] ] ], [ [ [ 285465.04, 4160233.83 ], [ 285463.16, 4160250.0 ], [ 285479.34, 4160250.0 ], [ 285482.14, 4160234.57 ], [ 285465.04, 4160233.83 ] ] ], [ [ [ 285271.23, 4160241.19 ], [ 285271.23, 4160241.1 ], [ 285271.23, 4160241.0 ], [ 285271.25, 4160240.9 ], [ 285271.27, 4160240.81 ], [ 285271.3, 4160240.71 ], [ 285271.35, 4160240.62 ], [ 285271.4, 4160240.54 ], [ 285271.46, 4160240.46 ], [ 285271.52, 4160240.39 ], [ 285271.59, 4160240.32 ], [ 285271.67, 4160240.27 ], [ 285271.76, 4160240.21 ], [ 285271.85, 4160240.17 ], [ 285271.94, 4160240.14 ], [ 285272.03, 4160240.12 ], [ 285272.13, 4160240.1 ], [ 285274.29, 4160239.9 ], [ 285275.06, 4160239.37 ], [ 285275.03, 4160239.01 ], [ 285275.02, 4160238.91 ], [ 285275.03, 4160238.81 ], [ 285275.04, 4160238.71 ], [ 285275.07, 4160238.62 ], [ 285275.1, 4160238.53 ], [ 285275.14, 4160238.44 ], [ 285275.19, 4160238.35 ], [ 285275.25, 4160238.28 ], [ 285275.32, 4160238.2 ], [ 285275.39, 4160238.14 ], [ 285275.47, 4160238.08 ], [ 285275.55, 4160238.03 ], [ 285275.64, 4160237.99 ], [ 285275.73, 4160237.95 ], [ 285275.83, 4160237.93 ], [ 285275.93, 4160237.92 ], [ 285287.04, 4160236.83 ], [ 285287.13, 4160236.83 ], [ 285287.23, 4160236.83 ], [ 285287.33, 4160236.84 ], [ 285287.42, 4160236.87 ], [ 285287.52, 4160236.9 ], [ 285287.61, 4160236.94 ], [ 285287.69, 4160236.99 ], [ 285287.77, 4160237.05 ], [ 285287.84, 4160237.12 ], [ 285287.91, 4160237.19 ], [ 285287.97, 4160237.27 ], [ 285288.02, 4160237.36 ], [ 285288.06, 4160237.44 ], [ 285288.09, 4160237.54 ], [ 285288.11, 4160237.63 ], [ 285288.13, 4160237.73 ], [ 285288.21, 4160238.63 ], [ 285292.13, 4160238.63 ], [ 285292.27, 4160238.48 ], [ 285291.88, 4160229.9 ], [ 285265.21, 4160232.12 ], [ 285261.79, 4160232.5 ], [ 285259.13, 4160235.39 ], [ 285259.13, 4160250.0 ], [ 285269.58, 4160250.0 ], [ 285271.59, 4160244.97 ], [ 285271.23, 4160241.19 ] ] ], [ [ [ 285356.06, 4160152.71 ], [ 285356.02, 4160152.27 ], [ 285356.01, 4160152.18 ], [ 285356.02, 4160152.08 ], [ 285356.03, 4160151.98 ], [ 285356.05, 4160151.89 ], [ 285356.08, 4160151.79 ], [ 285356.13, 4160151.7 ], [ 285356.17, 4160151.62 ], [ 285356.23, 4160151.54 ], [ 285356.3, 4160151.47 ], [ 285356.37, 4160151.4 ], [ 285356.45, 4160151.34 ], [ 285356.53, 4160151.29 ], [ 285356.62, 4160151.25 ], [ 285356.71, 4160151.21 ], [ 285356.81, 4160151.19 ], [ 285356.9, 4160151.17 ], [ 285359.94, 4160150.84 ], [ 285360.04, 4160150.83 ], [ 285360.14, 4160150.84 ], [ 285360.24, 4160150.85 ], [ 285360.33, 4160150.87 ], [ 285360.43, 4160150.91 ], [ 285360.51, 4160150.95 ], [ 285360.6, 4160151.0 ], [ 285360.68, 4160151.05 ], [ 285360.75, 4160151.12 ], [ 285360.82, 4160151.19 ], [ 285360.88, 4160151.27 ], [ 285360.93, 4160151.35 ], [ 285360.97, 4160151.44 ], [ 285361.01, 4160151.54 ], [ 285361.03, 4160151.63 ], [ 285361.05, 4160151.73 ], [ 285361.09, 4160152.16 ], [ 285371.64, 4160151.02 ], [ 285371.6, 4160150.72 ], [ 285371.6, 4160150.62 ], [ 285371.6, 4160150.52 ], [ 285371.62, 4160150.42 ], [ 285371.64, 4160150.33 ], [ 285371.67, 4160150.24 ], [ 285371.71, 4160150.15 ], [ 285371.76, 4160150.06 ], [ 285371.82, 4160149.98 ], [ 285371.89, 4160149.91 ], [ 285371.96, 4160149.84 ], [ 285372.04, 4160149.78 ], [ 285372.12, 4160149.73 ], [ 285372.21, 4160149.69 ], [ 285372.3, 4160149.66 ], [ 285372.39, 4160149.63 ], [ 285372.49, 4160149.62 ], [ 285376.09, 4160149.22 ], [ 285376.19, 4160149.22 ], [ 285376.28, 4160149.22 ], [ 285376.38, 4160149.23 ], [ 285376.48, 4160149.26 ], [ 285376.57, 4160149.29 ], [ 285376.66, 4160149.33 ], [ 285376.74, 4160149.38 ], [ 285376.82, 4160149.44 ], [ 285376.9, 4160149.5 ], [ 285376.96, 4160149.57 ], [ 285377.02, 4160149.65 ], [ 285377.07, 4160149.74 ], [ 285377.12, 4160149.83 ], [ 285377.15, 4160149.92 ], [ 285377.17, 4160150.01 ], [ 285377.19, 4160150.11 ], [ 285377.22, 4160150.42 ], [ 285382.44, 4160149.86 ], [ 285382.54, 4160149.85 ], [ 285382.64, 4160149.86 ], [ 285382.74, 4160149.87 ], [ 285382.83, 4160149.89 ], [ 285382.92, 4160149.92 ], [ 285383.01, 4160149.97 ], [ 285383.1, 4160150.01 ], [ 285383.18, 4160150.07 ], [ 285383.25, 4160150.14 ], [ 285383.32, 4160150.21 ], [ 285383.38, 4160150.29 ], [ 285383.43, 4160150.37 ], [ 285383.47, 4160150.46 ], [ 285383.5, 4160150.55 ], [ 285383.53, 4160150.65 ], [ 285383.53, 4160150.68 ], [ 285385.13, 4160148.91 ], [ 285385.13, 4160140.22 ], [ 285385.55, 4160139.2 ], [ 285387.71, 4160137.05 ], [ 285388.53, 4160136.71 ], [ 285389.18, 4160136.93 ], [ 285391.3, 4160138.59 ], [ 285391.82, 4160139.38 ], [ 285393.56, 4160146.35 ], [ 285393.93, 4160146.64 ], [ 285393.99, 4160146.6 ], [ 285394.07, 4160146.55 ], [ 285394.16, 4160146.51 ], [ 285394.25, 4160146.47 ], [ 285394.35, 4160146.45 ], [ 285394.45, 4160146.44 ], [ 285400.55, 4160145.89 ], [ 285400.65, 4160145.89 ], [ 285400.75, 4160145.89 ], [ 285400.84, 4160145.91 ], [ 285400.94, 4160145.93 ], [ 285401.03, 4160145.96 ], [ 285401.12, 4160146.01 ], [ 285401.2, 4160146.06 ], [ 285401.28, 4160146.12 ], [ 285401.35, 4160146.18 ], [ 285401.42, 4160146.26 ], [ 285401.47, 4160146.34 ], [ 285401.52, 4160146.42 ], [ 285401.57, 4160146.51 ], [ 285401.6, 4160146.6 ], [ 285401.62, 4160146.7 ], [ 285401.63, 4160146.79 ], [ 285401.74, 4160147.97 ], [ 285402.38, 4160147.91 ], [ 285402.77, 4160147.75 ], [ 285402.79, 4160147.72 ], [ 285403.59, 4160147.31 ], [ 285405.62, 4160146.97 ], [ 285407.02, 4160147.66 ], [ 285408.0, 4160149.47 ], [ 285408.17, 4160150.35 ], [ 285406.53, 4160163.45 ], [ 285406.05, 4160164.36 ], [ 285403.89, 4160166.26 ], [ 285402.93, 4160166.63 ], [ 285387.67, 4160166.63 ], [ 285384.71, 4160169.13 ], [ 285382.55, 4160182.13 ], [ 285382.15, 4160182.91 ], [ 285380.42, 4160184.7 ], [ 285379.65, 4160185.12 ], [ 285356.38, 4160189.78 ], [ 285355.2, 4160189.48 ], [ 285352.65, 4160187.39 ], [ 285352.13, 4160186.29 ], [ 285352.13, 4160184.63 ], [ 285349.13, 4160181.63 ], [ 285347.22, 4160181.63 ], [ 285346.71, 4160194.95 ], [ 285346.71, 4160213.02 ], [ 285346.95, 4160213.27 ], [ 285347.2, 4160213.61 ], [ 285347.42, 4160213.97 ], [ 285347.61, 4160214.35 ], [ 285347.75, 4160214.74 ], [ 285347.86, 4160215.15 ], [ 285347.93, 4160215.57 ], [ 285347.95, 4160215.99 ], [ 285347.94, 4160216.41 ], [ 285347.88, 4160216.83 ], [ 285347.78, 4160217.24 ], [ 285347.65, 4160217.64 ], [ 285347.5, 4160217.96 ], [ 285348.09, 4160219.74 ], [ 285348.19, 4160220.18 ], [ 285348.94, 4160224.46 ], [ 285348.98, 4160224.83 ], [ 285349.79, 4160240.66 ], [ 285349.79, 4160240.94 ], [ 285349.49, 4160248.03 ], [ 285349.48, 4160250.0 ], [ 285453.49, 4160250.0 ], [ 285455.96, 4160228.78 ], [ 285455.97, 4160228.7 ], [ 285466.09, 4160152.94 ], [ 285466.49, 4160147.82 ], [ 285466.13, 4160147.09 ], [ 285466.13, 4160135.09 ], [ 285464.63, 4160125.72 ], [ 285463.45, 4160124.01 ], [ 285461.84, 4160122.34 ], [ 285458.07, 4160120.02 ], [ 285439.63, 4160122.89 ], [ 285439.47, 4160122.91 ], [ 285369.34, 4160131.37 ], [ 285369.28, 4160131.37 ], [ 285354.6, 4160132.93 ], [ 285354.61, 4160133.01 ], [ 285354.33, 4160134.08 ], [ 285352.47, 4160136.52 ], [ 285351.5, 4160137.08 ], [ 285345.0, 4160137.89 ], [ 285346.74, 4160149.3 ], [ 285348.23, 4160149.87 ], [ 285348.94, 4160150.46 ], [ 285349.45, 4160151.28 ], [ 285350.66, 4160152.39 ], [ 285352.14, 4160153.13 ], [ 285356.06, 4160152.71 ] ] ] ] } },
{ "type": "Feature", "properties": { "id": "imagery:groundcover_lawn:654", "name": null, "kind": "groundcover_lawn", "sport": null, "surface": null, "pitch_layout": null, "source": "vgin_vbmp+naip+lidar2025", "source_updated": null, "base_z": null, "top_z": null }, "geometry": { "type": "MultiPolygon", "coordinates": [ [ [ [ 285253.1, 4160000.0 ], [ 285251.25, 4160000.0 ], [ 285252.49, 4160000.41 ], [ 285253.1, 4160000.0 ] ] ], [ [ [ 285250.13, 4160033.9 ], [ 285250.35, 4160033.12 ], [ 285251.57, 4160031.15 ], [ 285252.16, 4160030.61 ], [ 285259.79, 4160026.8 ], [ 285259.2, 4160016.7 ], [ 285259.13, 4160016.63 ], [ 285254.63, 4160016.63 ], [ 285252.23, 4160017.83 ], [ 285250.82, 4160019.71 ], [ 285250.98, 4160023.57 ], [ 285250.98, 4160023.67 ], [ 285250.97, 4160023.76 ], [ 285250.95, 4160023.86 ], [ 285250.92, 4160023.95 ], [ 285250.89, 4160024.05 ], [ 285250.84, 4160024.13 ], [ 285250.78, 4160024.21 ], [ 285250.72, 4160024.29 ], [ 285250.65, 4160024.36 ], [ 285250.58, 4160024.42 ], [ 285250.49, 4160024.47 ], [ 285250.41, 4160024.52 ], [ 285250.32, 4160024.56 ], [ 285250.22, 4160024.58 ], [ 285250.13, 4160024.6 ], [ 285250.03, 4160024.61 ], [ 285250.0, 4160024.61 ], [ 285250.0, 4160038.65 ], [ 285250.13, 4160038.46 ], [ 285250.13, 4160033.9 ] ] ] ] } },
{ "type": "Feature", "properties": { "id": "imagery:groundcover_paved:600", "name": null, "kind": "groundcover_paved", "sport": null, "surface": null, "pitch_layout": null, "source": "vgin_vbmp+naip+lidar2025", "source_updated": null, "base_z": null, "top_z": null }, "geometry": { "type": "Polygon", "coordinates": [ [ [ 285319.55, 4160022.2 ], [ 285321.71, 4160020.05 ], [ 285323.28, 4160019.4 ], [ 285325.13, 4160016.63 ], [ 285325.13, 4160012.32 ], [ 285324.54, 4160007.38 ], [ 285324.12, 4160007.14 ], [ 285323.72, 4160006.85 ], [ 285323.35, 4160006.53 ], [ 285323.02, 4160006.18 ], [ 285322.72, 4160005.79 ], [ 285322.46, 4160005.37 ], [ 285322.24, 4160004.93 ], [ 285322.06, 4160004.48 ], [ 285321.93, 4160004.0 ], [ 285321.85, 4160003.52 ], [ 285321.84, 4160003.46 ], [ 285321.82, 4160003.46 ], [ 285321.63, 4160003.37 ], [ 285320.12, 4160003.55 ], [ 285319.63, 4160003.59 ], [ 285319.14, 4160003.57 ], [ 285318.65, 4160003.51 ], [ 285318.17, 4160003.4 ], [ 285317.71, 4160003.24 ], [ 285317.26, 4160003.04 ], [ 285316.83, 4160002.8 ], [ 285316.43, 4160002.52 ], [ 285316.06, 4160002.19 ], [ 285315.73, 4160001.84 ], [ 285315.56, 4160001.63 ], [ 285314.99, 4160001.63 ], [ 285312.3, 4160003.28 ], [ 285310.33, 4160007.22 ], [ 285310.06, 4160008.07 ], [ 285308.38, 4160018.16 ], [ 285308.64, 4160018.58 ], [ 285308.85, 4160019.02 ], [ 285309.03, 4160019.48 ], [ 285309.15, 4160019.95 ], [ 285309.23, 4160020.44 ], [ 285309.7, 4160024.48 ], [ 285310.67, 4160025.63 ], [ 285316.13, 4160025.63 ], [ 285318.9, 4160023.77 ], [ 285319.55, 4160022.2 ] ] ] } },
{ "type": "Feature", "properties": { "id": "richmond_structure:294429", "name": null, "kind": "deck", "sport": null, "surface": null, "pitch_layout": null, "source": "richmond_structures", "source_updated": "2026-09-08T12:07:13.637000Z", "base_z": null, "top_z": null }, "geometry": { "type": "Polygon", "coordinates": [ [ [ 285286.95, 4160015.44 ], [ 285286.99, 4160016.63 ], [ 285293.47, 4160016.4 ], [ 285293.37, 4160015.04 ], [ 285286.95, 4160015.44 ] ] ] } },
{ "type": "Feature", "properties": { "id": "richmond_structure:402329", "name": null, "kind": "deck", "sport": null, "surface": null, "pitch_layout": null, "source": "richmond_structures", "source_updated": "2026-09-08T12:07:13.637000Z", "base_z": null, "top_z": null }, "geometry": { "type": "Polygon", "coordinates": [ [ [ 285315.51, 4160025.54 ], [ 285315.27, 4160017.94 ], [ 285310.44, 4160018.27 ], [ 285310.68, 4160025.69 ], [ 285315.51, 4160025.54 ] ] ] } },
{ "type": "Feature", "properties": { "id": "richmond_structure:294430", "name": null, "kind": "deck", "sport": null, "surface": null, "pitch_layout": null, "source": "richmond_structures", "source_updated": "2026-09-08T12:07:13.637000Z", "base_z": null, "top_z": null }, "geometry": { "type": "Polygon", "coordinates": [ [ [ 285286.25, 4160031.05 ], [ 285286.11, 4160027.45 ], [ 285281.57, 4160027.65 ], [ 285281.87, 4160031.17 ], [ 285286.25, 4160031.05 ] ] ] } },
{ "type": "Feature", "properties": { "id": "richmond_structure:294435", "name": null, "kind": "deck", "sport": null, "surface": null, "pitch_layout": null, "source": "richmond_structures", "source_updated": "2026-09-08T12:07:13.637000Z", "base_z": null, "top_z": null }, "geometry": { "type": "Polygon", "coordinates": [ [ [ 285297.59, 4160039.95 ], [ 285295.65, 4160040.28 ], [ 285295.92, 4160043.69 ], [ 285297.99, 4160043.4 ], [ 285297.59, 4160039.95 ] ] ] } },
{ "type": "Feature", "properties": { "id": "richmond_structure:300882", "name": null, "kind": "deck", "sport": null, "surface": null, "pitch_layout": null, "source": "richmond_structures", "source_updated": "2026-09-08T12:07:13.637000Z", "base_z": null, "top_z": null }, "geometry": { "type": "Polygon", "coordinates": [ [ [ 285292.91, 4160045.41 ], [ 285293.1, 4160047.73 ], [ 285296.37, 4160047.28 ], [ 285296.04, 4160045.15 ], [ 285292.91, 4160045.41 ] ] ] } },
{ "type": "Feature", "properties": { "id": "richmond_structure:294666", "name": null, "kind": "deck", "sport": null, "surface": null, "pitch_layout": null, "source": "richmond_structures", "source_updated": "2026-09-08T12:07:13.637000Z", "base_z": null, "top_z": null }, "geometry": { "type": "Polygon", "coordinates": [ [ [ 285298.1, 4160072.69 ], [ 285293.58, 4160073.27 ], [ 285293.7, 4160078.77 ], [ 285298.5, 4160078.35 ], [ 285298.1, 4160072.69 ] ] ] } },
{ "type": "Feature", "properties": { "id": "richmond_structure:402323", "name": null, "kind": "deck", "sport": null, "surface": null, "pitch_layout": null, "source": "richmond_structures", "source_updated": "2026-09-08T12:07:13.637000Z", "base_z": null, "top_z": null }, "geometry": { "type": "Polygon", "coordinates": [ [ [ 285334.88, 4160000.0 ], [ 285335.15, 4160002.3 ], [ 285337.04, 4160002.08 ], [ 285336.91, 4160001.02 ], [ 285337.83, 4160000.0 ], [ 285334.88, 4160000.0 ] ] ] } },
{ "type": "Feature", "properties": { "id": "osm:way/1204970455", "name": "Bamboo Forest", "kind": "forest", "sport": null, "surface": null, "pitch_layout": null, "source": null, "source_updated": null, "base_z": null, "top_z": null }, "geometry": { "type": "Polygon", "coordinates": [ [ [ 285352.7, 4160000.0 ], [ 285353.32, 4160036.67 ], [ 285410.3, 4160036.94 ], [ 285415.61, 4160000.0 ], [ 285352.7, 4160000.0 ] ] ] } },
{ "type": "Feature", "properties": { "id": "imagery:groundcover_paved:1005", "name": null, "kind": "groundcover_paved", "sport": null, "surface": null, "pitch_layout": null, "source": "vgin_vbmp+naip+lidar2025", "source_updated": null, "base_z": null, "top_z": null }, "geometry": { "type": "MultiPolygon", "coordinates": [ [ [ [ 285482.29, 4160055.89 ], [ 285498.83, 4160043.63 ], [ 285498.77, 4160043.63 ], [ 285497.91, 4160043.35 ], [ 285495.83, 4160041.85 ], [ 285495.3, 4160041.13 ], [ 285493.65, 4160036.19 ], [ 285491.53, 4160034.23 ], [ 285484.86, 4160032.56 ], [ 285481.13, 4160035.47 ], [ 285481.13, 4160056.77 ], [ 285482.79, 4160059.45 ], [ 285485.61, 4160060.86 ], [ 285486.1, 4160061.26 ], [ 285487.26, 4160062.71 ], [ 285487.54, 4160063.28 ], [ 285490.02, 4160073.18 ], [ 285490.05, 4160073.36 ], [ 285490.12, 4160073.9 ], [ 285490.13, 4160074.09 ], [ 285490.13, 4160076.03 ], [ 285489.71, 4160077.05 ], [ 285487.55, 4160079.2 ], [ 285485.98, 4160079.85 ], [ 285484.72, 4160081.74 ], [ 285486.11, 4160084.63 ], [ 285486.18, 4160084.82 ], [ 285487.54, 4160088.57 ], [ 285487.59, 4160088.71 ], [ 285488.84, 4160093.17 ], [ 285488.85, 4160093.2 ], [ 285490.51, 4160099.5 ], [ 285490.52, 4160099.53 ], [ 285491.14, 4160102.04 ], [ 285491.15, 4160102.07 ], [ 285492.22, 4160106.68 ], [ 285500.0, 4160105.86 ], [ 285500.0, 4160076.34 ], [ 285498.27, 4160077.63 ], [ 285482.29, 4160055.89 ] ] ], [ [ [ 285488.15, 4160129.66 ], [ 285492.74, 4160138.84 ], [ 285492.85, 4160139.16 ], [ 285493.09, 4160140.16 ], [ 285493.13, 4160140.51 ], [ 285493.13, 4160154.63 ], [ 285496.13, 4160157.63 ], [ 285496.29, 4160157.63 ], [ 285497.18, 4160157.93 ], [ 285499.3, 4160159.59 ], [ 285500.0, 4160160.66 ], [ 285500.0, 4160115.51 ], [ 285491.77, 4160116.38 ], [ 285472.57, 4160118.41 ], [ 285471.59, 4160118.9 ], [ 285473.15, 4160121.17 ], [ 285473.38, 4160121.53 ], [ 285473.57, 4160121.91 ], [ 285473.73, 4160122.31 ], [ 285473.85, 4160122.71 ], [ 285473.94, 4160123.13 ], [ 285475.72, 4160134.23 ], [ 285475.77, 4160134.72 ], [ 285476.14, 4160141.35 ], [ 285476.15, 4160141.67 ], [ 285476.09, 4160148.06 ], [ 285476.07, 4160148.39 ], [ 285476.01, 4160149.16 ], [ 285476.17, 4160149.11 ], [ 285478.42, 4160146.63 ], [ 285480.69, 4160130.74 ], [ 285481.17, 4160129.85 ], [ 285483.32, 4160127.98 ], [ 285484.27, 4160127.63 ], [ 285484.86, 4160127.63 ], [ 285485.63, 4160127.85 ], [ 285487.6, 4160129.06 ], [ 285488.15, 4160129.66 ] ] ] ] } },
{ "type": "Feature", "properties": { "id": "imagery:groundcover_paved:587", "name": null, "kind": "groundcover_paved", "sport": null, "surface": null, "pitch_layout": null, "source": "vgin_vbmp+naip+lidar2025", "source_updated": null, "base_z": null, "top_z": null }, "geometry": { "type": "Polygon", "coordinates": [ [ [ 285500.0, 4160027.76 ], [ 285500.0, 4160011.49 ], [ 285499.13, 4160010.63 ], [ 285492.29, 4160010.63 ], [ 285489.45, 4160012.68 ], [ 285485.45, 4160024.68 ], [ 285488.29, 4160028.63 ], [ 285499.13, 4160028.63 ], [ 285500.0, 4160027.76 ] ] ] } },
{ "type": "Feature", "properties": { "id": "richmond_structure:402332", "name": null, "kind": "deck", "sport": null, "surface": null, "pitch_layout": null, "source": "richmond_structures", "source_updated": "2026-09-08T12:07:13.637000Z", "base_z": null, "top_z": null }, "geometry": { "type": "Polygon", "coordinates": [ [ [ 285419.74, 4160034.58 ], [ 285423.05, 4160034.42 ], [ 285422.88, 4160030.97 ], [ 285419.58, 4160031.13 ], [ 285419.74, 4160034.58 ] ] ] } },
{ "type": "Feature", "properties": { "id": "osm:way/1204969844", "name": "Barton Mansion Garden", "kind": "park", "sport": null, "surface": null, "pitch_layout": null, "source": null, "source_updated": null, "base_z": null, "top_z": null }, "geometry": { "type": "Polygon", "coordinates": [ [ [ 285317.92, 4160043.28 ], [ 285318.59, 4160055.46 ], [ 285330.66, 4160054.9 ], [ 285329.97, 4160042.0 ], [ 285317.92, 4160043.28 ] ] ] } },
{ "type": "Feature", "properties": { "id": "imagery:groundcover_bare:586", "name": null, "kind": "groundcover_bare", "sport": null, "surface": null, "pitch_layout": null, "source": "vgin_vbmp+naip+lidar2025", "source_updated": null, "base_z": null, "top_z": null }, "geometry": { "type": "Polygon", "coordinates": [ [ [ 285492.71, 4160037.2 ], [ 285493.13, 4160038.22 ], [ 285493.13, 4160038.46 ], [ 285495.18, 4160041.31 ], [ 285499.63, 4160042.79 ], [ 285499.79, 4160042.91 ], [ 285500.0, 4160042.76 ], [ 285500.0, 4160027.76 ], [ 285499.55, 4160028.2 ], [ 285498.53, 4160028.63 ], [ 285490.13, 4160028.63 ], [ 285487.19, 4160031.04 ], [ 285488.98, 4160034.4 ], [ 285490.55, 4160035.05 ], [ 285492.71, 4160037.2 ] ] ] } },
{ "type": "Feature", "properties": { "id": "osm:way/755574264", "name": null, "kind": "pitch", "sport": "tennis", "surface": null, "pitch_layout": { "cx": 285503.86676361546, "cy": 4160056.6574147847, "ax": -0.8024113473806935, "ay": 0.5967713377791364, "hl": 17.012471248867094, "hs": 13.489960541923823 }, "source": null, "source_updated": null, "base_z": null, "top_z": null }, "geometry": { "type": "Polygon", "coordinates": [ [ [ 285498.27, 4160077.63 ], [ 285500.0, 4160076.34 ], [ 285500.0, 4160042.76 ], [ 285482.29, 4160055.89 ], [ 285498.27, 4160077.63 ] ] ] } },
{ "type": "Feature", "properties": { "id": "richmond_structure:402342", "name": null, "kind": "deck", "sport": null, "surface": null, "pitch_layout": null, "source": "richmond_structures", "source_updated": "2026-09-08T12:07:13.637000Z", "base_z": null, "top_z": null }, "geometry": { "type": "Polygon", "coordinates": [ [ [ 285351.75, 4160095.82 ], [ 285349.05, 4160096.1 ], [ 285349.24, 4160098.0 ], [ 285347.76, 4160098.15 ], [ 285347.92, 4160099.67 ], [ 285349.86, 4160099.47 ], [ 285349.75, 4160098.44 ], [ 285351.99, 4160098.22 ], [ 285351.75, 4160095.82 ] ] ] } },
{ "type": "Feature", "properties": { "id": "richmond_structure:286382", "name": null, "kind": "deck", "sport": null, "surface": null, "pitch_layout": null, "source": "richmond_structures", "source_updated": "2026-09-08T12:07:13.637000Z", "base_z": null, "top_z": null }, "geometry": { "type": "Polygon", "coordinates": [ [ [ 285326.96, 4160153.66 ], [ 285324.61, 4160153.66 ], [ 285324.47, 4160151.98 ], [ 285320.1, 4160152.1 ], [ 285320.48, 4160156.26 ], [ 285327.08, 4160155.78 ], [ 285326.96, 4160153.66 ] ] ] } },
{ "type": "Feature", "properties": { "id": "richmond_structure:286381", "name": null, "kind": "deck", "sport": null, "surface": null, "pitch_layout": null, "source": "richmond_structures", "source_updated": "2026-09-08T12:07:13.637000Z", "base_z": null, "top_z": null }, "geometry": { "type": "Polygon", "coordinates": [ [ [ 285300.76, 4160087.97 ], [ 285297.52, 4160088.09 ], [ 285297.74, 4160092.57 ], [ 285300.93, 4160092.45 ], [ 285300.76, 4160087.97 ] ] ] } },
{ "type": "Feature", "properties": { "id": "imagery:groundcover_lawn:525", "name": null, "kind": "groundcover_lawn", "sport": null, "surface": null, "pitch_layout": null, "source": "vgin_vbmp+naip+lidar2025", "source_updated": null, "base_z": null, "top_z": null }, "geometry": { "type": "Polygon", "coordinates": [ [ [ 285254.48, 4160101.87 ], [ 285254.57, 4160101.89 ], [ 285254.67, 4160101.91 ], [ 285254.76, 4160101.95 ], [ 285254.84, 4160102.0 ], [ 285254.92, 4160102.05 ], [ 285255.0, 4160102.12 ], [ 285255.07, 4160102.19 ], [ 285255.13, 4160102.26 ], [ 285255.19, 4160102.34 ], [ 285255.23, 4160102.43 ], [ 285255.27, 4160102.52 ], [ 285255.3, 4160102.61 ], [ 285255.32, 4160102.71 ], [ 285255.33, 4160102.81 ], [ 285255.48, 4160105.97 ], [ 285255.71, 4160106.2 ], [ 285256.36, 4160107.77 ], [ 285259.13, 4160109.63 ], [ 285259.79, 4160109.63 ], [ 285262.7, 4160107.35 ], [ 285264.31, 4160100.93 ], [ 285264.27, 4160100.31 ], [ 285262.22, 4160096.9 ], [ 285255.18, 4160095.14 ], [ 285252.38, 4160096.22 ], [ 285251.74, 4160096.97 ], [ 285251.67, 4160097.04 ], [ 285251.6, 4160097.11 ], [ 285251.52, 4160097.16 ], [ 285251.44, 4160097.21 ], [ 285251.39, 4160097.23 ], [ 285250.24, 4160098.96 ], [ 285251.85, 4160101.98 ], [ 285254.28, 4160101.86 ], [ 285254.38, 4160101.86 ], [ 285254.48, 4160101.87 ] ] ] } },
{ "type": "Feature", "properties": { "id": "richmond_structure:404722", "name": null, "kind": "deck", "sport": null, "surface": null, "pitch_layout": null, "source": "richmond_structures", "source_updated": "2026-09-08T12:07:13.637000Z", "base_z": null, "top_z": null }, "geometry": { "type": "Polygon", "coordinates": [ [ [ 285306.39, 4160110.75 ], [ 285305.56, 4160110.05 ], [ 285304.37, 4160109.72 ], [ 285302.2, 4160110.18 ], [ 285301.71, 4160111.66 ], [ 285300.97, 4160111.7 ], [ 285301.18, 4160115.34 ], [ 285301.91, 4160115.3 ], [ 285303.24, 4160116.57 ], [ 285304.58, 4160116.72 ], [ 285305.75, 4160116.53 ], [ 285306.56, 4160115.92 ], [ 285307.07, 4160114.67 ], [ 285307.14, 4160113.28 ], [ 285306.39, 4160110.75 ] ] ] } },
{ "type": "Feature", "properties": { "id": "richmond_structure:299456", "name": null, "kind": "deck", "sport": null, "surface": null, "pitch_layout": null, "source": "richmond_structures", "source_updated": "2026-09-08T12:07:13.637000Z", "base_z": null, "top_z": null }, "geometry": { "type": "Polygon", "coordinates": [ [ [ 285266.43, 4160160.25 ], [ 285265.5, 4160150.15 ], [ 285261.67, 4160150.51 ], [ 285262.43, 4160160.4 ], [ 285266.43, 4160160.25 ] ] ] } },
{ "type": "Feature", "properties": { "id": "richmond_structure:402351", "name": null, "kind": "deck", "sport": null, "surface": null, "pitch_layout": null, "source": "richmond_structures", "source_updated": "2026-09-08T12:07:13.637000Z", "base_z": null, "top_z": null }, "geometry": { "type": "Polygon", "coordinates": [ [ [ 285322.93, 4160163.99 ], [ 285324.51, 4160163.89 ], [ 285324.22, 4160159.0 ], [ 285322.63, 4160159.1 ], [ 285322.93, 4160163.99 ] ] ] } },
{ "type": "Feature", "properties": { "id": "imagery:groundcover_lawn:471", "name": null, "kind": "groundcover_lawn", "sport": null, "surface": null, "pitch_layout": null, "source": "vgin_vbmp+naip+lidar2025", "source_updated": null, "base_z": null, "top_z": null }, "geometry": { "type": "Polygon", "coordinates": [ [ [ 285304.13, 4160180.16 ], [ 285304.13, 4160184.63 ], [ 285307.13, 4160187.63 ], [ 285307.59, 4160187.63 ], [ 285310.55, 4160185.12 ], [ 285310.81, 4160183.58 ], [ 285310.79, 4160183.49 ], [ 285310.77, 4160183.39 ], [ 285310.26, 4160174.95 ], [ 285310.26, 4160174.86 ], [ 285310.27, 4160174.76 ], [ 285310.29, 4160174.66 ], [ 285310.32, 4160174.56 ], [ 285310.36, 4160174.47 ], [ 285310.4, 4160174.39 ], [ 285310.46, 4160174.3 ], [ 285310.52, 4160174.23 ], [ 285310.59, 4160174.16 ], [ 285310.66, 4160174.09 ], [ 285310.75, 4160174.04 ], [ 285310.83, 4160173.99 ], [ 285310.92, 4160173.95 ], [ 285311.02, 4160173.92 ], [ 285311.12, 4160173.9 ], [ 285311.22, 4160173.89 ], [ 285312.43, 4160173.84 ], [ 285312.77, 4160171.81 ], [ 285311.36, 4160169.04 ], [ 285311.28, 4160169.0 ], [ 285311.2, 4160168.95 ], [ 285311.12, 4160168.89 ], [ 285311.05, 4160168.82 ], [ 285310.99, 4160168.75 ], [ 285310.94, 4160168.66 ], [ 285310.89, 4160168.58 ], [ 285310.85, 4160168.49 ], [ 285310.85, 4160168.48 ], [ 285304.23, 4160165.17 ], [ 285301.53, 4160166.29 ], [ 285302.45, 4160176.95 ], [ 285303.04, 4160177.54 ], [ 285303.37, 4160178.02 ], [ 285304.02, 4160179.6 ], [ 285304.13, 4160180.16 ] ] ] } },
{ "type": "Feature", "properties": { "id": "richmond_structure:403433", "name": null, "kind": "deck", "sport": null, "surface": null, "pitch_layout": null, "source": "richmond_structures", "source_updated": "2026-09-08T12:07:13.637000Z", "base_z": null, "top_z": null }, "geometry": { "type": "Polygon", "coordinates": [ [ [ 285262.42, 4160202.78 ], [ 285262.52, 4160205.48 ], [ 285265.08, 4160205.39 ], [ 285264.98, 4160202.68 ], [ 285262.42, 4160202.78 ] ] ] } },
{ "type": "Feature", "properties": { "id": "richmond_structure:402366", "name": null, "kind": "deck", "sport": null, "surface": null, "pitch_layout": null, "source": "richmond_structures", "source_updated": "2026-09-08T12:07:13.637000Z", "base_z": null, "top_z": null }, "geometry": { "type": "Polygon", "coordinates": [ [ [ 285267.4, 4160243.8 ], [ 285264.32, 4160243.98 ], [ 285264.52, 4160247.61 ], [ 285268.64, 4160247.38 ], [ 285268.47, 4160244.35 ], [ 285267.43, 4160244.41 ], [ 285267.4, 4160243.8 ] ] ] } },
{ "type": "Feature", "properties": { "id": "richmond_structure:403435", "name": null, "kind": "deck", "sport": null, "surface": null, "pitch_layout": null, "source": "richmond_structures", "source_updated": "2026-09-08T12:07:13.637000Z", "base_z": null, "top_z": null }, "geometry": { "type": "Polygon", "coordinates": [ [ [ 285350.19, 4160163.87 ], [ 285349.84, 4160160.62 ], [ 285348.69, 4160160.78 ], [ 285347.63, 4160161.92 ], [ 285346.09, 4160162.47 ], [ 285346.23, 4160166.41 ], [ 285353.53, 4160165.74 ], [ 285353.34, 4160163.53 ], [ 285350.19, 4160163.87 ] ] ] } },
{ "type": "Feature", "properties": { "id": "richmond_structure:294137", "name": null, "kind": "deck", "sport": null, "surface": null, "pitch_layout": null, "source": "richmond_structures", "source_updated": "2026-09-08T12:07:13.637000Z", "base_z": null, "top_z": null }, "geometry": { "type": "Polygon", "coordinates": [ [ [ 285401.79, 4160168.28 ], [ 285401.67, 4160165.12 ], [ 285393.15, 4160165.89 ], [ 285393.5, 4160168.92 ], [ 285401.79, 4160168.28 ] ] ] } },
{ "type": "Feature", "properties": { "id": "imagery:groundcover_paved:492", "name": null, "kind": "groundcover_paved", "sport": null, "surface": null, "pitch_layout": null, "source": "vgin_vbmp+naip+lidar2025", "source_updated": null, "base_z": null, "top_z": null }, "geometry": { "type": "Polygon", "coordinates": [ [ [ 285352.13, 4160186.97 ], [ 285355.72, 4160189.91 ], [ 285380.1, 4160185.03 ], [ 285382.47, 4160182.58 ], [ 285384.63, 4160169.66 ], [ 285385.12, 4160168.79 ], [ 285387.27, 4160166.97 ], [ 285388.2, 4160166.63 ], [ 285388.15, 4160166.5 ], [ 285388.04, 4160166.02 ], [ 285387.97, 4160165.53 ], [ 285387.67, 4160162.18 ], [ 285387.66, 4160162.19 ], [ 285387.37, 4160162.59 ], [ 285387.05, 4160162.96 ], [ 285386.69, 4160163.29 ], [ 285386.3, 4160163.59 ], [ 285385.88, 4160163.84 ], [ 285385.44, 4160164.06 ], [ 285384.98, 4160164.23 ], [ 285384.5, 4160164.35 ], [ 285384.02, 4160164.43 ], [ 285350.92, 4160168.0 ], [ 285350.43, 4160168.03 ], [ 285349.94, 4160168.01 ], [ 285349.45, 4160167.95 ], [ 285348.97, 4160167.83 ], [ 285348.51, 4160167.67 ], [ 285348.06, 4160167.46 ], [ 285347.75, 4160167.28 ], [ 285347.75, 4160167.42 ], [ 285347.76, 4160167.69 ], [ 285347.22, 4160181.63 ], [ 285348.53, 4160181.63 ], [ 285349.55, 4160182.05 ], [ 285351.71, 4160184.2 ], [ 285352.13, 4160185.22 ], [ 285352.13, 4160186.97 ] ] ] } },
{ "type": "Feature", "properties": { "id": "richmond_structure:294667", "name": null, "kind": "deck", "sport": null, "surface": null, "pitch_layout": null, "source": "richmond_structures", "source_updated": "2026-09-08T12:07:13.637000Z", "base_z": null, "top_z": null }, "geometry": { "type": "Polygon", "coordinates": [ [ [ 285327.85, 4160174.96 ], [ 285326.01, 4160175.03 ], [ 285326.2, 4160178.15 ], [ 285328.18, 4160177.92 ], [ 285327.85, 4160174.96 ] ] ] } },
{ "type": "Feature", "properties": { "id": "richmond_structure:402359", "name": null, "kind": "deck", "sport": null, "surface": null, "pitch_layout": null, "source": "richmond_structures", "source_updated": "2026-09-08T12:07:13.637000Z", "base_z": null, "top_z": null }, "geometry": { "type": "Polygon", "coordinates": [ [ [ 285327.94, 4160205.96 ], [ 285325.08, 4160206.16 ], [ 285325.26, 4160208.9 ], [ 285329.15, 4160208.64 ], [ 285329.06, 4160207.32 ], [ 285328.04, 4160207.39 ], [ 285327.94, 4160205.96 ] ] ] } },
{ "type": "Feature", "properties": { "id": "richmond_structure:402364", "name": null, "kind": "deck", "sport": null, "surface": null, "pitch_layout": null, "source": "richmond_structures", "source_updated": "2026-09-08T12:07:13.637000Z", "base_z": null, "top_z": null }, "geometry": { "type": "Polygon", "coordinates": [ [ [ 285326.86, 4160240.09 ], [ 285328.77, 4160239.86 ], [ 285328.22, 4160235.23 ], [ 285326.3, 4160235.45 ], [ 285326.86, 4160240.09 ] ] ] } },
{ "type": "Feature", "properties": { "id": "imagery:groundcover_bare:407", "name": null, "kind": "groundcover_bare", "sport": null, "surface": null, "pitch_layout": null, "source": "vgin_vbmp+naip+lidar2025", "source_updated": null, "base_z": null, "top_z": null }, "geometry": { "type": "Polygon", "coordinates": [ [ [ 285496.13, 4160247.63 ], [ 285493.13, 4160244.63 ], [ 285488.67, 4160244.63 ], [ 285488.1, 4160244.51 ], [ 285486.53, 4160243.86 ], [ 285486.04, 4160243.54 ], [ 285485.25, 4160242.75 ], [ 285480.17, 4160244.38 ], [ 285479.24, 4160250.0 ], [ 285495.02, 4160250.0 ], [ 285496.13, 4160248.46 ], [ 285496.13, 4160247.63 ] ] ] } },
{ "type": "Feature", "properties": { "id": "imagery:groundcover_paved:421", "name": null, "kind": "groundcover_paved", "sport": null, "surface": null, "pitch_layout": null, "source": "vgin_vbmp+naip+lidar2025", "source_updated": null, "base_z": null, "top_z": null }, "geometry": { "type": "Polygon", "coordinates": [ [ [ 285484.13, 4160239.28 ], [ 285486.4, 4160242.19 ], [ 285493.37, 4160243.94 ], [ 285494.17, 4160244.45 ], [ 285495.82, 4160246.57 ], [ 285496.13, 4160247.47 ], [ 285496.13, 4160248.35 ], [ 285495.91, 4160249.13 ], [ 285495.37, 4160250.0 ], [ 285500.0, 4160250.0 ], [ 285500.0, 4160235.34 ], [ 285484.13, 4160234.65 ], [ 285484.13, 4160239.28 ] ] ] } }
]
}
