{
"type": "FeatureCollection",
"name": "landuse",
"crs": { "type": "name", "properties": { "name": "urn:ogc:def:crs:EPSG::32618" } },
"xy_coordinate_resolution": 0.01,
"features": [
{ "type": "Feature", "properties": { "id": "osm:way/301428800", "name": null, "kind": "parking", "sport": null, "surface": null, "pitch_layout": null, "source": null, "source_updated": null, "base_z": null, "top_z": null }, "geometry": { "type": "Polygon", "coordinates": [ [ [ 284112.28, 4158250.0 ], [ 284064.28, 4158250.0 ], [ 284082.66, 4158273.23 ], [ 284112.28, 4158250.0 ] ] ] } },
{ "type": "Feature", "properties": { "id": "richmond_structure:312188", "name": null, "kind": "deck", "sport": null, "surface": null, "pitch_layout": null, "source": "richmond_structures", "source_updated": "2026-09-08T12:07:13.637000Z", "base_z": null, "top_z": null }, "geometry": { "type": "Polygon", "coordinates": [ [ [ 284247.58, 4158294.75 ], [ 284250.0, 4158292.79 ], [ 284250.0, 4158287.49 ], [ 284249.6, 4158286.95 ], [ 284244.56, 4158290.71 ], [ 284247.58, 4158294.75 ] ] ] } },
{ "type": "Feature", "properties": { "id": "richmond_structure:408302", "name": null, "kind": "deck", "sport": null, "surface": null, "pitch_layout": null, "source": "richmond_structures", "source_updated": "2026-09-08T12:07:13.637000Z", "base_z": null, "top_z": null }, "geometry": { "type": "Polygon", "coordinates": [ [ [ 284203.82, 4158320.22 ], [ 284202.25, 4158318.24 ], [ 284201.32, 4158318.98 ], [ 284197.95, 4158314.73 ], [ 284192.22, 4158319.55 ], [ 284196.16, 4158324.52 ], [ 284201.27, 4158320.41 ], [ 284202.16, 4158321.53 ], [ 284203.82, 4158320.22 ] ] ] } },
{ "type": "Feature", "properties": { "id": "richmond_structure:316685", "name": null, "kind": "deck", "sport": null, "surface": null, "pitch_layout": null, "source": "richmond_structures", "source_updated": "2026-09-08T12:07:13.637000Z", "base_z": null, "top_z": null }, "geometry": { "type": "Polygon", "coordinates": [ [ [ 284153.27, 4158320.31 ], [ 284152.45, 4158322.8 ], [ 284152.67, 4158325.03 ], [ 284159.16, 4158319.89 ], [ 284157.72, 4158318.55 ], [ 284156.16, 4158318.42 ], [ 284154.73, 4158318.98 ], [ 284153.27, 4158320.31 ] ] ] } },
{ "type": "Feature", "properties": { "id": "richmond_structure:408317", "name": null, "kind": "deck", "sport": null, "surface": null, "pitch_layout": null, "source": "richmond_structures", "source_updated": "2026-09-08T12:07:13.637000Z", "base_z": null, "top_z": null }, "geometry": { "type": "Polygon", "coordinates": [ [ [ 284234.82, 4158409.07 ], [ 284246.79, 4158399.68 ], [ 284242.36, 4158394.08 ], [ 284230.41, 4158403.46 ], [ 284234.82, 4158409.07 ] ] ] } },
{ "type": "Feature", "properties": { "id": "osm:way/321397256", "name": null, "kind": "parking", "sport": null, "surface": null, "pitch_layout": null, "source": null, "source_updated": null, "base_z": null, "top_z": null }, "geometry": { "type": "Polygon", "coordinates": [ [ [ 284161.2, 4158433.63 ], [ 284165.82, 4158430.25 ], [ 284157.1, 4158419.71 ], [ 284153.44, 4158422.97 ], [ 284153.15, 4158417.9 ], [ 284151.27, 4158415.65 ], [ 284144.88, 4158414.87 ], [ 284133.17, 4158423.64 ], [ 284136.56, 4158427.9 ], [ 284118.84, 4158441.4 ], [ 284129.7, 4158455.37 ], [ 284159.89, 4158432.23 ], [ 284161.2, 4158433.63 ] ] ] } },
{ "type": "Feature", "properties": { "id": "imagery:groundcover_paved:1976", "name": null, "kind": "groundcover_paved", "sport": null, "surface": null, "pitch_layout": null, "source": "vgin_vbmp+naip+lidar2025", "source_updated": null, "base_z": null, "top_z": null }, "geometry": { "type": "Polygon", "coordinates": [ [ [ 284237.0, 4158488.58 ], [ 284241.57, 4158484.84 ], [ 284241.96, 4158484.55 ], [ 284242.38, 4158484.3 ], [ 284242.83, 4158484.09 ], [ 284243.29, 4158483.92 ], [ 284243.76, 4158483.8 ], [ 284244.25, 4158483.73 ], [ 284244.74, 4158483.71 ], [ 284245.22, 4158483.73 ], [ 284245.71, 4158483.8 ], [ 284246.18, 4158483.92 ], [ 284246.64, 4158484.09 ], [ 284247.09, 4158484.3 ], [ 284247.51, 4158484.55 ], [ 284247.9, 4158484.84 ], [ 284248.13, 4158485.05 ], [ 284248.13, 4158482.02 ], [ 284247.9, 4158481.63 ], [ 284247.7, 4158481.18 ], [ 284247.54, 4158480.72 ], [ 284247.43, 4158480.24 ], [ 284247.36, 4158479.75 ], [ 284247.34, 4158479.26 ], [ 284247.37, 4158478.77 ], [ 284247.45, 4158478.28 ], [ 284247.58, 4158477.81 ], [ 284247.75, 4158477.35 ], [ 284247.97, 4158476.9 ], [ 284248.23, 4158476.49 ], [ 284248.53, 4158476.09 ], [ 284248.86, 4158475.74 ], [ 284248.93, 4158475.67 ], [ 284249.91, 4158474.32 ], [ 284250.0, 4158474.26 ], [ 284250.0, 4158465.12 ], [ 284248.78, 4158465.06 ], [ 284247.18, 4158463.99 ], [ 284243.39, 4158464.36 ], [ 284237.01, 4158470.75 ], [ 284236.13, 4158472.87 ], [ 284236.13, 4158474.78 ], [ 284235.82, 4158475.68 ], [ 284234.17, 4158477.8 ], [ 284233.37, 4158478.32 ], [ 284224.94, 4158480.42 ], [ 284223.54, 4158481.21 ], [ 284220.25, 4158484.5 ], [ 284219.91, 4158486.21 ], [ 284222.73, 4158489.63 ], [ 284236.04, 4158489.63 ], [ 284236.3, 4158489.27 ], [ 284236.63, 4158488.91 ], [ 284237.0, 4158488.58 ] ] ] } },
{ "type": "Feature", "properties": { "id": "richmond_structure:408343", "name": null, "kind": "deck", "sport": null, "surface": null, "pitch_layout": null, "source": "richmond_structures", "source_updated": "2026-09-08T12:07:13.637000Z", "base_z": null, "top_z": null }, "geometry": { "type": "Polygon", "coordinates": [ [ [ 284169.36, 4158484.8 ], [ 284172.99, 4158481.99 ], [ 284169.83, 4158477.89 ], [ 284166.2, 4158480.7 ], [ 284169.36, 4158484.8 ] ] ] } },
{ "type": "Feature", "properties": { "id": "richmond_structure:316819", "name": null, "kind": "deck", "sport": null, "surface": null, "pitch_layout": null, "source": "richmond_structures", "source_updated": "2026-09-08T12:07:13.637000Z", "base_z": null, "top_z": null }, "geometry": { "type": "Polygon", "coordinates": [ [ [ 284150.2, 4158490.22 ], [ 284153.01, 4158487.8 ], [ 284151.7, 4158486.13 ], [ 284148.72, 4158488.49 ], [ 284150.2, 4158490.22 ] ] ] } },
{ "type": "Feature", "properties": { "id": "richmond_structure:310939", "name": null, "kind": "deck", "sport": null, "surface": null, "pitch_layout": null, "source": "richmond_structures", "source_updated": "2026-09-08T12:07:13.637000Z", "base_z": null, "top_z": null }, "geometry": { "type": "Polygon", "coordinates": [ [ [ 284240.4, 4158493.11 ], [ 284243.74, 4158490.47 ], [ 284242.24, 4158488.56 ], [ 284238.88, 4158491.2 ], [ 284240.4, 4158493.11 ] ] ] } },
{ "type": "Feature", "properties": { "id": "osm:way/301428811", "name": null, "kind": "parking", "sport": null, "surface": null, "pitch_layout": null, "source": null, "source_updated": null, "base_z": null, "top_z": null }, "geometry": { "type": "Polygon", "coordinates": [ [ [ 284000.0, 4158250.0 ], [ 284000.0, 4158253.75 ], [ 284000.97, 4158254.99 ], [ 284007.42, 4158250.0 ], [ 284000.0, 4158250.0 ] ] ] } },
{ "type": "Feature", "properties": { "id": "osm:way/301428798", "name": null, "kind": "parking", "sport": null, "surface": null, "pitch_layout": null, "source": null, "source_updated": null, "base_z": null, "top_z": null }, "geometry": { "type": "Polygon", "coordinates": [ [ [ 284016.02, 4158270.35 ], [ 284000.0, 4158283.2 ], [ 284000.0, 4158322.5 ], [ 284009.32, 4158334.03 ], [ 284044.62, 4158305.7 ], [ 284016.02, 4158270.35 ] ] ] } },
{ "type": "Feature", "properties": { "id": "richmond_structure:408660", "name": null, "kind": "deck", "sport": null, "surface": null, "pitch_layout": null, "source": "richmond_structures", "source_updated": "2026-09-08T12:07:13.637000Z", "base_z": null, "top_z": null }, "geometry": { "type": "Polygon", "coordinates": [ [ [ 284064.96, 4158298.61 ], [ 284058.85, 4158303.16 ], [ 284069.3, 4158315.63 ], [ 284070.82, 4158314.41 ], [ 284063.66, 4158305.47 ], [ 284067.79, 4158302.16 ], [ 284064.96, 4158298.61 ] ] ] } },
{ "type": "Feature", "properties": { "id": "osm:way/301428806", "name": null, "kind": "parking", "sport": null, "surface": null, "pitch_layout": null, "source": null, "source_updated": null, "base_z": null, "top_z": null }, "geometry": { "type": "Polygon", "coordinates": [ [ [ 284000.0, 4158343.21 ], [ 284000.0, 4158343.26 ], [ 284000.02, 4158343.24 ], [ 284000.0, 4158343.21 ] ] ] } },
{ "type": "Feature", "properties": { "id": "osm:way/321393358", "name": null, "kind": "parking", "sport": null, "surface": null, "pitch_layout": null, "source": null, "source_updated": null, "base_z": null, "top_z": null }, "geometry": { "type": "Polygon", "coordinates": [ [ [ 284029.91, 4158329.77 ], [ 284016.76, 4158339.7 ], [ 284038.23, 4158367.9 ], [ 284051.38, 4158357.96 ], [ 284029.91, 4158329.77 ] ] ] } },
{ "type": "Feature", "properties": { "id": "richmond_structure:408306", "name": null, "kind": "deck", "sport": null, "surface": null, "pitch_layout": null, "source": "richmond_structures", "source_updated": "2026-09-08T12:07:13.637000Z", "base_z": null, "top_z": null }, "geometry": { "type": "Polygon", "coordinates": [ [ [ 284000.0, 4158356.15 ], [ 284000.0, 4158367.08 ], [ 284007.07, 4158361.55 ], [ 284001.72, 4158354.77 ], [ 284000.0, 4158356.15 ] ] ] } },
{ "type": "Feature", "properties": { "id": "richmond_structure:408315", "name": null, "kind": "deck", "sport": null, "surface": null, "pitch_layout": null, "source": "richmond_structures", "source_updated": "2026-09-08T12:07:13.637000Z", "base_z": null, "top_z": null }, "geometry": { "type": "Polygon", "coordinates": [ [ [ 284091.65, 4158404.72 ], [ 284097.8, 4158412.68 ], [ 284103.8, 4158407.95 ], [ 284097.7, 4158400.05 ], [ 284091.65, 4158404.72 ] ] ] } },
{ "type": "Feature", "properties": { "id": "richmond_structure:408344", "name": null, "kind": "deck", "sport": null, "surface": null, "pitch_layout": null, "source": "richmond_structures", "source_updated": "2026-09-08T12:07:13.637000Z", "base_z": null, "top_z": null }, "geometry": { "type": "Polygon", "coordinates": [ [ [ 284066.8, 4158490.48 ], [ 284069.37, 4158488.55 ], [ 284064.98, 4158482.69 ], [ 284062.4, 4158484.62 ], [ 284066.8, 4158490.48 ] ] ] } },
{ "type": "Feature", "properties": { "id": "richmond_structure:408348", "name": null, "kind": "deck", "sport": null, "surface": null, "pitch_layout": null, "source": "richmond_structures", "source_updated": "2026-09-08T12:07:13.637000Z", "base_z": null, "top_z": null }, "geometry": { "type": "Polygon", "coordinates": [ [ [ 284059.06, 4158498.07 ], [ 284062.54, 4158495.46 ], [ 284060.11, 4158492.22 ], [ 284056.63, 4158494.83 ], [ 284059.06, 4158498.07 ] ] ] } },
{ "type": "Feature", "properties": { "id": "imagery:groundcover_lawn:1943", "name": null, "kind": "groundcover_lawn", "sport": null, "surface": null, "pitch_layout": null, "source": "vgin_vbmp+naip+lidar2025", "source_updated": null, "base_z": null, "top_z": null }, "geometry": { "type": "Polygon", "coordinates": [ [ [ 284045.57, 4158499.53 ], [ 284045.65, 4158499.49 ], [ 284045.74, 4158499.45 ], [ 284045.83, 4158499.42 ], [ 284045.93, 4158499.4 ], [ 284046.03, 4158499.38 ], [ 284046.12, 4158499.38 ], [ 284046.22, 4158499.39 ], [ 284046.32, 4158499.41 ], [ 284046.41, 4158499.43 ], [ 284046.5, 4158499.47 ], [ 284046.59, 4158499.51 ], [ 284046.67, 4158499.56 ], [ 284046.75, 4158499.62 ], [ 284046.82, 4158499.69 ], [ 284046.89, 4158499.76 ], [ 284047.07, 4158500.0 ], [ 284049.56, 4158500.0 ], [ 284049.9, 4158499.77 ], [ 284050.18, 4158499.11 ], [ 284050.14, 4158499.03 ], [ 284050.11, 4158498.93 ], [ 284050.08, 4158498.84 ], [ 284050.07, 4158498.74 ], [ 284050.07, 4158498.64 ], [ 284050.07, 4158498.54 ], [ 284050.09, 4158498.45 ], [ 284050.11, 4158498.35 ], [ 284050.15, 4158498.26 ], [ 284050.19, 4158498.17 ], [ 284050.24, 4158498.09 ], [ 284050.3, 4158498.01 ], [ 284050.37, 4158497.94 ], [ 284050.44, 4158497.87 ], [ 284052.65, 4158496.11 ], [ 284052.71, 4158496.05 ], [ 284052.74, 4158496.04 ], [ 284055.47, 4158493.85 ], [ 284055.55, 4158493.8 ], [ 284055.63, 4158493.75 ], [ 284055.72, 4158493.71 ], [ 284055.81, 4158493.68 ], [ 284055.91, 4158493.65 ], [ 284056.0, 4158493.64 ], [ 284056.1, 4158493.64 ], [ 284056.2, 4158493.64 ], [ 284056.29, 4158493.66 ], [ 284056.37, 4158493.68 ], [ 284057.81, 4158491.68 ], [ 284056.81, 4158488.68 ], [ 284053.97, 4158486.63 ], [ 284045.99, 4158486.63 ], [ 284043.3, 4158488.28 ], [ 284039.15, 4158496.59 ], [ 284038.88, 4158496.88 ], [ 284038.72, 4158499.46 ], [ 284036.31, 4158498.5 ], [ 284035.86, 4158498.63 ], [ 284033.99, 4158498.63 ], [ 284031.76, 4158500.0 ], [ 284044.96, 4158500.0 ], [ 284045.49, 4158499.59 ], [ 284045.57, 4158499.53 ] ] ] } },
{ "type": "Feature", "properties": { "id": "richmond_structure:408351", "name": null, "kind": "deck", "sport": null, "surface": null, "pitch_layout": null, "source": "richmond_structures", "source_updated": "2026-09-08T12:07:13.637000Z", "base_z": null, "top_z": null }, "geometry": { "type": "Polygon", "coordinates": [ [ [ 284223.91, 4158498.18 ], [ 284225.52, 4158496.95 ], [ 284223.61, 4158494.44 ], [ 284221.99, 4158495.67 ], [ 284223.91, 4158498.18 ] ] ] } },
{ "type": "Feature", "properties": { "id": "imagery:groundcover_lawn:1945", "name": null, "kind": "groundcover_lawn", "sport": null, "surface": null, "pitch_layout": null, "source": "vgin_vbmp+naip+lidar2025", "source_updated": null, "base_z": null, "top_z": null }, "geometry": { "type": "MultiPolygon", "coordinates": [ [ [ [ 284180.51, 4158492.39 ], [ 284180.45, 4158492.31 ], [ 284180.41, 4158492.23 ], [ 284180.37, 4158492.14 ], [ 284180.34, 4158492.05 ], [ 284179.49, 4158490.34 ], [ 284178.47, 4158489.18 ], [ 284173.99, 4158486.2 ], [ 284169.37, 4158488.2 ], [ 284168.6, 4158492.83 ], [ 284174.3, 4158500.0 ], [ 284182.98, 4158500.0 ], [ 284183.58, 4158498.53 ], [ 284180.52, 4158492.41 ], [ 284180.51, 4158492.39 ] ] ], [ [ [ 284165.26, 4158500.0 ], [ 284166.5, 4158500.0 ], [ 284166.08, 4158499.46 ], [ 284165.26, 4158500.0 ] ] ], [ [ [ 284156.56, 4158498.83 ], [ 284154.59, 4158500.0 ], [ 284160.63, 4158500.0 ], [ 284157.1, 4158499.12 ], [ 284156.56, 4158498.83 ] ] ] ] } },
{ "type": "Feature", "properties": { "id": "imagery:groundcover_lawn:1966", "name": null, "kind": "groundcover_lawn", "sport": null, "surface": null, "pitch_layout": null, "source": "vgin_vbmp+naip+lidar2025", "source_updated": null, "base_z": null, "top_z": null }, "geometry": { "type": "MultiPolygon", "coordinates": [ [ [ [ 284096.36, 4158470.39 ], [ 284092.27, 4158465.32 ], [ 284091.53, 4158465.63 ], [ 284069.37, 4158465.63 ], [ 284067.25, 4158466.5 ], [ 284063.48, 4158470.28 ], [ 284062.88, 4158470.64 ], [ 284060.95, 4158471.26 ], [ 284060.26, 4158471.31 ], [ 284051.52, 4158469.86 ], [ 284048.46, 4158471.26 ], [ 284048.48, 4158471.62 ], [ 284054.32, 4158478.61 ], [ 284054.38, 4158478.69 ], [ 284054.43, 4158478.78 ], [ 284054.47, 4158478.87 ], [ 284054.51, 4158478.96 ], [ 284054.53, 4158479.05 ], [ 284054.55, 4158479.15 ], [ 284054.55, 4158479.25 ], [ 284054.55, 4158479.35 ], [ 284054.53, 4158479.44 ], [ 284054.51, 4158479.54 ], [ 284054.48, 4158479.63 ], [ 284054.44, 4158479.72 ], [ 284054.39, 4158479.81 ], [ 284054.33, 4158479.89 ], [ 284054.26, 4158479.96 ], [ 284054.19, 4158480.03 ], [ 284053.9, 4158480.26 ], [ 284054.63, 4158480.63 ], [ 284059.19, 4158480.63 ], [ 284059.97, 4158480.01 ], [ 284060.05, 4158479.95 ], [ 284060.14, 4158479.9 ], [ 284060.23, 4158479.86 ], [ 284060.32, 4158479.83 ], [ 284060.41, 4158479.81 ], [ 284060.51, 4158479.8 ], [ 284060.61, 4158479.79 ], [ 284060.71, 4158479.8 ], [ 284060.8, 4158479.82 ], [ 284060.9, 4158479.84 ], [ 284060.99, 4158479.88 ], [ 284061.08, 4158479.92 ], [ 284061.16, 4158479.97 ], [ 284061.24, 4158480.03 ], [ 284061.31, 4158480.1 ], [ 284061.37, 4158480.17 ], [ 284061.74, 4158480.63 ], [ 284062.86, 4158480.63 ], [ 284063.63, 4158480.85 ], [ 284064.54, 4158481.41 ], [ 284064.78, 4158481.22 ], [ 284064.86, 4158481.16 ], [ 284064.94, 4158481.11 ], [ 284065.03, 4158481.07 ], [ 284065.13, 4158481.04 ], [ 284065.22, 4158481.02 ], [ 284065.32, 4158481.0 ], [ 284065.42, 4158481.0 ], [ 284065.51, 4158481.01 ], [ 284065.61, 4158481.02 ], [ 284065.7, 4158481.05 ], [ 284065.8, 4158481.08 ], [ 284065.88, 4158481.13 ], [ 284065.97, 4158481.18 ], [ 284066.05, 4158481.24 ], [ 284066.12, 4158481.3 ], [ 284066.18, 4158481.38 ], [ 284068.74, 4158484.59 ], [ 284069.19, 4158484.74 ], [ 284074.13, 4158480.85 ], [ 284074.13, 4158478.22 ], [ 284074.55, 4158477.2 ], [ 284076.71, 4158475.05 ], [ 284077.73, 4158474.63 ], [ 284082.11, 4158474.63 ], [ 284083.97, 4158473.15 ], [ 284084.05, 4158473.1 ], [ 284084.13, 4158473.05 ], [ 284084.22, 4158473.01 ], [ 284084.31, 4158472.98 ], [ 284084.41, 4158472.96 ], [ 284084.51, 4158472.94 ], [ 284084.6, 4158472.94 ], [ 284084.7, 4158472.95 ], [ 284084.8, 4158472.96 ], [ 284084.89, 4158472.99 ], [ 284084.98, 4158473.02 ], [ 284085.07, 4158473.07 ], [ 284085.16, 4158473.12 ], [ 284085.23, 4158473.18 ], [ 284085.3, 4158473.24 ], [ 284085.37, 4158473.32 ], [ 284087.51, 4158476.0 ], [ 284090.01, 4158478.5 ], [ 284093.28, 4158479.15 ], [ 284095.13, 4158476.38 ], [ 284095.13, 4158472.22 ], [ 284095.55, 4158471.2 ], [ 284096.36, 4158470.39 ] ] ], [ [ [ 284102.79, 4158500.0 ], [ 284109.15, 4158494.97 ], [ 284108.66, 4158493.51 ], [ 284108.7, 4158492.91 ], [ 284099.82, 4158500.0 ], [ 284102.79, 4158500.0 ] ] ], [ [ [ 284108.6, 4158500.0 ], [ 284110.04, 4158500.0 ], [ 284110.13, 4158498.79 ], [ 284108.6, 4158500.0 ] ] ] ] } },
{ "type": "Feature", "properties": { "id": "imagery:groundcover_paved:2792", "name": null, "kind": "groundcover_paved", "sport": null, "surface": null, "pitch_layout": null, "source": "vgin_vbmp+naip+lidar2025", "source_updated": null, "base_z": null, "top_z": null }, "geometry": { "type": "MultiPolygon", "coordinates": [ [ [ [ 284000.97, 4158254.99 ], [ 284000.0, 4158253.75 ], [ 284000.0, 4158256.01 ], [ 284006.55, 4158250.68 ], [ 284000.97, 4158254.99 ] ] ], [ [ [ 284098.79, 4158347.5 ], [ 284099.4, 4158346.46 ], [ 284099.31, 4158346.53 ], [ 284084.13, 4158354.13 ], [ 284040.98, 4158388.59 ], [ 284040.86, 4158388.67 ], [ 284040.75, 4158388.76 ], [ 284034.81, 4158393.07 ], [ 284033.56, 4158394.03 ], [ 284034.3, 4158394.89 ], [ 284034.37, 4158394.98 ], [ 284036.17, 4158397.37 ], [ 284043.35, 4158391.62 ], [ 284043.36, 4158391.62 ], [ 284089.02, 4158355.27 ], [ 284094.29, 4158351.08 ], [ 284098.79, 4158347.5 ] ] ], [ [ [ 284031.53, 4158397.19 ], [ 284030.74, 4158396.27 ], [ 284007.74, 4158415.64 ], [ 284001.99, 4158420.48 ], [ 284001.87, 4158420.58 ], [ 284000.0, 4158422.08 ], [ 284000.0, 4158426.14 ], [ 284033.35, 4158399.61 ], [ 284031.53, 4158397.19 ] ] ], [ [ [ 284063.03, 4158448.83 ], [ 284062.86, 4158449.29 ], [ 284062.64, 4158449.73 ], [ 284062.48, 4158449.99 ], [ 284073.35, 4158441.39 ], [ 284065.29, 4158430.79 ], [ 284061.17, 4158434.04 ], [ 284060.59, 4158442.18 ], [ 284062.18, 4158444.18 ], [ 284062.47, 4158444.58 ], [ 284062.72, 4158445.01 ], [ 284062.92, 4158445.46 ], [ 284063.08, 4158445.92 ], [ 284063.19, 4158446.4 ], [ 284063.26, 4158446.89 ], [ 284063.27, 4158447.38 ], [ 284063.24, 4158447.87 ], [ 284063.16, 4158448.36 ], [ 284063.03, 4158448.83 ] ] ], [ [ [ 284092.32, 4158465.39 ], [ 284077.2, 4158446.65 ], [ 284077.17, 4158446.62 ], [ 284077.15, 4158446.59 ], [ 284076.95, 4158446.32 ], [ 284059.64, 4158460.01 ], [ 284062.09, 4158462.87 ], [ 284092.32, 4158465.39 ] ] ], [ [ [ 284224.2, 4158266.61 ], [ 284224.04, 4158266.69 ], [ 284223.88, 4158266.75 ], [ 284223.71, 4158266.8 ], [ 284223.53, 4158266.83 ], [ 284223.36, 4158266.84 ], [ 284223.18, 4158266.84 ], [ 284223.01, 4158266.82 ], [ 284222.83, 4158266.78 ], [ 284222.67, 4158266.72 ], [ 284222.5, 4158266.65 ], [ 284222.35, 4158266.56 ], [ 284222.33, 4158266.55 ], [ 284215.47, 4158271.51 ], [ 284214.77, 4158272.03 ], [ 284212.6, 4158273.67 ], [ 284210.16, 4158276.83 ], [ 284210.39, 4158277.6 ], [ 284211.84, 4158279.47 ], [ 284221.74, 4158291.46 ], [ 284221.76, 4158291.45 ], [ 284221.93, 4158291.41 ], [ 284222.1, 4158291.38 ], [ 284222.28, 4158291.36 ], [ 284222.45, 4158291.37 ], [ 284222.63, 4158291.39 ], [ 284222.8, 4158291.43 ], [ 284222.97, 4158291.49 ], [ 284223.13, 4158291.56 ], [ 284223.28, 4158291.65 ], [ 284223.43, 4158291.75 ], [ 284223.56, 4158291.86 ], [ 284223.68, 4158291.99 ], [ 284223.79, 4158292.13 ], [ 284223.88, 4158292.28 ], [ 284223.96, 4158292.44 ], [ 284224.03, 4158292.61 ], [ 284224.03, 4158292.64 ], [ 284225.53, 4158280.82 ], [ 284226.31, 4158272.24 ], [ 284226.33, 4158272.1 ], [ 284226.34, 4158271.97 ], [ 284227.09, 4158266.82 ], [ 284227.18, 4158266.36 ], [ 284227.22, 4158266.2 ], [ 284227.17, 4158266.11 ], [ 284226.95, 4158265.63 ], [ 284226.79, 4158265.13 ], [ 284226.68, 4158264.62 ], [ 284226.62, 4158264.1 ], [ 284226.62, 4158263.58 ], [ 284226.63, 4158263.44 ], [ 284225.05, 4158264.58 ], [ 284225.07, 4158264.65 ], [ 284225.1, 4158264.83 ], [ 284225.12, 4158265.0 ], [ 284225.11, 4158265.18 ], [ 284225.09, 4158265.35 ], [ 284225.05, 4158265.53 ], [ 284224.99, 4158265.69 ], [ 284224.92, 4158265.86 ], [ 284224.84, 4158266.01 ], [ 284224.73, 4158266.15 ], [ 284224.62, 4158266.29 ], [ 284224.49, 4158266.41 ], [ 284224.35, 4158266.52 ], [ 284224.2, 4158266.61 ] ] ] ] } }
]
}
