{
"type": "FeatureCollection",
"name": "pois",
"crs": { "type": "name", "properties": { "name": "urn:ogc:def:crs:EPSG::32618" } },
"xy_coordinate_resolution": 0.01,
"features": [
{ "type": "Feature", "properties": { "id": "lidar-tree:284944:4157768", "name": null, "kind": "tree", "species": null, "source": "lidar2025", "tree_height": 18.9, "crown_radius": 5.7, "height_source": "lidar2025" }, "geometry": { "type": "Point", "coordinates": [ 284944.5, 4157768.5 ] } },
{ "type": "Feature", "properties": { "id": "rva-tree:92381", "name": "Quercus phellos", "kind": "tree", "species": "Quercus phellos", "source": "city_inventory", "tree_height": 12.6, "crown_radius": 4.9, "height_source": "lidar2025" }, "geometry": { "type": "Point", "coordinates": [ 284996.89, 4157769.86 ] } },
{ "type": "Feature", "properties": { "id": "osm:node/8774944635", "name": "8th & Marshall", "kind": "bus_stop", "species": null, "source": null, "tree_height": null, "crown_radius": null, "height_source": null }, "geometry": { "type": "Point", "coordinates": [ 284932.63, 4157771.19 ] } },
{ "type": "Feature", "properties": { "id": "lidar-tree:284770:4157794", "name": null, "kind": "tree", "species": null, "source": "lidar2025", "tree_height": 13.0, "crown_radius": 5.2, "height_source": "lidar2025" }, "geometry": { "type": "Point", "coordinates": [ 284769.5, 4157794.5 ] } },
{ "type": "Feature", "properties": { "id": "rva-tree:63669", "name": "Quercus phellos", "kind": "tree", "species": "Quercus phellos", "source": "city_inventory", "tree_height": 9.2, "crown_radius": 4.5, "height_source": "lidar2025" }, "geometry": { "type": "Point", "coordinates": [ 284763.72, 4157797.41 ] } },
{ "type": "Feature", "properties": { "id": "rva-tree:96050", "name": "Lagerstroemia indica", "kind": "tree", "species": "Lagerstroemia indica", "source": "city_inventory", "tree_height": 8.0, "crown_radius": 2.5, "height_source": "estimated" }, "geometry": { "type": "Point", "coordinates": [ 284826.16, 4157767.71 ] } },
{ "type": "Feature", "properties": { "id": "osm:node/7022526214", "name": null, "kind": "traffic_signals", "species": null, "source": null, "tree_height": null, "crown_radius": null, "height_source": null }, "geometry": { "type": "Point", "coordinates": [ 284828.57, 4157772.44 ] } },
{ "type": "Feature", "properties": { "id": "osm:node/7022526213", "name": null, "kind": "traffic_signals", "species": null, "source": null, "tree_height": null, "crown_radius": null, "height_source": null }, "geometry": { "type": "Point", "coordinates": [ 284802.03, 4157778.23 ] } },
{ "type": "Feature", "properties": { "id": "osm:node/3505593206", "name": "Vagabond", "kind": "restaurant", "species": null, "source": null, "tree_height": null, "crown_radius": null, "height_source": null }, "geometry": { "type": "Point", "coordinates": [ 284841.2, 4157780.28 ] } },
{ "type": "Feature", "properties": { "id": "rva-tree:1263", "name": "Lagerstroemia indica", "kind": "tree", "species": "Lagerstroemia indica", "source": "city_inventory", "tree_height": 8.0, "crown_radius": 2.5, "height_source": "estimated" }, "geometry": { "type": "Point", "coordinates": [ 284801.01, 4157785.45 ] } },
{ "type": "Feature", "properties": { "id": "rva-tree:63670", "name": "Quercus phellos", "kind": "tree", "species": "Quercus phellos", "source": "city_inventory", "tree_height": 8.0, "crown_radius": 2.5, "height_source": "estimated" }, "geometry": { "type": "Point", "coordinates": [ 284776.88, 4157787.21 ] } },
{ "type": "Feature", "properties": { "id": "rva-tree:1249", "name": "Lagerstroemia indica", "kind": "tree", "species": "Lagerstroemia indica", "source": "city_inventory", "tree_height": 8.0, "crown_radius": 2.5, "height_source": "estimated" }, "geometry": { "type": "Point", "coordinates": [ 284796.71, 4157788.21 ] } },
{ "type": "Feature", "properties": { "id": "rva-tree:1251", "name": "Lagerstroemia indica", "kind": "tree", "species": "Lagerstroemia indica", "source": "city_inventory", "tree_height": 8.0, "crown_radius": 2.5, "height_source": "estimated" }, "geometry": { "type": "Point", "coordinates": [ 284798.95, 4157789.13 ] } },
{ "type": "Feature", "properties": { "id": "rva-tree:1247", "name": "Lagerstroemia indica", "kind": "tree", "species": "Lagerstroemia indica", "source": "city_inventory", "tree_height": 8.0, "crown_radius": 2.5, "height_source": "estimated" }, "geometry": { "type": "Point", "coordinates": [ 284790.9, 4157793.43 ] } },
{ "type": "Feature", "properties": { "id": "rva-tree:1248", "name": "Lagerstroemia indica", "kind": "tree", "species": "Lagerstroemia indica", "source": "city_inventory", "tree_height": 8.0, "crown_radius": 2.5, "height_source": "estimated" }, "geometry": { "type": "Point", "coordinates": [ 284794.71, 4157793.49 ] } },
{ "type": "Feature", "properties": { "id": "rva-tree:92261", "name": "Quercus phellos", "kind": "tree", "species": "Quercus phellos", "source": "city_inventory", "tree_height": 18.5, "crown_radius": 5.6, "height_source": "lidar2025" }, "geometry": { "type": "Point", "coordinates": [ 284810.79, 4157796.16 ] } },
{ "type": "Feature", "properties": { "id": "lidar-tree:284834:4157796", "name": null, "kind": "tree", "species": null, "source": "lidar2025", "tree_height": 15.5, "crown_radius": 6.0, "height_source": "lidar2025" }, "geometry": { "type": "Point", "coordinates": [ 284833.5, 4157796.5 ] } },
{ "type": "Feature", "properties": { "id": "lidar-tree:284844:4157800", "name": null, "kind": "tree", "species": null, "source": "lidar2025", "tree_height": 17.4, "crown_radius": 6.0, "height_source": "lidar2025" }, "geometry": { "type": "Point", "coordinates": [ 284843.5, 4157799.5 ] } },
{ "type": "Feature", "properties": { "id": "rva-tree:1246", "name": "Ilex opaca", "kind": "tree", "species": "Ilex opaca", "source": "city_inventory", "tree_height": 8.0, "crown_radius": 2.5, "height_source": "estimated" }, "geometry": { "type": "Point", "coordinates": [ 284780.0, 4157801.44 ] } },
{ "type": "Feature", "properties": { "id": "rva-tree:92262", "name": "Quercus phellos", "kind": "tree", "species": "Quercus phellos", "source": "city_inventory", "tree_height": 11.8, "crown_radius": 4.4, "height_source": "lidar2025" }, "geometry": { "type": "Point", "coordinates": [ 284801.46, 4157802.58 ] } },
{ "type": "Feature", "properties": { "id": "rva-tree:73304", "name": "Ginkgo biloba", "kind": "tree", "species": "Ginkgo biloba", "source": "city_inventory", "tree_height": 10.3, "crown_radius": 3.0, "height_source": "lidar2025" }, "geometry": { "type": "Point", "coordinates": [ 284829.75, 4157803.1 ] } },
{ "type": "Feature", "properties": { "id": "rva-tree:1243", "name": "Ilex opaca", "kind": "tree", "species": "Ilex opaca", "source": "city_inventory", "tree_height": 8.0, "crown_radius": 2.5, "height_source": "estimated" }, "geometry": { "type": "Point", "coordinates": [ 284778.15, 4157805.51 ] } },
{ "type": "Feature", "properties": { "id": "rva-tree:89861", "name": "Ilex opaca", "kind": "tree", "species": "Ilex opaca", "source": "city_inventory", "tree_height": 8.0, "crown_radius": 2.5, "height_source": "estimated" }, "geometry": { "type": "Point", "coordinates": [ 284775.45, 4157808.21 ] } },
{ "type": "Feature", "properties": { "id": "rva-tree:92263", "name": "Quercus phellos", "kind": "tree", "species": "Quercus phellos", "source": "city_inventory", "tree_height": 20.5, "crown_radius": 6.0, "height_source": "lidar2025" }, "geometry": { "type": "Point", "coordinates": [ 284792.62, 4157809.91 ] } },
{ "type": "Feature", "properties": { "id": "rva-tree:73303", "name": "Ginkgo biloba", "kind": "tree", "species": "Ginkgo biloba", "source": "city_inventory", "tree_height": 7.5, "crown_radius": 3.8, "height_source": "lidar2025" }, "geometry": { "type": "Point", "coordinates": [ 284836.69, 4157813.82 ] } },
{ "type": "Feature", "properties": { "id": "lidar-tree:284758:4157804", "name": null, "kind": "tree", "species": null, "source": "lidar2025", "tree_height": 6.7, "crown_radius": 3.5, "height_source": "lidar2025" }, "geometry": { "type": "Point", "coordinates": [ 284758.5, 4157803.5 ] } },
{ "type": "Feature", "properties": { "id": "rva-tree:96049", "name": "Ilex opaca", "kind": "tree", "species": "Ilex opaca", "source": "city_inventory", "tree_height": 8.0, "crown_radius": 2.5, "height_source": "estimated" }, "geometry": { "type": "Point", "coordinates": [ 284771.85, 4157808.55 ] } },
{ "type": "Feature", "properties": { "id": "rva-tree:1241", "name": "Lagerstroemia indica", "kind": "tree", "species": "Lagerstroemia indica", "source": "city_inventory", "tree_height": 8.0, "crown_radius": 2.5, "height_source": "estimated" }, "geometry": { "type": "Point", "coordinates": [ 284762.1, 4157815.31 ] } },
{ "type": "Feature", "properties": { "id": "rva-tree:1239", "name": "Lagerstroemia indica", "kind": "tree", "species": "Lagerstroemia indica", "source": "city_inventory", "tree_height": 8.0, "crown_radius": 2.5, "height_source": "estimated" }, "geometry": { "type": "Point", "coordinates": [ 284760.83, 4157818.76 ] } },
{ "type": "Feature", "properties": { "id": "rva-tree:1238", "name": "Lagerstroemia indica", "kind": "tree", "species": "Lagerstroemia indica", "source": "city_inventory", "tree_height": 8.0, "crown_radius": 2.5, "height_source": "estimated" }, "geometry": { "type": "Point", "coordinates": [ 284757.65, 4157819.28 ] } },
{ "type": "Feature", "properties": { "id": "rva-tree:1237", "name": "Lagerstroemia indica", "kind": "tree", "species": "Lagerstroemia indica", "source": "city_inventory", "tree_height": 8.0, "crown_radius": 2.5, "height_source": "estimated" }, "geometry": { "type": "Point", "coordinates": [ 284756.77, 4157822.51 ] } },
{ "type": "Feature", "properties": { "id": "rva-tree:1236", "name": "Lagerstroemia indica", "kind": "tree", "species": "Lagerstroemia indica", "source": "city_inventory", "tree_height": 8.0, "crown_radius": 2.5, "height_source": "estimated" }, "geometry": { "type": "Point", "coordinates": [ 284753.77, 4157822.62 ] } },
{ "type": "Feature", "properties": { "id": "osm:node/7022526205", "name": null, "kind": "traffic_signals", "species": null, "source": null, "tree_height": null, "crown_radius": null, "height_source": null }, "geometry": { "type": "Point", "coordinates": [ 284752.73, 4157832.83 ] } },
{ "type": "Feature", "properties": { "id": "rva-tree:63676", "name": "Quercus phellos", "kind": "tree", "species": "Quercus phellos", "source": "city_inventory", "tree_height": 14.4, "crown_radius": 6.0, "height_source": "lidar2025" }, "geometry": { "type": "Point", "coordinates": [ 284764.06, 4157832.93 ] } },
{ "type": "Feature", "properties": { "id": "osm:node/13078975157", "name": null, "kind": "bench", "species": null, "source": null, "tree_height": null, "crown_radius": null, "height_source": null }, "geometry": { "type": "Point", "coordinates": [ 284759.23, 4157837.55 ] } },
{ "type": "Feature", "properties": { "id": "rva-tree:96053", "name": "Lagerstroemia indica", "kind": "tree", "species": "Lagerstroemia indica", "source": "city_inventory", "tree_height": 10.7, "crown_radius": 6.0, "height_source": "lidar2025" }, "geometry": { "type": "Point", "coordinates": [ 284843.34, 4157750.86 ] } },
{ "type": "Feature", "properties": { "id": "rva-tree:96057", "name": "Lagerstroemia indica", "kind": "tree", "species": "Lagerstroemia indica", "source": "city_inventory", "tree_height": 10.7, "crown_radius": 6.0, "height_source": "lidar2025" }, "geometry": { "type": "Point", "coordinates": [ 284847.95, 4157750.89 ] } },
{ "type": "Feature", "properties": { "id": "lidar-tree:284806:4157752", "name": null, "kind": "tree", "species": null, "source": "lidar2025", "tree_height": 13.6, "crown_radius": 5.0, "height_source": "lidar2025" }, "geometry": { "type": "Point", "coordinates": [ 284805.5, 4157751.5 ] } },
{ "type": "Feature", "properties": { "id": "rva-tree:90", "name": "Quercus phellos", "kind": "tree", "species": "Quercus phellos", "source": "city_inventory", "tree_height": 13.6, "crown_radius": 4.4, "height_source": "lidar2025" }, "geometry": { "type": "Point", "coordinates": [ 284818.66, 4157752.82 ] } },
{ "type": "Feature", "properties": { "id": "rva-tree:284", "name": "Quercus robur", "kind": "tree", "species": "Quercus robur", "source": "city_inventory", "tree_height": 13.3, "crown_radius": 2.3, "height_source": "lidar2025" }, "geometry": { "type": "Point", "coordinates": [ 284787.76, 4157753.2 ] } },
{ "type": "Feature", "properties": { "id": "rva-tree:1267", "name": "Lagerstroemia indica", "kind": "tree", "species": "Lagerstroemia indica", "source": "city_inventory", "tree_height": 10.5, "crown_radius": 6.0, "height_source": "lidar2025" }, "geometry": { "type": "Point", "coordinates": [ 284837.5, 4157755.08 ] } },
{ "type": "Feature", "properties": { "id": "rva-tree:1268", "name": "Lagerstroemia indica", "kind": "tree", "species": "Lagerstroemia indica", "source": "city_inventory", "tree_height": 10.7, "crown_radius": 6.0, "height_source": "lidar2025" }, "geometry": { "type": "Point", "coordinates": [ 284841.51, 4157755.33 ] } },
{ "type": "Feature", "properties": { "id": "rva-tree:96051", "name": "Lagerstroemia indica", "kind": "tree", "species": "Lagerstroemia indica", "source": "city_inventory", "tree_height": 10.5, "crown_radius": 6.0, "height_source": "lidar2025" }, "geometry": { "type": "Point", "coordinates": [ 284831.68, 4157760.1 ] } },
{ "type": "Feature", "properties": { "id": "rva-tree:96052", "name": "Lagerstroemia indica", "kind": "tree", "species": "Lagerstroemia indica", "source": "city_inventory", "tree_height": 10.5, "crown_radius": 6.0, "height_source": "lidar2025" }, "geometry": { "type": "Point", "coordinates": [ 284835.09, 4157760.37 ] } },
{ "type": "Feature", "properties": { "id": "osm:node/7022526215", "name": null, "kind": "traffic_signals", "species": null, "source": null, "tree_height": null, "crown_radius": null, "height_source": null }, "geometry": { "type": "Point", "coordinates": [ 284803.52, 4157760.44 ] } },
{ "type": "Feature", "properties": { "id": "rva-tree:280", "name": "Ginkgo biloba", "kind": "tree", "species": "Ginkgo biloba", "source": "city_inventory", "tree_height": 7.6, "crown_radius": 1.8, "height_source": "lidar2025" }, "geometry": { "type": "Point", "coordinates": [ 284793.66, 4157760.65 ] } },
{ "type": "Feature", "properties": { "id": "rva-tree:1265", "name": "Lagerstroemia indica", "kind": "tree", "species": "Lagerstroemia indica", "source": "city_inventory", "tree_height": 8.0, "crown_radius": 2.5, "height_source": "estimated" }, "geometry": { "type": "Point", "coordinates": [ 284829.88, 4157765.37 ] } },
{ "type": "Feature", "properties": { "id": "rva-tree:92372", "name": "Quercus phellos", "kind": "tree", "species": "Quercus phellos", "source": "city_inventory", "tree_height": 16.8, "crown_radius": 5.4, "height_source": "lidar2025" }, "geometry": { "type": "Point", "coordinates": [ 284950.28, 4157771.37 ] } },
{ "type": "Feature", "properties": { "id": "rva-tree:92380", "name": "Quercus phellos", "kind": "tree", "species": "Quercus phellos", "source": "city_inventory", "tree_height": 17.2, "crown_radius": 5.5, "height_source": "lidar2025" }, "geometry": { "type": "Point", "coordinates": [ 284990.08, 4157774.92 ] } },
{ "type": "Feature", "properties": { "id": "rva-tree:94619", "name": "Quercus phellos", "kind": "tree", "species": "Quercus phellos", "source": "city_inventory", "tree_height": 19.0, "crown_radius": 6.0, "height_source": "lidar2025" }, "geometry": { "type": "Point", "coordinates": [ 284934.6, 4157775.4 ] } },
{ "type": "Feature", "properties": { "id": "rva-tree:92373", "name": "Quercus phellos", "kind": "tree", "species": "Quercus phellos", "source": "city_inventory", "tree_height": 14.3, "crown_radius": 5.1, "height_source": "lidar2025" }, "geometry": { "type": "Point", "coordinates": [ 284957.11, 4157780.39 ] } },
{ "type": "Feature", "properties": { "id": "rva-tree:92376", "name": "Quercus phellos", "kind": "tree", "species": "Quercus phellos", "source": "city_inventory", "tree_height": 18.8, "crown_radius": 5.0, "height_source": "lidar2025" }, "geometry": { "type": "Point", "coordinates": [ 284980.18, 4157783.02 ] } },
{ "type": "Feature", "properties": { "id": "lidar-tree:284936:4157784", "name": null, "kind": "tree", "species": null, "source": "lidar2025", "tree_height": 18.8, "crown_radius": 6.0, "height_source": "lidar2025" }, "geometry": { "type": "Point", "coordinates": [ 284935.5, 4157783.5 ] } },
{ "type": "Feature", "properties": { "id": "rva-tree:92374", "name": "Quercus phellos", "kind": "tree", "species": "Quercus phellos", "source": "city_inventory", "tree_height": 14.3, "crown_radius": 5.1, "height_source": "lidar2025" }, "geometry": { "type": "Point", "coordinates": [ 284961.33, 4157785.79 ] } },
{ "type": "Feature", "properties": { "id": "rva-tree:92364", "name": "Quercus phellos", "kind": "tree", "species": "Quercus phellos", "source": "city_inventory", "tree_height": 8.0, "crown_radius": 2.5, "height_source": "estimated" }, "geometry": { "type": "Point", "coordinates": [ 284941.81, 4157786.56 ] } },
{ "type": "Feature", "properties": { "id": "rva-tree:92375", "name": "Quercus phellos", "kind": "tree", "species": "Quercus phellos", "source": "city_inventory", "tree_height": 17.1, "crown_radius": 5.7, "height_source": "lidar2025" }, "geometry": { "type": "Point", "coordinates": [ 284972.66, 4157788.55 ] } },
{ "type": "Feature", "properties": { "id": "osm:node/13707008421", "name": null, "kind": "traffic_signals", "species": null, "source": null, "tree_height": null, "crown_radius": null, "height_source": null }, "geometry": { "type": "Point", "coordinates": [ 284977.93, 4157797.98 ] } },
{ "type": "Feature", "properties": { "id": "rva-tree:92363", "name": "Quercus phellos", "kind": "tree", "species": "Quercus phellos", "source": "city_inventory", "tree_height": 19.2, "crown_radius": 6.0, "height_source": "lidar2025" }, "geometry": { "type": "Point", "coordinates": [ 284950.67, 4157800.45 ] } },
{ "type": "Feature", "properties": { "id": "rva-tree:92389", "name": "Zelkova serrata", "kind": "tree", "species": "Zelkova serrata", "source": "city_inventory", "tree_height": 8.8, "crown_radius": 5.9, "height_source": "lidar2025" }, "geometry": { "type": "Point", "coordinates": [ 284984.84, 4157802.76 ] } },
{ "type": "Feature", "properties": { "id": "osm:node/13707008422", "name": null, "kind": "traffic_signals", "species": null, "source": null, "tree_height": null, "crown_radius": null, "height_source": null }, "geometry": { "type": "Point", "coordinates": [ 284959.46, 4157812.73 ] } },
{ "type": "Feature", "properties": { "id": "osm:node/13707008420", "name": null, "kind": "traffic_signals", "species": null, "source": null, "tree_height": null, "crown_radius": null, "height_source": null }, "geometry": { "type": "Point", "coordinates": [ 284975.47, 4157815.42 ] } },
{ "type": "Feature", "properties": { "id": "rva-tree:96383", "name": "Quercus phellos", "kind": "tree", "species": "Quercus phellos", "source": "city_inventory", "tree_height": 15.4, "crown_radius": 5.8, "height_source": "lidar2025" }, "geometry": { "type": "Point", "coordinates": [ 284990.33, 4157818.08 ] } },
{ "type": "Feature", "properties": { "id": "lidar-tree:284944:4157818", "name": null, "kind": "tree", "species": null, "source": "lidar2025", "tree_height": 20.9, "crown_radius": 6.0, "height_source": "lidar2025" }, "geometry": { "type": "Point", "coordinates": [ 284944.5, 4157818.5 ] } },
{ "type": "Feature", "properties": { "id": "rva-tree:92362", "name": "Quercus phellos", "kind": "tree", "species": "Quercus phellos", "source": "city_inventory", "tree_height": 20.9, "crown_radius": 6.0, "height_source": "lidar2025" }, "geometry": { "type": "Point", "coordinates": [ 284941.35, 4157823.97 ] } },
{ "type": "Feature", "properties": { "id": "rva-tree:96307", "name": "Quercus phellos", "kind": "tree", "species": "Quercus phellos", "source": "city_inventory", "tree_height": 13.3, "crown_radius": 4.7, "height_source": "lidar2025" }, "geometry": { "type": "Point", "coordinates": [ 284997.04, 4157827.37 ] } },
{ "type": "Feature", "properties": { "id": "rva-tree:96306", "name": "Quercus phellos", "kind": "tree", "species": "Quercus phellos", "source": "city_inventory", "tree_height": 16.9, "crown_radius": 6.0, "height_source": "lidar2025" }, "geometry": { "type": "Point", "coordinates": [ 284975.67, 4157828.52 ] } },
{ "type": "Feature", "properties": { "id": "lidar-tree:284866:4157752", "name": null, "kind": "tree", "species": null, "source": "lidar2025", "tree_height": 17.2, "crown_radius": 5.9, "height_source": "lidar2025" }, "geometry": { "type": "Point", "coordinates": [ 284866.5, 4157752.5 ] } },
{ "type": "Feature", "properties": { "id": "lidar-tree:284918:4157756", "name": null, "kind": "tree", "species": null, "source": "lidar2025", "tree_height": 12.3, "crown_radius": 4.1, "height_source": "lidar2025" }, "geometry": { "type": "Point", "coordinates": [ 284917.5, 4157756.5 ] } },
{ "type": "Feature", "properties": { "id": "rva-tree:96079", "name": "Quercus phellos", "kind": "tree", "species": "Quercus phellos", "source": "city_inventory", "tree_height": 8.0, "crown_radius": 2.5, "height_source": "estimated" }, "geometry": { "type": "Point", "coordinates": [ 284856.01, 4157759.52 ] } },
{ "type": "Feature", "properties": { "id": "osm:node/13070070877", "name": "Marshall + 7th", "kind": "bus_stop", "species": null, "source": null, "tree_height": null, "crown_radius": null, "height_source": null }, "geometry": { "type": "Point", "coordinates": [ 284920.89, 4157835.2 ] } },
{ "type": "Feature", "properties": { "id": "osm:node/13070070878", "name": "7th + Marshall", "kind": "bus_stop", "species": null, "source": null, "tree_height": null, "crown_radius": null, "height_source": null }, "geometry": { "type": "Point", "coordinates": [ 284882.96, 4157847.04 ] } },
{ "type": "Feature", "properties": { "id": "lidar-tree:284928:4157850", "name": null, "kind": "tree", "species": null, "source": "lidar2025", "tree_height": 19.2, "crown_radius": 6.0, "height_source": "lidar2025" }, "geometry": { "type": "Point", "coordinates": [ 284928.5, 4157850.5 ] } },
{ "type": "Feature", "properties": { "id": "lidar-tree:284922:4157856", "name": null, "kind": "tree", "species": null, "source": "lidar2025", "tree_height": 20.6, "crown_radius": 6.0, "height_source": "lidar2025" }, "geometry": { "type": "Point", "coordinates": [ 284921.5, 4157856.5 ] } },
{ "type": "Feature", "properties": { "id": "osm:node/49615019", "name": null, "kind": "traffic_signals", "species": null, "source": null, "tree_height": null, "crown_radius": null, "height_source": null }, "geometry": { "type": "Point", "coordinates": [ 284890.73, 4157867.76 ] } },
{ "type": "Feature", "properties": { "id": "lidar-tree:284902:4157874", "name": null, "kind": "tree", "species": null, "source": "lidar2025", "tree_height": 20.9, "crown_radius": 6.0, "height_source": "lidar2025" }, "geometry": { "type": "Point", "coordinates": [ 284901.5, 4157874.5 ] } },
{ "type": "Feature", "properties": { "id": "rva-tree:92260", "name": "Ginkgo biloba", "kind": "tree", "species": "Ginkgo biloba", "source": "city_inventory", "tree_height": 10.4, "crown_radius": 3.9, "height_source": "lidar2025" }, "geometry": { "type": "Point", "coordinates": [ 284866.55, 4157875.51 ] } },
{ "type": "Feature", "properties": { "id": "lidar-tree:284958:4157830", "name": null, "kind": "tree", "species": null, "source": "lidar2025", "tree_height": 8.5, "crown_radius": 5.6, "height_source": "lidar2025" }, "geometry": { "type": "Point", "coordinates": [ 284958.5, 4157829.5 ] } },
{ "type": "Feature", "properties": { "id": "lidar-tree:284998:4157834", "name": null, "kind": "tree", "species": null, "source": "lidar2025", "tree_height": 13.3, "crown_radius": 4.7, "height_source": "lidar2025" }, "geometry": { "type": "Point", "coordinates": [ 284998.5, 4157833.5 ] } },
{ "type": "Feature", "properties": { "id": "rva-tree:96305", "name": "Quercus phellos", "kind": "tree", "species": "Quercus phellos", "source": "city_inventory", "tree_height": 8.0, "crown_radius": 2.5, "height_source": "estimated" }, "geometry": { "type": "Point", "coordinates": [ 284982.04, 4157836.96 ] } },
{ "type": "Feature", "properties": { "id": "lidar-tree:284938:4157840", "name": null, "kind": "tree", "species": null, "source": "lidar2025", "tree_height": 22.8, "crown_radius": 6.0, "height_source": "lidar2025" }, "geometry": { "type": "Point", "coordinates": [ 284937.5, 4157840.5 ] } },
{ "type": "Feature", "properties": { "id": "lidar-tree:284980:4157850", "name": null, "kind": "tree", "species": null, "source": "lidar2025", "tree_height": 7.2, "crown_radius": 5.8, "height_source": "lidar2025" }, "geometry": { "type": "Point", "coordinates": [ 284980.5, 4157850.5 ] } },
{ "type": "Feature", "properties": { "id": "lidar-tree:284972:4157856", "name": null, "kind": "tree", "species": null, "source": "lidar2025", "tree_height": 8.3, "crown_radius": 5.8, "height_source": "lidar2025" }, "geometry": { "type": "Point", "coordinates": [ 284971.5, 4157856.5 ] } },
{ "type": "Feature", "properties": { "id": "lidar-tree:284992:4157882", "name": null, "kind": "tree", "species": null, "source": "lidar2025", "tree_height": 9.0, "crown_radius": 6.0, "height_source": "lidar2025" }, "geometry": { "type": "Point", "coordinates": [ 284991.5, 4157882.5 ] } },
{ "type": "Feature", "properties": { "id": "osm:node/3731225251", "name": null, "kind": "tree", "species": null, "source": null, "tree_height": null, "crown_radius": null, "height_source": null }, "geometry": { "type": "Point", "coordinates": [ 284986.51, 4157891.1 ] } },
{ "type": "Feature", "properties": { "id": "lidar-tree:284942:4157920", "name": null, "kind": "tree", "species": null, "source": "lidar2025", "tree_height": 19.2, "crown_radius": 6.0, "height_source": "lidar2025" }, "geometry": { "type": "Point", "coordinates": [ 284942.5, 4157919.5 ] } },
{ "type": "Feature", "properties": { "id": "rva-tree:92428", "name": "Quercus robur", "kind": "tree", "species": "Quercus robur", "source": "city_inventory", "tree_height": 12.7, "crown_radius": 3.6, "height_source": "lidar2025" }, "geometry": { "type": "Point", "coordinates": [ 284881.97, 4157884.67 ] } },
{ "type": "Feature", "properties": { "id": "rva-tree:92259", "name": "Quercus robur", "kind": "tree", "species": "Quercus robur", "source": "city_inventory", "tree_height": 16.1, "crown_radius": 3.1, "height_source": "lidar2025" }, "geometry": { "type": "Point", "coordinates": [ 284854.24, 4157886.72 ] } },
{ "type": "Feature", "properties": { "id": "lidar-tree:284898:4157888", "name": null, "kind": "tree", "species": null, "source": "lidar2025", "tree_height": 13.9, "crown_radius": 3.9, "height_source": "lidar2025" }, "geometry": { "type": "Point", "coordinates": [ 284897.5, 4157888.5 ] } },
{ "type": "Feature", "properties": { "id": "rva-tree:92429", "name": "Quercus robur", "kind": "tree", "species": "Quercus robur", "source": "city_inventory", "tree_height": 12.7, "crown_radius": 3.6, "height_source": "lidar2025" }, "geometry": { "type": "Point", "coordinates": [ 284877.03, 4157888.73 ] } },
{ "type": "Feature", "properties": { "id": "rva-tree:392", "name": "Ginkgo biloba", "kind": "tree", "species": "Ginkgo biloba", "source": "city_inventory", "tree_height": 12.7, "crown_radius": 3.9, "height_source": "lidar2025" }, "geometry": { "type": "Point", "coordinates": [ 284899.53, 4157895.23 ] } },
{ "type": "Feature", "properties": { "id": "lidar-tree:284868:4157900", "name": null, "kind": "tree", "species": null, "source": "lidar2025", "tree_height": 4.0, "crown_radius": 2.8, "height_source": "lidar2025" }, "geometry": { "type": "Point", "coordinates": [ 284867.5, 4157900.5 ] } },
{ "type": "Feature", "properties": { "id": "lidar-tree:284926:4157904", "name": null, "kind": "tree", "species": null, "source": "lidar2025", "tree_height": 25.5, "crown_radius": 6.0, "height_source": "lidar2025" }, "geometry": { "type": "Point", "coordinates": [ 284926.5, 4157903.5 ] } },
{ "type": "Feature", "properties": { "id": "lidar-tree:284860:4157908", "name": null, "kind": "tree", "species": null, "source": "lidar2025", "tree_height": 4.0, "crown_radius": 3.5, "height_source": "lidar2025" }, "geometry": { "type": "Point", "coordinates": [ 284859.5, 4157908.5 ] } },
{ "type": "Feature", "properties": { "id": "rva-tree:88354", "name": "Ginkgo biloba", "kind": "tree", "species": "Ginkgo biloba", "source": "city_inventory", "tree_height": 8.0, "crown_radius": 2.5, "height_source": "estimated" }, "geometry": { "type": "Point", "coordinates": [ 284911.31, 4157908.72 ] } },
{ "type": "Feature", "properties": { "id": "rva-tree:13006", "name": "Cornus kousa", "kind": "tree", "species": "Cornus kousa", "source": "city_inventory", "tree_height": 20.4, "crown_radius": 6.0, "height_source": "lidar2025" }, "geometry": { "type": "Point", "coordinates": [ 284915.68, 4157924.7 ] } },
{ "type": "Feature", "properties": { "id": "rva-tree:92257", "name": "Zelkova serrata", "kind": "tree", "species": "Zelkova serrata", "source": "city_inventory", "tree_height": 13.4, "crown_radius": 6.0, "height_source": "lidar2025" }, "geometry": { "type": "Point", "coordinates": [ 284823.11, 4157909.67 ] } },
{ "type": "Feature", "properties": { "id": "rva-tree:92256", "name": "Zelkova serrata", "kind": "tree", "species": "Zelkova serrata", "source": "city_inventory", "tree_height": 12.5, "crown_radius": 6.0, "height_source": "lidar2025" }, "geometry": { "type": "Point", "coordinates": [ 284804.74, 4157910.36 ] } },
{ "type": "Feature", "properties": { "id": "rva-tree:73366", "name": "Quercus robur", "kind": "tree", "species": "Quercus robur", "source": "city_inventory", "tree_height": 15.3, "crown_radius": 3.9, "height_source": "lidar2025" }, "geometry": { "type": "Point", "coordinates": [ 284844.31, 4157910.39 ] } },
{ "type": "Feature", "properties": { "id": "rva-tree:73292", "name": "Ginkgo biloba", "kind": "tree", "species": "Ginkgo biloba", "source": "city_inventory", "tree_height": 8.0, "crown_radius": 2.5, "height_source": "estimated" }, "geometry": { "type": "Point", "coordinates": [ 284819.35, 4157914.9 ] } },
{ "type": "Feature", "properties": { "id": "rva-tree:73291", "name": "Ginkgo biloba", "kind": "tree", "species": "Ginkgo biloba", "source": "city_inventory", "tree_height": 8.0, "crown_radius": 2.5, "height_source": "estimated" }, "geometry": { "type": "Point", "coordinates": [ 284809.17, 4157915.28 ] } },
{ "type": "Feature", "properties": { "id": "rva-tree:92430", "name": "Quercus robur", "kind": "tree", "species": "Quercus robur", "source": "city_inventory", "tree_height": 15.1, "crown_radius": 4.9, "height_source": "lidar2025" }, "geometry": { "type": "Point", "coordinates": [ 284838.32, 4157915.37 ] } },
{ "type": "Feature", "properties": { "id": "rva-tree:92247", "name": "Quercus robur", "kind": "tree", "species": "Quercus robur", "source": "city_inventory", "tree_height": 13.8, "crown_radius": 3.5, "height_source": "lidar2025" }, "geometry": { "type": "Point", "coordinates": [ 284792.35, 4157917.26 ] } },
{ "type": "Feature", "properties": { "id": "rva-tree:73382", "name": "Quercus robur", "kind": "tree", "species": "Quercus robur", "source": "city_inventory", "tree_height": 15.1, "crown_radius": 4.9, "height_source": "lidar2025" }, "geometry": { "type": "Point", "coordinates": [ 284833.23, 4157919.13 ] } },
{ "type": "Feature", "properties": { "id": "rva-tree:73383", "name": "Ginkgo biloba", "kind": "tree", "species": "Ginkgo biloba", "source": "city_inventory", "tree_height": 11.7, "crown_radius": 4.0, "height_source": "lidar2025" }, "geometry": { "type": "Point", "coordinates": [ 284829.75, 4157921.63 ] } },
{ "type": "Feature", "properties": { "id": "rva-tree:92246", "name": "Ginkgo biloba", "kind": "tree", "species": "Ginkgo biloba", "source": "city_inventory", "tree_height": 11.7, "crown_radius": 3.6, "height_source": "lidar2025" }, "geometry": { "type": "Point", "coordinates": [ 284797.1, 4157923.31 ] } },
{ "type": "Feature", "properties": { "id": "rva-tree:13005", "name": "Quercus phellos", "kind": "tree", "species": "Quercus phellos", "source": "city_inventory", "tree_height": 20.4, "crown_radius": 6.0, "height_source": "lidar2025" }, "geometry": { "type": "Point", "coordinates": [ 284919.63, 4157924.83 ] } },
{ "type": "Feature", "properties": { "id": "rva-tree:13007", "name": "Cornus kousa", "kind": "tree", "species": "Cornus kousa", "source": "city_inventory", "tree_height": 8.0, "crown_radius": 2.5, "height_source": "estimated" }, "geometry": { "type": "Point", "coordinates": [ 284912.8, 4157926.77 ] } },
{ "type": "Feature", "properties": { "id": "rva-tree:13008", "name": "Prunus serotina", "kind": "tree", "species": "Prunus serotina", "source": "city_inventory", "tree_height": 8.0, "crown_radius": 2.5, "height_source": "estimated" }, "geometry": { "type": "Point", "coordinates": [ 284910.44, 4157931.51 ] } },
{ "type": "Feature", "properties": { "id": "rva-tree:13004", "name": "Quercus phellos", "kind": "tree", "species": "Quercus phellos", "source": "city_inventory", "tree_height": 17.8, "crown_radius": 6.0, "height_source": "lidar2025" }, "geometry": { "type": "Point", "coordinates": [ 284927.65, 4157932.28 ] } },
{ "type": "Feature", "properties": { "id": "rva-tree:13009", "name": "Cornus kousa", "kind": "tree", "species": "Cornus kousa", "source": "city_inventory", "tree_height": 8.0, "crown_radius": 2.5, "height_source": "estimated" }, "geometry": { "type": "Point", "coordinates": [ 284909.33, 4157935.63 ] } },
{ "type": "Feature", "properties": { "id": "rva-tree:13010", "name": "Cornus kousa", "kind": "tree", "species": "Cornus kousa", "source": "city_inventory", "tree_height": 8.0, "crown_radius": 2.5, "height_source": "estimated" }, "geometry": { "type": "Point", "coordinates": [ 284903.5, 4157941.62 ] } },
{ "type": "Feature", "properties": { "id": "rva-tree:13049", "name": "Crataegus sp.", "kind": "tree", "species": "Crataegus sp.", "source": "city_inventory", "tree_height": 8.0, "crown_radius": 2.5, "height_source": "estimated" }, "geometry": { "type": "Point", "coordinates": [ 284915.82, 4157943.56 ] } },
{ "type": "Feature", "properties": { "id": "rva-tree:13050", "name": "Crataegus sp.", "kind": "tree", "species": "Crataegus sp.", "source": "city_inventory", "tree_height": 8.0, "crown_radius": 2.5, "height_source": "estimated" }, "geometry": { "type": "Point", "coordinates": [ 284913.17, 4157944.22 ] } },
{ "type": "Feature", "properties": { "id": "rva-tree:13051", "name": "Crataegus sp.", "kind": "tree", "species": "Crataegus sp.", "source": "city_inventory", "tree_height": 8.0, "crown_radius": 2.5, "height_source": "estimated" }, "geometry": { "type": "Point", "coordinates": [ 284915.19, 4157945.55 ] } },
{ "type": "Feature", "properties": { "id": "rva-tree:13011", "name": "Styphnolobium japonicum", "kind": "tree", "species": "Styphnolobium japonicum", "source": "city_inventory", "tree_height": 15.5, "crown_radius": 6.0, "height_source": "lidar2025" }, "geometry": { "type": "Point", "coordinates": [ 284899.93, 4157947.81 ] } },
{ "type": "Feature", "properties": { "id": "osm:node/13078975155", "name": null, "kind": "bench", "species": null, "source": null, "tree_height": null, "crown_radius": null, "height_source": null }, "geometry": { "type": "Point", "coordinates": [ 284757.15, 4157838.89 ] } },
{ "type": "Feature", "properties": { "id": "rva-tree:73311", "name": "Ginkgo biloba", "kind": "tree", "species": "Ginkgo biloba", "source": "city_inventory", "tree_height": 8.0, "crown_radius": 2.5, "height_source": "estimated" }, "geometry": { "type": "Point", "coordinates": [ 284757.06, 4157839.45 ] } },
{ "type": "Feature", "properties": { "id": "osm:node/7022526204", "name": null, "kind": "traffic_signals", "species": null, "source": null, "tree_height": null, "crown_radius": null, "height_source": null }, "geometry": { "type": "Point", "coordinates": [ 284750.35, 4157851.24 ] } },
{ "type": "Feature", "properties": { "id": "rva-tree:73289", "name": "Ginkgo biloba", "kind": "tree", "species": "Ginkgo biloba", "source": "city_inventory", "tree_height": 8.7, "crown_radius": 3.6, "height_source": "lidar2025" }, "geometry": { "type": "Point", "coordinates": [ 284759.0, 4157851.66 ] } },
{ "type": "Feature", "properties": { "id": "rva-tree:73290", "name": "Ginkgo biloba", "kind": "tree", "species": "Ginkgo biloba", "source": "city_inventory", "tree_height": 8.7, "crown_radius": 3.6, "height_source": "lidar2025" }, "geometry": { "type": "Point", "coordinates": [ 284760.79, 4157854.14 ] } },
{ "type": "Feature", "properties": { "id": "rva-tree:92264", "name": "Quercus phellos", "kind": "tree", "species": "Quercus phellos", "source": "city_inventory", "tree_height": 16.5, "crown_radius": 5.5, "height_source": "lidar2025" }, "geometry": { "type": "Point", "coordinates": [ 284781.27, 4157818.74 ] } },
{ "type": "Feature", "properties": { "id": "osm:node/13078975154", "name": null, "kind": "bus_stop", "species": null, "source": null, "tree_height": null, "crown_radius": null, "height_source": null }, "geometry": { "type": "Point", "coordinates": [ 284777.4, 4157822.64 ] } },
{ "type": "Feature", "properties": { "id": "rva-tree:92250", "name": "Zelkova serrata", "kind": "tree", "species": "Zelkova serrata", "source": "city_inventory", "tree_height": 11.2, "crown_radius": 5.6, "height_source": "lidar2025" }, "geometry": { "type": "Point", "coordinates": [ 284782.17, 4157881.76 ] } },
{ "type": "Feature", "properties": { "id": "rva-tree:92251", "name": "Zelkova serrata", "kind": "tree", "species": "Zelkova serrata", "source": "city_inventory", "tree_height": 11.2, "crown_radius": 5.6, "height_source": "lidar2025" }, "geometry": { "type": "Point", "coordinates": [ 284785.41, 4157885.04 ] } },
{ "type": "Feature", "properties": { "id": "rva-tree:73287", "name": "Quercus robur", "kind": "tree", "species": "Quercus robur", "source": "city_inventory", "tree_height": 14.8, "crown_radius": 4.1, "height_source": "lidar2025" }, "geometry": { "type": "Point", "coordinates": [ 284776.96, 4157898.61 ] } },
{ "type": "Feature", "properties": { "id": "rva-tree:92252", "name": "Zelkova serrata", "kind": "tree", "species": "Zelkova serrata", "source": "city_inventory", "tree_height": 12.5, "crown_radius": 6.0, "height_source": "lidar2025" }, "geometry": { "type": "Point", "coordinates": [ 284797.91, 4157901.55 ] } },
{ "type": "Feature", "properties": { "id": "rva-tree:73269", "name": "Quercus robur", "kind": "tree", "species": "Quercus robur", "source": "city_inventory", "tree_height": 13.9, "crown_radius": 3.1, "height_source": "lidar2025" }, "geometry": { "type": "Point", "coordinates": [ 284781.63, 4157903.23 ] } },
{ "type": "Feature", "properties": { "id": "rva-tree:92255", "name": "Zelkova serrata", "kind": "tree", "species": "Zelkova serrata", "source": "city_inventory", "tree_height": 12.5, "crown_radius": 6.0, "height_source": "lidar2025" }, "geometry": { "type": "Point", "coordinates": [ 284801.13, 4157904.55 ] } },
{ "type": "Feature", "properties": { "id": "rva-tree:92258", "name": "Zelkova serrata", "kind": "tree", "species": "Zelkova serrata", "source": "city_inventory", "tree_height": 13.4, "crown_radius": 6.0, "height_source": "lidar2025" }, "geometry": { "type": "Point", "coordinates": [ 284825.59, 4157907.88 ] } },
{ "type": "Feature", "properties": { "id": "rva-tree:73268", "name": "Quercus robur", "kind": "tree", "species": "Quercus robur", "source": "city_inventory", "tree_height": 13.5, "crown_radius": 3.0, "height_source": "lidar2025" }, "geometry": { "type": "Point", "coordinates": [ 284785.5, 4157908.18 ] } },
{ "type": "Feature", "properties": { "id": "rva-tree:63903", "name": "Zelkova serrata", "kind": "tree", "species": "Zelkova serrata", "source": "city_inventory", "tree_height": 10.6, "crown_radius": 5.1, "height_source": "lidar2025" }, "geometry": { "type": "Point", "coordinates": [ 284752.84, 4157866.4 ] } },
{ "type": "Feature", "properties": { "id": "rva-tree:63879", "name": "Zelkova serrata", "kind": "tree", "species": "Zelkova serrata", "source": "city_inventory", "tree_height": 10.7, "crown_radius": 5.3, "height_source": "lidar2025" }, "geometry": { "type": "Point", "coordinates": [ 284758.45, 4157872.7 ] } },
{ "type": "Feature", "properties": { "id": "rva-tree:63884", "name": "Zelkova serrata", "kind": "tree", "species": "Zelkova serrata", "source": "city_inventory", "tree_height": 10.7, "crown_radius": 5.3, "height_source": "lidar2025" }, "geometry": { "type": "Point", "coordinates": [ 284761.75, 4157877.67 ] } },
{ "type": "Feature", "properties": { "id": "rva-tree:63902", "name": "Zelkova serrata", "kind": "tree", "species": "Zelkova serrata", "source": "city_inventory", "tree_height": 11.4, "crown_radius": 5.4, "height_source": "lidar2025" }, "geometry": { "type": "Point", "coordinates": [ 284767.36, 4157883.97 ] } },
{ "type": "Feature", "properties": { "id": "rva-tree:92248", "name": "Zelkova serrata", "kind": "tree", "species": "Zelkova serrata", "source": "city_inventory", "tree_height": 11.4, "crown_radius": 5.4, "height_source": "lidar2025" }, "geometry": { "type": "Point", "coordinates": [ 284773.05, 4157892.25 ] } },
{ "type": "Feature", "properties": { "id": "rva-tree:73265", "name": "Quercus robur", "kind": "tree", "species": "Quercus robur", "source": "city_inventory", "tree_height": 13.2, "crown_radius": 2.8, "height_source": "lidar2025" }, "geometry": { "type": "Point", "coordinates": [ 284771.03, 4157949.04 ] } },
{ "type": "Feature", "properties": { "id": "rva-tree:73264", "name": "Quercus robur", "kind": "tree", "species": "Quercus robur", "source": "city_inventory", "tree_height": 12.4, "crown_radius": 2.7, "height_source": "lidar2025" }, "geometry": { "type": "Point", "coordinates": [ 284764.73, 4157954.66 ] } },
{ "type": "Feature", "properties": { "id": "rva-tree:73260", "name": "Quercus robur", "kind": "tree", "species": "Quercus robur", "source": "city_inventory", "tree_height": 9.2, "crown_radius": 3.2, "height_source": "lidar2025" }, "geometry": { "type": "Point", "coordinates": [ 284759.26, 4157959.67 ] } },
{ "type": "Feature", "properties": { "id": "rva-tree:92245", "name": "Quercus robur", "kind": "tree", "species": "Quercus robur", "source": "city_inventory", "tree_height": 10.4, "crown_radius": 3.8, "height_source": "lidar2025" }, "geometry": { "type": "Point", "coordinates": [ 284752.91, 4157964.15 ] } },
{ "type": "Feature", "properties": { "id": "rva-tree:92437", "name": "Ulmus parvifolia", "kind": "tree", "species": "Ulmus parvifolia", "source": "city_inventory", "tree_height": 12.1, "crown_radius": 6.0, "height_source": "lidar2025" }, "geometry": { "type": "Point", "coordinates": [ 284766.5, 4157975.89 ] } },
{ "type": "Feature", "properties": { "id": "lidar-tree:284954:4157928", "name": null, "kind": "tree", "species": null, "source": "lidar2025", "tree_height": 19.0, "crown_radius": 6.0, "height_source": "lidar2025" }, "geometry": { "type": "Point", "coordinates": [ 284953.5, 4157927.5 ] } },
{ "type": "Feature", "properties": { "id": "lidar-tree:284992:4157928", "name": null, "kind": "tree", "species": null, "source": "lidar2025", "tree_height": 19.7, "crown_radius": 6.0, "height_source": "lidar2025" }, "geometry": { "type": "Point", "coordinates": [ 284991.5, 4157928.5 ] } },
{ "type": "Feature", "properties": { "id": "rva-tree:13003", "name": "Quercus phellos", "kind": "tree", "species": "Quercus phellos", "source": "city_inventory", "tree_height": 20.2, "crown_radius": 6.0, "height_source": "lidar2025" }, "geometry": { "type": "Point", "coordinates": [ 284934.07, 4157942.17 ] } },
{ "type": "Feature", "properties": { "id": "lidar-tree:284970:4157948", "name": null, "kind": "tree", "species": null, "source": "lidar2025", "tree_height": 20.6, "crown_radius": 6.0, "height_source": "lidar2025" }, "geometry": { "type": "Point", "coordinates": [ 284969.5, 4157947.5 ] } },
{ "type": "Feature", "properties": { "id": "osm:node/13078983820", "name": null, "kind": "bench", "species": null, "source": null, "tree_height": null, "crown_radius": null, "height_source": null }, "geometry": { "type": "Point", "coordinates": [ 284964.07, 4157947.85 ] } },
{ "type": "Feature", "properties": { "id": "rva-tree:13002", "name": "Quercus phellos", "kind": "tree", "species": "Quercus phellos", "source": "city_inventory", "tree_height": 23.2, "crown_radius": 6.0, "height_source": "lidar2025" }, "geometry": { "type": "Point", "coordinates": [ 284939.95, 4157948.99 ] } },
{ "type": "Feature", "properties": { "id": "rva-tree:13001", "name": "Quercus phellos", "kind": "tree", "species": "Quercus phellos", "source": "city_inventory", "tree_height": 23.2, "crown_radius": 6.0, "height_source": "lidar2025" }, "geometry": { "type": "Point", "coordinates": [ 284943.66, 4157954.06 ] } },
{ "type": "Feature", "properties": { "id": "rva-tree:94780", "name": "Quercus phellos", "kind": "tree", "species": "Quercus phellos", "source": "city_inventory", "tree_height": 14.9, "crown_radius": 5.7, "height_source": "lidar2025" }, "geometry": { "type": "Point", "coordinates": [ 284998.94, 4157956.42 ] } },
{ "type": "Feature", "properties": { "id": "rva-tree:13000", "name": "Quercus phellos", "kind": "tree", "species": "Quercus phellos", "source": "city_inventory", "tree_height": 24.3, "crown_radius": 6.0, "height_source": "lidar2025" }, "geometry": { "type": "Point", "coordinates": [ 284949.17, 4157962.02 ] } },
{ "type": "Feature", "properties": { "id": "rva-tree:13052", "name": "Nyssa sylvatica", "kind": "tree", "species": "Nyssa sylvatica", "source": "city_inventory", "tree_height": 8.0, "crown_radius": 2.5, "height_source": "estimated" }, "geometry": { "type": "Point", "coordinates": [ 284912.23, 4157949.18 ] } },
{ "type": "Feature", "properties": { "id": "rva-tree:13012", "name": "Cornus kousa", "kind": "tree", "species": "Cornus kousa", "source": "city_inventory", "tree_height": 15.5, "crown_radius": 6.0, "height_source": "lidar2025" }, "geometry": { "type": "Point", "coordinates": [ 284898.26, 4157952.23 ] } },
{ "type": "Feature", "properties": { "id": "rva-tree:13048", "name": "Zelkova serrata", "kind": "tree", "species": "Zelkova serrata", "source": "city_inventory", "tree_height": 13.3, "crown_radius": 6.0, "height_source": "lidar2025" }, "geometry": { "type": "Point", "coordinates": [ 284916.15, 4157952.55 ] } },
{ "type": "Feature", "properties": { "id": "rva-tree:13013", "name": "Cornus kousa", "kind": "tree", "species": "Cornus kousa", "source": "city_inventory", "tree_height": 8.0, "crown_radius": 2.5, "height_source": "estimated" }, "geometry": { "type": "Point", "coordinates": [ 284895.41, 4157955.01 ] } },
{ "type": "Feature", "properties": { "id": "rva-tree:13053", "name": "Zelkova serrata", "kind": "tree", "species": "Zelkova serrata", "source": "city_inventory", "tree_height": 8.0, "crown_radius": 2.5, "height_source": "estimated" }, "geometry": { "type": "Point", "coordinates": [ 284911.1, 4157956.68 ] } },
{ "type": "Feature", "properties": { "id": "rva-tree:13047", "name": "Zelkova serrata", "kind": "tree", "species": "Zelkova serrata", "source": "city_inventory", "tree_height": 8.0, "crown_radius": 2.5, "height_source": "estimated" }, "geometry": { "type": "Point", "coordinates": [ 284916.82, 4157959.0 ] } },
{ "type": "Feature", "properties": { "id": "rva-tree:13014", "name": "Fraxinus pennsylvanica", "kind": "tree", "species": "Fraxinus pennsylvanica", "source": "city_inventory", "tree_height": 13.4, "crown_radius": 6.0, "height_source": "lidar2025" }, "geometry": { "type": "Point", "coordinates": [ 284886.9, 4157960.96 ] } },
{ "type": "Feature", "properties": { "id": "rva-tree:13054", "name": "Quercus phellos", "kind": "tree", "species": "Quercus phellos", "source": "city_inventory", "tree_height": 13.8, "crown_radius": 6.0, "height_source": "lidar2025" }, "geometry": { "type": "Point", "coordinates": [ 284908.41, 4157963.82 ] } },
{ "type": "Feature", "properties": { "id": "rva-tree:13055", "name": "Quercus phellos", "kind": "tree", "species": "Quercus phellos", "source": "city_inventory", "tree_height": 16.5, "crown_radius": 6.0, "height_source": "lidar2025" }, "geometry": { "type": "Point", "coordinates": [ 284901.38, 4157964.08 ] } },
{ "type": "Feature", "properties": { "id": "rva-tree:13015", "name": "Styphnolobium japonicum", "kind": "tree", "species": "Styphnolobium japonicum", "source": "city_inventory", "tree_height": 14.3, "crown_radius": 6.0, "height_source": "lidar2025" }, "geometry": { "type": "Point", "coordinates": [ 284880.84, 4157964.57 ] } },
{ "type": "Feature", "properties": { "id": "osm:node/973647288", "name": null, "kind": "traffic_signals", "species": null, "source": null, "tree_height": null, "crown_radius": null, "height_source": null }, "geometry": { "type": "Point", "coordinates": [ 284812.87, 4157929.06 ] } },
{ "type": "Feature", "properties": { "id": "rva-tree:92431", "name": "Ulmus parvifolia", "kind": "tree", "species": "Ulmus parvifolia", "source": "city_inventory", "tree_height": 8.0, "crown_radius": 2.5, "height_source": "estimated" }, "geometry": { "type": "Point", "coordinates": [ 284806.62, 4157945.32 ] } },
{ "type": "Feature", "properties": { "id": "rva-tree:73266", "name": "Quercus robur", "kind": "tree", "species": "Quercus robur", "source": "city_inventory", "tree_height": 13.2, "crown_radius": 2.8, "height_source": "lidar2025" }, "geometry": { "type": "Point", "coordinates": [ 284775.43, 4157945.48 ] } },
{ "type": "Feature", "properties": { "id": "rva-tree:92432", "name": "Ulmus parvifolia", "kind": "tree", "species": "Ulmus parvifolia", "source": "city_inventory", "tree_height": 11.1, "crown_radius": 6.0, "height_source": "lidar2025" }, "geometry": { "type": "Point", "coordinates": [ 284801.36, 4157950.99 ] } },
{ "type": "Feature", "properties": { "id": "rva-tree:92435", "name": "Ulmus parvifolia", "kind": "tree", "species": "Ulmus parvifolia", "source": "city_inventory", "tree_height": 11.3, "crown_radius": 6.0, "height_source": "lidar2025" }, "geometry": { "type": "Point", "coordinates": [ 284793.51, 4157956.98 ] } },
{ "type": "Feature", "properties": { "id": "rva-tree:92436", "name": "Ulmus parvifolia", "kind": "tree", "species": "Ulmus parvifolia", "source": "city_inventory", "tree_height": 11.3, "crown_radius": 6.0, "height_source": "lidar2025" }, "geometry": { "type": "Point", "coordinates": [ 284786.61, 4157960.74 ] } },
{ "type": "Feature", "properties": { "id": "rva-tree:13016", "name": "Quercus robur", "kind": "tree", "species": "Quercus robur", "source": "city_inventory", "tree_height": 14.5, "crown_radius": 3.9, "height_source": "lidar2025" }, "geometry": { "type": "Point", "coordinates": [ 284844.33, 4157989.58 ] } },
{ "type": "Feature", "properties": { "id": "rva-tree:13017", "name": "Quercus robur", "kind": "tree", "species": "Quercus robur", "source": "city_inventory", "tree_height": 14.5, "crown_radius": 3.9, "height_source": "lidar2025" }, "geometry": { "type": "Point", "coordinates": [ 284846.4, 4157992.45 ] } },
{ "type": "Feature", "properties": { "id": "rva-tree:13018", "name": "Quercus robur", "kind": "tree", "species": "Quercus robur", "source": "city_inventory", "tree_height": 14.5, "crown_radius": 3.9, "height_source": "lidar2025" }, "geometry": { "type": "Point", "coordinates": [ 284850.08, 4157996.54 ] } },
{ "type": "Feature", "properties": { "id": "rva-tree:13020", "name": "Thuja spp.", "kind": "tree", "species": "Thuja spp.", "source": "city_inventory", "tree_height": 14.5, "crown_radius": 3.9, "height_source": "lidar2025" }, "geometry": { "type": "Point", "coordinates": [ 284842.34, 4157996.69 ] } },
{ "type": "Feature", "properties": { "id": "rva-tree:94782", "name": "Quercus phellos", "kind": "tree", "species": "Quercus phellos", "source": "city_inventory", "tree_height": 13.0, "crown_radius": 6.0, "height_source": "lidar2025" }, "geometry": { "type": "Point", "coordinates": [ 284990.99, 4157963.23 ] } },
{ "type": "Feature", "properties": { "id": "rva-tree:13044", "name": "Quercus phellos", "kind": "tree", "species": "Quercus phellos", "source": "city_inventory", "tree_height": 24.3, "crown_radius": 6.0, "height_source": "lidar2025" }, "geometry": { "type": "Point", "coordinates": [ 284942.39, 4157965.37 ] } },
{ "type": "Feature", "properties": { "id": "rva-tree:13063", "name": "Quercus phellos", "kind": "tree", "species": "Quercus phellos", "source": "city_inventory", "tree_height": 24.3, "crown_radius": 6.0, "height_source": "lidar2025" }, "geometry": { "type": "Point", "coordinates": [ 284948.88, 4157965.69 ] } },
{ "type": "Feature", "properties": { "id": "rva-tree:94774", "name": "Quercus phellos", "kind": "tree", "species": "Quercus phellos", "source": "city_inventory", "tree_height": 13.9, "crown_radius": 5.9, "height_source": "lidar2025" }, "geometry": { "type": "Point", "coordinates": [ 284984.36, 4157966.0 ] } },
{ "type": "Feature", "properties": { "id": "rva-tree:13043", "name": "Quercus phellos", "kind": "tree", "species": "Quercus phellos", "source": "city_inventory", "tree_height": 22.1, "crown_radius": 6.0, "height_source": "lidar2025" }, "geometry": { "type": "Point", "coordinates": [ 284937.02, 4157968.67 ] } },
{ "type": "Feature", "properties": { "id": "rva-tree:13062", "name": "Quercus phellos", "kind": "tree", "species": "Quercus phellos", "source": "city_inventory", "tree_height": 8.0, "crown_radius": 2.5, "height_source": "estimated" }, "geometry": { "type": "Point", "coordinates": [ 284942.34, 4157971.43 ] } },
{ "type": "Feature", "properties": { "id": "rva-tree:13042", "name": "Quercus phellos", "kind": "tree", "species": "Quercus phellos", "source": "city_inventory", "tree_height": 22.1, "crown_radius": 6.0, "height_source": "lidar2025" }, "geometry": { "type": "Point", "coordinates": [ 284932.08, 4157971.95 ] } },
{ "type": "Feature", "properties": { "id": "rva-tree:13061", "name": "Quercus phellos", "kind": "tree", "species": "Quercus phellos", "source": "city_inventory", "tree_height": 22.1, "crown_radius": 6.0, "height_source": "lidar2025" }, "geometry": { "type": "Point", "coordinates": [ 284937.53, 4157974.56 ] } },
{ "type": "Feature", "properties": { "id": "rva-tree:13060", "name": "Quercus phellos", "kind": "tree", "species": "Quercus phellos", "source": "city_inventory", "tree_height": 20.9, "crown_radius": 6.0, "height_source": "lidar2025" }, "geometry": { "type": "Point", "coordinates": [ 284932.77, 4157979.25 ] } },
{ "type": "Feature", "properties": { "id": "rva-tree:13056", "name": "Fraxinus pennsylvanica", "kind": "tree", "species": "Fraxinus pennsylvanica", "source": "city_inventory", "tree_height": 16.5, "crown_radius": 6.0, "height_source": "lidar2025" }, "geometry": { "type": "Point", "coordinates": [ 284895.79, 4157965.14 ] } },
{ "type": "Feature", "properties": { "id": "rva-tree:13046", "name": "Quercus phellos", "kind": "tree", "species": "Quercus phellos", "source": "city_inventory", "tree_height": 13.8, "crown_radius": 6.0, "height_source": "lidar2025" }, "geometry": { "type": "Point", "coordinates": [ 284914.58, 4157966.97 ] } },
{ "type": "Feature", "properties": { "id": "rva-tree:13045", "name": "Quercus phellos", "kind": "tree", "species": "Quercus phellos", "source": "city_inventory", "tree_height": 8.0, "crown_radius": 2.5, "height_source": "estimated" }, "geometry": { "type": "Point", "coordinates": [ 284918.98, 4157971.87 ] } },
{ "type": "Feature", "properties": { "id": "rva-tree:13041", "name": "Quercus phellos", "kind": "tree", "species": "Quercus phellos", "source": "city_inventory", "tree_height": 20.8, "crown_radius": 6.0, "height_source": "lidar2025" }, "geometry": { "type": "Point", "coordinates": [ 284923.14, 4157977.77 ] } },
{ "type": "Feature", "properties": { "id": "rva-tree:13030", "name": "Quercus robur", "kind": "tree", "species": "Quercus robur", "source": "city_inventory", "tree_height": 11.7, "crown_radius": 3.6, "height_source": "lidar2025" }, "geometry": { "type": "Point", "coordinates": [ 284874.33, 4157982.41 ] } },
{ "type": "Feature", "properties": { "id": "rva-tree:13029", "name": "Quercus robur", "kind": "tree", "species": "Quercus robur", "source": "city_inventory", "tree_height": 15.0, "crown_radius": 4.8, "height_source": "lidar2025" }, "geometry": { "type": "Point", "coordinates": [ 284876.42, 4157985.71 ] } },
{ "type": "Feature", "properties": { "id": "rva-tree:13031", "name": "Quercus robur", "kind": "tree", "species": "Quercus robur", "source": "city_inventory", "tree_height": 11.7, "crown_radius": 3.6, "height_source": "lidar2025" }, "geometry": { "type": "Point", "coordinates": [ 284870.09, 4157985.8 ] } },
{ "type": "Feature", "properties": { "id": "rva-tree:13040", "name": "Quercus phellos", "kind": "tree", "species": "Quercus phellos", "source": "city_inventory", "tree_height": 20.5, "crown_radius": 6.0, "height_source": "lidar2025" }, "geometry": { "type": "Point", "coordinates": [ 284917.27, 4157986.3 ] } },
{ "type": "Feature", "properties": { "id": "rva-tree:13032", "name": "Quercus robur", "kind": "tree", "species": "Quercus robur", "source": "city_inventory", "tree_height": 11.7, "crown_radius": 3.6, "height_source": "lidar2025" }, "geometry": { "type": "Point", "coordinates": [ 284872.44, 4157988.53 ] } },
{ "type": "Feature", "properties": { "id": "rva-tree:13028", "name": "Quercus robur", "kind": "tree", "species": "Quercus robur", "source": "city_inventory", "tree_height": 15.0, "crown_radius": 4.8, "height_source": "lidar2025" }, "geometry": { "type": "Point", "coordinates": [ 284878.84, 4157990.12 ] } },
{ "type": "Feature", "properties": { "id": "rva-tree:94773", "name": "Quercus phellos", "kind": "tree", "species": "Quercus phellos", "source": "city_inventory", "tree_height": 23.4, "crown_radius": 6.0, "height_source": "lidar2025" }, "geometry": { "type": "Point", "coordinates": [ 284976.09, 4157986.54 ] } },
{ "type": "Feature", "properties": { "id": "rva-tree:13075", "name": "Quercus phellos", "kind": "tree", "species": "Quercus phellos", "source": "city_inventory", "tree_height": 24.6, "crown_radius": 6.0, "height_source": "lidar2025" }, "geometry": { "type": "Point", "coordinates": [ 284963.24, 4157988.39 ] } },
{ "type": "Feature", "properties": { "id": "rva-tree:13074", "name": "Quercus phellos", "kind": "tree", "species": "Quercus phellos", "source": "city_inventory", "tree_height": 24.6, "crown_radius": 6.0, "height_source": "lidar2025" }, "geometry": { "type": "Point", "coordinates": [ 284969.34, 4157989.57 ] } },
{ "type": "Feature", "properties": { "id": "rva-tree:96136", "name": "Quercus phellos", "kind": "tree", "species": "Quercus phellos", "source": "city_inventory", "tree_height": 23.4, "crown_radius": 6.0, "height_source": "lidar2025" }, "geometry": { "type": "Point", "coordinates": [ 284977.75, 4157990.16 ] } },
{ "type": "Feature", "properties": { "id": "rva-tree:13058", "name": "Lagerstroemia indica", "kind": "tree", "species": "Lagerstroemia indica", "source": "city_inventory", "tree_height": 7.8, "crown_radius": 5.8, "height_source": "lidar2025" }, "geometry": { "type": "Point", "coordinates": [ 284929.97, 4157991.03 ] } },
{ "type": "Feature", "properties": { "id": "rva-tree:13059", "name": "Lagerstroemia indica", "kind": "tree", "species": "Lagerstroemia indica", "source": "city_inventory", "tree_height": 7.8, "crown_radius": 5.8, "height_source": "lidar2025" }, "geometry": { "type": "Point", "coordinates": [ 284935.97, 4157993.2 ] } },
{ "type": "Feature", "properties": { "id": "rva-tree:13073", "name": "Quercus phellos", "kind": "tree", "species": "Quercus phellos", "source": "city_inventory", "tree_height": 8.0, "crown_radius": 2.5, "height_source": "estimated" }, "geometry": { "type": "Point", "coordinates": [ 284974.82, 4157993.31 ] } },
{ "type": "Feature", "properties": { "id": "rva-tree:94766", "name": "Quercus phellos", "kind": "tree", "species": "Quercus phellos", "source": "city_inventory", "tree_height": 8.0, "crown_radius": 2.5, "height_source": "estimated" }, "geometry": { "type": "Point", "coordinates": [ 284979.83, 4157993.98 ] } },
{ "type": "Feature", "properties": { "id": "lidar-tree:284954:4157994", "name": null, "kind": "tree", "species": null, "source": "lidar2025", "tree_height": 25.5, "crown_radius": 6.0, "height_source": "lidar2025" }, "geometry": { "type": "Point", "coordinates": [ 284954.5, 4157994.5 ] } },
{ "type": "Feature", "properties": { "id": "rva-tree:13072", "name": "Quercus phellos", "kind": "tree", "species": "Quercus phellos", "source": "city_inventory", "tree_height": 8.0, "crown_radius": 2.5, "height_source": "estimated" }, "geometry": { "type": "Point", "coordinates": [ 284976.71, 4157998.59 ] } },
{ "type": "Feature", "properties": { "id": "rva-tree:13039", "name": "Quercus phellos", "kind": "tree", "species": "Quercus phellos", "source": "city_inventory", "tree_height": 20.5, "crown_radius": 6.0, "height_source": "lidar2025" }, "geometry": { "type": "Point", "coordinates": [ 284912.64, 4157990.55 ] } },
{ "type": "Feature", "properties": { "id": "rva-tree:13035", "name": "Quercus phellos", "kind": "tree", "species": "Quercus phellos", "source": "city_inventory", "tree_height": 8.0, "crown_radius": 2.5, "height_source": "estimated" }, "geometry": { "type": "Point", "coordinates": [ 284888.62, 4157992.01 ] } },
{ "type": "Feature", "properties": { "id": "rva-tree:13033", "name": "Quercus robur", "kind": "tree", "species": "Quercus robur", "source": "city_inventory", "tree_height": 15.0, "crown_radius": 4.8, "height_source": "lidar2025" }, "geometry": { "type": "Point", "coordinates": [ 284874.7, 4157992.39 ] } },
{ "type": "Feature", "properties": { "id": "rva-tree:13038", "name": "Quercus phellos", "kind": "tree", "species": "Quercus phellos", "source": "city_inventory", "tree_height": 19.3, "crown_radius": 6.0, "height_source": "lidar2025" }, "geometry": { "type": "Point", "coordinates": [ 284906.4, 4157993.04 ] } },
{ "type": "Feature", "properties": { "id": "rva-tree:13027", "name": "Quercus robur", "kind": "tree", "species": "Quercus robur", "source": "city_inventory", "tree_height": 15.0, "crown_radius": 4.8, "height_source": "lidar2025" }, "geometry": { "type": "Point", "coordinates": [ 284880.78, 4157993.15 ] } },
{ "type": "Feature", "properties": { "id": "rva-tree:13037", "name": "Quercus phellos", "kind": "tree", "species": "Quercus phellos", "source": "city_inventory", "tree_height": 8.0, "crown_radius": 2.5, "height_source": "estimated" }, "geometry": { "type": "Point", "coordinates": [ 284897.54, 4157993.23 ] } },
{ "type": "Feature", "properties": { "id": "rva-tree:13036", "name": "Quercus phellos", "kind": "tree", "species": "Quercus phellos", "source": "city_inventory", "tree_height": 8.0, "crown_radius": 2.5, "height_source": "estimated" }, "geometry": { "type": "Point", "coordinates": [ 284891.43, 4157995.57 ] } },
{ "type": "Feature", "properties": { "id": "rva-tree:13034", "name": "Quercus robur", "kind": "tree", "species": "Quercus robur", "source": "city_inventory", "tree_height": 15.0, "crown_radius": 4.8, "height_source": "lidar2025" }, "geometry": { "type": "Point", "coordinates": [ 284876.96, 4157996.53 ] } },
{ "type": "Feature", "properties": { "id": "rva-tree:13026", "name": "Quercus robur", "kind": "tree", "species": "Quercus robur", "source": "city_inventory", "tree_height": 17.9, "crown_radius": 5.4, "height_source": "lidar2025" }, "geometry": { "type": "Point", "coordinates": [ 284883.18, 4157997.14 ] } },
{ "type": "Feature", "properties": { "id": "rva-tree:96135", "name": "Quercus phellos", "kind": "tree", "species": "Quercus phellos", "source": "city_inventory", "tree_height": 7.2, "crown_radius": 4.2, "height_source": "lidar2025" }, "geometry": { "type": "Point", "coordinates": [ 284989.77, 4157999.02 ] } },
{ "type": "Feature", "properties": { "id": "rva-tree:13057", "name": "Lagerstroemia indica", "kind": "tree", "species": "Lagerstroemia indica", "source": "city_inventory", "tree_height": 6.3, "crown_radius": 5.0, "height_source": "lidar2025" }, "geometry": { "type": "Point", "coordinates": [ 284929.45, 4157999.78 ] } },
{ "type": "Feature", "properties": { "id": "rva-tree:13019", "name": "Quercus robur", "kind": "tree", "species": "Quercus robur", "source": "city_inventory", "tree_height": 8.0, "crown_radius": 2.5, "height_source": "estimated" }, "geometry": { "type": "Point", "coordinates": [ 284852.54, 4157998.56 ] } },
{ "type": "Feature", "properties": { "id": "rva-tree:13021", "name": "Thuja spp.", "kind": "tree", "species": "Thuja spp.", "source": "city_inventory", "tree_height": 14.5, "crown_radius": 3.9, "height_source": "lidar2025" }, "geometry": { "type": "Point", "coordinates": [ 284844.82, 4157999.13 ] } },
{ "type": "Feature", "properties": { "id": "rva-tree:94642", "name": "Ulmus parvifolia", "kind": "tree", "species": "Ulmus parvifolia", "source": "city_inventory", "tree_height": 12.1, "crown_radius": 6.0, "height_source": "lidar2025" }, "geometry": { "type": "Point", "coordinates": [ 284760.16, 4157980.72 ] } }
]
}
