{
"type": "FeatureCollection",
"name": "water",
"crs": { "type": "name", "properties": { "name": "urn:ogc:def:crs:EPSG::32618" } },
"xy_coordinate_resolution": 0.01,
"features": [
{ "type": "Feature", "properties": { "id": "noaa:Rivers:7", "name": "James River", "kind": "river", "water_z": null, "source": "noaa2025" }, "geometry": { "type": "Polygon", "coordinates": [ [ [ 281010.16, 4156763.89 ], [ 281014.42, 4156757.38 ], [ 281017.9, 4156754.16 ], [ 281022.73, 4156750.51 ], [ 281023.45, 4156750.0 ], [ 281000.0, 4156750.0 ], [ 281000.0, 4156773.55 ], [ 281002.0, 4156772.68 ], [ 281010.16, 4156763.89 ] ] ] } },
{ "type": "Feature", "properties": { "id": "osm:relation/4117093", "name": null, "kind": "pond", "water_z": 25.89, "source": null }, "geometry": { "type": "Polygon", "coordinates": [ [ [ 281228.52, 4156786.27 ], [ 281225.91, 4156786.46 ], [ 281221.75, 4156794.96 ], [ 281207.03, 4156803.37 ], [ 281197.04, 4156811.79 ], [ 281192.97, 4156823.82 ], [ 281178.86, 4156832.58 ], [ 281159.59, 4156839.7 ], [ 281153.65, 4156848.01 ], [ 281145.32, 4156851.62 ], [ 281154.29, 4156859.09 ], [ 281159.26, 4156858.6 ], [ 281159.12, 4156853.17 ], [ 281157.13, 4156849.68 ], [ 281159.7, 4156843.71 ], [ 281163.31, 4156841.03 ], [ 281176.11, 4156841.15 ], [ 281177.68, 4156841.93 ], [ 281178.26, 4156846.06 ], [ 281175.56, 4156847.08 ], [ 281169.76, 4156856.44 ], [ 281163.91, 4156859.54 ], [ 281171.11, 4156862.54 ], [ 281187.83, 4156858.09 ], [ 281190.98, 4156865.09 ], [ 281185.41, 4156869.6 ], [ 281184.69, 4156874.11 ], [ 281187.21, 4156875.11 ], [ 281192.54, 4156874.74 ], [ 281191.59, 4156870.27 ], [ 281192.56, 4156866.46 ], [ 281195.01, 4156864.74 ], [ 281198.78, 4156863.94 ], [ 281202.25, 4156865.15 ], [ 281204.22, 4156868.04 ], [ 281204.32, 4156871.83 ], [ 281213.94, 4156867.79 ], [ 281214.1, 4156864.84 ], [ 281234.16, 4156847.42 ], [ 281239.79, 4156836.17 ], [ 281245.43, 4156834.25 ], [ 281248.32, 4156835.71 ], [ 281250.0, 4156831.35 ], [ 281250.0, 4156826.55 ], [ 281242.03, 4156808.47 ], [ 281235.3, 4156800.74 ], [ 281230.87, 4156798.97 ], [ 281229.76, 4156788.37 ], [ 281228.52, 4156786.27 ] ], [ [ 281228.75, 4156840.12 ], [ 281223.31, 4156845.57 ], [ 281216.95, 4156846.93 ], [ 281209.43, 4156853.86 ], [ 281208.43, 4156856.59 ], [ 281203.26, 4156858.51 ], [ 281191.53, 4156850.08 ], [ 281192.24, 4156845.45 ], [ 281196.57, 4156843.09 ], [ 281197.53, 4156838.81 ], [ 281203.2, 4156833.59 ], [ 281204.65, 4156830.24 ], [ 281204.09, 4156822.58 ], [ 281205.71, 4156821.01 ], [ 281207.81, 4156819.76 ], [ 281216.58, 4156823.91 ], [ 281227.21, 4156813.23 ], [ 281233.37, 4156812.17 ], [ 281236.54, 4156816.05 ], [ 281235.15, 4156821.89 ], [ 281226.48, 4156835.22 ], [ 281228.75, 4156840.12 ] ] ] } },
{ "type": "Feature", "properties": { "id": "osm:way/236150532", "name": null, "kind": "canal", "water_z": 26.63, "source": null }, "geometry": { "type": "Polygon", "coordinates": [ [ [ 281138.31, 4156922.96 ], [ 281143.53, 4156912.8 ], [ 281133.98, 4156888.98 ], [ 281138.61, 4156882.2 ], [ 281138.42, 4156871.92 ], [ 281141.55, 4156858.01 ], [ 281147.28, 4156852.05 ], [ 281145.37, 4156849.62 ], [ 281137.77, 4156856.39 ], [ 281134.42, 4156871.39 ], [ 281134.66, 4156880.84 ], [ 281131.01, 4156884.34 ], [ 281129.9, 4156889.11 ], [ 281139.32, 4156912.85 ], [ 281134.11, 4156922.76 ], [ 281137.46, 4156931.94 ], [ 281138.6, 4156941.38 ], [ 281135.04, 4156957.24 ], [ 281136.37, 4156959.4 ], [ 281138.92, 4156958.16 ], [ 281142.64, 4156941.53 ], [ 281141.36, 4156930.98 ], [ 281138.31, 4156922.96 ] ] ] } },
{ "type": "Feature", "properties": { "id": "osm:way/303523717", "name": "Kanawha Canal", "kind": "canal", "water_z": 25.26, "source": null }, "geometry": { "type": "Polygon", "coordinates": [ [ [ 281105.49, 4156826.65 ], [ 281163.39, 4156796.59 ], [ 281196.91, 4156771.53 ], [ 281217.9, 4156750.0 ], [ 281204.03, 4156750.0 ], [ 281190.6, 4156763.76 ], [ 281158.07, 4156788.11 ], [ 281101.14, 4156817.64 ], [ 281038.29, 4156841.73 ], [ 281000.0, 4156852.61 ], [ 281000.0, 4156862.99 ], [ 281041.66, 4156851.15 ], [ 281105.49, 4156826.65 ] ] ] } }
]
}
