{
"type": "FeatureCollection",
"name": "water",
"crs": { "type": "name", "properties": { "name": "urn:ogc:def:crs:EPSG::32618" } },
"xy_coordinate_resolution": 0.01,
"features": [
{ "type": "Feature", "properties": { "id": "osm:way/1198306688", "name": null, "kind": "canal", "water_z": 40.4, "source": null }, "geometry": { "type": "Polygon", "coordinates": [ [ [ 280605.79, 4157450.32 ], [ 280605.0, 4157447.35 ], [ 280601.51, 4157444.81 ], [ 280594.98, 4157443.87 ], [ 280592.13, 4157442.6 ], [ 280590.59, 4157439.39 ], [ 280567.48, 4157431.76 ], [ 280561.35, 4157423.14 ], [ 280558.29, 4157423.57 ], [ 280561.14, 4157430.75 ], [ 280565.29, 4157435.15 ], [ 280588.04, 4157442.71 ], [ 280589.44, 4157445.76 ], [ 280601.62, 4157449.76 ], [ 280602.54, 4157452.96 ], [ 280613.74, 4157461.47 ], [ 280613.43, 4157465.27 ], [ 280616.21, 4157468.14 ], [ 280622.65, 4157466.86 ], [ 280628.91, 4157469.81 ], [ 280630.88, 4157469.22 ], [ 280630.75, 4157466.4 ], [ 280623.67, 4157462.91 ], [ 280617.8, 4157464.19 ], [ 280617.43, 4157459.54 ], [ 280605.79, 4157450.32 ] ] ] } },
{ "type": "Feature", "properties": { "id": "osm:way/1198306685", "name": null, "kind": "canal", "water_z": 37.25, "source": null }, "geometry": { "type": "Polygon", "coordinates": [ [ [ 280550.87, 4157486.51 ], [ 280558.65, 4157477.01 ], [ 280563.99, 4157460.31 ], [ 280562.84, 4157442.46 ], [ 280557.71, 4157429.83 ], [ 280561.96, 4157424.18 ], [ 280557.51, 4157415.29 ], [ 280557.44, 4157408.73 ], [ 280553.81, 4157398.65 ], [ 280550.25, 4157396.12 ], [ 280543.76, 4157395.51 ], [ 280541.71, 4157393.24 ], [ 280537.38, 4157387.01 ], [ 280529.6, 4157367.48 ], [ 280524.71, 4157364.53 ], [ 280522.32, 4157356.61 ], [ 280516.64, 4157351.55 ], [ 280509.95, 4157341.96 ], [ 280507.96, 4157327.5 ], [ 280503.05, 4157317.53 ], [ 280500.0, 4157314.27 ], [ 280500.0, 4157320.38 ], [ 280504.19, 4157328.88 ], [ 280506.17, 4157343.4 ], [ 280513.65, 4157354.21 ], [ 280518.88, 4157358.81 ], [ 280521.47, 4157367.16 ], [ 280526.34, 4157369.93 ], [ 280533.8, 4157388.82 ], [ 280538.48, 4157395.6 ], [ 280541.91, 4157399.12 ], [ 280550.56, 4157401.08 ], [ 280553.5, 4157409.47 ], [ 280553.61, 4157416.42 ], [ 280557.54, 4157423.94 ], [ 280553.5, 4157429.72 ], [ 280558.9, 4157443.25 ], [ 280560.02, 4157459.81 ], [ 280555.1, 4157475.13 ], [ 280547.66, 4157483.61 ], [ 280546.59, 4157486.97 ], [ 280548.85, 4157492.1 ], [ 280546.15, 4157500.0 ], [ 280550.4, 4157500.0 ], [ 280552.88, 4157492.02 ], [ 280550.87, 4157486.51 ] ] ] } }
]
}
