{
"type": "FeatureCollection",
"name": "pois",
"crs": { "type": "name", "properties": { "name": "urn:ogc:def:crs:EPSG::32618" } },
"xy_coordinate_resolution": 0.01,
"features": [
{ "type": "Feature", "properties": { "id": "rva-tree:88387", "name": "Ulmus x Morton Accolade", "kind": "tree", "species": "Ulmus x Morton Accolade", "source": "city_inventory", "tree_height": 8.0, "crown_radius": 2.5, "height_source": "estimated" }, "geometry": { "type": "Point", "coordinates": [ 285307.78, 4160531.72 ] } },
{ "type": "Feature", "properties": { "id": "lidar-tree:285298:4160532", "name": null, "kind": "tree", "species": null, "source": "lidar2025", "tree_height": 6.1, "crown_radius": 2.6, "height_source": "lidar2025" }, "geometry": { "type": "Point", "coordinates": [ 285298.5, 4160532.5 ] } },
{ "type": "Feature", "properties": { "id": "lidar-tree:285336:4160536", "name": null, "kind": "tree", "species": null, "source": "lidar2025", "tree_height": 31.4, "crown_radius": 6.0, "height_source": "lidar2025" }, "geometry": { "type": "Point", "coordinates": [ 285335.5, 4160536.5 ] } },
{ "type": "Feature", "properties": { "id": "lidar-tree:285280:4160538", "name": null, "kind": "tree", "species": null, "source": "lidar2025", "tree_height": 23.1, "crown_radius": 6.0, "height_source": "lidar2025" }, "geometry": { "type": "Point", "coordinates": [ 285280.5, 4160537.5 ] } },
{ "type": "Feature", "properties": { "id": "lidar-tree:285360:4160538", "name": null, "kind": "tree", "species": null, "source": "lidar2025", "tree_height": 8.4, "crown_radius": 2.9, "height_source": "lidar2025" }, "geometry": { "type": "Point", "coordinates": [ 285359.5, 4160537.5 ] } },
{ "type": "Feature", "properties": { "id": "lidar-tree:285342:4160542", "name": null, "kind": "tree", "species": null, "source": "lidar2025", "tree_height": 12.9, "crown_radius": 3.5, "height_source": "lidar2025" }, "geometry": { "type": "Point", "coordinates": [ 285341.5, 4160542.5 ] } },
{ "type": "Feature", "properties": { "id": "lidar-tree:285356:4160548", "name": null, "kind": "tree", "species": null, "source": "lidar2025", "tree_height": 10.6, "crown_radius": 1.4, "height_source": "lidar2025" }, "geometry": { "type": "Point", "coordinates": [ 285356.5, 4160548.5 ] } },
{ "type": "Feature", "properties": { "id": "lidar-tree:285286:4160556", "name": null, "kind": "tree", "species": null, "source": "lidar2025", "tree_height": 9.6, "crown_radius": 4.3, "height_source": "lidar2025" }, "geometry": { "type": "Point", "coordinates": [ 285286.5, 4160555.5 ] } },
{ "type": "Feature", "properties": { "id": "lidar-tree:285338:4160558", "name": null, "kind": "tree", "species": null, "source": "lidar2025", "tree_height": 18.4, "crown_radius": 6.0, "height_source": "lidar2025" }, "geometry": { "type": "Point", "coordinates": [ 285338.5, 4160557.5 ] } },
{ "type": "Feature", "properties": { "id": "lidar-tree:285316:4160568", "name": null, "kind": "tree", "species": null, "source": "lidar2025", "tree_height": 11.1, "crown_radius": 4.0, "height_source": "lidar2025" }, "geometry": { "type": "Point", "coordinates": [ 285315.5, 4160568.5 ] } },
{ "type": "Feature", "properties": { "id": "lidar-tree:285356:4160502", "name": null, "kind": "tree", "species": null, "source": "lidar2025", "tree_height": 30.0, "crown_radius": 6.0, "height_source": "lidar2025" }, "geometry": { "type": "Point", "coordinates": [ 285356.5, 4160501.5 ] } },
{ "type": "Feature", "properties": { "id": "lidar-tree:285356:4160512", "name": null, "kind": "tree", "species": null, "source": "lidar2025", "tree_height": 31.9, "crown_radius": 6.0, "height_source": "lidar2025" }, "geometry": { "type": "Point", "coordinates": [ 285356.5, 4160512.5 ] } },
{ "type": "Feature", "properties": { "id": "lidar-tree:285328:4160512", "name": null, "kind": "tree", "species": null, "source": "lidar2025", "tree_height": 34.8, "crown_radius": 6.0, "height_source": "lidar2025" }, "geometry": { "type": "Point", "coordinates": [ 285327.5, 4160512.5 ] } },
{ "type": "Feature", "properties": { "id": "lidar-tree:285330:4160522", "name": null, "kind": "tree", "species": null, "source": "lidar2025", "tree_height": 32.2, "crown_radius": 6.0, "height_source": "lidar2025" }, "geometry": { "type": "Point", "coordinates": [ 285330.5, 4160521.5 ] } },
{ "type": "Feature", "properties": { "id": "lidar-tree:285322:4160526", "name": null, "kind": "tree", "species": null, "source": "lidar2025", "tree_height": 27.1, "crown_radius": 6.0, "height_source": "lidar2025" }, "geometry": { "type": "Point", "coordinates": [ 285322.5, 4160526.5 ] } },
{ "type": "Feature", "properties": { "id": "lidar-tree:285352:4160528", "name": null, "kind": "tree", "species": null, "source": "lidar2025", "tree_height": 33.1, "crown_radius": 5.3, "height_source": "lidar2025" }, "geometry": { "type": "Point", "coordinates": [ 285351.5, 4160527.5 ] } },
{ "type": "Feature", "properties": { "id": "lidar-tree:285482:4160502", "name": null, "kind": "tree", "species": null, "source": "lidar2025", "tree_height": 36.3, "crown_radius": 6.0, "height_source": "lidar2025" }, "geometry": { "type": "Point", "coordinates": [ 285481.5, 4160501.5 ] } },
{ "type": "Feature", "properties": { "id": "lidar-tree:285468:4160512", "name": null, "kind": "tree", "species": null, "source": "lidar2025", "tree_height": 33.0, "crown_radius": 6.0, "height_source": "lidar2025" }, "geometry": { "type": "Point", "coordinates": [ 285468.5, 4160512.5 ] } },
{ "type": "Feature", "properties": { "id": "lidar-tree:285490:4160516", "name": null, "kind": "tree", "species": null, "source": "lidar2025", "tree_height": 36.6, "crown_radius": 6.0, "height_source": "lidar2025" }, "geometry": { "type": "Point", "coordinates": [ 285489.5, 4160516.5 ] } },
{ "type": "Feature", "properties": { "id": "lidar-tree:285480:4160518", "name": null, "kind": "tree", "species": null, "source": "lidar2025", "tree_height": 35.1, "crown_radius": 6.0, "height_source": "lidar2025" }, "geometry": { "type": "Point", "coordinates": [ 285480.5, 4160518.5 ] } },
{ "type": "Feature", "properties": { "id": "lidar-tree:285464:4160520", "name": null, "kind": "tree", "species": null, "source": "lidar2025", "tree_height": 29.4, "crown_radius": 6.0, "height_source": "lidar2025" }, "geometry": { "type": "Point", "coordinates": [ 285463.5, 4160520.5 ] } },
{ "type": "Feature", "properties": { "id": "lidar-tree:285498:4160526", "name": null, "kind": "tree", "species": null, "source": "lidar2025", "tree_height": 35.0, "crown_radius": 6.0, "height_source": "lidar2025" }, "geometry": { "type": "Point", "coordinates": [ 285498.5, 4160526.5 ] } },
{ "type": "Feature", "properties": { "id": "lidar-tree:285474:4160528", "name": null, "kind": "tree", "species": null, "source": "lidar2025", "tree_height": 33.7, "crown_radius": 6.0, "height_source": "lidar2025" }, "geometry": { "type": "Point", "coordinates": [ 285474.5, 4160528.5 ] } },
{ "type": "Feature", "properties": { "id": "lidar-tree:285442:4160502", "name": null, "kind": "tree", "species": null, "source": "lidar2025", "tree_height": 28.1, "crown_radius": 6.0, "height_source": "lidar2025" }, "geometry": { "type": "Point", "coordinates": [ 285441.5, 4160502.5 ] } },
{ "type": "Feature", "properties": { "id": "lidar-tree:285448:4160516", "name": null, "kind": "tree", "species": null, "source": "lidar2025", "tree_height": 24.8, "crown_radius": 6.0, "height_source": "lidar2025" }, "geometry": { "type": "Point", "coordinates": [ 285447.5, 4160515.5 ] } },
{ "type": "Feature", "properties": { "id": "rva-tree:75727", "name": "Prunus serotina", "kind": "tree", "species": "Prunus serotina", "source": "city_inventory", "tree_height": 8.0, "crown_radius": 2.5, "height_source": "estimated" }, "geometry": { "type": "Point", "coordinates": [ 285456.23, 4160546.01 ] } },
{ "type": "Feature", "properties": { "id": "rva-tree:75780", "name": "Quercus palustris", "kind": "tree", "species": "Quercus palustris", "source": "city_inventory", "tree_height": 8.0, "crown_radius": 2.5, "height_source": "estimated" }, "geometry": { "type": "Point", "coordinates": [ 285414.12, 4160554.04 ] } },
{ "type": "Feature", "properties": { "id": "rva-tree:75781", "name": "Quercus phellos", "kind": "tree", "species": "Quercus phellos", "source": "city_inventory", "tree_height": 8.0, "crown_radius": 2.5, "height_source": "estimated" }, "geometry": { "type": "Point", "coordinates": [ 285406.94, 4160556.12 ] } },
{ "type": "Feature", "properties": { "id": "rva-tree:90708", "name": "Quercus palustris", "kind": "tree", "species": "Quercus palustris", "source": "city_inventory", "tree_height": 8.0, "crown_radius": 2.5, "height_source": "estimated" }, "geometry": { "type": "Point", "coordinates": [ 285399.92, 4160557.39 ] } },
{ "type": "Feature", "properties": { "id": "rva-tree:88297", "name": "Cornus kousa", "kind": "tree", "species": "Cornus kousa", "source": "city_inventory", "tree_height": 8.0, "crown_radius": 2.5, "height_source": "estimated" }, "geometry": { "type": "Point", "coordinates": [ 285388.5, 4160562.86 ] } },
{ "type": "Feature", "properties": { "id": "rva-tree:120243", "name": "Cornus kousa", "kind": "tree", "species": "Cornus kousa", "source": "city_inventory", "tree_height": 8.0, "crown_radius": 2.5, "height_source": "estimated" }, "geometry": { "type": "Point", "coordinates": [ 285390.24, 4160570.55 ] } },
{ "type": "Feature", "properties": { "id": "lidar-tree:285446:4160576", "name": null, "kind": "tree", "species": null, "source": "lidar2025", "tree_height": 9.2, "crown_radius": 5.4, "height_source": "lidar2025" }, "geometry": { "type": "Point", "coordinates": [ 285446.5, 4160576.5 ] } },
{ "type": "Feature", "properties": { "id": "rva-tree:90192", "name": "Lagerstroemia indica", "kind": "tree", "species": "Lagerstroemia indica", "source": "city_inventory", "tree_height": 10.6, "crown_radius": 3.8, "height_source": "lidar2025" }, "geometry": { "type": "Point", "coordinates": [ 285392.61, 4160582.09 ] } },
{ "type": "Feature", "properties": { "id": "lidar-tree:285488:4160534", "name": null, "kind": "tree", "species": null, "source": "lidar2025", "tree_height": 30.2, "crown_radius": 6.0, "height_source": "lidar2025" }, "geometry": { "type": "Point", "coordinates": [ 285487.5, 4160534.5 ] } },
{ "type": "Feature", "properties": { "id": "lidar-tree:285478:4160542", "name": null, "kind": "tree", "species": null, "source": "lidar2025", "tree_height": 32.1, "crown_radius": 6.0, "height_source": "lidar2025" }, "geometry": { "type": "Point", "coordinates": [ 285478.5, 4160542.5 ] } },
{ "type": "Feature", "properties": { "id": "lidar-tree:285470:4160546", "name": null, "kind": "tree", "species": null, "source": "lidar2025", "tree_height": 30.6, "crown_radius": 6.0, "height_source": "lidar2025" }, "geometry": { "type": "Point", "coordinates": [ 285470.5, 4160545.5 ] } },
{ "type": "Feature", "properties": { "id": "lidar-tree:285492:4160546", "name": null, "kind": "tree", "species": null, "source": "lidar2025", "tree_height": 34.3, "crown_radius": 6.0, "height_source": "lidar2025" }, "geometry": { "type": "Point", "coordinates": [ 285491.5, 4160546.5 ] } },
{ "type": "Feature", "properties": { "id": "lidar-tree:285498:4160574", "name": null, "kind": "tree", "species": null, "source": "lidar2025", "tree_height": 21.5, "crown_radius": 6.0, "height_source": "lidar2025" }, "geometry": { "type": "Point", "coordinates": [ 285497.5, 4160574.5 ] } },
{ "type": "Feature", "properties": { "id": "lidar-tree:285468:4160594", "name": null, "kind": "tree", "species": null, "source": "lidar2025", "tree_height": 5.1, "crown_radius": 3.2, "height_source": "lidar2025" }, "geometry": { "type": "Point", "coordinates": [ 285467.5, 4160593.5 ] } },
{ "type": "Feature", "properties": { "id": "lidar-tree:285500:4160596", "name": null, "kind": "tree", "species": null, "source": "lidar2025", "tree_height": 27.4, "crown_radius": 6.0, "height_source": "lidar2025" }, "geometry": { "type": "Point", "coordinates": [ 285499.5, 4160596.5 ] } },
{ "type": "Feature", "properties": { "id": "rva-tree:75735", "name": "Unknown tree", "kind": "tree", "species": "Unknown tree", "source": "city_inventory", "tree_height": 8.0, "crown_radius": 2.5, "height_source": "estimated" }, "geometry": { "type": "Point", "coordinates": [ 285491.17, 4160600.63 ] } },
{ "type": "Feature", "properties": { "id": "lidar-tree:285268:4160554", "name": null, "kind": "tree", "species": null, "source": "lidar2025", "tree_height": 4.3, "crown_radius": 2.9, "height_source": "lidar2025" }, "geometry": { "type": "Point", "coordinates": [ 285268.5, 4160553.5 ] } },
{ "type": "Feature", "properties": { "id": "rva-tree:91843", "name": "Ginkgo biloba", "kind": "tree", "species": "Ginkgo biloba", "source": "city_inventory", "tree_height": 6.8, "crown_radius": 3.9, "height_source": "lidar2025" }, "geometry": { "type": "Point", "coordinates": [ 285258.55, 4160556.87 ] } },
{ "type": "Feature", "properties": { "id": "lidar-tree:285272:4160572", "name": null, "kind": "tree", "species": null, "source": "lidar2025", "tree_height": 12.7, "crown_radius": 5.0, "height_source": "lidar2025" }, "geometry": { "type": "Point", "coordinates": [ 285271.5, 4160572.5 ] } },
{ "type": "Feature", "properties": { "id": "lidar-tree:285262:4160578", "name": null, "kind": "tree", "species": null, "source": "lidar2025", "tree_height": 11.5, "crown_radius": 4.3, "height_source": "lidar2025" }, "geometry": { "type": "Point", "coordinates": [ 285262.5, 4160578.5 ] } },
{ "type": "Feature", "properties": { "id": "lidar-tree:285342:4160574", "name": null, "kind": "tree", "species": null, "source": "lidar2025", "tree_height": 26.3, "crown_radius": 6.0, "height_source": "lidar2025" }, "geometry": { "type": "Point", "coordinates": [ 285341.5, 4160573.5 ] } },
{ "type": "Feature", "properties": { "id": "lidar-tree:285352:4160582", "name": null, "kind": "tree", "species": null, "source": "lidar2025", "tree_height": 10.4, "crown_radius": 1.7, "height_source": "lidar2025" }, "geometry": { "type": "Point", "coordinates": [ 285351.5, 4160582.5 ] } },
{ "type": "Feature", "properties": { "id": "lidar-tree:285290:4160582", "name": null, "kind": "tree", "species": null, "source": "lidar2025", "tree_height": 11.5, "crown_radius": 4.1, "height_source": "lidar2025" }, "geometry": { "type": "Point", "coordinates": [ 285290.5, 4160582.5 ] } },
{ "type": "Feature", "properties": { "id": "lidar-tree:285318:4160590", "name": null, "kind": "tree", "species": null, "source": "lidar2025", "tree_height": 25.7, "crown_radius": 6.0, "height_source": "lidar2025" }, "geometry": { "type": "Point", "coordinates": [ 285318.5, 4160589.5 ] } },
{ "type": "Feature", "properties": { "id": "lidar-tree:285326:4160596", "name": null, "kind": "tree", "species": null, "source": "lidar2025", "tree_height": 27.9, "crown_radius": 6.0, "height_source": "lidar2025" }, "geometry": { "type": "Point", "coordinates": [ 285325.5, 4160595.5 ] } },
{ "type": "Feature", "properties": { "id": "lidar-tree:285290:4160604", "name": null, "kind": "tree", "species": null, "source": "lidar2025", "tree_height": 23.9, "crown_radius": 6.0, "height_source": "lidar2025" }, "geometry": { "type": "Point", "coordinates": [ 285289.5, 4160603.5 ] } },
{ "type": "Feature", "properties": { "id": "lidar-tree:285306:4160604", "name": null, "kind": "tree", "species": null, "source": "lidar2025", "tree_height": 10.2, "crown_radius": 1.6, "height_source": "lidar2025" }, "geometry": { "type": "Point", "coordinates": [ 285306.5, 4160604.5 ] } },
{ "type": "Feature", "properties": { "id": "lidar-tree:285330:4160610", "name": null, "kind": "tree", "species": null, "source": "lidar2025", "tree_height": 10.9, "crown_radius": 5.4, "height_source": "lidar2025" }, "geometry": { "type": "Point", "coordinates": [ 285329.5, 4160610.5 ] } },
{ "type": "Feature", "properties": { "id": "lidar-tree:285344:4160614", "name": null, "kind": "tree", "species": null, "source": "lidar2025", "tree_height": 15.0, "crown_radius": 6.0, "height_source": "lidar2025" }, "geometry": { "type": "Point", "coordinates": [ 285343.5, 4160614.5 ] } },
{ "type": "Feature", "properties": { "id": "lidar-tree:285296:4160614", "name": null, "kind": "tree", "species": null, "source": "lidar2025", "tree_height": 11.7, "crown_radius": 6.0, "height_source": "lidar2025" }, "geometry": { "type": "Point", "coordinates": [ 285296.5, 4160614.5 ] } },
{ "type": "Feature", "properties": { "id": "lidar-tree:285264:4160598", "name": null, "kind": "tree", "species": null, "source": "lidar2025", "tree_height": 21.8, "crown_radius": 6.0, "height_source": "lidar2025" }, "geometry": { "type": "Point", "coordinates": [ 285263.5, 4160598.5 ] } },
{ "type": "Feature", "properties": { "id": "lidar-tree:285256:4160602", "name": null, "kind": "tree", "species": null, "source": "lidar2025", "tree_height": 21.7, "crown_radius": 6.0, "height_source": "lidar2025" }, "geometry": { "type": "Point", "coordinates": [ 285255.5, 4160601.5 ] } },
{ "type": "Feature", "properties": { "id": "lidar-tree:285268:4160606", "name": null, "kind": "tree", "species": null, "source": "lidar2025", "tree_height": 21.7, "crown_radius": 6.0, "height_source": "lidar2025" }, "geometry": { "type": "Point", "coordinates": [ 285268.5, 4160606.5 ] } },
{ "type": "Feature", "properties": { "id": "lidar-tree:285282:4160624", "name": null, "kind": "tree", "species": null, "source": "lidar2025", "tree_height": 17.3, "crown_radius": 6.0, "height_source": "lidar2025" }, "geometry": { "type": "Point", "coordinates": [ 285281.5, 4160623.5 ] } },
{ "type": "Feature", "properties": { "id": "lidar-tree:285340:4160628", "name": null, "kind": "tree", "species": null, "source": "lidar2025", "tree_height": 15.9, "crown_radius": 6.0, "height_source": "lidar2025" }, "geometry": { "type": "Point", "coordinates": [ 285339.5, 4160627.5 ] } },
{ "type": "Feature", "properties": { "id": "lidar-tree:285366:4160628", "name": null, "kind": "tree", "species": null, "source": "lidar2025", "tree_height": 25.6, "crown_radius": 6.0, "height_source": "lidar2025" }, "geometry": { "type": "Point", "coordinates": [ 285366.5, 4160628.5 ] } },
{ "type": "Feature", "properties": { "id": "lidar-tree:285324:4160630", "name": null, "kind": "tree", "species": null, "source": "lidar2025", "tree_height": 4.9, "crown_radius": 5.0, "height_source": "lidar2025" }, "geometry": { "type": "Point", "coordinates": [ 285323.5, 4160630.5 ] } },
{ "type": "Feature", "properties": { "id": "lidar-tree:285350:4160630", "name": null, "kind": "tree", "species": null, "source": "lidar2025", "tree_height": 15.8, "crown_radius": 6.0, "height_source": "lidar2025" }, "geometry": { "type": "Point", "coordinates": [ 285349.5, 4160630.5 ] } },
{ "type": "Feature", "properties": { "id": "lidar-tree:285378:4160636", "name": null, "kind": "tree", "species": null, "source": "lidar2025", "tree_height": 17.5, "crown_radius": 6.0, "height_source": "lidar2025" }, "geometry": { "type": "Point", "coordinates": [ 285378.5, 4160636.5 ] } },
{ "type": "Feature", "properties": { "id": "lidar-tree:285324:4160638", "name": null, "kind": "tree", "species": null, "source": "lidar2025", "tree_height": 4.2, "crown_radius": 3.6, "height_source": "lidar2025" }, "geometry": { "type": "Point", "coordinates": [ 285323.5, 4160637.5 ] } },
{ "type": "Feature", "properties": { "id": "lidar-tree:285342:4160640", "name": null, "kind": "tree", "species": null, "source": "lidar2025", "tree_height": 15.4, "crown_radius": 6.0, "height_source": "lidar2025" }, "geometry": { "type": "Point", "coordinates": [ 285341.5, 4160639.5 ] } },
{ "type": "Feature", "properties": { "id": "lidar-tree:285316:4160642", "name": null, "kind": "tree", "species": null, "source": "lidar2025", "tree_height": 4.5, "crown_radius": 1.8, "height_source": "lidar2025" }, "geometry": { "type": "Point", "coordinates": [ 285315.5, 4160642.5 ] } },
{ "type": "Feature", "properties": { "id": "lidar-tree:285358:4160646", "name": null, "kind": "tree", "species": null, "source": "lidar2025", "tree_height": 14.5, "crown_radius": 6.0, "height_source": "lidar2025" }, "geometry": { "type": "Point", "coordinates": [ 285357.5, 4160646.5 ] } },
{ "type": "Feature", "properties": { "id": "lidar-tree:285256:4160664", "name": null, "kind": "tree", "species": null, "source": "lidar2025", "tree_height": 8.6, "crown_radius": 2.6, "height_source": "lidar2025" }, "geometry": { "type": "Point", "coordinates": [ 285255.5, 4160663.5 ] } },
{ "type": "Feature", "properties": { "id": "lidar-tree:285262:4160664", "name": null, "kind": "tree", "species": null, "source": "lidar2025", "tree_height": 5.2, "crown_radius": 2.5, "height_source": "lidar2025" }, "geometry": { "type": "Point", "coordinates": [ 285262.5, 4160663.5 ] } },
{ "type": "Feature", "properties": { "id": "lidar-tree:285296:4160678", "name": null, "kind": "tree", "species": null, "source": "lidar2025", "tree_height": 13.1, "crown_radius": 2.0, "height_source": "lidar2025" }, "geometry": { "type": "Point", "coordinates": [ 285295.5, 4160677.5 ] } },
{ "type": "Feature", "properties": { "id": "lidar-tree:285358:4160678", "name": null, "kind": "tree", "species": null, "source": "lidar2025", "tree_height": 13.3, "crown_radius": 2.0, "height_source": "lidar2025" }, "geometry": { "type": "Point", "coordinates": [ 285357.5, 4160678.5 ] } },
{ "type": "Feature", "properties": { "id": "lidar-tree:285352:4160678", "name": null, "kind": "tree", "species": null, "source": "lidar2025", "tree_height": 12.9, "crown_radius": 2.0, "height_source": "lidar2025" }, "geometry": { "type": "Point", "coordinates": [ 285351.5, 4160678.5 ] } },
{ "type": "Feature", "properties": { "id": "lidar-tree:285290:4160680", "name": null, "kind": "tree", "species": null, "source": "lidar2025", "tree_height": 12.4, "crown_radius": 1.8, "height_source": "lidar2025" }, "geometry": { "type": "Point", "coordinates": [ 285290.5, 4160679.5 ] } },
{ "type": "Feature", "properties": { "id": "lidar-tree:285346:4160684", "name": null, "kind": "tree", "species": null, "source": "lidar2025", "tree_height": 14.9, "crown_radius": 2.3, "height_source": "lidar2025" }, "geometry": { "type": "Point", "coordinates": [ 285346.5, 4160683.5 ] } },
{ "type": "Feature", "properties": { "id": "lidar-tree:285352:4160684", "name": null, "kind": "tree", "species": null, "source": "lidar2025", "tree_height": 14.8, "crown_radius": 2.1, "height_source": "lidar2025" }, "geometry": { "type": "Point", "coordinates": [ 285352.5, 4160684.5 ] } },
{ "type": "Feature", "properties": { "id": "lidar-tree:285356:4160684", "name": null, "kind": "tree", "species": null, "source": "lidar2025", "tree_height": 13.8, "crown_radius": 2.0, "height_source": "lidar2025" }, "geometry": { "type": "Point", "coordinates": [ 285356.5, 4160684.5 ] } },
{ "type": "Feature", "properties": { "id": "lidar-tree:285314:4160686", "name": null, "kind": "tree", "species": null, "source": "lidar2025", "tree_height": 8.6, "crown_radius": 1.7, "height_source": "lidar2025" }, "geometry": { "type": "Point", "coordinates": [ 285313.5, 4160686.5 ] } },
{ "type": "Feature", "properties": { "id": "lidar-tree:285342:4160688", "name": null, "kind": "tree", "species": null, "source": "lidar2025", "tree_height": 14.2, "crown_radius": 2.1, "height_source": "lidar2025" }, "geometry": { "type": "Point", "coordinates": [ 285341.5, 4160687.5 ] } },
{ "type": "Feature", "properties": { "id": "lidar-tree:285330:4160688", "name": null, "kind": "tree", "species": null, "source": "lidar2025", "tree_height": 9.5, "crown_radius": 2.0, "height_source": "lidar2025" }, "geometry": { "type": "Point", "coordinates": [ 285329.5, 4160688.5 ] } },
{ "type": "Feature", "properties": { "id": "lidar-tree:285436:4160586", "name": null, "kind": "tree", "species": null, "source": "lidar2025", "tree_height": 8.7, "crown_radius": 5.6, "height_source": "lidar2025" }, "geometry": { "type": "Point", "coordinates": [ 285435.5, 4160586.5 ] } },
{ "type": "Feature", "properties": { "id": "lidar-tree:285444:4160598", "name": null, "kind": "tree", "species": null, "source": "lidar2025", "tree_height": 18.3, "crown_radius": 4.4, "height_source": "lidar2025" }, "geometry": { "type": "Point", "coordinates": [ 285443.5, 4160598.5 ] } },
{ "type": "Feature", "properties": { "id": "lidar-tree:285410:4160610", "name": null, "kind": "tree", "species": null, "source": "lidar2025", "tree_height": 8.3, "crown_radius": 5.8, "height_source": "lidar2025" }, "geometry": { "type": "Point", "coordinates": [ 285410.5, 4160609.5 ] } },
{ "type": "Feature", "properties": { "id": "lidar-tree:285454:4160610", "name": null, "kind": "tree", "species": null, "source": "lidar2025", "tree_height": 17.0, "crown_radius": 5.1, "height_source": "lidar2025" }, "geometry": { "type": "Point", "coordinates": [ 285453.5, 4160610.5 ] } },
{ "type": "Feature", "properties": { "id": "lidar-tree:285442:4160618", "name": null, "kind": "tree", "species": null, "source": "lidar2025", "tree_height": 19.4, "crown_radius": 6.0, "height_source": "lidar2025" }, "geometry": { "type": "Point", "coordinates": [ 285441.5, 4160618.5 ] } },
{ "type": "Feature", "properties": { "id": "lidar-tree:285392:4160622", "name": null, "kind": "tree", "species": null, "source": "lidar2025", "tree_height": 6.1, "crown_radius": 2.8, "height_source": "lidar2025" }, "geometry": { "type": "Point", "coordinates": [ 285392.5, 4160621.5 ] } },
{ "type": "Feature", "properties": { "id": "rva-tree:76759", "name": "Acer rubrum", "kind": "tree", "species": "Acer rubrum", "source": "city_inventory", "tree_height": 15.1, "crown_radius": 6.0, "height_source": "lidar2025" }, "geometry": { "type": "Point", "coordinates": [ 285410.36, 4160629.18 ] } },
{ "type": "Feature", "properties": { "id": "lidar-tree:285458:4160644", "name": null, "kind": "tree", "species": null, "source": "lidar2025", "tree_height": 8.7, "crown_radius": 5.3, "height_source": "lidar2025" }, "geometry": { "type": "Point", "coordinates": [ 285457.5, 4160643.5 ] } },
{ "type": "Feature", "properties": { "id": "lidar-tree:285444:4160650", "name": null, "kind": "tree", "species": null, "source": "lidar2025", "tree_height": 20.1, "crown_radius": 6.0, "height_source": "lidar2025" }, "geometry": { "type": "Point", "coordinates": [ 285443.5, 4160649.5 ] } },
{ "type": "Feature", "properties": { "id": "rva-tree:76177", "name": "Fraxinus pennsylvanica", "kind": "tree", "species": "Fraxinus pennsylvanica", "source": "city_inventory", "tree_height": 8.0, "crown_radius": 2.5, "height_source": "estimated" }, "geometry": { "type": "Point", "coordinates": [ 285415.05, 4160652.22 ] } },
{ "type": "Feature", "properties": { "id": "rva-tree:76741", "name": "Ailanthus altissima", "kind": "tree", "species": "Ailanthus altissima", "source": "city_inventory", "tree_height": 8.0, "crown_radius": 2.5, "height_source": "estimated" }, "geometry": { "type": "Point", "coordinates": [ 285493.45, 4160602.17 ] } },
{ "type": "Feature", "properties": { "id": "lidar-tree:285492:4160610", "name": null, "kind": "tree", "species": null, "source": "lidar2025", "tree_height": 27.0, "crown_radius": 4.4, "height_source": "lidar2025" }, "geometry": { "type": "Point", "coordinates": [ 285491.5, 4160610.5 ] } },
{ "type": "Feature", "properties": { "id": "lidar-tree:285482:4160614", "name": null, "kind": "tree", "species": null, "source": "lidar2025", "tree_height": 4.3, "crown_radius": 1.8, "height_source": "lidar2025" }, "geometry": { "type": "Point", "coordinates": [ 285481.5, 4160614.5 ] } },
{ "type": "Feature", "properties": { "id": "lidar-tree:285498:4160614", "name": null, "kind": "tree", "species": null, "source": "lidar2025", "tree_height": 29.8, "crown_radius": 4.6, "height_source": "lidar2025" }, "geometry": { "type": "Point", "coordinates": [ 285498.5, 4160614.5 ] } },
{ "type": "Feature", "properties": { "id": "lidar-tree:285474:4160640", "name": null, "kind": "tree", "species": null, "source": "lidar2025", "tree_height": 15.2, "crown_radius": 5.6, "height_source": "lidar2025" }, "geometry": { "type": "Point", "coordinates": [ 285473.5, 4160639.5 ] } },
{ "type": "Feature", "properties": { "id": "lidar-tree:285488:4160648", "name": null, "kind": "tree", "species": null, "source": "lidar2025", "tree_height": 16.6, "crown_radius": 5.5, "height_source": "lidar2025" }, "geometry": { "type": "Point", "coordinates": [ 285488.5, 4160647.5 ] } },
{ "type": "Feature", "properties": { "id": "lidar-tree:285494:4160662", "name": null, "kind": "tree", "species": null, "source": "lidar2025", "tree_height": 14.1, "crown_radius": 5.0, "height_source": "lidar2025" }, "geometry": { "type": "Point", "coordinates": [ 285493.5, 4160662.5 ] } },
{ "type": "Feature", "properties": { "id": "lidar-tree:285468:4160674", "name": null, "kind": "tree", "species": null, "source": "lidar2025", "tree_height": 18.8, "crown_radius": 2.3, "height_source": "lidar2025" }, "geometry": { "type": "Point", "coordinates": [ 285468.5, 4160673.5 ] } },
{ "type": "Feature", "properties": { "id": "lidar-tree:285472:4160674", "name": null, "kind": "tree", "species": null, "source": "lidar2025", "tree_height": 19.0, "crown_radius": 2.4, "height_source": "lidar2025" }, "geometry": { "type": "Point", "coordinates": [ 285472.5, 4160674.5 ] } },
{ "type": "Feature", "properties": { "id": "lidar-tree:285354:4160654", "name": null, "kind": "tree", "species": null, "source": "lidar2025", "tree_height": 13.7, "crown_radius": 6.0, "height_source": "lidar2025" }, "geometry": { "type": "Point", "coordinates": [ 285353.5, 4160654.5 ] } },
{ "type": "Feature", "properties": { "id": "lidar-tree:285384:4160658", "name": null, "kind": "tree", "species": null, "source": "lidar2025", "tree_height": 7.4, "crown_radius": 5.2, "height_source": "lidar2025" }, "geometry": { "type": "Point", "coordinates": [ 285383.5, 4160658.5 ] } },
{ "type": "Feature", "properties": { "id": "lidar-tree:285286:4160658", "name": null, "kind": "tree", "species": null, "source": "lidar2025", "tree_height": 23.1, "crown_radius": 6.0, "height_source": "lidar2025" }, "geometry": { "type": "Point", "coordinates": [ 285285.5, 4160658.5 ] } },
{ "type": "Feature", "properties": { "id": "lidar-tree:285296:4160660", "name": null, "kind": "tree", "species": null, "source": "lidar2025", "tree_height": 21.9, "crown_radius": 6.0, "height_source": "lidar2025" }, "geometry": { "type": "Point", "coordinates": [ 285295.5, 4160659.5 ] } },
{ "type": "Feature", "properties": { "id": "lidar-tree:285324:4160662", "name": null, "kind": "tree", "species": null, "source": "lidar2025", "tree_height": 12.9, "crown_radius": 5.2, "height_source": "lidar2025" }, "geometry": { "type": "Point", "coordinates": [ 285323.5, 4160661.5 ] } },
{ "type": "Feature", "properties": { "id": "lidar-tree:285368:4160662", "name": null, "kind": "tree", "species": null, "source": "lidar2025", "tree_height": 19.2, "crown_radius": 5.2, "height_source": "lidar2025" }, "geometry": { "type": "Point", "coordinates": [ 285367.5, 4160662.5 ] } },
{ "type": "Feature", "properties": { "id": "lidar-tree:285358:4160668", "name": null, "kind": "tree", "species": null, "source": "lidar2025", "tree_height": 11.2, "crown_radius": 2.6, "height_source": "lidar2025" }, "geometry": { "type": "Point", "coordinates": [ 285358.5, 4160668.5 ] } },
{ "type": "Feature", "properties": { "id": "lidar-tree:285296:4160670", "name": null, "kind": "tree", "species": null, "source": "lidar2025", "tree_height": 16.6, "crown_radius": 2.3, "height_source": "lidar2025" }, "geometry": { "type": "Point", "coordinates": [ 285296.5, 4160670.5 ] } },
{ "type": "Feature", "properties": { "id": "lidar-tree:285302:4160672", "name": null, "kind": "tree", "species": null, "source": "lidar2025", "tree_height": 15.3, "crown_radius": 2.3, "height_source": "lidar2025" }, "geometry": { "type": "Point", "coordinates": [ 285301.5, 4160671.5 ] } },
{ "type": "Feature", "properties": { "id": "lidar-tree:285362:4160678", "name": null, "kind": "tree", "species": null, "source": "lidar2025", "tree_height": 8.5, "crown_radius": 1.5, "height_source": "lidar2025" }, "geometry": { "type": "Point", "coordinates": [ 285361.5, 4160677.5 ] } },
{ "type": "Feature", "properties": { "id": "lidar-tree:285458:4160662", "name": null, "kind": "tree", "species": null, "source": "lidar2025", "tree_height": 13.3, "crown_radius": 3.4, "height_source": "lidar2025" }, "geometry": { "type": "Point", "coordinates": [ 285457.5, 4160662.5 ] } },
{ "type": "Feature", "properties": { "id": "lidar-tree:285460:4160682", "name": null, "kind": "tree", "species": null, "source": "lidar2025", "tree_height": 14.0, "crown_radius": 2.1, "height_source": "lidar2025" }, "geometry": { "type": "Point", "coordinates": [ 285460.5, 4160682.5 ] } },
{ "type": "Feature", "properties": { "id": "lidar-tree:285390:4160686", "name": null, "kind": "tree", "species": null, "source": "lidar2025", "tree_height": 17.0, "crown_radius": 2.0, "height_source": "lidar2025" }, "geometry": { "type": "Point", "coordinates": [ 285389.5, 4160685.5 ] } },
{ "type": "Feature", "properties": { "id": "lidar-tree:285452:4160690", "name": null, "kind": "tree", "species": null, "source": "lidar2025", "tree_height": 13.6, "crown_radius": 2.0, "height_source": "lidar2025" }, "geometry": { "type": "Point", "coordinates": [ 285452.5, 4160689.5 ] } },
{ "type": "Feature", "properties": { "id": "lidar-tree:285458:4160690", "name": null, "kind": "tree", "species": null, "source": "lidar2025", "tree_height": 13.5, "crown_radius": 2.2, "height_source": "lidar2025" }, "geometry": { "type": "Point", "coordinates": [ 285458.5, 4160689.5 ] } },
{ "type": "Feature", "properties": { "id": "lidar-tree:285386:4160690", "name": null, "kind": "tree", "species": null, "source": "lidar2025", "tree_height": 19.0, "crown_radius": 2.6, "height_source": "lidar2025" }, "geometry": { "type": "Point", "coordinates": [ 285385.5, 4160689.5 ] } },
{ "type": "Feature", "properties": { "id": "lidar-tree:285448:4160690", "name": null, "kind": "tree", "species": null, "source": "lidar2025", "tree_height": 12.2, "crown_radius": 1.7, "height_source": "lidar2025" }, "geometry": { "type": "Point", "coordinates": [ 285448.5, 4160690.5 ] } },
{ "type": "Feature", "properties": { "id": "lidar-tree:285394:4160692", "name": null, "kind": "tree", "species": null, "source": "lidar2025", "tree_height": 19.7, "crown_radius": 2.1, "height_source": "lidar2025" }, "geometry": { "type": "Point", "coordinates": [ 285394.5, 4160692.5 ] } },
{ "type": "Feature", "properties": { "id": "lidar-tree:285386:4160694", "name": null, "kind": "tree", "species": null, "source": "lidar2025", "tree_height": 22.9, "crown_radius": 2.5, "height_source": "lidar2025" }, "geometry": { "type": "Point", "coordinates": [ 285385.5, 4160694.5 ] } },
{ "type": "Feature", "properties": { "id": "lidar-tree:285456:4160694", "name": null, "kind": "tree", "species": null, "source": "lidar2025", "tree_height": 17.8, "crown_radius": 2.0, "height_source": "lidar2025" }, "geometry": { "type": "Point", "coordinates": [ 285456.5, 4160694.5 ] } },
{ "type": "Feature", "properties": { "id": "lidar-tree:285464:4160678", "name": null, "kind": "tree", "species": null, "source": "lidar2025", "tree_height": 18.7, "crown_radius": 2.6, "height_source": "lidar2025" }, "geometry": { "type": "Point", "coordinates": [ 285464.5, 4160677.5 ] } },
{ "type": "Feature", "properties": { "id": "lidar-tree:285474:4160678", "name": null, "kind": "tree", "species": null, "source": "lidar2025", "tree_height": 19.1, "crown_radius": 2.6, "height_source": "lidar2025" }, "geometry": { "type": "Point", "coordinates": [ 285473.5, 4160678.5 ] } },
{ "type": "Feature", "properties": { "id": "lidar-tree:285480:4160678", "name": null, "kind": "tree", "species": null, "source": "lidar2025", "tree_height": 13.7, "crown_radius": 2.1, "height_source": "lidar2025" }, "geometry": { "type": "Point", "coordinates": [ 285479.5, 4160678.5 ] } },
{ "type": "Feature", "properties": { "id": "lidar-tree:285470:4160682", "name": null, "kind": "tree", "species": null, "source": "lidar2025", "tree_height": 19.9, "crown_radius": 2.4, "height_source": "lidar2025" }, "geometry": { "type": "Point", "coordinates": [ 285469.5, 4160682.5 ] } },
{ "type": "Feature", "properties": { "id": "lidar-tree:285476:4160682", "name": null, "kind": "tree", "species": null, "source": "lidar2025", "tree_height": 19.0, "crown_radius": 2.3, "height_source": "lidar2025" }, "geometry": { "type": "Point", "coordinates": [ 285475.5, 4160682.5 ] } },
{ "type": "Feature", "properties": { "id": "lidar-tree:285466:4160682", "name": null, "kind": "tree", "species": null, "source": "lidar2025", "tree_height": 19.4, "crown_radius": 2.1, "height_source": "lidar2025" }, "geometry": { "type": "Point", "coordinates": [ 285465.5, 4160682.5 ] } },
{ "type": "Feature", "properties": { "id": "lidar-tree:285472:4160688", "name": null, "kind": "tree", "species": null, "source": "lidar2025", "tree_height": 17.6, "crown_radius": 2.3, "height_source": "lidar2025" }, "geometry": { "type": "Point", "coordinates": [ 285472.5, 4160687.5 ] } },
{ "type": "Feature", "properties": { "id": "lidar-tree:285464:4160690", "name": null, "kind": "tree", "species": null, "source": "lidar2025", "tree_height": 18.2, "crown_radius": 2.1, "height_source": "lidar2025" }, "geometry": { "type": "Point", "coordinates": [ 285463.5, 4160689.5 ] } },
{ "type": "Feature", "properties": { "id": "lidar-tree:285358:4160688", "name": null, "kind": "tree", "species": null, "source": "lidar2025", "tree_height": 14.5, "crown_radius": 1.9, "height_source": "lidar2025" }, "geometry": { "type": "Point", "coordinates": [ 285357.5, 4160688.5 ] } },
{ "type": "Feature", "properties": { "id": "lidar-tree:285380:4160690", "name": null, "kind": "tree", "species": null, "source": "lidar2025", "tree_height": 17.9, "crown_radius": 2.5, "height_source": "lidar2025" }, "geometry": { "type": "Point", "coordinates": [ 285380.5, 4160689.5 ] } },
{ "type": "Feature", "properties": { "id": "lidar-tree:285352:4160690", "name": null, "kind": "tree", "species": null, "source": "lidar2025", "tree_height": 14.4, "crown_radius": 2.3, "height_source": "lidar2025" }, "geometry": { "type": "Point", "coordinates": [ 285351.5, 4160689.5 ] } },
{ "type": "Feature", "properties": { "id": "lidar-tree:285346:4160690", "name": null, "kind": "tree", "species": null, "source": "lidar2025", "tree_height": 15.0, "crown_radius": 2.4, "height_source": "lidar2025" }, "geometry": { "type": "Point", "coordinates": [ 285346.5, 4160689.5 ] } },
{ "type": "Feature", "properties": { "id": "lidar-tree:285296:4160690", "name": null, "kind": "tree", "species": null, "source": "lidar2025", "tree_height": 8.4, "crown_radius": 1.9, "height_source": "lidar2025" }, "geometry": { "type": "Point", "coordinates": [ 285296.5, 4160689.5 ] } },
{ "type": "Feature", "properties": { "id": "lidar-tree:285362:4160690", "name": null, "kind": "tree", "species": null, "source": "lidar2025", "tree_height": 14.0, "crown_radius": 1.5, "height_source": "lidar2025" }, "geometry": { "type": "Point", "coordinates": [ 285361.5, 4160690.5 ] } },
{ "type": "Feature", "properties": { "id": "lidar-tree:285358:4160694", "name": null, "kind": "tree", "species": null, "source": "lidar2025", "tree_height": 14.0, "crown_radius": 1.6, "height_source": "lidar2025" }, "geometry": { "type": "Point", "coordinates": [ 285357.5, 4160693.5 ] } },
{ "type": "Feature", "properties": { "id": "lidar-tree:285342:4160694", "name": null, "kind": "tree", "species": null, "source": "lidar2025", "tree_height": 14.0, "crown_radius": 1.9, "height_source": "lidar2025" }, "geometry": { "type": "Point", "coordinates": [ 285341.5, 4160693.5 ] } },
{ "type": "Feature", "properties": { "id": "lidar-tree:285380:4160694", "name": null, "kind": "tree", "species": null, "source": "lidar2025", "tree_height": 18.9, "crown_radius": 2.5, "height_source": "lidar2025" }, "geometry": { "type": "Point", "coordinates": [ 285379.5, 4160694.5 ] } },
{ "type": "Feature", "properties": { "id": "lidar-tree:285348:4160696", "name": null, "kind": "tree", "species": null, "source": "lidar2025", "tree_height": 13.1, "crown_radius": 1.6, "height_source": "lidar2025" }, "geometry": { "type": "Point", "coordinates": [ 285347.5, 4160696.5 ] } },
{ "type": "Feature", "properties": { "id": "lidar-tree:285464:4160694", "name": null, "kind": "tree", "species": null, "source": "lidar2025", "tree_height": 17.4, "crown_radius": 2.2, "height_source": "lidar2025" }, "geometry": { "type": "Point", "coordinates": [ 285463.5, 4160694.5 ] } },
{ "type": "Feature", "properties": { "id": "lidar-tree:285474:4160696", "name": null, "kind": "tree", "species": null, "source": "lidar2025", "tree_height": 12.5, "crown_radius": 2.0, "height_source": "lidar2025" }, "geometry": { "type": "Point", "coordinates": [ 285474.5, 4160695.5 ] } },
{ "type": "Feature", "properties": { "id": "lidar-tree:285480:4160696", "name": null, "kind": "tree", "species": null, "source": "lidar2025", "tree_height": 11.5, "crown_radius": 1.7, "height_source": "lidar2025" }, "geometry": { "type": "Point", "coordinates": [ 285480.5, 4160695.5 ] } },
{ "type": "Feature", "properties": { "id": "lidar-tree:285464:4160700", "name": null, "kind": "tree", "species": null, "source": "lidar2025", "tree_height": 13.8, "crown_radius": 1.9, "height_source": "lidar2025" }, "geometry": { "type": "Point", "coordinates": [ 285464.5, 4160699.5 ] } },
{ "type": "Feature", "properties": { "id": "lidar-tree:285390:4160694", "name": null, "kind": "tree", "species": null, "source": "lidar2025", "tree_height": 22.6, "crown_radius": 2.7, "height_source": "lidar2025" }, "geometry": { "type": "Point", "coordinates": [ 285390.5, 4160694.5 ] } },
{ "type": "Feature", "properties": { "id": "lidar-tree:285452:4160694", "name": null, "kind": "tree", "species": null, "source": "lidar2025", "tree_height": 14.0, "crown_radius": 2.3, "height_source": "lidar2025" }, "geometry": { "type": "Point", "coordinates": [ 285452.5, 4160694.5 ] } },
{ "type": "Feature", "properties": { "id": "lidar-tree:285394:4160700", "name": null, "kind": "tree", "species": null, "source": "lidar2025", "tree_height": 19.2, "crown_radius": 2.0, "height_source": "lidar2025" }, "geometry": { "type": "Point", "coordinates": [ 285394.5, 4160699.5 ] } },
{ "type": "Feature", "properties": { "id": "lidar-tree:285458:4160700", "name": null, "kind": "tree", "species": null, "source": "lidar2025", "tree_height": 14.9, "crown_radius": 2.1, "height_source": "lidar2025" }, "geometry": { "type": "Point", "coordinates": [ 285457.5, 4160700.5 ] } },
{ "type": "Feature", "properties": { "id": "lidar-tree:285388:4160702", "name": null, "kind": "tree", "species": null, "source": "lidar2025", "tree_height": 21.4, "crown_radius": 1.9, "height_source": "lidar2025" }, "geometry": { "type": "Point", "coordinates": [ 285387.5, 4160701.5 ] } },
{ "type": "Feature", "properties": { "id": "lidar-tree:285458:4160704", "name": null, "kind": "tree", "species": null, "source": "lidar2025", "tree_height": 12.8, "crown_radius": 1.7, "height_source": "lidar2025" }, "geometry": { "type": "Point", "coordinates": [ 285458.5, 4160704.5 ] } },
{ "type": "Feature", "properties": { "id": "lidar-tree:285396:4160712", "name": null, "kind": "tree", "species": null, "source": "lidar2025", "tree_height": 11.2, "crown_radius": 1.6, "height_source": "lidar2025" }, "geometry": { "type": "Point", "coordinates": [ 285395.5, 4160711.5 ] } },
{ "type": "Feature", "properties": { "id": "lidar-tree:285392:4160712", "name": null, "kind": "tree", "species": null, "source": "lidar2025", "tree_height": 9.7, "crown_radius": 1.6, "height_source": "lidar2025" }, "geometry": { "type": "Point", "coordinates": [ 285391.5, 4160711.5 ] } },
{ "type": "Feature", "properties": { "id": "lidar-tree:285422:4160720", "name": null, "kind": "tree", "species": null, "source": "lidar2025", "tree_height": 9.5, "crown_radius": 1.6, "height_source": "lidar2025" }, "geometry": { "type": "Point", "coordinates": [ 285421.5, 4160720.5 ] } },
{ "type": "Feature", "properties": { "id": "lidar-tree:285462:4160722", "name": null, "kind": "tree", "species": null, "source": "lidar2025", "tree_height": 11.5, "crown_radius": 1.9, "height_source": "lidar2025" }, "geometry": { "type": "Point", "coordinates": [ 285462.5, 4160722.5 ] } },
{ "type": "Feature", "properties": { "id": "lidar-tree:285480:4160728", "name": null, "kind": "tree", "species": null, "source": "lidar2025", "tree_height": 21.6, "crown_radius": 2.2, "height_source": "lidar2025" }, "geometry": { "type": "Point", "coordinates": [ 285479.5, 4160728.5 ] } },
{ "type": "Feature", "properties": { "id": "lidar-tree:285466:4160730", "name": null, "kind": "tree", "species": null, "source": "lidar2025", "tree_height": 17.8, "crown_radius": 1.9, "height_source": "lidar2025" }, "geometry": { "type": "Point", "coordinates": [ 285465.5, 4160729.5 ] } },
{ "type": "Feature", "properties": { "id": "lidar-tree:285474:4160730", "name": null, "kind": "tree", "species": null, "source": "lidar2025", "tree_height": 19.8, "crown_radius": 2.1, "height_source": "lidar2025" }, "geometry": { "type": "Point", "coordinates": [ 285474.5, 4160729.5 ] } },
{ "type": "Feature", "properties": { "id": "lidar-tree:285476:4160734", "name": null, "kind": "tree", "species": null, "source": "lidar2025", "tree_height": 21.5, "crown_radius": 2.3, "height_source": "lidar2025" }, "geometry": { "type": "Point", "coordinates": [ 285475.5, 4160734.5 ] } },
{ "type": "Feature", "properties": { "id": "lidar-tree:285480:4160734", "name": null, "kind": "tree", "species": null, "source": "lidar2025", "tree_height": 24.7, "crown_radius": 2.4, "height_source": "lidar2025" }, "geometry": { "type": "Point", "coordinates": [ 285479.5, 4160734.5 ] } },
{ "type": "Feature", "properties": { "id": "lidar-tree:285500:4160736", "name": null, "kind": "tree", "species": null, "source": "lidar2025", "tree_height": 24.4, "crown_radius": 2.3, "height_source": "lidar2025" }, "geometry": { "type": "Point", "coordinates": [ 285499.5, 4160735.5 ] } },
{ "type": "Feature", "properties": { "id": "lidar-tree:285486:4160736", "name": null, "kind": "tree", "species": null, "source": "lidar2025", "tree_height": 23.3, "crown_radius": 2.1, "height_source": "lidar2025" }, "geometry": { "type": "Point", "coordinates": [ 285485.5, 4160736.5 ] } },
{ "type": "Feature", "properties": { "id": "lidar-tree:285452:4160728", "name": null, "kind": "tree", "species": null, "source": "lidar2025", "tree_height": 14.0, "crown_radius": 1.6, "height_source": "lidar2025" }, "geometry": { "type": "Point", "coordinates": [ 285452.5, 4160727.5 ] } },
{ "type": "Feature", "properties": { "id": "lidar-tree:285460:4160730", "name": null, "kind": "tree", "species": null, "source": "lidar2025", "tree_height": 19.8, "crown_radius": 1.9, "height_source": "lidar2025" }, "geometry": { "type": "Point", "coordinates": [ 285460.5, 4160729.5 ] } },
{ "type": "Feature", "properties": { "id": "lidar-tree:285400:4160730", "name": null, "kind": "tree", "species": null, "source": "lidar2025", "tree_height": 16.6, "crown_radius": 2.3, "height_source": "lidar2025" }, "geometry": { "type": "Point", "coordinates": [ 285400.5, 4160730.5 ] } },
{ "type": "Feature", "properties": { "id": "lidar-tree:285386:4160734", "name": null, "kind": "tree", "species": null, "source": "lidar2025", "tree_height": 19.0, "crown_radius": 1.8, "height_source": "lidar2025" }, "geometry": { "type": "Point", "coordinates": [ 285386.5, 4160733.5 ] } },
{ "type": "Feature", "properties": { "id": "lidar-tree:285396:4160734", "name": null, "kind": "tree", "species": null, "source": "lidar2025", "tree_height": 16.7, "crown_radius": 2.9, "height_source": "lidar2025" }, "geometry": { "type": "Point", "coordinates": [ 285396.5, 4160733.5 ] } },
{ "type": "Feature", "properties": { "id": "lidar-tree:285392:4160734", "name": null, "kind": "tree", "species": null, "source": "lidar2025", "tree_height": 19.7, "crown_radius": 2.3, "height_source": "lidar2025" }, "geometry": { "type": "Point", "coordinates": [ 285392.5, 4160734.5 ] } },
{ "type": "Feature", "properties": { "id": "lidar-tree:285456:4160736", "name": null, "kind": "tree", "species": null, "source": "lidar2025", "tree_height": 21.8, "crown_radius": 2.0, "height_source": "lidar2025" }, "geometry": { "type": "Point", "coordinates": [ 285456.5, 4160736.5 ] } },
{ "type": "Feature", "properties": { "id": "lidar-tree:285402:4160740", "name": null, "kind": "tree", "species": null, "source": "lidar2025", "tree_height": 13.5, "crown_radius": 2.3, "height_source": "lidar2025" }, "geometry": { "type": "Point", "coordinates": [ 285402.5, 4160739.5 ] } },
{ "type": "Feature", "properties": { "id": "lidar-tree:285408:4160740", "name": null, "kind": "tree", "species": null, "source": "lidar2025", "tree_height": 12.1, "crown_radius": 1.9, "height_source": "lidar2025" }, "geometry": { "type": "Point", "coordinates": [ 285408.5, 4160740.5 ] } },
{ "type": "Feature", "properties": { "id": "lidar-tree:285396:4160746", "name": null, "kind": "tree", "species": null, "source": "lidar2025", "tree_height": 13.1, "crown_radius": 2.2, "height_source": "lidar2025" }, "geometry": { "type": "Point", "coordinates": [ 285395.5, 4160745.5 ] } },
{ "type": "Feature", "properties": { "id": "lidar-tree:285476:4160738", "name": null, "kind": "tree", "species": null, "source": "lidar2025", "tree_height": 20.4, "crown_radius": 2.1, "height_source": "lidar2025" }, "geometry": { "type": "Point", "coordinates": [ 285475.5, 4160738.5 ] } },
{ "type": "Feature", "properties": { "id": "lidar-tree:285480:4160740", "name": null, "kind": "tree", "species": null, "source": "lidar2025", "tree_height": 21.7, "crown_radius": 2.4, "height_source": "lidar2025" }, "geometry": { "type": "Point", "coordinates": [ 285480.5, 4160739.5 ] } },
{ "type": "Feature", "properties": { "id": "lidar-tree:285464:4160740", "name": null, "kind": "tree", "species": null, "source": "lidar2025", "tree_height": 19.7, "crown_radius": 1.9, "height_source": "lidar2025" }, "geometry": { "type": "Point", "coordinates": [ 285463.5, 4160739.5 ] } },
{ "type": "Feature", "properties": { "id": "lidar-tree:285492:4160740", "name": null, "kind": "tree", "species": null, "source": "lidar2025", "tree_height": 16.6, "crown_radius": 2.3, "height_source": "lidar2025" }, "geometry": { "type": "Point", "coordinates": [ 285491.5, 4160739.5 ] } },
{ "type": "Feature", "properties": { "id": "lidar-tree:285480:4160744", "name": null, "kind": "tree", "species": null, "source": "lidar2025", "tree_height": 15.3, "crown_radius": 2.6, "height_source": "lidar2025" }, "geometry": { "type": "Point", "coordinates": [ 285480.5, 4160744.5 ] } },
{ "type": "Feature", "properties": { "id": "lidar-tree:285486:4160746", "name": null, "kind": "tree", "species": null, "source": "lidar2025", "tree_height": 19.2, "crown_radius": 2.6, "height_source": "lidar2025" }, "geometry": { "type": "Point", "coordinates": [ 285486.5, 4160745.5 ] } },
{ "type": "Feature", "properties": { "id": "lidar-tree:285496:4160746", "name": null, "kind": "tree", "species": null, "source": "lidar2025", "tree_height": 14.6, "crown_radius": 2.5, "height_source": "lidar2025" }, "geometry": { "type": "Point", "coordinates": [ 285496.5, 4160745.5 ] } },
{ "type": "Feature", "properties": { "id": "lidar-tree:285402:4160746", "name": null, "kind": "tree", "species": null, "source": "lidar2025", "tree_height": 19.6, "crown_radius": 2.3, "height_source": "lidar2025" }, "geometry": { "type": "Point", "coordinates": [ 285401.5, 4160745.5 ] } },
{ "type": "Feature", "properties": { "id": "lidar-tree:285416:4160746", "name": null, "kind": "tree", "species": null, "source": "lidar2025", "tree_height": 12.8, "crown_radius": 1.9, "height_source": "lidar2025" }, "geometry": { "type": "Point", "coordinates": [ 285416.5, 4160746.5 ] } },
{ "type": "Feature", "properties": { "id": "lidar-tree:285406:4160746", "name": null, "kind": "tree", "species": null, "source": "lidar2025", "tree_height": 18.2, "crown_radius": 2.3, "height_source": "lidar2025" }, "geometry": { "type": "Point", "coordinates": [ 285406.5, 4160746.5 ] } },
{ "type": "Feature", "properties": { "id": "lidar-tree:285380:4160698", "name": null, "kind": "tree", "species": null, "source": "lidar2025", "tree_height": 20.0, "crown_radius": 2.3, "height_source": "lidar2025" }, "geometry": { "type": "Point", "coordinates": [ 285380.5, 4160698.5 ] } },
{ "type": "Feature", "properties": { "id": "lidar-tree:285382:4160704", "name": null, "kind": "tree", "species": null, "source": "lidar2025", "tree_height": 14.3, "crown_radius": 1.8, "height_source": "lidar2025" }, "geometry": { "type": "Point", "coordinates": [ 285381.5, 4160703.5 ] } },
{ "type": "Feature", "properties": { "id": "lidar-tree:285284:4160712", "name": null, "kind": "tree", "species": null, "source": "lidar2025", "tree_height": 20.3, "crown_radius": 2.1, "height_source": "lidar2025" }, "geometry": { "type": "Point", "coordinates": [ 285283.5, 4160711.5 ] } },
{ "type": "Feature", "properties": { "id": "lidar-tree:285288:4160712", "name": null, "kind": "tree", "species": null, "source": "lidar2025", "tree_height": 17.3, "crown_radius": 2.0, "height_source": "lidar2025" }, "geometry": { "type": "Point", "coordinates": [ 285288.5, 4160711.5 ] } },
{ "type": "Feature", "properties": { "id": "lidar-tree:285290:4160716", "name": null, "kind": "tree", "species": null, "source": "lidar2025", "tree_height": 18.6, "crown_radius": 2.0, "height_source": "lidar2025" }, "geometry": { "type": "Point", "coordinates": [ 285289.5, 4160715.5 ] } },
{ "type": "Feature", "properties": { "id": "lidar-tree:285286:4160718", "name": null, "kind": "tree", "species": null, "source": "lidar2025", "tree_height": 19.0, "crown_radius": 2.5, "height_source": "lidar2025" }, "geometry": { "type": "Point", "coordinates": [ 285285.5, 4160717.5 ] } },
{ "type": "Feature", "properties": { "id": "lidar-tree:285278:4160722", "name": null, "kind": "tree", "species": null, "source": "lidar2025", "tree_height": 12.8, "crown_radius": 2.0, "height_source": "lidar2025" }, "geometry": { "type": "Point", "coordinates": [ 285278.5, 4160721.5 ] } },
{ "type": "Feature", "properties": { "id": "lidar-tree:285286:4160722", "name": null, "kind": "tree", "species": null, "source": "lidar2025", "tree_height": 19.8, "crown_radius": 2.0, "height_source": "lidar2025" }, "geometry": { "type": "Point", "coordinates": [ 285285.5, 4160722.5 ] } },
{ "type": "Feature", "properties": { "id": "lidar-tree:285290:4160722", "name": null, "kind": "tree", "species": null, "source": "lidar2025", "tree_height": 19.1, "crown_radius": 2.0, "height_source": "lidar2025" }, "geometry": { "type": "Point", "coordinates": [ 285289.5, 4160722.5 ] } },
{ "type": "Feature", "properties": { "id": "lidar-tree:285380:4160726", "name": null, "kind": "tree", "species": null, "source": "lidar2025", "tree_height": 10.2, "crown_radius": 1.6, "height_source": "lidar2025" }, "geometry": { "type": "Point", "coordinates": [ 285379.5, 4160725.5 ] } },
{ "type": "Feature", "properties": { "id": "lidar-tree:285272:4160730", "name": null, "kind": "tree", "species": null, "source": "lidar2025", "tree_height": 13.7, "crown_radius": 1.8, "height_source": "lidar2025" }, "geometry": { "type": "Point", "coordinates": [ 285272.5, 4160729.5 ] } },
{ "type": "Feature", "properties": { "id": "lidar-tree:285268:4160730", "name": null, "kind": "tree", "species": null, "source": "lidar2025", "tree_height": 18.3, "crown_radius": 1.9, "height_source": "lidar2025" }, "geometry": { "type": "Point", "coordinates": [ 285267.5, 4160730.5 ] } },
{ "type": "Feature", "properties": { "id": "lidar-tree:285274:4160734", "name": null, "kind": "tree", "species": null, "source": "lidar2025", "tree_height": 20.2, "crown_radius": 2.4, "height_source": "lidar2025" }, "geometry": { "type": "Point", "coordinates": [ 285274.5, 4160734.5 ] } },
{ "type": "Feature", "properties": { "id": "lidar-tree:285264:4160738", "name": null, "kind": "tree", "species": null, "source": "lidar2025", "tree_height": 18.9, "crown_radius": 2.1, "height_source": "lidar2025" }, "geometry": { "type": "Point", "coordinates": [ 285264.5, 4160737.5 ] } },
{ "type": "Feature", "properties": { "id": "lidar-tree:285272:4160740", "name": null, "kind": "tree", "species": null, "source": "lidar2025", "tree_height": 18.1, "crown_radius": 2.5, "height_source": "lidar2025" }, "geometry": { "type": "Point", "coordinates": [ 285272.5, 4160739.5 ] } },
{ "type": "Feature", "properties": { "id": "lidar-tree:285274:4160744", "name": null, "kind": "tree", "species": null, "source": "lidar2025", "tree_height": 19.7, "crown_radius": 2.3, "height_source": "lidar2025" }, "geometry": { "type": "Point", "coordinates": [ 285274.5, 4160744.5 ] } },
{ "type": "Feature", "properties": { "id": "lidar-tree:285268:4160744", "name": null, "kind": "tree", "species": null, "source": "lidar2025", "tree_height": 13.7, "crown_radius": 2.4, "height_source": "lidar2025" }, "geometry": { "type": "Point", "coordinates": [ 285268.5, 4160744.5 ] } },
{ "type": "Feature", "properties": { "id": "lidar-tree:285274:4160750", "name": null, "kind": "tree", "species": null, "source": "lidar2025", "tree_height": 14.3, "crown_radius": 2.3, "height_source": "lidar2025" }, "geometry": { "type": "Point", "coordinates": [ 285273.5, 4160749.5 ] } },
{ "type": "Feature", "properties": { "id": "lidar-tree:285280:4160730", "name": null, "kind": "tree", "species": null, "source": "lidar2025", "tree_height": 14.8, "crown_radius": 1.8, "height_source": "lidar2025" }, "geometry": { "type": "Point", "coordinates": [ 285279.5, 4160729.5 ] } },
{ "type": "Feature", "properties": { "id": "lidar-tree:285278:4160734", "name": null, "kind": "tree", "species": null, "source": "lidar2025", "tree_height": 20.5, "crown_radius": 2.2, "height_source": "lidar2025" }, "geometry": { "type": "Point", "coordinates": [ 285278.5, 4160733.5 ] } },
{ "type": "Feature", "properties": { "id": "lidar-tree:285282:4160742", "name": null, "kind": "tree", "species": null, "source": "lidar2025", "tree_height": 16.9, "crown_radius": 2.2, "height_source": "lidar2025" }, "geometry": { "type": "Point", "coordinates": [ 285282.5, 4160742.5 ] } },
{ "type": "Feature", "properties": { "id": "lidar-tree:285382:4160744", "name": null, "kind": "tree", "species": null, "source": "lidar2025", "tree_height": 12.2, "crown_radius": 1.6, "height_source": "lidar2025" }, "geometry": { "type": "Point", "coordinates": [ 285381.5, 4160743.5 ] } }
]
}
